No errors
Max results hit (1000): not all possible results returned; 
43 ms
data source=metars
1000 results
raw_text,station_id,observation_time,latitude,longitude,temp_c,dewpoint_c,wind_dir_degrees,wind_speed_kt,wind_gust_kt,visibility_statute_mi,altim_in_hg,sea_level_pressure_mb,corrected,auto,auto_station,maintenance_indicator_on,no_signal,lightning_sensor_off,freezing_rain_sensor_off,present_weather_sensor_off,wx_string,sky_cover,cloud_base_ft_agl,sky_cover,cloud_base_ft_agl,sky_cover,cloud_base_ft_agl,sky_cover,cloud_base_ft_agl,flight_category,three_hr_pressure_tendency_mb,maxT_c,minT_c,maxT24hr_c,minT24hr_c,precip_in,pcp3hr_in,pcp6hr_in,pcp24hr_in,snow_in,vert_vis_ft,metar_type,elevation_m
K4S1 021655Z AUTO 00000KT 5SM HZ CLR 05/02 A3020 RMK AO2,K4S1,2023-03-02T16:55:00Z,42.42,-124.42,5.0,2.0,0,0,,5.0,30.200787,,,TRUE,TRUE,,,,,,HZ,CLR,,,,,,,,MVFR,,,,,,,,,,,,METAR,7.0
K4S1 021635Z AUTO 00000KT 5SM HZ CLR 05/02 A3020 RMK AO2,K4S1,2023-03-02T16:35:00Z,42.42,-124.42,5.0,2.0,0,0,,5.0,30.200787,,,TRUE,TRUE,,,,,,HZ,CLR,,,,,,,,MVFR,,,,,,,,,,,,METAR,7.0
K4S1 021615Z AUTO 05007KT 5SM HZ CLR 04/01 A3020 RMK AO2,K4S1,2023-03-02T16:15:00Z,42.42,-124.42,4.0,1.0,50,7,,5.0,30.200787,,,TRUE,TRUE,,,,,,HZ,CLR,,,,,,,,MVFR,,,,,,,,,,,,METAR,7.0
K4S1 021555Z AUTO 04007KT 10SM -DZ CLR 03/01 A3021 RMK AO2,K4S1,2023-03-02T15:55:00Z,42.42,-124.42,3.0,1.0,40,7,,10.0,30.209646,,,TRUE,TRUE,,,,,,-DZ,CLR,,,,,,,,VFR,,,,,,,,,,,,METAR,7.0
K4S1 021535Z AUTO 05008KT 7SM CLR 03/01 A3020 RMK AO2,K4S1,2023-03-02T15:35:00Z,42.42,-124.42,3.0,1.0,50,8,,7.0,30.200787,,,TRUE,TRUE,,,,,,,CLR,,,,,,,,VFR,,,,,,,,,,,,METAR,7.0
K4S1 021515Z AUTO 05011KT 7SM CLR 03/01 A3021 RMK AO2,K4S1,2023-03-02T15:15:00Z,42.42,-124.42,3.0,1.0,50,11,,7.0,30.209646,,,TRUE,TRUE,,,,,,,CLR,,,,,,,,VFR,,,,,,,,,,,,METAR,7.0
K4S1 021455Z AUTO 05010KT 7SM CLR 03/01 A3021 RMK AO2,K4S1,2023-03-02T14:55:00Z,42.42,-124.42,3.0,1.0,50,10,,7.0,30.209646,,,TRUE,TRUE,,,,,,,CLR,,,,,,,,VFR,,,,,,,,,,,,METAR,7.0
K4S1 021435Z AUTO 05010KT 7SM CLR 02/00 A3020 RMK AO2,K4S1,2023-03-02T14:35:00Z,42.42,-124.42,2.0,0.0,50,10,,7.0,30.200787,,,TRUE,TRUE,,,,,,,CLR,,,,,,,,VFR,,,,,,,,,,,,METAR,7.0
K4S1 021415Z AUTO 05010KT 10SM CLR 02/00 A3021 RMK AO2,K4S1,2023-03-02T14:15:00Z,42.42,-124.42,2.0,0.0,50,10,,10.0,30.209646,,,TRUE,TRUE,,,,,,,CLR,,,,,,,,VFR,,,,,,,,,,,,METAR,7.0
K4S1 021355Z AUTO 05010KT 7SM CLR 02/00 A3022 RMK AO2,K4S1,2023-03-02T13:55:00Z,42.42,-124.42,2.0,0.0,50,10,,7.0,30.221457,,,TRUE,TRUE,,,,,,,CLR,,,,,,,,VFR,,,,,,,,,,,,METAR,7.0
K4S1 021335Z AUTO 05011KT 7SM CLR 02/00 A3022 RMK AO2,K4S1,2023-03-02T13:35:00Z,42.42,-124.42,2.0,0.0,50,11,,7.0,30.221457,,,TRUE,TRUE,,,,,,,CLR,,,,,,,,VFR,,,,,,,,,,,,METAR,7.0
K4S1 021315Z AUTO 05010KT 7SM CLR 02/00 A3024 RMK AO2,K4S1,2023-03-02T13:15:00Z,42.42,-124.42,2.0,0.0,50,10,,7.0,30.239174,,,TRUE,TRUE,,,,,,,CLR,,,,,,,,VFR,,,,,,,,,,,,METAR,7.0
K4S1 021255Z AUTO 04010KT 7SM CLR 02/00 A3024 RMK AO2,K4S1,2023-03-02T12:55:00Z,42.42,-124.42,2.0,0.0,40,10,,7.0,30.239174,,,TRUE,TRUE,,,,,,,CLR,,,,,,,,VFR,,,,,,,,,,,,METAR,7.0
K4S1 021235Z AUTO 05011KT 7SM CLR 02/00 A3024 RMK AO2,K4S1,2023-03-02T12:35:00Z,42.42,-124.42,2.0,0.0,50,11,,7.0,30.239174,,,TRUE,TRUE,,,,,,,CLR,,,,,,,,VFR,,,,,,,,,,,,METAR,7.0
K4S1 021215Z AUTO 06008KT 7SM CLR 02/01 A3022 RMK AO2,K4S1,2023-03-02T12:15:00Z,42.42,-124.42,2.0,1.0,60,8,,7.0,30.221457,,,TRUE,TRUE,,,,,,,CLR,,,,,,,,VFR,,,,,,,,,,,,METAR,7.0
K4S1 021155Z AUTO 06008KT 7SM CLR 02/00 A3022 RMK AO2,K4S1,2023-03-02T11:55:00Z,42.42,-124.42,2.0,0.0,60,8,,7.0,30.221457,,,TRUE,TRUE,,,,,,,CLR,,,,,,,,VFR,,,,,,,,,,,,METAR,7.0
K4S1 021135Z AUTO 05010KT 7SM CLR 01/00 A3021 RMK AO2,K4S1,2023-03-02T11:35:00Z,42.42,-124.42,1.0,0.0,50,10,,7.0,30.209646,,,TRUE,TRUE,,,,,,,CLR,,,,,,,,VFR,,,,,,,,,,,,METAR,7.0
K4S1 021115Z AUTO 05012KT 7SM CLR 02/00 A3022 RMK AO2,K4S1,2023-03-02T11:15:00Z,42.42,-124.42,2.0,0.0,50,12,,7.0,30.221457,,,TRUE,TRUE,,,,,,,CLR,,,,,,,,VFR,,,,,,,,,,,,METAR,7.0
K4S1 021055Z AUTO 05011KT 7SM CLR 02/00 A3023 RMK AO2,K4S1,2023-03-02T10:55:00Z,42.42,-124.42,2.0,0.0,50,11,,7.0,30.230314,,,TRUE,TRUE,,,,,,,CLR,,,,,,,,VFR,,,,,,,,,,,,METAR,7.0
K4S1 021035Z AUTO 05012KT 7SM CLR 02/00 A3023 RMK AO2,K4S1,2023-03-02T10:35:00Z,42.42,-124.42,2.0,0.0,50,12,,7.0,30.230314,,,TRUE,TRUE,,,,,,,CLR,,,,,,,,VFR,,,,,,,,,,,,METAR,7.0
K4S1 021015Z AUTO 05011KT 7SM CLR 02/00 A3023 RMK AO2,K4S1,2023-03-02T10:15:00Z,42.42,-124.42,2.0,0.0,50,11,,7.0,30.230314,,,TRUE,TRUE,,,,,,,CLR,,,,,,,,VFR,,,,,,,,,,,,METAR,7.0
K4S1 020955Z AUTO 05011KT 7SM CLR 02/00 A3023 RMK AO2,K4S1,2023-03-02T09:55:00Z,42.42,-124.42,2.0,0.0,50,11,,7.0,30.230314,,,TRUE,TRUE,,,,,,,CLR,,,,,,,,VFR,,,,,,,,,,,,METAR,7.0
K4S1 020935Z AUTO 05010KT 7SM CLR 02/00 A3024 RMK AO2,K4S1,2023-03-02T09:35:00Z,42.42,-124.42,2.0,0.0,50,10,,7.0,30.239174,,,TRUE,TRUE,,,,,,,CLR,,,,,,,,VFR,,,,,,,,,,,,METAR,7.0
K4S1 020915Z AUTO 06010KT 7SM CLR 02/00 A3023 RMK AO2,K4S1,2023-03-02T09:15:00Z,42.42,-124.42,2.0,0.0,60,10,,7.0,30.230314,,,TRUE,TRUE,,,,,,,CLR,,,,,,,,VFR,,,,,,,,,,,,METAR,7.0
K4S1 020855Z AUTO 06007KT 7SM CLR 02/00 A3024 RMK AO2,K4S1,2023-03-02T08:55:00Z,42.42,-124.42,2.0,0.0,60,7,,7.0,30.239174,,,TRUE,TRUE,,,,,,,CLR,,,,,,,,VFR,,,,,,,,,,,,METAR,7.0
K4S1 020835Z AUTO 06009KT 7SM CLR 02/00 A3024 RMK AO2,K4S1,2023-03-02T08:35:00Z,42.42,-124.42,2.0,0.0,60,9,,7.0,30.239174,,,TRUE,TRUE,,,,,,,CLR,,,,,,,,VFR,,,,,,,,,,,,METAR,7.0
K4S1 020815Z AUTO 06009KT 7SM CLR 02/00 A3024 RMK AO2,K4S1,2023-03-02T08:15:00Z,42.42,-124.42,2.0,0.0,60,9,,7.0,30.239174,,,TRUE,TRUE,,,,,,,CLR,,,,,,,,VFR,,,,,,,,,,,,METAR,7.0
K4S1 020755Z AUTO 05011KT 7SM CLR 02/00 A3024 RMK AO2,K4S1,2023-03-02T07:55:00Z,42.42,-124.42,2.0,0.0,50,11,,7.0,30.239174,,,TRUE,TRUE,,,,,,,CLR,,,,,,,,VFR,,,,,,,,,,,,METAR,7.0
K4S1 020735Z AUTO 04011KT 7SM CLR 02/00 A3024 RMK AO2,K4S1,2023-03-02T07:35:00Z,42.42,-124.42,2.0,0.0,40,11,,7.0,30.239174,,,TRUE,TRUE,,,,,,,CLR,,,,,,,,VFR,,,,,,,,,,,,METAR,7.0
K4S1 020715Z AUTO 05010KT 7SM CLR 02/00 A3025 RMK AO2,K4S1,2023-03-02T07:15:00Z,42.42,-124.42,2.0,0.0,50,10,,7.0,30.250984,,,TRUE,TRUE,,,,,,,CLR,,,,,,,,VFR,,,,,,,,,,,,METAR,7.0
K4S1 020655Z AUTO 04010KT 7SM CLR 02/00 A3024 RMK AO2,K4S1,2023-03-02T06:55:00Z,42.42,-124.42,2.0,0.0,40,10,,7.0,30.239174,,,TRUE,TRUE,,,,,,,CLR,,,,,,,,VFR,,,,,,,,,,,,METAR,7.0
K4S1 020635Z AUTO 05010KT 7SM CLR 02/00 A3023 RMK AO2,K4S1,2023-03-02T06:35:00Z,42.42,-124.42,2.0,0.0,50,10,,7.0,30.230314,,,TRUE,TRUE,,,,,,,CLR,,,,,,,,VFR,,,,,,,,,,,,METAR,7.0
K4S1 020615Z AUTO 05010KT 7SM CLR 02/01 A3023 RMK AO2,K4S1,2023-03-02T06:15:00Z,42.42,-124.42,2.0,1.0,50,10,,7.0,30.230314,,,TRUE,TRUE,,,,,,,CLR,,,,,,,,VFR,,,,,,,,,,,,METAR,7.0
K4S1 020555Z AUTO 05006KT 7SM CLR 02/01 A3023 RMK AO2,K4S1,2023-03-02T05:55:00Z,42.42,-124.42,2.0,1.0,50,6,,7.0,30.230314,,,TRUE,TRUE,,,,,,,CLR,,,,,,,,VFR,,,,,,,,,,,,METAR,7.0
K4S1 020535Z AUTO 05009KT 7SM CLR 02/01 A3022 RMK AO2,K4S1,2023-03-02T05:35:00Z,42.42,-124.42,2.0,1.0,50,9,,7.0,30.221457,,,TRUE,TRUE,,,,,,,CLR,,,,,,,,VFR,,,,,,,,,,,,METAR,7.0
K4S1 020515Z AUTO 04009KT 7SM CLR 03/01 A3021 RMK AO2,K4S1,2023-03-02T05:15:00Z,42.42,-124.42,3.0,1.0,40,9,,7.0,30.209646,,,TRUE,TRUE,,,,,,,CLR,,,,,,,,VFR,,,,,,,,,,,,METAR,7.0
K4S1 020455Z AUTO 05009KT 7SM CLR 03/01 A3021 RMK AO2,K4S1,2023-03-02T04:55:00Z,42.42,-124.42,3.0,1.0,50,9,,7.0,30.209646,,,TRUE,TRUE,,,,,,,CLR,,,,,,,,VFR,,,,,,,,,,,,METAR,7.0
K4S1 020435Z AUTO 05008KT 7SM CLR 03/01 A3020 RMK AO2,K4S1,2023-03-02T04:35:00Z,42.42,-124.42,3.0,1.0,50,8,,7.0,30.200787,,,TRUE,TRUE,,,,,,,CLR,,,,,,,,VFR,,,,,,,,,,,,METAR,7.0
K4S1 020415Z AUTO 06008KT 7SM CLR 03/01 A3021 RMK AO2,K4S1,2023-03-02T04:15:00Z,42.42,-124.42,3.0,1.0,60,8,,7.0,30.209646,,,TRUE,TRUE,,,,,,,CLR,,,,,,,,VFR,,,,,,,,,,,,METAR,7.0
K4S1 020355Z AUTO 05008KT 5SM HZ CLR 04/01 A3021 RMK AO2,K4S1,2023-03-02T03:55:00Z,42.42,-124.42,4.0,1.0,50,8,,5.0,30.209646,,,TRUE,TRUE,,,,,,HZ,CLR,,,,,,,,MVFR,,,,,,,,,,,,METAR,7.0
K4S1 020335Z AUTO 05007KT 7SM CLR 05/01 A3022 RMK AO2,K4S1,2023-03-02T03:35:00Z,42.42,-124.42,5.0,1.0,50,7,,7.0,30.221457,,,TRUE,TRUE,,,,,,,CLR,,,,,,,,VFR,,,,,,,,,,,,METAR,7.0
K4S1 020315Z AUTO 06004KT 7SM CLR 05/01 A3022 RMK AO2,K4S1,2023-03-02T03:15:00Z,42.42,-124.42,5.0,1.0,60,4,,7.0,30.221457,,,TRUE,TRUE,,,,,,,CLR,,,,,,,,VFR,,,,,,,,,,,,METAR,7.0
K4S1 020255Z AUTO 02009KT 5SM HZ CLR 06/02 A3021 RMK AO2,K4S1,2023-03-02T02:55:00Z,42.42,-124.42,6.0,2.0,20,9,,5.0,30.209646,,,TRUE,TRUE,,,,,,HZ,CLR,,,,,,,,MVFR,,,,,,,,,,,,METAR,7.0
K4S1 020235Z AUTO 36010KT 7SM CLR 06/02 A3021 RMK AO2,K4S1,2023-03-02T02:35:00Z,42.42,-124.42,6.0,2.0,360,10,,7.0,30.209646,,,TRUE,TRUE,,,,,,,CLR,,,,,,,,VFR,,,,,,,,,,,,METAR,7.0
K4S1 020215Z AUTO 36009KT 7SM CLR 06/02 A3019 RMK AO2,K4S1,2023-03-02T02:15:00Z,42.42,-124.42,6.0,2.0,360,9,,7.0,30.188976,,,TRUE,TRUE,,,,,,,CLR,,,,,,,,VFR,,,,,,,,,,,,METAR,7.0
K4S1 020155Z AUTO 36009KT 5SM HZ CLR 07/02 A3019 RMK AO2,K4S1,2023-03-02T01:55:00Z,42.42,-124.42,7.0,2.0,360,9,,5.0,30.188976,,,TRUE,TRUE,,,,,,HZ,CLR,,,,,,,,MVFR,,,,,,,,,,,,METAR,7.0
K4S1 020135Z AUTO 36011KT 5SM HZ CLR 07/02 A3019 RMK AO2,K4S1,2023-03-02T01:35:00Z,42.42,-124.42,7.0,2.0,360,11,,5.0,30.188976,,,TRUE,TRUE,,,,,,HZ,CLR,,,,,,,,MVFR,,,,,,,,,,,,METAR,7.0
K4S1 020115Z AUTO 35011KT 5SM HZ CLR 07/02 A3019 RMK AO2,K4S1,2023-03-02T01:15:00Z,42.42,-124.42,7.0,2.0,350,11,,5.0,30.188976,,,TRUE,TRUE,,,,,,HZ,CLR,,,,,,,,MVFR,,,,,,,,,,,,METAR,7.0
K4S1 020055Z AUTO 35015G19KT 7SM CLR 07/01 A3019 RMK AO2,K4S1,2023-03-02T00:55:00Z,42.42,-124.42,7.0,1.0,350,15,19,7.0,30.188976,,,TRUE,TRUE,,,,,,,CLR,,,,,,,,VFR,,,,,,,,,,,,METAR,7.0
K4S1 020035Z AUTO 35014G17KT 5SM HZ CLR 08/01 A3018 RMK AO2,K4S1,2023-03-02T00:35:00Z,42.42,-124.42,8.0,1.0,350,14,17,5.0,30.180119,,,TRUE,TRUE,,,,,,HZ,CLR,,,,,,,,MVFR,,,,,,,,,,,,METAR,7.0
K4S1 020015Z AUTO 35012G19KT 5SM HZ CLR 08/02 A3018 RMK AO2,K4S1,2023-03-02T00:15:00Z,42.42,-124.42,8.0,2.0,350,12,19,5.0,30.180119,,,TRUE,TRUE,,,,,,HZ,CLR,,,,,,,,MVFR,,,,,,,,,,,,METAR,7.0
K4S1 012355Z AUTO 34015G19KT 4SM HZ CLR 08/02 A3018 RMK AO2,K4S1,2023-03-01T23:55:00Z,42.42,-124.42,8.0,2.0,340,15,19,4.0,30.180119,,,TRUE,TRUE,,,,,,HZ,CLR,,,,,,,,MVFR,,,,,,,,,,,,METAR,7.0
K4S1 012335Z AUTO 34012KT 5SM HZ CLR 08/02 A3017 RMK AO2,K4S1,2023-03-01T23:35:00Z,42.42,-124.42,8.0,2.0,340,12,,5.0,30.171259,,,TRUE,TRUE,,,,,,HZ,CLR,,,,,,,,MVFR,,,,,,,,,,,,METAR,7.0
K4S1 012315Z AUTO 35012KT 5SM HZ CLR 08/02 A3017 RMK AO2,K4S1,2023-03-01T23:15:00Z,42.42,-124.42,8.0,2.0,350,12,,5.0,30.171259,,,TRUE,TRUE,,,,,,HZ,CLR,,,,,,,,MVFR,,,,,,,,,,,,METAR,7.0
K4S1 012255Z AUTO 35013G18KT 5SM HZ CLR 08/02 A3017 RMK AO2,K4S1,2023-03-01T22:55:00Z,42.42,-124.42,8.0,2.0,350,13,18,5.0,30.171259,,,TRUE,TRUE,,,,,,HZ,CLR,,,,,,,,MVFR,,,,,,,,,,,,METAR,7.0
K4S1 012235Z AUTO 34012KT 4SM HZ CLR 08/02 A3017 RMK AO2,K4S1,2023-03-01T22:35:00Z,42.42,-124.42,8.0,2.0,340,12,,4.0,30.171259,,,TRUE,TRUE,,,,,,HZ,CLR,,,,,,,,MVFR,,,,,,,,,,,,METAR,7.0
K4S1 012215Z AUTO 33012KT 5SM HZ CLR 09/00 A3017 RMK AO2,K4S1,2023-03-01T22:15:00Z,42.42,-124.42,9.0,0.0,330,12,,5.0,30.171259,,,TRUE,TRUE,,,,,,HZ,CLR,,,,,,,,MVFR,,,,,,,,,,,,METAR,7.0
K4S1 012155Z AUTO 36012KT 5SM HZ CLR 08/00 A3016 RMK AO2,K4S1,2023-03-01T21:55:00Z,42.42,-124.42,8.0,0.0,360,12,,5.0,30.159449,,,TRUE,TRUE,,,,,,HZ,CLR,,,,,,,,MVFR,,,,,,,,,,,,METAR,7.0
K4S1 012135Z AUTO 35009KT 4SM HZ CLR 08/01 A3016 RMK AO2,K4S1,2023-03-01T21:35:00Z,42.42,-124.42,8.0,1.0,350,9,,4.0,30.159449,,,TRUE,TRUE,,,,,,HZ,CLR,,,,,,,,MVFR,,,,,,,,,,,,METAR,7.0
K4S1 012115Z AUTO 34010KT 5SM HZ CLR 08/01 A3015 RMK AO2,K4S1,2023-03-01T21:15:00Z,42.42,-124.42,8.0,1.0,340,10,,5.0,30.15059,,,TRUE,TRUE,,,,,,HZ,CLR,,,,,,,,MVFR,,,,,,,,,,,,METAR,7.0
K4S1 012055Z AUTO 34009KT 4SM HZ CLR 08/01 A3015 RMK AO2,K4S1,2023-03-01T20:55:00Z,42.42,-124.42,8.0,1.0,340,9,,4.0,30.15059,,,TRUE,TRUE,,,,,,HZ,CLR,,,,,,,,MVFR,,,,,,,,,,,,METAR,7.0
K4S1 012035Z AUTO 36008KT 5SM HZ CLR 08/01 A3016 RMK AO2,K4S1,2023-03-01T20:35:00Z,42.42,-124.42,8.0,1.0,360,8,,5.0,30.159449,,,TRUE,TRUE,,,,,,HZ,CLR,,,,,,,,MVFR,,,,,,,,,,,,METAR,7.0
K4S1 012015Z AUTO 34008KT 4SM HZ CLR 07/01 A3016 RMK AO2,K4S1,2023-03-01T20:15:00Z,42.42,-124.42,7.0,1.0,340,8,,4.0,30.159449,,,TRUE,TRUE,,,,,,HZ,CLR,,,,,,,,MVFR,,,,,,,,,,,,METAR,7.0
K4S1 011955Z AUTO 04009KT 7SM CLR 08/01 A3016 RMK AO2,K4S1,2023-03-01T19:55:00Z,42.42,-124.42,8.0,1.0,40,9,,7.0,30.159449,,,TRUE,TRUE,,,,,,,CLR,,,,,,,,VFR,,,,,,,,,,,,METAR,7.0
K4S1 011935Z AUTO 04009G14KT 7SM CLR 08/02 A3015 RMK AO2,K4S1,2023-03-01T19:35:00Z,42.42,-124.42,8.0,2.0,40,9,14,7.0,30.15059,,,TRUE,TRUE,,,,,,,CLR,,,,,,,,VFR,,,,,,,,,,,,METAR,7.0
K4S1 011915Z AUTO 04009KT 5SM HZ CLR 07/02 A3015 RMK AO2,K4S1,2023-03-01T19:15:00Z,42.42,-124.42,7.0,2.0,40,9,,5.0,30.15059,,,TRUE,TRUE,,,,,,HZ,CLR,,,,,,,,MVFR,,,,,,,,,,,,METAR,7.0
K4S1 011855Z AUTO 05008KT 4SM HZ CLR 07/02 A3014 RMK AO2,K4S1,2023-03-01T18:55:00Z,42.42,-124.42,7.0,2.0,50,8,,4.0,30.138779,,,TRUE,TRUE,,,,,,HZ,CLR,,,,,,,,MVFR,,,,,,,,,,,,METAR,7.0
K4S1 011835Z AUTO 04007KT 5SM HZ CLR 06/02 A3014 RMK AO2,K4S1,2023-03-01T18:35:00Z,42.42,-124.42,6.0,2.0,40,7,,5.0,30.138779,,,TRUE,TRUE,,,,,,HZ,CLR,,,,,,,,MVFR,,,,,,,,,,,,METAR,7.0
K4S1 011815Z AUTO 05007KT 5SM HZ CLR 06/02 A3013 RMK AO2,K4S1,2023-03-01T18:15:00Z,42.42,-124.42,6.0,2.0,50,7,,5.0,30.129921,,,TRUE,TRUE,,,,,,HZ,CLR,,,,,,,,MVFR,,,,,,,,,,,,METAR,7.0
K4S1 011755Z AUTO 06007KT 7SM CLR 05/02 A3013 RMK AO2,K4S1,2023-03-01T17:55:00Z,42.42,-124.42,5.0,2.0,60,7,,7.0,30.129921,,,TRUE,TRUE,,,,,,,CLR,,,,,,,,VFR,,,,,,,,,,,,METAR,7.0
K4S1 011735Z AUTO 06007KT 5SM BR CLR 04/02 A3012 RMK AO2,K4S1,2023-03-01T17:35:00Z,42.42,-124.42,4.0,2.0,60,7,,5.0,30.121063,,,TRUE,TRUE,,,,,,BR,CLR,,,,,,,,MVFR,,,,,,,,,,,,METAR,7.0
K4S1 011715Z AUTO 06008KT 5SM BR CLR 03/01 A3011 RMK AO2,K4S1,2023-03-01T17:15:00Z,42.42,-124.42,3.0,1.0,60,8,,5.0,30.109253,,,TRUE,TRUE,,,,,,BR,CLR,,,,,,,,MVFR,,,,,,,,,,,,METAR,7.0
K4S1 011655Z AUTO 05008KT 7SM CLR 02/01 A3010 RMK AO2,K4S1,2023-03-01T16:55:00Z,42.42,-124.42,2.0,1.0,50,8,,7.0,30.100393,,,TRUE,TRUE,,,,,,,CLR,,,,,,,,VFR,,,,,,,,,,,,METAR,7.0
K4S1 011635Z AUTO 05010KT 5SM BR CLR 01/00 A3009 RMK AO2,K4S1,2023-03-01T16:35:00Z,42.42,-124.42,1.0,0.0,50,10,,5.0,30.088583,,,TRUE,TRUE,,,,,,BR,CLR,,,,,,,,MVFR,,,,,,,,,,,,METAR,7.0
K4S1 011615Z AUTO 06010KT 5SM BR CLR 01/00 A3007 RMK AO2,K4S1,2023-03-01T16:15:00Z,42.42,-124.42,1.0,0.0,60,10,,5.0,30.070866,,,TRUE,TRUE,,,,,,BR,CLR,,,,,,,,MVFR,,,,,,,,,,,,METAR,7.0
K4S1 011555Z AUTO 06010KT 5SM BR CLR 00/00 A3006 RMK AO2,K4S1,2023-03-01T15:55:00Z,42.42,-124.42,0.0,0.0,60,10,,5.0,30.059055,,,TRUE,TRUE,,,,,,BR,CLR,,,,,,,,MVFR,,,,,,,,,,,,METAR,7.0
K4S1 011535Z AUTO 05010KT 5SM BR CLR 00/00 A3006 RMK AO2,K4S1,2023-03-01T15:35:00Z,42.42,-124.42,0.0,0.0,50,10,,5.0,30.059055,,,TRUE,TRUE,,,,,,BR,CLR,,,,,,,,MVFR,,,,,,,,,,,,METAR,7.0
K4S1 011515Z AUTO 06010KT 7SM CLR 00/00 A3005 RMK AO2,K4S1,2023-03-01T15:15:00Z,42.42,-124.42,0.0,0.0,60,10,,7.0,30.050198,,,TRUE,TRUE,,,,,,,CLR,,,,,,,,VFR,,,,,,,,,,,,METAR,7.0
K4S1 011455Z AUTO 06009KT 7SM CLR 00/00 A3004 RMK AO2,K4S1,2023-03-01T14:55:00Z,42.42,-124.42,0.0,0.0,60,9,,7.0,30.041338,,,TRUE,TRUE,,,,,,,CLR,,,,,,,,VFR,,,,,,,,,,,,METAR,7.0
K4S1 011435Z AUTO 05010KT 7SM CLR 00/M01 A3003 RMK AO2,K4S1,2023-03-01T14:35:00Z,42.42,-124.42,0.0,-1.0,50,10,,7.0,30.029528,,,TRUE,TRUE,,,,,,,CLR,,,,,,,,VFR,,,,,,,,,,,,METAR,7.0
K4S1 011415Z AUTO 05010KT 7SM CLR 00/M01 A3002 RMK AO2,K4S1,2023-03-01T14:15:00Z,42.42,-124.42,0.0,-1.0,50,10,,7.0,30.02067,,,TRUE,TRUE,,,,,,,CLR,,,,,,,,VFR,,,,,,,,,,,,METAR,7.0
K4S1 011355Z AUTO 05010KT 7SM CLR 00/00 A3001 RMK AO2,K4S1,2023-03-01T13:55:00Z,42.42,-124.42,0.0,0.0,50,10,,7.0,30.008858,,,TRUE,TRUE,,,,,,,CLR,,,,,,,,VFR,,,,,,,,,,,,METAR,7.0
K4S1 011335Z AUTO 05011KT 7SM CLR 00/00 A3000 RMK AO2,K4S1,2023-03-01T13:35:00Z,42.42,-124.42,0.0,0.0,50,11,,7.0,30.0,,,TRUE,TRUE,,,,,,,CLR,,,,,,,,VFR,,,,,,,,,,,,METAR,7.0
K4S1 011315Z AUTO 05011KT 7SM CLR 00/00 A2999 RMK AO2,K4S1,2023-03-01T13:15:00Z,42.42,-124.42,0.0,0.0,50,11,,7.0,29.991142,,,TRUE,TRUE,,,,,,,CLR,,,,,,,,VFR,,,,,,,,,,,,METAR,7.0
K4S1 011255Z AUTO 05009KT 7SM CLR 00/00 A2998 RMK AO2,K4S1,2023-03-01T12:55:00Z,42.42,-124.42,0.0,0.0,50,9,,7.0,29.97933,,,TRUE,TRUE,,,,,,,CLR,,,,,,,,VFR,,,,,,,,,,,,METAR,7.0
K4S1 011235Z AUTO 05010KT 7SM CLR 00/00 A2996 RMK AO2,K4S1,2023-03-01T12:35:00Z,42.42,-124.42,0.0,0.0,50,10,,7.0,29.958662,,,TRUE,TRUE,,,,,,,CLR,,,,,,,,VFR,,,,,,,,,,,,METAR,7.0
K4S1 011215Z AUTO 05009KT 7SM CLR 00/00 A2996 RMK AO2,K4S1,2023-03-01T12:15:00Z,42.42,-124.42,0.0,0.0,50,9,,7.0,29.958662,,,TRUE,TRUE,,,,,,,CLR,,,,,,,,VFR,,,,,,,,,,,,METAR,7.0
K4S1 011155Z AUTO 06009KT 7SM CLR 00/00 A2995 RMK AO2,K4S1,2023-03-01T11:55:00Z,42.42,-124.42,0.0,0.0,60,9,,7.0,29.949802,,,TRUE,TRUE,,,,,,,CLR,,,,,,,,VFR,,,,,,,,,,,,METAR,7.0
K4S1 011135Z AUTO 05008KT 7SM CLR 00/00 A2994 RMK AO2,K4S1,2023-03-01T11:35:00Z,42.42,-124.42,0.0,0.0,50,8,,7.0,29.940945,,,TRUE,TRUE,,,,,,,CLR,,,,,,,,VFR,,,,,,,,,,,,METAR,7.0
K4S1 011115Z AUTO 05008KT 7SM CLR 00/00 A2993 RMK AO2,K4S1,2023-03-01T11:15:00Z,42.42,-124.42,0.0,0.0,50,8,,7.0,29.929134,,,TRUE,TRUE,,,,,,,CLR,,,,,,,,VFR,,,,,,,,,,,,METAR,7.0
K4S1 011055Z AUTO 05007KT 7SM CLR 00/00 A2992 RMK AO2,K4S1,2023-03-01T10:55:00Z,42.42,-124.42,0.0,0.0,50,7,,7.0,29.920275,,,TRUE,TRUE,,,,,,,CLR,,,,,,,,VFR,,,,,,,,,,,,METAR,7.0
K4S1 011035Z AUTO 06008KT 7SM CLR 00/00 A2991 RMK AO2,K4S1,2023-03-01T10:35:00Z,42.42,-124.42,0.0,0.0,60,8,,7.0,29.911417,,,TRUE,TRUE,,,,,,,CLR,,,,,,,,VFR,,,,,,,,,,,,METAR,7.0
K4S1 011015Z AUTO 05007KT 10SM CLR 00/00 A2990 RMK AO2,K4S1,2023-03-01T10:15:00Z,42.42,-124.42,0.0,0.0,50,7,,10.0,29.899607,,,TRUE,TRUE,,,,,,,CLR,,,,,,,,VFR,,,,,,,,,,,,METAR,7.0
K4S1 010955Z AUTO 05008KT 7SM CLR 00/00 A2990 RMK AO2,K4S1,2023-03-01T09:55:00Z,42.42,-124.42,0.0,0.0,50,8,,7.0,29.899607,,,TRUE,TRUE,,,,,,,CLR,,,,,,,,VFR,,,,,,,,,,,,METAR,7.0
K4S1 010935Z AUTO 05007KT 7SM CLR 00/00 A2989 RMK AO2,K4S1,2023-03-01T09:35:00Z,42.42,-124.42,0.0,0.0,50,7,,7.0,29.890747,,,TRUE,TRUE,,,,,,,CLR,,,,,,,,VFR,,,,,,,,,,,,METAR,7.0
K4S1 010915Z AUTO 05007KT 7SM CLR 00/00 A2989 RMK AO2,K4S1,2023-03-01T09:15:00Z,42.42,-124.42,0.0,0.0,50,7,,7.0,29.890747,,,TRUE,TRUE,,,,,,,CLR,,,,,,,,VFR,,,,,,,,,,,,METAR,7.0
K4S1 010855Z AUTO 05007KT 7SM CLR 00/00 A2989 RMK AO2,K4S1,2023-03-01T08:55:00Z,42.42,-124.42,0.0,0.0,50,7,,7.0,29.890747,,,TRUE,TRUE,,,,,,,CLR,,,,,,,,VFR,,,,,,,,,,,,METAR,7.0
K4S1 010835Z AUTO 04007KT 7SM CLR 00/00 A2988 RMK AO2,K4S1,2023-03-01T08:35:00Z,42.42,-124.42,0.0,0.0,40,7,,7.0,29.878937,,,TRUE,TRUE,,,,,,,CLR,,,,,,,,VFR,,,,,,,,,,,,METAR,7.0
K4S1 010815Z AUTO 05007KT 7SM CLR 00/00 A2987 RMK AO2,K4S1,2023-03-01T08:15:00Z,42.42,-124.42,0.0,0.0,50,7,,7.0,29.870079,,,TRUE,TRUE,,,,,,,CLR,,,,,,,,VFR,,,,,,,,,,,,METAR,7.0
K4S1 010755Z AUTO 05007KT 7SM CLR 00/00 A2986 RMK AO2,K4S1,2023-03-01T07:55:00Z,42.42,-124.42,0.0,0.0,50,7,,7.0,29.861221,,,TRUE,TRUE,,,,,,,CLR,,,,,,,,VFR,,,,,,,,,,,,METAR,7.0
K4S1 010735Z AUTO 05006KT 7SM CLR 00/00 A2985 RMK AO2,K4S1,2023-03-01T07:35:00Z,42.42,-124.42,0.0,0.0,50,6,,7.0,29.84941,,,TRUE,TRUE,,,,,,,CLR,,,,,,,,VFR,,,,,,,,,,,,METAR,7.0
K4S1 010715Z AUTO 05007KT 7SM CLR 00/00 A2985 RMK AO2,K4S1,2023-03-01T07:15:00Z,42.42,-124.42,0.0,0.0,50,7,,7.0,29.84941,,,TRUE,TRUE,,,,,,,CLR,,,,,,,,VFR,,,,,,,,,,,,METAR,7.0
K4S1 010655Z AUTO 05008KT 7SM CLR 00/00 A2984 RMK AO2,K4S1,2023-03-01T06:55:00Z,42.42,-124.42,0.0,0.0,50,8,,7.0,29.840551,,,TRUE,TRUE,,,,,,,CLR,,,,,,,,VFR,,,,,,,,,,,,METAR,7.0
K4S1 010635Z AUTO 05010KT 7SM SCT001 01/00 A2983 RMK AO2,K4S1,2023-03-01T06:35:00Z,42.42,-124.42,1.0,0.0,50,10,,7.0,29.828741,,,TRUE,TRUE,,,,,,,SCT,100,,,,,,,VFR,,,,,,,,,,,,METAR,7.0
K4S1 010615Z AUTO 04007KT 7SM CLR 01/00 A2982 RMK AO2,K4S1,2023-03-01T06:15:00Z,42.42,-124.42,1.0,0.0,40,7,,7.0,29.819881,,,TRUE,TRUE,,,,,,,CLR,,,,,,,,VFR,,,,,,,,,,,,METAR,7.0
K4S1 010555Z AUTO 05007KT 7SM CLR 01/00 A2981 RMK AO2,K4S1,2023-03-01T05:55:00Z,42.42,-124.42,1.0,0.0,50,7,,7.0,29.811024,,,TRUE,TRUE,,,,,,,CLR,,,,,,,,VFR,,,,,,,,,,,,METAR,7.0
K4S1 010535Z AUTO 00000KT 7SM CLR 01/00 A2981 RMK AO2,K4S1,2023-03-01T05:35:00Z,42.42,-124.42,1.0,0.0,0,0,,7.0,29.811024,,,TRUE,TRUE,,,,,,,CLR,,,,,,,,VFR,,,,,,,,,,,,METAR,7.0
K4S1 010515Z AUTO 00000KT 5SM BR CLR 01/00 A2980 RMK AO2,K4S1,2023-03-01T05:15:00Z,42.42,-124.42,1.0,0.0,0,0,,5.0,29.799213,,,TRUE,TRUE,,,,,,BR,CLR,,,,,,,,MVFR,,,,,,,,,,,,METAR,7.0
K4S1 010455Z AUTO 00000KT 5SM BR CLR 02/01 A2979 RMK AO2 P0003,K4S1,2023-03-01T04:55:00Z,42.42,-124.42,2.0,1.0,0,0,,5.0,29.790354,,,TRUE,TRUE,,,,,,BR,CLR,,,,,,,,MVFR,,,,,,0.03,,,,,,METAR,7.0
K4S1 010435Z AUTO 00000KT 7SM -RA CLR 01/01 A2978 RMK AO2 P0003,K4S1,2023-03-01T04:35:00Z,42.42,-124.42,1.0,1.0,0,0,,7.0,29.778543,,,TRUE,TRUE,,,,,,-RA,CLR,,,,,,,,VFR,,,,,,0.03,,,,,,METAR,7.0
K4S1 010415Z AUTO 06003KT 5SM -RA SCT013 02/01 A2978 RMK AO2 P0002,K4S1,2023-03-01T04:15:00Z,42.42,-124.42,2.0,1.0,60,3,,5.0,29.778543,,,TRUE,TRUE,,,,,,-RA,SCT,1300,,,,,,,MVFR,,,,,,0.02,,,,,,METAR,7.0
K4S1 010355Z AUTO 03004KT 7SM CLR 02/01 A2977 RMK AO2,K4S1,2023-03-01T03:55:00Z,42.42,-124.42,2.0,1.0,30,4,,7.0,29.769686,,,TRUE,TRUE,,,,,,,CLR,,,,,,,,VFR,,,,,,,,,,,,METAR,7.0
K4S1 010335Z AUTO 06004KT 7SM CLR 01/00 A2976 RMK AO2,K4S1,2023-03-01T03:35:00Z,42.42,-124.42,1.0,0.0,60,4,,7.0,29.760826,,,TRUE,TRUE,,,,,,,CLR,,,,,,,,VFR,,,,,,,,,,,,METAR,7.0
K4S1 010315Z AUTO 04006KT 7SM CLR 01/00 A2976 RMK AO2,K4S1,2023-03-01T03:15:00Z,42.42,-124.42,1.0,0.0,40,6,,7.0,29.760826,,,TRUE,TRUE,,,,,,,CLR,,,,,,,,VFR,,,,,,,,,,,,METAR,7.0
K4S1 010255Z AUTO 05004KT 7SM CLR 02/00 A2975 RMK AO2,K4S1,2023-03-01T02:55:00Z,42.42,-124.42,2.0,0.0,50,4,,7.0,29.749016,,,TRUE,TRUE,,,,,,,CLR,,,,,,,,VFR,,,,,,,,,,,,METAR,7.0
K4S1 010235Z AUTO 06007KT 7SM CLR 02/00 A2975 RMK AO2,K4S1,2023-03-01T02:35:00Z,42.42,-124.42,2.0,0.0,60,7,,7.0,29.749016,,,TRUE,TRUE,,,,,,,CLR,,,,,,,,VFR,,,,,,,,,,,,METAR,7.0
K4S1 010215Z AUTO 06005KT 10SM -RA CLR 03/01 A2975 RMK AO2,K4S1,2023-03-01T02:15:00Z,42.42,-124.42,3.0,1.0,60,5,,10.0,29.749016,,,TRUE,TRUE,,,,,,-RA,CLR,,,,,,,,VFR,,,,,,,,,,,,METAR,7.0
K4S1 010155Z AUTO 36007KT 330V030 7SM UP CLR 03/01 A2975 RMK AO2,K4S1,2023-03-01T01:55:00Z,42.42,-124.42,3.0,1.0,360,7,,7.0,29.749016,,,TRUE,TRUE,,,,,,UP,CLR,,,,,,,,VFR,,,,,,,,,,,,METAR,7.0
K4S1 010135Z AUTO 36011G16KT 4SM -RA SCT024 04/00 A2974 RMK AO2,K4S1,2023-03-01T01:35:00Z,42.42,-124.42,4.0,0.0,360,11,16,4.0,29.740158,,,TRUE,TRUE,,,,,,-RA,SCT,2400,,,,,,,MVFR,,,,,,,,,,,,METAR,7.0
K4S1 010115Z AUTO 00000KT 5SM HZ CLR 05/01 A2973 RMK AO2,K4S1,2023-03-01T01:15:00Z,42.42,-124.42,5.0,1.0,0,0,,5.0,29.731298,,,TRUE,TRUE,,,,,,HZ,CLR,,,,,,,,MVFR,,,,,,,,,,,,METAR,7.0
K4S1 010055Z AUTO 27006KT 4SM HZ CLR 05/01 A2973 RMK AO2,K4S1,2023-03-01T00:55:00Z,42.42,-124.42,5.0,1.0,270,6,,4.0,29.731298,,,TRUE,TRUE,,,,,,HZ,CLR,,,,,,,,MVFR,,,,,,,,,,,,METAR,7.0
K4S1 010035Z AUTO 29007KT 4SM HZ CLR 05/01 A2973 RMK AO2,K4S1,2023-03-01T00:35:00Z,42.42,-124.42,5.0,1.0,290,7,,4.0,29.731298,,,TRUE,TRUE,,,,,,HZ,CLR,,,,,,,,MVFR,,,,,,,,,,,,METAR,7.0
K4S1 010015Z AUTO 31016G19KT 7SM -DZ CLR 05/00 A2972 RMK AO2,K4S1,2023-03-01T00:15:00Z,42.42,-124.42,5.0,0.0,310,16,19,7.0,29.719488,,,TRUE,TRUE,,,,,,-DZ,CLR,,,,,,,,VFR,,,,,,,,,,,,METAR,7.0
K4S1 282355Z AUTO 00000KT 4SM HZ CLR 05/00 A2971 RMK AO2,K4S1,2023-02-28T23:55:00Z,42.42,-124.42,5.0,0.0,0,0,,4.0,29.71063,,,TRUE,TRUE,,,,,,HZ,CLR,,,,,,,,MVFR,,,,,,,,,,,,METAR,7.0
K4S1 282335Z AUTO 00000KT 4SM HZ CLR 05/01 A2972 RMK AO2,K4S1,2023-02-28T23:35:00Z,42.42,-124.42,5.0,1.0,0,0,,4.0,29.719488,,,TRUE,TRUE,,,,,,HZ,CLR,,,,,,,,MVFR,,,,,,,,,,,,METAR,7.0
K4S1 282315Z AUTO 30006G14KT 5SM -DZ SCT016 SCT023 05/01 A2971 RMK AO2,K4S1,2023-02-28T23:15:00Z,42.42,-124.42,5.0,1.0,300,6,14,5.0,29.71063,,,TRUE,TRUE,,,,,,-DZ,SCT,1600,SCT,2300,,,,,MVFR,,,,,,,,,,,,METAR,7.0
K4S1 282255Z AUTO 32016G22KT 3SM RA SCT016 SCT025 SCT047 05/01 A2971 RMK AO2,K4S1,2023-02-28T22:55:00Z,42.42,-124.42,5.0,1.0,320,16,22,3.0,29.71063,,,TRUE,TRUE,,,,,,RA,SCT,1600,SCT,2500,SCT,4700,,,MVFR,,,,,,,,,,,,METAR,7.0
K4S1 282235Z AUTO 21005KT 2 1/2SM HZ CLR 06/02 A2970 RMK AO2 VIS 2V4,K4S1,2023-02-28T22:35:00Z,42.42,-124.42,6.0,2.0,210,5,,2.5,29.698818,,,TRUE,TRUE,,,,,,HZ,CLR,,,,,,,,IFR,,,,,,,,,,,,METAR,7.0
K4S1 282215Z AUTO 20004KT 3SM HZ CLR 06/02 A2970 RMK AO2,K4S1,2023-02-28T22:15:00Z,42.42,-124.42,6.0,2.0,200,4,,3.0,29.698818,,,TRUE,TRUE,,,,,,HZ,CLR,,,,,,,,MVFR,,,,,,,,,,,,METAR,7.0
K4S1 282155Z AUTO 00000KT 5SM HZ CLR 05/02 A2971 RMK AO2 P0001,K4S1,2023-02-28T21:55:00Z,42.42,-124.42,5.0,2.0,0,0,,5.0,29.71063,,,TRUE,TRUE,,,,,,HZ,CLR,,,,,,,,MVFR,,,,,,0.01,,,,,,METAR,7.0
K4S1 282135Z AUTO 00000KT 5SM RA CLR 05/01 A2971 RMK AO2,K4S1,2023-02-28T21:35:00Z,42.42,-124.42,5.0,1.0,0,0,,5.0,29.71063,,,TRUE,TRUE,,,,,,RA,CLR,,,,,,,,MVFR,,,,,,,,,,,,METAR,7.0
K4S1 282115Z AUTO 16003KT 4SM HZ CLR 06/02 A2970 RMK AO2,K4S1,2023-02-28T21:15:00Z,42.42,-124.42,6.0,2.0,160,3,,4.0,29.698818,,,TRUE,TRUE,,,,,,HZ,CLR,,,,,,,,MVFR,,,,,,,,,,,,METAR,7.0
K4S1 282055Z AUTO 00000KT 7SM -RA CLR 04/01 A2971 RMK AO2,K4S1,2023-02-28T20:55:00Z,42.42,-124.42,4.0,1.0,0,0,,7.0,29.71063,,,TRUE,TRUE,,,,,,-RA,CLR,,,,,,,,VFR,,,,,,,,,,,,METAR,7.0
K4S1 282035Z AUTO 27003KT 7SM CLR 05/01 A2971 RMK AO2,K4S1,2023-02-28T20:35:00Z,42.42,-124.42,5.0,1.0,270,3,,7.0,29.71063,,,TRUE,TRUE,,,,,,,CLR,,,,,,,,VFR,,,,,,,,,,,,METAR,7.0
K4S1 282015Z AUTO 02004KT 5SM BR CLR 06/03 A2971 RMK AO2,K4S1,2023-02-28T20:15:00Z,42.42,-124.42,6.0,3.0,20,4,,5.0,29.71063,,,TRUE,TRUE,,,,,,BR,CLR,,,,,,,,MVFR,,,,,,,,,,,,METAR,7.0
K4S1 281955Z AUTO 05008KT 5SM BR CLR 05/03 A2971 RMK AO2,K4S1,2023-02-28T19:55:00Z,42.42,-124.42,5.0,3.0,50,8,,5.0,29.71063,,,TRUE,TRUE,,,,,,BR,CLR,,,,,,,,MVFR,,,,,,,,,,,,METAR,7.0
K4S1 281935Z AUTO 06004KT 4SM BR CLR 05/02 A2971 RMK AO2,K4S1,2023-02-28T19:35:00Z,42.42,-124.42,5.0,2.0,60,4,,4.0,29.71063,,,TRUE,TRUE,,,,,,BR,CLR,,,,,,,,MVFR,,,,,,,,,,,,METAR,7.0
K4S1 281915Z AUTO 36010KT 4SM BR CLR 04/02 A2971 RMK AO2,K4S1,2023-02-28T19:15:00Z,42.42,-124.42,4.0,2.0,360,10,,4.0,29.71063,,,TRUE,TRUE,,,,,,BR,CLR,,,,,,,,MVFR,,,,,,,,,,,,METAR,7.0
K4S1 281855Z AUTO 00000KT 5SM HZ CLR 06/02 A2970 RMK AO2,K4S1,2023-02-28T18:55:00Z,42.42,-124.42,6.0,2.0,0,0,,5.0,29.698818,,,TRUE,TRUE,,,,,,HZ,CLR,,,,,,,,MVFR,,,,,,,,,,,,METAR,7.0
K4S1 281835Z AUTO 06003KT 5SM HZ CLR 06/02 A2970 RMK AO2,K4S1,2023-02-28T18:35:00Z,42.42,-124.42,6.0,2.0,60,3,,5.0,29.698818,,,TRUE,TRUE,,,,,,HZ,CLR,,,,,,,,MVFR,,,,,,,,,,,,METAR,7.0
K4S1 281815Z AUTO 03008KT 06/02 A2970 RMK AO2,K4S1,2023-02-28T18:15:00Z,42.42,-124.42,6.0,2.0,30,8,,,29.698818,,,TRUE,TRUE,,,,,,,,,,,,,,,,,,,,,,,,,,,METAR,7.0
K4S1 281755Z AUTO 36010KT 3SM HZ CLR 05/02 A2970 RMK AO2,K4S1,2023-02-28T17:55:00Z,42.42,-124.42,5.0,2.0,360,10,,3.0,29.698818,,,TRUE,TRUE,,,,,,HZ,CLR,,,,,,,,MVFR,,,,,,,,,,,,METAR,7.0
K4S1 281735Z AUTO 32011KT 4SM HZ CLR 06/02 A2969 RMK AO2,K4S1,2023-02-28T17:35:00Z,42.42,-124.42,6.0,2.0,320,11,,4.0,29.68996,,,TRUE,TRUE,,,,,,HZ,CLR,,,,,,,,MVFR,,,,,,,,,,,,METAR,7.0
K4S1 281715Z AUTO 29010KT 4SM HZ SCT018 SCT027 05/02 A2969 RMK AO2,K4S1,2023-02-28T17:15:00Z,42.42,-124.42,5.0,2.0,290,10,,4.0,29.68996,,,TRUE,TRUE,,,,,,HZ,SCT,1800,SCT,2700,,,,,MVFR,,,,,,,,,,,,METAR,7.0
K4S1 281655Z AUTO 28009KT 3SM -RA SCT018 SCT027 05/01 A2969 RMK AO2 P0001,K4S1,2023-02-28T16:55:00Z,42.42,-124.42,5.0,1.0,280,9,,3.0,29.68996,,,TRUE,TRUE,,,,,,-RA,SCT,1800,SCT,2700,,,,,MVFR,,,,,,0.01,,,,,,METAR,7.0
K4S1 281635Z AUTO 24007KT 3SM HZ CLR 05/00 A2968 RMK AO2,K4S1,2023-02-28T16:35:00Z,42.42,-124.42,5.0,0.0,240,7,,3.0,29.681103,,,TRUE,TRUE,,,,,,HZ,CLR,,,,,,,,MVFR,,,,,,,,,,,,METAR,7.0
K4S1 281615Z AUTO 27012KT 5SM -DZ CLR 05/01 A2968 RMK AO2,K4S1,2023-02-28T16:15:00Z,42.42,-124.42,5.0,1.0,270,12,,5.0,29.681103,,,TRUE,TRUE,,,,,,-DZ,CLR,,,,,,,,MVFR,,,,,,,,,,,,METAR,7.0
K4S1 281555Z AUTO 27012KT 2 1/2SM HZ CLR 06/02 A2967 RMK AO2 VIS 2V5,K4S1,2023-02-28T15:55:00Z,42.42,-124.42,6.0,2.0,270,12,,2.5,29.66929,,,TRUE,TRUE,,,,,,HZ,CLR,,,,,,,,IFR,,,,,,,,,,,,METAR,7.0
K4S1 281535Z AUTO 26008KT 3SM HZ CLR 05/02 A2967 RMK AO2,K4S1,2023-02-28T15:35:00Z,42.42,-124.42,5.0,2.0,260,8,,3.0,29.66929,,,TRUE,TRUE,,,,,,HZ,CLR,,,,,,,,MVFR,,,,,,,,,,,,METAR,7.0
K4S1 281515Z AUTO 28011G22KT 5SM -DZ CLR 05/02 A2966 RMK AO2,K4S1,2023-02-28T15:15:00Z,42.42,-124.42,5.0,2.0,280,11,22,5.0,29.660433,,,TRUE,TRUE,,,,,,-DZ,CLR,,,,,,,,MVFR,,,,,,,,,,,,METAR,7.0
K4S1 281455Z AUTO 23011KT 3SM HZ CLR 06/02 A2966 RMK AO2,K4S1,2023-02-28T14:55:00Z,42.42,-124.42,6.0,2.0,230,11,,3.0,29.660433,,,TRUE,TRUE,,,,,,HZ,CLR,,,,,,,,MVFR,,,,,,,,,,,,METAR,7.0
K4S1 281435Z AUTO 24015G24KT 4SM HZ CLR 05/02 A2965 RMK AO2,K4S1,2023-02-28T14:35:00Z,42.42,-124.42,5.0,2.0,240,15,24,4.0,29.648623,,,TRUE,TRUE,,,,,,HZ,CLR,,,,,,,,MVFR,,,,,,,,,,,,METAR,7.0
K4S1 281415Z AUTO 26010G15KT 4SM HZ CLR 05/02 A2965 RMK AO2,K4S1,2023-02-28T14:15:00Z,42.42,-124.42,5.0,2.0,260,10,15,4.0,29.648623,,,TRUE,TRUE,,,,,,HZ,CLR,,,,,,,,MVFR,,,,,,,,,,,,METAR,7.0
K4S1 281355Z AUTO 23007KT 3SM BR CLR 05/03 A2965 RMK AO2,K4S1,2023-02-28T13:55:00Z,42.42,-124.42,5.0,3.0,230,7,,3.0,29.648623,,,TRUE,TRUE,,,,,,BR,CLR,,,,,,,,MVFR,,,,,,,,,,,,METAR,7.0
K4S1 281335Z AUTO 24006KT 4SM BR CLR 05/02 A2965 RMK AO2,K4S1,2023-02-28T13:35:00Z,42.42,-124.42,5.0,2.0,240,6,,4.0,29.648623,,,TRUE,TRUE,,,,,,BR,CLR,,,,,,,,MVFR,,,,,,,,,,,,METAR,7.0
K4S1 281315Z AUTO 27011G14KT 5SM BR CLR 05/03 A2965 RMK AO2,K4S1,2023-02-28T13:15:00Z,42.42,-124.42,5.0,3.0,270,11,14,5.0,29.648623,,,TRUE,TRUE,,,,,,BR,CLR,,,,,,,,MVFR,,,,,,,,,,,,METAR,7.0
K4S1 281255Z AUTO 28010G18KT 4SM BR CLR 04/02 A2964 RMK AO2,K4S1,2023-02-28T12:55:00Z,42.42,-124.42,4.0,2.0,280,10,18,4.0,29.639763,,,TRUE,TRUE,,,,,,BR,CLR,,,,,,,,MVFR,,,,,,,,,,,,METAR,7.0
K4S1 281235Z AUTO 24016KT 4SM BR CLR 05/04 A2963 RMK AO2,K4S1,2023-02-28T12:35:00Z,42.42,-124.42,5.0,4.0,240,16,,4.0,29.630905,,,TRUE,TRUE,,,,,,BR,CLR,,,,,,,,MVFR,,,,,,,,,,,,METAR,7.0
K4S1 281215Z AUTO 25016G25KT 4SM BR CLR 05/03 A2963 RMK AO2,K4S1,2023-02-28T12:15:00Z,42.42,-124.42,5.0,3.0,250,16,25,4.0,29.630905,,,TRUE,TRUE,,,,,,BR,CLR,,,,,,,,MVFR,,,,,,,,,,,,METAR,7.0
K4S1 281155Z AUTO 19011G23KT 3SM BR CLR 05/03 A2962 RMK AO2 P0005,K4S1,2023-02-28T11:55:00Z,42.42,-124.42,5.0,3.0,190,11,23,3.0,29.619095,,,TRUE,TRUE,,,,,,BR,CLR,,,,,,,,MVFR,,,,,,0.05,,,,,,METAR,7.0
K4S1 281135Z AUTO 22020G25KT 3SM BR SCT018 SCT027 05/03 A2963 RMK AO2 P0005,K4S1,2023-02-28T11:35:00Z,42.42,-124.42,5.0,3.0,220,20,25,3.0,29.630905,,,TRUE,TRUE,,,,,,BR,SCT,1800,SCT,2700,,,,,MVFR,,,,,,0.05,,,,,,METAR,7.0
K4S1 281115Z AUTO 22018G21KT 2SM RA SCT010 BKN020 BKN028 04/03 A2964 RMK AO2 P0004,K4S1,2023-02-28T11:15:00Z,42.42,-124.42,4.0,3.0,220,18,21,2.0,29.639763,,,TRUE,TRUE,,,,,,RA,SCT,1000,BKN,2000,BKN,2800,,,IFR,,,,,,0.04,,,,,,METAR,7.0
K4S1 281055Z AUTO 21010G31KT 2 1/2SM -RA SCT012 SCT018 BKN030 03/01 A2965 RMK AO2 P0017,K4S1,2023-02-28T10:55:00Z,42.42,-124.42,3.0,1.0,210,10,31,2.5,29.648623,,,TRUE,TRUE,,,,,,-RA,SCT,1200,SCT,1800,BKN,3000,,,IFR,,,,,,0.17,,,,,,METAR,7.0
K4S1 281035Z AUTO 16012G23KT 4SM -RA SCT016 SCT022 03/01 A2966 RMK AO2 P0008,K4S1,2023-02-28T10:35:00Z,42.42,-124.42,3.0,1.0,160,12,23,4.0,29.660433,,,TRUE,TRUE,,,,,,-RA,SCT,1600,SCT,2200,,,,,MVFR,,,,,,0.08,,,,,,METAR,7.0
K4S1 281015Z AUTO 21018G26KT 3SM RA SCT017 SCT022 03/01 A2967 RMK AO2 P0005,K4S1,2023-02-28T10:15:00Z,42.42,-124.42,3.0,1.0,210,18,26,3.0,29.66929,,,TRUE,TRUE,,,,,,RA,SCT,1700,SCT,2200,,,,,MVFR,,,,,,0.05,,,,,,METAR,7.0
K4S1 280955Z AUTO 17013G25KT 4SM -RA SCT017 03/01 A2967 RMK AO2 P0008,K4S1,2023-02-28T09:55:00Z,42.42,-124.42,3.0,1.0,170,13,25,4.0,29.66929,,,TRUE,TRUE,,,,,,-RA,SCT,1700,,,,,,,MVFR,,,,,,0.08,,,,,,METAR,7.0
K4S1 280935Z AUTO 20015G30KT 2 1/2SM RA SCT017 SCT041 05/01 A2968 RMK AO2 P0005,K4S1,2023-02-28T09:35:00Z,42.42,-124.42,5.0,1.0,200,15,30,2.5,29.681103,,,TRUE,TRUE,,,,,,RA,SCT,1700,SCT,4100,,,,,IFR,,,,,,0.05,,,,,,METAR,7.0
K4S1 280915Z AUTO 16010KT 7SM CLR 05/01 A2968 RMK AO2,K4S1,2023-02-28T09:15:00Z,42.42,-124.42,5.0,1.0,160,10,,7.0,29.681103,,,TRUE,TRUE,,,,,,,CLR,,,,,,,,VFR,,,,,,,,,,,,METAR,7.0
K4S1 280855Z AUTO 17012G16KT 7SM CLR 05/01 A2969 RMK AO2,K4S1,2023-02-28T08:55:00Z,42.42,-124.42,5.0,1.0,170,12,16,7.0,29.68996,,,TRUE,TRUE,,,,,,,CLR,,,,,,,,VFR,,,,,,,,,,,,METAR,7.0
K4S1 280835Z AUTO 16008KT 7SM CLR 05/01 A2970 RMK AO2,K4S1,2023-02-28T08:35:00Z,42.42,-124.42,5.0,1.0,160,8,,7.0,29.698818,,,TRUE,TRUE,,,,,,,CLR,,,,,,,,VFR,,,,,,,,,,,,METAR,7.0
K4S1 280815Z AUTO 16009G18KT 7SM -RA SCT017 05/00 A2971 RMK AO2,K4S1,2023-02-28T08:15:00Z,42.42,-124.42,5.0,0.0,160,9,18,7.0,29.71063,,,TRUE,TRUE,,,,,,-RA,SCT,1700,,,,,,,VFR,,,,,,,,,,,,METAR,7.0
K4S1 280755Z AUTO 16009KT 7SM CLR 05/01 A2972 RMK AO2,K4S1,2023-02-28T07:55:00Z,42.42,-124.42,5.0,1.0,160,9,,7.0,29.719488,,,TRUE,TRUE,,,,,,,CLR,,,,,,,,VFR,,,,,,,,,,,,METAR,7.0
K4S1 280735Z AUTO 16013KT 5SM HZ CLR 05/00 A2972 RMK AO2,K4S1,2023-02-28T07:35:00Z,42.42,-124.42,5.0,0.0,160,13,,5.0,29.719488,,,TRUE,TRUE,,,,,,HZ,CLR,,,,,,,,MVFR,,,,,,,,,,,,METAR,7.0
K4S1 280715Z AUTO 20011KT 3SM HZ CLR 05/01 A2973 RMK AO2,K4S1,2023-02-28T07:15:00Z,42.42,-124.42,5.0,1.0,200,11,,3.0,29.731298,,,TRUE,TRUE,,,,,,HZ,CLR,,,,,,,,MVFR,,,,,,,,,,,,METAR,7.0
K4S1 280655Z AUTO 23017G26KT 5SM -RA SCT022 SCT028 05/01 A2974 RMK AO2,K4S1,2023-02-28T06:55:00Z,42.42,-124.42,5.0,1.0,230,17,26,5.0,29.740158,,,TRUE,TRUE,,,,,,-RA,SCT,2200,SCT,2800,,,,,MVFR,,,,,,,,,,,,METAR,7.0
K4S1 280635Z AUTO 22013KT 3SM HZ CLR 06/02 A2973 RMK AO2,K4S1,2023-02-28T06:35:00Z,42.42,-124.42,6.0,2.0,220,13,,3.0,29.731298,,,TRUE,TRUE,,,,,,HZ,CLR,,,,,,,,MVFR,,,,,,,,,,,,METAR,7.0
K4S1 280615Z AUTO 25011G16KT 4SM HZ CLR 06/01 A2973 RMK AO2,K4S1,2023-02-28T06:15:00Z,42.42,-124.42,6.0,1.0,250,11,16,4.0,29.731298,,,TRUE,TRUE,,,,,,HZ,CLR,,,,,,,,MVFR,,,,,,,,,,,,METAR,7.0
K4S1 280555Z AUTO 26009KT 4SM HZ CLR 06/01 A2973 RMK AO2,K4S1,2023-02-28T05:55:00Z,42.42,-124.42,6.0,1.0,260,9,,4.0,29.731298,,,TRUE,TRUE,,,,,,HZ,CLR,,,,,,,,MVFR,,,,,,,,,,,,METAR,7.0
K4S1 280535Z AUTO 27011KT 4SM HZ CLR 06/01 A2972 RMK AO2,K4S1,2023-02-28T05:35:00Z,42.42,-124.42,6.0,1.0,270,11,,4.0,29.719488,,,TRUE,TRUE,,,,,,HZ,CLR,,,,,,,,MVFR,,,,,,,,,,,,METAR,7.0
K4S1 280515Z AUTO 27011KT 4SM HZ CLR 06/02 A2971 RMK AO2,K4S1,2023-02-28T05:15:00Z,42.42,-124.42,6.0,2.0,270,11,,4.0,29.71063,,,TRUE,TRUE,,,,,,HZ,CLR,,,,,,,,MVFR,,,,,,,,,,,,METAR,7.0
K4S1 280455Z AUTO 28013G18KT 4SM HZ CLR 06/02 A2970 RMK AO2 P0002,K4S1,2023-02-28T04:55:00Z,42.42,-124.42,6.0,2.0,280,13,18,4.0,29.698818,,,TRUE,TRUE,,,,,,HZ,CLR,,,,,,,,MVFR,,,,,,0.02,,,,,,METAR,7.0
K4S1 280435Z AUTO 28015G23KT 4SM HZ SCT027 06/03 A2970 RMK AO2 P0002,K4S1,2023-02-28T04:35:00Z,42.42,-124.42,6.0,3.0,280,15,23,4.0,29.698818,,,TRUE,TRUE,,,,,,HZ,SCT,2700,,,,,,,MVFR,,,,,,0.02,,,,,,METAR,7.0
K4S1 280415Z AUTO 29010G15KT 4SM BR CLR 05/02 A2970 RMK AO2,K4S1,2023-02-28T04:15:00Z,42.42,-124.42,5.0,2.0,290,10,15,4.0,29.698818,,,TRUE,TRUE,,,,,,BR,CLR,,,,,,,,MVFR,,,,,,,,,,,,METAR,7.0
K4S1 280355Z AUTO 33007G17KT 4SM BR SCT014 SCT021 SCT028 05/02 A2969 RMK AO2 P0001,K4S1,2023-02-28T03:55:00Z,42.42,-124.42,5.0,2.0,330,7,17,4.0,29.68996,,,TRUE,TRUE,,,,,,BR,SCT,1400,SCT,2100,SCT,2800,,,MVFR,,,,,,0.01,,,,,,METAR,7.0
K4S1 280335Z AUTO 30024G33KT 4SM HZ CLR 06/03 A2968 RMK AO2,K4S1,2023-02-28T03:35:00Z,42.42,-124.42,6.0,3.0,300,24,33,4.0,29.681103,,,TRUE,TRUE,,,,,,HZ,CLR,,,,,,,,MVFR,,,,,,,,,,,,METAR,7.0
K4S1 280315Z AUTO 30013KT 4SM HZ CLR 06/03 A2968 RMK AO2,K4S1,2023-02-28T03:15:00Z,42.42,-124.42,6.0,3.0,300,13,,4.0,29.681103,,,TRUE,TRUE,,,,,,HZ,CLR,,,,,,,,MVFR,,,,,,,,,,,,METAR,7.0
K4S1 280255Z AUTO 30019G29KT 4SM BR CLR 05/03 A2967 RMK AO2 P0001,K4S1,2023-02-28T02:55:00Z,42.42,-124.42,5.0,3.0,300,19,29,4.0,29.66929,,,TRUE,TRUE,,,,,,BR,CLR,,,,,,,,MVFR,,,,,,0.01,,,,,,METAR,7.0
K4S1 280235Z AUTO 27018G24KT 4SM BR CLR 06/03 A2965 RMK AO2,K4S1,2023-02-28T02:35:00Z,42.42,-124.42,6.0,3.0,270,18,24,4.0,29.648623,,,TRUE,TRUE,,,,,,BR,CLR,,,,,,,,MVFR,,,,,,,,,,,,METAR,7.0
K4S1 280215Z AUTO 28011G19KT 4SM BR CLR 06/03 A2963 RMK AO2,K4S1,2023-02-28T02:15:00Z,42.42,-124.42,6.0,3.0,280,11,19,4.0,29.630905,,,TRUE,TRUE,,,,,,BR,CLR,,,,,,,,MVFR,,,,,,,,,,,,METAR,7.0
K4S1 280155Z AUTO 28015G24KT 4SM -RA SCT024 05/03 A2963 RMK AO2,K4S1,2023-02-28T01:55:00Z,42.42,-124.42,5.0,3.0,280,15,24,4.0,29.630905,,,TRUE,TRUE,,,,,,-RA,SCT,2400,,,,,,,MVFR,,,,,,,,,,,,METAR,7.0
K4S1 280135Z AUTO 26012G20KT 3SM BR CLR 06/03 A2962 RMK AO2,K4S1,2023-02-28T01:35:00Z,42.42,-124.42,6.0,3.0,260,12,20,3.0,29.619095,,,TRUE,TRUE,,,,,,BR,CLR,,,,,,,,MVFR,,,,,,,,,,,,METAR,7.0
K4S1 280115Z AUTO 28018G24KT 2SM BR CLR 06/03 A2962 RMK AO2,K4S1,2023-02-28T01:15:00Z,42.42,-124.42,6.0,3.0,280,18,24,2.0,29.619095,,,TRUE,TRUE,,,,,,BR,CLR,,,,,,,,IFR,,,,,,,,,,,,METAR,7.0
K4S1 280055Z AUTO 23015G19KT 2 1/2SM -RA SCT022 06/03 A2960 RMK AO2,K4S1,2023-02-28T00:55:00Z,42.42,-124.42,6.0,3.0,230,15,19,2.5,29.601377,,,TRUE,TRUE,,,,,,-RA,SCT,2200,,,,,,,IFR,,,,,,,,,,,,METAR,7.0
K4S1 280035Z AUTO 24016G22KT 2 1/2SM HZ CLR 07/03 A2959 RMK AO2,K4S1,2023-02-28T00:35:00Z,42.42,-124.42,7.0,3.0,240,16,22,2.5,29.589567,,,TRUE,TRUE,,,,,,HZ,CLR,,,,,,,,IFR,,,,,,,,,,,,METAR,7.0
K4S1 280015Z AUTO 24018G21KT 2 1/2SM HZ CLR 07/03 A2958 RMK AO2 VIS 2V3,K4S1,2023-02-28T00:15:00Z,42.42,-124.42,7.0,3.0,240,18,21,2.5,29.58071,,,TRUE,TRUE,,,,,,HZ,CLR,,,,,,,,IFR,,,,,,,,,,,,METAR,7.0
K4S1 272355Z AUTO 23017KT 2 1/2SM HZ CLR 07/05 A2958 RMK AO2,K4S1,2023-02-27T23:55:00Z,42.42,-124.42,7.0,5.0,230,17,,2.5,29.58071,,,TRUE,TRUE,,,,,,HZ,CLR,,,,,,,,IFR,,,,,,,,,,,,METAR,7.0
K4S1 272335Z AUTO 16005KT 4SM HZ CLR 06/03 A2957 RMK AO2,K4S1,2023-02-27T23:35:00Z,42.42,-124.42,6.0,3.0,160,5,,4.0,29.568897,,,TRUE,TRUE,,,,,,HZ,CLR,,,,,,,,MVFR,,,,,,,,,,,,METAR,7.0
K4S1 272315Z AUTO 17009G14KT 5SM BR CLR 06/03 A2956 RMK AO2,K4S1,2023-02-27T23:15:00Z,42.42,-124.42,6.0,3.0,170,9,14,5.0,29.56004,,,TRUE,TRUE,,,,,,BR,CLR,,,,,,,,MVFR,,,,,,,,,,,,METAR,7.0
K4S1 272255Z AUTO 17009KT 4SM BR CLR 06/04 A2956 RMK AO2 P0002,K4S1,2023-02-27T22:55:00Z,42.42,-124.42,6.0,4.0,170,9,,4.0,29.56004,,,TRUE,TRUE,,,,,,BR,CLR,,,,,,,,MVFR,,,,,,0.02,,,,,,METAR,7.0
K4S1 272235Z AUTO 19006KT 4SM -RA CLR 05/03 A2955 RMK AO2 P0002,K4S1,2023-02-27T22:35:00Z,42.42,-124.42,5.0,3.0,190,6,,4.0,29.551182,,,TRUE,TRUE,,,,,,-RA,CLR,,,,,,,,MVFR,,,,,,0.02,,,,,,METAR,7.0
K4S1 272215Z AUTO 25015G27KT 4SM -RA SCT014 SCT021 SCT025 05/03 A2956 RMK AO2 P0001,K4S1,2023-02-27T22:15:00Z,42.42,-124.42,5.0,3.0,250,15,27,4.0,29.56004,,,TRUE,TRUE,,,,,,-RA,SCT,1400,SCT,2100,SCT,2500,,,MVFR,,,,,,0.01,,,,,,METAR,7.0
K4S1 272155Z AUTO 25011G20KT 1 1/2SM +RA SCT008 SCT014 BKN019 03/02 A2954 RMK AO2 VIS 3/4V3 P0006,K4S1,2023-02-27T21:55:00Z,42.42,-124.42,3.0,2.0,250,11,20,1.5,29.53937,,,TRUE,TRUE,,,,,,+RA,SCT,800,SCT,1400,BKN,1900,,,IFR,,,,,,0.06,,,,,,METAR,7.0
K4S1 272135Z AUTO 20005KT 3SM BR CLR 06/05 A2954 RMK AO2 P0001,K4S1,2023-02-27T21:35:00Z,42.42,-124.42,6.0,5.0,200,5,,3.0,29.53937,,,TRUE,TRUE,,,,,,BR,CLR,,,,,,,,MVFR,,,,,,0.01,,,,,,METAR,7.0
K4S1 272115Z AUTO 21012G16KT 4SM -RA SCT015 SCT021 05/03 A2955 RMK AO2 P0001,K4S1,2023-02-27T21:15:00Z,42.42,-124.42,5.0,3.0,210,12,16,4.0,29.551182,,,TRUE,TRUE,,,,,,-RA,SCT,1500,SCT,2100,,,,,MVFR,,,,,,0.01,,,,,,METAR,7.0
K4S1 272055Z AUTO 22021G25KT 5SM RA SCT015 BKN021 BKN026 04/02 A2952 RMK AO2 P0009,K4S1,2023-02-27T20:55:00Z,42.42,-124.42,4.0,2.0,220,21,25,5.0,29.518702,,,TRUE,TRUE,,,,,,RA,SCT,1500,BKN,2100,BKN,2600,,,MVFR,,,,,,0.09,,,,,,METAR,7.0
K4S1 272035Z AUTO 17026G32KT 2SM RA BKN015 BKN021 OVC050 05/02 A2953 RMK AO2 P0006,K4S1,2023-02-27T20:35:00Z,42.42,-124.42,5.0,2.0,170,26,32,2.0,29.530512,,,TRUE,TRUE,,,,,,RA,BKN,1500,BKN,2100,OVC,5000,,,IFR,,,,,,0.06,,,,,,METAR,7.0
K4S1 272015Z AUTO 16017G25KT 7SM -RA SCT050 06/02 A2953 RMK AO2,K4S1,2023-02-27T20:15:00Z,42.42,-124.42,6.0,2.0,160,17,25,7.0,29.530512,,,TRUE,TRUE,,,,,,-RA,SCT,5000,,,,,,,VFR,,,,,,,,,,,,METAR,7.0
K4S1 271955Z AUTO 18018G23KT 5SM HZ CLR 07/04 A2954 RMK AO2,K4S1,2023-02-27T19:55:00Z,42.42,-124.42,7.0,4.0,180,18,23,5.0,29.53937,,,TRUE,TRUE,,,,,,HZ,CLR,,,,,,,,MVFR,,,,,,,,,,,,METAR,7.0
K4S1 271935Z AUTO 17020G28KT 5SM BR SCT021 SCT026 07/05 A2954 RMK AO2,K4S1,2023-02-27T19:35:00Z,42.42,-124.42,7.0,5.0,170,20,28,5.0,29.53937,,,TRUE,TRUE,,,,,,BR,SCT,2100,SCT,2600,,,,,MVFR,,,,,,,,,,,,METAR,7.0
K4S1 271915Z AUTO 18014G21KT 4SM -RA SCT023 06/03 A2955 RMK AO2,K4S1,2023-02-27T19:15:00Z,42.42,-124.42,6.0,3.0,180,14,21,4.0,29.551182,,,TRUE,TRUE,,,,,,-RA,SCT,2300,,,,,,,MVFR,,,,,,,,,,,,METAR,7.0
K4S1 271855Z AUTO 21024G33KT 4SM -RA CLR 06/03 A2956 RMK AO2,K4S1,2023-02-27T18:55:00Z,42.42,-124.42,6.0,3.0,210,24,33,4.0,29.56004,,,TRUE,TRUE,,,,,,-RA,CLR,,,,,,,,MVFR,,,,,,,,,,,,METAR,7.0
K4S1 271835Z AUTO 17014G21KT 5SM BR CLR 06/03 A2956 RMK AO2,K4S1,2023-02-27T18:35:00Z,42.42,-124.42,6.0,3.0,170,14,21,5.0,29.56004,,,TRUE,TRUE,,,,,,BR,CLR,,,,,,,,MVFR,,,,,,,,,,,,METAR,7.0
K4S1 271815Z AUTO 17013G21KT 5SM BR CLR 06/03 A2956 RMK AO2,K4S1,2023-02-27T18:15:00Z,42.42,-124.42,6.0,3.0,170,13,21,5.0,29.56004,,,TRUE,TRUE,,,,,,BR,CLR,,,,,,,,MVFR,,,,,,,,,,,,METAR,7.0
K4S1 271755Z AUTO 16011G18KT 5SM BR CLR 06/03 A2956 RMK AO2,K4S1,2023-02-27T17:55:00Z,42.42,-124.42,6.0,3.0,160,11,18,5.0,29.56004,,,TRUE,TRUE,,,,,,BR,CLR,,,,,,,,MVFR,,,,,,,,,,,,METAR,7.0
K4S1 271735Z AUTO 15014G21KT 7SM CLR 05/02 A2957 RMK AO2,K4S1,2023-02-27T17:35:00Z,42.42,-124.42,5.0,2.0,150,14,21,7.0,29.568897,,,TRUE,TRUE,,,,,,,CLR,,,,,,,,VFR,,,,,,,,,,,,METAR,7.0
K4S1 271715Z AUTO 16012G18KT 7SM CLR 05/03 A2957 RMK AO2,K4S1,2023-02-27T17:15:00Z,42.42,-124.42,5.0,3.0,160,12,18,7.0,29.568897,,,TRUE,TRUE,,,,,,,CLR,,,,,,,,VFR,,,,,,,,,,,,METAR,7.0
K4S1 271655Z AUTO 16015G20KT 5SM BR CLR 05/03 A2958 RMK AO2,K4S1,2023-02-27T16:55:00Z,42.42,-124.42,5.0,3.0,160,15,20,5.0,29.58071,,,TRUE,TRUE,,,,,,BR,CLR,,,,,,,,MVFR,,,,,,,,,,,,METAR,7.0
K4S1 271635Z AUTO 18011G20KT 5SM BR SCT021 04/02 A2958 RMK AO2,K4S1,2023-02-27T16:35:00Z,42.42,-124.42,4.0,2.0,180,11,20,5.0,29.58071,,,TRUE,TRUE,,,,,,BR,SCT,2100,,,,,,,MVFR,,,,,,,,,,,,METAR,7.0
K4S1 271615Z AUTO 17011G17KT 7SM CLR 04/02 A2959 RMK AO2,K4S1,2023-02-27T16:15:00Z,42.42,-124.42,4.0,2.0,170,11,17,7.0,29.589567,,,TRUE,TRUE,,,,,,,CLR,,,,,,,,VFR,,,,,,,,,,,,METAR,7.0
K4S1 271555Z AUTO 16012KT 5SM BR SCT020 03/02 A2960 RMK AO2 P0005,K4S1,2023-02-27T15:55:00Z,42.42,-124.42,3.0,2.0,160,12,,5.0,29.601377,,,TRUE,TRUE,,,,,,BR,SCT,2000,,,,,,,MVFR,,,,,,0.05,,,,,,METAR,7.0
K4S1 271535Z AUTO 15010G16KT 4SM RA BKN020 BKN026 02/01 A2961 RMK AO2 P0004,K4S1,2023-02-27T15:35:00Z,42.42,-124.42,2.0,1.0,150,10,16,4.0,29.610237,,,TRUE,TRUE,,,,,,RA,BKN,2000,BKN,2600,,,,,MVFR,,,,,,0.04,,,,,,METAR,7.0
K4S1 271515Z AUTO 17010G14KT 10SM -RA SCT019 SCT025 SCT034 03/02 A2960 RMK AO2,K4S1,2023-02-27T15:15:00Z,42.42,-124.42,3.0,2.0,170,10,14,10.0,29.601377,,,TRUE,TRUE,,,,,,-RA,SCT,1900,SCT,2500,SCT,3400,,,VFR,,,,,,,,,,,,METAR,7.0
K4S1 271455Z AUTO 18009G19KT 5SM UP SCT019 BKN025 BKN034 03/01 A2960 RMK AO2 P0005,K4S1,2023-02-27T14:55:00Z,42.42,-124.42,3.0,1.0,180,9,19,5.0,29.601377,,,TRUE,TRUE,,,,,,UP,SCT,1900,BKN,2500,BKN,3400,,,MVFR,,,,,,0.05,,,,,,METAR,7.0
K4S1 271435Z AUTO 15010G15KT 3SM RA BKN019 BKN026 02/01 A2961 RMK AO2 P0004,K4S1,2023-02-27T14:35:00Z,42.42,-124.42,2.0,1.0,150,10,15,3.0,29.610237,,,TRUE,TRUE,,,,,,RA,BKN,1900,BKN,2600,,,,,MVFR,,,,,,0.04,,,,,,METAR,7.0
K4S1 271415Z AUTO 16014G18KT 7SM -RA SCT024 03/02 A2960 RMK AO2,K4S1,2023-02-27T14:15:00Z,42.42,-124.42,3.0,2.0,160,14,18,7.0,29.601377,,,TRUE,TRUE,,,,,,-RA,SCT,2400,,,,,,,VFR,,,,,,,,,,,,METAR,7.0
K4S1 271355Z AUTO 16008G19KT 7SM RA SCT019 SCT024 03/02 A2962 RMK AO2 P0006,K4S1,2023-02-27T13:55:00Z,42.42,-124.42,3.0,2.0,160,8,19,7.0,29.619095,,,TRUE,TRUE,,,,,,RA,SCT,1900,SCT,2400,,,,,VFR,,,,,,0.06,,,,,,METAR,7.0
K4S1 271335Z AUTO 14012G18KT 10SM -RA SCT009 SCT022 SCT026 03/02 A2961 RMK AO2 P0006,K4S1,2023-02-27T13:35:00Z,42.42,-124.42,3.0,2.0,140,12,18,10.0,29.610237,,,TRUE,TRUE,,,,,,-RA,SCT,900,SCT,2200,SCT,2600,,,VFR,,,,,,0.06,,,,,,METAR,7.0
K4S1 271315Z AUTO 14011G20KT 4SM RA SCT009 BKN022 BKN027 03/02 A2961 RMK AO2 P0005,K4S1,2023-02-27T13:15:00Z,42.42,-124.42,3.0,2.0,140,11,20,4.0,29.610237,,,TRUE,TRUE,,,,,,RA,SCT,900,BKN,2200,BKN,2700,,,MVFR,,,,,,0.05,,,,,,METAR,7.0
K4S1 271255Z AUTO 15017G21KT 4SM -RA BKN021 BKN027 03/02 A2962 RMK AO2 P0009,K4S1,2023-02-27T12:55:00Z,42.42,-124.42,3.0,2.0,150,17,21,4.0,29.619095,,,TRUE,TRUE,,,,,,-RA,BKN,2100,BKN,2700,,,,,MVFR,,,,,,0.09,,,,,,METAR,7.0
K4S1 271235Z AUTO 17015G25KT 4SM RA SCT017 BKN026 03/02 A2963 RMK AO2 P0007,K4S1,2023-02-27T12:35:00Z,42.42,-124.42,3.0,2.0,170,15,25,4.0,29.630905,,,TRUE,TRUE,,,,,,RA,SCT,1700,BKN,2600,,,,,MVFR,,,,,,0.07,,,,,,METAR,7.0
K4S1 271215Z AUTO 13015G23KT 4SM RA SCT017 02/01 A2962 RMK AO2 P0004,K4S1,2023-02-27T12:15:00Z,42.42,-124.42,2.0,1.0,130,15,23,4.0,29.619095,,,TRUE,TRUE,,,,,,RA,SCT,1700,,,,,,,MVFR,,,,,,0.04,,,,,,METAR,7.0
K4S1 271155Z AUTO 17013G22KT 2 1/2SM -RA SCT019 02/01 A2964 RMK AO2 VIS 1 3/4V4 P0016,K4S1,2023-02-27T11:55:00Z,42.42,-124.42,2.0,1.0,170,13,22,2.5,29.639763,,,TRUE,TRUE,,,,,,-RA,SCT,1900,,,,,,,IFR,,,,,,0.16,,,,,,METAR,7.0
K4S1 271135Z AUTO 17018G26KT 3SM -RA CLR 01/00 A2965 RMK AO2 P0012,K4S1,2023-02-27T11:35:00Z,42.42,-124.42,1.0,0.0,170,18,26,3.0,29.648623,,,TRUE,TRUE,,,,,,-RA,CLR,,,,,,,,MVFR,,,,,,0.12,,,,,,METAR,7.0
K4S1 271115Z AUTO 18019G35KT 2SM -SN CLR 02/01 A2968 RMK AO2 P0006,K4S1,2023-02-27T11:15:00Z,42.42,-124.42,2.0,1.0,180,19,35,2.0,29.681103,,,TRUE,TRUE,,,,,,-SN,CLR,,,,,,,,IFR,,,,,,0.06,,,,,,METAR,7.0
K4S1 271055Z AUTO 17016G31KT 1 3/4SM -SN SCT008 SCT012 BKN021 01/00 A2969 RMK AO2 P0036,K4S1,2023-02-27T10:55:00Z,42.42,-124.42,1.0,0.0,170,16,31,1.75,29.68996,,,TRUE,TRUE,,,,,,-SN,SCT,800,SCT,1200,BKN,2100,,,IFR,,,,,,0.36,,,,,,METAR,7.0
K4S1 271035Z AUTO 20028G37KT 1 1/2SM -RA SCT006 SCT010 BKN021 03/01 A2970 RMK AO2 P0020,K4S1,2023-02-27T10:35:00Z,42.42,-124.42,3.0,1.0,200,28,37,1.5,29.698818,,,TRUE,TRUE,,,,,,-RA,SCT,600,SCT,1000,BKN,2100,,,IFR,,,,,,0.2,,,,,,METAR,7.0
K4S1 271015Z AUTO 14021G30KT 5SM -RA SCT021 SCT027 04/02 A2967 RMK AO2 P0001,K4S1,2023-02-27T10:15:00Z,42.42,-124.42,4.0,2.0,140,21,30,5.0,29.66929,,,TRUE,TRUE,,,,,,-RA,SCT,2100,SCT,2700,,,,,MVFR,,,,,,0.01,,,,,,METAR,7.0
K4S1 270955Z AUTO 17024G36KT 5SM RA SCT021 05/02 A2969 RMK AO2 P0003,K4S1,2023-02-27T09:55:00Z,42.42,-124.42,5.0,2.0,170,24,36,5.0,29.68996,,,TRUE,TRUE,,,,,,RA,SCT,2100,,,,,,,MVFR,,,,,,0.03,,,,,,METAR,7.0
K4S1 270935Z AUTO 14017G32KT 10SM -RA CLR 05/02 A2966 RMK AO2 P0001,K4S1,2023-02-27T09:35:00Z,42.42,-124.42,5.0,2.0,140,17,32,10.0,29.660433,,,TRUE,TRUE,,,,,,-RA,CLR,,,,,,,,VFR,,,,,,0.01,,,,,,METAR,7.0
K4S1 270915Z AUTO 16017G34KT 10SM -RA SCT025 SCT033 05/02 A2969 RMK AO2,K4S1,2023-02-27T09:15:00Z,42.42,-124.42,5.0,2.0,160,17,34,10.0,29.68996,,,TRUE,TRUE,,,,,,-RA,SCT,2500,SCT,3300,,,,,VFR,,,,,,,,,,,,METAR,7.0
K4S1 270855Z AUTO 17017G27KT 10SM -RA CLR 05/02 A2971 RMK AO2,K4S1,2023-02-27T08:55:00Z,42.42,-124.42,5.0,2.0,170,17,27,10.0,29.71063,,,TRUE,TRUE,,,,,,-RA,CLR,,,,,,,,VFR,,,,,,,,,,,,METAR,7.0
K4S1 270835Z AUTO 15010G24KT 10SM DZ CLR 05/02 A2972 RMK AO2,K4S1,2023-02-27T08:35:00Z,42.42,-124.42,5.0,2.0,150,10,24,10.0,29.719488,,,TRUE,TRUE,,,,,,DZ,CLR,,,,,,,,VFR,,,,,,,,,,,,METAR,7.0
K4S1 270815Z AUTO 16017G26KT 7SM CLR 05/02 A2973 RMK AO2,K4S1,2023-02-27T08:15:00Z,42.42,-124.42,5.0,2.0,160,17,26,7.0,29.731298,,,TRUE,TRUE,,,,,,,CLR,,,,,,,,VFR,,,,,,,,,,,,METAR,7.0
K4S1 270755Z AUTO 16015G32KT 10SM -RA SCT020 SCT027 SCT032 04/02 A2975 RMK AO2 P0005,K4S1,2023-02-27T07:55:00Z,42.42,-124.42,4.0,2.0,160,15,32,10.0,29.749016,,,TRUE,TRUE,,,,,,-RA,SCT,2000,SCT,2700,SCT,3200,,,VFR,,,,,,0.05,,,,,,METAR,7.0
K4S1 270735Z AUTO 18021G31KT 2 1/2SM -RA BKN020 BKN027 04/02 A2978 RMK AO2 P0004,K4S1,2023-02-27T07:35:00Z,42.42,-124.42,4.0,2.0,180,21,31,2.5,29.778543,,,TRUE,TRUE,,,,,,-RA,BKN,2000,BKN,2700,,,,,IFR,,,,,,0.04,,,,,,METAR,7.0
K4S1 270715Z AUTO 16012G24KT 130V200 7SM -RA BKN024 BKN029 05/02 A2976 RMK AO2,K4S1,2023-02-27T07:15:00Z,42.42,-124.42,5.0,2.0,160,12,24,7.0,29.760826,,,TRUE,TRUE,,,,,,-RA,BKN,2400,BKN,2900,,,,,MVFR,,,,,,,,,,,,METAR,7.0
K4S1 270655Z AUTO 16011G24KT 10SM -RA BKN024 BKN030 05/02 A2978 RMK AO2 P0001,K4S1,2023-02-27T06:55:00Z,42.42,-124.42,5.0,2.0,160,11,24,10.0,29.778543,,,TRUE,TRUE,,,,,,-RA,BKN,2400,BKN,3000,,,,,MVFR,,,,,,0.01,,,,,,METAR,7.0
K4S1 270635Z AUTO 16014G25KT 5SM -RA SCT021 SCT028 05/02 A2980 RMK AO2 P0001,K4S1,2023-02-27T06:35:00Z,42.42,-124.42,5.0,2.0,160,14,25,5.0,29.799213,,,TRUE,TRUE,,,,,,-RA,SCT,2100,SCT,2800,,,,,MVFR,,,,,,0.01,,,,,,METAR,7.0
K4S1 270615Z AUTO 16010G18KT 120V180 10SM -RA SCT025 SCT031 05/02 A2980 RMK AO2,K4S1,2023-02-27T06:15:00Z,42.42,-124.42,5.0,2.0,160,10,18,10.0,29.799213,,,TRUE,TRUE,,,,,,-RA,SCT,2500,SCT,3100,,,,,VFR,,,,,,,,,,,,METAR,7.0
K4S1 270555Z AUTO 16014G21KT 7SM -RA SCT023 SCT028 05/02 A2981 RMK AO2 P0002,K4S1,2023-02-27T05:55:00Z,42.42,-124.42,5.0,2.0,160,14,21,7.0,29.811024,,,TRUE,TRUE,,,,,,-RA,SCT,2300,SCT,2800,,,,,VFR,,,,,,0.02,,,,,,METAR,7.0
K4S1 270535Z AUTO 16015G24KT 7SM -RA SCT020 SCT030 06/01 A2983 RMK AO2,K4S1,2023-02-27T05:35:00Z,42.42,-124.42,6.0,1.0,160,15,24,7.0,29.828741,,,TRUE,TRUE,,,,,,-RA,SCT,2000,SCT,3000,,,,,VFR,,,,,,,,,,,,METAR,7.0
K4S1 270515Z AUTO 17014G23KT 7SM CLR 06/01 A2983 RMK AO2,K4S1,2023-02-27T05:15:00Z,42.42,-124.42,6.0,1.0,170,14,23,7.0,29.828741,,,TRUE,TRUE,,,,,,,CLR,,,,,,,,VFR,,,,,,,,,,,,METAR,7.0
K4S1 270455Z AUTO 16014G27KT 7SM CLR 06/02 A2984 RMK AO2,K4S1,2023-02-27T04:55:00Z,42.42,-124.42,6.0,2.0,160,14,27,7.0,29.840551,,,TRUE,TRUE,,,,,,,CLR,,,,,,,,VFR,,,,,,,,,,,,METAR,7.0
K4S1 270435Z AUTO 16008G19KT 7SM CLR 06/02 A2985 RMK AO2,K4S1,2023-02-27T04:35:00Z,42.42,-124.42,6.0,2.0,160,8,19,7.0,29.84941,,,TRUE,TRUE,,,,,,,CLR,,,,,,,,VFR,,,,,,,,,,,,METAR,7.0
K4S1 270415Z AUTO 19009G14KT 7SM -RA CLR 06/02 A2986 RMK AO2,K4S1,2023-02-27T04:15:00Z,42.42,-124.42,6.0,2.0,190,9,14,7.0,29.861221,,,TRUE,TRUE,,,,,,-RA,CLR,,,,,,,,VFR,,,,,,,,,,,,METAR,7.0
K4S1 270355Z AUTO 18010G19KT 10SM -RA CLR 06/02 A2986 RMK AO2 P0001,K4S1,2023-02-27T03:55:00Z,42.42,-124.42,6.0,2.0,180,10,19,10.0,29.861221,,,TRUE,TRUE,,,,,,-RA,CLR,,,,,,,,VFR,,,,,,0.01,,,,,,METAR,7.0
K4S1 270335Z AUTO 17016G22KT 10SM -DZ CLR 06/03 A2987 RMK AO2 P0001,K4S1,2023-02-27T03:35:00Z,42.42,-124.42,6.0,3.0,170,16,22,10.0,29.870079,,,TRUE,TRUE,,,,,,-DZ,CLR,,,,,,,,VFR,,,,,,0.01,,,,,,METAR,7.0
K4S1 270315Z AUTO 15011G16KT 120V180 7SM -RA SCT025 SCT030 05/02 A2987 RMK AO2 P0001,K4S1,2023-02-27T03:15:00Z,42.42,-124.42,5.0,2.0,150,11,16,7.0,29.870079,,,TRUE,TRUE,,,,,,-RA,SCT,2500,SCT,3000,,,,,VFR,,,,,,0.01,,,,,,METAR,7.0
K4S1 270255Z AUTO 19006KT 5SM -RA SCT021 SCT029 06/02 A2988 RMK AO2 P0002,K4S1,2023-02-27T02:55:00Z,42.42,-124.42,6.0,2.0,190,6,,5.0,29.878937,,,TRUE,TRUE,,,,,,-RA,SCT,2100,SCT,2900,,,,,MVFR,,,,,,0.02,,,,,,METAR,7.0
K4S1 270235Z AUTO 16012G21KT 10SM -RA SCT023 SCT031 06/02 A2988 RMK AO2,K4S1,2023-02-27T02:35:00Z,42.42,-124.42,6.0,2.0,160,12,21,10.0,29.878937,,,TRUE,TRUE,,,,,,-RA,SCT,2300,SCT,3100,,,,,VFR,,,,,,,,,,,,METAR,7.0
K4S1 270215Z AUTO 16013G19KT 10SM CLR 06/02 A2989 RMK AO2,K4S1,2023-02-27T02:15:00Z,42.42,-124.42,6.0,2.0,160,13,19,10.0,29.890747,,,TRUE,TRUE,,,,,,,CLR,,,,,,,,VFR,,,,,,,,,,,,METAR,7.0
K4S1 270155Z AUTO 17009KT 7SM CLR 06/02 A2990 RMK AO2,K4S1,2023-02-27T01:55:00Z,42.42,-124.42,6.0,2.0,170,9,,7.0,29.899607,,,TRUE,TRUE,,,,,,,CLR,,,,,,,,VFR,,,,,,,,,,,,METAR,7.0
K4S1 270135Z AUTO 15008KT 5SM HZ CLR 06/02 A2990 RMK AO2,K4S1,2023-02-27T01:35:00Z,42.42,-124.42,6.0,2.0,150,8,,5.0,29.899607,,,TRUE,TRUE,,,,,,HZ,CLR,,,,,,,,MVFR,,,,,,,,,,,,METAR,7.0
K4S1 270115Z AUTO 18008KT 130V230 5SM HZ CLR 05/02 A2991 RMK AO2,K4S1,2023-02-27T01:15:00Z,42.42,-124.42,5.0,2.0,180,8,,5.0,29.911417,,,TRUE,TRUE,,,,,,HZ,CLR,,,,,,,,MVFR,,,,,,,,,,,,METAR,7.0
K4S1 270055Z AUTO 15008KT 5SM HZ CLR 05/02 A2993 RMK AO2 P0004,K4S1,2023-02-27T00:55:00Z,42.42,-124.42,5.0,2.0,150,8,,5.0,29.929134,,,TRUE,TRUE,,,,,,HZ,CLR,,,,,,,,MVFR,,,,,,0.04,,,,,,METAR,7.0
K4S1 270035Z AUTO 16012KT 4SM -RA SCT024 SCT031 05/01 A2993 RMK AO2 P0004,K4S1,2023-02-27T00:35:00Z,42.42,-124.42,5.0,1.0,160,12,,4.0,29.929134,,,TRUE,TRUE,,,,,,-RA,SCT,2400,SCT,3100,,,,,MVFR,,,,,,0.04,,,,,,METAR,7.0
K4S1 270015Z AUTO 22022G26KT 2 1/2SM HZ CLR 07/01 A2993 RMK AO2,K4S1,2023-02-27T00:15:00Z,42.42,-124.42,7.0,1.0,220,22,26,2.5,29.929134,,,TRUE,TRUE,,,,,,HZ,CLR,,,,,,,,IFR,,,,,,,,,,,,METAR,7.0
K4S1 262355Z AUTO 20008KT 2 1/2SM HZ CLR 07/01 A2993 RMK AO2,K4S1,2023-02-26T23:55:00Z,42.42,-124.42,7.0,1.0,200,8,,2.5,29.929134,,,TRUE,TRUE,,,,,,HZ,CLR,,,,,,,,IFR,,,,,,,,,,,,METAR,7.0
K4S1 262335Z AUTO 20008KT 2 1/2SM HZ CLR 08/01 A2993 RMK AO2,K4S1,2023-02-26T23:35:00Z,42.42,-124.42,8.0,1.0,200,8,,2.5,29.929134,,,TRUE,TRUE,,,,,,HZ,CLR,,,,,,,,IFR,,,,,,,,,,,,METAR,7.0
K4S1 262315Z AUTO 20009KT 3SM HZ CLR 08/02 A2993 RMK AO2,K4S1,2023-02-26T23:15:00Z,42.42,-124.42,8.0,2.0,200,9,,3.0,29.929134,,,TRUE,TRUE,,,,,,HZ,CLR,,,,,,,,MVFR,,,,,,,,,,,,METAR,7.0
K4S1 262255Z AUTO 21006KT 2SM HZ CLR 08/02 A2993 RMK AO2,K4S1,2023-02-26T22:55:00Z,42.42,-124.42,8.0,2.0,210,6,,2.0,29.929134,,,TRUE,TRUE,,,,,,HZ,CLR,,,,,,,,IFR,,,,,,,,,,,,METAR,7.0
K4S1 262235Z AUTO 20005KT 2SM HZ CLR 08/02 A2993 RMK AO2,K4S1,2023-02-26T22:35:00Z,42.42,-124.42,8.0,2.0,200,5,,2.0,29.929134,,,TRUE,TRUE,,,,,,HZ,CLR,,,,,,,,IFR,,,,,,,,,,,,METAR,7.0
K4S1 262215Z AUTO 20007KT 2SM HZ CLR 08/02 A2994 RMK AO2,K4S1,2023-02-26T22:15:00Z,42.42,-124.42,8.0,2.0,200,7,,2.0,29.940945,,,TRUE,TRUE,,,,,,HZ,CLR,,,,,,,,IFR,,,,,,,,,,,,METAR,7.0
K4S1 262155Z AUTO 19005KT 2SM HZ CLR 08/03 A2995 RMK AO2,K4S1,2023-02-26T21:55:00Z,42.42,-124.42,8.0,3.0,190,5,,2.0,29.949802,,,TRUE,TRUE,,,,,,HZ,CLR,,,,,,,,IFR,,,,,,,,,,,,METAR,7.0
K4S1 262135Z AUTO 20006KT 2SM HZ CLR 08/04 A2995 RMK AO2,K4S1,2023-02-26T21:35:00Z,42.42,-124.42,8.0,4.0,200,6,,2.0,29.949802,,,TRUE,TRUE,,,,,,HZ,CLR,,,,,,,,IFR,,,,,,,,,,,,METAR,7.0
K4S1 262115Z AUTO 23004KT 3SM HZ CLR 08/03 A2995 RMK AO2,K4S1,2023-02-26T21:15:00Z,42.42,-124.42,8.0,3.0,230,4,,3.0,29.949802,,,TRUE,TRUE,,,,,,HZ,CLR,,,,,,,,MVFR,,,,,,,,,,,,METAR,7.0
K4S1 262055Z AUTO 24004KT 3SM HZ CLR 09/04 A2995 RMK AO2,K4S1,2023-02-26T20:55:00Z,42.42,-124.42,9.0,4.0,240,4,,3.0,29.949802,,,TRUE,TRUE,,,,,,HZ,CLR,,,,,,,,MVFR,,,,,,,,,,,,METAR,7.0
K4S1 262035Z AUTO 00000KT 3SM HZ CLR 08/03 A2996 RMK AO2,K4S1,2023-02-26T20:35:00Z,42.42,-124.42,8.0,3.0,0,0,,3.0,29.958662,,,TRUE,TRUE,,,,,,HZ,CLR,,,,,,,,MVFR,,,,,,,,,,,,METAR,7.0
K4S1 262015Z AUTO 29003KT 3SM HZ CLR 08/03 A2996 RMK AO2,K4S1,2023-02-26T20:15:00Z,42.42,-124.42,8.0,3.0,290,3,,3.0,29.958662,,,TRUE,TRUE,,,,,,HZ,CLR,,,,,,,,MVFR,,,,,,,,,,,,METAR,7.0
K4S1 261955Z AUTO 00000KT 3SM HZ CLR 08/03 A2996 RMK AO2,K4S1,2023-02-26T19:55:00Z,42.42,-124.42,8.0,3.0,0,0,,3.0,29.958662,,,TRUE,TRUE,,,,,,HZ,CLR,,,,,,,,MVFR,,,,,,,,,,,,METAR,7.0
K4S1 261935Z AUTO 00000KT 3SM HZ CLR 07/03 A2996 RMK AO2,K4S1,2023-02-26T19:35:00Z,42.42,-124.42,7.0,3.0,0,0,,3.0,29.958662,,,TRUE,TRUE,,,,,,HZ,CLR,,,,,,,,MVFR,,,,,,,,,,,,METAR,7.0
K4S1 261915Z AUTO 25003KT 3SM HZ CLR 06/02 A2996 RMK AO2,K4S1,2023-02-26T19:15:00Z,42.42,-124.42,6.0,2.0,250,3,,3.0,29.958662,,,TRUE,TRUE,,,,,,HZ,CLR,,,,,,,,MVFR,,,,,,,,,,,,METAR,7.0
K4S1 261855Z AUTO 26010G15KT 5SM -DZ CLR 06/02 A2996 RMK AO2,K4S1,2023-02-26T18:55:00Z,42.42,-124.42,6.0,2.0,260,10,15,5.0,29.958662,,,TRUE,TRUE,,,,,,-DZ,CLR,,,,,,,,MVFR,,,,,,,,,,,,METAR,7.0
K4S1 261835Z AUTO 30013G18KT 4SM HZ CLR 06/03 A2994 RMK AO2,K4S1,2023-02-26T18:35:00Z,42.42,-124.42,6.0,3.0,300,13,18,4.0,29.940945,,,TRUE,TRUE,,,,,,HZ,CLR,,,,,,,,MVFR,,,,,,,,,,,,METAR,7.0
K4S1 261815Z AUTO 30011KT 3SM BR CLR 06/04 A2993 RMK AO2,K4S1,2023-02-26T18:15:00Z,42.42,-124.42,6.0,4.0,300,11,,3.0,29.929134,,,TRUE,TRUE,,,,,,BR,CLR,,,,,,,,MVFR,,,,,,,,,,,,METAR,7.0
K4S1 261755Z AUTO 00000KT 5SM BR CLR 06/05 A2992 RMK AO2,K4S1,2023-02-26T17:55:00Z,42.42,-124.42,6.0,5.0,0,0,,5.0,29.920275,,,TRUE,TRUE,,,,,,BR,CLR,,,,,,,,MVFR,,,,,,,,,,,,METAR,7.0
K4S1 261735Z AUTO 16003KT 5SM BR CLR 05/04 A2991 RMK AO2,K4S1,2023-02-26T17:35:00Z,42.42,-124.42,5.0,4.0,160,3,,5.0,29.911417,,,TRUE,TRUE,,,,,,BR,CLR,,,,,,,,MVFR,,,,,,,,,,,,METAR,7.0
K4S1 261715Z AUTO 03003KT 10SM -RA CLR 05/04 A2990 RMK AO2,K4S1,2023-02-26T17:15:00Z,42.42,-124.42,5.0,4.0,30,3,,10.0,29.899607,,,TRUE,TRUE,,,,,,-RA,CLR,,,,,,,,VFR,,,,,,,,,,,,METAR,7.0
K4S1 261655Z AUTO 00000KT 7SM CLR 05/03 A2989 RMK AO2,K4S1,2023-02-26T16:55:00Z,42.42,-124.42,5.0,3.0,0,0,,7.0,29.890747,,,TRUE,TRUE,,,,,,,CLR,,,,,,,,VFR,,,,,,,,,,,,METAR,7.0
K4S1 261635Z AUTO 00000KT 7SM -RA CLR 05/03 A2988 RMK AO2,K4S1,2023-02-26T16:35:00Z,42.42,-124.42,5.0,3.0,0,0,,7.0,29.878937,,,TRUE,TRUE,,,,,,-RA,CLR,,,,,,,,VFR,,,,,,,,,,,,METAR,7.0
K4S1 261615Z AUTO 06004KT 5SM BR CLR 03/02 A2987 RMK AO2,K4S1,2023-02-26T16:15:00Z,42.42,-124.42,3.0,2.0,60,4,,5.0,29.870079,,,TRUE,TRUE,,,,,,BR,CLR,,,,,,,,MVFR,,,,,,,,,,,,METAR,7.0
K4S1 261555Z AUTO 05007KT 7SM CLR 03/02 A2986 RMK AO2 P0001,K4S1,2023-02-26T15:55:00Z,42.42,-124.42,3.0,2.0,50,7,,7.0,29.861221,,,TRUE,TRUE,,,,,,,CLR,,,,,,,,VFR,,,,,,0.01,,,,,,METAR,7.0
K4S1 261535Z AUTO 05009KT 7SM CLR 03/02 A2986 RMK AO2 P0001,K4S1,2023-02-26T15:35:00Z,42.42,-124.42,3.0,2.0,50,9,,7.0,29.861221,,,TRUE,TRUE,,,,,,,CLR,,,,,,,,VFR,,,,,,0.01,,,,,,METAR,7.0
K4S1 261515Z AUTO 04004KT 10SM -RA CLR 03/02 A2984 RMK AO2 P0001,K4S1,2023-02-26T15:15:00Z,42.42,-124.42,3.0,2.0,40,4,,10.0,29.840551,,,TRUE,TRUE,,,,,,-RA,CLR,,,,,,,,VFR,,,,,,0.01,,,,,,METAR,7.0
K4S1 261455Z AUTO 05004KT 10SM -DZ CLR 03/02 A2983 RMK AO2 P0003,K4S1,2023-02-26T14:55:00Z,42.42,-124.42,3.0,2.0,50,4,,10.0,29.828741,,,TRUE,TRUE,,,,,,-DZ,CLR,,,,,,,,VFR,,,,,,0.03,,,,,,METAR,7.0
K4S1 261435Z AUTO 08006KT 10SM -RA CLR 03/02 A2983 RMK AO2 P0003,K4S1,2023-02-26T14:35:00Z,42.42,-124.42,3.0,2.0,80,6,,10.0,29.828741,,,TRUE,TRUE,,,,,,-RA,CLR,,,,,,,,VFR,,,,,,0.03,,,,,,METAR,7.0
K4S1 261415Z AUTO 07007KT 7SM -RA SCT019 04/03 A2983 RMK AO2 P0002,K4S1,2023-02-26T14:15:00Z,42.42,-124.42,4.0,3.0,70,7,,7.0,29.828741,,,TRUE,TRUE,,,,,,-RA,SCT,1900,,,,,,,VFR,,,,,,0.02,,,,,,METAR,7.0
K4S1 261355Z AUTO 34008G20KT 4SM RA SCT017 SCT022 05/03 A2983 RMK AO2 P0018,K4S1,2023-02-26T13:55:00Z,42.42,-124.42,5.0,3.0,340,8,20,4.0,29.828741,,,TRUE,TRUE,,,,,,RA,SCT,1700,SCT,2200,,,,,MVFR,,,,,,0.18,,,,,,METAR,7.0
K4S1 261335Z AUTO 31014G29KT 5SM RA BKN013 BKN020 05/03 A2984 RMK AO2 P0015,K4S1,2023-02-26T13:35:00Z,42.42,-124.42,5.0,3.0,310,14,29,5.0,29.840551,,,TRUE,TRUE,,,,,,RA,BKN,1300,BKN,2000,,,,,MVFR,,,,,,0.15,,,,,,METAR,7.0
K4S1 261315Z AUTO 21025G37KT 1 1/2SM RA BKN011 BKN019 OVC025 04/03 A2981 RMK AO2 P0010,K4S1,2023-02-26T13:15:00Z,42.42,-124.42,4.0,3.0,210,25,37,1.5,29.811024,,,TRUE,TRUE,,,,,,RA,BKN,1100,BKN,1900,OVC,2500,,,IFR,,,,,,0.1,,,,,,METAR,7.0
K4S1 261255Z AUTO 18019G23KT 7SM -RA SCT017 SCT022 SCT032 05/03 A2977 RMK AO2 P0009,K4S1,2023-02-26T12:55:00Z,42.42,-124.42,5.0,3.0,180,19,23,7.0,29.769686,,,TRUE,TRUE,,,,,,-RA,SCT,1700,SCT,2200,SCT,3200,,,VFR,,,,,,0.09,,,,,,METAR,7.0
K4S1 261235Z AUTO 18021G30KT 5SM -RA SCT017 SCT022 05/03 A2975 RMK AO2 P0006,K4S1,2023-02-26T12:35:00Z,42.42,-124.42,5.0,3.0,180,21,30,5.0,29.749016,,,TRUE,TRUE,,,,,,-RA,SCT,1700,SCT,2200,,,,,MVFR,,,,,,0.06,,,,,,METAR,7.0
K4S1 261215Z AUTO 18019G26KT 5SM -RA BKN013 BKN019 05/03 A2975 RMK AO2 P0003,K4S1,2023-02-26T12:15:00Z,42.42,-124.42,5.0,3.0,180,19,26,5.0,29.749016,,,TRUE,TRUE,,,,,,-RA,BKN,1300,BKN,1900,,,,,MVFR,,,,,,0.03,,,,,,METAR,7.0
K4S1 261155Z AUTO 18020G27KT 4SM -RA BKN013 OVC017 05/03 A2976 RMK AO2 P0002,K4S1,2023-02-26T11:55:00Z,42.42,-124.42,5.0,3.0,180,20,27,4.0,29.760826,,,TRUE,TRUE,,,,,,-RA,BKN,1300,OVC,1700,,,,,MVFR,,,,,,0.02,,,,,,METAR,7.0
K4S1 261135Z AUTO 17019G35KT 4SM -RA BKN013 OVC023 05/03 A2976 RMK AO2 P0002,K4S1,2023-02-26T11:35:00Z,42.42,-124.42,5.0,3.0,170,19,35,4.0,29.760826,,,TRUE,TRUE,,,,,,-RA,BKN,1300,OVC,2300,,,,,MVFR,,,,,,0.02,,,,,,METAR,7.0
K4S1 261115Z AUTO 17018G29KT 5SM -RA BKN013 OVC017 05/03 A2977 RMK AO2 P0001,K4S1,2023-02-26T11:15:00Z,42.42,-124.42,5.0,3.0,170,18,29,5.0,29.769686,,,TRUE,TRUE,,,,,,-RA,BKN,1300,OVC,1700,,,,,MVFR,,,,,,0.01,,,,,,METAR,7.0
K4S1 261055Z AUTO 18016G26KT 5SM -RA BKN015 BKN023 BKN027 05/03 A2978 RMK AO2 P0001,K4S1,2023-02-26T10:55:00Z,42.42,-124.42,5.0,3.0,180,16,26,5.0,29.778543,,,TRUE,TRUE,,,,,,-RA,BKN,1500,BKN,2300,BKN,2700,,,MVFR,,,,,,0.01,,,,,,METAR,7.0
K4S1 261035Z AUTO 18018G24KT 7SM -RA SCT013 SCT017 SCT032 05/03 A2978 RMK AO2 P0001,K4S1,2023-02-26T10:35:00Z,42.42,-124.42,5.0,3.0,180,18,24,7.0,29.778543,,,TRUE,TRUE,,,,,,-RA,SCT,1300,SCT,1700,SCT,3200,,,VFR,,,,,,0.01,,,,,,METAR,7.0
K4S1 261015Z AUTO 19019G31KT 7SM -RA CLR 05/04 A2978 RMK AO2 P0001,K4S1,2023-02-26T10:15:00Z,42.42,-124.42,5.0,4.0,190,19,31,7.0,29.778543,,,TRUE,TRUE,,,,,,-RA,CLR,,,,,,,,VFR,,,,,,0.01,,,,,,METAR,7.0
K4S1 260955Z AUTO 19020G26KT 7SM -RA SCT022 SCT029 06/03 A2979 RMK AO2 P0003,K4S1,2023-02-26T09:55:00Z,42.42,-124.42,6.0,3.0,190,20,26,7.0,29.790354,,,TRUE,TRUE,,,,,,-RA,SCT,2200,SCT,2900,,,,,VFR,,,,,,0.03,,,,,,METAR,7.0
K4S1 260935Z AUTO 19023G29KT 5SM -RA BKN023 BKN029 06/03 A2980 RMK AO2 P0002,K4S1,2023-02-26T09:35:00Z,42.42,-124.42,6.0,3.0,190,23,29,5.0,29.799213,,,TRUE,TRUE,,,,,,-RA,BKN,2300,BKN,2900,,,,,MVFR,,,,,,0.02,,,,,,METAR,7.0
K4S1 260915Z AUTO 18014G23KT 10SM -RA BKN027 BKN031 06/02 A2980 RMK AO2,K4S1,2023-02-26T09:15:00Z,42.42,-124.42,6.0,2.0,180,14,23,10.0,29.799213,,,TRUE,TRUE,,,,,,-RA,BKN,2700,BKN,3100,,,,,MVFR,,,,,,,,,,,,METAR,7.0
K4S1 260855Z AUTO 17015G20KT 10SM -RA CLR 06/02 A2981 RMK AO2,K4S1,2023-02-26T08:55:00Z,42.42,-124.42,6.0,2.0,170,15,20,10.0,29.811024,,,TRUE,TRUE,,,,,,-RA,CLR,,,,,,,,VFR,,,,,,,,,,,,METAR,7.0
K4S1 260835Z AUTO 17016G27KT 10SM -RA CLR 07/02 A2980 RMK AO2,K4S1,2023-02-26T08:35:00Z,42.42,-124.42,7.0,2.0,170,16,27,10.0,29.799213,,,TRUE,TRUE,,,,,,-RA,CLR,,,,,,,,VFR,,,,,,,,,,,,METAR,7.0
K4S1 260815Z AUTO 17019G25KT 10SM -DZ CLR 07/02 A2981 RMK AO2,K4S1,2023-02-26T08:15:00Z,42.42,-124.42,7.0,2.0,170,19,25,10.0,29.811024,,,TRUE,TRUE,,,,,,-DZ,CLR,,,,,,,,VFR,,,,,,,,,,,,METAR,7.0
K4S1 260755Z AUTO 16014G20KT 7SM CLR 06/02 A2982 RMK AO2,K4S1,2023-02-26T07:55:00Z,42.42,-124.42,6.0,2.0,160,14,20,7.0,29.819881,,,TRUE,TRUE,,,,,,,CLR,,,,,,,,VFR,,,,,,,,,,,,METAR,7.0
K4S1 260735Z AUTO 16013G18KT 7SM CLR 06/02 A2984 RMK AO2,K4S1,2023-02-26T07:35:00Z,42.42,-124.42,6.0,2.0,160,13,18,7.0,29.840551,,,TRUE,TRUE,,,,,,,CLR,,,,,,,,VFR,,,,,,,,,,,,METAR,7.0
K4S1 260715Z AUTO 17012G17KT 7SM CLR 06/02 A2984 RMK AO2,K4S1,2023-02-26T07:15:00Z,42.42,-124.42,6.0,2.0,170,12,17,7.0,29.840551,,,TRUE,TRUE,,,,,,,CLR,,,,,,,,VFR,,,,,,,,,,,,METAR,7.0
K4S1 260655Z AUTO 17012G19KT 7SM CLR 06/02 A2984 RMK AO2,K4S1,2023-02-26T06:55:00Z,42.42,-124.42,6.0,2.0,170,12,19,7.0,29.840551,,,TRUE,TRUE,,,,,,,CLR,,,,,,,,VFR,,,,,,,,,,,,METAR,7.0
K4S1 260635Z AUTO 16015G20KT 7SM CLR 06/02 A2984 RMK AO2,K4S1,2023-02-26T06:35:00Z,42.42,-124.42,6.0,2.0,160,15,20,7.0,29.840551,,,TRUE,TRUE,,,,,,,CLR,,,,,,,,VFR,,,,,,,,,,,,METAR,7.0
K4S1 260615Z AUTO 16011KT 7SM CLR 05/01 A2985 RMK AO2,K4S1,2023-02-26T06:15:00Z,42.42,-124.42,5.0,1.0,160,11,,7.0,29.84941,,,TRUE,TRUE,,,,,,,CLR,,,,,,,,VFR,,,,,,,,,,,,METAR,7.0
K4S1 260555Z AUTO 15010G17KT 7SM CLR 05/01 A2983 RMK AO2,K4S1,2023-02-26T05:55:00Z,42.42,-124.42,5.0,1.0,150,10,17,7.0,29.828741,,,TRUE,TRUE,,,,,,,CLR,,,,,,,,VFR,,,,,,,,,,,,METAR,7.0
K4S1 260535Z AUTO 16010G14KT 5SM HZ CLR 05/02 A2986 RMK AO2,K4S1,2023-02-26T05:35:00Z,42.42,-124.42,5.0,2.0,160,10,14,5.0,29.861221,,,TRUE,TRUE,,,,,,HZ,CLR,,,,,,,,MVFR,,,,,,,,,,,,METAR,7.0
K4S1 260515Z AUTO 16009KT 7SM CLR 05/02 A2986 RMK AO2,K4S1,2023-02-26T05:15:00Z,42.42,-124.42,5.0,2.0,160,9,,7.0,29.861221,,,TRUE,TRUE,,,,,,,CLR,,,,,,,,VFR,,,,,,,,,,,,METAR,7.0
K4S1 260455Z AUTO 16009KT 7SM CLR 04/02 A2985 RMK AO2,K4S1,2023-02-26T04:55:00Z,42.42,-124.42,4.0,2.0,160,9,,7.0,29.84941,,,TRUE,TRUE,,,,,,,CLR,,,,,,,,VFR,,,,,,,,,,,,METAR,7.0
K4S1 260435Z AUTO 18004KT 7SM CLR 03/01 A2986 RMK AO2,K4S1,2023-02-26T04:35:00Z,42.42,-124.42,3.0,1.0,180,4,,7.0,29.861221,,,TRUE,TRUE,,,,,,,CLR,,,,,,,,VFR,,,,,,,,,,,,METAR,7.0
K4S1 260415Z AUTO 00000KT 7SM CLR 02/01 A2986 RMK AO2,K4S1,2023-02-26T04:15:00Z,42.42,-124.42,2.0,1.0,0,0,,7.0,29.861221,,,TRUE,TRUE,,,,,,,CLR,,,,,,,,VFR,,,,,,,,,,,,METAR,7.0
K4S1 260355Z AUTO 00000KT 7SM CLR 02/01 A2986 RMK AO2,K4S1,2023-02-26T03:55:00Z,42.42,-124.42,2.0,1.0,0,0,,7.0,29.861221,,,TRUE,TRUE,,,,,,,CLR,,,,,,,,VFR,,,,,,,,,,,,METAR,7.0
K4S1 260335Z AUTO 00000KT 7SM CLR 03/01 A2987 RMK AO2,K4S1,2023-02-26T03:35:00Z,42.42,-124.42,3.0,1.0,0,0,,7.0,29.870079,,,TRUE,TRUE,,,,,,,CLR,,,,,,,,VFR,,,,,,,,,,,,METAR,7.0
K4S1 260315Z AUTO 00000KT 7SM CLR 03/01 A2987 RMK AO2,K4S1,2023-02-26T03:15:00Z,42.42,-124.42,3.0,1.0,0,0,,7.0,29.870079,,,TRUE,TRUE,,,,,,,CLR,,,,,,,,VFR,,,,,,,,,,,,METAR,7.0
K4S1 260255Z AUTO 00000KT 7SM CLR 03/01 A2987 RMK AO2,K4S1,2023-02-26T02:55:00Z,42.42,-124.42,3.0,1.0,0,0,,7.0,29.870079,,,TRUE,TRUE,,,,,,,CLR,,,,,,,,VFR,,,,,,,,,,,,METAR,7.0
K4S1 260235Z AUTO 12003KT 7SM CLR 05/01 A2987 RMK AO2,K4S1,2023-02-26T02:35:00Z,42.42,-124.42,5.0,1.0,120,3,,7.0,29.870079,,,TRUE,TRUE,,,,,,,CLR,,,,,,,,VFR,,,,,,,,,,,,METAR,7.0
K4S1 260215Z AUTO 00000KT 7SM CLR 05/02 A2986 RMK AO2,K4S1,2023-02-26T02:15:00Z,42.42,-124.42,5.0,2.0,0,0,,7.0,29.861221,,,TRUE,TRUE,,,,,,,CLR,,,,,,,,VFR,,,,,,,,,,,,METAR,7.0
K4S1 260155Z AUTO 36003KT 5SM HZ CLR 06/02 A2986 RMK AO2,K4S1,2023-02-26T01:55:00Z,42.42,-124.42,6.0,2.0,360,3,,5.0,29.861221,,,TRUE,TRUE,,,,,,HZ,CLR,,,,,,,,MVFR,,,,,,,,,,,,METAR,7.0
K4S1 260135Z AUTO 36004KT 7SM CLR 06/02 A2986 RMK AO2,K4S1,2023-02-26T01:35:00Z,42.42,-124.42,6.0,2.0,360,4,,7.0,29.861221,,,TRUE,TRUE,,,,,,,CLR,,,,,,,,VFR,,,,,,,,,,,,METAR,7.0
K4S1 260115Z AUTO 35006KT 5SM HZ CLR 06/02 A2986 RMK AO2,K4S1,2023-02-26T01:15:00Z,42.42,-124.42,6.0,2.0,350,6,,5.0,29.861221,,,TRUE,TRUE,,,,,,HZ,CLR,,,,,,,,MVFR,,,,,,,,,,,,METAR,7.0
K4S1 260055Z AUTO 34008KT 5SM HZ CLR 07/03 A2986 RMK AO2,K4S1,2023-02-26T00:55:00Z,42.42,-124.42,7.0,3.0,340,8,,5.0,29.861221,,,TRUE,TRUE,,,,,,HZ,CLR,,,,,,,,MVFR,,,,,,,,,,,,METAR,7.0
K4S1 260035Z AUTO 33008KT 4SM HZ CLR 07/03 A2986 RMK AO2,K4S1,2023-02-26T00:35:00Z,42.42,-124.42,7.0,3.0,330,8,,4.0,29.861221,,,TRUE,TRUE,,,,,,HZ,CLR,,,,,,,,MVFR,,,,,,,,,,,,METAR,7.0
K4S1 260015Z AUTO 31009KT 4SM HZ CLR 07/03 A2985 RMK AO2,K4S1,2023-02-26T00:15:00Z,42.42,-124.42,7.0,3.0,310,9,,4.0,29.84941,,,TRUE,TRUE,,,,,,HZ,CLR,,,,,,,,MVFR,,,,,,,,,,,,METAR,7.0
K4S1 252355Z AUTO 32008KT 5SM HZ CLR 07/03 A2983 RMK AO2,K4S1,2023-02-25T23:55:00Z,42.42,-124.42,7.0,3.0,320,8,,5.0,29.828741,,,TRUE,TRUE,,,,,,HZ,CLR,,,,,,,,MVFR,,,,,,,,,,,,METAR,7.0
K4S1 252335Z AUTO 33009KT 5SM HZ CLR 07/03 A2984 RMK AO2,K4S1,2023-02-25T23:35:00Z,42.42,-124.42,7.0,3.0,330,9,,5.0,29.840551,,,TRUE,TRUE,,,,,,HZ,CLR,,,,,,,,MVFR,,,,,,,,,,,,METAR,7.0
K4S1 252315Z AUTO 33008KT 3SM HZ CLR 08/03 A2983 RMK AO2,K4S1,2023-02-25T23:15:00Z,42.42,-124.42,8.0,3.0,330,8,,3.0,29.828741,,,TRUE,TRUE,,,,,,HZ,CLR,,,,,,,,MVFR,,,,,,,,,,,,METAR,7.0
K4S1 252255Z AUTO 33011KT 5SM HZ CLR 08/03 A2983 RMK AO2,K4S1,2023-02-25T22:55:00Z,42.42,-124.42,8.0,3.0,330,11,,5.0,29.828741,,,TRUE,TRUE,,,,,,HZ,CLR,,,,,,,,MVFR,,,,,,,,,,,,METAR,7.0
K4S1 252235Z AUTO 35009KT 5SM HZ CLR 08/04 A2982 RMK AO2,K4S1,2023-02-25T22:35:00Z,42.42,-124.42,8.0,4.0,350,9,,5.0,29.819881,,,TRUE,TRUE,,,,,,HZ,CLR,,,,,,,,MVFR,,,,,,,,,,,,METAR,7.0
K4S1 252215Z AUTO 34011G16KT 4SM HZ CLR 08/03 A2983 RMK AO2,K4S1,2023-02-25T22:15:00Z,42.42,-124.42,8.0,3.0,340,11,16,4.0,29.828741,,,TRUE,TRUE,,,,,,HZ,CLR,,,,,,,,MVFR,,,,,,,,,,,,METAR,7.0
K4S1 252155Z AUTO 33010KT 4SM HZ CLR 08/05 A2983 RMK AO2,K4S1,2023-02-25T21:55:00Z,42.42,-124.42,8.0,5.0,330,10,,4.0,29.828741,,,TRUE,TRUE,,,,,,HZ,CLR,,,,,,,,MVFR,,,,,,,,,,,,METAR,7.0
K4S1 252135Z AUTO 33008KT 4SM HZ CLR 08/04 A2983 RMK AO2,K4S1,2023-02-25T21:35:00Z,42.42,-124.42,8.0,4.0,330,8,,4.0,29.828741,,,TRUE,TRUE,,,,,,HZ,CLR,,,,,,,,MVFR,,,,,,,,,,,,METAR,7.0
K4S1 252115Z AUTO 33009KT 4SM HZ CLR 08/04 A2983 RMK AO2,K4S1,2023-02-25T21:15:00Z,42.42,-124.42,8.0,4.0,330,9,,4.0,29.828741,,,TRUE,TRUE,,,,,,HZ,CLR,,,,,,,,MVFR,,,,,,,,,,,,METAR,7.0
K4S1 252055Z AUTO 34008KT 5SM HZ CLR 08/03 A2983 RMK AO2,K4S1,2023-02-25T20:55:00Z,42.42,-124.42,8.0,3.0,340,8,,5.0,29.828741,,,TRUE,TRUE,,,,,,HZ,CLR,,,,,,,,MVFR,,,,,,,,,,,,METAR,7.0
K4S1 252035Z AUTO 32010KT 5SM HZ CLR 08/03 A2984 RMK AO2,K4S1,2023-02-25T20:35:00Z,42.42,-124.42,8.0,3.0,320,10,,5.0,29.840551,,,TRUE,TRUE,,,,,,HZ,CLR,,,,,,,,MVFR,,,,,,,,,,,,METAR,7.0
K4S1 252015Z AUTO 32009KT 3SM HZ CLR 08/04 A2983 RMK AO2,K4S1,2023-02-25T20:15:00Z,42.42,-124.42,8.0,4.0,320,9,,3.0,29.828741,,,TRUE,TRUE,,,,,,HZ,CLR,,,,,,,,MVFR,,,,,,,,,,,,METAR,7.0
K4S1 251955Z AUTO 33009KT 4SM HZ CLR 08/04 A2985 RMK AO2,K4S1,2023-02-25T19:55:00Z,42.42,-124.42,8.0,4.0,330,9,,4.0,29.84941,,,TRUE,TRUE,,,,,,HZ,CLR,,,,,,,,MVFR,,,,,,,,,,,,METAR,7.0
K4S1 251935Z AUTO 35011G14KT 5SM HZ CLR 08/03 A2986 RMK AO2,K4S1,2023-02-25T19:35:00Z,42.42,-124.42,8.0,3.0,350,11,14,5.0,29.861221,,,TRUE,TRUE,,,,,,HZ,CLR,,,,,,,,MVFR,,,,,,,,,,,,METAR,7.0
K4S1 251915Z AUTO 35013G18KT 5SM HZ CLR 07/03 A2986 RMK AO2,K4S1,2023-02-25T19:15:00Z,42.42,-124.42,7.0,3.0,350,13,18,5.0,29.861221,,,TRUE,TRUE,,,,,,HZ,CLR,,,,,,,,MVFR,,,,,,,,,,,,METAR,7.0
K4S1 251855Z AUTO 34010KT 4SM HZ CLR 07/03 A2988 RMK AO2,K4S1,2023-02-25T18:55:00Z,42.42,-124.42,7.0,3.0,340,10,,4.0,29.878937,,,TRUE,TRUE,,,,,,HZ,CLR,,,,,,,,MVFR,,,,,,,,,,,,METAR,7.0
K4S1 251835Z AUTO 34013KT 4SM HZ CLR 07/02 A2987 RMK AO2,K4S1,2023-02-25T18:35:00Z,42.42,-124.42,7.0,2.0,340,13,,4.0,29.870079,,,TRUE,TRUE,,,,,,HZ,CLR,,,,,,,,MVFR,,,,,,,,,,,,METAR,7.0
K4S1 251815Z AUTO 03006KT 7SM CLR 08/01 A2988 RMK AO2,K4S1,2023-02-25T18:15:00Z,42.42,-124.42,8.0,1.0,30,6,,7.0,29.878937,,,TRUE,TRUE,,,,,,,CLR,,,,,,,,VFR,,,,,,,,,,,,METAR,7.0
K4S1 251755Z AUTO 04007KT 7SM CLR 08/01 A2988 RMK AO2,K4S1,2023-02-25T17:55:00Z,42.42,-124.42,8.0,1.0,40,7,,7.0,29.878937,,,TRUE,TRUE,,,,,,,CLR,,,,,,,,VFR,,,,,,,,,,,,METAR,7.0
K4S1 251735Z AUTO 03008KT 7SM CLR 06/01 A2989 RMK AO2,K4S1,2023-02-25T17:35:00Z,42.42,-124.42,6.0,1.0,30,8,,7.0,29.890747,,,TRUE,TRUE,,,,,,,CLR,,,,,,,,VFR,,,,,,,,,,,,METAR,7.0
K4S1 251715Z AUTO 02005KT 5SM HZ CLR 06/00 A2990 RMK AO2,K4S1,2023-02-25T17:15:00Z,42.42,-124.42,6.0,0.0,20,5,,5.0,29.899607,,,TRUE,TRUE,,,,,,HZ,CLR,,,,,,,,MVFR,,,,,,,,,,,,METAR,7.0
K4S1 251655Z AUTO 05014G18KT 7SM CLR 06/01 A2988 RMK AO2,K4S1,2023-02-25T16:55:00Z,42.42,-124.42,6.0,1.0,50,14,18,7.0,29.878937,,,TRUE,TRUE,,,,,,,CLR,,,,,,,,VFR,,,,,,,,,,,,METAR,7.0
K4S1 251635Z AUTO 05011G16KT 5SM HZ CLR 05/00 A2989 RMK AO2,K4S1,2023-02-25T16:35:00Z,42.42,-124.42,5.0,0.0,50,11,16,5.0,29.890747,,,TRUE,TRUE,,,,,,HZ,CLR,,,,,,,,MVFR,,,,,,,,,,,,METAR,7.0
K4S1 251615Z AUTO 05011G18KT 7SM CLR 05/00 A2989 RMK AO2,K4S1,2023-02-25T16:15:00Z,42.42,-124.42,5.0,0.0,50,11,18,7.0,29.890747,,,TRUE,TRUE,,,,,,,CLR,,,,,,,,VFR,,,,,,,,,,,,METAR,7.0
K4S1 251555Z AUTO 05013G21KT 7SM CLR 03/00 A2989 RMK AO2,K4S1,2023-02-25T15:55:00Z,42.42,-124.42,3.0,0.0,50,13,21,7.0,29.890747,,,TRUE,TRUE,,,,,,,CLR,,,,,,,,VFR,,,,,,,,,,,,METAR,7.0
K4S1 251535Z AUTO 06019G23KT 7SM CLR 03/00 A2988 RMK AO2,K4S1,2023-02-25T15:35:00Z,42.42,-124.42,3.0,0.0,60,19,23,7.0,29.878937,,,TRUE,TRUE,,,,,,,CLR,,,,,,,,VFR,,,,,,,,,,,,METAR,7.0
K4S1 251515Z AUTO 06017G22KT 5SM HZ CLR 03/00 A2987 RMK AO2,K4S1,2023-02-25T15:15:00Z,42.42,-124.42,3.0,0.0,60,17,22,5.0,29.870079,,,TRUE,TRUE,,,,,,HZ,CLR,,,,,,,,MVFR,,,,,,,,,,,,METAR,7.0
K4S1 251455Z AUTO 06016G22KT 7SM CLR 03/00 A2988 RMK AO2,K4S1,2023-02-25T14:55:00Z,42.42,-124.42,3.0,0.0,60,16,22,7.0,29.878937,,,TRUE,TRUE,,,,,,,CLR,,,,,,,,VFR,,,,,,,,,,,,METAR,7.0
K4S1 251435Z AUTO 06014G19KT 7SM CLR 03/00 A2988 RMK AO2,K4S1,2023-02-25T14:35:00Z,42.42,-124.42,3.0,0.0,60,14,19,7.0,29.878937,,,TRUE,TRUE,,,,,,,CLR,,,,,,,,VFR,,,,,,,,,,,,METAR,7.0
K4S1 251415Z AUTO 05016G22KT 7SM CLR 02/00 A2988 RMK AO2,K4S1,2023-02-25T14:15:00Z,42.42,-124.42,2.0,0.0,50,16,22,7.0,29.878937,,,TRUE,TRUE,,,,,,,CLR,,,,,,,,VFR,,,,,,,,,,,,METAR,7.0
K4S1 251355Z AUTO 05017KT 7SM CLR 02/00 A2988 RMK AO2,K4S1,2023-02-25T13:55:00Z,42.42,-124.42,2.0,0.0,50,17,,7.0,29.878937,,,TRUE,TRUE,,,,,,,CLR,,,,,,,,VFR,,,,,,,,,,,,METAR,7.0
K4S1 251335Z AUTO 05016G21KT 7SM CLR 02/00 A2988 RMK AO2,K4S1,2023-02-25T13:35:00Z,42.42,-124.42,2.0,0.0,50,16,21,7.0,29.878937,,,TRUE,TRUE,,,,,,,CLR,,,,,,,,VFR,,,,,,,,,,,,METAR,7.0
K4S1 251315Z AUTO 05012KT 7SM CLR 03/00 A2988 RMK AO2,K4S1,2023-02-25T13:15:00Z,42.42,-124.42,3.0,0.0,50,12,,7.0,29.878937,,,TRUE,TRUE,,,,,,,CLR,,,,,,,,VFR,,,,,,,,,,,,METAR,7.0
K4S1 251255Z AUTO 06012KT 7SM CLR 03/00 A2988 RMK AO2,K4S1,2023-02-25T12:55:00Z,42.42,-124.42,3.0,0.0,60,12,,7.0,29.878937,,,TRUE,TRUE,,,,,,,CLR,,,,,,,,VFR,,,,,,,,,,,,METAR,7.0
K4S1 251235Z AUTO 05012G18KT 7SM CLR 02/00 A2988 RMK AO2,K4S1,2023-02-25T12:35:00Z,42.42,-124.42,2.0,0.0,50,12,18,7.0,29.878937,,,TRUE,TRUE,,,,,,,CLR,,,,,,,,VFR,,,,,,,,,,,,METAR,7.0
K4S1 251215Z AUTO 05017G24KT 7SM CLR 02/00 A2988 RMK AO2,K4S1,2023-02-25T12:15:00Z,42.42,-124.42,2.0,0.0,50,17,24,7.0,29.878937,,,TRUE,TRUE,,,,,,,CLR,,,,,,,,VFR,,,,,,,,,,,,METAR,7.0
K4S1 251155Z AUTO 04014KT 7SM CLR 02/00 A2989 RMK AO2,K4S1,2023-02-25T11:55:00Z,42.42,-124.42,2.0,0.0,40,14,,7.0,29.890747,,,TRUE,TRUE,,,,,,,CLR,,,,,,,,VFR,,,,,,,,,,,,METAR,7.0
K4S1 251135Z AUTO 05013KT 7SM CLR 02/00 A2989 RMK AO2,K4S1,2023-02-25T11:35:00Z,42.42,-124.42,2.0,0.0,50,13,,7.0,29.890747,,,TRUE,TRUE,,,,,,,CLR,,,,,,,,VFR,,,,,,,,,,,,METAR,7.0
K4S1 251115Z AUTO 05015KT 7SM CLR 02/00 A2990 RMK AO2,K4S1,2023-02-25T11:15:00Z,42.42,-124.42,2.0,0.0,50,15,,7.0,29.899607,,,TRUE,TRUE,,,,,,,CLR,,,,,,,,VFR,,,,,,,,,,,,METAR,7.0
K4S1 251055Z AUTO 05015KT 5SM BR CLR 02/00 A2990 RMK AO2,K4S1,2023-02-25T10:55:00Z,42.42,-124.42,2.0,0.0,50,15,,5.0,29.899607,,,TRUE,TRUE,,,,,,BR,CLR,,,,,,,,MVFR,,,,,,,,,,,,METAR,7.0
K4S1 251035Z AUTO 06014KT 7SM CLR 02/00 A2990 RMK AO2,K4S1,2023-02-25T10:35:00Z,42.42,-124.42,2.0,0.0,60,14,,7.0,29.899607,,,TRUE,TRUE,,,,,,,CLR,,,,,,,,VFR,,,,,,,,,,,,METAR,7.0
K4S1 251015Z AUTO 05017KT 7SM CLR 02/00 A2991 RMK AO2,K4S1,2023-02-25T10:15:00Z,42.42,-124.42,2.0,0.0,50,17,,7.0,29.911417,,,TRUE,TRUE,,,,,,,CLR,,,,,,,,VFR,,,,,,,,,,,,METAR,7.0
K4S1 250955Z AUTO 06015G21KT 7SM CLR 02/00 A2992 RMK AO2,K4S1,2023-02-25T09:55:00Z,42.42,-124.42,2.0,0.0,60,15,21,7.0,29.920275,,,TRUE,TRUE,,,,,,,CLR,,,,,,,,VFR,,,,,,,,,,,,METAR,7.0
K4S1 250935Z AUTO 05015KT 7SM CLR 02/00 A2991 RMK AO2,K4S1,2023-02-25T09:35:00Z,42.42,-124.42,2.0,0.0,50,15,,7.0,29.911417,,,TRUE,TRUE,,,,,,,CLR,,,,,,,,VFR,,,,,,,,,,,,METAR,7.0
K4S1 250915Z AUTO 05017KT 7SM CLR 02/00 A2991 RMK AO2,K4S1,2023-02-25T09:15:00Z,42.42,-124.42,2.0,0.0,50,17,,7.0,29.911417,,,TRUE,TRUE,,,,,,,CLR,,,,,,,,VFR,,,,,,,,,,,,METAR,7.0
K4S1 250855Z AUTO 03011KT 7SM CLR 02/00 A2992 RMK AO2,K4S1,2023-02-25T08:55:00Z,42.42,-124.42,2.0,0.0,30,11,,7.0,29.920275,,,TRUE,TRUE,,,,,,,CLR,,,,,,,,VFR,,,,,,,,,,,,METAR,7.0
K4S1 250835Z AUTO 05013KT 7SM CLR 03/00 A2993 RMK AO2,K4S1,2023-02-25T08:35:00Z,42.42,-124.42,3.0,0.0,50,13,,7.0,29.929134,,,TRUE,TRUE,,,,,,,CLR,,,,,,,,VFR,,,,,,,,,,,,METAR,7.0
K4S1 250815Z AUTO 06012KT 7SM CLR 03/00 A2993 RMK AO2,K4S1,2023-02-25T08:15:00Z,42.42,-124.42,3.0,0.0,60,12,,7.0,29.929134,,,TRUE,TRUE,,,,,,,CLR,,,,,,,,VFR,,,,,,,,,,,,METAR,7.0
K4S1 250755Z AUTO 04012KT 7SM CLR 03/01 A2993 RMK AO2,K4S1,2023-02-25T07:55:00Z,42.42,-124.42,3.0,1.0,40,12,,7.0,29.929134,,,TRUE,TRUE,,,,,,,CLR,,,,,,,,VFR,,,,,,,,,,,,METAR,7.0
K4S1 250735Z AUTO 06009G14KT 7SM CLR 03/01 A2992 RMK AO2,K4S1,2023-02-25T07:35:00Z,42.42,-124.42,3.0,1.0,60,9,14,7.0,29.920275,,,TRUE,TRUE,,,,,,,CLR,,,,,,,,VFR,,,,,,,,,,,,METAR,7.0
K4S1 250715Z AUTO 07009KT 7SM CLR 03/01 A2992 RMK AO2,K4S1,2023-02-25T07:15:00Z,42.42,-124.42,3.0,1.0,70,9,,7.0,29.920275,,,TRUE,TRUE,,,,,,,CLR,,,,,,,,VFR,,,,,,,,,,,,METAR,7.0
K4S1 250655Z AUTO 05014G18KT 7SM CLR 03/01 A2991 RMK AO2,K4S1,2023-02-25T06:55:00Z,42.42,-124.42,3.0,1.0,50,14,18,7.0,29.911417,,,TRUE,TRUE,,,,,,,CLR,,,,,,,,VFR,,,,,,,,,,,,METAR,7.0
K4S1 250635Z AUTO 05014KT 7SM CLR 02/01 A2993 RMK AO2,K4S1,2023-02-25T06:35:00Z,42.42,-124.42,2.0,1.0,50,14,,7.0,29.929134,,,TRUE,TRUE,,,,,,,CLR,,,,,,,,VFR,,,,,,,,,,,,METAR,7.0
K4S1 250615Z AUTO 05020KT 7SM CLR 02/01 A2992 RMK AO2,K4S1,2023-02-25T06:15:00Z,42.42,-124.42,2.0,1.0,50,20,,7.0,29.920275,,,TRUE,TRUE,,,,,,,CLR,,,,,,,,VFR,,,,,,,,,,,,METAR,7.0
K4S1 250555Z AUTO 05014KT 7SM CLR 02/01 A2993 RMK AO2,K4S1,2023-02-25T05:55:00Z,42.42,-124.42,2.0,1.0,50,14,,7.0,29.929134,,,TRUE,TRUE,,,,,,,CLR,,,,,,,,VFR,,,,,,,,,,,,METAR,7.0
K4S1 250535Z AUTO 05016KT 7SM CLR 03/01 A2993 RMK AO2,K4S1,2023-02-25T05:35:00Z,42.42,-124.42,3.0,1.0,50,16,,7.0,29.929134,,,TRUE,TRUE,,,,,,,CLR,,,,,,,,VFR,,,,,,,,,,,,METAR,7.0
K4S1 250515Z AUTO 05018KT 7SM CLR 04/02 A2993 RMK AO2,K4S1,2023-02-25T05:15:00Z,42.42,-124.42,4.0,2.0,50,18,,7.0,29.929134,,,TRUE,TRUE,,,,,,,CLR,,,,,,,,VFR,,,,,,,,,,,,METAR,7.0
K4S1 250455Z AUTO 05014G21KT 7SM CLR 04/02 A2993 RMK AO2,K4S1,2023-02-25T04:55:00Z,42.42,-124.42,4.0,2.0,50,14,21,7.0,29.929134,,,TRUE,TRUE,,,,,,,CLR,,,,,,,,VFR,,,,,,,,,,,,METAR,7.0
K4S1 250435Z AUTO 05016KT 7SM CLR 03/02 A2992 RMK AO2,K4S1,2023-02-25T04:35:00Z,42.42,-124.42,3.0,2.0,50,16,,7.0,29.920275,,,TRUE,TRUE,,,,,,,CLR,,,,,,,,VFR,,,,,,,,,,,,METAR,7.0
K4S1 250415Z AUTO 06012G18KT 5SM BR CLR 04/02 A2991 RMK AO2,K4S1,2023-02-25T04:15:00Z,42.42,-124.42,4.0,2.0,60,12,18,5.0,29.911417,,,TRUE,TRUE,,,,,,BR,CLR,,,,,,,,MVFR,,,,,,,,,,,,METAR,7.0
K4S1 250355Z AUTO 06015KT 7SM CLR 04/02 A2990 RMK AO2,K4S1,2023-02-25T03:55:00Z,42.42,-124.42,4.0,2.0,60,15,,7.0,29.899607,,,TRUE,TRUE,,,,,,,CLR,,,,,,,,VFR,,,,,,,,,,,,METAR,7.0
K4S1 250335Z AUTO 05012KT 7SM CLR 03/02 A2990 RMK AO2,K4S1,2023-02-25T03:35:00Z,42.42,-124.42,3.0,2.0,50,12,,7.0,29.899607,,,TRUE,TRUE,,,,,,,CLR,,,,,,,,VFR,,,,,,,,,,,,METAR,7.0
K4S1 250315Z AUTO 05014KT 7SM CLR 04/02 A2989 RMK AO2,K4S1,2023-02-25T03:15:00Z,42.42,-124.42,4.0,2.0,50,14,,7.0,29.890747,,,TRUE,TRUE,,,,,,,CLR,,,,,,,,VFR,,,,,,,,,,,,METAR,7.0
K4S1 250255Z AUTO 05013KT 7SM CLR 04/02 A2989 RMK AO2,K4S1,2023-02-25T02:55:00Z,42.42,-124.42,4.0,2.0,50,13,,7.0,29.890747,,,TRUE,TRUE,,,,,,,CLR,,,,,,,,VFR,,,,,,,,,,,,METAR,7.0
K4S1 250235Z AUTO 05013KT 7SM CLR 04/02 A2988 RMK AO2,K4S1,2023-02-25T02:35:00Z,42.42,-124.42,4.0,2.0,50,13,,7.0,29.878937,,,TRUE,TRUE,,,,,,,CLR,,,,,,,,VFR,,,,,,,,,,,,METAR,7.0
K4S1 250215Z AUTO 02008KT 10SM CLR 05/02 A2988 RMK AO2,K4S1,2023-02-25T02:15:00Z,42.42,-124.42,5.0,2.0,20,8,,10.0,29.878937,,,TRUE,TRUE,,,,,,,CLR,,,,,,,,VFR,,,,,,,,,,,,METAR,7.0
K4S1 250155Z AUTO 03004KT 7SM CLR 06/02 A2987 RMK AO2,K4S1,2023-02-25T01:55:00Z,42.42,-124.42,6.0,2.0,30,4,,7.0,29.870079,,,TRUE,TRUE,,,,,,,CLR,,,,,,,,VFR,,,,,,,,,,,,METAR,7.0
K4S1 250135Z AUTO 02005KT 7SM CLR 07/03 A2986 RMK AO2,K4S1,2023-02-25T01:35:00Z,42.42,-124.42,7.0,3.0,20,5,,7.0,29.861221,,,TRUE,TRUE,,,,,,,CLR,,,,,,,,VFR,,,,,,,,,,,,METAR,7.0
K4S1 250115Z AUTO 04003KT 7SM CLR 07/03 A2985 RMK AO2,K4S1,2023-02-25T01:15:00Z,42.42,-124.42,7.0,3.0,40,3,,7.0,29.84941,,,TRUE,TRUE,,,,,,,CLR,,,,,,,,VFR,,,,,,,,,,,,METAR,7.0
K4S1 250055Z AUTO 36013G18KT 7SM CLR 07/03 A2984 RMK AO2,K4S1,2023-02-25T00:55:00Z,42.42,-124.42,7.0,3.0,360,13,18,7.0,29.840551,,,TRUE,TRUE,,,,,,,CLR,,,,,,,,VFR,,,,,,,,,,,,METAR,7.0
K4S1 250035Z AUTO 36014G19KT 5SM HZ CLR 07/03 A2983 RMK AO2,K4S1,2023-02-25T00:35:00Z,42.42,-124.42,7.0,3.0,360,14,19,5.0,29.828741,,,TRUE,TRUE,,,,,,HZ,CLR,,,,,,,,MVFR,,,,,,,,,,,,METAR,7.0
K4S1 250015Z AUTO 34012G17KT 5SM HZ CLR 08/04 A2982 RMK AO2,K4S1,2023-02-25T00:15:00Z,42.42,-124.42,8.0,4.0,340,12,17,5.0,29.819881,,,TRUE,TRUE,,,,,,HZ,CLR,,,,,,,,MVFR,,,,,,,,,,,,METAR,7.0
K4S1 242355Z AUTO 35010G15KT 5SM HZ CLR 08/03 A2982 RMK AO2,K4S1,2023-02-24T23:55:00Z,42.42,-124.42,8.0,3.0,350,10,15,5.0,29.819881,,,TRUE,TRUE,,,,,,HZ,CLR,,,,,,,,MVFR,,,,,,,,,,,,METAR,7.0
K4S1 242335Z AUTO 35010KT 7SM CLR 08/03 A2982 RMK AO2,K4S1,2023-02-24T23:35:00Z,42.42,-124.42,8.0,3.0,350,10,,7.0,29.819881,,,TRUE,TRUE,,,,,,,CLR,,,,,,,,VFR,,,,,,,,,,,,METAR,7.0
K4S1 242315Z AUTO 35012G19KT 5SM HZ CLR 08/03 A2981 RMK AO2,K4S1,2023-02-24T23:15:00Z,42.42,-124.42,8.0,3.0,350,12,19,5.0,29.811024,,,TRUE,TRUE,,,,,,HZ,CLR,,,,,,,,MVFR,,,,,,,,,,,,METAR,7.0
K4S1 242255Z AUTO 36014G18KT 7SM CLR 08/03 A2979 RMK AO2,K4S1,2023-02-24T22:55:00Z,42.42,-124.42,8.0,3.0,360,14,18,7.0,29.790354,,,TRUE,TRUE,,,,,,,CLR,,,,,,,,VFR,,,,,,,,,,,,METAR,7.0
K4S1 242235Z AUTO 36013KT 7SM CLR 08/03 A2978 RMK AO2,K4S1,2023-02-24T22:35:00Z,42.42,-124.42,8.0,3.0,360,13,,7.0,29.778543,,,TRUE,TRUE,,,,,,,CLR,,,,,,,,VFR,,,,,,,,,,,,METAR,7.0
K4S1 242215Z AUTO 35013G17KT 5SM HZ CLR 08/03 A2978 RMK AO2,K4S1,2023-02-24T22:15:00Z,42.42,-124.42,8.0,3.0,350,13,17,5.0,29.778543,,,TRUE,TRUE,,,,,,HZ,CLR,,,,,,,,MVFR,,,,,,,,,,,,METAR,7.0
K4S1 242155Z AUTO 35010G16KT 5SM HZ CLR 08/03 A2978 RMK AO2,K4S1,2023-02-24T21:55:00Z,42.42,-124.42,8.0,3.0,350,10,16,5.0,29.778543,,,TRUE,TRUE,,,,,,HZ,CLR,,,,,,,,MVFR,,,,,,,,,,,,METAR,7.0
K4S1 242135Z AUTO 36010G15KT 5SM HZ CLR 07/02 A2977 RMK AO2,K4S1,2023-02-24T21:35:00Z,42.42,-124.42,7.0,2.0,360,10,15,5.0,29.769686,,,TRUE,TRUE,,,,,,HZ,CLR,,,,,,,,MVFR,,,,,,,,,,,,METAR,7.0
K4S1 242115Z AUTO 04004KT 5SM HZ CLR 08/03 A2977 RMK AO2,K4S1,2023-02-24T21:15:00Z,42.42,-124.42,8.0,3.0,40,4,,5.0,29.769686,,,TRUE,TRUE,,,,,,HZ,CLR,,,,,,,,MVFR,,,,,,,,,,,,METAR,7.0
K4S1 242055Z AUTO 05004KT 7SM CLR 07/03 A2977 RMK AO2,K4S1,2023-02-24T20:55:00Z,42.42,-124.42,7.0,3.0,50,4,,7.0,29.769686,,,TRUE,TRUE,,,,,,,CLR,,,,,,,,VFR,,,,,,,,,,,,METAR,7.0
K4S1 242035Z AUTO 02004KT 7SM CLR 07/03 A2977 RMK AO2,K4S1,2023-02-24T20:35:00Z,42.42,-124.42,7.0,3.0,20,4,,7.0,29.769686,,,TRUE,TRUE,,,,,,,CLR,,,,,,,,VFR,,,,,,,,,,,,METAR,7.0
K4S1 242015Z AUTO 06003KT 5SM HZ CLR 07/03 A2976 RMK AO2,K4S1,2023-02-24T20:15:00Z,42.42,-124.42,7.0,3.0,60,3,,5.0,29.760826,,,TRUE,TRUE,,,,,,HZ,CLR,,,,,,,,MVFR,,,,,,,,,,,,METAR,7.0
K4S1 241955Z AUTO 00000KT 4SM HZ CLR 06/02 A2976 RMK AO2,K4S1,2023-02-24T19:55:00Z,42.42,-124.42,6.0,2.0,0,0,,4.0,29.760826,,,TRUE,TRUE,,,,,,HZ,CLR,,,,,,,,MVFR,,,,,,,,,,,,METAR,7.0
K4S1 241935Z AUTO 00000KT 7SM CLR 06/02 A2976 RMK AO2,K4S1,2023-02-24T19:35:00Z,42.42,-124.42,6.0,2.0,0,0,,7.0,29.760826,,,TRUE,TRUE,,,,,,,CLR,,,,,,,,VFR,,,,,,,,,,,,METAR,7.0
K4S1 241915Z AUTO 07005KT 7SM CLR 05/02 A2976 RMK AO2,K4S1,2023-02-24T19:15:00Z,42.42,-124.42,5.0,2.0,70,5,,7.0,29.760826,,,TRUE,TRUE,,,,,,,CLR,,,,,,,,VFR,,,,,,,,,,,,METAR,7.0
K4S1 241855Z AUTO 06005KT 5SM HZ CLR 04/01 A2975 RMK AO2,K4S1,2023-02-24T18:55:00Z,42.42,-124.42,4.0,1.0,60,5,,5.0,29.749016,,,TRUE,TRUE,,,,,,HZ,CLR,,,,,,,,MVFR,,,,,,,,,,,,METAR,7.0
K4S1 241835Z AUTO 06006KT 5SM HZ CLR 03/00 A2975 RMK AO2,K4S1,2023-02-24T18:35:00Z,42.42,-124.42,3.0,0.0,60,6,,5.0,29.749016,,,TRUE,TRUE,,,,,,HZ,CLR,,,,,,,,MVFR,,,,,,,,,,,,METAR,7.0
K4S1 241815Z AUTO 05012G15KT 7SM CLR 03/00 A2973 RMK AO2,K4S1,2023-02-24T18:15:00Z,42.42,-124.42,3.0,0.0,50,12,15,7.0,29.731298,,,TRUE,TRUE,,,,,,,CLR,,,,,,,,VFR,,,,,,,,,,,,METAR,7.0
K4S1 241755Z AUTO 05006KT 7SM CLR 02/00 A2973 RMK AO2,K4S1,2023-02-24T17:55:00Z,42.42,-124.42,2.0,0.0,50,6,,7.0,29.731298,,,TRUE,TRUE,,,,,,,CLR,,,,,,,,VFR,,,,,,,,,,,,METAR,7.0
K4S1 241735Z AUTO 06007KT 5SM HZ CLR 02/00 A2973 RMK AO2,K4S1,2023-02-24T17:35:00Z,42.42,-124.42,2.0,0.0,60,7,,5.0,29.731298,,,TRUE,TRUE,,,,,,HZ,CLR,,,,,,,,MVFR,,,,,,,,,,,,METAR,7.0
K4S1 241715Z AUTO 06008G15KT 5SM BR CLR 02/00 A2971 RMK AO2,K4S1,2023-02-24T17:15:00Z,42.42,-124.42,2.0,0.0,60,8,15,5.0,29.71063,,,TRUE,TRUE,,,,,,BR,CLR,,,,,,,,MVFR,,,,,,,,,,,,METAR,7.0
K4S1 241655Z AUTO 07009KT 5SM BR CLR 02/00 A2970 RMK AO2,K4S1,2023-02-24T16:55:00Z,42.42,-124.42,2.0,0.0,70,9,,5.0,29.698818,,,TRUE,TRUE,,,,,,BR,CLR,,,,,,,,MVFR,,,,,,,,,,,,METAR,7.0
K4S1 241635Z AUTO 06005KT 5SM BR CLR 01/00 A2970 RMK AO2,K4S1,2023-02-24T16:35:00Z,42.42,-124.42,1.0,0.0,60,5,,5.0,29.698818,,,TRUE,TRUE,,,,,,BR,CLR,,,,,,,,MVFR,,,,,,,,,,,,METAR,7.0
K4S1 241615Z AUTO 06010G14KT 5SM BR CLR 01/00 A2969 RMK AO2,K4S1,2023-02-24T16:15:00Z,42.42,-124.42,1.0,0.0,60,10,14,5.0,29.68996,,,TRUE,TRUE,,,,,,BR,CLR,,,,,,,,MVFR,,,,,,,,,,,,METAR,7.0
K4S1 241555Z AUTO 07005KT 7SM CLR 00/M01 A2969 RMK AO2,K4S1,2023-02-24T15:55:00Z,42.42,-124.42,0.0,-1.0,70,5,,7.0,29.68996,,,TRUE,TRUE,,,,,,,CLR,,,,,,,,VFR,,,,,,,,,,,,METAR,7.0
K4S1 241535Z AUTO 06003KT 5SM BR CLR 00/M01 A2969 RMK AO2,K4S1,2023-02-24T15:35:00Z,42.42,-124.42,0.0,-1.0,60,3,,5.0,29.68996,,,TRUE,TRUE,,,,,,BR,CLR,,,,,,,,MVFR,,,,,,,,,,,,METAR,7.0
K4S1 241515Z AUTO 05006KT 7SM CLR 00/M01 A2968 RMK AO2,K4S1,2023-02-24T15:15:00Z,42.42,-124.42,0.0,-1.0,50,6,,7.0,29.681103,,,TRUE,TRUE,,,,,,,CLR,,,,,,,,VFR,,,,,,,,,,,,METAR,7.0
K4S1 241455Z AUTO 05005KT 7SM CLR 00/M01 A2967 RMK AO2,K4S1,2023-02-24T14:55:00Z,42.42,-124.42,0.0,-1.0,50,5,,7.0,29.66929,,,TRUE,TRUE,,,,,,,CLR,,,,,,,,VFR,,,,,,,,,,,,METAR,7.0
K4S1 241435Z AUTO 07005KT 7SM CLR 00/M01 A2966 RMK AO2,K4S1,2023-02-24T14:35:00Z,42.42,-124.42,0.0,-1.0,70,5,,7.0,29.660433,,,TRUE,TRUE,,,,,,,CLR,,,,,,,,VFR,,,,,,,,,,,,METAR,7.0
K4S1 241415Z AUTO 08006KT 7SM CLR 00/M01 A2965 RMK AO2,K4S1,2023-02-24T14:15:00Z,42.42,-124.42,0.0,-1.0,80,6,,7.0,29.648623,,,TRUE,TRUE,,,,,,,CLR,,,,,,,,VFR,,,,,,,,,,,,METAR,7.0
K4S1 241355Z AUTO 06008KT 7SM CLR 00/M01 A2965 RMK AO2,K4S1,2023-02-24T13:55:00Z,42.42,-124.42,0.0,-1.0,60,8,,7.0,29.648623,,,TRUE,TRUE,,,,,,,CLR,,,,,,,,VFR,,,,,,,,,,,,METAR,7.0
K4S1 241335Z AUTO 08006KT 7SM CLR 00/M01 A2965 RMK AO2,K4S1,2023-02-24T13:35:00Z,42.42,-124.42,0.0,-1.0,80,6,,7.0,29.648623,,,TRUE,TRUE,,,,,,,CLR,,,,,,,,VFR,,,,,,,,,,,,METAR,7.0
K4S1 241315Z AUTO 05009KT 7SM CLR 00/M01 A2964 RMK AO2,K4S1,2023-02-24T13:15:00Z,42.42,-124.42,0.0,-1.0,50,9,,7.0,29.639763,,,TRUE,TRUE,,,,,,,CLR,,,,,,,,VFR,,,,,,,,,,,,METAR,7.0
K4S1 241255Z AUTO 05011KT 10SM CLR 00/M01 A2964 RMK AO2,K4S1,2023-02-24T12:55:00Z,42.42,-124.42,0.0,-1.0,50,11,,10.0,29.639763,,,TRUE,TRUE,,,,,,,CLR,,,,,,,,VFR,,,,,,,,,,,,METAR,7.0
K4S1 241235Z AUTO 05011KT 7SM CLR 00/00 A2964 RMK AO2,K4S1,2023-02-24T12:35:00Z,42.42,-124.42,0.0,0.0,50,11,,7.0,29.639763,,,TRUE,TRUE,,,,,,,CLR,,,,,,,,VFR,,,,,,,,,,,,METAR,7.0
K4S1 241215Z AUTO 03006KT 7SM CLR 00/M01 A2965 RMK AO2,K4S1,2023-02-24T12:15:00Z,42.42,-124.42,0.0,-1.0,30,6,,7.0,29.648623,,,TRUE,TRUE,,,,,,,CLR,,,,,,,,VFR,,,,,,,,,,,,METAR,7.0
K4S1 241155Z AUTO 04007KT 7SM CLR 00/M01 A2965 RMK AO2,K4S1,2023-02-24T11:55:00Z,42.42,-124.42,0.0,-1.0,40,7,,7.0,29.648623,,,TRUE,TRUE,,,,,,,CLR,,,,,,,,VFR,,,,,,,,,,,,METAR,7.0
K4S1 241135Z AUTO 04005KT 7SM CLR 00/00 A2965 RMK AO2,K4S1,2023-02-24T11:35:00Z,42.42,-124.42,0.0,0.0,40,5,,7.0,29.648623,,,TRUE,TRUE,,,,,,,CLR,,,,,,,,VFR,,,,,,,,,,,,METAR,7.0
K4S1 241115Z AUTO 03005KT 7SM CLR 00/00 A2965 RMK AO2,K4S1,2023-02-24T11:15:00Z,42.42,-124.42,0.0,0.0,30,5,,7.0,29.648623,,,TRUE,TRUE,,,,,,,CLR,,,,,,,,VFR,,,,,,,,,,,,METAR,7.0
K4S1 241055Z AUTO 04006KT 7SM CLR 00/00 A2965 RMK AO2,K4S1,2023-02-24T10:55:00Z,42.42,-124.42,0.0,0.0,40,6,,7.0,29.648623,,,TRUE,TRUE,,,,,,,CLR,,,,,,,,VFR,,,,,,,,,,,,METAR,7.0
K4S1 241035Z AUTO 00000KT 7SM CLR 00/M01 A2965 RMK AO2,K4S1,2023-02-24T10:35:00Z,42.42,-124.42,0.0,-1.0,0,0,,7.0,29.648623,,,TRUE,TRUE,,,,,,,CLR,,,,,,,,VFR,,,,,,,,,,,,METAR,7.0
K4S1 241015Z AUTO 04005KT 7SM CLR 00/00 A2965 RMK AO2,K4S1,2023-02-24T10:15:00Z,42.42,-124.42,0.0,0.0,40,5,,7.0,29.648623,,,TRUE,TRUE,,,,,,,CLR,,,,,,,,VFR,,,,,,,,,,,,METAR,7.0
K4S1 240955Z AUTO 00000KT 7SM CLR 00/00 A2964 RMK AO2,K4S1,2023-02-24T09:55:00Z,42.42,-124.42,0.0,0.0,0,0,,7.0,29.639763,,,TRUE,TRUE,,,,,,,CLR,,,,,,,,VFR,,,,,,,,,,,,METAR,7.0
K4S1 240935Z AUTO 00000KT 7SM CLR 00/00 A2964 RMK AO2,K4S1,2023-02-24T09:35:00Z,42.42,-124.42,0.0,0.0,0,0,,7.0,29.639763,,,TRUE,TRUE,,,,,,,CLR,,,,,,,,VFR,,,,,,,,,,,,METAR,7.0
K4S1 240915Z AUTO 00000KT 7SM CLR 00/00 A2963 RMK AO2,K4S1,2023-02-24T09:15:00Z,42.42,-124.42,0.0,0.0,0,0,,7.0,29.630905,,,TRUE,TRUE,,,,,,,CLR,,,,,,,,VFR,,,,,,,,,,,,METAR,7.0
K4S1 240855Z AUTO 00000KT 7SM CLR 00/00 A2963 RMK AO2,K4S1,2023-02-24T08:55:00Z,42.42,-124.42,0.0,0.0,0,0,,7.0,29.630905,,,TRUE,TRUE,,,,,,,CLR,,,,,,,,VFR,,,,,,,,,,,,METAR,7.0
K4S1 240835Z AUTO 00000KT 7SM CLR 00/00 A2963 RMK AO2,K4S1,2023-02-24T08:35:00Z,42.42,-124.42,0.0,0.0,0,0,,7.0,29.630905,,,TRUE,TRUE,,,,,,,CLR,,,,,,,,VFR,,,,,,,,,,,,METAR,7.0
K4S1 240815Z AUTO 06006KT 7SM CLR 00/00 A2962 RMK AO2,K4S1,2023-02-24T08:15:00Z,42.42,-124.42,0.0,0.0,60,6,,7.0,29.619095,,,TRUE,TRUE,,,,,,,CLR,,,,,,,,VFR,,,,,,,,,,,,METAR,7.0
K4S1 240755Z AUTO 05008KT 7SM CLR 00/00 A2962 RMK AO2,K4S1,2023-02-24T07:55:00Z,42.42,-124.42,0.0,0.0,50,8,,7.0,29.619095,,,TRUE,TRUE,,,,,,,CLR,,,,,,,,VFR,,,,,,,,,,,,METAR,7.0
K4S1 240735Z AUTO 05009KT 7SM CLR 00/00 A2961 RMK AO2,K4S1,2023-02-24T07:35:00Z,42.42,-124.42,0.0,0.0,50,9,,7.0,29.610237,,,TRUE,TRUE,,,,,,,CLR,,,,,,,,VFR,,,,,,,,,,,,METAR,7.0
K4S1 240715Z AUTO 07005KT 7SM CLR 00/00 A2961 RMK AO2,K4S1,2023-02-24T07:15:00Z,42.42,-124.42,0.0,0.0,70,5,,7.0,29.610237,,,TRUE,TRUE,,,,,,,CLR,,,,,,,,VFR,,,,,,,,,,,,METAR,7.0
K4S1 240655Z AUTO 05003KT 7SM CLR 00/00 A2961 RMK AO2,K4S1,2023-02-24T06:55:00Z,42.42,-124.42,0.0,0.0,50,3,,7.0,29.610237,,,TRUE,TRUE,,,,,,,CLR,,,,,,,,VFR,,,,,,,,,,,,METAR,7.0
K4S1 240635Z AUTO 05006KT 7SM CLR 00/00 A2960 RMK AO2,K4S1,2023-02-24T06:35:00Z,42.42,-124.42,0.0,0.0,50,6,,7.0,29.601377,,,TRUE,TRUE,,,,,,,CLR,,,,,,,,VFR,,,,,,,,,,,,METAR,7.0
K4S1 240615Z AUTO 05005KT 7SM CLR 00/00 A2960 RMK AO2,K4S1,2023-02-24T06:15:00Z,42.42,-124.42,0.0,0.0,50,5,,7.0,29.601377,,,TRUE,TRUE,,,,,,,CLR,,,,,,,,VFR,,,,,,,,,,,,METAR,7.0
K4S1 240555Z AUTO 05004KT 7SM CLR 00/00 A2960 RMK AO2,K4S1,2023-02-24T05:55:00Z,42.42,-124.42,0.0,0.0,50,4,,7.0,29.601377,,,TRUE,TRUE,,,,,,,CLR,,,,,,,,VFR,,,,,,,,,,,,METAR,7.0
K4S1 240535Z AUTO 05007KT 7SM CLR 00/00 A2959 RMK AO2,K4S1,2023-02-24T05:35:00Z,42.42,-124.42,0.0,0.0,50,7,,7.0,29.589567,,,TRUE,TRUE,,,,,,,CLR,,,,,,,,VFR,,,,,,,,,,,,METAR,7.0
K4S1 240515Z AUTO 05009KT 7SM CLR 00/00 A2959 RMK AO2,K4S1,2023-02-24T05:15:00Z,42.42,-124.42,0.0,0.0,50,9,,7.0,29.589567,,,TRUE,TRUE,,,,,,,CLR,,,,,,,,VFR,,,,,,,,,,,,METAR,7.0
K4S1 240455Z AUTO 00000KT 5SM BR CLR 00/00 A2959 RMK AO2,K4S1,2023-02-24T04:55:00Z,42.42,-124.42,0.0,0.0,0,0,,5.0,29.589567,,,TRUE,TRUE,,,,,,BR,CLR,,,,,,,,MVFR,,,,,,,,,,,,METAR,7.0
K4S1 240435Z AUTO 08004KT 7SM CLR 00/00 A2959 RMK AO2,K4S1,2023-02-24T04:35:00Z,42.42,-124.42,0.0,0.0,80,4,,7.0,29.589567,,,TRUE,TRUE,,,,,,,CLR,,,,,,,,VFR,,,,,,,,,,,,METAR,7.0
K4S1 240415Z AUTO 06005KT 7SM CLR 00/00 A2958 RMK AO2,K4S1,2023-02-24T04:15:00Z,42.42,-124.42,0.0,0.0,60,5,,7.0,29.58071,,,TRUE,TRUE,,,,,,,CLR,,,,,,,,VFR,,,,,,,,,,,,METAR,7.0
K4S1 240355Z AUTO 05006KT 7SM CLR 00/00 A2958 RMK AO2 P0005,K4S1,2023-02-24T03:55:00Z,42.42,-124.42,0.0,0.0,50,6,,7.0,29.58071,,,TRUE,TRUE,,,,,,,CLR,,,,,,,,VFR,,,,,,0.05,,,,,,METAR,7.0
K4S1 240335Z AUTO 05010KT 7SM -SN SCT004 SCT009 00/00 A2958 RMK AO2 P0005,K4S1,2023-02-24T03:35:00Z,42.42,-124.42,0.0,0.0,50,10,,7.0,29.58071,,,TRUE,TRUE,,,,,,-SN,SCT,400,SCT,900,,,,,VFR,,,,,,0.05,,,,,,METAR,7.0
K4S1 240315Z AUTO 03006KT 1SM -SN OVC004 00/00 A2959 RMK AO2 P0005,K4S1,2023-02-24T03:15:00Z,42.42,-124.42,0.0,0.0,30,6,,1.0,29.589567,,,TRUE,TRUE,,,,,,-SN,OVC,400,,,,,,,LIFR,,,,,,0.05,,,,,,METAR,7.0
K4S1 240255Z AUTO 00000KT 3SM -SN SCT011 00/00 A2959 RMK AO2 P0004,K4S1,2023-02-24T02:55:00Z,42.42,-124.42,0.0,0.0,0,0,,3.0,29.589567,,,TRUE,TRUE,,,,,,-SN,SCT,1100,,,,,,,MVFR,,,,,,0.04,,,,,,METAR,7.0
K4S1 240235Z AUTO 06004KT 4SM -SN SCT009 00/00 A2958 RMK AO2 P0003,K4S1,2023-02-24T02:35:00Z,42.42,-124.42,0.0,0.0,60,4,,4.0,29.58071,,,TRUE,TRUE,,,,,,-SN,SCT,900,,,,,,,MVFR,,,,,,0.03,,,,,,METAR,7.0
K4S1 240215Z AUTO 00000KT 2SM -SN OVC007 00/00 A2958 RMK AO2 P0002,K4S1,2023-02-24T02:15:00Z,42.42,-124.42,0.0,0.0,0,0,,2.0,29.58071,,,TRUE,TRUE,,,,,,-SN,OVC,700,,,,,,,IFR,,,,,,0.02,,,,,,METAR,7.0
K4S1 240155Z AUTO 16003KT 1 3/4SM -SN OVC007 00/00 A2958 RMK AO2 P0011,K4S1,2023-02-24T01:55:00Z,42.42,-124.42,0.0,0.0,160,3,,1.75,29.58071,,,TRUE,TRUE,,,,,,-SN,OVC,700,,,,,,,IFR,,,,,,0.11,,,,,,METAR,7.0
K4S1 240135Z AUTO 13003KT 2 1/2SM -RA BKN005 BKN013 00/00 A2957 RMK AO2 P0008,K4S1,2023-02-24T01:35:00Z,42.42,-124.42,0.0,0.0,130,3,,2.5,29.568897,,,TRUE,TRUE,,,,,,-RA,BKN,500,BKN,1300,,,,,IFR,,,,,,0.08,,,,,,METAR,7.0
K4S1 240115Z AUTO 00000KT 1 1/4SM -SN BKN003 OVC008 00/00 A2957 RMK AO2 P0003,K4S1,2023-02-24T01:15:00Z,42.42,-124.42,0.0,0.0,0,0,,1.25,29.568897,,,TRUE,TRUE,,,,,,-SN,BKN,300,OVC,800,,,,,LIFR,,,,,,0.03,,,,,,METAR,7.0
K4S1 240055Z AUTO 16003KT 1 1/4SM -SN OVC005 00/00 A2957 RMK AO2 P0010,K4S1,2023-02-24T00:55:00Z,42.42,-124.42,0.0,0.0,160,3,,1.25,29.568897,,,TRUE,TRUE,,,,,,-SN,OVC,500,,,,,,,IFR,,,,,,0.1,,,,,,METAR,7.0
K4S1 240035Z AUTO 23009KT 1 1/4SM -RA BKN005 BKN011 BKN018 01/00 A2958 RMK AO2 P0005,K4S1,2023-02-24T00:35:00Z,42.42,-124.42,1.0,0.0,230,9,,1.25,29.58071,,,TRUE,TRUE,,,,,,-RA,BKN,500,BKN,1100,BKN,1800,,,IFR,,,,,,0.05,,,,,,METAR,7.0
K4S1 240015Z AUTO 00000KT 3/4SM -SN OVC007 00/00 A2957 RMK AO2 P0003,K4S1,2023-02-24T00:15:00Z,42.42,-124.42,0.0,0.0,0,0,,0.75,29.568897,,,TRUE,TRUE,,,,,,-SN,OVC,700,,,,,,,LIFR,,,,,,0.03,,,,,,METAR,7.0
K4S1 232355Z AUTO 14003KT 1 1/4SM -SN BKN008 BKN013 BKN022 00/00 A2958 RMK AO2 P0002,K4S1,2023-02-23T23:55:00Z,42.42,-124.42,0.0,0.0,140,3,,1.25,29.58071,,,TRUE,TRUE,,,,,,-SN,BKN,800,BKN,1300,BKN,2200,,,IFR,,,,,,0.02,,,,,,METAR,7.0
K4S1 232335Z AUTO 15008KT 5SM BR CLR 01/00 A2957 RMK AO2 P0001,K4S1,2023-02-23T23:35:00Z,42.42,-124.42,1.0,0.0,150,8,,5.0,29.568897,,,TRUE,TRUE,,,,,,BR,CLR,,,,,,,,MVFR,,,,,,0.01,,,,,,METAR,7.0
K4S1 232315Z AUTO 14003KT 3SM UP SCT010 SCT015 02/01 A2958 RMK AO2 P0001,K4S1,2023-02-23T23:15:00Z,42.42,-124.42,2.0,1.0,140,3,,3.0,29.58071,,,TRUE,TRUE,,,,,,UP,SCT,1000,SCT,1500,,,,,MVFR,,,,,,0.01,,,,,,METAR,7.0
K4S1 232255Z AUTO 21009KT 2SM -RA BKN010 BKN015 01/01 A2959 RMK AO2 VIS 1 1/4V4 P0001,K4S1,2023-02-23T22:55:00Z,42.42,-124.42,1.0,1.0,210,9,,2.0,29.589567,,,TRUE,TRUE,,,,,,-RA,BKN,1000,BKN,1500,,,,,IFR,,,,,,0.01,,,,,,METAR,7.0
K4S1 232235Z AUTO 14005KT 10SM RA SCT007 SCT011 SCT020 01/00 A2958 RMK AO2,K4S1,2023-02-23T22:35:00Z,42.42,-124.42,1.0,0.0,140,5,,10.0,29.58071,,,TRUE,TRUE,,,,,,RA,SCT,700,SCT,1100,SCT,2000,,,VFR,,,,,,,,,,,,METAR,7.0
K4S1 232215Z AUTO 15006KT 2SM -RA SCT007 SCT011 BKN020 01/00 A2959 RMK AO2,K4S1,2023-02-23T22:15:00Z,42.42,-124.42,1.0,0.0,150,6,,2.0,29.589567,,,TRUE,TRUE,,,,,,-RA,SCT,700,SCT,1100,BKN,2000,,,IFR,,,,,,,,,,,,METAR,7.0
K4S1 232155Z AUTO 13004KT 4SM BR CLR 01/00 A2959 RMK AO2,K4S1,2023-02-23T21:55:00Z,42.42,-124.42,1.0,0.0,130,4,,4.0,29.589567,,,TRUE,TRUE,,,,,,BR,CLR,,,,,,,,MVFR,,,,,,,,,,,,METAR,7.0
K4S1 232135Z AUTO 00000KT 4SM BR CLR 01/00 A2960 RMK AO2,K4S1,2023-02-23T21:35:00Z,42.42,-124.42,1.0,0.0,0,0,,4.0,29.601377,,,TRUE,TRUE,,,,,,BR,CLR,,,,,,,,MVFR,,,,,,,,,,,,METAR,7.0
K4S1 232115Z AUTO 00000KT 3SM BR CLR 02/01 A2960 RMK AO2,K4S1,2023-02-23T21:15:00Z,42.42,-124.42,2.0,1.0,0,0,,3.0,29.601377,,,TRUE,TRUE,,,,,,BR,CLR,,,,,,,,MVFR,,,,,,,,,,,,METAR,7.0
K4S1 232055Z AUTO 28004KT 2SM UP SCT006 SCT013 01/00 A2961 RMK AO2 VIS 3/4V5 P0013,K4S1,2023-02-23T20:55:00Z,42.42,-124.42,1.0,0.0,280,4,,2.0,29.610237,,,TRUE,TRUE,,,,,,UP,SCT,600,SCT,1300,,,,,IFR,,,,,,0.13,,,,,,METAR,7.0
K4S1 232035Z AUTO 16006KT 2 1/2SM -RA SCT013 01/00 A2959 RMK AO2 P0011,K4S1,2023-02-23T20:35:00Z,42.42,-124.42,1.0,0.0,160,6,,2.5,29.589567,,,TRUE,TRUE,,,,,,-RA,SCT,1300,,,,,,,IFR,,,,,,0.11,,,,,,METAR,7.0
K4S1 232015Z AUTO 00000KT 4SM -RA 01/00 A2961 RMK AO2 P0005,K4S1,2023-02-23T20:15:00Z,42.42,-124.42,1.0,0.0,0,0,,4.0,29.610237,,,TRUE,TRUE,,,,,,-RA,,,,,,,,,,,,,,,0.05,,,,,,METAR,7.0
K4S1 231815Z AUTO 18011KT 10SM -RA CLR 01/00 A2965 RMK AO2,K4S1,2023-02-23T18:15:00Z,42.42,-124.42,1.0,0.0,180,11,,10.0,29.648623,,,TRUE,TRUE,,,,,,-RA,CLR,,,,,,,,VFR,,,,,,,,,,,,METAR,7.0
K4S1 231755Z AUTO 18012G16KT 5SM BR CLR 01/00 A2964 RMK AO2,K4S1,2023-02-23T17:55:00Z,42.42,-124.42,1.0,0.0,180,12,16,5.0,29.639763,,,TRUE,TRUE,,,,,,BR,CLR,,,,,,,,MVFR,,,,,,,,,,,,METAR,7.0
K4S1 231735Z AUTO 18013KT 5SM BR CLR 01/00 A2964 RMK AO2,K4S1,2023-02-23T17:35:00Z,42.42,-124.42,1.0,0.0,180,13,,5.0,29.639763,,,TRUE,TRUE,,,,,,BR,CLR,,,,,,,,MVFR,,,,,,,,,,,,METAR,7.0
K4S1 231715Z AUTO 17014G18KT 5SM BR CLR 01/00 A2964 RMK AO2,K4S1,2023-02-23T17:15:00Z,42.42,-124.42,1.0,0.0,170,14,18,5.0,29.639763,,,TRUE,TRUE,,,,,,BR,CLR,,,,,,,,MVFR,,,,,,,,,,,,METAR,7.0
K4S1 231655Z AUTO 17011KT 5SM BR CLR 02/00 A2965 RMK AO2,K4S1,2023-02-23T16:55:00Z,42.42,-124.42,2.0,0.0,170,11,,5.0,29.648623,,,TRUE,TRUE,,,,,,BR,CLR,,,,,,,,MVFR,,,,,,,,,,,,METAR,7.0
K4S1 231635Z AUTO 17009KT 4SM BR CLR 01/00 A2965 RMK AO2,K4S1,2023-02-23T16:35:00Z,42.42,-124.42,1.0,0.0,170,9,,4.0,29.648623,,,TRUE,TRUE,,,,,,BR,CLR,,,,,,,,MVFR,,,,,,,,,,,,METAR,7.0
K4S1 231615Z AUTO 16012KT 4SM BR CLR 01/00 A2965 RMK AO2,K4S1,2023-02-23T16:15:00Z,42.42,-124.42,1.0,0.0,160,12,,4.0,29.648623,,,TRUE,TRUE,,,,,,BR,CLR,,,,,,,,MVFR,,,,,,,,,,,,METAR,7.0
K4S1 231555Z AUTO 17007KT 5SM BR CLR 01/00 A2965 RMK AO2,K4S1,2023-02-23T15:55:00Z,42.42,-124.42,1.0,0.0,170,7,,5.0,29.648623,,,TRUE,TRUE,,,,,,BR,CLR,,,,,,,,MVFR,,,,,,,,,,,,METAR,7.0
K4S1 231535Z AUTO 16006KT 5SM BR CLR 00/00 A2965 RMK AO2,K4S1,2023-02-23T15:35:00Z,42.42,-124.42,0.0,0.0,160,6,,5.0,29.648623,,,TRUE,TRUE,,,,,,BR,CLR,,,,,,,,MVFR,,,,,,,,,,,,METAR,7.0
K4S1 231515Z AUTO 13005KT 7SM CLR 00/00 A2966 RMK AO2,K4S1,2023-02-23T15:15:00Z,42.42,-124.42,0.0,0.0,130,5,,7.0,29.660433,,,TRUE,TRUE,,,,,,,CLR,,,,,,,,VFR,,,,,,,,,,,,METAR,7.0
K4S1 231455Z AUTO 14004KT 7SM CLR 01/00 A2967 RMK AO2,K4S1,2023-02-23T14:55:00Z,42.42,-124.42,1.0,0.0,140,4,,7.0,29.66929,,,TRUE,TRUE,,,,,,,CLR,,,,,,,,VFR,,,,,,,,,,,,METAR,7.0
K4S1 231435Z AUTO 03004KT 5SM BR CLR 01/00 A2967 RMK AO2,K4S1,2023-02-23T14:35:00Z,42.42,-124.42,1.0,0.0,30,4,,5.0,29.66929,,,TRUE,TRUE,,,,,,BR,CLR,,,,,,,,MVFR,,,,,,,,,,,,METAR,7.0
K4S1 231415Z AUTO 32008KT 5SM BR CLR 01/00 A2967 RMK AO2,K4S1,2023-02-23T14:15:00Z,42.42,-124.42,1.0,0.0,320,8,,5.0,29.66929,,,TRUE,TRUE,,,,,,BR,CLR,,,,,,,,MVFR,,,,,,,,,,,,METAR,7.0
K4S1 231355Z AUTO 31014KT 5SM BR CLR 01/00 A2967 RMK AO2,K4S1,2023-02-23T13:55:00Z,42.42,-124.42,1.0,0.0,310,14,,5.0,29.66929,,,TRUE,TRUE,,,,,,BR,CLR,,,,,,,,MVFR,,,,,,,,,,,,METAR,7.0
K4S1 231335Z AUTO 34003KT 00/00 A2967 RMK AO2 PWINO,K4S1,2023-02-23T13:35:00Z,42.42,-124.42,0.0,0.0,340,3,,,29.66929,,,TRUE,TRUE,,,,,TRUE,,,,,,,,,,,,,,,,,,,,,,METAR,7.0
K4S1 231315Z AUTO 15006KT 5SM BR CLR 00/00 A2966 RMK AO2,K4S1,2023-02-23T13:15:00Z,42.42,-124.42,0.0,0.0,150,6,,5.0,29.660433,,,TRUE,TRUE,,,,,,BR,CLR,,,,,,,,MVFR,,,,,,,,,,,,METAR,7.0
K4S1 231255Z AUTO 00000KT 5SM BR SCT034 SCT043 00/00 A2967 RMK AO2,K4S1,2023-02-23T12:55:00Z,42.42,-124.42,0.0,0.0,0,0,,5.0,29.66929,,,TRUE,TRUE,,,,,,BR,SCT,3400,SCT,4300,,,,,MVFR,,,,,,,,,,,,METAR,7.0
K4S1 231235Z AUTO 05006KT 5SM -RA SCT034 SCT043 02/00 A2967 RMK AO2,K4S1,2023-02-23T12:35:00Z,42.42,-124.42,2.0,0.0,50,6,,5.0,29.66929,,,TRUE,TRUE,,,,,,-RA,SCT,3400,SCT,4300,,,,,MVFR,,,,,,,,,,,,METAR,7.0
K4S1 231215Z AUTO 32009KT 5SM BR CLR 02/00 A2968 RMK AO2,K4S1,2023-02-23T12:15:00Z,42.42,-124.42,2.0,0.0,320,9,,5.0,29.681103,,,TRUE,TRUE,,,,,,BR,CLR,,,,,,,,MVFR,,,,,,,,,,,,METAR,7.0
K4S1 231155Z AUTO 16003KT 4SM BR SCT028 SCT038 01/00 A2968 RMK AO2,K4S1,2023-02-23T11:55:00Z,42.42,-124.42,1.0,0.0,160,3,,4.0,29.681103,,,TRUE,TRUE,,,,,,BR,SCT,2800,SCT,3800,,,,,MVFR,,,,,,,,,,,,METAR,7.0
K4S1 231135Z AUTO 17005KT 5SM BR CLR 00/00 A2967 RMK AO2,K4S1,2023-02-23T11:35:00Z,42.42,-124.42,0.0,0.0,170,5,,5.0,29.66929,,,TRUE,TRUE,,,,,,BR,CLR,,,,,,,,MVFR,,,,,,,,,,,,METAR,7.0
K4S1 231115Z AUTO 13003KT 5SM BR CLR 00/00 A2968 RMK AO2,K4S1,2023-02-23T11:15:00Z,42.42,-124.42,0.0,0.0,130,3,,5.0,29.681103,,,TRUE,TRUE,,,,,,BR,CLR,,,,,,,,MVFR,,,,,,,,,,,,METAR,7.0
K4S1 231055Z AUTO 14003KT 7SM CLR 00/00 A2968 RMK AO2 P0001,K4S1,2023-02-23T10:55:00Z,42.42,-124.42,0.0,0.0,140,3,,7.0,29.681103,,,TRUE,TRUE,,,,,,,CLR,,,,,,,,VFR,,,,,,0.01,,,,,,METAR,7.0
K4S1 231035Z AUTO 00000KT 7SM UP CLR 00/00 A2969 RMK AO2 P0001,K4S1,2023-02-23T10:35:00Z,42.42,-124.42,0.0,0.0,0,0,,7.0,29.68996,,,TRUE,TRUE,,,,,,UP,CLR,,,,,,,,VFR,,,,,,0.01,,,,,,METAR,7.0
K4S1 231015Z AUTO 14004KT 5SM UP SCT012 SCT020 SCT029 00/00 A2970 RMK AO2 P0001,K4S1,2023-02-23T10:15:00Z,42.42,-124.42,0.0,0.0,140,4,,5.0,29.698818,,,TRUE,TRUE,,,,,,UP,SCT,1200,SCT,2000,SCT,2900,,,MVFR,,,,,,0.01,,,,,,METAR,7.0
K4S1 230955Z AUTO 00000KT 7SM -SN SCT020 SCT030 SCT039 00/00 A2971 RMK AO2,K4S1,2023-02-23T09:55:00Z,42.42,-124.42,0.0,0.0,0,0,,7.0,29.71063,,,TRUE,TRUE,,,,,,-SN,SCT,2000,SCT,3000,SCT,3900,,,VFR,,,,,,,,,,,,METAR,7.0
K4S1 230935Z AUTO 00000KT 7SM SCT006 00/00 A2970 RMK AO2,K4S1,2023-02-23T09:35:00Z,42.42,-124.42,0.0,0.0,0,0,,7.0,29.698818,,,TRUE,TRUE,,,,,,,SCT,600,,,,,,,VFR,,,,,,,,,,,,METAR,7.0
K4S1 230915Z AUTO 04003KT 5SM -RA SCT006 BKN013 00/00 A2970 RMK AO2,K4S1,2023-02-23T09:15:00Z,42.42,-124.42,0.0,0.0,40,3,,5.0,29.698818,,,TRUE,TRUE,,,,,,-RA,SCT,600,BKN,1300,,,,,MVFR,,,,,,,,,,,,METAR,7.0
K4S1 230855Z AUTO 07007KT 2 1/2SM -SN SCT006 BKN015 00/00 A2970 RMK AO2 P0001,K4S1,2023-02-23T08:55:00Z,42.42,-124.42,0.0,0.0,70,7,,2.5,29.698818,,,TRUE,TRUE,,,,,,-SN,SCT,600,BKN,1500,,,,,IFR,,,,,,0.01,,,,,,METAR,7.0
K4S1 230835Z AUTO 04004KT 7SM CLR 00/00 A2970 RMK AO2,K4S1,2023-02-23T08:35:00Z,42.42,-124.42,0.0,0.0,40,4,,7.0,29.698818,,,TRUE,TRUE,,,,,,,CLR,,,,,,,,VFR,,,,,,,,,,,,METAR,7.0
K4S1 230815Z AUTO 00000KT 7SM CLR 00/00 A2970 RMK AO2,K4S1,2023-02-23T08:15:00Z,42.42,-124.42,0.0,0.0,0,0,,7.0,29.698818,,,TRUE,TRUE,,,,,,,CLR,,,,,,,,VFR,,,,,,,,,,,,METAR,7.0
K4S1 230755Z AUTO 05005KT 5SM -SN SCT011 01/00 A2971 RMK AO2,K4S1,2023-02-23T07:55:00Z,42.42,-124.42,1.0,0.0,50,5,,5.0,29.71063,,,TRUE,TRUE,,,,,,-SN,SCT,1100,,,,,,,MVFR,,,,,,,,,,,,METAR,7.0
K4S1 230735Z AUTO 00000KT 10SM CLR 00/00 A2971 RMK AO2,K4S1,2023-02-23T07:35:00Z,42.42,-124.42,0.0,0.0,0,0,,10.0,29.71063,,,TRUE,TRUE,,,,,,,CLR,,,,,,,,VFR,,,,,,,,,,,,METAR,7.0
K4S1 230715Z AUTO 04003KT 5SM UP CLR 00/00 A2971 RMK AO2,K4S1,2023-02-23T07:15:00Z,42.42,-124.42,0.0,0.0,40,3,,5.0,29.71063,,,TRUE,TRUE,,,,,,UP,CLR,,,,,,,,MVFR,,,,,,,,,,,,METAR,7.0
K4S1 230655Z AUTO 00000KT 7SM UP SCT006 00/00 A2972 RMK AO2 P0003,K4S1,2023-02-23T06:55:00Z,42.42,-124.42,0.0,0.0,0,0,,7.0,29.719488,,,TRUE,TRUE,,,,,,UP,SCT,600,,,,,,,VFR,,,,,,0.03,,,,,,METAR,7.0
K4S1 230635Z AUTO 07004KT 1 1/2SM UP OVC006 00/00 A2972 RMK AO2 P0003,K4S1,2023-02-23T06:35:00Z,42.42,-124.42,0.0,0.0,70,4,,1.5,29.719488,,,TRUE,TRUE,,,,,,UP,OVC,600,,,,,,,IFR,,,,,,0.03,,,,,,METAR,7.0
K4S1 230615Z AUTO 14005KT 3SM -RA SCT008 BKN012 BKN020 01/00 A2972 RMK AO2,K4S1,2023-02-23T06:15:00Z,42.42,-124.42,1.0,0.0,140,5,,3.0,29.719488,,,TRUE,TRUE,,,,,,-RA,SCT,800,BKN,1200,BKN,2000,,,MVFR,,,,,,,,,,,,METAR,7.0
K4S1 230555Z AUTO 17004KT 5SM -RA CLR 01/00 A2972 RMK AO2,K4S1,2023-02-23T05:55:00Z,42.42,-124.42,1.0,0.0,170,4,,5.0,29.719488,,,TRUE,TRUE,,,,,,-RA,CLR,,,,,,,,MVFR,,,,,,,,,,,,METAR,7.0
K4S1 230535Z AUTO 15008KT 5SM -DZ SCT007 SCT011 SCT050 01/00 A2971 RMK AO2,K4S1,2023-02-23T05:35:00Z,42.42,-124.42,1.0,0.0,150,8,,5.0,29.71063,,,TRUE,TRUE,,,,,,-DZ,SCT,700,SCT,1100,SCT,5000,,,MVFR,,,,,,,,,,,,METAR,7.0
K4S1 230515Z AUTO 18007KT 5SM BR CLR 01/00 A2972 RMK AO2,K4S1,2023-02-23T05:15:00Z,42.42,-124.42,1.0,0.0,180,7,,5.0,29.719488,,,TRUE,TRUE,,,,,,BR,CLR,,,,,,,,MVFR,,,,,,,,,,,,METAR,7.0
K4S1 230455Z AUTO 13003KT 7SM UP CLR 01/00 A2971 RMK AO2,K4S1,2023-02-23T04:55:00Z,42.42,-124.42,1.0,0.0,130,3,,7.0,29.71063,,,TRUE,TRUE,,,,,,UP,CLR,,,,,,,,VFR,,,,,,,,,,,,METAR,7.0
K4S1 230435Z AUTO 16004KT 7SM -RA CLR 01/00 A2972 RMK AO2,K4S1,2023-02-23T04:35:00Z,42.42,-124.42,1.0,0.0,160,4,,7.0,29.719488,,,TRUE,TRUE,,,,,,-RA,CLR,,,,,,,,VFR,,,,,,,,,,,,METAR,7.0
K4S1 230415Z AUTO 00000KT 7SM SCT015 SCT022 01/00 A2972 RMK AO2,K4S1,2023-02-23T04:15:00Z,42.42,-124.42,1.0,0.0,0,0,,7.0,29.719488,,,TRUE,TRUE,,,,,,,SCT,1500,SCT,2200,,,,,VFR,,,,,,,,,,,,METAR,7.0
K4S1 230355Z AUTO 04005KT 7SM CLR 01/00 A2972 RMK AO2,K4S1,2023-02-23T03:55:00Z,42.42,-124.42,1.0,0.0,40,5,,7.0,29.719488,,,TRUE,TRUE,,,,,,,CLR,,,,,,,,VFR,,,,,,,,,,,,METAR,7.0
K4S1 230335Z AUTO 06003KT 7SM CLR 01/00 A2971 RMK AO2,K4S1,2023-02-23T03:35:00Z,42.42,-124.42,1.0,0.0,60,3,,7.0,29.71063,,,TRUE,TRUE,,,,,,,CLR,,,,,,,,VFR,,,,,,,,,,,,METAR,7.0
K4S1 230315Z AUTO 05008KT 7SM SCT006 SCT010 SCT016 01/00 A2971 RMK AO2,K4S1,2023-02-23T03:15:00Z,42.42,-124.42,1.0,0.0,50,8,,7.0,29.71063,,,TRUE,TRUE,,,,,,,SCT,600,SCT,1000,SCT,1600,,,VFR,,,,,,,,,,,,METAR,7.0
K4S1 230255Z AUTO 06009G20KT 4SM -RA SCT006 SCT014 BKN025 01/00 A2971 RMK AO2 P0001,K4S1,2023-02-23T02:55:00Z,42.42,-124.42,1.0,0.0,60,9,20,4.0,29.71063,,,TRUE,TRUE,,,,,,-RA,SCT,600,SCT,1400,BKN,2500,,,MVFR,,,,,,0.01,,,,,,METAR,7.0
K4S1 230235Z AUTO 02004KT 7SM -RA SCT018 02/00 A2972 RMK AO2,K4S1,2023-02-23T02:35:00Z,42.42,-124.42,2.0,0.0,20,4,,7.0,29.719488,,,TRUE,TRUE,,,,,,-RA,SCT,1800,,,,,,,VFR,,,,,,,,,,,,METAR,7.0
K4S1 230215Z AUTO 31019G24KT 5SM BR CLR 03/01 A2972 RMK AO2,K4S1,2023-02-23T02:15:00Z,42.42,-124.42,3.0,1.0,310,19,24,5.0,29.719488,,,TRUE,TRUE,,,,,,BR,CLR,,,,,,,,MVFR,,,,,,,,,,,,METAR,7.0
K4S1 230155Z AUTO 30013G16KT 4SM BR CLR 02/01 A2971 RMK AO2 PNO,K4S1,2023-02-23T01:55:00Z,42.42,-124.42,2.0,1.0,300,13,16,4.0,29.71063,,,TRUE,TRUE,,,,,,BR,CLR,,,,,,,,MVFR,,,,,,,,,,,,METAR,7.0
K4S1 230135Z AUTO 00000KT 5SM BR CLR 02/01 A2971 RMK AO2,K4S1,2023-02-23T01:35:00Z,42.42,-124.42,2.0,1.0,0,0,,5.0,29.71063,,,TRUE,TRUE,,,,,,BR,CLR,,,,,,,,MVFR,,,,,,,,,,,,METAR,7.0
K4S1 230115Z AUTO 17005KT 5SM BR SCT027 SCT035 02/01 A2970 RMK AO2,K4S1,2023-02-23T01:15:00Z,42.42,-124.42,2.0,1.0,170,5,,5.0,29.698818,,,TRUE,TRUE,,,,,,BR,SCT,2700,SCT,3500,,,,,MVFR,,,,,,,,,,,,METAR,7.0
K4S1 230055Z AUTO 17004KT 4SM -RA SCT036 SCT043 02/01 A2971 RMK AO2,K4S1,2023-02-23T00:55:00Z,42.42,-124.42,2.0,1.0,170,4,,4.0,29.71063,,,TRUE,TRUE,,,,,,-RA,SCT,3600,SCT,4300,,,,,MVFR,,,,,,,,,,,,METAR,7.0
K4S1 230035Z AUTO 00000KT 7SM -RA SCT035 SCT044 02/00 A2971 RMK AO2,K4S1,2023-02-23T00:35:00Z,42.42,-124.42,2.0,0.0,0,0,,7.0,29.71063,,,TRUE,TRUE,,,,,,-RA,SCT,3500,SCT,4400,,,,,VFR,,,,,,,,,,,,METAR,7.0
K4S1 230015Z AUTO 01003KT 7SM CLR 02/00 A2971 RMK AO2,K4S1,2023-02-23T00:15:00Z,42.42,-124.42,2.0,0.0,10,3,,7.0,29.71063,,,TRUE,TRUE,,,,,,,CLR,,,,,,,,VFR,,,,,,,,,,,,METAR,7.0
K4S1 222355Z AUTO 04003KT 5SM BR SCT010 02/01 A2971 RMK AO2 P0001,K4S1,2023-02-22T23:55:00Z,42.42,-124.42,2.0,1.0,40,3,,5.0,29.71063,,,TRUE,TRUE,,,,,,BR,SCT,1000,,,,,,,MVFR,,,,,,0.01,,,,,,METAR,7.0
K4S1 222335Z AUTO 05009KT 5SM BR CLR 03/01 A2973 RMK AO2 P0001,K4S1,2023-02-22T23:35:00Z,42.42,-124.42,3.0,1.0,50,9,,5.0,29.731298,,,TRUE,TRUE,,,,,,BR,CLR,,,,,,,,MVFR,,,,,,0.01,,,,,,METAR,7.0
K4S1 222315Z AUTO 05005KT 5SM BR SCT011 SCT016 04/03 A2972 RMK AO2 P0001,K4S1,2023-02-22T23:15:00Z,42.42,-124.42,4.0,3.0,50,5,,5.0,29.719488,,,TRUE,TRUE,,,,,,BR,SCT,1100,SCT,1600,,,,,MVFR,,,,,,0.01,,,,,,METAR,7.0
K4S1 222255Z AUTO 01006KT 1 3/4SM RA BKN011 BKN016 BKN021 02/01 A2973 RMK AO2 VIS 1V5 P0005,K4S1,2023-02-22T22:55:00Z,42.42,-124.42,2.0,1.0,10,6,,1.75,29.731298,,,TRUE,TRUE,,,,,,RA,BKN,1100,BKN,1600,BKN,2100,,,IFR,,,,,,0.05,,,,,,METAR,7.0
K4S1 222235Z AUTO 00000KT 5SM BR CLR 03/02 A2971 RMK AO2 P0002,K4S1,2023-02-22T22:35:00Z,42.42,-124.42,3.0,2.0,0,0,,5.0,29.71063,,,TRUE,TRUE,,,,,,BR,CLR,,,,,,,,MVFR,,,,,,0.02,,,,,,METAR,7.0
K4S1 222215Z AUTO 00000KT 5SM BR SCT008 SCT018 02/01 A2972 RMK AO2 P0002,K4S1,2023-02-22T22:15:00Z,42.42,-124.42,2.0,1.0,0,0,,5.0,29.719488,,,TRUE,TRUE,,,,,,BR,SCT,800,SCT,1800,,,,,MVFR,,,,,,0.02,,,,,,METAR,7.0
K4S1 222155Z AUTO 00000KT 1 3/4SM -RA SCT008 BKN018 01/00 A2973 RMK AO2 VIS 1/2V5 P0003,K4S1,2023-02-22T21:55:00Z,42.42,-124.42,1.0,0.0,0,0,,1.75,29.731298,,,TRUE,TRUE,,,,,,-RA,SCT,800,BKN,1800,,,,,IFR,,,,,,0.03,,,,,,METAR,7.0
K4S1 222135Z AUTO 22005KT 4SM -RA SCT019 SCT029 03/01 A2972 RMK AO2,K4S1,2023-02-22T21:35:00Z,42.42,-124.42,3.0,1.0,220,5,,4.0,29.719488,,,TRUE,TRUE,,,,,,-RA,SCT,1900,SCT,2900,,,,,MVFR,,,,,,,,,,,,METAR,7.0
K4S1 222115Z AUTO 23008KT 3SM -RA SCT020 SCT029 SCT035 03/01 A2972 RMK AO2,K4S1,2023-02-22T21:15:00Z,42.42,-124.42,3.0,1.0,230,8,,3.0,29.719488,,,TRUE,TRUE,,,,,,-RA,SCT,2000,SCT,2900,SCT,3500,,,MVFR,,,,,,,,,,,,METAR,7.0
K4S1 222055Z AUTO 22006KT 2SM BR CLR 05/02 A2972 RMK AO2,K4S1,2023-02-22T20:55:00Z,42.42,-124.42,5.0,2.0,220,6,,2.0,29.719488,,,TRUE,TRUE,,,,,,BR,CLR,,,,,,,,IFR,,,,,,,,,,,,METAR,7.0
K4S1 222035Z AUTO 22005KT 2 1/2SM BR CLR 04/02 A2973 RMK AO2 VIS 1 3/4V4,K4S1,2023-02-22T20:35:00Z,42.42,-124.42,4.0,2.0,220,5,,2.5,29.731298,,,TRUE,TRUE,,,,,,BR,CLR,,,,,,,,IFR,,,,,,,,,,,,METAR,7.0
K4S1 222015Z AUTO 23007KT 1 1/2SM BR VV007 04/02 A2973 RMK AO2,K4S1,2023-02-22T20:15:00Z,42.42,-124.42,4.0,2.0,230,7,,1.5,29.731298,,,TRUE,TRUE,,,,,,BR,OVX,0,,,,,,,LIFR,,,,,,,,,,,700,METAR,7.0
K4S1 221955Z AUTO 21003KT 2 1/2SM BR CLR 03/02 A2974 RMK AO2 P0002,K4S1,2023-02-22T19:55:00Z,42.42,-124.42,3.0,2.0,210,3,,2.5,29.740158,,,TRUE,TRUE,,,,,,BR,CLR,,,,,,,,IFR,,,,,,0.02,,,,,,METAR,7.0
K4S1 221935Z AUTO 16003KT 4SM BR SCT011 03/02 A2974 RMK AO2 P0002,K4S1,2023-02-22T19:35:00Z,42.42,-124.42,3.0,2.0,160,3,,4.0,29.740158,,,TRUE,TRUE,,,,,,BR,SCT,1100,,,,,,,MVFR,,,,,,0.02,,,,,,METAR,7.0
K4S1 221915Z AUTO 00000KT 2SM -RA SCT008 BKN013 02/01 A2974 RMK AO2 P0002,K4S1,2023-02-22T19:15:00Z,42.42,-124.42,2.0,1.0,0,0,,2.0,29.740158,,,TRUE,TRUE,,,,,,-RA,SCT,800,BKN,1300,,,,,IFR,,,,,,0.02,,,,,,METAR,7.0
K4S1 221855Z AUTO 21006KT 1SM -RA BKN008 OVC015 02/01 A2975 RMK AO2 P0002,K4S1,2023-02-22T18:55:00Z,42.42,-124.42,2.0,1.0,210,6,,1.0,29.749016,,,TRUE,TRUE,,,,,,-RA,BKN,800,OVC,1500,,,,,IFR,,,,,,0.02,,,,,,METAR,7.0
K4S1 221835Z AUTO 20005KT 2SM BR SCT008 SCT012 04/03 A2974 RMK AO2,K4S1,2023-02-22T18:35:00Z,42.42,-124.42,4.0,3.0,200,5,,2.0,29.740158,,,TRUE,TRUE,,,,,,BR,SCT,800,SCT,1200,,,,,IFR,,,,,,,,,,,,METAR,7.0
K4S1 221815Z AUTO 19006KT 2 1/2SM BR SCT009 02/02 A2974 RMK AO2,K4S1,2023-02-22T18:15:00Z,42.42,-124.42,2.0,2.0,190,6,,2.5,29.740158,,,TRUE,TRUE,,,,,,BR,SCT,900,,,,,,,IFR,,,,,,,,,,,,METAR,7.0
K4S1 221755Z AUTO 00000KT 7SM -RA SCT013 SCT021 02/01 A2974 RMK AO2 P0002,K4S1,2023-02-22T17:55:00Z,42.42,-124.42,2.0,1.0,0,0,,7.0,29.740158,,,TRUE,TRUE,,,,,,-RA,SCT,1300,SCT,2100,,,,,VFR,,,,,,0.02,,,,,,METAR,7.0
K4S1 221735Z AUTO 05003KT 5SM -RA SCT021 02/01 A2974 RMK AO2,K4S1,2023-02-22T17:35:00Z,42.42,-124.42,2.0,1.0,50,3,,5.0,29.740158,,,TRUE,TRUE,,,,,,-RA,SCT,2100,,,,,,,MVFR,,,,,,,,,,,,METAR,7.0
K4S1 221715Z AUTO 00000KT 4SM -RA SCT011 SCT016 SCT022 02/01 A2974 RMK AO2,K4S1,2023-02-22T17:15:00Z,42.42,-124.42,2.0,1.0,0,0,,4.0,29.740158,,,TRUE,TRUE,,,,,,-RA,SCT,1100,SCT,1600,SCT,2200,,,MVFR,,,,,,,,,,,,METAR,7.0
K4S1 221655Z AUTO 00000KT 7SM -RA SCT022 SCT027 02/01 A2973 RMK AO2,K4S1,2023-02-22T16:55:00Z,42.42,-124.42,2.0,1.0,0,0,,7.0,29.731298,,,TRUE,TRUE,,,,,,-RA,SCT,2200,SCT,2700,,,,,VFR,,,,,,,,,,,,METAR,7.0
K4S1 221635Z AUTO 00000KT 5SM BR CLR 02/02 A2972 RMK AO2,K4S1,2023-02-22T16:35:00Z,42.42,-124.42,2.0,2.0,0,0,,5.0,29.719488,,,TRUE,TRUE,,,,,,BR,CLR,,,,,,,,MVFR,,,,,,,,,,,,METAR,7.0
K4S1 221615Z AUTO 03003KT 5SM -DZ CLR 01/00 A2973 RMK AO2,K4S1,2023-02-22T16:15:00Z,42.42,-124.42,1.0,0.0,30,3,,5.0,29.731298,,,TRUE,TRUE,,,,,,-DZ,CLR,,,,,,,,MVFR,,,,,,,,,,,,METAR,7.0
K4S1 221555Z AUTO 00000KT 7SM RA SCT016 SCT021 SCT027 02/01 A2973 RMK AO2,K4S1,2023-02-22T15:55:00Z,42.42,-124.42,2.0,1.0,0,0,,7.0,29.731298,,,TRUE,TRUE,,,,,,RA,SCT,1600,SCT,2100,SCT,2700,,,VFR,,,,,,,,,,,,METAR,7.0
K4S1 221535Z AUTO 05007KT 7SM -RA SCT013 01/00 A2973 RMK AO2,K4S1,2023-02-22T15:35:00Z,42.42,-124.42,1.0,0.0,50,7,,7.0,29.731298,,,TRUE,TRUE,,,,,,-RA,SCT,1300,,,,,,,VFR,,,,,,,,,,,,METAR,7.0
K4S1 221515Z AUTO 04009KT 5SM UP SCT013 01/00 A2974 RMK AO2,K4S1,2023-02-22T15:15:00Z,42.42,-124.42,1.0,0.0,40,9,,5.0,29.740158,,,TRUE,TRUE,,,,,,UP,SCT,1300,,,,,,,MVFR,,,,,,,,,,,,METAR,7.0
K4S1 221455Z AUTO 04004KT 5SM -RA CLR 01/01 A2973 RMK AO2,K4S1,2023-02-22T14:55:00Z,42.42,-124.42,1.0,1.0,40,4,,5.0,29.731298,,,TRUE,TRUE,,,,,,-RA,CLR,,,,,,,,MVFR,,,,,,,,,,,,METAR,7.0
K4S1 221435Z AUTO 03003KT 7SM -RA CLR 01/00 A2973 RMK AO2,K4S1,2023-02-22T14:35:00Z,42.42,-124.42,1.0,0.0,30,3,,7.0,29.731298,,,TRUE,TRUE,,,,,,-RA,CLR,,,,,,,,VFR,,,,,,,,,,,,METAR,7.0
K4S1 221410Z AUTO 04006KT 5SM BR CLR 01/00 A2973 RMK AO2,K4S1,2023-02-22T14:10:00Z,42.42,-124.42,1.0,0.0,40,6,,5.0,29.731298,,,TRUE,TRUE,,,,,,BR,CLR,,,,,,,,MVFR,,,,,,,,,,,,METAR,7.0
K4S1 221355Z AUTO 04007KT 7SM CLR 01/00 A2974 RMK AO2,K4S1,2023-02-22T13:55:00Z,42.42,-124.42,1.0,0.0,40,7,,7.0,29.740158,,,TRUE,TRUE,,,,,,,CLR,,,,,,,,VFR,,,,,,,,,,,,METAR,7.0
K4S1 221335Z AUTO 05010G14KT 7SM SCT015 SCT020 01/00 A2974 RMK AO2,K4S1,2023-02-22T13:35:00Z,42.42,-124.42,1.0,0.0,50,10,14,7.0,29.740158,,,TRUE,TRUE,,,,,,,SCT,1500,SCT,2000,,,,,VFR,,,,,,,,,,,,METAR,7.0
K4S1 221315Z AUTO 03006KT 7SM SCT009 SCT020 01/00 A2974 RMK AO2,K4S1,2023-02-22T13:15:00Z,42.42,-124.42,1.0,0.0,30,6,,7.0,29.740158,,,TRUE,TRUE,,,,,,,SCT,900,SCT,2000,,,,,VFR,,,,,,,,,,,,METAR,7.0
K4S1 221255Z AUTO 03012G21KT 4SM -RA BKN009 BKN033 BKN042 01/00 A2975 RMK AO2 P0003,K4S1,2023-02-22T12:55:00Z,42.42,-124.42,1.0,0.0,30,12,21,4.0,29.749016,,,TRUE,TRUE,,,,,,-RA,BKN,900,BKN,3300,BKN,4200,,,IFR,,,,,,0.03,,,,,,METAR,7.0
K4S1 221235Z AUTO 36009G18KT 7SM SCT033 SCT042 03/01 A2975 RMK AO2,K4S1,2023-02-22T12:35:00Z,42.42,-124.42,3.0,1.0,360,9,18,7.0,29.749016,,,TRUE,TRUE,,,,,,,SCT,3300,SCT,4200,,,,,VFR,,,,,,,,,,,,METAR,7.0
K4S1 221215Z AUTO 05006KT 5SM BR CLR 03/01 A2973 RMK AO2,K4S1,2023-02-22T12:15:00Z,42.42,-124.42,3.0,1.0,50,6,,5.0,29.731298,,,TRUE,TRUE,,,,,,BR,CLR,,,,,,,,MVFR,,,,,,,,,,,,METAR,7.0
K4S1 221155Z AUTO 07008G14KT 7SM CLR 03/01 A2972 RMK AO2,K4S1,2023-02-22T11:55:00Z,42.42,-124.42,3.0,1.0,70,8,14,7.0,29.719488,,,TRUE,TRUE,,,,,,,CLR,,,,,,,,VFR,,,,,,,,,,,,METAR,7.0
K4S1 221135Z AUTO 36013G20KT 5SM BR CLR 03/01 A2974 RMK AO2,K4S1,2023-02-22T11:35:00Z,42.42,-124.42,3.0,1.0,360,13,20,5.0,29.740158,,,TRUE,TRUE,,,,,,BR,CLR,,,,,,,,MVFR,,,,,,,,,,,,METAR,7.0
K4S1 221115Z AUTO 36019G29KT 5SM -RA CLR 04/02 A2974 RMK AO2,K4S1,2023-02-22T11:15:00Z,42.42,-124.42,4.0,2.0,360,19,29,5.0,29.740158,,,TRUE,TRUE,,,,,,-RA,CLR,,,,,,,,MVFR,,,,,,,,,,,,METAR,7.0
K4S1 221055Z AUTO 06004G14KT 7SM CLR 03/01 A2973 RMK AO2,K4S1,2023-02-22T10:55:00Z,42.42,-124.42,3.0,1.0,60,4,14,7.0,29.731298,,,TRUE,TRUE,,,,,,,CLR,,,,,,,,VFR,,,,,,,,,,,,METAR,7.0
K4S1 221035Z AUTO 02006KT 7SM CLR 03/01 A2974 RMK AO2,K4S1,2023-02-22T10:35:00Z,42.42,-124.42,3.0,1.0,20,6,,7.0,29.740158,,,TRUE,TRUE,,,,,,,CLR,,,,,,,,VFR,,,,,,,,,,,,METAR,7.0
K4S1 221015Z AUTO 02005KT 7SM SCT042 03/00 RMK AO2,K4S1,2023-02-22T10:15:00Z,42.42,-124.42,3.0,0.0,20,5,,7.0,,,,TRUE,TRUE,,,,,,,SCT,4200,,,,,,,VFR,,,,,,,,,,,,METAR,7.0
K4S1 220955Z AUTO 04008G18KT 7SM CLR 03/01 A2975 RMK AO2,K4S1,2023-02-22T09:55:00Z,42.42,-124.42,3.0,1.0,40,8,18,7.0,29.749016,,,TRUE,TRUE,,,,,,,CLR,,,,,,,,VFR,,,,,,,,,,,,METAR,7.0
K4S1 220935Z AUTO 36016G24KT 7SM -RA SCT023 SCT033 03/01 A2976 RMK AO2,K4S1,2023-02-22T09:35:00Z,42.42,-124.42,3.0,1.0,360,16,24,7.0,29.760826,,,TRUE,TRUE,,,,,,-RA,SCT,2300,SCT,3300,,,,,VFR,,,,,,,,,,,,METAR,7.0
K4S1 220915Z AUTO 07006KT 5SM BR CLR 02/01 A2975 RMK AO2,K4S1,2023-02-22T09:15:00Z,42.42,-124.42,2.0,1.0,70,6,,5.0,29.749016,,,TRUE,TRUE,,,,,,BR,CLR,,,,,,,,MVFR,,,,,,,,,,,,METAR,7.0
K4S1 220855Z AUTO 05010KT 7SM SCT024 SCT031 SCT044 02/01 A2976 RMK AO2 P0001,K4S1,2023-02-22T08:55:00Z,42.42,-124.42,2.0,1.0,50,10,,7.0,29.760826,,,TRUE,TRUE,,,,,,,SCT,2400,SCT,3100,SCT,4400,,,VFR,,,,,,0.01,,,,,,METAR,7.0
K4S1 220835Z AUTO 34014G22KT 300V030 7SM -RA SCT045 03/02 A2977 RMK AO2,K4S1,2023-02-22T08:35:00Z,42.42,-124.42,3.0,2.0,340,14,22,7.0,29.769686,,,TRUE,TRUE,,,,,,-RA,SCT,4500,,,,,,,VFR,,,,,,,,,,,,METAR,7.0
K4S1 220815Z AUTO 36019G29KT 5SM UP SCT022 SCT027 SCT037 03/02 A2977 RMK AO2,K4S1,2023-02-22T08:15:00Z,42.42,-124.42,3.0,2.0,360,19,29,5.0,29.769686,,,TRUE,TRUE,,,,,,UP,SCT,2200,SCT,2700,SCT,3700,,,MVFR,,,,,,,,,,,,METAR,7.0
K4S1 220755Z AUTO 01005G17KT 5SM BR CLR 03/02 A2976 RMK AO2 P0004,K4S1,2023-02-22T07:55:00Z,42.42,-124.42,3.0,2.0,10,5,17,5.0,29.760826,,,TRUE,TRUE,,,,,,BR,CLR,,,,,,,,MVFR,,,,,,0.04,,,,,,METAR,7.0
K4S1 220735Z AUTO 02005G17KT 7SM -RA SCT022 SCT032 SCT040 02/01 A2978 RMK AO2 P0004,K4S1,2023-02-22T07:35:00Z,42.42,-124.42,2.0,1.0,20,5,17,7.0,29.778543,,,TRUE,TRUE,,,,,,-RA,SCT,2200,SCT,3200,SCT,4000,,,VFR,,,,,,0.04,,,,,,METAR,7.0
K4S1 220715Z AUTO 04008KT 5SM BR CLR 02/01 A2977 RMK AO2,K4S1,2023-02-22T07:15:00Z,42.42,-124.42,2.0,1.0,40,8,,5.0,29.769686,,,TRUE,TRUE,,,,,,BR,CLR,,,,,,,,MVFR,,,,,,,,,,,,METAR,7.0
K4S1 220655Z AUTO 04011G18KT 7SM -RA SCT023 SCT028 02/01 A2978 RMK AO2,K4S1,2023-02-22T06:55:00Z,42.42,-124.42,2.0,1.0,40,11,18,7.0,29.778543,,,TRUE,TRUE,,,,,,-RA,SCT,2300,SCT,2800,,,,,VFR,,,,,,,,,,,,METAR,7.0
K4S1 220635Z AUTO 06006KT 7SM CLR 02/01 A2977 RMK AO2,K4S1,2023-02-22T06:35:00Z,42.42,-124.42,2.0,1.0,60,6,,7.0,29.769686,,,TRUE,TRUE,,,,,,,CLR,,,,,,,,VFR,,,,,,,,,,,,METAR,7.0
K4S1 220615Z AUTO 06008KT 7SM CLR 02/01 A2977 RMK AO2,K4S1,2023-02-22T06:15:00Z,42.42,-124.42,2.0,1.0,60,8,,7.0,29.769686,,,TRUE,TRUE,,,,,,,CLR,,,,,,,,VFR,,,,,,,,,,,,METAR,7.0
K4S1 220555Z AUTO 05004KT 7SM CLR 02/01 A2978 RMK AO2 P0004,K4S1,2023-02-22T05:55:00Z,42.42,-124.42,2.0,1.0,50,4,,7.0,29.778543,,,TRUE,TRUE,,,,,,,CLR,,,,,,,,VFR,,,,,,0.04,,,,,,METAR,7.0
K4S1 220535Z AUTO 04005KT 7SM SCT017 SCT023 SCT030 02/01 A2979 RMK AO2 P0004,K4S1,2023-02-22T05:35:00Z,42.42,-124.42,2.0,1.0,40,5,,7.0,29.790354,,,TRUE,TRUE,,,,,,,SCT,1700,SCT,2300,SCT,3000,,,VFR,,,,,,0.04,,,,,,METAR,7.0
K4S1 220515Z AUTO 12003KT 4SM -RA SCT017 SCT023 SCT030 02/01 A2981 RMK AO2 P0004,K4S1,2023-02-22T05:15:00Z,42.42,-124.42,2.0,1.0,120,3,,4.0,29.811024,,,TRUE,TRUE,,,,,,-RA,SCT,1700,SCT,2300,SCT,3000,,,MVFR,,,,,,0.04,,,,,,METAR,7.0
K4S1 220455Z AUTO 04006KT 7SM -RA CLR 02/01 A2981 RMK AO2 P0002,K4S1,2023-02-22T04:55:00Z,42.42,-124.42,2.0,1.0,40,6,,7.0,29.811024,,,TRUE,TRUE,,,,,,-RA,CLR,,,,,,,,VFR,,,,,,0.02,,,,,,METAR,7.0
K4S1 220435Z AUTO 06008KT 7SM CLR 02/01 A2982 RMK AO2 P0002,K4S1,2023-02-22T04:35:00Z,42.42,-124.42,2.0,1.0,60,8,,7.0,29.819881,,,TRUE,TRUE,,,,,,,CLR,,,,,,,,VFR,,,,,,0.02,,,,,,METAR,7.0
K4S1 220415Z AUTO 36004KT 5SM RA SCT020 03/02 A2981 RMK AO2 P0001,K4S1,2023-02-22T04:15:00Z,42.42,-124.42,3.0,2.0,360,4,,5.0,29.811024,,,TRUE,TRUE,,,,,,RA,SCT,2000,,,,,,,MVFR,,,,,,0.01,,,,,,METAR,7.0
K4S1 220355Z AUTO 00000KT 7SM -DZ CLR 03/02 A2982 RMK AO2 P0001,K4S1,2023-02-22T03:55:00Z,42.42,-124.42,3.0,2.0,0,0,,7.0,29.819881,,,TRUE,TRUE,,,,,,-DZ,CLR,,,,,,,,VFR,,,,,,0.01,,,,,,METAR,7.0
K4S1 220335Z AUTO 07006KT 7SM SCT014 SCT020 SCT026 03/01 A2983 RMK AO2 P0001,K4S1,2023-02-22T03:35:00Z,42.42,-124.42,3.0,1.0,70,6,,7.0,29.828741,,,TRUE,TRUE,,,,,,,SCT,1400,SCT,2000,SCT,2600,,,VFR,,,,,,0.01,,,,,,METAR,7.0
K4S1 220315Z AUTO 04017G29KT 5SM -RA SCT013 SCT020 SCT024 03/00 A2984 RMK AO2 P0001,K4S1,2023-02-22T03:15:00Z,42.42,-124.42,3.0,0.0,40,17,29,5.0,29.840551,,,TRUE,TRUE,,,,,,-RA,SCT,1300,SCT,2000,SCT,2400,,,MVFR,,,,,,0.01,,,,,,METAR,7.0
K4S1 220255Z AUTO 02006G17KT 7SM CLR 05/02 A2983 RMK AO2,K4S1,2023-02-22T02:55:00Z,42.42,-124.42,5.0,2.0,20,6,17,7.0,29.828741,,,TRUE,TRUE,,,,,,,CLR,,,,,,,,VFR,,,,,,,,,,,,METAR,7.0
K4S1 220235Z AUTO 33009G14KT 5SM HZ CLR 05/02 A2984 RMK AO2,K4S1,2023-02-22T02:35:00Z,42.42,-124.42,5.0,2.0,330,9,14,5.0,29.840551,,,TRUE,TRUE,,,,,,HZ,CLR,,,,,,,,MVFR,,,,,,,,,,,,METAR,7.0
K4S1 220215Z AUTO 05006KT 7SM SCT020 SCT025 04/01 A2983 RMK AO2,K4S1,2023-02-22T02:15:00Z,42.42,-124.42,4.0,1.0,50,6,,7.0,29.828741,,,TRUE,TRUE,,,,,,,SCT,2000,SCT,2500,,,,,VFR,,,,,,,,,,,,METAR,7.0
K4S1 220155Z AUTO 03014KT 7SM -RA SCT020 SCT025 04/01 A2984 RMK AO2,K4S1,2023-02-22T01:55:00Z,42.42,-124.42,4.0,1.0,30,14,,7.0,29.840551,,,TRUE,TRUE,,,,,,-RA,SCT,2000,SCT,2500,,,,,VFR,,,,,,,,,,,,METAR,7.0
K4S1 220135Z AUTO 35018G27KT 7SM -RA SCT024 05/01 A2986 RMK AO2,K4S1,2023-02-22T01:35:00Z,42.42,-124.42,5.0,1.0,350,18,27,7.0,29.861221,,,TRUE,TRUE,,,,,,-RA,SCT,2400,,,,,,,VFR,,,,,,,,,,,,METAR,7.0
K4S1 220115Z AUTO 35016G27KT 4SM HZ CLR 06/02 A2985 RMK AO2,K4S1,2023-02-22T01:15:00Z,42.42,-124.42,6.0,2.0,350,16,27,4.0,29.84941,,,TRUE,TRUE,,,,,,HZ,CLR,,,,,,,,MVFR,,,,,,,,,,,,METAR,7.0
K4S1 220055Z AUTO 05011G20KT 4SM HZ CLR 05/02 A2985 RMK AO2,K4S1,2023-02-22T00:55:00Z,42.42,-124.42,5.0,2.0,50,11,20,4.0,29.84941,,,TRUE,TRUE,,,,,,HZ,CLR,,,,,,,,MVFR,,,,,,,,,,,,METAR,7.0
K4S1 220035Z AUTO 33022G28KT 4SM HZ CLR 06/03 A2985 RMK AO2,K4S1,2023-02-22T00:35:00Z,42.42,-124.42,6.0,3.0,330,22,28,4.0,29.84941,,,TRUE,TRUE,,,,,,HZ,CLR,,,,,,,,MVFR,,,,,,,,,,,,METAR,7.0
K4S1 220015Z AUTO 04008G18KT 5SM HZ CLR 06/03 A2986 RMK AO2,K4S1,2023-02-22T00:15:00Z,42.42,-124.42,6.0,3.0,40,8,18,5.0,29.861221,,,TRUE,TRUE,,,,,,HZ,CLR,,,,,,,,MVFR,,,,,,,,,,,,METAR,7.0
K4S1 212355Z AUTO 02008G25KT 350V070 4SM BR CLR 06/04 A2986 RMK AO2 P0003,K4S1,2023-02-21T23:55:00Z,42.42,-124.42,6.0,4.0,20,8,25,4.0,29.861221,,,TRUE,TRUE,,,,,,BR,CLR,,,,,,,,MVFR,,,,,,0.03,,,,,,METAR,7.0
K4S1 212335Z AUTO 05005KT 5SM BR SCT023 SCT030 05/03 A2986 RMK AO2 P0003,K4S1,2023-02-21T23:35:00Z,42.42,-124.42,5.0,3.0,50,5,,5.0,29.861221,,,TRUE,TRUE,,,,,,BR,SCT,2300,SCT,3000,,,,,MVFR,,,,,,0.03,,,,,,METAR,7.0
K4S1 212310Z AUTO 34017G25KT 4SM RA SCT017 SCT025 BKN033 05/02 A2988 RMK AO2 P0001,K4S1,2023-02-21T23:10:00Z,42.42,-124.42,5.0,2.0,340,17,25,4.0,29.878937,,,TRUE,TRUE,,,,,,RA,SCT,1700,SCT,2500,BKN,3300,,,MVFR,,,,,,0.01,,,,,,METAR,7.0
K4S1 212255Z AUTO 33020G30KT 7SM RA SCT015 SCT025 05/03 A2989 RMK AO2,K4S1,2023-02-21T22:55:00Z,42.42,-124.42,5.0,3.0,330,20,30,7.0,29.890747,,,TRUE,TRUE,,,,,,RA,SCT,1500,SCT,2500,,,,,VFR,,,,,,,,,,,,METAR,7.0
K4S1 212235Z AUTO 02014G31KT 5SM -RA SCT017 SCT025 05/02 A2989 RMK AO2,K4S1,2023-02-21T22:35:00Z,42.42,-124.42,5.0,2.0,20,14,31,5.0,29.890747,,,TRUE,TRUE,,,,,,-RA,SCT,1700,SCT,2500,,,,,MVFR,,,,,,,,,,,,METAR,7.0
K4S1 212215Z AUTO 34021G24KT 4SM BR CLR 06/04 A2988 RMK AO2,K4S1,2023-02-21T22:15:00Z,42.42,-124.42,6.0,4.0,340,21,24,4.0,29.878937,,,TRUE,TRUE,,,,,,BR,CLR,,,,,,,,MVFR,,,,,,,,,,,,METAR,7.0
K4S1 212155Z AUTO 33004KT 7SM -RA SCT022 05/03 A2989 RMK AO2 P0002,K4S1,2023-02-21T21:55:00Z,42.42,-124.42,5.0,3.0,330,4,,7.0,29.890747,,,TRUE,TRUE,,,,,,-RA,SCT,2200,,,,,,,VFR,,,,,,0.02,,,,,,METAR,7.0
K4S1 212135Z AUTO 05009G26KT 7SM -RA SCT022 05/03 A2990 RMK AO2 P0002,K4S1,2023-02-21T21:35:00Z,42.42,-124.42,5.0,3.0,50,9,26,7.0,29.899607,,,TRUE,TRUE,,,,,,-RA,SCT,2200,,,,,,,VFR,,,,,,0.02,,,,,,METAR,7.0
K4S1 212115Z AUTO 04011G16KT 7SM -RA CLR 05/03 A2991 RMK AO2 P0002,K4S1,2023-02-21T21:15:00Z,42.42,-124.42,5.0,3.0,40,11,16,7.0,29.911417,,,TRUE,TRUE,,,,,,-RA,CLR,,,,,,,,VFR,,,,,,0.02,,,,,,METAR,7.0
K4S1 212055Z AUTO 06003KT 5SM BR CLR 06/04 A2991 RMK AO2 P0001,K4S1,2023-02-21T20:55:00Z,42.42,-124.42,6.0,4.0,60,3,,5.0,29.911417,,,TRUE,TRUE,,,,,,BR,CLR,,,,,,,,MVFR,,,,,,0.01,,,,,,METAR,7.0
K4S1 212035Z AUTO 04006KT 360V060 7SM -RA SCT020 SCT027 06/04 A2993 RMK AO2 P0001,K4S1,2023-02-21T20:35:00Z,42.42,-124.42,6.0,4.0,40,6,,7.0,29.929134,,,TRUE,TRUE,,,,,,-RA,SCT,2000,SCT,2700,,,,,VFR,,,,,,0.01,,,,,,METAR,7.0
K4S1 212015Z AUTO 02008G14KT 350V050 7SM -RA SCT022 SCT027 05/03 A2995 RMK AO2,K4S1,2023-02-21T20:15:00Z,42.42,-124.42,5.0,3.0,20,8,14,7.0,29.949802,,,TRUE,TRUE,,,,,,-RA,SCT,2200,SCT,2700,,,,,VFR,,,,,,,,,,,,METAR,7.0
K4S1 211955Z AUTO 05010G23KT 7SM -RA SCT016 SCT022 SCT033 05/02 A2996 RMK AO2 P0001,K4S1,2023-02-21T19:55:00Z,42.42,-124.42,5.0,2.0,50,10,23,7.0,29.958662,,,TRUE,TRUE,,,,,,-RA,SCT,1600,SCT,2200,SCT,3300,,,VFR,,,,,,0.01,,,,,,METAR,7.0
K4S1 211935Z AUTO 34016G25KT 7SM RA SCT024 06/02 A2997 RMK AO2,K4S1,2023-02-21T19:35:00Z,42.42,-124.42,6.0,2.0,340,16,25,7.0,29.970472,,,TRUE,TRUE,,,,,,RA,SCT,2400,,,,,,,VFR,,,,,,,,,,,,METAR,7.0
K4S1 211915Z AUTO 36015G19KT 4SM HZ CLR 08/03 A2997 RMK AO2,K4S1,2023-02-21T19:15:00Z,42.42,-124.42,8.0,3.0,360,15,19,4.0,29.970472,,,TRUE,TRUE,,,,,,HZ,CLR,,,,,,,,MVFR,,,,,,,,,,,,METAR,7.0
K4S1 211855Z AUTO 34016G21KT 4SM HZ CLR 07/03 A2998 RMK AO2,K4S1,2023-02-21T18:55:00Z,42.42,-124.42,7.0,3.0,340,16,21,4.0,29.97933,,,TRUE,TRUE,,,,,,HZ,CLR,,,,,,,,MVFR,,,,,,,,,,,,METAR,7.0
K4S1 211835Z AUTO 33016G22KT 4SM HZ CLR 07/03 A2998 RMK AO2,K4S1,2023-02-21T18:35:00Z,42.42,-124.42,7.0,3.0,330,16,22,4.0,29.97933,,,TRUE,TRUE,,,,,,HZ,CLR,,,,,,,,MVFR,,,,,,,,,,,,METAR,7.0
K4S1 211815Z AUTO 36009KT 330V040 4SM HZ CLR 06/03 A2999 RMK AO2,K4S1,2023-02-21T18:15:00Z,42.42,-124.42,6.0,3.0,360,9,,4.0,29.991142,,,TRUE,TRUE,,,,,,HZ,CLR,,,,,,,,MVFR,,,,,,,,,,,,METAR,7.0
K4S1 211755Z AUTO 03011G22KT 4SM HZ CLR 07/03 A2999 RMK AO2,K4S1,2023-02-21T17:55:00Z,42.42,-124.42,7.0,3.0,30,11,22,4.0,29.991142,,,TRUE,TRUE,,,,,,HZ,CLR,,,,,,,,MVFR,,,,,,,,,,,,METAR,7.0
K4S1 211735Z AUTO 33016G20KT 4SM HZ CLR 07/04 A3000 RMK AO2,K4S1,2023-02-21T17:35:00Z,42.42,-124.42,7.0,4.0,330,16,20,4.0,30.0,,,TRUE,TRUE,,,,,,HZ,CLR,,,,,,,,MVFR,,,,,,,,,,,,METAR,7.0
K4S1 211715Z AUTO 34013G18KT 4SM HZ CLR 07/04 A3000 RMK AO2,K4S1,2023-02-21T17:15:00Z,42.42,-124.42,7.0,4.0,340,13,18,4.0,30.0,,,TRUE,TRUE,,,,,,HZ,CLR,,,,,,,,MVFR,,,,,,,,,,,,METAR,7.0
K4S1 211655Z AUTO 34014G21KT 4SM BR CLR 06/05 A3001 RMK AO2,K4S1,2023-02-21T16:55:00Z,42.42,-124.42,6.0,5.0,340,14,21,4.0,30.008858,,,TRUE,TRUE,,,,,,BR,CLR,,,,,,,,MVFR,,,,,,,,,,,,METAR,7.0
K4S1 211635Z AUTO 06009KT 5SM BR CLR 06/04 A3001 RMK AO2,K4S1,2023-02-21T16:35:00Z,42.42,-124.42,6.0,4.0,60,9,,5.0,30.008858,,,TRUE,TRUE,,,,,,BR,CLR,,,,,,,,MVFR,,,,,,,,,,,,METAR,7.0
K4S1 211615Z AUTO 36004KT 4SM BR SCT029 06/03 A3001 RMK AO2,K4S1,2023-02-21T16:15:00Z,42.42,-124.42,6.0,3.0,360,4,,4.0,30.008858,,,TRUE,TRUE,,,,,,BR,SCT,2900,,,,,,,MVFR,,,,,,,,,,,,METAR,7.0
K4S1 211555Z AUTO 36018G23KT 5SM -RA SCT022 SCT029 06/03 A3002 RMK AO2 P0001,K4S1,2023-02-21T15:55:00Z,42.42,-124.42,6.0,3.0,360,18,23,5.0,30.02067,,,TRUE,TRUE,,,,,,-RA,SCT,2200,SCT,2900,,,,,MVFR,,,,,,0.01,,,,,,METAR,7.0
K4S1 211535Z AUTO 36005KT 7SM SCT022 SCT030 05/03 A3003 RMK AO2 P0001,K4S1,2023-02-21T15:35:00Z,42.42,-124.42,5.0,3.0,360,5,,7.0,30.029528,,,TRUE,TRUE,,,,,,,SCT,2200,SCT,3000,,,,,VFR,,,,,,0.01,,,,,,METAR,7.0
K4S1 211515Z AUTO 34018G26KT 4SM -RA SCT021 SCT027 SCT034 06/04 A3004 RMK AO2,K4S1,2023-02-21T15:15:00Z,42.42,-124.42,6.0,4.0,340,18,26,4.0,30.041338,,,TRUE,TRUE,,,,,,-RA,SCT,2100,SCT,2700,SCT,3400,,,MVFR,,,,,,,,,,,,METAR,7.0
K4S1 211455Z AUTO 01006KT 7SM -RA SCT029 06/04 A3003 RMK AO2,K4S1,2023-02-21T14:55:00Z,42.42,-124.42,6.0,4.0,10,6,,7.0,30.029528,,,TRUE,TRUE,,,,,,-RA,SCT,2900,,,,,,,VFR,,,,,,,,,,,,METAR,7.0
K4S1 211435Z AUTO 35013G17KT 7SM -RA SCT018 SCT029 06/05 A3004 RMK AO2,K4S1,2023-02-21T14:35:00Z,42.42,-124.42,6.0,5.0,350,13,17,7.0,30.041338,,,TRUE,TRUE,,,,,,-RA,SCT,1800,SCT,2900,,,,,VFR,,,,,,,,,,,,METAR,7.0
K4S1 211415Z AUTO 05007KT 10SM -RA SCT031 06/05 A3004 RMK AO2,K4S1,2023-02-21T14:15:00Z,42.42,-124.42,6.0,5.0,50,7,,10.0,30.041338,,,TRUE,TRUE,,,,,,-RA,SCT,3100,,,,,,,VFR,,,,,,,,,,,,METAR,7.0
K4S1 211355Z AUTO 35011G15KT 5SM BR CLR 07/06 A3005 RMK AO2,K4S1,2023-02-21T13:55:00Z,42.42,-124.42,7.0,6.0,350,11,15,5.0,30.050198,,,TRUE,TRUE,,,,,,BR,CLR,,,,,,,,MVFR,,,,,,,,,,,,METAR,7.0
K4S1 211335Z AUTO 34010G19KT 4SM BR CLR 07/06 A3005 RMK AO2,K4S1,2023-02-21T13:35:00Z,42.42,-124.42,7.0,6.0,340,10,19,4.0,30.050198,,,TRUE,TRUE,,,,,,BR,CLR,,,,,,,,MVFR,,,,,,,,,,,,METAR,7.0
K4S1 211315Z AUTO 36006KT 5SM BR SCT018 07/06 A3006 RMK AO2,K4S1,2023-02-21T13:15:00Z,42.42,-124.42,7.0,6.0,360,6,,5.0,30.059055,,,TRUE,TRUE,,,,,,BR,SCT,1800,,,,,,,MVFR,,,,,,,,,,,,METAR,7.0
K4S1 211255Z AUTO 35011G19KT 4SM BR OVC020 07/06 A3007 RMK AO2 P0001,K4S1,2023-02-21T12:55:00Z,42.42,-124.42,7.0,6.0,350,11,19,4.0,30.070866,,,TRUE,TRUE,,,,,,BR,OVC,2000,,,,,,,MVFR,,,,,,0.01,,,,,,METAR,7.0
K4S1 211235Z AUTO 34013G19KT 4SM BR SCT007 SCT010 OVC017 07/07 A3007 RMK AO2 P0001,K4S1,2023-02-21T12:35:00Z,42.42,-124.42,7.0,7.0,340,13,19,4.0,30.070866,,,TRUE,TRUE,,,,,,BR,SCT,700,SCT,1000,OVC,1700,,,MVFR,,,,,,0.01,,,,,,METAR,7.0
K4S1 211215Z AUTO 34009G17KT 2SM -RA BKN007 OVC012 07/07 A3008 RMK AO2 P0001,K4S1,2023-02-21T12:15:00Z,42.42,-124.42,7.0,7.0,340,9,17,2.0,30.079725,,,TRUE,TRUE,,,,,,-RA,BKN,700,OVC,1200,,,,,IFR,,,,,,0.01,,,,,,METAR,7.0
K4S1 211155Z AUTO 34008G15KT 1 3/4SM -RA SCT005 BKN012 07/07 A3009 RMK AO2,K4S1,2023-02-21T11:55:00Z,42.42,-124.42,7.0,7.0,340,8,15,1.75,30.088583,,,TRUE,TRUE,,,,,,-RA,SCT,500,BKN,1200,,,,,IFR,,,,,,,,,,,,METAR,7.0
K4S1 211135Z AUTO 34008KT 4SM BR SCT005 08/07 A3009 RMK AO2,K4S1,2023-02-21T11:35:00Z,42.42,-124.42,8.0,7.0,340,8,,4.0,30.088583,,,TRUE,TRUE,,,,,,BR,SCT,500,,,,,,,MVFR,,,,,,,,,,,,METAR,7.0
K4S1 211115Z AUTO 00000KT 1 1/2SM -RA OVC005 07/07 A3010 RMK AO2,K4S1,2023-02-21T11:15:00Z,42.42,-124.42,7.0,7.0,0,0,,1.5,30.100393,,,TRUE,TRUE,,,,,,-RA,OVC,500,,,,,,,IFR,,,,,,,,,,,,METAR,7.0
K4S1 211055Z AUTO 17004KT 2SM -RA OVC003 07/07 A3011 RMK AO2 P0002,K4S1,2023-02-21T10:55:00Z,42.42,-124.42,7.0,7.0,170,4,,2.0,30.109253,,,TRUE,TRUE,,,,,,-RA,OVC,300,,,,,,,LIFR,,,,,,0.02,,,,,,METAR,7.0
K4S1 211035Z AUTO 18007KT 1 3/4SM -RA OVC005 07/07 A3013 RMK AO2 P0001,K4S1,2023-02-21T10:35:00Z,42.42,-124.42,7.0,7.0,180,7,,1.75,30.129921,,,TRUE,TRUE,,,,,,-RA,OVC,500,,,,,,,IFR,,,,,,0.01,,,,,,METAR,7.0
K4S1 211015Z AUTO 20006KT 1SM -RA OVC008 07/07 A3012 RMK AO2,K4S1,2023-02-21T10:15:00Z,42.42,-124.42,7.0,7.0,200,6,,1.0,30.121063,,,TRUE,TRUE,,,,,,-RA,OVC,800,,,,,,,IFR,,,,,,,,,,,,METAR,7.0
K4S1 210955Z AUTO 20007KT 1 1/4SM -RA OVC010 07/07 A3012 RMK AO2 P0001,K4S1,2023-02-21T09:55:00Z,42.42,-124.42,7.0,7.0,200,7,,1.25,30.121063,,,TRUE,TRUE,,,,,,-RA,OVC,1000,,,,,,,IFR,,,,,,0.01,,,,,,METAR,7.0
K4S1 210935Z AUTO 18004KT 1 1/4SM -RA OVC010 07/07 A3014 RMK AO2,K4S1,2023-02-21T09:35:00Z,42.42,-124.42,7.0,7.0,180,4,,1.25,30.138779,,,TRUE,TRUE,,,,,,-RA,OVC,1000,,,,,,,IFR,,,,,,,,,,,,METAR,7.0
K4S1 210915Z AUTO 19006KT 1SM -RA OVC012 07/07 A3014 RMK AO2,K4S1,2023-02-21T09:15:00Z,42.42,-124.42,7.0,7.0,190,6,,1.0,30.138779,,,TRUE,TRUE,,,,,,-RA,OVC,1200,,,,,,,IFR,,,,,,,,,,,,METAR,7.0
K4S1 210855Z AUTO 00000KT 1SM -RA OVC012 07/07 A3016 RMK AO2 P0001,K4S1,2023-02-21T08:55:00Z,42.42,-124.42,7.0,7.0,0,0,,1.0,30.159449,,,TRUE,TRUE,,,,,,-RA,OVC,1200,,,,,,,IFR,,,,,,0.01,,,,,,METAR,7.0
K4S1 210835Z AUTO 00000KT 1 1/4SM -RA OVC012 07/07 A3015 RMK AO2,K4S1,2023-02-21T08:35:00Z,42.42,-124.42,7.0,7.0,0,0,,1.25,30.15059,,,TRUE,TRUE,,,,,,-RA,OVC,1200,,,,,,,IFR,,,,,,,,,,,,METAR,7.0
K4S1 210815Z AUTO 00000KT 1 1/4SM -DZ OVC014 07/07 A3015 RMK AO2,K4S1,2023-02-21T08:15:00Z,42.42,-124.42,7.0,7.0,0,0,,1.25,30.15059,,,TRUE,TRUE,,,,,,-DZ,OVC,1400,,,,,,,IFR,,,,,,,,,,,,METAR,7.0
K4S1 210755Z AUTO 00000KT 2SM -RA SCT001 BKN016 08/07 A3016 RMK AO2,K4S1,2023-02-21T07:55:00Z,42.42,-124.42,8.0,7.0,0,0,,2.0,30.159449,,,TRUE,TRUE,,,,,,-RA,SCT,100,BKN,1600,,,,,IFR,,,,,,,,,,,,METAR,7.0
K4S1 210735Z AUTO 00000KT 1 1/2SM BR SCT001 BKN020 08/07 A3017 RMK AO2,K4S1,2023-02-21T07:35:00Z,42.42,-124.42,8.0,7.0,0,0,,1.5,30.171259,,,TRUE,TRUE,,,,,,BR,SCT,100,BKN,2000,,,,,IFR,,,,,,,,,,,,METAR,7.0
K4S1 210715Z AUTO 00000KT 1 1/4SM -RA BKN020 08/07 A3016 RMK AO2,K4S1,2023-02-21T07:15:00Z,42.42,-124.42,8.0,7.0,0,0,,1.25,30.159449,,,TRUE,TRUE,,,,,,-RA,BKN,2000,,,,,,,IFR,,,,,,,,,,,,METAR,7.0
K4S1 210655Z AUTO 14004KT 4SM -DZ SCT014 08/07 A3018 RMK AO2,K4S1,2023-02-21T06:55:00Z,42.42,-124.42,8.0,7.0,140,4,,4.0,30.180119,,,TRUE,TRUE,,,,,,-DZ,SCT,1400,,,,,,,MVFR,,,,,,,,,,,,METAR,7.0
K4S1 210635Z AUTO 00000KT 4SM -RA SCT012 08/07 A3021 RMK AO2,K4S1,2023-02-21T06:35:00Z,42.42,-124.42,8.0,7.0,0,0,,4.0,30.209646,,,TRUE,TRUE,,,,,,-RA,SCT,1200,,,,,,,MVFR,,,,,,,,,,,,METAR,7.0
K4S1 210615Z AUTO 00000KT 10SM CLR 08/06 A3021 RMK AO2,K4S1,2023-02-21T06:15:00Z,42.42,-124.42,8.0,6.0,0,0,,10.0,30.209646,,,TRUE,TRUE,,,,,,,CLR,,,,,,,,VFR,,,,,,,,,,,,METAR,7.0
K4S1 210555Z AUTO 02003KT 10SM -RA SCT013 08/06 A3022 RMK AO2,K4S1,2023-02-21T05:55:00Z,42.42,-124.42,8.0,6.0,20,3,,10.0,30.221457,,,TRUE,TRUE,,,,,,-RA,SCT,1300,,,,,,,VFR,,,,,,,,,,,,METAR,7.0
K4S1 210535Z AUTO 00000KT 7SM SCT013 08/06 A3021 RMK AO2,K4S1,2023-02-21T05:35:00Z,42.42,-124.42,8.0,6.0,0,0,,7.0,30.209646,,,TRUE,TRUE,,,,,,,SCT,1300,,,,,,,VFR,,,,,,,,,,,,METAR,7.0
K4S1 210515Z AUTO 01003KT 7SM CLR 08/06 A3022 RMK AO2,K4S1,2023-02-21T05:15:00Z,42.42,-124.42,8.0,6.0,10,3,,7.0,30.221457,,,TRUE,TRUE,,,,,,,CLR,,,,,,,,VFR,,,,,,,,,,,,METAR,7.0
K4S1 210455Z AUTO 00000KT 7SM CLR 08/06 A3021 RMK AO2,K4S1,2023-02-21T04:55:00Z,42.42,-124.42,8.0,6.0,0,0,,7.0,30.209646,,,TRUE,TRUE,,,,,,,CLR,,,,,,,,VFR,,,,,,,,,,,,METAR,7.0
K4S1 210435Z AUTO 00000KT 7SM CLR 08/06 A3023 RMK AO2,K4S1,2023-02-21T04:35:00Z,42.42,-124.42,8.0,6.0,0,0,,7.0,30.230314,,,TRUE,TRUE,,,,,,,CLR,,,,,,,,VFR,,,,,,,,,,,,METAR,7.0
K4S1 210415Z AUTO 02003KT 7SM CLR 08/06 A3024 RMK AO2,K4S1,2023-02-21T04:15:00Z,42.42,-124.42,8.0,6.0,20,3,,7.0,30.239174,,,TRUE,TRUE,,,,,,,CLR,,,,,,,,VFR,,,,,,,,,,,,METAR,7.0
K4S1 210355Z AUTO 02004KT 5SM BR CLR 08/06 A3022 RMK AO2,K4S1,2023-02-21T03:55:00Z,42.42,-124.42,8.0,6.0,20,4,,5.0,30.221457,,,TRUE,TRUE,,,,,,BR,CLR,,,,,,,,MVFR,,,,,,,,,,,,METAR,7.0
K4S1 210335Z AUTO 10005KT 7SM CLR 08/06 A3022 RMK AO2,K4S1,2023-02-21T03:35:00Z,42.42,-124.42,8.0,6.0,100,5,,7.0,30.221457,,,TRUE,TRUE,,,,,,,CLR,,,,,,,,VFR,,,,,,,,,,,,METAR,7.0
K4S1 210315Z AUTO 06005KT 7SM CLR 08/06 A3025 RMK AO2,K4S1,2023-02-21T03:15:00Z,42.42,-124.42,8.0,6.0,60,5,,7.0,30.250984,,,TRUE,TRUE,,,,,,,CLR,,,,,,,,VFR,,,,,,,,,,,,METAR,7.0
K4S1 210255Z AUTO 05006KT 7SM CLR 08/06 A3027 RMK AO2,K4S1,2023-02-21T02:55:00Z,42.42,-124.42,8.0,6.0,50,6,,7.0,30.268702,,,TRUE,TRUE,,,,,,,CLR,,,,,,,,VFR,,,,,,,,,,,,METAR,7.0
K4S1 210235Z AUTO 36007KT 7SM CLR 08/06 A3026 RMK AO2,K4S1,2023-02-21T02:35:00Z,42.42,-124.42,8.0,6.0,360,7,,7.0,30.259842,,,TRUE,TRUE,,,,,,,CLR,,,,,,,,VFR,,,,,,,,,,,,METAR,7.0
K4S1 210215Z AUTO 36005KT 7SM CLR 08/06 A3025 RMK AO2,K4S1,2023-02-21T02:15:00Z,42.42,-124.42,8.0,6.0,360,5,,7.0,30.250984,,,TRUE,TRUE,,,,,,,CLR,,,,,,,,VFR,,,,,,,,,,,,METAR,7.0
K4S1 210155Z AUTO 36009KT 7SM CLR 08/06 A3025 RMK AO2,K4S1,2023-02-21T01:55:00Z,42.42,-124.42,8.0,6.0,360,9,,7.0,30.250984,,,TRUE,TRUE,,,,,,,CLR,,,,,,,,VFR,,,,,,,,,,,,METAR,7.0
K4S1 210135Z AUTO 36009KT 7SM CLR 08/06 A3025 RMK AO2,K4S1,2023-02-21T01:35:00Z,42.42,-124.42,8.0,6.0,360,9,,7.0,30.250984,,,TRUE,TRUE,,,,,,,CLR,,,,,,,,VFR,,,,,,,,,,,,METAR,7.0
K4S1 210115Z AUTO 36009KT 5SM BR CLR 08/06 A3025 RMK AO2,K4S1,2023-02-21T01:15:00Z,42.42,-124.42,8.0,6.0,360,9,,5.0,30.250984,,,TRUE,TRUE,,,,,,BR,CLR,,,,,,,,MVFR,,,,,,,,,,,,METAR,7.0
K4S1 210055Z AUTO 35007KT 2 1/2SM BR CLR 08/07 A3025 RMK AO2,K4S1,2023-02-21T00:55:00Z,42.42,-124.42,8.0,7.0,350,7,,2.5,30.250984,,,TRUE,TRUE,,,,,,BR,CLR,,,,,,,,IFR,,,,,,,,,,,,METAR,7.0
K4S1 210035Z AUTO 35005KT 5SM BR CLR 09/07 A3025 RMK AO2,K4S1,2023-02-21T00:35:00Z,42.42,-124.42,9.0,7.0,350,5,,5.0,30.250984,,,TRUE,TRUE,,,,,,BR,CLR,,,,,,,,MVFR,,,,,,,,,,,,METAR,7.0
K4S1 210015Z AUTO 35009KT 5SM BR CLR 08/07 A3026 RMK AO2,K4S1,2023-02-21T00:15:00Z,42.42,-124.42,8.0,7.0,350,9,,5.0,30.259842,,,TRUE,TRUE,,,,,,BR,CLR,,,,,,,,MVFR,,,,,,,,,,,,METAR,7.0
K4S1 202355Z AUTO 35010KT 5SM BR CLR 09/07 A3028 RMK AO2,K4S1,2023-02-20T23:55:00Z,42.42,-124.42,9.0,7.0,350,10,,5.0,30.280512,,,TRUE,TRUE,,,,,,BR,CLR,,,,,,,,MVFR,,,,,,,,,,,,METAR,7.0
K4S1 202335Z AUTO 35010KT 5SM BR CLR 09/07 A3028 RMK AO2,K4S1,2023-02-20T23:35:00Z,42.42,-124.42,9.0,7.0,350,10,,5.0,30.280512,,,TRUE,TRUE,,,,,,BR,CLR,,,,,,,,MVFR,,,,,,,,,,,,METAR,7.0
K4S1 202315Z AUTO 34010KT 5SM BR CLR 10/07 A3026 RMK AO2,K4S1,2023-02-20T23:15:00Z,42.42,-124.42,10.0,7.0,340,10,,5.0,30.259842,,,TRUE,TRUE,,,,,,BR,CLR,,,,,,,,MVFR,,,,,,,,,,,,METAR,7.0
K4S1 202255Z AUTO 35011G15KT 7SM CLR 10/07 A3027 RMK AO2,K4S1,2023-02-20T22:55:00Z,42.42,-124.42,10.0,7.0,350,11,15,7.0,30.268702,,,TRUE,TRUE,,,,,,,CLR,,,,,,,,VFR,,,,,,,,,,,,METAR,7.0
K4S1 202230Z AUTO 35011G14KT 5SM HZ CLR 10/07 A3028 RMK AO2,K4S1,2023-02-20T22:30:00Z,42.42,-124.42,10.0,7.0,350,11,14,5.0,30.280512,,,TRUE,TRUE,,,,,,HZ,CLR,,,,,,,,MVFR,,,,,,,,,,,,METAR,7.0
K4S1 202215Z AUTO 36012KT 5SM HZ CLR 10/07 A3029 RMK AO2,K4S1,2023-02-20T22:15:00Z,42.42,-124.42,10.0,7.0,360,12,,5.0,30.28937,,,TRUE,TRUE,,,,,,HZ,CLR,,,,,,,,MVFR,,,,,,,,,,,,METAR,7.0
K4S1 202155Z AUTO 36011G15KT 5SM HZ CLR 10/07 A3030 RMK AO2,K4S1,2023-02-20T21:55:00Z,42.42,-124.42,10.0,7.0,360,11,15,5.0,30.301182,,,TRUE,TRUE,,,,,,HZ,CLR,,,,,,,,MVFR,,,,,,,,,,,,METAR,7.0
K4S1 202135Z AUTO 36011G16KT 5SM HZ CLR 10/07 A3031 RMK AO2,K4S1,2023-02-20T21:35:00Z,42.42,-124.42,10.0,7.0,360,11,16,5.0,30.31004,,,TRUE,TRUE,,,,,,HZ,CLR,,,,,,,,MVFR,,,,,,,,,,,,METAR,7.0
K4S1 202115Z AUTO 35011KT 4SM HZ CLR 10/07 A3032 RMK AO2,K4S1,2023-02-20T21:15:00Z,42.42,-124.42,10.0,7.0,350,11,,4.0,30.318897,,,TRUE,TRUE,,,,,,HZ,CLR,,,,,,,,MVFR,,,,,,,,,,,,METAR,7.0
K4S1 202055Z AUTO 35014G20KT 5SM HZ CLR 10/07 A3032 RMK AO2,K4S1,2023-02-20T20:55:00Z,42.42,-124.42,10.0,7.0,350,14,20,5.0,30.318897,,,TRUE,TRUE,,,,,,HZ,CLR,,,,,,,,MVFR,,,,,,,,,,,,METAR,7.0
K4S1 202035Z AUTO 36013KT 5SM HZ CLR 10/07 A3033 RMK AO2,K4S1,2023-02-20T20:35:00Z,42.42,-124.42,10.0,7.0,360,13,,5.0,30.33071,,,TRUE,TRUE,,,,,,HZ,CLR,,,,,,,,MVFR,,,,,,,,,,,,METAR,7.0
K4S1 202015Z AUTO 35011G19KT 5SM HZ CLR 10/07 A3033 RMK AO2,K4S1,2023-02-20T20:15:00Z,42.42,-124.42,10.0,7.0,350,11,19,5.0,30.33071,,,TRUE,TRUE,,,,,,HZ,CLR,,,,,,,,MVFR,,,,,,,,,,,,METAR,7.0
K4S1 201955Z AUTO 35011G17KT 4SM HZ CLR 10/07 A3035 RMK AO2,K4S1,2023-02-20T19:55:00Z,42.42,-124.42,10.0,7.0,350,11,17,4.0,30.351377,,,TRUE,TRUE,,,,,,HZ,CLR,,,,,,,,MVFR,,,,,,,,,,,,METAR,7.0
K4S1 201935Z AUTO 35011G16KT 4SM HZ CLR 10/07 A3034 RMK AO2,K4S1,2023-02-20T19:35:00Z,42.42,-124.42,10.0,7.0,350,11,16,4.0,30.339567,,,TRUE,TRUE,,,,,,HZ,CLR,,,,,,,,MVFR,,,,,,,,,,,,METAR,7.0
K4S1 201915Z AUTO 33011KT 4SM HZ CLR 10/06 A3033 RMK AO2,K4S1,2023-02-20T19:15:00Z,42.42,-124.42,10.0,6.0,330,11,,4.0,30.33071,,,TRUE,TRUE,,,,,,HZ,CLR,,,,,,,,MVFR,,,,,,,,,,,,METAR,7.0
K4S1 201855Z AUTO 34010KT 4SM HZ CLR 10/07 A3034 RMK AO2,K4S1,2023-02-20T18:55:00Z,42.42,-124.42,10.0,7.0,340,10,,4.0,30.339567,,,TRUE,TRUE,,,,,,HZ,CLR,,,,,,,,MVFR,,,,,,,,,,,,METAR,7.0
K4S1 201835Z AUTO 34011KT 4SM HZ CLR 09/06 A3034 RMK AO2,K4S1,2023-02-20T18:35:00Z,42.42,-124.42,9.0,6.0,340,11,,4.0,30.339567,,,TRUE,TRUE,,,,,,HZ,CLR,,,,,,,,MVFR,,,,,,,,,,,,METAR,7.0
K4S1 201815Z AUTO 34008KT 4SM HZ CLR 09/06 A3034 RMK AO2,K4S1,2023-02-20T18:15:00Z,42.42,-124.42,9.0,6.0,340,8,,4.0,30.339567,,,TRUE,TRUE,,,,,,HZ,CLR,,,,,,,,MVFR,,,,,,,,,,,,METAR,7.0
K4S1 201755Z AUTO 35009KT 4SM HZ CLR 09/06 A3034 RMK AO2,K4S1,2023-02-20T17:55:00Z,42.42,-124.42,9.0,6.0,350,9,,4.0,30.339567,,,TRUE,TRUE,,,,,,HZ,CLR,,,,,,,,MVFR,,,,,,,,,,,,METAR,7.0
K4S1 201735Z AUTO 01005KT 5SM HZ CLR 09/05 A3034 RMK AO2,K4S1,2023-02-20T17:35:00Z,42.42,-124.42,9.0,5.0,10,5,,5.0,30.339567,,,TRUE,TRUE,,,,,,HZ,CLR,,,,,,,,MVFR,,,,,,,,,,,,METAR,7.0
K4S1 201715Z AUTO 01005KT 5SM HZ CLR 08/05 A3034 RMK AO2,K4S1,2023-02-20T17:15:00Z,42.42,-124.42,8.0,5.0,10,5,,5.0,30.339567,,,TRUE,TRUE,,,,,,HZ,CLR,,,,,,,,MVFR,,,,,,,,,,,,METAR,7.0
K4S1 201655Z AUTO 36006KT 5SM HZ CLR 08/05 A3033 RMK AO2,K4S1,2023-02-20T16:55:00Z,42.42,-124.42,8.0,5.0,360,6,,5.0,30.33071,,,TRUE,TRUE,,,,,,HZ,CLR,,,,,,,,MVFR,,,,,,,,,,,,METAR,7.0
K4S1 201635Z AUTO 02004KT 5SM HZ CLR 07/04 A3033 RMK AO2,K4S1,2023-02-20T16:35:00Z,42.42,-124.42,7.0,4.0,20,4,,5.0,30.33071,,,TRUE,TRUE,,,,,,HZ,CLR,,,,,,,,MVFR,,,,,,,,,,,,METAR,7.0
K4S1 201615Z AUTO 03006KT 5SM BR CLR 06/04 A3032 RMK AO2,K4S1,2023-02-20T16:15:00Z,42.42,-124.42,6.0,4.0,30,6,,5.0,30.318897,,,TRUE,TRUE,,,,,,BR,CLR,,,,,,,,MVFR,,,,,,,,,,,,METAR,7.0
K4S1 201555Z AUTO 36007KT 7SM CLR 05/03 A3031 RMK AO2,K4S1,2023-02-20T15:55:00Z,42.42,-124.42,5.0,3.0,360,7,,7.0,30.31004,,,TRUE,TRUE,,,,,,,CLR,,,,,,,,VFR,,,,,,,,,,,,METAR,7.0
K4S1 201535Z AUTO 02008KT 7SM CLR 05/03 A3032 RMK AO2,K4S1,2023-02-20T15:35:00Z,42.42,-124.42,5.0,3.0,20,8,,7.0,30.318897,,,TRUE,TRUE,,,,,,,CLR,,,,,,,,VFR,,,,,,,,,,,,METAR,7.0
K4S1 201515Z AUTO 05007KT 7SM CLR 05/03 A3032 RMK AO2,K4S1,2023-02-20T15:15:00Z,42.42,-124.42,5.0,3.0,50,7,,7.0,30.318897,,,TRUE,TRUE,,,,,,,CLR,,,,,,,,VFR,,,,,,,,,,,,METAR,7.0
K4S1 201455Z AUTO 01008KT 7SM CLR 05/03 A3032 RMK AO2,K4S1,2023-02-20T14:55:00Z,42.42,-124.42,5.0,3.0,10,8,,7.0,30.318897,,,TRUE,TRUE,,,,,,,CLR,,,,,,,,VFR,,,,,,,,,,,,METAR,7.0
K4S1 201435Z AUTO 04008KT 7SM CLR 05/03 A3032 RMK AO2,K4S1,2023-02-20T14:35:00Z,42.42,-124.42,5.0,3.0,40,8,,7.0,30.318897,,,TRUE,TRUE,,,,,,,CLR,,,,,,,,VFR,,,,,,,,,,,,METAR,7.0
K4S1 201415Z AUTO 03006KT 7SM CLR 04/03 A3031 RMK AO2,K4S1,2023-02-20T14:15:00Z,42.42,-124.42,4.0,3.0,30,6,,7.0,30.31004,,,TRUE,TRUE,,,,,,,CLR,,,,,,,,VFR,,,,,,,,,,,,METAR,7.0
K4S1 201355Z AUTO 05005KT 7SM CLR 05/03 A3032 RMK AO2,K4S1,2023-02-20T13:55:00Z,42.42,-124.42,5.0,3.0,50,5,,7.0,30.318897,,,TRUE,TRUE,,,,,,,CLR,,,,,,,,VFR,,,,,,,,,,,,METAR,7.0
K4S1 201335Z AUTO 04007KT 7SM CLR 04/03 A3031 RMK AO2,K4S1,2023-02-20T13:35:00Z,42.42,-124.42,4.0,3.0,40,7,,7.0,30.31004,,,TRUE,TRUE,,,,,,,CLR,,,,,,,,VFR,,,,,,,,,,,,METAR,7.0
K4S1 201315Z AUTO 06007KT 7SM CLR 04/03 A3031 RMK AO2,K4S1,2023-02-20T13:15:00Z,42.42,-124.42,4.0,3.0,60,7,,7.0,30.31004,,,TRUE,TRUE,,,,,,,CLR,,,,,,,,VFR,,,,,,,,,,,,METAR,7.0
K4S1 201255Z AUTO 02005KT 7SM CLR 04/03 A3031 RMK AO2,K4S1,2023-02-20T12:55:00Z,42.42,-124.42,4.0,3.0,20,5,,7.0,30.31004,,,TRUE,TRUE,,,,,,,CLR,,,,,,,,VFR,,,,,,,,,,,,METAR,7.0
K4S1 201235Z AUTO 03008KT 7SM CLR 03/02 A3032 RMK AO2,K4S1,2023-02-20T12:35:00Z,42.42,-124.42,3.0,2.0,30,8,,7.0,30.318897,,,TRUE,TRUE,,,,,,,CLR,,,,,,,,VFR,,,,,,,,,,,,METAR,7.0
K4S1 201215Z AUTO 03007KT 7SM CLR 03/03 A3033 RMK AO2,K4S1,2023-02-20T12:15:00Z,42.42,-124.42,3.0,3.0,30,7,,7.0,30.33071,,,TRUE,TRUE,,,,,,,CLR,,,,,,,,VFR,,,,,,,,,,,,METAR,7.0
K4S1 201155Z AUTO 05006KT 7SM CLR 04/03 A3032 RMK AO2,K4S1,2023-02-20T11:55:00Z,42.42,-124.42,4.0,3.0,50,6,,7.0,30.318897,,,TRUE,TRUE,,,,,,,CLR,,,,,,,,VFR,,,,,,,,,,,,METAR,7.0
K4S1 201135Z AUTO 05008KT 7SM CLR 04/03 A3032 RMK AO2,K4S1,2023-02-20T11:35:00Z,42.42,-124.42,4.0,3.0,50,8,,7.0,30.318897,,,TRUE,TRUE,,,,,,,CLR,,,,,,,,VFR,,,,,,,,,,,,METAR,7.0
K4S1 201115Z AUTO 02008KT 7SM CLR 04/03 A3032 RMK AO2,K4S1,2023-02-20T11:15:00Z,42.42,-124.42,4.0,3.0,20,8,,7.0,30.318897,,,TRUE,TRUE,,,,,,,CLR,,,,,,,,VFR,,,,,,,,,,,,METAR,7.0
K4S1 201055Z AUTO 04006G14KT 7SM CLR 05/03 A3033 RMK AO2,K4S1,2023-02-20T10:55:00Z,42.42,-124.42,5.0,3.0,40,6,14,7.0,30.33071,,,TRUE,TRUE,,,,,,,CLR,,,,,,,,VFR,,,,,,,,,,,,METAR,7.0
K4S1 201035Z AUTO 04006KT 7SM CLR 04/03 A3033 RMK AO2,K4S1,2023-02-20T10:35:00Z,42.42,-124.42,4.0,3.0,40,6,,7.0,30.33071,,,TRUE,TRUE,,,,,,,CLR,,,,,,,,VFR,,,,,,,,,,,,METAR,7.0
K4S1 201015Z AUTO 04005KT 5SM BR CLR 04/03 A3032 RMK AO2,K4S1,2023-02-20T10:15:00Z,42.42,-124.42,4.0,3.0,40,5,,5.0,30.318897,,,TRUE,TRUE,,,,,,BR,CLR,,,,,,,,MVFR,,,,,,,,,,,,METAR,7.0
K4S1 200955Z AUTO 05007KT 5SM BR CLR 04/03 A3031 RMK AO2,K4S1,2023-02-20T09:55:00Z,42.42,-124.42,4.0,3.0,50,7,,5.0,30.31004,,,TRUE,TRUE,,,,,,BR,CLR,,,,,,,,MVFR,,,,,,,,,,,,METAR,7.0
K4S1 200935Z AUTO 02005KT 5SM BR CLR 05/05 A3032 RMK AO2,K4S1,2023-02-20T09:35:00Z,42.42,-124.42,5.0,5.0,20,5,,5.0,30.318897,,,TRUE,TRUE,,,,,,BR,CLR,,,,,,,,MVFR,,,,,,,,,,,,METAR,7.0
K4S1 200915Z AUTO 36004KT 7SM CLR 05/04 A3031 RMK AO2,K4S1,2023-02-20T09:15:00Z,42.42,-124.42,5.0,4.0,360,4,,7.0,30.31004,,,TRUE,TRUE,,,,,,,CLR,,,,,,,,VFR,,,,,,,,,,,,METAR,7.0
K4S1 200855Z AUTO 01006KT 7SM CLR 05/03 A3032 RMK AO2,K4S1,2023-02-20T08:55:00Z,42.42,-124.42,5.0,3.0,10,6,,7.0,30.318897,,,TRUE,TRUE,,,,,,,CLR,,,,,,,,VFR,,,,,,,,,,,,METAR,7.0
K4S1 200835Z AUTO 04004KT 5SM BR CLR 05/04 A3032 RMK AO2,K4S1,2023-02-20T08:35:00Z,42.42,-124.42,5.0,4.0,40,4,,5.0,30.318897,,,TRUE,TRUE,,,,,,BR,CLR,,,,,,,,MVFR,,,,,,,,,,,,METAR,7.0
K4S1 200815Z AUTO 06005KT 5SM BR CLR 05/04 A3031 RMK AO2,K4S1,2023-02-20T08:15:00Z,42.42,-124.42,5.0,4.0,60,5,,5.0,30.31004,,,TRUE,TRUE,,,,,,BR,CLR,,,,,,,,MVFR,,,,,,,,,,,,METAR,7.0
K4S1 200755Z AUTO 01004KT 5SM BR CLR 05/03 A3031 RMK AO2,K4S1,2023-02-20T07:55:00Z,42.42,-124.42,5.0,3.0,10,4,,5.0,30.31004,,,TRUE,TRUE,,,,,,BR,CLR,,,,,,,,MVFR,,,,,,,,,,,,METAR,7.0
K4S1 200735Z AUTO 03005KT 5SM BR CLR 05/04 A3032 RMK AO2,K4S1,2023-02-20T07:35:00Z,42.42,-124.42,5.0,4.0,30,5,,5.0,30.318897,,,TRUE,TRUE,,,,,,BR,CLR,,,,,,,,MVFR,,,,,,,,,,,,METAR,7.0
K4S1 200715Z AUTO 04006KT 7SM CLR 05/04 A3032 RMK AO2,K4S1,2023-02-20T07:15:00Z,42.42,-124.42,5.0,4.0,40,6,,7.0,30.318897,,,TRUE,TRUE,,,,,,,CLR,,,,,,,,VFR,,,,,,,,,,,,METAR,7.0
K4S1 200655Z AUTO 04005KT 5SM BR CLR 06/05 A3032 RMK AO2,K4S1,2023-02-20T06:55:00Z,42.42,-124.42,6.0,5.0,40,5,,5.0,30.318897,,,TRUE,TRUE,,,,,,BR,CLR,,,,,,,,MVFR,,,,,,,,,,,,METAR,7.0
K4S1 200635Z AUTO 02006KT 5SM BR CLR 05/03 A3032 RMK AO2,K4S1,2023-02-20T06:35:00Z,42.42,-124.42,5.0,3.0,20,6,,5.0,30.318897,,,TRUE,TRUE,,,,,,BR,CLR,,,,,,,,MVFR,,,,,,,,,,,,METAR,7.0
K4S1 200615Z AUTO 04003KT 7SM CLR 07/05 A3032 RMK AO2,K4S1,2023-02-20T06:15:00Z,42.42,-124.42,7.0,5.0,40,3,,7.0,30.318897,,,TRUE,TRUE,,,,,,,CLR,,,,,,,,VFR,,,,,,,,,,,,METAR,7.0
K4S1 200555Z AUTO 05004KT 5SM BR CLR 06/05 A3031 RMK AO2,K4S1,2023-02-20T05:55:00Z,42.42,-124.42,6.0,5.0,50,4,,5.0,30.31004,,,TRUE,TRUE,,,,,,BR,CLR,,,,,,,,MVFR,,,,,,,,,,,,METAR,7.0
K4S1 200535Z AUTO 03007KT 5SM BR CLR 06/04 A3031 RMK AO2,K4S1,2023-02-20T05:35:00Z,42.42,-124.42,6.0,4.0,30,7,,5.0,30.31004,,,TRUE,TRUE,,,,,,BR,CLR,,,,,,,,MVFR,,,,,,,,,,,,METAR,7.0
K4S1 200515Z AUTO 04005KT 5SM BR CLR 06/05 A3030 RMK AO2,K4S1,2023-02-20T05:15:00Z,42.42,-124.42,6.0,5.0,40,5,,5.0,30.301182,,,TRUE,TRUE,,,,,,BR,CLR,,,,,,,,MVFR,,,,,,,,,,,,METAR,7.0
K4S1 200455Z AUTO 02004KT 5SM BR CLR 06/04 A3029 RMK AO2,K4S1,2023-02-20T04:55:00Z,42.42,-124.42,6.0,4.0,20,4,,5.0,30.28937,,,TRUE,TRUE,,,,,,BR,CLR,,,,,,,,MVFR,,,,,,,,,,,,METAR,7.0
K4S1 200435Z AUTO 00000KT 5SM HZ CLR 06/03 A3029 RMK AO2,K4S1,2023-02-20T04:35:00Z,42.42,-124.42,6.0,3.0,0,0,,5.0,30.28937,,,TRUE,TRUE,,,,,,HZ,CLR,,,,,,,,MVFR,,,,,,,,,,,,METAR,7.0
K4S1 200415Z AUTO 02005KT 5SM HZ CLR 08/05 A3029 RMK AO2,K4S1,2023-02-20T04:15:00Z,42.42,-124.42,8.0,5.0,20,5,,5.0,30.28937,,,TRUE,TRUE,,,,,,HZ,CLR,,,,,,,,MVFR,,,,,,,,,,,,METAR,7.0
K4S1 200355Z AUTO 08003KT 5SM HZ CLR 08/05 A3027 RMK AO2,K4S1,2023-02-20T03:55:00Z,42.42,-124.42,8.0,5.0,80,3,,5.0,30.268702,,,TRUE,TRUE,,,,,,HZ,CLR,,,,,,,,MVFR,,,,,,,,,,,,METAR,7.0
K4S1 200335Z AUTO 01014G17KT 7SM CLR 08/05 A3027 RMK AO2,K4S1,2023-02-20T03:35:00Z,42.42,-124.42,8.0,5.0,10,14,17,7.0,30.268702,,,TRUE,TRUE,,,,,,,CLR,,,,,,,,VFR,,,,,,,,,,,,METAR,7.0
K4S1 200315Z AUTO 04005KT 5SM HZ CLR 08/05 A3027 RMK AO2,K4S1,2023-02-20T03:15:00Z,42.42,-124.42,8.0,5.0,40,5,,5.0,30.268702,,,TRUE,TRUE,,,,,,HZ,CLR,,,,,,,,MVFR,,,,,,,,,,,,METAR,7.0
K4S1 200255Z AUTO 02008KT 350V050 5SM HZ CLR 08/06 A3027 RMK AO2,K4S1,2023-02-20T02:55:00Z,42.42,-124.42,8.0,6.0,20,8,,5.0,30.268702,,,TRUE,TRUE,,,,,,HZ,CLR,,,,,,,,MVFR,,,,,,,,,,,,METAR,7.0
K4S1 200235Z AUTO 02011G14KT 5SM HZ CLR 08/05 A3025 RMK AO2,K4S1,2023-02-20T02:35:00Z,42.42,-124.42,8.0,5.0,20,11,14,5.0,30.250984,,,TRUE,TRUE,,,,,,HZ,CLR,,,,,,,,MVFR,,,,,,,,,,,,METAR,7.0
K4S1 200215Z AUTO 02009KT 5SM HZ CLR 09/05 A3025 RMK AO2,K4S1,2023-02-20T02:15:00Z,42.42,-124.42,9.0,5.0,20,9,,5.0,30.250984,,,TRUE,TRUE,,,,,,HZ,CLR,,,,,,,,MVFR,,,,,,,,,,,,METAR,7.0
K4S1 200155Z AUTO 01016G22KT 4SM HZ CLR 09/05 A3025 RMK AO2,K4S1,2023-02-20T01:55:00Z,42.42,-124.42,9.0,5.0,10,16,22,4.0,30.250984,,,TRUE,TRUE,,,,,,HZ,CLR,,,,,,,,MVFR,,,,,,,,,,,,METAR,7.0
K4S1 200135Z AUTO 01012G20KT 4SM HZ CLR 10/06 A3026 RMK AO2,K4S1,2023-02-20T01:35:00Z,42.42,-124.42,10.0,6.0,10,12,20,4.0,30.259842,,,TRUE,TRUE,,,,,,HZ,CLR,,,,,,,,MVFR,,,,,,,,,,,,METAR,7.0
K4S1 200115Z AUTO 01017G25KT 5SM HZ CLR 10/06 A3026 RMK AO2,K4S1,2023-02-20T01:15:00Z,42.42,-124.42,10.0,6.0,10,17,25,5.0,30.259842,,,TRUE,TRUE,,,,,,HZ,CLR,,,,,,,,MVFR,,,,,,,,,,,,METAR,7.0
K4S1 200055Z AUTO 02011G21KT 4SM HZ CLR 10/06 A3026 RMK AO2,K4S1,2023-02-20T00:55:00Z,42.42,-124.42,10.0,6.0,20,11,21,4.0,30.259842,,,TRUE,TRUE,,,,,,HZ,CLR,,,,,,,,MVFR,,,,,,,,,,,,METAR,7.0
K4S1 200035Z AUTO 01017G27KT 4SM HZ CLR 10/06 A3026 RMK AO2,K4S1,2023-02-20T00:35:00Z,42.42,-124.42,10.0,6.0,10,17,27,4.0,30.259842,,,TRUE,TRUE,,,,,,HZ,CLR,,,,,,,,MVFR,,,,,,,,,,,,METAR,7.0
K4S1 200015Z AUTO 36016G26KT 4SM HZ CLR 10/06 A3025 RMK AO2,K4S1,2023-02-20T00:15:00Z,42.42,-124.42,10.0,6.0,360,16,26,4.0,30.250984,,,TRUE,TRUE,,,,,,HZ,CLR,,,,,,,,MVFR,,,,,,,,,,,,METAR,7.0
K4S1 192355Z AUTO 36017G24KT 4SM HZ CLR 11/06 A3025 RMK AO2,K4S1,2023-02-19T23:55:00Z,42.42,-124.42,11.0,6.0,360,17,24,4.0,30.250984,,,TRUE,TRUE,,,,,,HZ,CLR,,,,,,,,MVFR,,,,,,,,,,,,METAR,7.0
K4S1 192335Z AUTO 35018G26KT 4SM HZ CLR 10/06 A3024 RMK AO2,K4S1,2023-02-19T23:35:00Z,42.42,-124.42,10.0,6.0,350,18,26,4.0,30.239174,,,TRUE,TRUE,,,,,,HZ,CLR,,,,,,,,MVFR,,,,,,,,,,,,METAR,7.0
K4S1 192315Z AUTO 35018G25KT 4SM HZ CLR 10/06 A3024 RMK AO2,K4S1,2023-02-19T23:15:00Z,42.42,-124.42,10.0,6.0,350,18,25,4.0,30.239174,,,TRUE,TRUE,,,,,,HZ,CLR,,,,,,,,MVFR,,,,,,,,,,,,METAR,7.0
K4S1 192255Z AUTO 36019G25KT 4SM HZ CLR 11/06 A3023 RMK AO2,K4S1,2023-02-19T22:55:00Z,42.42,-124.42,11.0,6.0,360,19,25,4.0,30.230314,,,TRUE,TRUE,,,,,,HZ,CLR,,,,,,,,MVFR,,,,,,,,,,,,METAR,7.0
K4S1 192235Z AUTO 36017G26KT 4SM HZ CLR 11/06 A3023 RMK AO2,K4S1,2023-02-19T22:35:00Z,42.42,-124.42,11.0,6.0,360,17,26,4.0,30.230314,,,TRUE,TRUE,,,,,,HZ,CLR,,,,,,,,MVFR,,,,,,,,,,,,METAR,7.0
K4S1 192215Z AUTO 35018G26KT 4SM HZ CLR 11/06 A3023 RMK AO2,K4S1,2023-02-19T22:15:00Z,42.42,-124.42,11.0,6.0,350,18,26,4.0,30.230314,,,TRUE,TRUE,,,,,,HZ,CLR,,,,,,,,MVFR,,,,,,,,,,,,METAR,7.0
K4S1 192155Z AUTO 36018G28KT 4SM HZ CLR 11/06 A3025 RMK AO2,K4S1,2023-02-19T21:55:00Z,42.42,-124.42,11.0,6.0,360,18,28,4.0,30.250984,,,TRUE,TRUE,,,,,,HZ,CLR,,,,,,,,MVFR,,,,,,,,,,,,METAR,7.0
K4S1 192135Z AUTO 35019G25KT 4SM HZ CLR 11/05 A3025 RMK AO2,K4S1,2023-02-19T21:35:00Z,42.42,-124.42,11.0,5.0,350,19,25,4.0,30.250984,,,TRUE,TRUE,,,,,,HZ,CLR,,,,,,,,MVFR,,,,,,,,,,,,METAR,7.0
K4S1 192115Z AUTO 35014G24KT 4SM HZ CLR 11/06 A3025 RMK AO2,K4S1,2023-02-19T21:15:00Z,42.42,-124.42,11.0,6.0,350,14,24,4.0,30.250984,,,TRUE,TRUE,,,,,,HZ,CLR,,,,,,,,MVFR,,,,,,,,,,,,METAR,7.0
K4S1 192055Z AUTO 36016G24KT 4SM HZ CLR 11/06 A3025 RMK AO2,K4S1,2023-02-19T20:55:00Z,42.42,-124.42,11.0,6.0,360,16,24,4.0,30.250984,,,TRUE,TRUE,,,,,,HZ,CLR,,,,,,,,MVFR,,,,,,,,,,,,METAR,7.0
K4S1 192035Z AUTO 36017G24KT 4SM HZ CLR 11/06 A3026 RMK AO2,K4S1,2023-02-19T20:35:00Z,42.42,-124.42,11.0,6.0,360,17,24,4.0,30.259842,,,TRUE,TRUE,,,,,,HZ,CLR,,,,,,,,MVFR,,,,,,,,,,,,METAR,7.0
K4S1 192015Z AUTO 35015G22KT 4SM HZ CLR 11/05 A3026 RMK AO2,K4S1,2023-02-19T20:15:00Z,42.42,-124.42,11.0,5.0,350,15,22,4.0,30.259842,,,TRUE,TRUE,,,,,,HZ,CLR,,,,,,,,MVFR,,,,,,,,,,,,METAR,7.0
K4S1 191955Z AUTO 35016G21KT 5SM HZ CLR 11/05 A3026 RMK AO2,K4S1,2023-02-19T19:55:00Z,42.42,-124.42,11.0,5.0,350,16,21,5.0,30.259842,,,TRUE,TRUE,,,,,,HZ,CLR,,,,,,,,MVFR,,,,,,,,,,,,METAR,7.0
K4S1 191935Z AUTO 35015KT 5SM HZ CLR 11/05 A3027 RMK AO2,K4S1,2023-02-19T19:35:00Z,42.42,-124.42,11.0,5.0,350,15,,5.0,30.268702,,,TRUE,TRUE,,,,,,HZ,CLR,,,,,,,,MVFR,,,,,,,,,,,,METAR,7.0
K4S1 191915Z AUTO 36016G20KT 5SM HZ CLR 11/05 A3027 RMK AO2,K4S1,2023-02-19T19:15:00Z,42.42,-124.42,11.0,5.0,360,16,20,5.0,30.268702,,,TRUE,TRUE,,,,,,HZ,CLR,,,,,,,,MVFR,,,,,,,,,,,,METAR,7.0
K4S1 191855Z AUTO 35015G20KT 5SM HZ CLR 11/05 A3028 RMK AO2,K4S1,2023-02-19T18:55:00Z,42.42,-124.42,11.0,5.0,350,15,20,5.0,30.280512,,,TRUE,TRUE,,,,,,HZ,CLR,,,,,,,,MVFR,,,,,,,,,,,,METAR,7.0
K4S1 191835Z AUTO 35014G19KT 5SM HZ CLR 10/05 A3028 RMK AO2,K4S1,2023-02-19T18:35:00Z,42.42,-124.42,10.0,5.0,350,14,19,5.0,30.280512,,,TRUE,TRUE,,,,,,HZ,CLR,,,,,,,,MVFR,,,,,,,,,,,,METAR,7.0
K4S1 191815Z AUTO 35014G18KT 5SM HZ CLR 10/05 A3028 RMK AO2,K4S1,2023-02-19T18:15:00Z,42.42,-124.42,10.0,5.0,350,14,18,5.0,30.280512,,,TRUE,TRUE,,,,,,HZ,CLR,,,,,,,,MVFR,,,,,,,,,,,,METAR,7.0
K4S1 191755Z AUTO 35015G21KT 4SM HZ CLR 10/04 A3028 RMK AO2,K4S1,2023-02-19T17:55:00Z,42.42,-124.42,10.0,4.0,350,15,21,4.0,30.280512,,,TRUE,TRUE,,,,,,HZ,CLR,,,,,,,,MVFR,,,,,,,,,,,,METAR,7.0
K4S1 191735Z AUTO 02012G19KT 5SM HZ CLR 10/02 A3028 RMK AO2,K4S1,2023-02-19T17:35:00Z,42.42,-124.42,10.0,2.0,20,12,19,5.0,30.280512,,,TRUE,TRUE,,,,,,HZ,CLR,,,,,,,,MVFR,,,,,,,,,,,,METAR,7.0
K4S1 191715Z AUTO 01009G17KT 5SM HZ CLR 08/02 A3028 RMK AO2,K4S1,2023-02-19T17:15:00Z,42.42,-124.42,8.0,2.0,10,9,17,5.0,30.280512,,,TRUE,TRUE,,,,,,HZ,CLR,,,,,,,,MVFR,,,,,,,,,,,,METAR,7.0
K4S1 191655Z AUTO 36007G19KT 7SM CLR 08/03 A3029 RMK AO2,K4S1,2023-02-19T16:55:00Z,42.42,-124.42,8.0,3.0,360,7,19,7.0,30.28937,,,TRUE,TRUE,,,,,,,CLR,,,,,,,,VFR,,,,,,,,,,,,METAR,7.0
K4S1 191635Z AUTO 03011G16KT 5SM HZ CLR 07/02 A3028 RMK AO2,K4S1,2023-02-19T16:35:00Z,42.42,-124.42,7.0,2.0,30,11,16,5.0,30.280512,,,TRUE,TRUE,,,,,,HZ,CLR,,,,,,,,MVFR,,,,,,,,,,,,METAR,7.0
K4S1 191615Z AUTO 01012G22KT 7SM CLR 07/02 A3028 RMK AO2,K4S1,2023-02-19T16:15:00Z,42.42,-124.42,7.0,2.0,10,12,22,7.0,30.280512,,,TRUE,TRUE,,,,,,,CLR,,,,,,,,VFR,,,,,,,,,,,,METAR,7.0
K4S1 191555Z AUTO 02008KT 7SM CLR 07/02 A3028 RMK AO2,K4S1,2023-02-19T15:55:00Z,42.42,-124.42,7.0,2.0,20,8,,7.0,30.280512,,,TRUE,TRUE,,,,,,,CLR,,,,,,,,VFR,,,,,,,,,,,,METAR,7.0
K4S1 191535Z AUTO 03009G18KT 7SM CLR 07/02 A3028 RMK AO2,K4S1,2023-02-19T15:35:00Z,42.42,-124.42,7.0,2.0,30,9,18,7.0,30.280512,,,TRUE,TRUE,,,,,,,CLR,,,,,,,,VFR,,,,,,,,,,,,METAR,7.0
K4S1 191515Z AUTO 01015G25KT 7SM CLR 07/02 A3027 RMK AO2,K4S1,2023-02-19T15:15:00Z,42.42,-124.42,7.0,2.0,10,15,25,7.0,30.268702,,,TRUE,TRUE,,,,,,,CLR,,,,,,,,VFR,,,,,,,,,,,,METAR,7.0
K4S1 191455Z AUTO 01012G15KT 7SM CLR 06/03 A3027 RMK AO2,K4S1,2023-02-19T14:55:00Z,42.42,-124.42,6.0,3.0,10,12,15,7.0,30.268702,,,TRUE,TRUE,,,,,,,CLR,,,,,,,,VFR,,,,,,,,,,,,METAR,7.0
K4S1 191435Z AUTO 01007KT 340V050 10SM CLR 05/02 A3027 RMK AO2,K4S1,2023-02-19T14:35:00Z,42.42,-124.42,5.0,2.0,10,7,,10.0,30.268702,,,TRUE,TRUE,,,,,,,CLR,,,,,,,,VFR,,,,,,,,,,,,METAR,7.0
K4S1 191415Z AUTO 06010KT 7SM CLR 05/03 A3027 RMK AO2,K4S1,2023-02-19T14:15:00Z,42.42,-124.42,5.0,3.0,60,10,,7.0,30.268702,,,TRUE,TRUE,,,,,,,CLR,,,,,,,,VFR,,,,,,,,,,,,METAR,7.0
K4S1 191355Z AUTO 05009KT 7SM CLR 05/03 A3027 RMK AO2,K4S1,2023-02-19T13:55:00Z,42.42,-124.42,5.0,3.0,50,9,,7.0,30.268702,,,TRUE,TRUE,,,,,,,CLR,,,,,,,,VFR,,,,,,,,,,,,METAR,7.0
K4S1 191335Z AUTO 05010KT 7SM CLR 04/03 A3027 RMK AO2,K4S1,2023-02-19T13:35:00Z,42.42,-124.42,4.0,3.0,50,10,,7.0,30.268702,,,TRUE,TRUE,,,,,,,CLR,,,,,,,,VFR,,,,,,,,,,,,METAR,7.0
K4S1 191315Z AUTO 05008KT 7SM CLR 04/03 A3027 RMK AO2,K4S1,2023-02-19T13:15:00Z,42.42,-124.42,4.0,3.0,50,8,,7.0,30.268702,,,TRUE,TRUE,,,,,,,CLR,,,,,,,,VFR,,,,,,,,,,,,METAR,7.0
K4S1 191255Z AUTO 05010KT 10SM CLR 03/03 A3027 RMK AO2,K4S1,2023-02-19T12:55:00Z,42.42,-124.42,3.0,3.0,50,10,,10.0,30.268702,,,TRUE,TRUE,,,,,,,CLR,,,,,,,,VFR,,,,,,,,,,,,METAR,7.0
K4S1 191235Z AUTO 03009KT 7SM CLR 03/02 A3026 RMK AO2,K4S1,2023-02-19T12:35:00Z,42.42,-124.42,3.0,2.0,30,9,,7.0,30.259842,,,TRUE,TRUE,,,,,,,CLR,,,,,,,,VFR,,,,,,,,,,,,METAR,7.0
K4S1 191215Z AUTO 03010KT 7SM CLR 03/02 A3026 RMK AO2,K4S1,2023-02-19T12:15:00Z,42.42,-124.42,3.0,2.0,30,10,,7.0,30.259842,,,TRUE,TRUE,,,,,,,CLR,,,,,,,,VFR,,,,,,,,,,,,METAR,7.0
K4S1 191155Z AUTO 05008KT 7SM CLR 03/02 A3026 RMK AO2,K4S1,2023-02-19T11:55:00Z,42.42,-124.42,3.0,2.0,50,8,,7.0,30.259842,,,TRUE,TRUE,,,,,,,CLR,,,,,,,,VFR,,,,,,,,,,,,METAR,7.0
K4S1 191135Z AUTO 03009KT 7SM CLR 03/02 A3026 RMK AO2,K4S1,2023-02-19T11:35:00Z,42.42,-124.42,3.0,2.0,30,9,,7.0,30.259842,,,TRUE,TRUE,,,,,,,CLR,,,,,,,,VFR,,,,,,,,,,,,METAR,7.0
K4S1 191115Z AUTO 03009KT 7SM CLR 03/02 A3026 RMK AO2,K4S1,2023-02-19T11:15:00Z,42.42,-124.42,3.0,2.0,30,9,,7.0,30.259842,,,TRUE,TRUE,,,,,,,CLR,,,,,,,,VFR,,,,,,,,,,,,METAR,7.0
K4S1 191055Z AUTO 04008KT 7SM CLR 03/02 A3026 RMK AO2,K4S1,2023-02-19T10:55:00Z,42.42,-124.42,3.0,2.0,40,8,,7.0,30.259842,,,TRUE,TRUE,,,,,,,CLR,,,,,,,,VFR,,,,,,,,,,,,METAR,7.0
K4S1 191035Z AUTO 03007KT 7SM CLR 03/02 A3026 RMK AO2,K4S1,2023-02-19T10:35:00Z,42.42,-124.42,3.0,2.0,30,7,,7.0,30.259842,,,TRUE,TRUE,,,,,,,CLR,,,,,,,,VFR,,,,,,,,,,,,METAR,7.0
K4S1 191015Z AUTO 05008KT 7SM CLR 03/02 A3026 RMK AO2,K4S1,2023-02-19T10:15:00Z,42.42,-124.42,3.0,2.0,50,8,,7.0,30.259842,,,TRUE,TRUE,,,,,,,CLR,,,,,,,,VFR,,,,,,,,,,,,METAR,7.0
K4S1 190955Z AUTO 04005KT 7SM CLR 03/02 A3026 RMK AO2,K4S1,2023-02-19T09:55:00Z,42.42,-124.42,3.0,2.0,40,5,,7.0,30.259842,,,TRUE,TRUE,,,,,,,CLR,,,,,,,,VFR,,,,,,,,,,,,METAR,7.0
K4S1 190935Z AUTO 06008KT 7SM CLR 03/02 A3026 RMK AO2,K4S1,2023-02-19T09:35:00Z,42.42,-124.42,3.0,2.0,60,8,,7.0,30.259842,,,TRUE,TRUE,,,,,,,CLR,,,,,,,,VFR,,,,,,,,,,,,METAR,7.0
K4S1 190915Z AUTO 05008KT 7SM CLR 03/03 A3025 RMK AO2,K4S1,2023-02-19T09:15:00Z,42.42,-124.42,3.0,3.0,50,8,,7.0,30.250984,,,TRUE,TRUE,,,,,,,CLR,,,,,,,,VFR,,,,,,,,,,,,METAR,7.0
K4S1 190855Z AUTO 04008KT 7SM CLR 03/03 A3025 RMK AO2,K4S1,2023-02-19T08:55:00Z,42.42,-124.42,3.0,3.0,40,8,,7.0,30.250984,,,TRUE,TRUE,,,,,,,CLR,,,,,,,,VFR,,,,,,,,,,,,METAR,7.0
K4S1 190835Z AUTO 04008KT 7SM CLR 03/02 A3025 RMK AO2,K4S1,2023-02-19T08:35:00Z,42.42,-124.42,3.0,2.0,40,8,,7.0,30.250984,,,TRUE,TRUE,,,,,,,CLR,,,,,,,,VFR,,,,,,,,,,,,METAR,7.0
K4S1 190815Z AUTO 03006KT 7SM CLR 03/02 A3026 RMK AO2,K4S1,2023-02-19T08:15:00Z,42.42,-124.42,3.0,2.0,30,6,,7.0,30.259842,,,TRUE,TRUE,,,,,,,CLR,,,,,,,,VFR,,,,,,,,,,,,METAR,7.0
K4S1 190755Z AUTO 03006KT 7SM CLR 04/03 A3025 RMK AO2,K4S1,2023-02-19T07:55:00Z,42.42,-124.42,4.0,3.0,30,6,,7.0,30.250984,,,TRUE,TRUE,,,,,,,CLR,,,,,,,,VFR,,,,,,,,,,,,METAR,7.0
K4S1 190735Z AUTO 04005KT 7SM CLR 04/03 A3025 RMK AO2,K4S1,2023-02-19T07:35:00Z,42.42,-124.42,4.0,3.0,40,5,,7.0,30.250984,,,TRUE,TRUE,,,,,,,CLR,,,,,,,,VFR,,,,,,,,,,,,METAR,7.0
K4S1 190715Z AUTO 04006KT 7SM CLR 04/03 A3025 RMK AO2,K4S1,2023-02-19T07:15:00Z,42.42,-124.42,4.0,3.0,40,6,,7.0,30.250984,,,TRUE,TRUE,,,,,,,CLR,,,,,,,,VFR,,,,,,,,,,,,METAR,7.0
K4S1 190655Z AUTO 02007KT 7SM CLR 05/03 A3025 RMK AO2,K4S1,2023-02-19T06:55:00Z,42.42,-124.42,5.0,3.0,20,7,,7.0,30.250984,,,TRUE,TRUE,,,,,,,CLR,,,,,,,,VFR,,,,,,,,,,,,METAR,7.0
K4S1 190635Z AUTO 04005KT 7SM CLR 05/03 A3024 RMK AO2,K4S1,2023-02-19T06:35:00Z,42.42,-124.42,5.0,3.0,40,5,,7.0,30.239174,,,TRUE,TRUE,,,,,,,CLR,,,,,,,,VFR,,,,,,,,,,,,METAR,7.0
K4S1 190615Z AUTO 02006KT 7SM CLR 05/03 A3024 RMK AO2,K4S1,2023-02-19T06:15:00Z,42.42,-124.42,5.0,3.0,20,6,,7.0,30.239174,,,TRUE,TRUE,,,,,,,CLR,,,,,,,,VFR,,,,,,,,,,,,METAR,7.0
K4S1 190555Z AUTO 04005KT 7SM CLR 05/03 A3024 RMK AO2,K4S1,2023-02-19T05:55:00Z,42.42,-124.42,5.0,3.0,40,5,,7.0,30.239174,,,TRUE,TRUE,,,,,,,CLR,,,,,,,,VFR,,,,,,,,,,,,METAR,7.0
K4S1 190535Z AUTO 05005KT 7SM CLR 06/04 A3023 RMK AO2,K4S1,2023-02-19T05:35:00Z,42.42,-124.42,6.0,4.0,50,5,,7.0,30.230314,,,TRUE,TRUE,,,,,,,CLR,,,,,,,,VFR,,,,,,,,,,,,METAR,7.0
K4S1 190515Z AUTO 05007KT 7SM CLR 06/04 A3023 RMK AO2,K4S1,2023-02-19T05:15:00Z,42.42,-124.42,6.0,4.0,50,7,,7.0,30.230314,,,TRUE,TRUE,,,,,,,CLR,,,,,,,,VFR,,,,,,,,,,,,METAR,7.0
K4S1 190455Z AUTO 02010G18KT 7SM CLR 08/06 A3022 RMK AO2,K4S1,2023-02-19T04:55:00Z,42.42,-124.42,8.0,6.0,20,10,18,7.0,30.221457,,,TRUE,TRUE,,,,,,,CLR,,,,,,,,VFR,,,,,,,,,,,,METAR,7.0
K4S1 190435Z AUTO 03007KT 350V060 7SM CLR 07/05 A3021 RMK AO2,K4S1,2023-02-19T04:35:00Z,42.42,-124.42,7.0,5.0,30,7,,7.0,30.209646,,,TRUE,TRUE,,,,,,,CLR,,,,,,,,VFR,,,,,,,,,,,,METAR,7.0
K4S1 190415Z AUTO 03005KT 7SM CLR 07/06 A3020 RMK AO2,K4S1,2023-02-19T04:15:00Z,42.42,-124.42,7.0,6.0,30,5,,7.0,30.200787,,,TRUE,TRUE,,,,,,,CLR,,,,,,,,VFR,,,,,,,,,,,,METAR,7.0
K4S1 190355Z AUTO 02010G20KT 7SM CLR 08/06 A3020 RMK AO2,K4S1,2023-02-19T03:55:00Z,42.42,-124.42,8.0,6.0,20,10,20,7.0,30.200787,,,TRUE,TRUE,,,,,,,CLR,,,,,,,,VFR,,,,,,,,,,,,METAR,7.0
K4S1 190335Z AUTO 01016G22KT 7SM CLR 08/06 A3019 RMK AO2,K4S1,2023-02-19T03:35:00Z,42.42,-124.42,8.0,6.0,10,16,22,7.0,30.188976,,,TRUE,TRUE,,,,,,,CLR,,,,,,,,VFR,,,,,,,,,,,,METAR,7.0
K4S1 190315Z AUTO 36013G20KT 7SM CLR 08/06 A3018 RMK AO2,K4S1,2023-02-19T03:15:00Z,42.42,-124.42,8.0,6.0,360,13,20,7.0,30.180119,,,TRUE,TRUE,,,,,,,CLR,,,,,,,,VFR,,,,,,,,,,,,METAR,7.0
K4S1 190255Z AUTO 01011G18KT 7SM CLR 08/06 A3017 RMK AO2,K4S1,2023-02-19T02:55:00Z,42.42,-124.42,8.0,6.0,10,11,18,7.0,30.171259,,,TRUE,TRUE,,,,,,,CLR,,,,,,,,VFR,,,,,,,,,,,,METAR,7.0
K4S1 190235Z AUTO 01009KT 7SM CLR 08/05 A3016 RMK AO2,K4S1,2023-02-19T02:35:00Z,42.42,-124.42,8.0,5.0,10,9,,7.0,30.159449,,,TRUE,TRUE,,,,,,,CLR,,,,,,,,VFR,,,,,,,,,,,,METAR,7.0
K4S1 190215Z AUTO 02007KT 7SM CLR 08/05 A3016 RMK AO2,K4S1,2023-02-19T02:15:00Z,42.42,-124.42,8.0,5.0,20,7,,7.0,30.159449,,,TRUE,TRUE,,,,,,,CLR,,,,,,,,VFR,,,,,,,,,,,,METAR,7.0
K4S1 190155Z AUTO 06003G16KT 5SM HZ CLR 09/06 A3016 RMK AO2,K4S1,2023-02-19T01:55:00Z,42.42,-124.42,9.0,6.0,60,3,16,5.0,30.159449,,,TRUE,TRUE,,,,,,HZ,CLR,,,,,,,,MVFR,,,,,,,,,,,,METAR,7.0
K4S1 190135Z AUTO 02007G21KT 350V050 4SM HZ CLR 09/06 A3017 RMK AO2,K4S1,2023-02-19T01:35:00Z,42.42,-124.42,9.0,6.0,20,7,21,4.0,30.171259,,,TRUE,TRUE,,,,,,HZ,CLR,,,,,,,,MVFR,,,,,,,,,,,,METAR,7.0
K4S1 190115Z AUTO 36015G20KT 5SM HZ CLR 09/06 A3015 RMK AO2,K4S1,2023-02-19T01:15:00Z,42.42,-124.42,9.0,6.0,360,15,20,5.0,30.15059,,,TRUE,TRUE,,,,,,HZ,CLR,,,,,,,,MVFR,,,,,,,,,,,,METAR,7.0
K4S1 190055Z AUTO 36016G26KT 5SM HZ CLR 09/06 A3015 RMK AO2,K4S1,2023-02-19T00:55:00Z,42.42,-124.42,9.0,6.0,360,16,26,5.0,30.15059,,,TRUE,TRUE,,,,,,HZ,CLR,,,,,,,,MVFR,,,,,,,,,,,,METAR,7.0
K4S1 190035Z AUTO 36016G22KT 5SM HZ CLR 10/06 A3015 RMK AO2,K4S1,2023-02-19T00:35:00Z,42.42,-124.42,10.0,6.0,360,16,22,5.0,30.15059,,,TRUE,TRUE,,,,,,HZ,CLR,,,,,,,,MVFR,,,,,,,,,,,,METAR,7.0
K4S1 190015Z AUTO 35016G23KT 5SM HZ CLR 10/06 A3015 RMK AO2,K4S1,2023-02-19T00:15:00Z,42.42,-124.42,10.0,6.0,350,16,23,5.0,30.15059,,,TRUE,TRUE,,,,,,HZ,CLR,,,,,,,,MVFR,,,,,,,,,,,,METAR,7.0
K4S1 182355Z AUTO 35015G24KT 5SM HZ CLR 10/05 A3015 RMK AO2,K4S1,2023-02-18T23:55:00Z,42.42,-124.42,10.0,5.0,350,15,24,5.0,30.15059,,,TRUE,TRUE,,,,,,HZ,CLR,,,,,,,,MVFR,,,,,,,,,,,,METAR,7.0
K4S1 182335Z AUTO 36015G22KT 5SM HZ CLR 10/06 A3015 RMK AO2,K4S1,2023-02-18T23:35:00Z,42.42,-124.42,10.0,6.0,360,15,22,5.0,30.15059,,,TRUE,TRUE,,,,,,HZ,CLR,,,,,,,,MVFR,,,,,,,,,,,,METAR,7.0
K4S1 182315Z AUTO 36016G20KT 4SM HZ CLR 10/06 A3015 RMK AO2,K4S1,2023-02-18T23:15:00Z,42.42,-124.42,10.0,6.0,360,16,20,4.0,30.15059,,,TRUE,TRUE,,,,,,HZ,CLR,,,,,,,,MVFR,,,,,,,,,,,,METAR,7.0
K4S1 182255Z AUTO 36016G22KT 4SM HZ CLR 10/06 A3015 RMK AO2,K4S1,2023-02-18T22:55:00Z,42.42,-124.42,10.0,6.0,360,16,22,4.0,30.15059,,,TRUE,TRUE,,,,,,HZ,CLR,,,,,,,,MVFR,,,,,,,,,,,,METAR,7.0
K4S1 182235Z AUTO 36014G23KT 3SM HZ CLR 10/06 A3016 RMK AO2,K4S1,2023-02-18T22:35:00Z,42.42,-124.42,10.0,6.0,360,14,23,3.0,30.159449,,,TRUE,TRUE,,,,,,HZ,CLR,,,,,,,,MVFR,,,,,,,,,,,,METAR,7.0
K4S1 182215Z AUTO 36015G20KT 4SM HZ CLR 10/06 A3016 RMK AO2,K4S1,2023-02-18T22:15:00Z,42.42,-124.42,10.0,6.0,360,15,20,4.0,30.159449,,,TRUE,TRUE,,,,,,HZ,CLR,,,,,,,,MVFR,,,,,,,,,,,,METAR,7.0
K4S1 182155Z AUTO 36012G19KT 4SM HZ CLR 10/06 A3015 RMK AO2,K4S1,2023-02-18T21:55:00Z,42.42,-124.42,10.0,6.0,360,12,19,4.0,30.15059,,,TRUE,TRUE,,,,,,HZ,CLR,,,,,,,,MVFR,,,,,,,,,,,,METAR,7.0
K4S1 182135Z AUTO 36012G18KT 5SM HZ CLR 10/06 A3016 RMK AO2,K4S1,2023-02-18T21:35:00Z,42.42,-124.42,10.0,6.0,360,12,18,5.0,30.159449,,,TRUE,TRUE,,,,,,HZ,CLR,,,,,,,,MVFR,,,,,,,,,,,,METAR,7.0
K4S1 182115Z AUTO 01015G19KT 5SM HZ CLR 10/06 A3016 RMK AO2,K4S1,2023-02-18T21:15:00Z,42.42,-124.42,10.0,6.0,10,15,19,5.0,30.159449,,,TRUE,TRUE,,,,,,HZ,CLR,,,,,,,,MVFR,,,,,,,,,,,,METAR,7.0
K4S1 182055Z AUTO 36016G20KT 5SM HZ CLR 10/06 A3017 RMK AO2,K4S1,2023-02-18T20:55:00Z,42.42,-124.42,10.0,6.0,360,16,20,5.0,30.171259,,,TRUE,TRUE,,,,,,HZ,CLR,,,,,,,,MVFR,,,,,,,,,,,,METAR,7.0
K4S1 182035Z AUTO 01013G19KT 5SM HZ CLR 10/06 A3018 RMK AO2,K4S1,2023-02-18T20:35:00Z,42.42,-124.42,10.0,6.0,10,13,19,5.0,30.180119,,,TRUE,TRUE,,,,,,HZ,CLR,,,,,,,,MVFR,,,,,,,,,,,,METAR,7.0
K4S1 182015Z AUTO 36011KT 5SM HZ CLR 10/06 A3018 RMK AO2,K4S1,2023-02-18T20:15:00Z,42.42,-124.42,10.0,6.0,360,11,,5.0,30.180119,,,TRUE,TRUE,,,,,,HZ,CLR,,,,,,,,MVFR,,,,,,,,,,,,METAR,7.0
K4S1 181955Z AUTO 01012G16KT 5SM HZ CLR 10/06 A3018 RMK AO2,K4S1,2023-02-18T19:55:00Z,42.42,-124.42,10.0,6.0,10,12,16,5.0,30.180119,,,TRUE,TRUE,,,,,,HZ,CLR,,,,,,,,MVFR,,,,,,,,,,,,METAR,7.0
K4S1 181935Z AUTO 36010G16KT 5SM HZ CLR 11/06 A3018 RMK AO2,K4S1,2023-02-18T19:35:00Z,42.42,-124.42,11.0,6.0,360,10,16,5.0,30.180119,,,TRUE,TRUE,,,,,,HZ,CLR,,,,,,,,MVFR,,,,,,,,,,,,METAR,7.0
K4S1 181915Z AUTO 36009G14KT 5SM HZ CLR 10/05 A3018 RMK AO2,K4S1,2023-02-18T19:15:00Z,42.42,-124.42,10.0,5.0,360,9,14,5.0,30.180119,,,TRUE,TRUE,,,,,,HZ,CLR,,,,,,,,MVFR,,,,,,,,,,,,METAR,7.0
K4S1 181855Z AUTO 02004KT 5SM HZ CLR 09/01 A3017 RMK AO2,K4S1,2023-02-18T18:55:00Z,42.42,-124.42,9.0,1.0,20,4,,5.0,30.171259,,,TRUE,TRUE,,,,,,HZ,CLR,,,,,,,,MVFR,,,,,,,,,,,,METAR,7.0
K4S1 181835Z AUTO 05007KT 5SM HZ CLR 09/01 A3017 RMK AO2,K4S1,2023-02-18T18:35:00Z,42.42,-124.42,9.0,1.0,50,7,,5.0,30.171259,,,TRUE,TRUE,,,,,,HZ,CLR,,,,,,,,MVFR,,,,,,,,,,,,METAR,7.0
K4S1 181815Z AUTO 05007KT 7SM CLR 08/01 A3018 RMK AO2,K4S1,2023-02-18T18:15:00Z,42.42,-124.42,8.0,1.0,50,7,,7.0,30.180119,,,TRUE,TRUE,,,,,,,CLR,,,,,,,,VFR,,,,,,,,,,,,METAR,7.0
K4S1 181755Z AUTO 05009KT 10SM CLR 07/02 A3019 RMK AO2,K4S1,2023-02-18T17:55:00Z,42.42,-124.42,7.0,2.0,50,9,,10.0,30.188976,,,TRUE,TRUE,,,,,,,CLR,,,,,,,,VFR,,,,,,,,,,,,METAR,7.0
K4S1 181735Z AUTO 04009KT 7SM CLR 07/01 A3019 RMK AO2,K4S1,2023-02-18T17:35:00Z,42.42,-124.42,7.0,1.0,40,9,,7.0,30.188976,,,TRUE,TRUE,,,,,,,CLR,,,,,,,,VFR,,,,,,,,,,,,METAR,7.0
K4S1 181715Z AUTO 04010KT 10SM CLR 06/00 A3019 RMK AO2,K4S1,2023-02-18T17:15:00Z,42.42,-124.42,6.0,0.0,40,10,,10.0,30.188976,,,TRUE,TRUE,,,,,,,CLR,,,,,,,,VFR,,,,,,,,,,,,METAR,7.0
K4S1 181655Z AUTO 05010KT 10SM CLR 05/00 A3020 RMK AO2,K4S1,2023-02-18T16:55:00Z,42.42,-124.42,5.0,0.0,50,10,,10.0,30.200787,,,TRUE,TRUE,,,,,,,CLR,,,,,,,,VFR,,,,,,,,,,,,METAR,7.0
K4S1 181635Z AUTO 05011KT 7SM CLR 05/00 A3019 RMK AO2,K4S1,2023-02-18T16:35:00Z,42.42,-124.42,5.0,0.0,50,11,,7.0,30.188976,,,TRUE,TRUE,,,,,,,CLR,,,,,,,,VFR,,,,,,,,,,,,METAR,7.0
K4S1 181615Z AUTO 05010KT 7SM CLR 04/00 A3019 RMK AO2,K4S1,2023-02-18T16:15:00Z,42.42,-124.42,4.0,0.0,50,10,,7.0,30.188976,,,TRUE,TRUE,,,,,,,CLR,,,,,,,,VFR,,,,,,,,,,,,METAR,7.0
K4S1 181555Z AUTO 05012KT 7SM CLR 03/00 A3019 RMK AO2,K4S1,2023-02-18T15:55:00Z,42.42,-124.42,3.0,0.0,50,12,,7.0,30.188976,,,TRUE,TRUE,,,,,,,CLR,,,,,,,,VFR,,,,,,,,,,,,METAR,7.0
K4S1 181535Z AUTO 05011KT 10SM CLR 03/00 A3018 RMK AO2,K4S1,2023-02-18T15:35:00Z,42.42,-124.42,3.0,0.0,50,11,,10.0,30.180119,,,TRUE,TRUE,,,,,,,CLR,,,,,,,,VFR,,,,,,,,,,,,METAR,7.0
K4S1 181515Z AUTO 05012KT 10SM CLR 03/00 A3018 RMK AO2,K4S1,2023-02-18T15:15:00Z,42.42,-124.42,3.0,0.0,50,12,,10.0,30.180119,,,TRUE,TRUE,,,,,,,CLR,,,,,,,,VFR,,,,,,,,,,,,METAR,7.0
K4S1 181455Z AUTO 05011KT 10SM CLR 03/00 A3017 RMK AO2,K4S1,2023-02-18T14:55:00Z,42.42,-124.42,3.0,0.0,50,11,,10.0,30.171259,,,TRUE,TRUE,,,,,,,CLR,,,,,,,,VFR,,,,,,,,,,,,METAR,7.0
K4S1 181435Z AUTO 05010KT 7SM CLR 03/00 A3017 RMK AO2,K4S1,2023-02-18T14:35:00Z,42.42,-124.42,3.0,0.0,50,10,,7.0,30.171259,,,TRUE,TRUE,,,,,,,CLR,,,,,,,,VFR,,,,,,,,,,,,METAR,7.0
K4S1 181415Z AUTO 03012KT 10SM CLR 03/00 A3017 RMK AO2,K4S1,2023-02-18T14:15:00Z,42.42,-124.42,3.0,0.0,30,12,,10.0,30.171259,,,TRUE,TRUE,,,,,,,CLR,,,,,,,,VFR,,,,,,,,,,,,METAR,7.0
K4S1 181355Z AUTO 05015KT 10SM CLR 03/00 A3017 RMK AO2,K4S1,2023-02-18T13:55:00Z,42.42,-124.42,3.0,0.0,50,15,,10.0,30.171259,,,TRUE,TRUE,,,,,,,CLR,,,,,,,,VFR,,,,,,,,,,,,METAR,7.0
K4S1 181335Z AUTO 04012KT 10SM CLR 02/00 A3016 RMK AO2,K4S1,2023-02-18T13:35:00Z,42.42,-124.42,2.0,0.0,40,12,,10.0,30.159449,,,TRUE,TRUE,,,,,,,CLR,,,,,,,,VFR,,,,,,,,,,,,METAR,7.0
K4S1 181315Z AUTO 05012G17KT 10SM CLR 03/00 A3017 RMK AO2,K4S1,2023-02-18T13:15:00Z,42.42,-124.42,3.0,0.0,50,12,17,10.0,30.171259,,,TRUE,TRUE,,,,,,,CLR,,,,,,,,VFR,,,,,,,,,,,,METAR,7.0
K4S1 181255Z AUTO 04012KT 10SM CLR 03/00 A3018 RMK AO2,K4S1,2023-02-18T12:55:00Z,42.42,-124.42,3.0,0.0,40,12,,10.0,30.180119,,,TRUE,TRUE,,,,,,,CLR,,,,,,,,VFR,,,,,,,,,,,,METAR,7.0
K4S1 181235Z AUTO 04010KT 10SM CLR 03/00 A3018 RMK AO2,K4S1,2023-02-18T12:35:00Z,42.42,-124.42,3.0,0.0,40,10,,10.0,30.180119,,,TRUE,TRUE,,,,,,,CLR,,,,,,,,VFR,,,,,,,,,,,,METAR,7.0
K4S1 181215Z AUTO 04010KT 10SM CLR 03/00 A3018 RMK AO2,K4S1,2023-02-18T12:15:00Z,42.42,-124.42,3.0,0.0,40,10,,10.0,30.180119,,,TRUE,TRUE,,,,,,,CLR,,,,,,,,VFR,,,,,,,,,,,,METAR,7.0
K4S1 181155Z AUTO 03010KT 7SM CLR 03/00 A3017 RMK AO2,K4S1,2023-02-18T11:55:00Z,42.42,-124.42,3.0,0.0,30,10,,7.0,30.171259,,,TRUE,TRUE,,,,,,,CLR,,,,,,,,VFR,,,,,,,,,,,,METAR,7.0
K4S1 181135Z AUTO 04012KT 7SM CLR 03/00 A3017 RMK AO2,K4S1,2023-02-18T11:35:00Z,42.42,-124.42,3.0,0.0,40,12,,7.0,30.171259,,,TRUE,TRUE,,,,,,,CLR,,,,,,,,VFR,,,,,,,,,,,,METAR,7.0
K4S1 181115Z AUTO 05012KT 7SM CLR 03/00 A3017 RMK AO2,K4S1,2023-02-18T11:15:00Z,42.42,-124.42,3.0,0.0,50,12,,7.0,30.171259,,,TRUE,TRUE,,,,,,,CLR,,,,,,,,VFR,,,,,,,,,,,,METAR,7.0
K4S1 181055Z AUTO 03010KT 10SM CLR 03/00 A3019 RMK AO2,K4S1,2023-02-18T10:55:00Z,42.42,-124.42,3.0,0.0,30,10,,10.0,30.188976,,,TRUE,TRUE,,,,,,,CLR,,,,,,,,VFR,,,,,,,,,,,,METAR,7.0
K4S1 181035Z AUTO 04011KT 7SM CLR 03/00 A3019 RMK AO2,K4S1,2023-02-18T10:35:00Z,42.42,-124.42,3.0,0.0,40,11,,7.0,30.188976,,,TRUE,TRUE,,,,,,,CLR,,,,,,,,VFR,,,,,,,,,,,,METAR,7.0
K4S1 181015Z AUTO 04009KT 7SM CLR 03/00 A3019 RMK AO2,K4S1,2023-02-18T10:15:00Z,42.42,-124.42,3.0,0.0,40,9,,7.0,30.188976,,,TRUE,TRUE,,,,,,,CLR,,,,,,,,VFR,,,,,,,,,,,,METAR,7.0
K4S1 180955Z AUTO 03010KT 7SM CLR 04/00 A3018 RMK AO2,K4S1,2023-02-18T09:55:00Z,42.42,-124.42,4.0,0.0,30,10,,7.0,30.180119,,,TRUE,TRUE,,,,,,,CLR,,,,,,,,VFR,,,,,,,,,,,,METAR,7.0
K4S1 180935Z AUTO 04010KT 7SM CLR 03/00 A3019 RMK AO2,K4S1,2023-02-18T09:35:00Z,42.42,-124.42,3.0,0.0,40,10,,7.0,30.188976,,,TRUE,TRUE,,,,,,,CLR,,,,,,,,VFR,,,,,,,,,,,,METAR,7.0
K4S1 180915Z AUTO 05012KT 7SM CLR 04/00 A3019 RMK AO2,K4S1,2023-02-18T09:15:00Z,42.42,-124.42,4.0,0.0,50,12,,7.0,30.188976,,,TRUE,TRUE,,,,,,,CLR,,,,,,,,VFR,,,,,,,,,,,,METAR,7.0
K4S1 180855Z AUTO 02010KT 7SM CLR 05/00 A3021 RMK AO2,K4S1,2023-02-18T08:55:00Z,42.42,-124.42,5.0,0.0,20,10,,7.0,30.209646,,,TRUE,TRUE,,,,,,,CLR,,,,,,,,VFR,,,,,,,,,,,,METAR,7.0
K4S1 180835Z AUTO 02008KT 7SM CLR 05/00 A3021 RMK AO2,K4S1,2023-02-18T08:35:00Z,42.42,-124.42,5.0,0.0,20,8,,7.0,30.209646,,,TRUE,TRUE,,,,,,,CLR,,,,,,,,VFR,,,,,,,,,,,,METAR,7.0
K4S1 180815Z AUTO 03008KT 7SM CLR 05/01 A3020 RMK AO2,K4S1,2023-02-18T08:15:00Z,42.42,-124.42,5.0,1.0,30,8,,7.0,30.200787,,,TRUE,TRUE,,,,,,,CLR,,,,,,,,VFR,,,,,,,,,,,,METAR,7.0
K4S1 180755Z AUTO 05010KT 7SM CLR 05/01 A3020 RMK AO2,K4S1,2023-02-18T07:55:00Z,42.42,-124.42,5.0,1.0,50,10,,7.0,30.200787,,,TRUE,TRUE,,,,,,,CLR,,,,,,,,VFR,,,,,,,,,,,,METAR,7.0
K4S1 180735Z AUTO 04009KT 7SM CLR 05/01 A3020 RMK AO2,K4S1,2023-02-18T07:35:00Z,42.42,-124.42,5.0,1.0,40,9,,7.0,30.200787,,,TRUE,TRUE,,,,,,,CLR,,,,,,,,VFR,,,,,,,,,,,,METAR,7.0
K4S1 180715Z AUTO 03009KT 7SM CLR 05/01 A3020 RMK AO2,K4S1,2023-02-18T07:15:00Z,42.42,-124.42,5.0,1.0,30,9,,7.0,30.200787,,,TRUE,TRUE,,,,,,,CLR,,,,,,,,VFR,,,,,,,,,,,,METAR,7.0
K4S1 180655Z AUTO 05011KT 7SM CLR 05/01 A3020 RMK AO2,K4S1,2023-02-18T06:55:00Z,42.42,-124.42,5.0,1.0,50,11,,7.0,30.200787,,,TRUE,TRUE,,,,,,,CLR,,,,,,,,VFR,,,,,,,,,,,,METAR,7.0
K4S1 180635Z AUTO 05010KT 7SM CLR 05/01 A3020 RMK AO2,K4S1,2023-02-18T06:35:00Z,42.42,-124.42,5.0,1.0,50,10,,7.0,30.200787,,,TRUE,TRUE,,,,,,,CLR,,,,,,,,VFR,,,,,,,,,,,,METAR,7.0
K4S1 180615Z AUTO 05009KT 7SM CLR 06/01 A3020 RMK AO2,K4S1,2023-02-18T06:15:00Z,42.42,-124.42,6.0,1.0,50,9,,7.0,30.200787,,,TRUE,TRUE,,,,,,,CLR,,,,,,,,VFR,,,,,,,,,,,,METAR,7.0
K4S1 180555Z AUTO 05010KT 7SM CLR 05/01 A3020 RMK AO2,K4S1,2023-02-18T05:55:00Z,42.42,-124.42,5.0,1.0,50,10,,7.0,30.200787,,,TRUE,TRUE,,,,,,,CLR,,,,,,,,VFR,,,,,,,,,,,,METAR,7.0
K4S1 180535Z AUTO 05010KT 7SM CLR 05/01 A3020 RMK AO2,K4S1,2023-02-18T05:35:00Z,42.42,-124.42,5.0,1.0,50,10,,7.0,30.200787,,,TRUE,TRUE,,,,,,,CLR,,,,,,,,VFR,,,,,,,,,,,,METAR,7.0
K4S1 180515Z AUTO 05010KT 7SM CLR 06/01 A3019 RMK AO2,K4S1,2023-02-18T05:15:00Z,42.42,-124.42,6.0,1.0,50,10,,7.0,30.188976,,,TRUE,TRUE,,,,,,,CLR,,,,,,,,VFR,,,,,,,,,,,,METAR,7.0
K4S1 180455Z AUTO 05010KT 7SM CLR 06/02 A3020 RMK AO2,K4S1,2023-02-18T04:55:00Z,42.42,-124.42,6.0,2.0,50,10,,7.0,30.200787,,,TRUE,TRUE,,,,,,,CLR,,,,,,,,VFR,,,,,,,,,,,,METAR,7.0
K4S1 180435Z AUTO 04009KT 7SM CLR 06/02 A3019 RMK AO2,K4S1,2023-02-18T04:35:00Z,42.42,-124.42,6.0,2.0,40,9,,7.0,30.188976,,,TRUE,TRUE,,,,,,,CLR,,,,,,,,VFR,,,,,,,,,,,,METAR,7.0
K4S1 180415Z AUTO 04006KT 7SM CLR 06/02 A3020 RMK AO2,K4S1,2023-02-18T04:15:00Z,42.42,-124.42,6.0,2.0,40,6,,7.0,30.200787,,,TRUE,TRUE,,,,,,,CLR,,,,,,,,VFR,,,,,,,,,,,,METAR,7.0
K4S1 180355Z AUTO 05009KT 7SM CLR 06/02 A3019 RMK AO2,K4S1,2023-02-18T03:55:00Z,42.42,-124.42,6.0,2.0,50,9,,7.0,30.188976,,,TRUE,TRUE,,,,,,,CLR,,,,,,,,VFR,,,,,,,,,,,,METAR,7.0
K4S1 180335Z AUTO 03008KT 5SM HZ CLR 06/02 A3019 RMK AO2,K4S1,2023-02-18T03:35:00Z,42.42,-124.42,6.0,2.0,30,8,,5.0,30.188976,,,TRUE,TRUE,,,,,,HZ,CLR,,,,,,,,MVFR,,,,,,,,,,,,METAR,7.0
K4S1 180315Z AUTO 03006KT 7SM CLR 07/02 A3019 RMK AO2,K4S1,2023-02-18T03:15:00Z,42.42,-124.42,7.0,2.0,30,6,,7.0,30.188976,,,TRUE,TRUE,,,,,,,CLR,,,,,,,,VFR,,,,,,,,,,,,METAR,7.0
K4S1 180255Z AUTO 01006KT 7SM CLR 06/02 A3018 RMK AO2,K4S1,2023-02-18T02:55:00Z,42.42,-124.42,6.0,2.0,10,6,,7.0,30.180119,,,TRUE,TRUE,,,,,,,CLR,,,,,,,,VFR,,,,,,,,,,,,METAR,7.0
K4S1 180235Z AUTO 02005KT 7SM CLR 07/02 A3017 RMK AO2,K4S1,2023-02-18T02:35:00Z,42.42,-124.42,7.0,2.0,20,5,,7.0,30.171259,,,TRUE,TRUE,,,,,,,CLR,,,,,,,,VFR,,,,,,,,,,,,METAR,7.0
K4S1 180215Z AUTO 01004KT 7SM CLR 08/02 A3017 RMK AO2,K4S1,2023-02-18T02:15:00Z,42.42,-124.42,8.0,2.0,10,4,,7.0,30.171259,,,TRUE,TRUE,,,,,,,CLR,,,,,,,,VFR,,,,,,,,,,,,METAR,7.0
K4S1 180155Z AUTO 01005KT 7SM CLR 10/02 A3017 RMK AO2,K4S1,2023-02-18T01:55:00Z,42.42,-124.42,10.0,2.0,10,5,,7.0,30.171259,,,TRUE,TRUE,,,,,,,CLR,,,,,,,,VFR,,,,,,,,,,,,METAR,7.0
K4S1 180135Z AUTO 02004KT 5SM HZ CLR 10/02 A3018 RMK AO2,K4S1,2023-02-18T01:35:00Z,42.42,-124.42,10.0,2.0,20,4,,5.0,30.180119,,,TRUE,TRUE,,,,,,HZ,CLR,,,,,,,,MVFR,,,,,,,,,,,,METAR,7.0
K4S1 180115Z AUTO 36005KT 7SM CLR 11/02 A3018 RMK AO2,K4S1,2023-02-18T01:15:00Z,42.42,-124.42,11.0,2.0,360,5,,7.0,30.180119,,,TRUE,TRUE,,,,,,,CLR,,,,,,,,VFR,,,,,,,,,,,,METAR,7.0
K4S1 180055Z AUTO 01009G15KT 4SM HZ CLR 10/03 A3019 RMK AO2,K4S1,2023-02-18T00:55:00Z,42.42,-124.42,10.0,3.0,10,9,15,4.0,30.188976,,,TRUE,TRUE,,,,,,HZ,CLR,,,,,,,,MVFR,,,,,,,,,,,,METAR,7.0
K4S1 180035Z AUTO 35010G15KT 4SM HZ CLR 11/03 A3018 RMK AO2,K4S1,2023-02-18T00:35:00Z,42.42,-124.42,11.0,3.0,350,10,15,4.0,30.180119,,,TRUE,TRUE,,,,,,HZ,CLR,,,,,,,,MVFR,,,,,,,,,,,,METAR,7.0
K4S1 180015Z AUTO 34012G15KT 5SM HZ CLR 11/03 A3018 RMK AO2,K4S1,2023-02-18T00:15:00Z,42.42,-124.42,11.0,3.0,340,12,15,5.0,30.180119,,,TRUE,TRUE,,,,,,HZ,CLR,,,,,,,,MVFR,,,,,,,,,,,,METAR,7.0
K4S1 172355Z AUTO 35011G18KT 4SM HZ CLR 11/03 A3018 RMK AO2,K4S1,2023-02-17T23:55:00Z,42.42,-124.42,11.0,3.0,350,11,18,4.0,30.180119,,,TRUE,TRUE,,,,,,HZ,CLR,,,,,,,,MVFR,,,,,,,,,,,,METAR,7.0
K4S1 172335Z AUTO 35013G18KT 5SM HZ CLR 11/03 A3018 RMK AO2,K4S1,2023-02-17T23:35:00Z,42.42,-124.42,11.0,3.0,350,13,18,5.0,30.180119,,,TRUE,TRUE,,,,,,HZ,CLR,,,,,,,,MVFR,,,,,,,,,,,,METAR,7.0
K4S1 172315Z AUTO 35011KT 4SM HZ CLR 11/05 A3018 RMK AO2,K4S1,2023-02-17T23:15:00Z,42.42,-124.42,11.0,5.0,350,11,,4.0,30.180119,,,TRUE,TRUE,,,,,,HZ,CLR,,,,,,,,MVFR,,,,,,,,,,,,METAR,7.0
K4S1 172255Z AUTO 34009KT 2 1/2SM HZ CLR 11/05 A3018 RMK AO2,K4S1,2023-02-17T22:55:00Z,42.42,-124.42,11.0,5.0,340,9,,2.5,30.180119,,,TRUE,TRUE,,,,,,HZ,CLR,,,,,,,,IFR,,,,,,,,,,,,METAR,7.0
K4S1 172235Z AUTO 34010KT 4SM HZ CLR 12/04 A3018 RMK AO2,K4S1,2023-02-17T22:35:00Z,42.42,-124.42,12.0,4.0,340,10,,4.0,30.180119,,,TRUE,TRUE,,,,,,HZ,CLR,,,,,,,,MVFR,,,,,,,,,,,,METAR,7.0
K4S1 172215Z AUTO 33007KT 3SM HZ CLR 12/05 A3019 RMK AO2,K4S1,2023-02-17T22:15:00Z,42.42,-124.42,12.0,5.0,330,7,,3.0,30.188976,,,TRUE,TRUE,,,,,,HZ,CLR,,,,,,,,MVFR,,,,,,,,,,,,METAR,7.0
K4S1 172155Z AUTO 33009KT 3SM HZ CLR 11/05 A3020 RMK AO2,K4S1,2023-02-17T21:55:00Z,42.42,-124.42,11.0,5.0,330,9,,3.0,30.200787,,,TRUE,TRUE,,,,,,HZ,CLR,,,,,,,,MVFR,,,,,,,,,,,,METAR,7.0
K4S1 172135Z AUTO 33008KT 2 1/2SM HZ CLR 12/04 A3021 RMK AO2 VIS 2V4,K4S1,2023-02-17T21:35:00Z,42.42,-124.42,12.0,4.0,330,8,,2.5,30.209646,,,TRUE,TRUE,,,,,,HZ,CLR,,,,,,,,IFR,,,,,,,,,,,,METAR,7.0
K4S1 172115Z AUTO 33010KT 4SM HZ CLR 11/03 A3022 RMK AO2,K4S1,2023-02-17T21:15:00Z,42.42,-124.42,11.0,3.0,330,10,,4.0,30.221457,,,TRUE,TRUE,,,,,,HZ,CLR,,,,,,,,MVFR,,,,,,,,,,,,METAR,7.0
K4S1 172055Z AUTO 34009KT 4SM HZ CLR 11/02 A3023 RMK AO2,K4S1,2023-02-17T20:55:00Z,42.42,-124.42,11.0,2.0,340,9,,4.0,30.230314,,,TRUE,TRUE,,,,,,HZ,CLR,,,,,,,,MVFR,,,,,,,,,,,,METAR,7.0
K4S1 172035Z AUTO 34008KT 3SM HZ CLR 11/03 A3023 RMK AO2,K4S1,2023-02-17T20:35:00Z,42.42,-124.42,11.0,3.0,340,8,,3.0,30.230314,,,TRUE,TRUE,,,,,,HZ,CLR,,,,,,,,MVFR,,,,,,,,,,,,METAR,7.0
K4S1 172015Z AUTO 34006KT 7SM CLR 12/01 A3024 RMK AO2,K4S1,2023-02-17T20:15:00Z,42.42,-124.42,12.0,1.0,340,6,,7.0,30.239174,,,TRUE,TRUE,,,,,,,CLR,,,,,,,,VFR,,,,,,,,,,,,METAR,7.0
K4S1 171955Z AUTO 04008KT 7SM CLR 12/01 A3024 RMK AO2,K4S1,2023-02-17T19:55:00Z,42.42,-124.42,12.0,1.0,40,8,,7.0,30.239174,,,TRUE,TRUE,,,,,,,CLR,,,,,,,,VFR,,,,,,,,,,,,METAR,7.0
K4S1 171935Z AUTO 05011KT 5SM HZ CLR 11/01 A3024 RMK AO2,K4S1,2023-02-17T19:35:00Z,42.42,-124.42,11.0,1.0,50,11,,5.0,30.239174,,,TRUE,TRUE,,,,,,HZ,CLR,,,,,,,,MVFR,,,,,,,,,,,,METAR,7.0
K4S1 171915Z AUTO 05013KT 7SM CLR 11/01 A3024 RMK AO2,K4S1,2023-02-17T19:15:00Z,42.42,-124.42,11.0,1.0,50,13,,7.0,30.239174,,,TRUE,TRUE,,,,,,,CLR,,,,,,,,VFR,,,,,,,,,,,,METAR,7.0
K4S1 171855Z AUTO 05014KT 5SM HZ CLR 10/01 A3024 RMK AO2,K4S1,2023-02-17T18:55:00Z,42.42,-124.42,10.0,1.0,50,14,,5.0,30.239174,,,TRUE,TRUE,,,,,,HZ,CLR,,,,,,,,MVFR,,,,,,,,,,,,METAR,7.0
K4S1 171835Z AUTO 04013KT 7SM CLR 08/01 A3024 RMK AO2,K4S1,2023-02-17T18:35:00Z,42.42,-124.42,8.0,1.0,40,13,,7.0,30.239174,,,TRUE,TRUE,,,,,,,CLR,,,,,,,,VFR,,,,,,,,,,,,METAR,7.0
K4S1 171815Z AUTO 05016KT 5SM HZ CLR 07/02 A3024 RMK AO2,K4S1,2023-02-17T18:15:00Z,42.42,-124.42,7.0,2.0,50,16,,5.0,30.239174,,,TRUE,TRUE,,,,,,HZ,CLR,,,,,,,,MVFR,,,,,,,,,,,,METAR,7.0
K4S1 171755Z AUTO 05016KT 7SM CLR 06/01 A3024 RMK AO2,K4S1,2023-02-17T17:55:00Z,42.42,-124.42,6.0,1.0,50,16,,7.0,30.239174,,,TRUE,TRUE,,,,,,,CLR,,,,,,,,VFR,,,,,,,,,,,,METAR,7.0
K4S1 171735Z AUTO 05016KT 7SM CLR 05/00 A3024 RMK AO2,K4S1,2023-02-17T17:35:00Z,42.42,-124.42,5.0,0.0,50,16,,7.0,30.239174,,,TRUE,TRUE,,,,,,,CLR,,,,,,,,VFR,,,,,,,,,,,,METAR,7.0
K4S1 171715Z AUTO 05018KT 7SM CLR 05/00 A3025 RMK AO2,K4S1,2023-02-17T17:15:00Z,42.42,-124.42,5.0,0.0,50,18,,7.0,30.250984,,,TRUE,TRUE,,,,,,,CLR,,,,,,,,VFR,,,,,,,,,,,,METAR,7.0
K4S1 171655Z AUTO 05019KT 7SM CLR 03/00 A3024 RMK AO2,K4S1,2023-02-17T16:55:00Z,42.42,-124.42,3.0,0.0,50,19,,7.0,30.239174,,,TRUE,TRUE,,,,,,,CLR,,,,,,,,VFR,,,,,,,,,,,,METAR,7.0
K4S1 171635Z AUTO 05019KT 7SM CLR 03/00 A3023 RMK AO2,K4S1,2023-02-17T16:35:00Z,42.42,-124.42,3.0,0.0,50,19,,7.0,30.230314,,,TRUE,TRUE,,,,,,,CLR,,,,,,,,VFR,,,,,,,,,,,,METAR,7.0
K4S1 171615Z AUTO 05017KT 7SM CLR 02/00 A3023 RMK AO2,K4S1,2023-02-17T16:15:00Z,42.42,-124.42,2.0,0.0,50,17,,7.0,30.230314,,,TRUE,TRUE,,,,,,,CLR,,,,,,,,VFR,,,,,,,,,,,,METAR,7.0
K4S1 171555Z AUTO 05017KT 7SM CLR 02/00 A3022 RMK AO2,K4S1,2023-02-17T15:55:00Z,42.42,-124.42,2.0,0.0,50,17,,7.0,30.221457,,,TRUE,TRUE,,,,,,,CLR,,,,,,,,VFR,,,,,,,,,,,,METAR,7.0
K4S1 171535Z AUTO 05015G22KT 7SM CLR 02/00 A3022 RMK AO2,K4S1,2023-02-17T15:35:00Z,42.42,-124.42,2.0,0.0,50,15,22,7.0,30.221457,,,TRUE,TRUE,,,,,,,CLR,,,,,,,,VFR,,,,,,,,,,,,METAR,7.0
K4S1 171515Z AUTO 05017G21KT 7SM CLR 02/00 A3021 RMK AO2,K4S1,2023-02-17T15:15:00Z,42.42,-124.42,2.0,0.0,50,17,21,7.0,30.209646,,,TRUE,TRUE,,,,,,,CLR,,,,,,,,VFR,,,,,,,,,,,,METAR,7.0
K4S1 171455Z AUTO 05015G19KT 7SM CLR 02/00 A3020 RMK AO2,K4S1,2023-02-17T14:55:00Z,42.42,-124.42,2.0,0.0,50,15,19,7.0,30.200787,,,TRUE,TRUE,,,,,,,CLR,,,,,,,,VFR,,,,,,,,,,,,METAR,7.0
K4S1 171435Z AUTO 05016KT 10SM CLR 02/00 A3019 RMK AO2,K4S1,2023-02-17T14:35:00Z,42.42,-124.42,2.0,0.0,50,16,,10.0,30.188976,,,TRUE,TRUE,,,,,,,CLR,,,,,,,,VFR,,,,,,,,,,,,METAR,7.0
K4S1 171415Z AUTO 06016G21KT 7SM CLR 02/00 A3019 RMK AO2,K4S1,2023-02-17T14:15:00Z,42.42,-124.42,2.0,0.0,60,16,21,7.0,30.188976,,,TRUE,TRUE,,,,,,,CLR,,,,,,,,VFR,,,,,,,,,,,,METAR,7.0
K4S1 171355Z AUTO 05015G19KT 7SM CLR 02/00 A3019 RMK AO2,K4S1,2023-02-17T13:55:00Z,42.42,-124.42,2.0,0.0,50,15,19,7.0,30.188976,,,TRUE,TRUE,,,,,,,CLR,,,,,,,,VFR,,,,,,,,,,,,METAR,7.0
K4S1 171335Z AUTO 06015KT 7SM CLR 02/00 A3020 RMK AO2,K4S1,2023-02-17T13:35:00Z,42.42,-124.42,2.0,0.0,60,15,,7.0,30.200787,,,TRUE,TRUE,,,,,,,CLR,,,,,,,,VFR,,,,,,,,,,,,METAR,7.0
K4S1 171315Z AUTO 06012G17KT 7SM CLR 02/00 A3020 RMK AO2,K4S1,2023-02-17T13:15:00Z,42.42,-124.42,2.0,0.0,60,12,17,7.0,30.200787,,,TRUE,TRUE,,,,,,,CLR,,,,,,,,VFR,,,,,,,,,,,,METAR,7.0
K4S1 171255Z AUTO 05016KT 7SM CLR 02/00 A3020 RMK AO2,K4S1,2023-02-17T12:55:00Z,42.42,-124.42,2.0,0.0,50,16,,7.0,30.200787,,,TRUE,TRUE,,,,,,,CLR,,,,,,,,VFR,,,,,,,,,,,,METAR,7.0
K4S1 171235Z AUTO 05016G20KT 10SM CLR 02/00 A3021 RMK AO2,K4S1,2023-02-17T12:35:00Z,42.42,-124.42,2.0,0.0,50,16,20,10.0,30.209646,,,TRUE,TRUE,,,,,,,CLR,,,,,,,,VFR,,,,,,,,,,,,METAR,7.0
K4S1 171215Z AUTO 05017G20KT 10SM CLR 02/00 A3022 RMK AO2,K4S1,2023-02-17T12:15:00Z,42.42,-124.42,2.0,0.0,50,17,20,10.0,30.221457,,,TRUE,TRUE,,,,,,,CLR,,,,,,,,VFR,,,,,,,,,,,,METAR,7.0
K4S1 171155Z AUTO 05016G19KT 10SM CLR 02/00 A3022 RMK AO2,K4S1,2023-02-17T11:55:00Z,42.42,-124.42,2.0,0.0,50,16,19,10.0,30.221457,,,TRUE,TRUE,,,,,,,CLR,,,,,,,,VFR,,,,,,,,,,,,METAR,7.0
K4S1 171135Z AUTO 06016G20KT 7SM CLR 02/00 A3022 RMK AO2,K4S1,2023-02-17T11:35:00Z,42.42,-124.42,2.0,0.0,60,16,20,7.0,30.221457,,,TRUE,TRUE,,,,,,,CLR,,,,,,,,VFR,,,,,,,,,,,,METAR,7.0
K4S1 171115Z AUTO 06016G20KT 10SM CLR 02/00 A3022 RMK AO2,K4S1,2023-02-17T11:15:00Z,42.42,-124.42,2.0,0.0,60,16,20,10.0,30.221457,,,TRUE,TRUE,,,,,,,CLR,,,,,,,,VFR,,,,,,,,,,,,METAR,7.0
K4S1 171055Z AUTO 05012KT 10SM CLR 02/00 A3022 RMK AO2,K4S1,2023-02-17T10:55:00Z,42.42,-124.42,2.0,0.0,50,12,,10.0,30.221457,,,TRUE,TRUE,,,,,,,CLR,,,,,,,,VFR,,,,,,,,,,,,METAR,7.0
K4S1 171035Z AUTO 06014KT 7SM CLR 02/00 A3022 RMK AO2,K4S1,2023-02-17T10:35:00Z,42.42,-124.42,2.0,0.0,60,14,,7.0,30.221457,,,TRUE,TRUE,,,,,,,CLR,,,,,,,,VFR,,,,,,,,,,,,METAR,7.0
K4S1 171015Z AUTO 05015G20KT 10SM CLR 02/00 A3022 RMK AO2,K4S1,2023-02-17T10:15:00Z,42.42,-124.42,2.0,0.0,50,15,20,10.0,30.221457,,,TRUE,TRUE,,,,,,,CLR,,,,,,,,VFR,,,,,,,,,,,,METAR,7.0
K4S1 170955Z AUTO 05015KT 10SM CLR 02/00 A3022 RMK AO2,K4S1,2023-02-17T09:55:00Z,42.42,-124.42,2.0,0.0,50,15,,10.0,30.221457,,,TRUE,TRUE,,,,,,,CLR,,,,,,,,VFR,,,,,,,,,,,,METAR,7.0
K4S1 170935Z AUTO 06015G21KT 10SM CLR 03/00 A3021 RMK AO2,K4S1,2023-02-17T09:35:00Z,42.42,-124.42,3.0,0.0,60,15,21,10.0,30.209646,,,TRUE,TRUE,,,,,,,CLR,,,,,,,,VFR,,,,,,,,,,,,METAR,7.0
K4S1 170915Z AUTO 05014G20KT 7SM CLR 03/00 A3021 RMK AO2,K4S1,2023-02-17T09:15:00Z,42.42,-124.42,3.0,0.0,50,14,20,7.0,30.209646,,,TRUE,TRUE,,,,,,,CLR,,,,,,,,VFR,,,,,,,,,,,,METAR,7.0
K4S1 170855Z AUTO 05015KT 7SM CLR 03/00 A3021 RMK AO2,K4S1,2023-02-17T08:55:00Z,42.42,-124.42,3.0,0.0,50,15,,7.0,30.209646,,,TRUE,TRUE,,,,,,,CLR,,,,,,,,VFR,,,,,,,,,,,,METAR,7.0
K4S1 170835Z AUTO 05015KT 7SM CLR 03/00 A3021 RMK AO2,K4S1,2023-02-17T08:35:00Z,42.42,-124.42,3.0,0.0,50,15,,7.0,30.209646,,,TRUE,TRUE,,,,,,,CLR,,,,,,,,VFR,,,,,,,,,,,,METAR,7.0
K4S1 170815Z AUTO 05015KT 7SM CLR 03/00 A3021 RMK AO2,K4S1,2023-02-17T08:15:00Z,42.42,-124.42,3.0,0.0,50,15,,7.0,30.209646,,,TRUE,TRUE,,,,,,,CLR,,,,,,,,VFR,,,,,,,,,,,,METAR,7.0
K4S1 170755Z AUTO 05014KT 7SM CLR 03/00 A3020 RMK AO2,K4S1,2023-02-17T07:55:00Z,42.42,-124.42,3.0,0.0,50,14,,7.0,30.200787,,,TRUE,TRUE,,,,,,,CLR,,,,,,,,VFR,,,,,,,,,,,,METAR,7.0
K4S1 170735Z AUTO 05015KT 7SM CLR 03/00 A3020 RMK AO2,K4S1,2023-02-17T07:35:00Z,42.42,-124.42,3.0,0.0,50,15,,7.0,30.200787,,,TRUE,TRUE,,,,,,,CLR,,,,,,,,VFR,,,,,,,,,,,,METAR,7.0
K4S1 170715Z AUTO 05014KT 7SM CLR 04/00 A3020 RMK AO2,K4S1,2023-02-17T07:15:00Z,42.42,-124.42,4.0,0.0,50,14,,7.0,30.200787,,,TRUE,TRUE,,,,,,,CLR,,,,,,,,VFR,,,,,,,,,,,,METAR,7.0
K4S1 170655Z AUTO 05013KT 7SM CLR 04/00 A3019 RMK AO2,K4S1,2023-02-17T06:55:00Z,42.42,-124.42,4.0,0.0,50,13,,7.0,30.188976,,,TRUE,TRUE,,,,,,,CLR,,,,,,,,VFR,,,,,,,,,,,,METAR,7.0
K4S1 170635Z AUTO 05013KT 7SM CLR 04/00 A3019 RMK AO2,K4S1,2023-02-17T06:35:00Z,42.42,-124.42,4.0,0.0,50,13,,7.0,30.188976,,,TRUE,TRUE,,,,,,,CLR,,,,,,,,VFR,,,,,,,,,,,,METAR,7.0
K4S1 170615Z AUTO 05011KT 7SM CLR 05/01 A3019 RMK AO2,K4S1,2023-02-17T06:15:00Z,42.42,-124.42,5.0,1.0,50,11,,7.0,30.188976,,,TRUE,TRUE,,,,,,,CLR,,,,,,,,VFR,,,,,,,,,,,,METAR,7.0
K4S1 170555Z AUTO 05013KT 7SM CLR 05/01 A3019 RMK AO2,K4S1,2023-02-17T05:55:00Z,42.42,-124.42,5.0,1.0,50,13,,7.0,30.188976,,,TRUE,TRUE,,,,,,,CLR,,,,,,,,VFR,,,,,,,,,,,,METAR,7.0
K4S1 170535Z AUTO 05012KT 7SM CLR 05/01 A3017 RMK AO2,K4S1,2023-02-17T05:35:00Z,42.42,-124.42,5.0,1.0,50,12,,7.0,30.171259,,,TRUE,TRUE,,,,,,,CLR,,,,,,,,VFR,,,,,,,,,,,,METAR,7.0
K4S1 170515Z AUTO 05012KT 10SM CLR 05/01 A3017 RMK AO2,K4S1,2023-02-17T05:15:00Z,42.42,-124.42,5.0,1.0,50,12,,10.0,30.171259,,,TRUE,TRUE,,,,,,,CLR,,,,,,,,VFR,,,,,,,,,,,,METAR,7.0
K4S1 170455Z AUTO 05011KT 7SM CLR 05/01 A3016 RMK AO2,K4S1,2023-02-17T04:55:00Z,42.42,-124.42,5.0,1.0,50,11,,7.0,30.159449,,,TRUE,TRUE,,,,,,,CLR,,,,,,,,VFR,,,,,,,,,,,,METAR,7.0
K4S1 170435Z AUTO 05011KT 10SM CLR 05/00 A3016 RMK AO2,K4S1,2023-02-17T04:35:00Z,42.42,-124.42,5.0,0.0,50,11,,10.0,30.159449,,,TRUE,TRUE,,,,,,,CLR,,,,,,,,VFR,,,,,,,,,,,,METAR,7.0
K4S1 170415Z AUTO 04011KT 7SM CLR 05/00 A3016 RMK AO2,K4S1,2023-02-17T04:15:00Z,42.42,-124.42,5.0,0.0,40,11,,7.0,30.159449,,,TRUE,TRUE,,,,,,,CLR,,,,,,,,VFR,,,,,,,,,,,,METAR,7.0
K4S1 170355Z AUTO 05008KT 7SM CLR 06/00 A3015 RMK AO2,K4S1,2023-02-17T03:55:00Z,42.42,-124.42,6.0,0.0,50,8,,7.0,30.15059,,,TRUE,TRUE,,,,,,,CLR,,,,,,,,VFR,,,,,,,,,,,,METAR,7.0
K4S1 170335Z AUTO 05010KT 7SM CLR 06/01 A3015 RMK AO2,K4S1,2023-02-17T03:35:00Z,42.42,-124.42,6.0,1.0,50,10,,7.0,30.15059,,,TRUE,TRUE,,,,,,,CLR,,,,,,,,VFR,,,,,,,,,,,,METAR,7.0
K4S1 170315Z AUTO 05008KT 7SM CLR 06/00 A3015 RMK AO2,K4S1,2023-02-17T03:15:00Z,42.42,-124.42,6.0,0.0,50,8,,7.0,30.15059,,,TRUE,TRUE,,,,,,,CLR,,,,,,,,VFR,,,,,,,,,,,,METAR,7.0
K4S1 170255Z AUTO 00000KT 7SM CLR 06/M01 A3014 RMK AO2,K4S1,2023-02-17T02:55:00Z,42.42,-124.42,6.0,-1.0,0,0,,7.0,30.138779,,,TRUE,TRUE,,,,,,,CLR,,,,,,,,VFR,,,,,,,,,,,,METAR,7.0
K4S1 170235Z AUTO 07003KT 7SM CLR 07/00 A3014 RMK AO2,K4S1,2023-02-17T02:35:00Z,42.42,-124.42,7.0,0.0,70,3,,7.0,30.138779,,,TRUE,TRUE,,,,,,,CLR,,,,,,,,VFR,,,,,,,,,,,,METAR,7.0
K4S1 170215Z AUTO 00000KT 5SM HZ CLR 07/00 A3014 RMK AO2,K4S1,2023-02-17T02:15:00Z,42.42,-124.42,7.0,0.0,0,0,,5.0,30.138779,,,TRUE,TRUE,,,,,,HZ,CLR,,,,,,,,MVFR,,,,,,,,,,,,METAR,7.0
K4S1 170155Z AUTO 00000KT 4SM HZ CLR 08/01 A3014 RMK AO2,K4S1,2023-02-17T01:55:00Z,42.42,-124.42,8.0,1.0,0,0,,4.0,30.138779,,,TRUE,TRUE,,,,,,HZ,CLR,,,,,,,,MVFR,,,,,,,,,,,,METAR,7.0
K4S1 170135Z AUTO 00000KT 2SM HZ CLR 08/01 A3014 RMK AO2,K4S1,2023-02-17T01:35:00Z,42.42,-124.42,8.0,1.0,0,0,,2.0,30.138779,,,TRUE,TRUE,,,,,,HZ,CLR,,,,,,,,IFR,,,,,,,,,,,,METAR,7.0
K4S1 170115Z AUTO 00000KT 2SM HZ CLR 08/01 A3014 RMK AO2,K4S1,2023-02-17T01:15:00Z,42.42,-124.42,8.0,1.0,0,0,,2.0,30.138779,,,TRUE,TRUE,,,,,,HZ,CLR,,,,,,,,IFR,,,,,,,,,,,,METAR,7.0
K4S1 170055Z AUTO 19004KT 3SM HZ CLR 09/01 A3014 RMK AO2,K4S1,2023-02-17T00:55:00Z,42.42,-124.42,9.0,1.0,190,4,,3.0,30.138779,,,TRUE,TRUE,,,,,,HZ,CLR,,,,,,,,MVFR,,,,,,,,,,,,METAR,7.0
K4S1 170035Z AUTO 18005KT 2 1/2SM HZ CLR 09/00 A3014 RMK AO2,K4S1,2023-02-17T00:35:00Z,42.42,-124.42,9.0,0.0,180,5,,2.5,30.138779,,,TRUE,TRUE,,,,,,HZ,CLR,,,,,,,,IFR,,,,,,,,,,,,METAR,7.0
K4S1 170015Z AUTO 21006KT 2 1/2SM HZ CLR 08/01 A3014 RMK AO2,K4S1,2023-02-17T00:15:00Z,42.42,-124.42,8.0,1.0,210,6,,2.5,30.138779,,,TRUE,TRUE,,,,,,HZ,CLR,,,,,,,,IFR,,,,,,,,,,,,METAR,7.0
K4S1 162355Z AUTO 21010KT 3SM HZ CLR 08/03 A3014 RMK AO2,K4S1,2023-02-16T23:55:00Z,42.42,-124.42,8.0,3.0,210,10,,3.0,30.138779,,,TRUE,TRUE,,,,,,HZ,CLR,,,,,,,,MVFR,,,,,,,,,,,,METAR,7.0
K4S1 162335Z AUTO 20010KT 2 1/2SM HZ CLR 08/03 A3014 RMK AO2,K4S1,2023-02-16T23:35:00Z,42.42,-124.42,8.0,3.0,200,10,,2.5,30.138779,,,TRUE,TRUE,,,,,,HZ,CLR,,,,,,,,IFR,,,,,,,,,,,,METAR,7.0
K4S1 162315Z AUTO 22012G16KT 4SM HZ CLR 10/M01 A3014 RMK AO2,K4S1,2023-02-16T23:15:00Z,42.42,-124.42,10.0,-1.0,220,12,16,4.0,30.138779,,,TRUE,TRUE,,,,,,HZ,CLR,,,,,,,,MVFR,,,,,,,,,,,,METAR,7.0
K4S1 162255Z AUTO 21005KT 2SM HZ CLR 08/03 A3014 RMK AO2,K4S1,2023-02-16T22:55:00Z,42.42,-124.42,8.0,3.0,210,5,,2.0,30.138779,,,TRUE,TRUE,,,,,,HZ,CLR,,,,,,,,IFR,,,,,,,,,,,,METAR,7.0
K4S1 162235Z AUTO 21008KT 2 1/2SM HZ CLR 08/03 A3014 RMK AO2,K4S1,2023-02-16T22:35:00Z,42.42,-124.42,8.0,3.0,210,8,,2.5,30.138779,,,TRUE,TRUE,,,,,,HZ,CLR,,,,,,,,IFR,,,,,,,,,,,,METAR,7.0
K4S1 162215Z AUTO 19008KT 2 1/2SM HZ CLR 08/02 A3015 RMK AO2 VIS 1V4,K4S1,2023-02-16T22:15:00Z,42.42,-124.42,8.0,2.0,190,8,,2.5,30.15059,,,TRUE,TRUE,,,,,,HZ,CLR,,,,,,,,IFR,,,,,,,,,,,,METAR,7.0
K4S1 162155Z AUTO 20013KT 3SM HZ CLR 08/02 A3016 RMK AO2,K4S1,2023-02-16T21:55:00Z,42.42,-124.42,8.0,2.0,200,13,,3.0,30.159449,,,TRUE,TRUE,,,,,,HZ,CLR,,,,,,,,MVFR,,,,,,,,,,,,METAR,7.0
K4S1 162135Z AUTO 21010KT 4SM HZ CLR 08/02 A3016 RMK AO2,K4S1,2023-02-16T21:35:00Z,42.42,-124.42,8.0,2.0,210,10,,4.0,30.159449,,,TRUE,TRUE,,,,,,HZ,CLR,,,,,,,,MVFR,,,,,,,,,,,,METAR,7.0
K4S1 162115Z AUTO 20012KT 3SM HZ CLR 08/03 A3016 RMK AO2,K4S1,2023-02-16T21:15:00Z,42.42,-124.42,8.0,3.0,200,12,,3.0,30.159449,,,TRUE,TRUE,,,,,,HZ,CLR,,,,,,,,MVFR,,,,,,,,,,,,METAR,7.0
K4S1 162055Z AUTO 20012KT 3SM HZ CLR 09/03 A3017 RMK AO2,K4S1,2023-02-16T20:55:00Z,42.42,-124.42,9.0,3.0,200,12,,3.0,30.171259,,,TRUE,TRUE,,,,,,HZ,CLR,,,,,,,,MVFR,,,,,,,,,,,,METAR,7.0
K4S1 162035Z AUTO 20012G17KT 3SM HZ CLR 09/03 A3017 RMK AO2,K4S1,2023-02-16T20:35:00Z,42.42,-124.42,9.0,3.0,200,12,17,3.0,30.171259,,,TRUE,TRUE,,,,,,HZ,CLR,,,,,,,,MVFR,,,,,,,,,,,,METAR,7.0
K4S1 162015Z AUTO 21010KT 2 1/2SM HZ CLR 09/03 A3018 RMK AO2,K4S1,2023-02-16T20:15:00Z,42.42,-124.42,9.0,3.0,210,10,,2.5,30.180119,,,TRUE,TRUE,,,,,,HZ,CLR,,,,,,,,IFR,,,,,,,,,,,,METAR,7.0
K4S1 161955Z AUTO 20007KT 3SM HZ CLR 10/02 A3019 RMK AO2,K4S1,2023-02-16T19:55:00Z,42.42,-124.42,10.0,2.0,200,7,,3.0,30.188976,,,TRUE,TRUE,,,,,,HZ,CLR,,,,,,,,MVFR,,,,,,,,,,,,METAR,7.0
K4S1 161935Z AUTO 18008KT 5SM HZ CLR 10/01 A3019 RMK AO2,K4S1,2023-02-16T19:35:00Z,42.42,-124.42,10.0,1.0,180,8,,5.0,30.188976,,,TRUE,TRUE,,,,,,HZ,CLR,,,,,,,,MVFR,,,,,,,,,,,,METAR,7.0
K4S1 161915Z AUTO 16007KT 5SM HZ CLR 10/01 A3019 RMK AO2,K4S1,2023-02-16T19:15:00Z,42.42,-124.42,10.0,1.0,160,7,,5.0,30.188976,,,TRUE,TRUE,,,,,,HZ,CLR,,,,,,,,MVFR,,,,,,,,,,,,METAR,7.0
K4S1 161855Z AUTO 19009KT 7SM CLR 10/01 A3019 RMK AO2,K4S1,2023-02-16T18:55:00Z,42.42,-124.42,10.0,1.0,190,9,,7.0,30.188976,,,TRUE,TRUE,,,,,,,CLR,,,,,,,,VFR,,,,,,,,,,,,METAR,7.0
K4S1 161835Z AUTO 16004KT 7SM CLR 08/02 A3020 RMK AO2,K4S1,2023-02-16T18:35:00Z,42.42,-124.42,8.0,2.0,160,4,,7.0,30.200787,,,TRUE,TRUE,,,,,,,CLR,,,,,,,,VFR,,,,,,,,,,,,METAR,7.0
K4S1 161815Z AUTO 14005KT 5SM HZ CLR 08/02 A3020 RMK AO2,K4S1,2023-02-16T18:15:00Z,42.42,-124.42,8.0,2.0,140,5,,5.0,30.200787,,,TRUE,TRUE,,,,,,HZ,CLR,,,,,,,,MVFR,,,,,,,,,,,,METAR,7.0
