No errors
Max results hit (1000): not all possible results returned; 
96 ms
data source=metars
1000 results
raw_text,station_id,observation_time,latitude,longitude,temp_c,dewpoint_c,wind_dir_degrees,wind_speed_kt,wind_gust_kt,visibility_statute_mi,altim_in_hg,sea_level_pressure_mb,corrected,auto,auto_station,maintenance_indicator_on,no_signal,lightning_sensor_off,freezing_rain_sensor_off,present_weather_sensor_off,wx_string,sky_cover,cloud_base_ft_agl,sky_cover,cloud_base_ft_agl,sky_cover,cloud_base_ft_agl,sky_cover,cloud_base_ft_agl,flight_category,three_hr_pressure_tendency_mb,maxT_c,minT_c,maxT24hr_c,minT24hr_c,precip_in,pcp3hr_in,pcp6hr_in,pcp24hr_in,snow_in,vert_vis_ft,metar_type,elevation_m
K4S1 141755Z AUTO 04008KT 5SM BR CLR 04/03 A3014 RMK AO2 P0003,K4S1,2023-02-14T17:55:00Z,42.42,-124.42,4.0,3.0,40,8,,5.0,30.138779,,,TRUE,TRUE,,,,,,BR,CLR,,,,,,,,MVFR,,,,,,0.03,,,,,,METAR,7.0
K4S1 141735Z AUTO 04005KT 7SM SCT018 SCT023 SCT030 03/02 A3013 RMK AO2 P0003,K4S1,2023-02-14T17:35:00Z,42.42,-124.42,3.0,2.0,40,5,,7.0,30.129921,,,TRUE,TRUE,,,,,,,SCT,1800,SCT,2300,SCT,3000,,,VFR,,,,,,0.03,,,,,,METAR,7.0
K4S1 141715Z AUTO 03010KT 7SM RA SCT030 SCT037 SCT044 03/02 A3012 RMK AO2 P0002,K4S1,2023-02-14T17:15:00Z,42.42,-124.42,3.0,2.0,30,10,,7.0,30.121063,,,TRUE,TRUE,,,,,,RA,SCT,3000,SCT,3700,SCT,4400,,,VFR,,,,,,0.02,,,,,,METAR,7.0
K4S1 141655Z AUTO 05003KT 5SM BR SCT025 SCT032 SCT044 03/02 A3012 RMK AO2 P0001,K4S1,2023-02-14T16:55:00Z,42.42,-124.42,3.0,2.0,50,3,,5.0,30.121063,,,TRUE,TRUE,,,,,,BR,SCT,2500,SCT,3200,SCT,4400,,,MVFR,,,,,,0.01,,,,,,METAR,7.0
K4S1 141635Z AUTO 03007KT 5SM DZ SCT028 03/02 A3011 RMK AO2,K4S1,2023-02-14T16:35:00Z,42.42,-124.42,3.0,2.0,30,7,,5.0,30.109253,,,TRUE,TRUE,,,,,,DZ,SCT,2800,,,,,,,MVFR,,,,,,,,,,,,METAR,7.0
K4S1 141615Z AUTO 05006KT 5SM BR SCT020 SCT029 03/02 A3010 RMK AO2,K4S1,2023-02-14T16:15:00Z,42.42,-124.42,3.0,2.0,50,6,,5.0,30.100393,,,TRUE,TRUE,,,,,,BR,SCT,2000,SCT,2900,,,,,MVFR,,,,,,,,,,,,METAR,7.0
K4S1 141555Z AUTO 05009G15KT 10SM -DZ SCT029 03/02 A3011 RMK AO2,K4S1,2023-02-14T15:55:00Z,42.42,-124.42,3.0,2.0,50,9,15,10.0,30.109253,,,TRUE,TRUE,,,,,,-DZ,SCT,2900,,,,,,,VFR,,,,,,,,,,,,METAR,7.0
K4S1 141535Z AUTO 05012G17KT 7SM CLR 03/02 A3010 RMK AO2,K4S1,2023-02-14T15:35:00Z,42.42,-124.42,3.0,2.0,50,12,17,7.0,30.100393,,,TRUE,TRUE,,,,,,,CLR,,,,,,,,VFR,,,,,,,,,,,,METAR,7.0
K4S1 141515Z AUTO 03010G19KT 340V040 10SM RA SCT012 SCT022 SCT028 04/02 A3009 RMK AO2,K4S1,2023-02-14T15:15:00Z,42.42,-124.42,4.0,2.0,30,10,19,10.0,30.088583,,,TRUE,TRUE,,,,,,RA,SCT,1200,SCT,2200,SCT,2800,,,VFR,,,,,,,,,,,,METAR,7.0
K4S1 141455Z AUTO 35022G30KT 5SM BR SCT022 SCT028 04/02 A3009 RMK AO2,K4S1,2023-02-14T14:55:00Z,42.42,-124.42,4.0,2.0,350,22,30,5.0,30.088583,,,TRUE,TRUE,,,,,,BR,SCT,2200,SCT,2800,,,,,MVFR,,,,,,,,,,,,METAR,7.0
K4S1 141435Z AUTO 04006KT 7SM -RA SCT025 SCT030 03/02 A3008 RMK AO2,K4S1,2023-02-14T14:35:00Z,42.42,-124.42,3.0,2.0,40,6,,7.0,30.079725,,,TRUE,TRUE,,,,,,-RA,SCT,2500,SCT,3000,,,,,VFR,,,,,,,,,,,,METAR,7.0
K4S1 141415Z AUTO 03006KT 7SM CLR 04/02 A3008 RMK AO2,K4S1,2023-02-14T14:15:00Z,42.42,-124.42,4.0,2.0,30,6,,7.0,30.079725,,,TRUE,TRUE,,,,,,,CLR,,,,,,,,VFR,,,,,,,,,,,,METAR,7.0
K4S1 141355Z AUTO 03010G18KT 010V070 5SM BR CLR 03/02 A3009 RMK AO2 P0003,K4S1,2023-02-14T13:55:00Z,42.42,-124.42,3.0,2.0,30,10,18,5.0,30.088583,,,TRUE,TRUE,,,,,,BR,CLR,,,,,,,,MVFR,,,,,,0.03,,,,,,METAR,7.0
K4S1 141335Z AUTO 31010G15KT 4SM BR SCT017 SCT024 05/03 A3009 RMK AO2 P0002,K4S1,2023-02-14T13:35:00Z,42.42,-124.42,5.0,3.0,310,10,15,4.0,30.088583,,,TRUE,TRUE,,,,,,BR,SCT,1700,SCT,2400,,,,,MVFR,,,,,,0.02,,,,,,METAR,7.0
K4S1 141315Z AUTO 01009G18KT 4SM -RA SCT019 SCT024 04/02 A3010 RMK AO2 P0002,K4S1,2023-02-14T13:15:00Z,42.42,-124.42,4.0,2.0,10,9,18,4.0,30.100393,,,TRUE,TRUE,,,,,,-RA,SCT,1900,SCT,2400,,,,,MVFR,,,,,,0.02,,,,,,METAR,7.0
K4S1 141255Z AUTO 29012G16KT 4SM BR SCT021 06/03 A3009 RMK AO2 P0004,K4S1,2023-02-14T12:55:00Z,42.42,-124.42,6.0,3.0,290,12,16,4.0,30.088583,,,TRUE,TRUE,,,,,,BR,SCT,2100,,,,,,,MVFR,,,,,,0.04,,,,,,METAR,7.0
K4S1 141235Z AUTO 32011G16KT 4SM -RA SCT016 BKN023 05/03 A3012 RMK AO2 P0004,K4S1,2023-02-14T12:35:00Z,42.42,-124.42,5.0,3.0,320,11,16,4.0,30.121063,,,TRUE,TRUE,,,,,,-RA,SCT,1600,BKN,2300,,,,,MVFR,,,,,,0.04,,,,,,METAR,7.0
K4S1 141215Z AUTO 31016G25KT 5SM RA SCT020 SCT025 05/02 A3013 RMK AO2 P0001,K4S1,2023-02-14T12:15:00Z,42.42,-124.42,5.0,2.0,310,16,25,5.0,30.129921,,,TRUE,TRUE,,,,,,RA,SCT,2000,SCT,2500,,,,,MVFR,,,,,,0.01,,,,,,METAR,7.0
K4S1 141155Z AUTO 29016G21KT 4SM HZ SCT020 SCT028 SCT035 07/03 A3012 RMK AO2,K4S1,2023-02-14T11:55:00Z,42.42,-124.42,7.0,3.0,290,16,21,4.0,30.121063,,,TRUE,TRUE,,,,,,HZ,SCT,2000,SCT,2800,SCT,3500,,,MVFR,,,,,,,,,,,,METAR,7.0
K4S1 141135Z AUTO 28008G29KT 4SM RA SCT020 SCT028 SCT035 05/02 A3013 RMK AO2,K4S1,2023-02-14T11:35:00Z,42.42,-124.42,5.0,2.0,280,8,29,4.0,30.129921,,,TRUE,TRUE,,,,,,RA,SCT,2000,SCT,2800,SCT,3500,,,MVFR,,,,,,,,,,,,METAR,7.0
K4S1 141110Z AUTO 26006G13KT 3SM -RA CLR 06/03 A3013 RMK AO2,K4S1,2023-02-14T11:10:00Z,42.42,-124.42,6.0,3.0,260,6,13,3.0,30.129921,,,TRUE,TRUE,,,,,,-RA,CLR,,,,,,,,MVFR,,,,,,,,,,,,METAR,7.0
K4S1 141055Z AUTO 33006KT 5SM HZ CLR 03/01 A3014 RMK AO2,K4S1,2023-02-14T10:55:00Z,42.42,-124.42,3.0,1.0,330,6,,5.0,30.138779,,,TRUE,TRUE,,,,,,HZ,CLR,,,,,,,,MVFR,,,,,,,,,,,,METAR,7.0
K4S1 141035Z AUTO 31007KT 5SM BR CLR 03/01 A3016 RMK AO2,K4S1,2023-02-14T10:35:00Z,42.42,-124.42,3.0,1.0,310,7,,5.0,30.159449,,,TRUE,TRUE,,,,,,BR,CLR,,,,,,,,MVFR,,,,,,,,,,,,METAR,7.0
K4S1 141015Z AUTO 05006KT 7SM CLR 02/01 A3017 RMK AO2,K4S1,2023-02-14T10:15:00Z,42.42,-124.42,2.0,1.0,50,6,,7.0,30.171259,,,TRUE,TRUE,,,,,,,CLR,,,,,,,,VFR,,,,,,,,,,,,METAR,7.0
K4S1 140955Z AUTO 05009KT 5SM BR CLR 02/01 A3018 RMK AO2,K4S1,2023-02-14T09:55:00Z,42.42,-124.42,2.0,1.0,50,9,,5.0,30.180119,,,TRUE,TRUE,,,,,,BR,CLR,,,,,,,,MVFR,,,,,,,,,,,,METAR,7.0
K4S1 140935Z AUTO 04004KT 7SM -DZ CLR 03/00 A3018 RMK AO2,K4S1,2023-02-14T09:35:00Z,42.42,-124.42,3.0,0.0,40,4,,7.0,30.180119,,,TRUE,TRUE,,,,,,-DZ,CLR,,,,,,,,VFR,,,,,,,,,,,,METAR,7.0
K4S1 140915Z AUTO 05007KT 7SM CLR 03/00 A3018 RMK AO2,K4S1,2023-02-14T09:15:00Z,42.42,-124.42,3.0,0.0,50,7,,7.0,30.180119,,,TRUE,TRUE,,,,,,,CLR,,,,,,,,VFR,,,,,,,,,,,,METAR,7.0
K4S1 140855Z AUTO 06009KT 7SM CLR 03/00 A3019 RMK AO2,K4S1,2023-02-14T08:55:00Z,42.42,-124.42,3.0,0.0,60,9,,7.0,30.188976,,,TRUE,TRUE,,,,,,,CLR,,,,,,,,VFR,,,,,,,,,,,,METAR,7.0
K4S1 140835Z AUTO 06007KT 7SM CLR 03/00 A3019 RMK AO2,K4S1,2023-02-14T08:35:00Z,42.42,-124.42,3.0,0.0,60,7,,7.0,30.188976,,,TRUE,TRUE,,,,,,,CLR,,,,,,,,VFR,,,,,,,,,,,,METAR,7.0
K4S1 140815Z AUTO 04005KT 7SM CLR 03/00 A3020 RMK AO2,K4S1,2023-02-14T08:15:00Z,42.42,-124.42,3.0,0.0,40,5,,7.0,30.200787,,,TRUE,TRUE,,,,,,,CLR,,,,,,,,VFR,,,,,,,,,,,,METAR,7.0
K4S1 140755Z AUTO 05006KT 7SM CLR 03/00 A3021 RMK AO2,K4S1,2023-02-14T07:55:00Z,42.42,-124.42,3.0,0.0,50,6,,7.0,30.209646,,,TRUE,TRUE,,,,,,,CLR,,,,,,,,VFR,,,,,,,,,,,,METAR,7.0
K4S1 140735Z AUTO 06008KT 7SM -RA SCT021 SCT028 SCT032 03/01 A3021 RMK AO2,K4S1,2023-02-14T07:35:00Z,42.42,-124.42,3.0,1.0,60,8,,7.0,30.209646,,,TRUE,TRUE,,,,,,-RA,SCT,2100,SCT,2800,SCT,3200,,,VFR,,,,,,,,,,,,METAR,7.0
K4S1 140715Z AUTO 04013G21KT 10SM -RA SCT021 SCT028 BKN049 03/01 A3022 RMK AO2,K4S1,2023-02-14T07:15:00Z,42.42,-124.42,3.0,1.0,40,13,21,10.0,30.221457,,,TRUE,TRUE,,,,,,-RA,SCT,2100,SCT,2800,BKN,4900,,,VFR,,,,,,,,,,,,METAR,7.0
K4S1 140655Z AUTO 04008KT 7SM CLR 03/01 A3021 RMK AO2,K4S1,2023-02-14T06:55:00Z,42.42,-124.42,3.0,1.0,40,8,,7.0,30.209646,,,TRUE,TRUE,,,,,,,CLR,,,,,,,,VFR,,,,,,,,,,,,METAR,7.0
K4S1 140635Z AUTO 05007KT 5SM BR CLR 03/01 A3021 RMK AO2,K4S1,2023-02-14T06:35:00Z,42.42,-124.42,3.0,1.0,50,7,,5.0,30.209646,,,TRUE,TRUE,,,,,,BR,CLR,,,,,,,,MVFR,,,,,,,,,,,,METAR,7.0
K4S1 140615Z AUTO 05009KT 7SM CLR 04/01 A3021 RMK AO2,K4S1,2023-02-14T06:15:00Z,42.42,-124.42,4.0,1.0,50,9,,7.0,30.209646,,,TRUE,TRUE,,,,,,,CLR,,,,,,,,VFR,,,,,,,,,,,,METAR,7.0
K4S1 140555Z AUTO 05008KT 5SM BR CLR 04/02 A3021 RMK AO2,K4S1,2023-02-14T05:55:00Z,42.42,-124.42,4.0,2.0,50,8,,5.0,30.209646,,,TRUE,TRUE,,,,,,BR,CLR,,,,,,,,MVFR,,,,,,,,,,,,METAR,7.0
K4S1 140535Z AUTO 05008KT 7SM CLR 04/01 A3020 RMK AO2,K4S1,2023-02-14T05:35:00Z,42.42,-124.42,4.0,1.0,50,8,,7.0,30.200787,,,TRUE,TRUE,,,,,,,CLR,,,,,,,,VFR,,,,,,,,,,,,METAR,7.0
K4S1 140515Z AUTO 05009KT 5SM HZ CLR 05/01 A3021 RMK AO2,K4S1,2023-02-14T05:15:00Z,42.42,-124.42,5.0,1.0,50,9,,5.0,30.209646,,,TRUE,TRUE,,,,,,HZ,CLR,,,,,,,,MVFR,,,,,,,,,,,,METAR,7.0
K4S1 140455Z AUTO 04009KT 7SM CLR 05/01 A3020 RMK AO2,K4S1,2023-02-14T04:55:00Z,42.42,-124.42,5.0,1.0,40,9,,7.0,30.200787,,,TRUE,TRUE,,,,,,,CLR,,,,,,,,VFR,,,,,,,,,,,,METAR,7.0
K4S1 140435Z AUTO 05010G20KT 7SM CLR 05/01 A3019 RMK AO2,K4S1,2023-02-14T04:35:00Z,42.42,-124.42,5.0,1.0,50,10,20,7.0,30.188976,,,TRUE,TRUE,,,,,,,CLR,,,,,,,,VFR,,,,,,,,,,,,METAR,7.0
K4S1 140415Z AUTO 01022G32KT 7SM CLR 05/03 A3019 RMK AO2,K4S1,2023-02-14T04:15:00Z,42.42,-124.42,5.0,3.0,10,22,32,7.0,30.188976,,,TRUE,TRUE,,,,,,,CLR,,,,,,,,VFR,,,,,,,,,,,,METAR,7.0
K4S1 140355Z AUTO 04010G18KT 10SM -DZ SCT026 SCT037 05/03 A3018 RMK AO2,K4S1,2023-02-14T03:55:00Z,42.42,-124.42,5.0,3.0,40,10,18,10.0,30.180119,,,TRUE,TRUE,,,,,,-DZ,SCT,2600,SCT,3700,,,,,VFR,,,,,,,,,,,,METAR,7.0
K4S1 140335Z AUTO 04010G14KT 7SM CLR 05/03 A3018 RMK AO2,K4S1,2023-02-14T03:35:00Z,42.42,-124.42,5.0,3.0,40,10,14,7.0,30.180119,,,TRUE,TRUE,,,,,,,CLR,,,,,,,,VFR,,,,,,,,,,,,METAR,7.0
K4S1 140315Z AUTO 04007KT 7SM CLR 05/03 A3017 RMK AO2,K4S1,2023-02-14T03:15:00Z,42.42,-124.42,5.0,3.0,40,7,,7.0,30.171259,,,TRUE,TRUE,,,,,,,CLR,,,,,,,,VFR,,,,,,,,,,,,METAR,7.0
K4S1 140255Z AUTO 05009G17KT 010V070 5SM BR CLR 05/03 A3017 RMK AO2 P0001,K4S1,2023-02-14T02:55:00Z,42.42,-124.42,5.0,3.0,50,9,17,5.0,30.171259,,,TRUE,TRUE,,,,,,BR,CLR,,,,,,,,MVFR,,,,,,0.01,,,,,,METAR,7.0
K4S1 140235Z AUTO 03012G24KT 7SM -RA SCT023 SCT028 SCT033 05/03 A3017 RMK AO2 P0001,K4S1,2023-02-14T02:35:00Z,42.42,-124.42,5.0,3.0,30,12,24,7.0,30.171259,,,TRUE,TRUE,,,,,,-RA,SCT,2300,SCT,2800,SCT,3300,,,VFR,,,,,,0.01,,,,,,METAR,7.0
K4S1 140215Z AUTO 04011G17KT 360V060 7SM -RA SCT026 SCT033 SCT041 05/03 A3017 RMK AO2,K4S1,2023-02-14T02:15:00Z,42.42,-124.42,5.0,3.0,40,11,17,7.0,30.171259,,,TRUE,TRUE,,,,,,-RA,SCT,2600,SCT,3300,SCT,4100,,,VFR,,,,,,,,,,,,METAR,7.0
K4S1 140155Z AUTO 05008G14KT 7SM CLR 05/03 A3017 RMK AO2 P0001,K4S1,2023-02-14T01:55:00Z,42.42,-124.42,5.0,3.0,50,8,14,7.0,30.171259,,,TRUE,TRUE,,,,,,,CLR,,,,,,,,VFR,,,,,,0.01,,,,,,METAR,7.0
K4S1 140135Z AUTO 03006KT 5SM BR SCT027 05/03 A3017 RMK AO2 P0001,K4S1,2023-02-14T01:35:00Z,42.42,-124.42,5.0,3.0,30,6,,5.0,30.171259,,,TRUE,TRUE,,,,,,BR,SCT,2700,,,,,,,MVFR,,,,,,0.01,,,,,,METAR,7.0
K4S1 140115Z AUTO 02012G24KT 340V040 7SM -RA SCT015 SCT019 BKN027 05/03 A3017 RMK AO2 P0001,K4S1,2023-02-14T01:15:00Z,42.42,-124.42,5.0,3.0,20,12,24,7.0,30.171259,,,TRUE,TRUE,,,,,,-RA,SCT,1500,SCT,1900,BKN,2700,,,MVFR,,,,,,0.01,,,,,,METAR,7.0
K4S1 140055Z AUTO 04004KT 5SM HZ CLR 06/03 A3015 RMK AO2,K4S1,2023-02-14T00:55:00Z,42.42,-124.42,6.0,3.0,40,4,,5.0,30.15059,,,TRUE,TRUE,,,,,,HZ,CLR,,,,,,,,MVFR,,,,,,,,,,,,METAR,7.0
K4S1 140035Z AUTO 03009G20KT 5SM HZ CLR 07/03 A3017 RMK AO2,K4S1,2023-02-14T00:35:00Z,42.42,-124.42,7.0,3.0,30,9,20,5.0,30.171259,,,TRUE,TRUE,,,,,,HZ,CLR,,,,,,,,MVFR,,,,,,,,,,,,METAR,7.0
K4S1 140015Z AUTO 35011G18KT 4SM HZ CLR 08/03 A3016 RMK AO2,K4S1,2023-02-14T00:15:00Z,42.42,-124.42,8.0,3.0,350,11,18,4.0,30.159449,,,TRUE,TRUE,,,,,,HZ,CLR,,,,,,,,MVFR,,,,,,,,,,,,METAR,7.0
K4S1 132355Z AUTO 33014G19KT 4SM HZ CLR 08/05 A3016 RMK AO2,K4S1,2023-02-13T23:55:00Z,42.42,-124.42,8.0,5.0,330,14,19,4.0,30.159449,,,TRUE,TRUE,,,,,,HZ,CLR,,,,,,,,MVFR,,,,,,,,,,,,METAR,7.0
K4S1 132335Z AUTO 02007KT 5SM HZ CLR 07/03 A3016 RMK AO2,K4S1,2023-02-13T23:35:00Z,42.42,-124.42,7.0,3.0,20,7,,5.0,30.159449,,,TRUE,TRUE,,,,,,HZ,CLR,,,,,,,,MVFR,,,,,,,,,,,,METAR,7.0
K4S1 132315Z AUTO 01013G19KT 5SM HZ CLR 08/04 A3015 RMK AO2,K4S1,2023-02-13T23:15:00Z,42.42,-124.42,8.0,4.0,10,13,19,5.0,30.15059,,,TRUE,TRUE,,,,,,HZ,CLR,,,,,,,,MVFR,,,,,,,,,,,,METAR,7.0
K4S1 132255Z AUTO 36014G21KT 4SM HZ CLR 08/03 A3015 RMK AO2,K4S1,2023-02-13T22:55:00Z,42.42,-124.42,8.0,3.0,360,14,21,4.0,30.15059,,,TRUE,TRUE,,,,,,HZ,CLR,,,,,,,,MVFR,,,,,,,,,,,,METAR,7.0
K4S1 132235Z AUTO 34010G14KT 4SM HZ CLR 08/03 A3015 RMK AO2,K4S1,2023-02-13T22:35:00Z,42.42,-124.42,8.0,3.0,340,10,14,4.0,30.15059,,,TRUE,TRUE,,,,,,HZ,CLR,,,,,,,,MVFR,,,,,,,,,,,,METAR,7.0
K4S1 132215Z AUTO 35010G17KT 5SM HZ CLR 08/03 A3015 RMK AO2,K4S1,2023-02-13T22:15:00Z,42.42,-124.42,8.0,3.0,350,10,17,5.0,30.15059,,,TRUE,TRUE,,,,,,HZ,CLR,,,,,,,,MVFR,,,,,,,,,,,,METAR,7.0
K4S1 132155Z AUTO 34010G18KT 4SM HZ CLR 09/03 A3015 RMK AO2,K4S1,2023-02-13T21:55:00Z,42.42,-124.42,9.0,3.0,340,10,18,4.0,30.15059,,,TRUE,TRUE,,,,,,HZ,CLR,,,,,,,,MVFR,,,,,,,,,,,,METAR,7.0
K4S1 132135Z AUTO 34012G18KT 4SM HZ CLR 08/04 A3016 RMK AO2,K4S1,2023-02-13T21:35:00Z,42.42,-124.42,8.0,4.0,340,12,18,4.0,30.159449,,,TRUE,TRUE,,,,,,HZ,CLR,,,,,,,,MVFR,,,,,,,,,,,,METAR,7.0
K4S1 132115Z AUTO 33015G20KT 4SM HZ CLR 08/04 A3016 RMK AO2,K4S1,2023-02-13T21:15:00Z,42.42,-124.42,8.0,4.0,330,15,20,4.0,30.159449,,,TRUE,TRUE,,,,,,HZ,CLR,,,,,,,,MVFR,,,,,,,,,,,,METAR,7.0
K4S1 132055Z AUTO 34011G18KT 5SM RA SCT025 08/04 A3017 RMK AO2,K4S1,2023-02-13T20:55:00Z,42.42,-124.42,8.0,4.0,340,11,18,5.0,30.171259,,,TRUE,TRUE,,,,,,RA,SCT,2500,,,,,,,MVFR,,,,,,,,,,,,METAR,7.0
K4S1 132035Z AUTO 36012G19KT 4SM HZ CLR 09/04 A3017 RMK AO2,K4S1,2023-02-13T20:35:00Z,42.42,-124.42,9.0,4.0,360,12,19,4.0,30.171259,,,TRUE,TRUE,,,,,,HZ,CLR,,,,,,,,MVFR,,,,,,,,,,,,METAR,7.0
K4S1 132015Z AUTO 36010G20KT 330V030 5SM HZ CLR 10/05 A3017 RMK AO2,K4S1,2023-02-13T20:15:00Z,42.42,-124.42,10.0,5.0,360,10,20,5.0,30.171259,,,TRUE,TRUE,,,,,,HZ,CLR,,,,,,,,MVFR,,,,,,,,,,,,METAR,7.0
K4S1 131955Z AUTO 35012G18KT 5SM -RA SCT027 SCT038 08/04 A3017 RMK AO2,K4S1,2023-02-13T19:55:00Z,42.42,-124.42,8.0,4.0,350,12,18,5.0,30.171259,,,TRUE,TRUE,,,,,,-RA,SCT,2700,SCT,3800,,,,,MVFR,,,,,,,,,,,,METAR,7.0
K4S1 131935Z AUTO 36009G21KT 5SM HZ CLR 08/05 A3017 RMK AO2,K4S1,2023-02-13T19:35:00Z,42.42,-124.42,8.0,5.0,360,9,21,5.0,30.171259,,,TRUE,TRUE,,,,,,HZ,CLR,,,,,,,,MVFR,,,,,,,,,,,,METAR,7.0
K4S1 131915Z AUTO 34011G16KT 3SM HZ CLR 09/06 A3017 RMK AO2,K4S1,2023-02-13T19:15:00Z,42.42,-124.42,9.0,6.0,340,11,16,3.0,30.171259,,,TRUE,TRUE,,,,,,HZ,CLR,,,,,,,,MVFR,,,,,,,,,,,,METAR,7.0
K4S1 131855Z AUTO 36008G15KT 4SM HZ CLR 09/06 A3018 RMK AO2,K4S1,2023-02-13T18:55:00Z,42.42,-124.42,9.0,6.0,360,8,15,4.0,30.180119,,,TRUE,TRUE,,,,,,HZ,CLR,,,,,,,,MVFR,,,,,,,,,,,,METAR,7.0
K4S1 131835Z AUTO 36009KT 5SM BR SCT029 SCT036 07/05 A3017 RMK AO2,K4S1,2023-02-13T18:35:00Z,42.42,-124.42,7.0,5.0,360,9,,5.0,30.171259,,,TRUE,TRUE,,,,,,BR,SCT,2900,SCT,3600,,,,,MVFR,,,,,,,,,,,,METAR,7.0
K4S1 131815Z AUTO 36012G24KT 4SM -RA SCT022 SCT027 SCT036 07/05 A3017 RMK AO2,K4S1,2023-02-13T18:15:00Z,42.42,-124.42,7.0,5.0,360,12,24,4.0,30.171259,,,TRUE,TRUE,,,,,,-RA,SCT,2200,SCT,2700,SCT,3600,,,MVFR,,,,,,,,,,,,METAR,7.0
K4S1 131755Z AUTO 02005KT 5SM BR CLR 08/06 A3017 RMK AO2,K4S1,2023-02-13T17:55:00Z,42.42,-124.42,8.0,6.0,20,5,,5.0,30.171259,,,TRUE,TRUE,,,,,,BR,CLR,,,,,,,,MVFR,,,,,,,,,,,,METAR,7.0
K4S1 131735Z AUTO 05004KT 5SM BR CLR 07/06 A3017 RMK AO2,K4S1,2023-02-13T17:35:00Z,42.42,-124.42,7.0,6.0,50,4,,5.0,30.171259,,,TRUE,TRUE,,,,,,BR,CLR,,,,,,,,MVFR,,,,,,,,,,,,METAR,7.0
K4S1 131715Z AUTO 04006KT 4SM BR SCT038 07/05 A3017 RMK AO2,K4S1,2023-02-13T17:15:00Z,42.42,-124.42,7.0,5.0,40,6,,4.0,30.171259,,,TRUE,TRUE,,,,,,BR,SCT,3800,,,,,,,MVFR,,,,,,,,,,,,METAR,7.0
K4S1 131655Z AUTO 06008KT 7SM -DZ SCT036 07/05 A3017 RMK AO2 P0002,K4S1,2023-02-13T16:55:00Z,42.42,-124.42,7.0,5.0,60,8,,7.0,30.171259,,,TRUE,TRUE,,,,,,-DZ,SCT,3600,,,,,,,VFR,,,,,,0.02,,,,,,METAR,7.0
K4S1 131635Z AUTO 02013G20KT 5SM -RA SCT024 SCT032 SCT040 07/05 A3017 RMK AO2 P0002,K4S1,2023-02-13T16:35:00Z,42.42,-124.42,7.0,5.0,20,13,20,5.0,30.171259,,,TRUE,TRUE,,,,,,-RA,SCT,2400,SCT,3200,SCT,4000,,,MVFR,,,,,,0.02,,,,,,METAR,7.0
K4S1 131615Z AUTO 03007KT 4SM RA SCT021 SCT026 BKN040 07/05 A3016 RMK AO2,K4S1,2023-02-13T16:15:00Z,42.42,-124.42,7.0,5.0,30,7,,4.0,30.159449,,,TRUE,TRUE,,,,,,RA,SCT,2100,SCT,2600,BKN,4000,,,MVFR,,,,,,,,,,,,METAR,7.0
K4S1 131555Z AUTO 05006KT 5SM HZ CLR 07/05 A3015 RMK AO2,K4S1,2023-02-13T15:55:00Z,42.42,-124.42,7.0,5.0,50,6,,5.0,30.15059,,,TRUE,TRUE,,,,,,HZ,CLR,,,,,,,,MVFR,,,,,,,,,,,,METAR,7.0
K4S1 131535Z AUTO 04008KT 5SM HZ CLR 07/05 A3015 RMK AO2,K4S1,2023-02-13T15:35:00Z,42.42,-124.42,7.0,5.0,40,8,,5.0,30.15059,,,TRUE,TRUE,,,,,,HZ,CLR,,,,,,,,MVFR,,,,,,,,,,,,METAR,7.0
K4S1 131515Z AUTO 03009KT 5SM HZ CLR 07/05 A3015 RMK AO2,K4S1,2023-02-13T15:15:00Z,42.42,-124.42,7.0,5.0,30,9,,5.0,30.15059,,,TRUE,TRUE,,,,,,HZ,CLR,,,,,,,,MVFR,,,,,,,,,,,,METAR,7.0
K4S1 131455Z AUTO 02008KT 5SM HZ CLR 08/05 A3014 RMK AO2,K4S1,2023-02-13T14:55:00Z,42.42,-124.42,8.0,5.0,20,8,,5.0,30.138779,,,TRUE,TRUE,,,,,,HZ,CLR,,,,,,,,MVFR,,,,,,,,,,,,METAR,7.0
K4S1 131435Z AUTO 01009KT 7SM CLR 08/06 A3014 RMK AO2,K4S1,2023-02-13T14:35:00Z,42.42,-124.42,8.0,6.0,10,9,,7.0,30.138779,,,TRUE,TRUE,,,,,,,CLR,,,,,,,,VFR,,,,,,,,,,,,METAR,7.0
K4S1 131415Z AUTO 02011G17KT 5SM BR CLR 08/06 A3014 RMK AO2,K4S1,2023-02-13T14:15:00Z,42.42,-124.42,8.0,6.0,20,11,17,5.0,30.138779,,,TRUE,TRUE,,,,,,BR,CLR,,,,,,,,MVFR,,,,,,,,,,,,METAR,7.0
K4S1 131355Z AUTO 36009G15KT 5SM BR CLR 08/06 A3014 RMK AO2,K4S1,2023-02-13T13:55:00Z,42.42,-124.42,8.0,6.0,360,9,15,5.0,30.138779,,,TRUE,TRUE,,,,,,BR,CLR,,,,,,,,MVFR,,,,,,,,,,,,METAR,7.0
K4S1 131335Z AUTO 36013KT 7SM CLR 08/07 A3013 RMK AO2,K4S1,2023-02-13T13:35:00Z,42.42,-124.42,8.0,7.0,360,13,,7.0,30.129921,,,TRUE,TRUE,,,,,,,CLR,,,,,,,,VFR,,,,,,,,,,,,METAR,7.0
K4S1 131315Z AUTO 36011G18KT 5SM BR CLR 08/07 A3012 RMK AO2,K4S1,2023-02-13T13:15:00Z,42.42,-124.42,8.0,7.0,360,11,18,5.0,30.121063,,,TRUE,TRUE,,,,,,BR,CLR,,,,,,,,MVFR,,,,,,,,,,,,METAR,7.0
K4S1 131255Z AUTO 36010KT 5SM BR CLR 08/07 A3012 RMK AO2,K4S1,2023-02-13T12:55:00Z,42.42,-124.42,8.0,7.0,360,10,,5.0,30.121063,,,TRUE,TRUE,,,,,,BR,CLR,,,,,,,,MVFR,,,,,,,,,,,,METAR,7.0
K4S1 131235Z AUTO 36010G17KT 5SM BR SCT004 08/07 A3013 RMK AO2,K4S1,2023-02-13T12:35:00Z,42.42,-124.42,8.0,7.0,360,10,17,5.0,30.129921,,,TRUE,TRUE,,,,,,BR,SCT,400,,,,,,,MVFR,,,,,,,,,,,,METAR,7.0
K4S1 131215Z AUTO 01009G16KT 5SM BR SCT004 08/07 A3012 RMK AO2,K4S1,2023-02-13T12:15:00Z,42.42,-124.42,8.0,7.0,10,9,16,5.0,30.121063,,,TRUE,TRUE,,,,,,BR,SCT,400,,,,,,,MVFR,,,,,,,,,,,,METAR,7.0
K4S1 131155Z AUTO 02006KT 7SM SCT016 07/06 A3012 RMK AO2,K4S1,2023-02-13T11:55:00Z,42.42,-124.42,7.0,6.0,20,6,,7.0,30.121063,,,TRUE,TRUE,,,,,,,SCT,1600,,,,,,,VFR,,,,,,,,,,,,METAR,7.0
K4S1 131135Z AUTO 02007KT 5SM BR SCT014 SCT023 SCT031 07/06 A3012 RMK AO2,K4S1,2023-02-13T11:35:00Z,42.42,-124.42,7.0,6.0,20,7,,5.0,30.121063,,,TRUE,TRUE,,,,,,BR,SCT,1400,SCT,2300,SCT,3100,,,MVFR,,,,,,,,,,,,METAR,7.0
K4S1 131115Z AUTO 04008KT 5SM BR SCT012 BKN023 BKN031 07/05 A3013 RMK AO2,K4S1,2023-02-13T11:15:00Z,42.42,-124.42,7.0,5.0,40,8,,5.0,30.129921,,,TRUE,TRUE,,,,,,BR,SCT,1200,BKN,2300,BKN,3100,,,MVFR,,,,,,,,,,,,METAR,7.0
K4S1 131055Z AUTO 03008KT 5SM BR SCT021 SCT031 07/05 A3013 RMK AO2,K4S1,2023-02-13T10:55:00Z,42.42,-124.42,7.0,5.0,30,8,,5.0,30.129921,,,TRUE,TRUE,,,,,,BR,SCT,2100,SCT,3100,,,,,MVFR,,,,,,,,,,,,METAR,7.0
K4S1 131035Z AUTO 05010KT 7SM CLR 07/05 A3012 RMK AO2,K4S1,2023-02-13T10:35:00Z,42.42,-124.42,7.0,5.0,50,10,,7.0,30.121063,,,TRUE,TRUE,,,,,,,CLR,,,,,,,,VFR,,,,,,,,,,,,METAR,7.0
K4S1 131015Z AUTO 05008KT 7SM CLR 07/05 A3012 RMK AO2,K4S1,2023-02-13T10:15:00Z,42.42,-124.42,7.0,5.0,50,8,,7.0,30.121063,,,TRUE,TRUE,,,,,,,CLR,,,,,,,,VFR,,,,,,,,,,,,METAR,7.0
K4S1 130955Z AUTO 03008KT 7SM CLR 06/04 A3013 RMK AO2,K4S1,2023-02-13T09:55:00Z,42.42,-124.42,6.0,4.0,30,8,,7.0,30.129921,,,TRUE,TRUE,,,,,,,CLR,,,,,,,,VFR,,,,,,,,,,,,METAR,7.0
K4S1 130935Z AUTO 05011KT 7SM CLR 06/04 A3012 RMK AO2,K4S1,2023-02-13T09:35:00Z,42.42,-124.42,6.0,4.0,50,11,,7.0,30.121063,,,TRUE,TRUE,,,,,,,CLR,,,,,,,,VFR,,,,,,,,,,,,METAR,7.0
K4S1 130915Z AUTO 05009KT 10SM CLR 07/04 A3012 RMK AO2,K4S1,2023-02-13T09:15:00Z,42.42,-124.42,7.0,4.0,50,9,,10.0,30.121063,,,TRUE,TRUE,,,,,,,CLR,,,,,,,,VFR,,,,,,,,,,,,METAR,7.0
K4S1 130855Z AUTO 04007KT 7SM CLR 07/05 A3013 RMK AO2,K4S1,2023-02-13T08:55:00Z,42.42,-124.42,7.0,5.0,40,7,,7.0,30.129921,,,TRUE,TRUE,,,,,,,CLR,,,,,,,,VFR,,,,,,,,,,,,METAR,7.0
K4S1 130835Z AUTO 05009KT 7SM CLR 07/05 A3013 RMK AO2,K4S1,2023-02-13T08:35:00Z,42.42,-124.42,7.0,5.0,50,9,,7.0,30.129921,,,TRUE,TRUE,,,,,,,CLR,,,,,,,,VFR,,,,,,,,,,,,METAR,7.0
K4S1 130815Z AUTO 04006KT 7SM CLR 07/05 A3014 RMK AO2,K4S1,2023-02-13T08:15:00Z,42.42,-124.42,7.0,5.0,40,6,,7.0,30.138779,,,TRUE,TRUE,,,,,,,CLR,,,,,,,,VFR,,,,,,,,,,,,METAR,7.0
K4S1 130755Z AUTO 03008KT 5SM BR CLR 07/05 A3014 RMK AO2,K4S1,2023-02-13T07:55:00Z,42.42,-124.42,7.0,5.0,30,8,,5.0,30.138779,,,TRUE,TRUE,,,,,,BR,CLR,,,,,,,,MVFR,,,,,,,,,,,,METAR,7.0
K4S1 130735Z AUTO 05008KT 5SM BR CLR 06/05 A3012 RMK AO2,K4S1,2023-02-13T07:35:00Z,42.42,-124.42,6.0,5.0,50,8,,5.0,30.121063,,,TRUE,TRUE,,,,,,BR,CLR,,,,,,,,MVFR,,,,,,,,,,,,METAR,7.0
K4S1 130715Z AUTO 04011KT 7SM CLR 06/05 A3012 RMK AO2,K4S1,2023-02-13T07:15:00Z,42.42,-124.42,6.0,5.0,40,11,,7.0,30.121063,,,TRUE,TRUE,,,,,,,CLR,,,,,,,,VFR,,,,,,,,,,,,METAR,7.0
K4S1 130655Z AUTO 05009KT 7SM CLR 07/05 A3014 RMK AO2,K4S1,2023-02-13T06:55:00Z,42.42,-124.42,7.0,5.0,50,9,,7.0,30.138779,,,TRUE,TRUE,,,,,,,CLR,,,,,,,,VFR,,,,,,,,,,,,METAR,7.0
K4S1 130635Z AUTO 03006KT 7SM CLR 07/05 A3014 RMK AO2,K4S1,2023-02-13T06:35:00Z,42.42,-124.42,7.0,5.0,30,6,,7.0,30.138779,,,TRUE,TRUE,,,,,,,CLR,,,,,,,,VFR,,,,,,,,,,,,METAR,7.0
K4S1 130615Z AUTO 04006KT 5SM BR CLR 07/05 A3012 RMK AO2,K4S1,2023-02-13T06:15:00Z,42.42,-124.42,7.0,5.0,40,6,,5.0,30.121063,,,TRUE,TRUE,,,,,,BR,CLR,,,,,,,,MVFR,,,,,,,,,,,,METAR,7.0
K4S1 130555Z AUTO 04006KT 7SM CLR 08/05 A3013 RMK AO2,K4S1,2023-02-13T05:55:00Z,42.42,-124.42,8.0,5.0,40,6,,7.0,30.129921,,,TRUE,TRUE,,,,,,,CLR,,,,,,,,VFR,,,,,,,,,,,,METAR,7.0
K4S1 130535Z AUTO 02011G20KT 7SM CLR 08/06 A3014 RMK AO2,K4S1,2023-02-13T05:35:00Z,42.42,-124.42,8.0,6.0,20,11,20,7.0,30.138779,,,TRUE,TRUE,,,,,,,CLR,,,,,,,,VFR,,,,,,,,,,,,METAR,7.0
K4S1 130515Z AUTO 01011KT 7SM CLR 08/06 A3013 RMK AO2,K4S1,2023-02-13T05:15:00Z,42.42,-124.42,8.0,6.0,10,11,,7.0,30.129921,,,TRUE,TRUE,,,,,,,CLR,,,,,,,,VFR,,,,,,,,,,,,METAR,7.0
K4S1 130455Z AUTO 05005KT 5SM BR CLR 08/06 A3014 RMK AO2,K4S1,2023-02-13T04:55:00Z,42.42,-124.42,8.0,6.0,50,5,,5.0,30.138779,,,TRUE,TRUE,,,,,,BR,CLR,,,,,,,,MVFR,,,,,,,,,,,,METAR,7.0
K4S1 130435Z AUTO 02009KT 5SM BR CLR 08/06 A3014 RMK AO2,K4S1,2023-02-13T04:35:00Z,42.42,-124.42,8.0,6.0,20,9,,5.0,30.138779,,,TRUE,TRUE,,,,,,BR,CLR,,,,,,,,MVFR,,,,,,,,,,,,METAR,7.0
K4S1 130415Z AUTO 03004KT 5SM BR CLR 08/06 A3014 RMK AO2,K4S1,2023-02-13T04:15:00Z,42.42,-124.42,8.0,6.0,30,4,,5.0,30.138779,,,TRUE,TRUE,,,,,,BR,CLR,,,,,,,,MVFR,,,,,,,,,,,,METAR,7.0
K4S1 130355Z AUTO 02007KT 340V060 5SM BR CLR 08/06 A3013 RMK AO2,K4S1,2023-02-13T03:55:00Z,42.42,-124.42,8.0,6.0,20,7,,5.0,30.129921,,,TRUE,TRUE,,,,,,BR,CLR,,,,,,,,MVFR,,,,,,,,,,,,METAR,7.0
K4S1 130335Z AUTO 04006G14KT 7SM CLR 08/07 A3013 RMK AO2,K4S1,2023-02-13T03:35:00Z,42.42,-124.42,8.0,7.0,40,6,14,7.0,30.129921,,,TRUE,TRUE,,,,,,,CLR,,,,,,,,VFR,,,,,,,,,,,,METAR,7.0
K4S1 130315Z AUTO 01008G14KT 7SM CLR 09/07 A3012 RMK AO2,K4S1,2023-02-13T03:15:00Z,42.42,-124.42,9.0,7.0,10,8,14,7.0,30.121063,,,TRUE,TRUE,,,,,,,CLR,,,,,,,,VFR,,,,,,,,,,,,METAR,7.0
K4S1 130255Z AUTO 36013KT 4SM BR CLR 09/07 A3011 RMK AO2,K4S1,2023-02-13T02:55:00Z,42.42,-124.42,9.0,7.0,360,13,,4.0,30.109253,,,TRUE,TRUE,,,,,,BR,CLR,,,,,,,,MVFR,,,,,,,,,,,,METAR,7.0
K4S1 130235Z AUTO 34009KT 4SM HZ CLR 09/06 A3009 RMK AO2,K4S1,2023-02-13T02:35:00Z,42.42,-124.42,9.0,6.0,340,9,,4.0,30.088583,,,TRUE,TRUE,,,,,,HZ,CLR,,,,,,,,MVFR,,,,,,,,,,,,METAR,7.0
K4S1 130215Z AUTO 34008KT 4SM HZ CLR 10/06 A3008 RMK AO2,K4S1,2023-02-13T02:15:00Z,42.42,-124.42,10.0,6.0,340,8,,4.0,30.079725,,,TRUE,TRUE,,,,,,HZ,CLR,,,,,,,,MVFR,,,,,,,,,,,,METAR,7.0
K4S1 130155Z AUTO 34006KT 2SM HZ CLR 10/06 A3007 RMK AO2,K4S1,2023-02-13T01:55:00Z,42.42,-124.42,10.0,6.0,340,6,,2.0,30.070866,,,TRUE,TRUE,,,,,,HZ,CLR,,,,,,,,IFR,,,,,,,,,,,,METAR,7.0
K4S1 130135Z AUTO 02004KT 5SM HZ CLR 11/06 A3008 RMK AO2,K4S1,2023-02-13T01:35:00Z,42.42,-124.42,11.0,6.0,20,4,,5.0,30.079725,,,TRUE,TRUE,,,,,,HZ,CLR,,,,,,,,MVFR,,,,,,,,,,,,METAR,7.0
K4S1 130110Z AUTO 34013KT 2SM HZ CLR 10/07 A3009 RMK AO2,K4S1,2023-02-13T01:10:00Z,42.42,-124.42,10.0,7.0,340,13,,2.0,30.088583,,,TRUE,TRUE,,,,,,HZ,CLR,,,,,,,,IFR,,,,,,,,,,,,METAR,7.0
K4S1 130055Z AUTO 33011KT 2SM HZ CLR 11/07 A3007 RMK AO2,K4S1,2023-02-13T00:55:00Z,42.42,-124.42,11.0,7.0,330,11,,2.0,30.070866,,,TRUE,TRUE,,,,,,HZ,CLR,,,,,,,,IFR,,,,,,,,,,,,METAR,7.0
K4S1 130035Z AUTO 35012G16KT 4SM HZ CLR 11/07 A3009 RMK AO2,K4S1,2023-02-13T00:35:00Z,42.42,-124.42,11.0,7.0,350,12,16,4.0,30.088583,,,TRUE,TRUE,,,,,,HZ,CLR,,,,,,,,MVFR,,,,,,,,,,,,METAR,7.0
K4S1 130015Z AUTO 33009KT 4SM HZ CLR 12/07 A3009 RMK AO2,K4S1,2023-02-13T00:15:00Z,42.42,-124.42,12.0,7.0,330,9,,4.0,30.088583,,,TRUE,TRUE,,,,,,HZ,CLR,,,,,,,,MVFR,,,,,,,,,,,,METAR,7.0
K4S1 122355Z AUTO 03008KT 5SM HZ CLR 14/06 A3011 RMK AO2,K4S1,2023-02-12T23:55:00Z,42.42,-124.42,14.0,6.0,30,8,,5.0,30.109253,,,TRUE,TRUE,,,,,,HZ,CLR,,,,,,,,MVFR,,,,,,,,,,,,METAR,7.0
K4S1 122335Z AUTO 35009G17KT 4SM HZ CLR 12/07 A3012 RMK AO2,K4S1,2023-02-12T23:35:00Z,42.42,-124.42,12.0,7.0,350,9,17,4.0,30.121063,,,TRUE,TRUE,,,,,,HZ,CLR,,,,,,,,MVFR,,,,,,,,,,,,METAR,7.0
K4S1 122315Z AUTO 35011G15KT 5SM HZ CLR 13/07 A3012 RMK AO2,K4S1,2023-02-12T23:15:00Z,42.42,-124.42,13.0,7.0,350,11,15,5.0,30.121063,,,TRUE,TRUE,,,,,,HZ,CLR,,,,,,,,MVFR,,,,,,,,,,,,METAR,7.0
K4S1 122255Z AUTO 36018G23KT 4SM HZ CLR 11/06 A3013 RMK AO2,K4S1,2023-02-12T22:55:00Z,42.42,-124.42,11.0,6.0,360,18,23,4.0,30.129921,,,TRUE,TRUE,,,,,,HZ,CLR,,,,,,,,MVFR,,,,,,,,,,,,METAR,7.0
K4S1 122235Z AUTO 35014G20KT 5SM HZ CLR 11/07 A3013 RMK AO2,K4S1,2023-02-12T22:35:00Z,42.42,-124.42,11.0,7.0,350,14,20,5.0,30.129921,,,TRUE,TRUE,,,,,,HZ,CLR,,,,,,,,MVFR,,,,,,,,,,,,METAR,7.0
K4S1 122215Z AUTO 36016G21KT 5SM HZ CLR 11/07 A3013 RMK AO2,K4S1,2023-02-12T22:15:00Z,42.42,-124.42,11.0,7.0,360,16,21,5.0,30.129921,,,TRUE,TRUE,,,,,,HZ,CLR,,,,,,,,MVFR,,,,,,,,,,,,METAR,7.0
K4S1 122155Z AUTO 35019G23KT 4SM HZ CLR 11/06 A3013 RMK AO2,K4S1,2023-02-12T21:55:00Z,42.42,-124.42,11.0,6.0,350,19,23,4.0,30.129921,,,TRUE,TRUE,,,,,,HZ,CLR,,,,,,,,MVFR,,,,,,,,,,,,METAR,7.0
K4S1 122135Z AUTO 36018G25KT 4SM HZ CLR 11/06 A3014 RMK AO2,K4S1,2023-02-12T21:35:00Z,42.42,-124.42,11.0,6.0,360,18,25,4.0,30.138779,,,TRUE,TRUE,,,,,,HZ,CLR,,,,,,,,MVFR,,,,,,,,,,,,METAR,7.0
K4S1 122115Z AUTO 34017G22KT 4SM HZ CLR 11/07 A3014 RMK AO2,K4S1,2023-02-12T21:15:00Z,42.42,-124.42,11.0,7.0,340,17,22,4.0,30.138779,,,TRUE,TRUE,,,,,,HZ,CLR,,,,,,,,MVFR,,,,,,,,,,,,METAR,7.0
K4S1 122055Z AUTO 35014G20KT 5SM HZ CLR 11/07 A3013 RMK AO2,K4S1,2023-02-12T20:55:00Z,42.42,-124.42,11.0,7.0,350,14,20,5.0,30.129921,,,TRUE,TRUE,,,,,,HZ,CLR,,,,,,,,MVFR,,,,,,,,,,,,METAR,7.0
K4S1 122035Z AUTO 35016G21KT 5SM HZ CLR 11/06 A3014 RMK AO2,K4S1,2023-02-12T20:35:00Z,42.42,-124.42,11.0,6.0,350,16,21,5.0,30.138779,,,TRUE,TRUE,,,,,,HZ,CLR,,,,,,,,MVFR,,,,,,,,,,,,METAR,7.0
K4S1 122015Z AUTO 34014G20KT 5SM HZ CLR 11/07 A3014 RMK AO2,K4S1,2023-02-12T20:15:00Z,42.42,-124.42,11.0,7.0,340,14,20,5.0,30.138779,,,TRUE,TRUE,,,,,,HZ,CLR,,,,,,,,MVFR,,,,,,,,,,,,METAR,7.0
K4S1 121955Z AUTO 33011G14KT 3SM HZ CLR 13/06 A3014 RMK AO2,K4S1,2023-02-12T19:55:00Z,42.42,-124.42,13.0,6.0,330,11,14,3.0,30.138779,,,TRUE,TRUE,,,,,,HZ,CLR,,,,,,,,MVFR,,,,,,,,,,,,METAR,7.0
K4S1 121935Z AUTO 35007KT 5SM HZ CLR 11/05 A3014 RMK AO2,K4S1,2023-02-12T19:35:00Z,42.42,-124.42,11.0,5.0,350,7,,5.0,30.138779,,,TRUE,TRUE,,,,,,HZ,CLR,,,,,,,,MVFR,,,,,,,,,,,,METAR,7.0
K4S1 121915Z AUTO 34009KT 4SM HZ CLR 11/06 A3015 RMK AO2,K4S1,2023-02-12T19:15:00Z,42.42,-124.42,11.0,6.0,340,9,,4.0,30.15059,,,TRUE,TRUE,,,,,,HZ,CLR,,,,,,,,MVFR,,,,,,,,,,,,METAR,7.0
K4S1 121855Z AUTO 36004KT 5SM HZ CLR 12/04 A3015 RMK AO2,K4S1,2023-02-12T18:55:00Z,42.42,-124.42,12.0,4.0,360,4,,5.0,30.15059,,,TRUE,TRUE,,,,,,HZ,CLR,,,,,,,,MVFR,,,,,,,,,,,,METAR,7.0
K4S1 121835Z AUTO 04011KT 5SM HZ CLR 11/03 A3014 RMK AO2,K4S1,2023-02-12T18:35:00Z,42.42,-124.42,11.0,3.0,40,11,,5.0,30.138779,,,TRUE,TRUE,,,,,,HZ,CLR,,,,,,,,MVFR,,,,,,,,,,,,METAR,7.0
K4S1 121815Z AUTO 04007KT 7SM CLR 11/03 A3014 RMK AO2,K4S1,2023-02-12T18:15:00Z,42.42,-124.42,11.0,3.0,40,7,,7.0,30.138779,,,TRUE,TRUE,,,,,,,CLR,,,,,,,,VFR,,,,,,,,,,,,METAR,7.0
K4S1 121755Z AUTO 03009KT 7SM CLR 10/04 A3015 RMK AO2,K4S1,2023-02-12T17:55:00Z,42.42,-124.42,10.0,4.0,30,9,,7.0,30.15059,,,TRUE,TRUE,,,,,,,CLR,,,,,,,,VFR,,,,,,,,,,,,METAR,7.0
K4S1 121735Z AUTO 01003KT 5SM HZ CLR 10/03 A3015 RMK AO2,K4S1,2023-02-12T17:35:00Z,42.42,-124.42,10.0,3.0,10,3,,5.0,30.15059,,,TRUE,TRUE,,,,,,HZ,CLR,,,,,,,,MVFR,,,,,,,,,,,,METAR,7.0
K4S1 121715Z AUTO 02007KT 4SM HZ CLR 08/03 A3015 RMK AO2,K4S1,2023-02-12T17:15:00Z,42.42,-124.42,8.0,3.0,20,7,,4.0,30.15059,,,TRUE,TRUE,,,,,,HZ,CLR,,,,,,,,MVFR,,,,,,,,,,,,METAR,7.0
K4S1 121655Z AUTO 05009KT 7SM CLR 07/03 A3015 RMK AO2,K4S1,2023-02-12T16:55:00Z,42.42,-124.42,7.0,3.0,50,9,,7.0,30.15059,,,TRUE,TRUE,,,,,,,CLR,,,,,,,,VFR,,,,,,,,,,,,METAR,7.0
K4S1 121635Z AUTO 04010KT 5SM HZ CLR 07/02 A3014 RMK AO2,K4S1,2023-02-12T16:35:00Z,42.42,-124.42,7.0,2.0,40,10,,5.0,30.138779,,,TRUE,TRUE,,,,,,HZ,CLR,,,,,,,,MVFR,,,,,,,,,,,,METAR,7.0
K4S1 121615Z AUTO 05010KT 7SM CLR 06/02 A3015 RMK AO2,K4S1,2023-02-12T16:15:00Z,42.42,-124.42,6.0,2.0,50,10,,7.0,30.15059,,,TRUE,TRUE,,,,,,,CLR,,,,,,,,VFR,,,,,,,,,,,,METAR,7.0
K4S1 121555Z AUTO 04011KT 7SM CLR 06/02 A3015 RMK AO2,K4S1,2023-02-12T15:55:00Z,42.42,-124.42,6.0,2.0,40,11,,7.0,30.15059,,,TRUE,TRUE,,,,,,,CLR,,,,,,,,VFR,,,,,,,,,,,,METAR,7.0
K4S1 121535Z AUTO 04012KT 5SM HZ CLR 06/02 A3015 RMK AO2,K4S1,2023-02-12T15:35:00Z,42.42,-124.42,6.0,2.0,40,12,,5.0,30.15059,,,TRUE,TRUE,,,,,,HZ,CLR,,,,,,,,MVFR,,,,,,,,,,,,METAR,7.0
K4S1 121515Z AUTO 05016G22KT 7SM CLR 06/02 A3014 RMK AO2,K4S1,2023-02-12T15:15:00Z,42.42,-124.42,6.0,2.0,50,16,22,7.0,30.138779,,,TRUE,TRUE,,,,,,,CLR,,,,,,,,VFR,,,,,,,,,,,,METAR,7.0
K4S1 121455Z AUTO 06015KT 7SM CLR 06/02 A3012 RMK AO2,K4S1,2023-02-12T14:55:00Z,42.42,-124.42,6.0,2.0,60,15,,7.0,30.121063,,,TRUE,TRUE,,,,,,,CLR,,,,,,,,VFR,,,,,,,,,,,,METAR,7.0
K4S1 121435Z AUTO 04014KT 7SM CLR 06/02 A3012 RMK AO2,K4S1,2023-02-12T14:35:00Z,42.42,-124.42,6.0,2.0,40,14,,7.0,30.121063,,,TRUE,TRUE,,,,,,,CLR,,,,,,,,VFR,,,,,,,,,,,,METAR,7.0
K4S1 121415Z AUTO 05015KT 7SM CLR 06/02 A3013 RMK AO2,K4S1,2023-02-12T14:15:00Z,42.42,-124.42,6.0,2.0,50,15,,7.0,30.129921,,,TRUE,TRUE,,,,,,,CLR,,,,,,,,VFR,,,,,,,,,,,,METAR,7.0
K4S1 121355Z AUTO 04015KT 7SM CLR 06/02 A3013 RMK AO2,K4S1,2023-02-12T13:55:00Z,42.42,-124.42,6.0,2.0,40,15,,7.0,30.129921,,,TRUE,TRUE,,,,,,,CLR,,,,,,,,VFR,,,,,,,,,,,,METAR,7.0
K4S1 121335Z AUTO 04017KT 7SM CLR 06/02 A3013 RMK AO2,K4S1,2023-02-12T13:35:00Z,42.42,-124.42,6.0,2.0,40,17,,7.0,30.129921,,,TRUE,TRUE,,,,,,,CLR,,,,,,,,VFR,,,,,,,,,,,,METAR,7.0
K4S1 121315Z AUTO 04016G19KT 10SM CLR 07/02 A3013 RMK AO2,K4S1,2023-02-12T13:15:00Z,42.42,-124.42,7.0,2.0,40,16,19,10.0,30.129921,,,TRUE,TRUE,,,,,,,CLR,,,,,,,,VFR,,,,,,,,,,,,METAR,7.0
K4S1 121255Z AUTO 05010KT 10SM CLR 07/02 A3014 RMK AO2,K4S1,2023-02-12T12:55:00Z,42.42,-124.42,7.0,2.0,50,10,,10.0,30.138779,,,TRUE,TRUE,,,,,,,CLR,,,,,,,,VFR,,,,,,,,,,,,METAR,7.0
K4S1 121235Z AUTO 04011KT 7SM CLR 07/02 A3014 RMK AO2,K4S1,2023-02-12T12:35:00Z,42.42,-124.42,7.0,2.0,40,11,,7.0,30.138779,,,TRUE,TRUE,,,,,,,CLR,,,,,,,,VFR,,,,,,,,,,,,METAR,7.0
K4S1 121215Z AUTO 05013KT 7SM CLR 07/02 A3014 RMK AO2,K4S1,2023-02-12T12:15:00Z,42.42,-124.42,7.0,2.0,50,13,,7.0,30.138779,,,TRUE,TRUE,,,,,,,CLR,,,,,,,,VFR,,,,,,,,,,,,METAR,7.0
K4S1 121155Z AUTO 05013G20KT 10SM CLR 07/02 A3014 RMK AO2,K4S1,2023-02-12T11:55:00Z,42.42,-124.42,7.0,2.0,50,13,20,10.0,30.138779,,,TRUE,TRUE,,,,,,,CLR,,,,,,,,VFR,,,,,,,,,,,,METAR,7.0
K4S1 121135Z AUTO 06015KT 7SM CLR 06/02 A3014 RMK AO2,K4S1,2023-02-12T11:35:00Z,42.42,-124.42,6.0,2.0,60,15,,7.0,30.138779,,,TRUE,TRUE,,,,,,,CLR,,,,,,,,VFR,,,,,,,,,,,,METAR,7.0
K4S1 121115Z AUTO 05014KT 7SM CLR 07/02 A3014 RMK AO2,K4S1,2023-02-12T11:15:00Z,42.42,-124.42,7.0,2.0,50,14,,7.0,30.138779,,,TRUE,TRUE,,,,,,,CLR,,,,,,,,VFR,,,,,,,,,,,,METAR,7.0
K4S1 121055Z AUTO 01009KT 7SM CLR 07/02 A3015 RMK AO2,K4S1,2023-02-12T10:55:00Z,42.42,-124.42,7.0,2.0,10,9,,7.0,30.15059,,,TRUE,TRUE,,,,,,,CLR,,,,,,,,VFR,,,,,,,,,,,,METAR,7.0
K4S1 121035Z AUTO 04007KT 5SM HZ CLR 07/02 A3015 RMK AO2,K4S1,2023-02-12T10:35:00Z,42.42,-124.42,7.0,2.0,40,7,,5.0,30.15059,,,TRUE,TRUE,,,,,,HZ,CLR,,,,,,,,MVFR,,,,,,,,,,,,METAR,7.0
K4S1 121015Z AUTO 03009KT 7SM CLR 08/02 A3014 RMK AO2,K4S1,2023-02-12T10:15:00Z,42.42,-124.42,8.0,2.0,30,9,,7.0,30.138779,,,TRUE,TRUE,,,,,,,CLR,,,,,,,,VFR,,,,,,,,,,,,METAR,7.0
K4S1 120955Z AUTO 02011KT 7SM CLR 08/02 A3014 RMK AO2,K4S1,2023-02-12T09:55:00Z,42.42,-124.42,8.0,2.0,20,11,,7.0,30.138779,,,TRUE,TRUE,,,,,,,CLR,,,,,,,,VFR,,,,,,,,,,,,METAR,7.0
K4S1 120935Z AUTO 04014KT 7SM CLR 07/02 A3012 RMK AO2,K4S1,2023-02-12T09:35:00Z,42.42,-124.42,7.0,2.0,40,14,,7.0,30.121063,,,TRUE,TRUE,,,,,,,CLR,,,,,,,,VFR,,,,,,,,,,,,METAR,7.0
K4S1 120915Z AUTO 04013KT 7SM CLR 08/02 A3012 RMK AO2,K4S1,2023-02-12T09:15:00Z,42.42,-124.42,8.0,2.0,40,13,,7.0,30.121063,,,TRUE,TRUE,,,,,,,CLR,,,,,,,,VFR,,,,,,,,,,,,METAR,7.0
K4S1 120855Z AUTO 04013G18KT 7SM CLR 08/02 A3013 RMK AO2,K4S1,2023-02-12T08:55:00Z,42.42,-124.42,8.0,2.0,40,13,18,7.0,30.129921,,,TRUE,TRUE,,,,,,,CLR,,,,,,,,VFR,,,,,,,,,,,,METAR,7.0
K4S1 120835Z AUTO 03014G21KT 7SM CLR 09/02 A3013 RMK AO2,K4S1,2023-02-12T08:35:00Z,42.42,-124.42,9.0,2.0,30,14,21,7.0,30.129921,,,TRUE,TRUE,,,,,,,CLR,,,,,,,,VFR,,,,,,,,,,,,METAR,7.0
K4S1 120815Z AUTO 03013G17KT 7SM CLR 09/02 A3013 RMK AO2,K4S1,2023-02-12T08:15:00Z,42.42,-124.42,9.0,2.0,30,13,17,7.0,30.129921,,,TRUE,TRUE,,,,,,,CLR,,,,,,,,VFR,,,,,,,,,,,,METAR,7.0
K4S1 120755Z AUTO 02016G19KT 7SM CLR 10/02 A3013 RMK AO2,K4S1,2023-02-12T07:55:00Z,42.42,-124.42,10.0,2.0,20,16,19,7.0,30.129921,,,TRUE,TRUE,,,,,,,CLR,,,,,,,,VFR,,,,,,,,,,,,METAR,7.0
K4S1 120735Z AUTO 02015G20KT 7SM CLR 10/02 A3013 RMK AO2,K4S1,2023-02-12T07:35:00Z,42.42,-124.42,10.0,2.0,20,15,20,7.0,30.129921,,,TRUE,TRUE,,,,,,,CLR,,,,,,,,VFR,,,,,,,,,,,,METAR,7.0
K4S1 120715Z AUTO 36016G21KT 10SM CLR 10/02 A3013 RMK AO2,K4S1,2023-02-12T07:15:00Z,42.42,-124.42,10.0,2.0,360,16,21,10.0,30.129921,,,TRUE,TRUE,,,,,,,CLR,,,,,,,,VFR,,,,,,,,,,,,METAR,7.0
K4S1 120655Z AUTO 02013G20KT 7SM CLR 10/01 A3013 RMK AO2,K4S1,2023-02-12T06:55:00Z,42.42,-124.42,10.0,1.0,20,13,20,7.0,30.129921,,,TRUE,TRUE,,,,,,,CLR,,,,,,,,VFR,,,,,,,,,,,,METAR,7.0
K4S1 120635Z AUTO 03015G19KT 7SM CLR 10/02 A3013 RMK AO2,K4S1,2023-02-12T06:35:00Z,42.42,-124.42,10.0,2.0,30,15,19,7.0,30.129921,,,TRUE,TRUE,,,,,,,CLR,,,,,,,,VFR,,,,,,,,,,,,METAR,7.0
K4S1 120615Z AUTO 03015G23KT 7SM CLR 10/02 A3012 RMK AO2,K4S1,2023-02-12T06:15:00Z,42.42,-124.42,10.0,2.0,30,15,23,7.0,30.121063,,,TRUE,TRUE,,,,,,,CLR,,,,,,,,VFR,,,,,,,,,,,,METAR,7.0
K4S1 120555Z AUTO 05014KT 7SM CLR 08/02 A3012 RMK AO2,K4S1,2023-02-12T05:55:00Z,42.42,-124.42,8.0,2.0,50,14,,7.0,30.121063,,,TRUE,TRUE,,,,,,,CLR,,,,,,,,VFR,,,,,,,,,,,,METAR,7.0
K4S1 120535Z AUTO 03014KT 7SM CLR 09/03 A3012 RMK AO2,K4S1,2023-02-12T05:35:00Z,42.42,-124.42,9.0,3.0,30,14,,7.0,30.121063,,,TRUE,TRUE,,,,,,,CLR,,,,,,,,VFR,,,,,,,,,,,,METAR,7.0
K4S1 120515Z AUTO 03012KT 7SM CLR 08/03 A3012 RMK AO2,K4S1,2023-02-12T05:15:00Z,42.42,-124.42,8.0,3.0,30,12,,7.0,30.121063,,,TRUE,TRUE,,,,,,,CLR,,,,,,,,VFR,,,,,,,,,,,,METAR,7.0
K4S1 120455Z AUTO 03013KT 7SM CLR 08/03 A3012 RMK AO2,K4S1,2023-02-12T04:55:00Z,42.42,-124.42,8.0,3.0,30,13,,7.0,30.121063,,,TRUE,TRUE,,,,,,,CLR,,,,,,,,VFR,,,,,,,,,,,,METAR,7.0
K4S1 120435Z AUTO 02014G22KT 7SM CLR 08/04 A3011 RMK AO2,K4S1,2023-02-12T04:35:00Z,42.42,-124.42,8.0,4.0,20,14,22,7.0,30.109253,,,TRUE,TRUE,,,,,,,CLR,,,,,,,,VFR,,,,,,,,,,,,METAR,7.0
K4S1 120415Z AUTO 36014KT 7SM CLR 09/05 A3011 RMK AO2,K4S1,2023-02-12T04:15:00Z,42.42,-124.42,9.0,5.0,360,14,,7.0,30.109253,,,TRUE,TRUE,,,,,,,CLR,,,,,,,,VFR,,,,,,,,,,,,METAR,7.0
K4S1 120355Z AUTO 35013G21KT 7SM CLR 09/06 A3011 RMK AO2,K4S1,2023-02-12T03:55:00Z,42.42,-124.42,9.0,6.0,350,13,21,7.0,30.109253,,,TRUE,TRUE,,,,,,,CLR,,,,,,,,VFR,,,,,,,,,,,,METAR,7.0
K4S1 120335Z AUTO 36014G20KT 5SM HZ CLR 09/06 A3011 RMK AO2,K4S1,2023-02-12T03:35:00Z,42.42,-124.42,9.0,6.0,360,14,20,5.0,30.109253,,,TRUE,TRUE,,,,,,HZ,CLR,,,,,,,,MVFR,,,,,,,,,,,,METAR,7.0
K4S1 120315Z AUTO 36012G19KT 5SM BR CLR 08/06 A3011 RMK AO2,K4S1,2023-02-12T03:15:00Z,42.42,-124.42,8.0,6.0,360,12,19,5.0,30.109253,,,TRUE,TRUE,,,,,,BR,CLR,,,,,,,,MVFR,,,,,,,,,,,,METAR,7.0
K4S1 120255Z AUTO 35013G17KT 5SM HZ CLR 09/06 A3011 RMK AO2,K4S1,2023-02-12T02:55:00Z,42.42,-124.42,9.0,6.0,350,13,17,5.0,30.109253,,,TRUE,TRUE,,,,,,HZ,CLR,,,,,,,,MVFR,,,,,,,,,,,,METAR,7.0
K4S1 120235Z AUTO 35013G20KT 5SM HZ CLR 09/06 A3011 RMK AO2,K4S1,2023-02-12T02:35:00Z,42.42,-124.42,9.0,6.0,350,13,20,5.0,30.109253,,,TRUE,TRUE,,,,,,HZ,CLR,,,,,,,,MVFR,,,,,,,,,,,,METAR,7.0
K4S1 120215Z AUTO 35013G24KT 5SM HZ CLR 09/06 A3011 RMK AO2,K4S1,2023-02-12T02:15:00Z,42.42,-124.42,9.0,6.0,350,13,24,5.0,30.109253,,,TRUE,TRUE,,,,,,HZ,CLR,,,,,,,,MVFR,,,,,,,,,,,,METAR,7.0
K4S1 120155Z AUTO 35017G23KT 5SM HZ CLR 09/06 A3010 RMK AO2,K4S1,2023-02-12T01:55:00Z,42.42,-124.42,9.0,6.0,350,17,23,5.0,30.100393,,,TRUE,TRUE,,,,,,HZ,CLR,,,,,,,,MVFR,,,,,,,,,,,,METAR,7.0
K4S1 120135Z AUTO 35016G23KT 4SM HZ CLR 09/06 A3009 RMK AO2,K4S1,2023-02-12T01:35:00Z,42.42,-124.42,9.0,6.0,350,16,23,4.0,30.088583,,,TRUE,TRUE,,,,,,HZ,CLR,,,,,,,,MVFR,,,,,,,,,,,,METAR,7.0
K4S1 120115Z AUTO 36018G25KT 4SM HZ CLR 10/06 A3009 RMK AO2,K4S1,2023-02-12T01:15:00Z,42.42,-124.42,10.0,6.0,360,18,25,4.0,30.088583,,,TRUE,TRUE,,,,,,HZ,CLR,,,,,,,,MVFR,,,,,,,,,,,,METAR,7.0
K4S1 120055Z AUTO 36017G25KT 4SM HZ CLR 10/06 A3009 RMK AO2,K4S1,2023-02-12T00:55:00Z,42.42,-124.42,10.0,6.0,360,17,25,4.0,30.088583,,,TRUE,TRUE,,,,,,HZ,CLR,,,,,,,,MVFR,,,,,,,,,,,,METAR,7.0
K4S1 120035Z AUTO 35017G25KT 4SM HZ CLR 10/06 A3009 RMK AO2,K4S1,2023-02-12T00:35:00Z,42.42,-124.42,10.0,6.0,350,17,25,4.0,30.088583,,,TRUE,TRUE,,,,,,HZ,CLR,,,,,,,,MVFR,,,,,,,,,,,,METAR,7.0
K4S1 120015Z AUTO 35021G28KT 5SM HZ CLR 10/06 A3010 RMK AO2,K4S1,2023-02-12T00:15:00Z,42.42,-124.42,10.0,6.0,350,21,28,5.0,30.100393,,,TRUE,TRUE,,,,,,HZ,CLR,,,,,,,,MVFR,,,,,,,,,,,,METAR,7.0
K4S1 112355Z AUTO 36021G28KT 4SM HZ CLR 10/06 A3010 RMK AO2,K4S1,2023-02-11T23:55:00Z,42.42,-124.42,10.0,6.0,360,21,28,4.0,30.100393,,,TRUE,TRUE,,,,,,HZ,CLR,,,,,,,,MVFR,,,,,,,,,,,,METAR,7.0
K4S1 112335Z AUTO 36018G27KT 3SM HZ CLR 10/06 A3010 RMK AO2,K4S1,2023-02-11T23:35:00Z,42.42,-124.42,10.0,6.0,360,18,27,3.0,30.100393,,,TRUE,TRUE,,,,,,HZ,CLR,,,,,,,,MVFR,,,,,,,,,,,,METAR,7.0
K4S1 112315Z AUTO 35019G26KT 4SM HZ CLR 11/06 A3010 RMK AO2,K4S1,2023-02-11T23:15:00Z,42.42,-124.42,11.0,6.0,350,19,26,4.0,30.100393,,,TRUE,TRUE,,,,,,HZ,CLR,,,,,,,,MVFR,,,,,,,,,,,,METAR,7.0
K4S1 112255Z AUTO 35017G25KT 3SM HZ CLR 11/07 A3010 RMK AO2,K4S1,2023-02-11T22:55:00Z,42.42,-124.42,11.0,7.0,350,17,25,3.0,30.100393,,,TRUE,TRUE,,,,,,HZ,CLR,,,,,,,,MVFR,,,,,,,,,,,,METAR,7.0
K4S1 112235Z AUTO 34021G26KT 3SM HZ CLR 11/06 A3011 RMK AO2,K4S1,2023-02-11T22:35:00Z,42.42,-124.42,11.0,6.0,340,21,26,3.0,30.109253,,,TRUE,TRUE,,,,,,HZ,CLR,,,,,,,,MVFR,,,,,,,,,,,,METAR,7.0
K4S1 112215Z AUTO 34018G25KT 3SM HZ CLR 11/06 A3010 RMK AO2,K4S1,2023-02-11T22:15:00Z,42.42,-124.42,11.0,6.0,340,18,25,3.0,30.100393,,,TRUE,TRUE,,,,,,HZ,CLR,,,,,,,,MVFR,,,,,,,,,,,,METAR,7.0
K4S1 112155Z AUTO 34018G24KT 3SM HZ CLR 11/06 A3010 RMK AO2,K4S1,2023-02-11T21:55:00Z,42.42,-124.42,11.0,6.0,340,18,24,3.0,30.100393,,,TRUE,TRUE,,,,,,HZ,CLR,,,,,,,,MVFR,,,,,,,,,,,,METAR,7.0
K4S1 112135Z AUTO 35018G25KT 3SM HZ CLR 11/06 A3012 RMK AO2,K4S1,2023-02-11T21:35:00Z,42.42,-124.42,11.0,6.0,350,18,25,3.0,30.121063,,,TRUE,TRUE,,,,,,HZ,CLR,,,,,,,,MVFR,,,,,,,,,,,,METAR,7.0
K4S1 112115Z AUTO 34015G22KT 4SM HZ CLR 12/06 A3012 RMK AO2,K4S1,2023-02-11T21:15:00Z,42.42,-124.42,12.0,6.0,340,15,22,4.0,30.121063,,,TRUE,TRUE,,,,,,HZ,CLR,,,,,,,,MVFR,,,,,,,,,,,,METAR,7.0
K4S1 111735Z AUTO 36015G22KT 5SM HZ CLR 09/05 A3015 RMK AO2,K4S1,2023-02-11T17:35:00Z,42.42,-124.42,9.0,5.0,360,15,22,5.0,30.15059,,,TRUE,TRUE,,,,,,HZ,CLR,,,,,,,,MVFR,,,,,,,,,,,,METAR,7.0
K4S1 111715Z AUTO 35017G23KT 4SM HZ CLR 08/05 A3016 RMK AO2,K4S1,2023-02-11T17:15:00Z,42.42,-124.42,8.0,5.0,350,17,23,4.0,30.159449,,,TRUE,TRUE,,,,,,HZ,CLR,,,,,,,,MVFR,,,,,,,,,,,,METAR,7.0
K4S1 111655Z AUTO 35011G17KT 4SM HZ CLR 08/05 A3016 RMK AO2,K4S1,2023-02-11T16:55:00Z,42.42,-124.42,8.0,5.0,350,11,17,4.0,30.159449,,,TRUE,TRUE,,,,,,HZ,CLR,,,,,,,,MVFR,,,,,,,,,,,,METAR,7.0
K4S1 111635Z AUTO 36012G19KT 5SM HZ CLR 08/05 A3016 RMK AO2,K4S1,2023-02-11T16:35:00Z,42.42,-124.42,8.0,5.0,360,12,19,5.0,30.159449,,,TRUE,TRUE,,,,,,HZ,CLR,,,,,,,,MVFR,,,,,,,,,,,,METAR,7.0
K4S1 111615Z AUTO 36016G19KT 5SM HZ CLR 08/04 A3015 RMK AO2,K4S1,2023-02-11T16:15:00Z,42.42,-124.42,8.0,4.0,360,16,19,5.0,30.15059,,,TRUE,TRUE,,,,,,HZ,CLR,,,,,,,,MVFR,,,,,,,,,,,,METAR,7.0
K4S1 111555Z AUTO 36011KT 5SM HZ CLR 07/04 A3015 RMK AO2,K4S1,2023-02-11T15:55:00Z,42.42,-124.42,7.0,4.0,360,11,,5.0,30.15059,,,TRUE,TRUE,,,,,,HZ,CLR,,,,,,,,MVFR,,,,,,,,,,,,METAR,7.0
K4S1 111535Z AUTO 36013KT 4SM HZ CLR 07/04 A3013 RMK AO2,K4S1,2023-02-11T15:35:00Z,42.42,-124.42,7.0,4.0,360,13,,4.0,30.129921,,,TRUE,TRUE,,,,,,HZ,CLR,,,,,,,,MVFR,,,,,,,,,,,,METAR,7.0
K4S1 111515Z AUTO 36015G20KT 7SM CLR 07/04 A3014 RMK AO2,K4S1,2023-02-11T15:15:00Z,42.42,-124.42,7.0,4.0,360,15,20,7.0,30.138779,,,TRUE,TRUE,,,,,,,CLR,,,,,,,,VFR,,,,,,,,,,,,METAR,7.0
K4S1 111455Z AUTO 36015G21KT 5SM HZ CLR 07/05 A3014 RMK AO2,K4S1,2023-02-11T14:55:00Z,42.42,-124.42,7.0,5.0,360,15,21,5.0,30.138779,,,TRUE,TRUE,,,,,,HZ,CLR,,,,,,,,MVFR,,,,,,,,,,,,METAR,7.0
K4S1 111435Z AUTO 36015G22KT 5SM HZ CLR 08/05 A3014 RMK AO2,K4S1,2023-02-11T14:35:00Z,42.42,-124.42,8.0,5.0,360,15,22,5.0,30.138779,,,TRUE,TRUE,,,,,,HZ,CLR,,,,,,,,MVFR,,,,,,,,,,,,METAR,7.0
K4S1 111415Z AUTO 36016G23KT 5SM HZ CLR 08/05 A3014 RMK AO2,K4S1,2023-02-11T14:15:00Z,42.42,-124.42,8.0,5.0,360,16,23,5.0,30.138779,,,TRUE,TRUE,,,,,,HZ,CLR,,,,,,,,MVFR,,,,,,,,,,,,METAR,7.0
K4S1 111355Z AUTO 36018G25KT 5SM HZ CLR 08/05 A3014 RMK AO2,K4S1,2023-02-11T13:55:00Z,42.42,-124.42,8.0,5.0,360,18,25,5.0,30.138779,,,TRUE,TRUE,,,,,,HZ,CLR,,,,,,,,MVFR,,,,,,,,,,,,METAR,7.0
K4S1 111335Z AUTO 36016G24KT 5SM HZ CLR 08/05 A3015 RMK AO2,K4S1,2023-02-11T13:35:00Z,42.42,-124.42,8.0,5.0,360,16,24,5.0,30.15059,,,TRUE,TRUE,,,,,,HZ,CLR,,,,,,,,MVFR,,,,,,,,,,,,METAR,7.0
K4S1 111315Z AUTO 36015G25KT 5SM HZ CLR 08/05 A3014 RMK AO2,K4S1,2023-02-11T13:15:00Z,42.42,-124.42,8.0,5.0,360,15,25,5.0,30.138779,,,TRUE,TRUE,,,,,,HZ,CLR,,,,,,,,MVFR,,,,,,,,,,,,METAR,7.0
K4S1 111255Z AUTO 01019G28KT 5SM BR CLR 08/06 A3014 RMK AO2,K4S1,2023-02-11T12:55:00Z,42.42,-124.42,8.0,6.0,10,19,28,5.0,30.138779,,,TRUE,TRUE,,,,,,BR,CLR,,,,,,,,MVFR,,,,,,,,,,,,METAR,7.0
K4S1 111235Z AUTO 01014G23KT 5SM BR CLR 08/06 A3014 RMK AO2,K4S1,2023-02-11T12:35:00Z,42.42,-124.42,8.0,6.0,10,14,23,5.0,30.138779,,,TRUE,TRUE,,,,,,BR,CLR,,,,,,,,MVFR,,,,,,,,,,,,METAR,7.0
K4S1 111215Z AUTO 36014G20KT 5SM BR CLR 08/06 A3014 RMK AO2,K4S1,2023-02-11T12:15:00Z,42.42,-124.42,8.0,6.0,360,14,20,5.0,30.138779,,,TRUE,TRUE,,,,,,BR,CLR,,,,,,,,MVFR,,,,,,,,,,,,METAR,7.0
K4S1 111155Z AUTO 36013G21KT 5SM BR CLR 08/06 A3015 RMK AO2,K4S1,2023-02-11T11:55:00Z,42.42,-124.42,8.0,6.0,360,13,21,5.0,30.15059,,,TRUE,TRUE,,,,,,BR,CLR,,,,,,,,MVFR,,,,,,,,,,,,METAR,7.0
K4S1 111135Z AUTO 36011G22KT 5SM BR CLR 08/06 A3014 RMK AO2,K4S1,2023-02-11T11:35:00Z,42.42,-124.42,8.0,6.0,360,11,22,5.0,30.138779,,,TRUE,TRUE,,,,,,BR,CLR,,,,,,,,MVFR,,,,,,,,,,,,METAR,7.0
K4S1 111115Z AUTO 36013G17KT 5SM BR CLR 08/06 A3015 RMK AO2,K4S1,2023-02-11T11:15:00Z,42.42,-124.42,8.0,6.0,360,13,17,5.0,30.15059,,,TRUE,TRUE,,,,,,BR,CLR,,,,,,,,MVFR,,,,,,,,,,,,METAR,7.0
K4S1 111055Z AUTO 36016KT 5SM BR CLR 08/07 A3014 RMK AO2,K4S1,2023-02-11T10:55:00Z,42.42,-124.42,8.0,7.0,360,16,,5.0,30.138779,,,TRUE,TRUE,,,,,,BR,CLR,,,,,,,,MVFR,,,,,,,,,,,,METAR,7.0
K4S1 111035Z AUTO 01016G22KT 5SM BR CLR 08/07 A3015 RMK AO2,K4S1,2023-02-11T10:35:00Z,42.42,-124.42,8.0,7.0,10,16,22,5.0,30.15059,,,TRUE,TRUE,,,,,,BR,CLR,,,,,,,,MVFR,,,,,,,,,,,,METAR,7.0
K4S1 111015Z AUTO 01016KT 5SM BR CLR 08/07 A3014 RMK AO2,K4S1,2023-02-11T10:15:00Z,42.42,-124.42,8.0,7.0,10,16,,5.0,30.138779,,,TRUE,TRUE,,,,,,BR,CLR,,,,,,,,MVFR,,,,,,,,,,,,METAR,7.0
K4S1 110955Z AUTO 36015G22KT 5SM BR CLR 08/07 A3014 RMK AO2,K4S1,2023-02-11T09:55:00Z,42.42,-124.42,8.0,7.0,360,15,22,5.0,30.138779,,,TRUE,TRUE,,,,,,BR,CLR,,,,,,,,MVFR,,,,,,,,,,,,METAR,7.0
K4S1 110935Z AUTO 36014G22KT 5SM BR CLR 08/07 A3014 RMK AO2,K4S1,2023-02-11T09:35:00Z,42.42,-124.42,8.0,7.0,360,14,22,5.0,30.138779,,,TRUE,TRUE,,,,,,BR,CLR,,,,,,,,MVFR,,,,,,,,,,,,METAR,7.0
K4S1 110915Z AUTO 01013G19KT 5SM BR CLR 08/07 A3014 RMK AO2,K4S1,2023-02-11T09:15:00Z,42.42,-124.42,8.0,7.0,10,13,19,5.0,30.138779,,,TRUE,TRUE,,,,,,BR,CLR,,,,,,,,MVFR,,,,,,,,,,,,METAR,7.0
K4S1 110855Z AUTO 02010KT 7SM CLR 08/06 A3014 RMK AO2,K4S1,2023-02-11T08:55:00Z,42.42,-124.42,8.0,6.0,20,10,,7.0,30.138779,,,TRUE,TRUE,,,,,,,CLR,,,,,,,,VFR,,,,,,,,,,,,METAR,7.0
K4S1 110835Z AUTO 02012G22KT 5SM BR CLR 08/06 A3014 RMK AO2,K4S1,2023-02-11T08:35:00Z,42.42,-124.42,8.0,6.0,20,12,22,5.0,30.138779,,,TRUE,TRUE,,,,,,BR,CLR,,,,,,,,MVFR,,,,,,,,,,,,METAR,7.0
K4S1 110815Z AUTO 36014G21KT 5SM BR CLR 08/07 A3014 RMK AO2,K4S1,2023-02-11T08:15:00Z,42.42,-124.42,8.0,7.0,360,14,21,5.0,30.138779,,,TRUE,TRUE,,,,,,BR,CLR,,,,,,,,MVFR,,,,,,,,,,,,METAR,7.0
K4S1 110755Z AUTO 01015G19KT 5SM BR CLR 08/06 A3014 RMK AO2,K4S1,2023-02-11T07:55:00Z,42.42,-124.42,8.0,6.0,10,15,19,5.0,30.138779,,,TRUE,TRUE,,,,,,BR,CLR,,,,,,,,MVFR,,,,,,,,,,,,METAR,7.0
K4S1 110735Z AUTO 01012G18KT 7SM CLR 08/07 A3014 RMK AO2,K4S1,2023-02-11T07:35:00Z,42.42,-124.42,8.0,7.0,10,12,18,7.0,30.138779,,,TRUE,TRUE,,,,,,,CLR,,,,,,,,VFR,,,,,,,,,,,,METAR,7.0
K4S1 110715Z AUTO 01013G19KT 7SM CLR 08/06 A3014 RMK AO2,K4S1,2023-02-11T07:15:00Z,42.42,-124.42,8.0,6.0,10,13,19,7.0,30.138779,,,TRUE,TRUE,,,,,,,CLR,,,,,,,,VFR,,,,,,,,,,,,METAR,7.0
K4S1 110655Z AUTO 04007KT 7SM CLR 07/05 A3014 RMK AO2,K4S1,2023-02-11T06:55:00Z,42.42,-124.42,7.0,5.0,40,7,,7.0,30.138779,,,TRUE,TRUE,,,,,,,CLR,,,,,,,,VFR,,,,,,,,,,,,METAR,7.0
K4S1 110635Z AUTO 03010KT 7SM CLR 07/05 A3014 RMK AO2,K4S1,2023-02-11T06:35:00Z,42.42,-124.42,7.0,5.0,30,10,,7.0,30.138779,,,TRUE,TRUE,,,,,,,CLR,,,,,,,,VFR,,,,,,,,,,,,METAR,7.0
K4S1 110615Z AUTO 02010KT 7SM CLR 07/06 A3014 RMK AO2,K4S1,2023-02-11T06:15:00Z,42.42,-124.42,7.0,6.0,20,10,,7.0,30.138779,,,TRUE,TRUE,,,,,,,CLR,,,,,,,,VFR,,,,,,,,,,,,METAR,7.0
K4S1 110555Z AUTO 02010KT 7SM CLR 07/06 A3014 RMK AO2,K4S1,2023-02-11T05:55:00Z,42.42,-124.42,7.0,6.0,20,10,,7.0,30.138779,,,TRUE,TRUE,,,,,,,CLR,,,,,,,,VFR,,,,,,,,,,,,METAR,7.0
K4S1 110535Z AUTO 04008KT 7SM CLR 07/06 A3014 RMK AO2,K4S1,2023-02-11T05:35:00Z,42.42,-124.42,7.0,6.0,40,8,,7.0,30.138779,,,TRUE,TRUE,,,,,,,CLR,,,,,,,,VFR,,,,,,,,,,,,METAR,7.0
K4S1 110515Z AUTO 03006KT 7SM CLR 07/06 A3015 RMK AO2,K4S1,2023-02-11T05:15:00Z,42.42,-124.42,7.0,6.0,30,6,,7.0,30.15059,,,TRUE,TRUE,,,,,,,CLR,,,,,,,,VFR,,,,,,,,,,,,METAR,7.0
K4S1 110455Z AUTO 03008KT 7SM CLR 07/06 A3014 RMK AO2,K4S1,2023-02-11T04:55:00Z,42.42,-124.42,7.0,6.0,30,8,,7.0,30.138779,,,TRUE,TRUE,,,,,,,CLR,,,,,,,,VFR,,,,,,,,,,,,METAR,7.0
K4S1 110435Z AUTO 01003KT 10SM CLR 07/06 A3015 RMK AO2,K4S1,2023-02-11T04:35:00Z,42.42,-124.42,7.0,6.0,10,3,,10.0,30.15059,,,TRUE,TRUE,,,,,,,CLR,,,,,,,,VFR,,,,,,,,,,,,METAR,7.0
K4S1 110415Z AUTO 05005KT 7SM CLR 07/06 A3014 RMK AO2,K4S1,2023-02-11T04:15:00Z,42.42,-124.42,7.0,6.0,50,5,,7.0,30.138779,,,TRUE,TRUE,,,,,,,CLR,,,,,,,,VFR,,,,,,,,,,,,METAR,7.0
K4S1 110355Z AUTO 04007KT 10SM -DZ CLR 07/06 A3014 RMK AO2,K4S1,2023-02-11T03:55:00Z,42.42,-124.42,7.0,6.0,40,7,,10.0,30.138779,,,TRUE,TRUE,,,,,,-DZ,CLR,,,,,,,,VFR,,,,,,,,,,,,METAR,7.0
K4S1 110335Z AUTO 04005KT 10SM -DZ CLR 08/07 A3014 RMK AO2,K4S1,2023-02-11T03:35:00Z,42.42,-124.42,8.0,7.0,40,5,,10.0,30.138779,,,TRUE,TRUE,,,,,,-DZ,CLR,,,,,,,,VFR,,,,,,,,,,,,METAR,7.0
K4S1 110315Z AUTO 05007KT 10SM CLR 07/06 A3015 RMK AO2,K4S1,2023-02-11T03:15:00Z,42.42,-124.42,7.0,6.0,50,7,,10.0,30.15059,,,TRUE,TRUE,,,,,,,CLR,,,,,,,,VFR,,,,,,,,,,,,METAR,7.0
K4S1 110255Z AUTO 05006KT 10SM CLR 07/06 A3014 RMK AO2,K4S1,2023-02-11T02:55:00Z,42.42,-124.42,7.0,6.0,50,6,,10.0,30.138779,,,TRUE,TRUE,,,,,,,CLR,,,,,,,,VFR,,,,,,,,,,,,METAR,7.0
K4S1 110235Z AUTO 05006KT 10SM CLR 07/06 A3014 RMK AO2,K4S1,2023-02-11T02:35:00Z,42.42,-124.42,7.0,6.0,50,6,,10.0,30.138779,,,TRUE,TRUE,,,,,,,CLR,,,,,,,,VFR,,,,,,,,,,,,METAR,7.0
K4S1 110215Z AUTO 05007KT 7SM CLR 07/06 A3015 RMK AO2,K4S1,2023-02-11T02:15:00Z,42.42,-124.42,7.0,6.0,50,7,,7.0,30.15059,,,TRUE,TRUE,,,,,,,CLR,,,,,,,,VFR,,,,,,,,,,,,METAR,7.0
K4S1 110155Z AUTO 05005KT 7SM CLR 07/06 A3014 RMK AO2,K4S1,2023-02-11T01:55:00Z,42.42,-124.42,7.0,6.0,50,5,,7.0,30.138779,,,TRUE,TRUE,,,,,,,CLR,,,,,,,,VFR,,,,,,,,,,,,METAR,7.0
K4S1 110135Z AUTO 00000KT 5SM BR CLR 08/06 A3014 RMK AO2,K4S1,2023-02-11T01:35:00Z,42.42,-124.42,8.0,6.0,0,0,,5.0,30.138779,,,TRUE,TRUE,,,,,,BR,CLR,,,,,,,,MVFR,,,,,,,,,,,,METAR,7.0
K4S1 110115Z AUTO 00000KT 10SM -RA CLR 08/06 A3014 RMK AO2,K4S1,2023-02-11T01:15:00Z,42.42,-124.42,8.0,6.0,0,0,,10.0,30.138779,,,TRUE,TRUE,,,,,,-RA,CLR,,,,,,,,VFR,,,,,,,,,,,,METAR,7.0
K4S1 110055Z AUTO 00000KT 10SM -RA CLR 08/06 A3014 RMK AO2,K4S1,2023-02-11T00:55:00Z,42.42,-124.42,8.0,6.0,0,0,,10.0,30.138779,,,TRUE,TRUE,,,,,,-RA,CLR,,,,,,,,VFR,,,,,,,,,,,,METAR,7.0
K4S1 110035Z AUTO 03003KT 10SM -RA CLR 08/06 A3014 RMK AO2,K4S1,2023-02-11T00:35:00Z,42.42,-124.42,8.0,6.0,30,3,,10.0,30.138779,,,TRUE,TRUE,,,,,,-RA,CLR,,,,,,,,VFR,,,,,,,,,,,,METAR,7.0
K4S1 110015Z AUTO 00000KT 2 1/2SM -RA CLR 10/05 A3013 RMK AO2,K4S1,2023-02-11T00:15:00Z,42.42,-124.42,10.0,5.0,0,0,,2.5,30.129921,,,TRUE,TRUE,,,,,,-RA,CLR,,,,,,,,IFR,,,,,,,,,,,,METAR,7.0
K4S1 102355Z AUTO 22004KT 1 3/4SM -RA VV007 10/05 A3012 RMK AO2,K4S1,2023-02-10T23:55:00Z,42.42,-124.42,10.0,5.0,220,4,,1.75,30.121063,,,TRUE,TRUE,,,,,,-RA,OVX,0,,,,,,,LIFR,,,,,,,,,,,700,METAR,7.0
K4S1 102335Z AUTO 23006KT 2 1/2SM HZ CLR 10/05 A3012 RMK AO2,K4S1,2023-02-10T23:35:00Z,42.42,-124.42,10.0,5.0,230,6,,2.5,30.121063,,,TRUE,TRUE,,,,,,HZ,CLR,,,,,,,,IFR,,,,,,,,,,,,METAR,7.0
K4S1 102315Z AUTO 00000KT 7SM CLR 10/04 A3010 RMK AO2,K4S1,2023-02-10T23:15:00Z,42.42,-124.42,10.0,4.0,0,0,,7.0,30.100393,,,TRUE,TRUE,,,,,,,CLR,,,,,,,,VFR,,,,,,,,,,,,METAR,7.0
K4S1 102255Z AUTO 11003KT 7SM CLR 10/05 A3010 RMK AO2 P0001,K4S1,2023-02-10T22:55:00Z,42.42,-124.42,10.0,5.0,110,3,,7.0,30.100393,,,TRUE,TRUE,,,,,,,CLR,,,,,,,,VFR,,,,,,0.01,,,,,,METAR,7.0
K4S1 102235Z AUTO 14006KT 10SM -DZ CLR 10/05 A3010 RMK AO2 P0001,K4S1,2023-02-10T22:35:00Z,42.42,-124.42,10.0,5.0,140,6,,10.0,30.100393,,,TRUE,TRUE,,,,,,-DZ,CLR,,,,,,,,VFR,,,,,,0.01,,,,,,METAR,7.0
K4S1 102215Z AUTO 13006KT 10SM -RA CLR 09/06 A3011 RMK AO2 P0001,K4S1,2023-02-10T22:15:00Z,42.42,-124.42,9.0,6.0,130,6,,10.0,30.109253,,,TRUE,TRUE,,,,,,-RA,CLR,,,,,,,,VFR,,,,,,0.01,,,,,,METAR,7.0
K4S1 102155Z AUTO 17004KT 10SM -RA CLR 09/05 A3012 RMK AO2,K4S1,2023-02-10T21:55:00Z,42.42,-124.42,9.0,5.0,170,4,,10.0,30.121063,,,TRUE,TRUE,,,,,,-RA,CLR,,,,,,,,VFR,,,,,,,,,,,,METAR,7.0
K4S1 102135Z AUTO 19006KT 2 1/2SM -DZ CLR 10/06 A3011 RMK AO2,K4S1,2023-02-10T21:35:00Z,42.42,-124.42,10.0,6.0,190,6,,2.5,30.109253,,,TRUE,TRUE,,,,,,-DZ,CLR,,,,,,,,IFR,,,,,,,,,,,,METAR,7.0
K4S1 102115Z AUTO 19007KT 4SM DZ CLR 10/06 A3011 RMK AO2,K4S1,2023-02-10T21:15:00Z,42.42,-124.42,10.0,6.0,190,7,,4.0,30.109253,,,TRUE,TRUE,,,,,,DZ,CLR,,,,,,,,MVFR,,,,,,,,,,,,METAR,7.0
K4S1 102055Z AUTO 16007KT 3SM HZ CLR 10/06 A3011 RMK AO2,K4S1,2023-02-10T20:55:00Z,42.42,-124.42,10.0,6.0,160,7,,3.0,30.109253,,,TRUE,TRUE,,,,,,HZ,CLR,,,,,,,,MVFR,,,,,,,,,,,,METAR,7.0
K4S1 102035Z AUTO 15007KT 7SM -DZ CLR 09/06 A3012 RMK AO2,K4S1,2023-02-10T20:35:00Z,42.42,-124.42,9.0,6.0,150,7,,7.0,30.121063,,,TRUE,TRUE,,,,,,-DZ,CLR,,,,,,,,VFR,,,,,,,,,,,,METAR,7.0
K4S1 102015Z AUTO 15004KT 5SM BR SCT033 09/07 A3012 RMK AO2,K4S1,2023-02-10T20:15:00Z,42.42,-124.42,9.0,7.0,150,4,,5.0,30.121063,,,TRUE,TRUE,,,,,,BR,SCT,3300,,,,,,,MVFR,,,,,,,,,,,,METAR,7.0
K4S1 101955Z AUTO 18009KT 2SM -RA BKN033 09/07 A3013 RMK AO2,K4S1,2023-02-10T19:55:00Z,42.42,-124.42,9.0,7.0,180,9,,2.0,30.129921,,,TRUE,TRUE,,,,,,-RA,BKN,3300,,,,,,,IFR,,,,,,,,,,,,METAR,7.0
K4S1 101935Z AUTO 21010KT 1 3/4SM -RA VV007 09/07 A3013 RMK AO2,K4S1,2023-02-10T19:35:00Z,42.42,-124.42,9.0,7.0,210,10,,1.75,30.129921,,,TRUE,TRUE,,,,,,-RA,OVX,0,,,,,,,LIFR,,,,,,,,,,,700,METAR,7.0
K4S1 101915Z AUTO 23014G19KT 1 1/2SM HZ VV007 11/08 A3013 RMK AO2,K4S1,2023-02-10T19:15:00Z,42.42,-124.42,11.0,8.0,230,14,19,1.5,30.129921,,,TRUE,TRUE,,,,,,HZ,OVX,0,,,,,,,LIFR,,,,,,,,,,,700,METAR,7.0
K4S1 101855Z AUTO 19007KT 1 3/4SM HZ VV007 11/08 A3013 RMK AO2,K4S1,2023-02-10T18:55:00Z,42.42,-124.42,11.0,8.0,190,7,,1.75,30.129921,,,TRUE,TRUE,,,,,,HZ,OVX,0,,,,,,,LIFR,,,,,,,,,,,700,METAR,7.0
K4S1 101835Z AUTO 20009KT 1 1/2SM HZ VV007 11/08 A3014 RMK AO2,K4S1,2023-02-10T18:35:00Z,42.42,-124.42,11.0,8.0,200,9,,1.5,30.138779,,,TRUE,TRUE,,,,,,HZ,OVX,0,,,,,,,LIFR,,,,,,,,,,,700,METAR,7.0
K4S1 101815Z AUTO 19004KT 1 1/4SM HZ VV007 11/08 A3014 RMK AO2,K4S1,2023-02-10T18:15:00Z,42.42,-124.42,11.0,8.0,190,4,,1.25,30.138779,,,TRUE,TRUE,,,,,,HZ,OVX,0,,,,,,,LIFR,,,,,,,,,,,700,METAR,7.0
K4S1 101755Z AUTO 20005KT 1 1/2SM HZ VV007 11/07 A3014 RMK AO2,K4S1,2023-02-10T17:55:00Z,42.42,-124.42,11.0,7.0,200,5,,1.5,30.138779,,,TRUE,TRUE,,,,,,HZ,OVX,0,,,,,,,LIFR,,,,,,,,,,,700,METAR,7.0
K4S1 101735Z AUTO 18004KT 1 3/4SM HZ VV007 10/07 A3014 RMK AO2,K4S1,2023-02-10T17:35:00Z,42.42,-124.42,10.0,7.0,180,4,,1.75,30.138779,,,TRUE,TRUE,,,,,,HZ,OVX,0,,,,,,,LIFR,,,,,,,,,,,700,METAR,7.0
K4S1 101715Z AUTO 20005KT 1 1/2SM HZ VV007 10/07 A3014 RMK AO2,K4S1,2023-02-10T17:15:00Z,42.42,-124.42,10.0,7.0,200,5,,1.5,30.138779,,,TRUE,TRUE,,,,,,HZ,OVX,0,,,,,,,LIFR,,,,,,,,,,,700,METAR,7.0
K4S1 101655Z AUTO 16006KT 7SM CLR 10/07 A3013 RMK AO2,K4S1,2023-02-10T16:55:00Z,42.42,-124.42,10.0,7.0,160,6,,7.0,30.129921,,,TRUE,TRUE,,,,,,,CLR,,,,,,,,VFR,,,,,,,,,,,,METAR,7.0
K4S1 101635Z AUTO 19003KT 7SM CLR 10/07 A3014 RMK AO2,K4S1,2023-02-10T16:35:00Z,42.42,-124.42,10.0,7.0,190,3,,7.0,30.138779,,,TRUE,TRUE,,,,,,,CLR,,,,,,,,VFR,,,,,,,,,,,,METAR,7.0
K4S1 101615Z AUTO 16005KT 5SM HZ CLR 10/07 A3014 RMK AO2,K4S1,2023-02-10T16:15:00Z,42.42,-124.42,10.0,7.0,160,5,,5.0,30.138779,,,TRUE,TRUE,,,,,,HZ,CLR,,,,,,,,MVFR,,,,,,,,,,,,METAR,7.0
K4S1 101555Z AUTO 16005KT 5SM BR CLR 10/07 A3014 RMK AO2,K4S1,2023-02-10T15:55:00Z,42.42,-124.42,10.0,7.0,160,5,,5.0,30.138779,,,TRUE,TRUE,,,,,,BR,CLR,,,,,,,,MVFR,,,,,,,,,,,,METAR,7.0
K4S1 101535Z AUTO 17003KT 4SM BR CLR 08/06 A3014 RMK AO2,K4S1,2023-02-10T15:35:00Z,42.42,-124.42,8.0,6.0,170,3,,4.0,30.138779,,,TRUE,TRUE,,,,,,BR,CLR,,,,,,,,MVFR,,,,,,,,,,,,METAR,7.0
K4S1 101515Z AUTO 00000KT 7SM CLR 08/06 A3014 RMK AO2,K4S1,2023-02-10T15:15:00Z,42.42,-124.42,8.0,6.0,0,0,,7.0,30.138779,,,TRUE,TRUE,,,,,,,CLR,,,,,,,,VFR,,,,,,,,,,,,METAR,7.0
K4S1 101455Z AUTO 00000KT 5SM BR CLR 08/06 A3014 RMK AO2,K4S1,2023-02-10T14:55:00Z,42.42,-124.42,8.0,6.0,0,0,,5.0,30.138779,,,TRUE,TRUE,,,,,,BR,CLR,,,,,,,,MVFR,,,,,,,,,,,,METAR,7.0
K4S1 101435Z AUTO 00000KT 2SM BR CLR 09/07 A3014 RMK AO2,K4S1,2023-02-10T14:35:00Z,42.42,-124.42,9.0,7.0,0,0,,2.0,30.138779,,,TRUE,TRUE,,,,,,BR,CLR,,,,,,,,IFR,,,,,,,,,,,,METAR,7.0
K4S1 101415Z AUTO 00000KT 10SM CLR 07/06 A3014 RMK AO2,K4S1,2023-02-10T14:15:00Z,42.42,-124.42,7.0,6.0,0,0,,10.0,30.138779,,,TRUE,TRUE,,,,,,,CLR,,,,,,,,VFR,,,,,,,,,,,,METAR,7.0
K4S1 101355Z AUTO 05003KT 5SM BR CLR 08/06 A3014 RMK AO2,K4S1,2023-02-10T13:55:00Z,42.42,-124.42,8.0,6.0,50,3,,5.0,30.138779,,,TRUE,TRUE,,,,,,BR,CLR,,,,,,,,MVFR,,,,,,,,,,,,METAR,7.0
K4S1 101335Z AUTO 00000KT 3SM BR CLR 08/06 A3015 RMK AO2,K4S1,2023-02-10T13:35:00Z,42.42,-124.42,8.0,6.0,0,0,,3.0,30.15059,,,TRUE,TRUE,,,,,,BR,CLR,,,,,,,,MVFR,,,,,,,,,,,,METAR,7.0
K4S1 101315Z AUTO 20003KT 3SM BR CLR 10/07 A3016 RMK AO2,K4S1,2023-02-10T13:15:00Z,42.42,-124.42,10.0,7.0,200,3,,3.0,30.159449,,,TRUE,TRUE,,,,,,BR,CLR,,,,,,,,MVFR,,,,,,,,,,,,METAR,7.0
K4S1 101255Z AUTO 18005KT 3SM HZ CLR 10/07 A3016 RMK AO2,K4S1,2023-02-10T12:55:00Z,42.42,-124.42,10.0,7.0,180,5,,3.0,30.159449,,,TRUE,TRUE,,,,,,HZ,CLR,,,,,,,,MVFR,,,,,,,,,,,,METAR,7.0
K4S1 101235Z AUTO 17006KT 7SM CLR 10/07 A3017 RMK AO2,K4S1,2023-02-10T12:35:00Z,42.42,-124.42,10.0,7.0,170,6,,7.0,30.171259,,,TRUE,TRUE,,,,,,,CLR,,,,,,,,VFR,,,,,,,,,,,,METAR,7.0
K4S1 101215Z AUTO 16010KT 3SM BR CLR 10/07 A3017 RMK AO2,K4S1,2023-02-10T12:15:00Z,42.42,-124.42,10.0,7.0,160,10,,3.0,30.171259,,,TRUE,TRUE,,,,,,BR,CLR,,,,,,,,MVFR,,,,,,,,,,,,METAR,7.0
K4S1 101155Z AUTO 17006KT 3SM BR CLR 09/07 A3017 RMK AO2,K4S1,2023-02-10T11:55:00Z,42.42,-124.42,9.0,7.0,170,6,,3.0,30.171259,,,TRUE,TRUE,,,,,,BR,CLR,,,,,,,,MVFR,,,,,,,,,,,,METAR,7.0
K4S1 101135Z AUTO 16005KT 4SM HZ CLR 10/07 A3018 RMK AO2,K4S1,2023-02-10T11:35:00Z,42.42,-124.42,10.0,7.0,160,5,,4.0,30.180119,,,TRUE,TRUE,,,,,,HZ,CLR,,,,,,,,MVFR,,,,,,,,,,,,METAR,7.0
K4S1 101115Z AUTO 20005KT 2 1/2SM HZ SCT033 10/07 A3019 RMK AO2,K4S1,2023-02-10T11:15:00Z,42.42,-124.42,10.0,7.0,200,5,,2.5,30.188976,,,TRUE,TRUE,,,,,,HZ,SCT,3300,,,,,,,IFR,,,,,,,,,,,,METAR,7.0
K4S1 101055Z AUTO 16006KT 5SM HZ CLR 10/07 A3019 RMK AO2,K4S1,2023-02-10T10:55:00Z,42.42,-124.42,10.0,7.0,160,6,,5.0,30.188976,,,TRUE,TRUE,,,,,,HZ,CLR,,,,,,,,MVFR,,,,,,,,,,,,METAR,7.0
K4S1 101035Z AUTO 18007KT 7SM CLR 10/07 A3020 RMK AO2,K4S1,2023-02-10T10:35:00Z,42.42,-124.42,10.0,7.0,180,7,,7.0,30.200787,,,TRUE,TRUE,,,,,,,CLR,,,,,,,,VFR,,,,,,,,,,,,METAR,7.0
K4S1 101015Z AUTO 15008KT 7SM CLR 10/07 A3019 RMK AO2,K4S1,2023-02-10T10:15:00Z,42.42,-124.42,10.0,7.0,150,8,,7.0,30.188976,,,TRUE,TRUE,,,,,,,CLR,,,,,,,,VFR,,,,,,,,,,,,METAR,7.0
K4S1 100955Z AUTO 17006KT 7SM CLR 10/07 A3020 RMK AO2,K4S1,2023-02-10T09:55:00Z,42.42,-124.42,10.0,7.0,170,6,,7.0,30.200787,,,TRUE,TRUE,,,,,,,CLR,,,,,,,,VFR,,,,,,,,,,,,METAR,7.0
K4S1 100935Z AUTO 19003KT 5SM BR CLR 10/07 A3020 RMK AO2,K4S1,2023-02-10T09:35:00Z,42.42,-124.42,10.0,7.0,190,3,,5.0,30.200787,,,TRUE,TRUE,,,,,,BR,CLR,,,,,,,,MVFR,,,,,,,,,,,,METAR,7.0
K4S1 100915Z AUTO 15006KT 7SM SCT035 10/07 A3021 RMK AO2,K4S1,2023-02-10T09:15:00Z,42.42,-124.42,10.0,7.0,150,6,,7.0,30.209646,,,TRUE,TRUE,,,,,,,SCT,3500,,,,,,,VFR,,,,,,,,,,,,METAR,7.0
K4S1 100855Z AUTO 16005KT 5SM BR CLR 10/07 A3021 RMK AO2,K4S1,2023-02-10T08:55:00Z,42.42,-124.42,10.0,7.0,160,5,,5.0,30.209646,,,TRUE,TRUE,,,,,,BR,CLR,,,,,,,,MVFR,,,,,,,,,,,,METAR,7.0
K4S1 100835Z AUTO 17009KT 5SM BR CLR 10/07 A3022 RMK AO2,K4S1,2023-02-10T08:35:00Z,42.42,-124.42,10.0,7.0,170,9,,5.0,30.221457,,,TRUE,TRUE,,,,,,BR,CLR,,,,,,,,MVFR,,,,,,,,,,,,METAR,7.0
K4S1 100815Z AUTO 16006KT 5SM BR CLR 10/08 A3022 RMK AO2,K4S1,2023-02-10T08:15:00Z,42.42,-124.42,10.0,8.0,160,6,,5.0,30.221457,,,TRUE,TRUE,,,,,,BR,CLR,,,,,,,,MVFR,,,,,,,,,,,,METAR,7.0
K4S1 100755Z AUTO 17006KT 150V210 4SM BR CLR 10/08 A3023 RMK AO2,K4S1,2023-02-10T07:55:00Z,42.42,-124.42,10.0,8.0,170,6,,4.0,30.230314,,,TRUE,TRUE,,,,,,BR,CLR,,,,,,,,MVFR,,,,,,,,,,,,METAR,7.0
K4S1 100735Z AUTO 18005KT 7SM CLR 10/08 A3023 RMK AO2,K4S1,2023-02-10T07:35:00Z,42.42,-124.42,10.0,8.0,180,5,,7.0,30.230314,,,TRUE,TRUE,,,,,,,CLR,,,,,,,,VFR,,,,,,,,,,,,METAR,7.0
K4S1 100715Z AUTO 18005KT 3SM BR SCT013 SCT022 SCT033 10/08 A3024 RMK AO2,K4S1,2023-02-10T07:15:00Z,42.42,-124.42,10.0,8.0,180,5,,3.0,30.239174,,,TRUE,TRUE,,,,,,BR,SCT,1300,SCT,2200,SCT,3300,,,MVFR,,,,,,,,,,,,METAR,7.0
K4S1 100655Z AUTO 16006KT 5SM BR SCT024 BKN033 10/08 A3024 RMK AO2,K4S1,2023-02-10T06:55:00Z,42.42,-124.42,10.0,8.0,160,6,,5.0,30.239174,,,TRUE,TRUE,,,,,,BR,SCT,2400,BKN,3300,,,,,MVFR,,,,,,,,,,,,METAR,7.0
K4S1 100635Z AUTO 17009KT 7SM SCT025 SCT033 10/08 A3025 RMK AO2,K4S1,2023-02-10T06:35:00Z,42.42,-124.42,10.0,8.0,170,9,,7.0,30.250984,,,TRUE,TRUE,,,,,,,SCT,2500,SCT,3300,,,,,VFR,,,,,,,,,,,,METAR,7.0
K4S1 100615Z AUTO 18006KT 7SM CLR 10/08 A3025 RMK AO2,K4S1,2023-02-10T06:15:00Z,42.42,-124.42,10.0,8.0,180,6,,7.0,30.250984,,,TRUE,TRUE,,,,,,,CLR,,,,,,,,VFR,,,,,,,,,,,,METAR,7.0
K4S1 100555Z AUTO 19011G15KT 7SM CLR 10/08 A3024 RMK AO2,K4S1,2023-02-10T05:55:00Z,42.42,-124.42,10.0,8.0,190,11,15,7.0,30.239174,,,TRUE,TRUE,,,,,,,CLR,,,,,,,,VFR,,,,,,,,,,,,METAR,7.0
K4S1 100535Z AUTO 18010KT 7SM CLR 10/08 A3024 RMK AO2,K4S1,2023-02-10T05:35:00Z,42.42,-124.42,10.0,8.0,180,10,,7.0,30.239174,,,TRUE,TRUE,,,,,,,CLR,,,,,,,,VFR,,,,,,,,,,,,METAR,7.0
K4S1 100515Z AUTO 18010KT 7SM CLR 10/08 A3024 RMK AO2,K4S1,2023-02-10T05:15:00Z,42.42,-124.42,10.0,8.0,180,10,,7.0,30.239174,,,TRUE,TRUE,,,,,,,CLR,,,,,,,,VFR,,,,,,,,,,,,METAR,7.0
K4S1 100455Z AUTO 18012G18KT 7SM SCT011 SCT017 10/08 A3024 RMK AO2 P0001,K4S1,2023-02-10T04:55:00Z,42.42,-124.42,10.0,8.0,180,12,18,7.0,30.239174,,,TRUE,TRUE,,,,,,,SCT,1100,SCT,1700,,,,,VFR,,,,,,0.01,,,,,,METAR,7.0
K4S1 100435Z AUTO 17014G22KT 7SM SCT016 SCT022 10/08 A3024 RMK AO2 P0001,K4S1,2023-02-10T04:35:00Z,42.42,-124.42,10.0,8.0,170,14,22,7.0,30.239174,,,TRUE,TRUE,,,,,,,SCT,1600,SCT,2200,,,,,VFR,,,,,,0.01,,,,,,METAR,7.0
K4S1 100415Z AUTO 17011G18KT 10SM -RA SCT013 SCT019 10/08 A3023 RMK AO2,K4S1,2023-02-10T04:15:00Z,42.42,-124.42,10.0,8.0,170,11,18,10.0,30.230314,,,TRUE,TRUE,,,,,,-RA,SCT,1300,SCT,1900,,,,,VFR,,,,,,,,,,,,METAR,7.0
K4S1 100355Z AUTO 17014G18KT 7SM -RA BKN013 OVC021 09/08 A3023 RMK AO2 P0006,K4S1,2023-02-10T03:55:00Z,42.42,-124.42,9.0,8.0,170,14,18,7.0,30.230314,,,TRUE,TRUE,,,,,,-RA,BKN,1300,OVC,2100,,,,,MVFR,,,,,,0.06,,,,,,METAR,7.0
K4S1 100335Z AUTO 19011G21KT 4SM RA OVC013 09/07 A3023 RMK AO2 P0004,K4S1,2023-02-10T03:35:00Z,42.42,-124.42,9.0,7.0,190,11,21,4.0,30.230314,,,TRUE,TRUE,,,,,,RA,OVC,1300,,,,,,,MVFR,,,,,,0.04,,,,,,METAR,7.0
K4S1 100315Z AUTO 15007KT 4SM RA OVC015 08/07 A3023 RMK AO2 P0002,K4S1,2023-02-10T03:15:00Z,42.42,-124.42,8.0,7.0,150,7,,4.0,30.230314,,,TRUE,TRUE,,,,,,RA,OVC,1500,,,,,,,MVFR,,,,,,0.02,,,,,,METAR,7.0
K4S1 100255Z AUTO 17009KT 4SM RA OVC017 08/05 A3023 RMK AO2 P0002,K4S1,2023-02-10T02:55:00Z,42.42,-124.42,8.0,5.0,170,9,,4.0,30.230314,,,TRUE,TRUE,,,,,,RA,OVC,1700,,,,,,,MVFR,,,,,,0.02,,,,,,METAR,7.0
K4S1 100235Z AUTO 18013G19KT 7SM -RA OVC021 10/05 A3023 RMK AO2,K4S1,2023-02-10T02:35:00Z,42.42,-124.42,10.0,5.0,180,13,19,7.0,30.230314,,,TRUE,TRUE,,,,,,-RA,OVC,2100,,,,,,,MVFR,,,,,,,,,,,,METAR,7.0
K4S1 100215Z AUTO 18013G20KT 10SM -RA BKN023 BKN028 11/02 A3022 RMK AO2,K4S1,2023-02-10T02:15:00Z,42.42,-124.42,11.0,2.0,180,13,20,10.0,30.221457,,,TRUE,TRUE,,,,,,-RA,BKN,2300,BKN,2800,,,,,MVFR,,,,,,,,,,,,METAR,7.0
K4S1 100155Z AUTO 18011G17KT 5SM HZ CLR 11/02 A3022 RMK AO2,K4S1,2023-02-10T01:55:00Z,42.42,-124.42,11.0,2.0,180,11,17,5.0,30.221457,,,TRUE,TRUE,,,,,,HZ,CLR,,,,,,,,MVFR,,,,,,,,,,,,METAR,7.0
K4S1 100135Z AUTO 18014G21KT 7SM SCT038 SCT047 12/01 A3022 RMK AO2,K4S1,2023-02-10T01:35:00Z,42.42,-124.42,12.0,1.0,180,14,21,7.0,30.221457,,,TRUE,TRUE,,,,,,,SCT,3800,SCT,4700,,,,,VFR,,,,,,,,,,,,METAR,7.0
K4S1 100115Z AUTO 17014G19KT 5SM HZ CLR 12/M01 A3021 RMK AO2,K4S1,2023-02-10T01:15:00Z,42.42,-124.42,12.0,-1.0,170,14,19,5.0,30.209646,,,TRUE,TRUE,,,,,,HZ,CLR,,,,,,,,MVFR,,,,,,,,,,,,METAR,7.0
K4S1 100055Z AUTO 18012G16KT 7SM CLR 12/M04 A3021 RMK AO2,K4S1,2023-02-10T00:55:00Z,42.42,-124.42,12.0,-4.0,180,12,16,7.0,30.209646,,,TRUE,TRUE,,,,,,,CLR,,,,,,,,VFR,,,,,,,,,,,,METAR,7.0
K4S1 100035Z AUTO 18012KT 5SM HZ CLR 12/M05 A3020 RMK AO2,K4S1,2023-02-10T00:35:00Z,42.42,-124.42,12.0,-5.0,180,12,,5.0,30.200787,,,TRUE,TRUE,,,,,,HZ,CLR,,,,,,,,MVFR,,,,,,,,,,,,METAR,7.0
K4S1 100015Z AUTO 17014G22KT 5SM HZ CLR 12/M06 A3020 RMK AO2,K4S1,2023-02-10T00:15:00Z,42.42,-124.42,12.0,-6.0,170,14,22,5.0,30.200787,,,TRUE,TRUE,,,,,,HZ,CLR,,,,,,,,MVFR,,,,,,,,,,,,METAR,7.0
K4S1 092355Z AUTO 19017G23KT 5SM HZ CLR 13/M03 A3021 RMK AO2,K4S1,2023-02-09T23:55:00Z,42.42,-124.42,13.0,-3.0,190,17,23,5.0,30.209646,,,TRUE,TRUE,,,,,,HZ,CLR,,,,,,,,MVFR,,,,,,,,,,,,METAR,7.0
K4S1 092335Z AUTO 19015G20KT 4SM HZ CLR 12/00 A3021 RMK AO2,K4S1,2023-02-09T23:35:00Z,42.42,-124.42,12.0,0.0,190,15,20,4.0,30.209646,,,TRUE,TRUE,,,,,,HZ,CLR,,,,,,,,MVFR,,,,,,,,,,,,METAR,7.0
K4S1 092315Z AUTO 20019G23KT 4SM HZ CLR 11/07 A3021 RMK AO2,K4S1,2023-02-09T23:15:00Z,42.42,-124.42,11.0,7.0,200,19,23,4.0,30.209646,,,TRUE,TRUE,,,,,,HZ,CLR,,,,,,,,MVFR,,,,,,,,,,,,METAR,7.0
K4S1 092255Z AUTO 20020G25KT 4SM HZ CLR 11/06 A3021 RMK AO2,K4S1,2023-02-09T22:55:00Z,42.42,-124.42,11.0,6.0,200,20,25,4.0,30.209646,,,TRUE,TRUE,,,,,,HZ,CLR,,,,,,,,MVFR,,,,,,,,,,,,METAR,7.0
K4S1 092235Z AUTO 21019G25KT 3SM HZ CLR 12/06 A3021 RMK AO2,K4S1,2023-02-09T22:35:00Z,42.42,-124.42,12.0,6.0,210,19,25,3.0,30.209646,,,TRUE,TRUE,,,,,,HZ,CLR,,,,,,,,MVFR,,,,,,,,,,,,METAR,7.0
K4S1 092215Z AUTO 20016KT 4SM HZ CLR 13/05 A3019 RMK AO2,K4S1,2023-02-09T22:15:00Z,42.42,-124.42,13.0,5.0,200,16,,4.0,30.188976,,,TRUE,TRUE,,,,,,HZ,CLR,,,,,,,,MVFR,,,,,,,,,,,,METAR,7.0
K4S1 092155Z AUTO 20016KT 4SM HZ CLR 12/05 A3019 RMK AO2,K4S1,2023-02-09T21:55:00Z,42.42,-124.42,12.0,5.0,200,16,,4.0,30.188976,,,TRUE,TRUE,,,,,,HZ,CLR,,,,,,,,MVFR,,,,,,,,,,,,METAR,7.0
K4S1 092135Z AUTO 20016G20KT 4SM HZ CLR 11/06 A3020 RMK AO2,K4S1,2023-02-09T21:35:00Z,42.42,-124.42,11.0,6.0,200,16,20,4.0,30.200787,,,TRUE,TRUE,,,,,,HZ,CLR,,,,,,,,MVFR,,,,,,,,,,,,METAR,7.0
K4S1 092115Z AUTO 21017G21KT 4SM HZ CLR 11/07 A3021 RMK AO2,K4S1,2023-02-09T21:15:00Z,42.42,-124.42,11.0,7.0,210,17,21,4.0,30.209646,,,TRUE,TRUE,,,,,,HZ,CLR,,,,,,,,MVFR,,,,,,,,,,,,METAR,7.0
K4S1 092055Z AUTO 20015G19KT 4SM HZ CLR 11/06 A3021 RMK AO2,K4S1,2023-02-09T20:55:00Z,42.42,-124.42,11.0,6.0,200,15,19,4.0,30.209646,,,TRUE,TRUE,,,,,,HZ,CLR,,,,,,,,MVFR,,,,,,,,,,,,METAR,7.0
K4S1 092035Z AUTO 20013KT 3SM HZ CLR 11/07 A3021 RMK AO2,K4S1,2023-02-09T20:35:00Z,42.42,-124.42,11.0,7.0,200,13,,3.0,30.209646,,,TRUE,TRUE,,,,,,HZ,CLR,,,,,,,,MVFR,,,,,,,,,,,,METAR,7.0
K4S1 092015Z AUTO 20012KT 3SM HZ CLR 12/07 A3023 RMK AO2,K4S1,2023-02-09T20:15:00Z,42.42,-124.42,12.0,7.0,200,12,,3.0,30.230314,,,TRUE,TRUE,,,,,,HZ,CLR,,,,,,,,MVFR,,,,,,,,,,,,METAR,7.0
K4S1 091955Z AUTO 21010KT 2 1/2SM HZ CLR 11/08 A3025 RMK AO2,K4S1,2023-02-09T19:55:00Z,42.42,-124.42,11.0,8.0,210,10,,2.5,30.250984,,,TRUE,TRUE,,,,,,HZ,CLR,,,,,,,,IFR,,,,,,,,,,,,METAR,7.0
K4S1 091935Z AUTO 19012KT 3SM HZ CLR 10/07 A3027 RMK AO2,K4S1,2023-02-09T19:35:00Z,42.42,-124.42,10.0,7.0,190,12,,3.0,30.268702,,,TRUE,TRUE,,,,,,HZ,CLR,,,,,,,,MVFR,,,,,,,,,,,,METAR,7.0
K4S1 091915Z AUTO 21016KT 2 1/2SM HZ CLR 10/07 A3027 RMK AO2,K4S1,2023-02-09T19:15:00Z,42.42,-124.42,10.0,7.0,210,16,,2.5,30.268702,,,TRUE,TRUE,,,,,,HZ,CLR,,,,,,,,IFR,,,,,,,,,,,,METAR,7.0
K4S1 091855Z AUTO 21013G17KT 3SM HZ CLR 10/06 A3026 RMK AO2,K4S1,2023-02-09T18:55:00Z,42.42,-124.42,10.0,6.0,210,13,17,3.0,30.259842,,,TRUE,TRUE,,,,,,HZ,CLR,,,,,,,,MVFR,,,,,,,,,,,,METAR,7.0
K4S1 091835Z AUTO 00000KT 5SM HZ CLR 10/05 A3025 RMK AO2,K4S1,2023-02-09T18:35:00Z,42.42,-124.42,10.0,5.0,0,0,,5.0,30.250984,,,TRUE,TRUE,,,,,,HZ,CLR,,,,,,,,MVFR,,,,,,,,,,,,METAR,7.0
K4S1 091815Z AUTO 05007KT 3SM HZ CLR 09/05 A3025 RMK AO2,K4S1,2023-02-09T18:15:00Z,42.42,-124.42,9.0,5.0,50,7,,3.0,30.250984,,,TRUE,TRUE,,,,,,HZ,CLR,,,,,,,,MVFR,,,,,,,,,,,,METAR,7.0
K4S1 091755Z AUTO 15003KT 5SM HZ CLR 10/05 A3026 RMK AO2,K4S1,2023-02-09T17:55:00Z,42.42,-124.42,10.0,5.0,150,3,,5.0,30.259842,,,TRUE,TRUE,,,,,,HZ,CLR,,,,,,,,MVFR,,,,,,,,,,,,METAR,7.0
K4S1 091735Z AUTO 05006KT 7SM CLR 08/04 A3026 RMK AO2,K4S1,2023-02-09T17:35:00Z,42.42,-124.42,8.0,4.0,50,6,,7.0,30.259842,,,TRUE,TRUE,,,,,,,CLR,,,,,,,,VFR,,,,,,,,,,,,METAR,7.0
K4S1 091715Z AUTO 05008KT 5SM HZ CLR 07/03 A3026 RMK AO2,K4S1,2023-02-09T17:15:00Z,42.42,-124.42,7.0,3.0,50,8,,5.0,30.259842,,,TRUE,TRUE,,,,,,HZ,CLR,,,,,,,,MVFR,,,,,,,,,,,,METAR,7.0
K4S1 091655Z AUTO 04008KT 7SM CLR 06/03 A3026 RMK AO2,K4S1,2023-02-09T16:55:00Z,42.42,-124.42,6.0,3.0,40,8,,7.0,30.259842,,,TRUE,TRUE,,,,,,,CLR,,,,,,,,VFR,,,,,,,,,,,,METAR,7.0
K4S1 091635Z AUTO 05009KT 5SM BR CLR 05/03 A3026 RMK AO2,K4S1,2023-02-09T16:35:00Z,42.42,-124.42,5.0,3.0,50,9,,5.0,30.259842,,,TRUE,TRUE,,,,,,BR,CLR,,,,,,,,MVFR,,,,,,,,,,,,METAR,7.0
K4S1 091615Z AUTO 05010KT 7SM CLR 04/02 A3026 RMK AO2,K4S1,2023-02-09T16:15:00Z,42.42,-124.42,4.0,2.0,50,10,,7.0,30.259842,,,TRUE,TRUE,,,,,,,CLR,,,,,,,,VFR,,,,,,,,,,,,METAR,7.0
K4S1 091555Z AUTO 05012KT 7SM CLR 04/02 A3026 RMK AO2,K4S1,2023-02-09T15:55:00Z,42.42,-124.42,4.0,2.0,50,12,,7.0,30.259842,,,TRUE,TRUE,,,,,,,CLR,,,,,,,,VFR,,,,,,,,,,,,METAR,7.0
K4S1 091535Z AUTO 05009KT 7SM CLR 04/02 A3025 RMK AO2,K4S1,2023-02-09T15:35:00Z,42.42,-124.42,4.0,2.0,50,9,,7.0,30.250984,,,TRUE,TRUE,,,,,,,CLR,,,,,,,,VFR,,,,,,,,,,,,METAR,7.0
K4S1 091515Z AUTO 06008KT 7SM CLR 05/02 A3026 RMK AO2,K4S1,2023-02-09T15:15:00Z,42.42,-124.42,5.0,2.0,60,8,,7.0,30.259842,,,TRUE,TRUE,,,,,,,CLR,,,,,,,,VFR,,,,,,,,,,,,METAR,7.0
K4S1 091455Z AUTO 06008KT 7SM CLR 04/02 A3026 RMK AO2,K4S1,2023-02-09T14:55:00Z,42.42,-124.42,4.0,2.0,60,8,,7.0,30.259842,,,TRUE,TRUE,,,,,,,CLR,,,,,,,,VFR,,,,,,,,,,,,METAR,7.0
K4S1 091435Z AUTO 06011G15KT 7SM CLR 04/02 A3025 RMK AO2,K4S1,2023-02-09T14:35:00Z,42.42,-124.42,4.0,2.0,60,11,15,7.0,30.250984,,,TRUE,TRUE,,,,,,,CLR,,,,,,,,VFR,,,,,,,,,,,,METAR,7.0
K4S1 091415Z AUTO 06007KT 7SM CLR 05/02 A3026 RMK AO2,K4S1,2023-02-09T14:15:00Z,42.42,-124.42,5.0,2.0,60,7,,7.0,30.259842,,,TRUE,TRUE,,,,,,,CLR,,,,,,,,VFR,,,,,,,,,,,,METAR,7.0
K4S1 091355Z AUTO 05013KT 7SM CLR 05/02 A3026 RMK AO2,K4S1,2023-02-09T13:55:00Z,42.42,-124.42,5.0,2.0,50,13,,7.0,30.259842,,,TRUE,TRUE,,,,,,,CLR,,,,,,,,VFR,,,,,,,,,,,,METAR,7.0
K4S1 091335Z AUTO 06010G14KT 7SM CLR 05/02 A3026 RMK AO2,K4S1,2023-02-09T13:35:00Z,42.42,-124.42,5.0,2.0,60,10,14,7.0,30.259842,,,TRUE,TRUE,,,,,,,CLR,,,,,,,,VFR,,,,,,,,,,,,METAR,7.0
K4S1 091315Z AUTO 05009KT 7SM CLR 05/02 A3027 RMK AO2,K4S1,2023-02-09T13:15:00Z,42.42,-124.42,5.0,2.0,50,9,,7.0,30.268702,,,TRUE,TRUE,,,,,,,CLR,,,,,,,,VFR,,,,,,,,,,,,METAR,7.0
K4S1 091255Z AUTO 06005KT 7SM CLR 05/03 A3027 RMK AO2,K4S1,2023-02-09T12:55:00Z,42.42,-124.42,5.0,3.0,60,5,,7.0,30.268702,,,TRUE,TRUE,,,,,,,CLR,,,,,,,,VFR,,,,,,,,,,,,METAR,7.0
K4S1 091235Z AUTO 06007KT 7SM CLR 05/03 A3028 RMK AO2,K4S1,2023-02-09T12:35:00Z,42.42,-124.42,5.0,3.0,60,7,,7.0,30.280512,,,TRUE,TRUE,,,,,,,CLR,,,,,,,,VFR,,,,,,,,,,,,METAR,7.0
K4S1 091215Z AUTO 06008KT 7SM CLR 05/03 A3028 RMK AO2,K4S1,2023-02-09T12:15:00Z,42.42,-124.42,5.0,3.0,60,8,,7.0,30.280512,,,TRUE,TRUE,,,,,,,CLR,,,,,,,,VFR,,,,,,,,,,,,METAR,7.0
K4S1 091155Z AUTO 08003KT 7SM CLR 05/02 A3030 RMK AO2,K4S1,2023-02-09T11:55:00Z,42.42,-124.42,5.0,2.0,80,3,,7.0,30.301182,,,TRUE,TRUE,,,,,,,CLR,,,,,,,,VFR,,,,,,,,,,,,METAR,7.0
K4S1 091135Z AUTO 05007KT 7SM CLR 05/03 A3030 RMK AO2,K4S1,2023-02-09T11:35:00Z,42.42,-124.42,5.0,3.0,50,7,,7.0,30.301182,,,TRUE,TRUE,,,,,,,CLR,,,,,,,,VFR,,,,,,,,,,,,METAR,7.0
K4S1 091115Z AUTO 09003KT 7SM CLR 05/02 A3030 RMK AO2,K4S1,2023-02-09T11:15:00Z,42.42,-124.42,5.0,2.0,90,3,,7.0,30.301182,,,TRUE,TRUE,,,,,,,CLR,,,,,,,,VFR,,,,,,,,,,,,METAR,7.0
K4S1 091055Z AUTO 05010KT 7SM CLR 05/03 A3030 RMK AO2,K4S1,2023-02-09T10:55:00Z,42.42,-124.42,5.0,3.0,50,10,,7.0,30.301182,,,TRUE,TRUE,,,,,,,CLR,,,,,,,,VFR,,,,,,,,,,,,METAR,7.0
K4S1 091035Z AUTO 06006KT 7SM CLR 05/03 A3031 RMK AO2,K4S1,2023-02-09T10:35:00Z,42.42,-124.42,5.0,3.0,60,6,,7.0,30.31004,,,TRUE,TRUE,,,,,,,CLR,,,,,,,,VFR,,,,,,,,,,,,METAR,7.0
K4S1 091015Z AUTO 07004KT 7SM CLR 05/03 A3032 RMK AO2,K4S1,2023-02-09T10:15:00Z,42.42,-124.42,5.0,3.0,70,4,,7.0,30.318897,,,TRUE,TRUE,,,,,,,CLR,,,,,,,,VFR,,,,,,,,,,,,METAR,7.0
K4S1 090955Z AUTO 00000KT 7SM CLR 04/02 A3032 RMK AO2,K4S1,2023-02-09T09:55:00Z,42.42,-124.42,4.0,2.0,0,0,,7.0,30.318897,,,TRUE,TRUE,,,,,,,CLR,,,,,,,,VFR,,,,,,,,,,,,METAR,7.0
K4S1 090935Z AUTO 06007KT 10SM CLR 06/04 A3032 RMK AO2,K4S1,2023-02-09T09:35:00Z,42.42,-124.42,6.0,4.0,60,7,,10.0,30.318897,,,TRUE,TRUE,,,,,,,CLR,,,,,,,,VFR,,,,,,,,,,,,METAR,7.0
K4S1 090915Z AUTO 07003KT 7SM CLR 05/03 A3033 RMK AO2,K4S1,2023-02-09T09:15:00Z,42.42,-124.42,5.0,3.0,70,3,,7.0,30.33071,,,TRUE,TRUE,,,,,,,CLR,,,,,,,,VFR,,,,,,,,,,,,METAR,7.0
K4S1 090855Z AUTO 05004KT 7SM CLR 06/04 A3034 RMK AO2,K4S1,2023-02-09T08:55:00Z,42.42,-124.42,6.0,4.0,50,4,,7.0,30.339567,,,TRUE,TRUE,,,,,,,CLR,,,,,,,,VFR,,,,,,,,,,,,METAR,7.0
K4S1 090835Z AUTO 05007KT 7SM CLR 06/05 A3035 RMK AO2,K4S1,2023-02-09T08:35:00Z,42.42,-124.42,6.0,5.0,50,7,,7.0,30.351377,,,TRUE,TRUE,,,,,,,CLR,,,,,,,,VFR,,,,,,,,,,,,METAR,7.0
K4S1 090815Z AUTO 00000KT 7SM CLR 04/03 A3036 RMK AO2,K4S1,2023-02-09T08:15:00Z,42.42,-124.42,4.0,3.0,0,0,,7.0,30.360237,,,TRUE,TRUE,,,,,,,CLR,,,,,,,,VFR,,,,,,,,,,,,METAR,7.0
K4S1 090755Z AUTO 06004KT 7SM CLR 05/04 A3036 RMK AO2,K4S1,2023-02-09T07:55:00Z,42.42,-124.42,5.0,4.0,60,4,,7.0,30.360237,,,TRUE,TRUE,,,,,,,CLR,,,,,,,,VFR,,,,,,,,,,,,METAR,7.0
K4S1 090735Z AUTO 00000KT 5SM BR CLR 05/03 A3037 RMK AO2,K4S1,2023-02-09T07:35:00Z,42.42,-124.42,5.0,3.0,0,0,,5.0,30.369095,,,TRUE,TRUE,,,,,,BR,CLR,,,,,,,,MVFR,,,,,,,,,,,,METAR,7.0
K4S1 090715Z AUTO 00000KT 7SM CLR 05/04 A3037 RMK AO2,K4S1,2023-02-09T07:15:00Z,42.42,-124.42,5.0,4.0,0,0,,7.0,30.369095,,,TRUE,TRUE,,,,,,,CLR,,,,,,,,VFR,,,,,,,,,,,,METAR,7.0
K4S1 090655Z AUTO 00000KT 7SM CLR 05/04 A3037 RMK AO2,K4S1,2023-02-09T06:55:00Z,42.42,-124.42,5.0,4.0,0,0,,7.0,30.369095,,,TRUE,TRUE,,,,,,,CLR,,,,,,,,VFR,,,,,,,,,,,,METAR,7.0
K4S1 090635Z AUTO 00000KT 7SM CLR 06/04 A3037 RMK AO2,K4S1,2023-02-09T06:35:00Z,42.42,-124.42,6.0,4.0,0,0,,7.0,30.369095,,,TRUE,TRUE,,,,,,,CLR,,,,,,,,VFR,,,,,,,,,,,,METAR,7.0
K4S1 090615Z AUTO 00000KT 7SM CLR 06/03 A3037 RMK AO2,K4S1,2023-02-09T06:15:00Z,42.42,-124.42,6.0,3.0,0,0,,7.0,30.369095,,,TRUE,TRUE,,,,,,,CLR,,,,,,,,VFR,,,,,,,,,,,,METAR,7.0
K4S1 090555Z AUTO 00000KT 3SM BR CLR 07/05 A3037 RMK AO2,K4S1,2023-02-09T05:55:00Z,42.42,-124.42,7.0,5.0,0,0,,3.0,30.369095,,,TRUE,TRUE,,,,,,BR,CLR,,,,,,,,MVFR,,,,,,,,,,,,METAR,7.0
K4S1 090535Z AUTO 07006KT 7SM CLR 07/05 A3037 RMK AO2,K4S1,2023-02-09T05:35:00Z,42.42,-124.42,7.0,5.0,70,6,,7.0,30.369095,,,TRUE,TRUE,,,,,,,CLR,,,,,,,,VFR,,,,,,,,,,,,METAR,7.0
K4S1 090515Z AUTO 10004KT 10SM CLR 07/05 A3037 RMK AO2,K4S1,2023-02-09T05:15:00Z,42.42,-124.42,7.0,5.0,100,4,,10.0,30.369095,,,TRUE,TRUE,,,,,,,CLR,,,,,,,,VFR,,,,,,,,,,,,METAR,7.0
K4S1 090455Z AUTO 05006KT 7SM CLR 07/06 A3037 RMK AO2,K4S1,2023-02-09T04:55:00Z,42.42,-124.42,7.0,6.0,50,6,,7.0,30.369095,,,TRUE,TRUE,,,,,,,CLR,,,,,,,,VFR,,,,,,,,,,,,METAR,7.0
K4S1 090435Z AUTO 07005KT 5SM BR CLR 06/05 A3037 RMK AO2,K4S1,2023-02-09T04:35:00Z,42.42,-124.42,6.0,5.0,70,5,,5.0,30.369095,,,TRUE,TRUE,,,,,,BR,CLR,,,,,,,,MVFR,,,,,,,,,,,,METAR,7.0
K4S1 090415Z AUTO 00000KT 7SM CLR 07/05 A3037 RMK AO2,K4S1,2023-02-09T04:15:00Z,42.42,-124.42,7.0,5.0,0,0,,7.0,30.369095,,,TRUE,TRUE,,,,,,,CLR,,,,,,,,VFR,,,,,,,,,,,,METAR,7.0
K4S1 090355Z AUTO 04006KT 5SM BR CLR 07/05 A3037 RMK AO2,K4S1,2023-02-09T03:55:00Z,42.42,-124.42,7.0,5.0,40,6,,5.0,30.369095,,,TRUE,TRUE,,,,,,BR,CLR,,,,,,,,MVFR,,,,,,,,,,,,METAR,7.0
K4S1 090335Z AUTO 05004KT 7SM CLR 07/05 A3037 RMK AO2,K4S1,2023-02-09T03:35:00Z,42.42,-124.42,7.0,5.0,50,4,,7.0,30.369095,,,TRUE,TRUE,,,,,,,CLR,,,,,,,,VFR,,,,,,,,,,,,METAR,7.0
K4S1 090315Z AUTO 04004KT 7SM CLR 07/05 A3038 RMK AO2,K4S1,2023-02-09T03:15:00Z,42.42,-124.42,7.0,5.0,40,4,,7.0,30.380905,,,TRUE,TRUE,,,,,,,CLR,,,,,,,,VFR,,,,,,,,,,,,METAR,7.0
K4S1 090255Z AUTO 00000KT 5SM BR CLR 08/06 A3038 RMK AO2,K4S1,2023-02-09T02:55:00Z,42.42,-124.42,8.0,6.0,0,0,,5.0,30.380905,,,TRUE,TRUE,,,,,,BR,CLR,,,,,,,,MVFR,,,,,,,,,,,,METAR,7.0
K4S1 090235Z AUTO 00000KT 7SM CLR 08/06 A3038 RMK AO2,K4S1,2023-02-09T02:35:00Z,42.42,-124.42,8.0,6.0,0,0,,7.0,30.380905,,,TRUE,TRUE,,,,,,,CLR,,,,,,,,VFR,,,,,,,,,,,,METAR,7.0
K4S1 090215Z AUTO 06003KT 7SM CLR 08/06 A3038 RMK AO2,K4S1,2023-02-09T02:15:00Z,42.42,-124.42,8.0,6.0,60,3,,7.0,30.380905,,,TRUE,TRUE,,,,,,,CLR,,,,,,,,VFR,,,,,,,,,,,,METAR,7.0
K4S1 090155Z AUTO 03004KT 7SM CLR 09/06 A3038 RMK AO2,K4S1,2023-02-09T01:55:00Z,42.42,-124.42,9.0,6.0,30,4,,7.0,30.380905,,,TRUE,TRUE,,,,,,,CLR,,,,,,,,VFR,,,,,,,,,,,,METAR,7.0
K4S1 090135Z AUTO 00000KT 3SM HZ CLR 09/06 A3038 RMK AO2,K4S1,2023-02-09T01:35:00Z,42.42,-124.42,9.0,6.0,0,0,,3.0,30.380905,,,TRUE,TRUE,,,,,,HZ,CLR,,,,,,,,MVFR,,,,,,,,,,,,METAR,7.0
K4S1 090115Z AUTO 00000KT 2SM HZ CLR 10/06 A3039 RMK AO2,K4S1,2023-02-09T01:15:00Z,42.42,-124.42,10.0,6.0,0,0,,2.0,30.389763,,,TRUE,TRUE,,,,,,HZ,CLR,,,,,,,,IFR,,,,,,,,,,,,METAR,7.0
K4S1 090055Z AUTO 34003KT 5SM HZ CLR 10/05 A3039 RMK AO2,K4S1,2023-02-09T00:55:00Z,42.42,-124.42,10.0,5.0,340,3,,5.0,30.389763,,,TRUE,TRUE,,,,,,HZ,CLR,,,,,,,,MVFR,,,,,,,,,,,,METAR,7.0
K4S1 090035Z AUTO 36006KT 5SM HZ CLR 10/06 A3040 RMK AO2,K4S1,2023-02-09T00:35:00Z,42.42,-124.42,10.0,6.0,360,6,,5.0,30.398623,,,TRUE,TRUE,,,,,,HZ,CLR,,,,,,,,MVFR,,,,,,,,,,,,METAR,7.0
K4S1 090015Z AUTO 32004KT 3SM HZ CLR 10/06 A3041 RMK AO2,K4S1,2023-02-09T00:15:00Z,42.42,-124.42,10.0,6.0,320,4,,3.0,30.410433,,,TRUE,TRUE,,,,,,HZ,CLR,,,,,,,,MVFR,,,,,,,,,,,,METAR,7.0
K4S1 082355Z AUTO 32006KT 3SM HZ CLR 10/06 A3041 RMK AO2,K4S1,2023-02-08T23:55:00Z,42.42,-124.42,10.0,6.0,320,6,,3.0,30.410433,,,TRUE,TRUE,,,,,,HZ,CLR,,,,,,,,MVFR,,,,,,,,,,,,METAR,7.0
K4S1 082335Z AUTO 32006KT 3SM HZ CLR 11/06 A3041 RMK AO2,K4S1,2023-02-08T23:35:00Z,42.42,-124.42,11.0,6.0,320,6,,3.0,30.410433,,,TRUE,TRUE,,,,,,HZ,CLR,,,,,,,,MVFR,,,,,,,,,,,,METAR,7.0
K4S1 082315Z AUTO 32006KT 2 1/2SM HZ CLR 11/06 A3041 RMK AO2,K4S1,2023-02-08T23:15:00Z,42.42,-124.42,11.0,6.0,320,6,,2.5,30.410433,,,TRUE,TRUE,,,,,,HZ,CLR,,,,,,,,IFR,,,,,,,,,,,,METAR,7.0
K4S1 082255Z AUTO 32006KT 2SM HZ CLR 11/07 A3042 RMK AO2,K4S1,2023-02-08T22:55:00Z,42.42,-124.42,11.0,7.0,320,6,,2.0,30.41929,,,TRUE,TRUE,,,,,,HZ,CLR,,,,,,,,IFR,,,,,,,,,,,,METAR,7.0
K4S1 082235Z AUTO 31005KT 1 3/4SM HZ VV007 10/06 A3042 RMK AO2,K4S1,2023-02-08T22:35:00Z,42.42,-124.42,10.0,6.0,310,5,,1.75,30.41929,,,TRUE,TRUE,,,,,,HZ,OVX,0,,,,,,,LIFR,,,,,,,,,,,700,METAR,7.0
K4S1 082215Z AUTO 31005KT 1 3/4SM HZ VV007 10/06 A3042 RMK AO2,K4S1,2023-02-08T22:15:00Z,42.42,-124.42,10.0,6.0,310,5,,1.75,30.41929,,,TRUE,TRUE,,,,,,HZ,OVX,0,,,,,,,LIFR,,,,,,,,,,,700,METAR,7.0
K4S1 082155Z AUTO 32005KT 1 3/4SM HZ VV007 10/07 A3043 RMK AO2,K4S1,2023-02-08T21:55:00Z,42.42,-124.42,10.0,7.0,320,5,,1.75,30.431103,,,TRUE,TRUE,,,,,,HZ,OVX,0,,,,,,,LIFR,,,,,,,,,,,700,METAR,7.0
K4S1 082135Z AUTO 32006KT 2SM HZ CLR 10/06 A3044 RMK AO2,K4S1,2023-02-08T21:35:00Z,42.42,-124.42,10.0,6.0,320,6,,2.0,30.43996,,,TRUE,TRUE,,,,,,HZ,CLR,,,,,,,,IFR,,,,,,,,,,,,METAR,7.0
K4S1 082115Z AUTO 31005KT 2SM HZ CLR 10/06 A3045 RMK AO2,K4S1,2023-02-08T21:15:00Z,42.42,-124.42,10.0,6.0,310,5,,2.0,30.448818,,,TRUE,TRUE,,,,,,HZ,CLR,,,,,,,,IFR,,,,,,,,,,,,METAR,7.0
K4S1 082055Z AUTO 30003KT 2SM HZ CLR 10/06 A3045 RMK AO2,K4S1,2023-02-08T20:55:00Z,42.42,-124.42,10.0,6.0,300,3,,2.0,30.448818,,,TRUE,TRUE,,,,,,HZ,CLR,,,,,,,,IFR,,,,,,,,,,,,METAR,7.0
K4S1 082035Z AUTO 00000KT 1 3/4SM HZ VV007 11/06 A3046 RMK AO2,K4S1,2023-02-08T20:35:00Z,42.42,-124.42,11.0,6.0,0,0,,1.75,30.46063,,,TRUE,TRUE,,,,,,HZ,OVX,0,,,,,,,LIFR,,,,,,,,,,,700,METAR,7.0
K4S1 082015Z AUTO 00000KT 2SM HZ CLR 10/06 A3047 RMK AO2,K4S1,2023-02-08T20:15:00Z,42.42,-124.42,10.0,6.0,0,0,,2.0,30.469488,,,TRUE,TRUE,,,,,,HZ,CLR,,,,,,,,IFR,,,,,,,,,,,,METAR,7.0
K4S1 081955Z AUTO 00000KT 1 3/4SM HZ VV007 10/06 A3048 RMK AO2 P0003,K4S1,2023-02-08T19:55:00Z,42.42,-124.42,10.0,6.0,0,0,,1.75,30.481298,,,TRUE,TRUE,,,,,,HZ,OVX,0,,,,,,,LIFR,,,,,,0.03,,,,,700,METAR,7.0
K4S1 081935Z AUTO 27003KT 1 3/4SM HZ VV007 11/06 A3048 RMK AO2 P0003,K4S1,2023-02-08T19:35:00Z,42.42,-124.42,11.0,6.0,270,3,,1.75,30.481298,,,TRUE,TRUE,,,,,,HZ,OVX,0,,,,,,,LIFR,,,,,,0.03,,,,,700,METAR,7.0
K4S1 081835Z AUTO 04006KT 5SM HZ 10/05 A3048 RMK AO2,K4S1,2023-02-08T18:35:00Z,42.42,-124.42,10.0,5.0,40,6,,5.0,30.481298,,,TRUE,TRUE,,,,,,HZ,,,,,,,,,,,,,,,,,,,,,METAR,7.0
K4S1 081815Z AUTO 07004KT 5SM HZ CLR 09/05 A3048 RMK AO2,K4S1,2023-02-08T18:15:00Z,42.42,-124.42,9.0,5.0,70,4,,5.0,30.481298,,,TRUE,TRUE,,,,,,HZ,CLR,,,,,,,,MVFR,,,,,,,,,,,,METAR,7.0
K4S1 081755Z AUTO 00000KT 3SM HZ CLR 07/05 A3048 RMK AO2,K4S1,2023-02-08T17:55:00Z,42.42,-124.42,7.0,5.0,0,0,,3.0,30.481298,,,TRUE,TRUE,,,,,,HZ,CLR,,,,,,,,MVFR,,,,,,,,,,,,METAR,7.0
K4S1 081735Z AUTO 06004KT 7SM CLR 07/05 A3048 RMK AO2,K4S1,2023-02-08T17:35:00Z,42.42,-124.42,7.0,5.0,60,4,,7.0,30.481298,,,TRUE,TRUE,,,,,,,CLR,,,,,,,,VFR,,,,,,,,,,,,METAR,7.0
K4S1 081715Z AUTO 05006KT 5SM BR CLR 06/05 A3047 RMK AO2,K4S1,2023-02-08T17:15:00Z,42.42,-124.42,6.0,5.0,50,6,,5.0,30.469488,,,TRUE,TRUE,,,,,,BR,CLR,,,,,,,,MVFR,,,,,,,,,,,,METAR,7.0
K4S1 081655Z AUTO 00000KT 5SM BR CLR 04/03 A3047 RMK AO2,K4S1,2023-02-08T16:55:00Z,42.42,-124.42,4.0,3.0,0,0,,5.0,30.469488,,,TRUE,TRUE,,,,,,BR,CLR,,,,,,,,MVFR,,,,,,,,,,,,METAR,7.0
K4S1 081635Z AUTO 00000KT 5SM BR CLR 03/02 A3046 RMK AO2,K4S1,2023-02-08T16:35:00Z,42.42,-124.42,3.0,2.0,0,0,,5.0,30.46063,,,TRUE,TRUE,,,,,,BR,CLR,,,,,,,,MVFR,,,,,,,,,,,,METAR,7.0
K4S1 081615Z AUTO 11003KT 3SM BR CLR 02/02 A3045 RMK AO2,K4S1,2023-02-08T16:15:00Z,42.42,-124.42,2.0,2.0,110,3,,3.0,30.448818,,,TRUE,TRUE,,,,,,BR,CLR,,,,,,,,MVFR,,,,,,,,,,,,METAR,7.0
K4S1 081555Z AUTO 00000KT 5SM BR CLR 03/02 A3045 RMK AO2,K4S1,2023-02-08T15:55:00Z,42.42,-124.42,3.0,2.0,0,0,,5.0,30.448818,,,TRUE,TRUE,,,,,,BR,CLR,,,,,,,,MVFR,,,,,,,,,,,,METAR,7.0
K4S1 081535Z AUTO 00000KT 7SM CLR 02/01 A3045 RMK AO2,K4S1,2023-02-08T15:35:00Z,42.42,-124.42,2.0,1.0,0,0,,7.0,30.448818,,,TRUE,TRUE,,,,,,,CLR,,,,,,,,VFR,,,,,,,,,,,,METAR,7.0
K4S1 081515Z AUTO 00000KT 5SM BR CLR 03/02 A3045 RMK AO2,K4S1,2023-02-08T15:15:00Z,42.42,-124.42,3.0,2.0,0,0,,5.0,30.448818,,,TRUE,TRUE,,,,,,BR,CLR,,,,,,,,MVFR,,,,,,,,,,,,METAR,7.0
K4S1 081455Z AUTO 00000KT 7SM CLR 03/02 A3044 RMK AO2,K4S1,2023-02-08T14:55:00Z,42.42,-124.42,3.0,2.0,0,0,,7.0,30.43996,,,TRUE,TRUE,,,,,,,CLR,,,,,,,,VFR,,,,,,,,,,,,METAR,7.0
K4S1 081435Z AUTO 11005KT 7SM CLR 05/03 A3043 RMK AO2,K4S1,2023-02-08T14:35:00Z,42.42,-124.42,5.0,3.0,110,5,,7.0,30.431103,,,TRUE,TRUE,,,,,,,CLR,,,,,,,,VFR,,,,,,,,,,,,METAR,7.0
K4S1 081415Z AUTO 08006KT 7SM CLR 05/04 A3043 RMK AO2,K4S1,2023-02-08T14:15:00Z,42.42,-124.42,5.0,4.0,80,6,,7.0,30.431103,,,TRUE,TRUE,,,,,,,CLR,,,,,,,,VFR,,,,,,,,,,,,METAR,7.0
K4S1 081355Z AUTO 06011KT 7SM CLR 05/04 A3044 RMK AO2,K4S1,2023-02-08T13:55:00Z,42.42,-124.42,5.0,4.0,60,11,,7.0,30.43996,,,TRUE,TRUE,,,,,,,CLR,,,,,,,,VFR,,,,,,,,,,,,METAR,7.0
K4S1 081335Z AUTO 05010KT 7SM CLR 05/04 A3044 RMK AO2,K4S1,2023-02-08T13:35:00Z,42.42,-124.42,5.0,4.0,50,10,,7.0,30.43996,,,TRUE,TRUE,,,,,,,CLR,,,,,,,,VFR,,,,,,,,,,,,METAR,7.0
K4S1 081315Z AUTO 06010KT 7SM CLR 05/05 A3044 RMK AO2,K4S1,2023-02-08T13:15:00Z,42.42,-124.42,5.0,5.0,60,10,,7.0,30.43996,,,TRUE,TRUE,,,,,,,CLR,,,,,,,,VFR,,,,,,,,,,,,METAR,7.0
K4S1 081255Z AUTO 05010KT 7SM CLR 05/05 A3045 RMK AO2,K4S1,2023-02-08T12:55:00Z,42.42,-124.42,5.0,5.0,50,10,,7.0,30.448818,,,TRUE,TRUE,,,,,,,CLR,,,,,,,,VFR,,,,,,,,,,,,METAR,7.0
K4S1 081235Z AUTO 05008KT 7SM CLR 06/05 A3045 RMK AO2,K4S1,2023-02-08T12:35:00Z,42.42,-124.42,6.0,5.0,50,8,,7.0,30.448818,,,TRUE,TRUE,,,,,,,CLR,,,,,,,,VFR,,,,,,,,,,,,METAR,7.0
K4S1 081215Z AUTO 05010KT 7SM CLR 06/05 A3045 RMK AO2,K4S1,2023-02-08T12:15:00Z,42.42,-124.42,6.0,5.0,50,10,,7.0,30.448818,,,TRUE,TRUE,,,,,,,CLR,,,,,,,,VFR,,,,,,,,,,,,METAR,7.0
K4S1 081155Z AUTO 05010KT 7SM CLR 06/05 A3045 RMK AO2,K4S1,2023-02-08T11:55:00Z,42.42,-124.42,6.0,5.0,50,10,,7.0,30.448818,,,TRUE,TRUE,,,,,,,CLR,,,,,,,,VFR,,,,,,,,,,,,METAR,7.0
K4S1 081135Z AUTO 06007KT 7SM CLR 06/05 A3045 RMK AO2,K4S1,2023-02-08T11:35:00Z,42.42,-124.42,6.0,5.0,60,7,,7.0,30.448818,,,TRUE,TRUE,,,,,,,CLR,,,,,,,,VFR,,,,,,,,,,,,METAR,7.0
K4S1 081115Z AUTO 05008KT 5SM BR CLR 06/05 A3045 RMK AO2,K4S1,2023-02-08T11:15:00Z,42.42,-124.42,6.0,5.0,50,8,,5.0,30.448818,,,TRUE,TRUE,,,,,,BR,CLR,,,,,,,,MVFR,,,,,,,,,,,,METAR,7.0
K4S1 081055Z AUTO 05007KT 7SM CLR 06/06 A3046 RMK AO2,K4S1,2023-02-08T10:55:00Z,42.42,-124.42,6.0,6.0,50,7,,7.0,30.46063,,,TRUE,TRUE,,,,,,,CLR,,,,,,,,VFR,,,,,,,,,,,,METAR,7.0
K4S1 081035Z AUTO 04007KT 7SM CLR 06/06 A3047 RMK AO2,K4S1,2023-02-08T10:35:00Z,42.42,-124.42,6.0,6.0,40,7,,7.0,30.469488,,,TRUE,TRUE,,,,,,,CLR,,,,,,,,VFR,,,,,,,,,,,,METAR,7.0
K4S1 081015Z AUTO 05007KT 7SM CLR 06/06 A3047 RMK AO2,K4S1,2023-02-08T10:15:00Z,42.42,-124.42,6.0,6.0,50,7,,7.0,30.469488,,,TRUE,TRUE,,,,,,,CLR,,,,,,,,VFR,,,,,,,,,,,,METAR,7.0
K4S1 080955Z AUTO 06007KT 7SM CLR 06/06 A3047 RMK AO2,K4S1,2023-02-08T09:55:00Z,42.42,-124.42,6.0,6.0,60,7,,7.0,30.469488,,,TRUE,TRUE,,,,,,,CLR,,,,,,,,VFR,,,,,,,,,,,,METAR,7.0
K4S1 080935Z AUTO 05008KT 7SM CLR 06/06 A3047 RMK AO2,K4S1,2023-02-08T09:35:00Z,42.42,-124.42,6.0,6.0,50,8,,7.0,30.469488,,,TRUE,TRUE,,,,,,,CLR,,,,,,,,VFR,,,,,,,,,,,,METAR,7.0
K4S1 080915Z AUTO 05007KT 7SM CLR 06/06 A3047 RMK AO2,K4S1,2023-02-08T09:15:00Z,42.42,-124.42,6.0,6.0,50,7,,7.0,30.469488,,,TRUE,TRUE,,,,,,,CLR,,,,,,,,VFR,,,,,,,,,,,,METAR,7.0
K4S1 080855Z AUTO 05007KT 7SM CLR 07/06 A3047 RMK AO2,K4S1,2023-02-08T08:55:00Z,42.42,-124.42,7.0,6.0,50,7,,7.0,30.469488,,,TRUE,TRUE,,,,,,,CLR,,,,,,,,VFR,,,,,,,,,,,,METAR,7.0
K4S1 080835Z AUTO 04007KT 7SM CLR 07/06 A3047 RMK AO2,K4S1,2023-02-08T08:35:00Z,42.42,-124.42,7.0,6.0,40,7,,7.0,30.469488,,,TRUE,TRUE,,,,,,,CLR,,,,,,,,VFR,,,,,,,,,,,,METAR,7.0
K4S1 080815Z AUTO 05007KT 7SM CLR 07/07 A3047 RMK AO2,K4S1,2023-02-08T08:15:00Z,42.42,-124.42,7.0,7.0,50,7,,7.0,30.469488,,,TRUE,TRUE,,,,,,,CLR,,,,,,,,VFR,,,,,,,,,,,,METAR,7.0
K4S1 080755Z AUTO 05005KT 4SM BR SCT001 07/07 A3046 RMK AO2,K4S1,2023-02-08T07:55:00Z,42.42,-124.42,7.0,7.0,50,5,,4.0,30.46063,,,TRUE,TRUE,,,,,,BR,SCT,100,,,,,,,MVFR,,,,,,,,,,,,METAR,7.0
K4S1 080735Z AUTO 04005KT 5SM BR SCT001 07/07 A3046 RMK AO2,K4S1,2023-02-08T07:35:00Z,42.42,-124.42,7.0,7.0,40,5,,5.0,30.46063,,,TRUE,TRUE,,,,,,BR,SCT,100,,,,,,,MVFR,,,,,,,,,,,,METAR,7.0
K4S1 080715Z AUTO 06004KT 2SM BR OVC001 08/07 A3046 RMK AO2,K4S1,2023-02-08T07:15:00Z,42.42,-124.42,8.0,7.0,60,4,,2.0,30.46063,,,TRUE,TRUE,,,,,,BR,OVC,100,,,,,,,LIFR,,,,,,,,,,,,METAR,7.0
K4S1 080655Z AUTO 05007KT 4SM BR SCT001 07/07 A3046 RMK AO2,K4S1,2023-02-08T06:55:00Z,42.42,-124.42,7.0,7.0,50,7,,4.0,30.46063,,,TRUE,TRUE,,,,,,BR,SCT,100,,,,,,,MVFR,,,,,,,,,,,,METAR,7.0
K4S1 080635Z AUTO 00000KT 2 1/2SM BR BKN003 08/07 A3045 RMK AO2,K4S1,2023-02-08T06:35:00Z,42.42,-124.42,8.0,7.0,0,0,,2.5,30.448818,,,TRUE,TRUE,,,,,,BR,BKN,300,,,,,,,LIFR,,,,,,,,,,,,METAR,7.0
K4S1 080615Z AUTO 00000KT 2SM BR BKN003 08/08 A3046 RMK AO2,K4S1,2023-02-08T06:15:00Z,42.42,-124.42,8.0,8.0,0,0,,2.0,30.46063,,,TRUE,TRUE,,,,,,BR,BKN,300,,,,,,,LIFR,,,,,,,,,,,,METAR,7.0
K4S1 080555Z AUTO 00000KT 1 1/2SM BR OVC003 08/08 A3046 RMK AO2 P0001,K4S1,2023-02-08T05:55:00Z,42.42,-124.42,8.0,8.0,0,0,,1.5,30.46063,,,TRUE,TRUE,,,,,,BR,OVC,300,,,,,,,LIFR,,,,,,0.01,,,,,,METAR,7.0
K4S1 080535Z AUTO 00000KT 1 3/4SM BR OVC003 08/08 A3045 RMK AO2 P0001,K4S1,2023-02-08T05:35:00Z,42.42,-124.42,8.0,8.0,0,0,,1.75,30.448818,,,TRUE,TRUE,,,,,,BR,OVC,300,,,,,,,LIFR,,,,,,0.01,,,,,,METAR,7.0
K4S1 080515Z AUTO 00000KT 1 1/2SM BR OVC003 08/08 A3045 RMK AO2,K4S1,2023-02-08T05:15:00Z,42.42,-124.42,8.0,8.0,0,0,,1.5,30.448818,,,TRUE,TRUE,,,,,,BR,OVC,300,,,,,,,LIFR,,,,,,,,,,,,METAR,7.0
K4S1 080455Z AUTO 00000KT 1 1/2SM BR BKN003 08/08 A3045 RMK AO2,K4S1,2023-02-08T04:55:00Z,42.42,-124.42,8.0,8.0,0,0,,1.5,30.448818,,,TRUE,TRUE,,,,,,BR,BKN,300,,,,,,,LIFR,,,,,,,,,,,,METAR,7.0
K4S1 080435Z AUTO 00000KT 2SM BR SCT003 09/08 A3045 RMK AO2,K4S1,2023-02-08T04:35:00Z,42.42,-124.42,9.0,8.0,0,0,,2.0,30.448818,,,TRUE,TRUE,,,,,,BR,SCT,300,,,,,,,IFR,,,,,,,,,,,,METAR,7.0
K4S1 080415Z AUTO 00000KT 1 3/4SM BR SCT003 09/08 A3046 RMK AO2,K4S1,2023-02-08T04:15:00Z,42.42,-124.42,9.0,8.0,0,0,,1.75,30.46063,,,TRUE,TRUE,,,,,,BR,SCT,300,,,,,,,IFR,,,,,,,,,,,,METAR,7.0
K4S1 080355Z AUTO 00000KT 1 3/4SM BR VV007 09/08 A3045 RMK AO2,K4S1,2023-02-08T03:55:00Z,42.42,-124.42,9.0,8.0,0,0,,1.75,30.448818,,,TRUE,TRUE,,,,,,BR,OVX,0,,,,,,,LIFR,,,,,,,,,,,700,METAR,7.0
K4S1 080335Z AUTO 23004KT 2SM BR SCT002 SCT008 BKN014 09/08 A3045 RMK AO2,K4S1,2023-02-08T03:35:00Z,42.42,-124.42,9.0,8.0,230,4,,2.0,30.448818,,,TRUE,TRUE,,,,,,BR,SCT,200,SCT,800,BKN,1400,,,IFR,,,,,,,,,,,,METAR,7.0
K4S1 080315Z AUTO 21004KT 1 3/4SM -RA SCT008 BKN014 OVC021 09/08 A3044 RMK AO2,K4S1,2023-02-08T03:15:00Z,42.42,-124.42,9.0,8.0,210,4,,1.75,30.43996,,,TRUE,TRUE,,,,,,-RA,SCT,800,BKN,1400,OVC,2100,,,IFR,,,,,,,,,,,,METAR,7.0
K4S1 080255Z AUTO 22006KT 2 1/2SM BR SCT012 09/08 A3044 RMK AO2,K4S1,2023-02-08T02:55:00Z,42.42,-124.42,9.0,8.0,220,6,,2.5,30.43996,,,TRUE,TRUE,,,,,,BR,SCT,1200,,,,,,,IFR,,,,,,,,,,,,METAR,7.0
K4S1 080235Z AUTO 22006KT 1 3/4SM BR VV007 09/08 A3044 RMK AO2,K4S1,2023-02-08T02:35:00Z,42.42,-124.42,9.0,8.0,220,6,,1.75,30.43996,,,TRUE,TRUE,,,,,,BR,OVX,0,,,,,,,LIFR,,,,,,,,,,,700,METAR,7.0
K4S1 080215Z AUTO 20004KT 1 1/2SM BR VV007 09/08 A3043 RMK AO2,K4S1,2023-02-08T02:15:00Z,42.42,-124.42,9.0,8.0,200,4,,1.5,30.431103,,,TRUE,TRUE,,,,,,BR,OVX,0,,,,,,,LIFR,,,,,,,,,,,700,METAR,7.0
K4S1 080155Z AUTO 19005KT 2SM BR SCT011 09/08 A3043 RMK AO2,K4S1,2023-02-08T01:55:00Z,42.42,-124.42,9.0,8.0,190,5,,2.0,30.431103,,,TRUE,TRUE,,,,,,BR,SCT,1100,,,,,,,IFR,,,,,,,,,,,,METAR,7.0
K4S1 080135Z AUTO 19005KT 1 1/4SM BR BKN011 OVC018 09/08 A3043 RMK AO2,K4S1,2023-02-08T01:35:00Z,42.42,-124.42,9.0,8.0,190,5,,1.25,30.431103,,,TRUE,TRUE,,,,,,BR,BKN,1100,OVC,1800,,,,,IFR,,,,,,,,,,,,METAR,7.0
K4S1 080115Z AUTO 21009KT 1 1/4SM BR SCT008 BKN015 OVC020 09/08 A3043 RMK AO2,K4S1,2023-02-08T01:15:00Z,42.42,-124.42,9.0,8.0,210,9,,1.25,30.431103,,,TRUE,TRUE,,,,,,BR,SCT,800,BKN,1500,OVC,2000,,,IFR,,,,,,,,,,,,METAR,7.0
K4S1 080055Z AUTO 20009KT 1 1/2SM BR SCT008 BKN017 09/08 A3043 RMK AO2,K4S1,2023-02-08T00:55:00Z,42.42,-124.42,9.0,8.0,200,9,,1.5,30.431103,,,TRUE,TRUE,,,,,,BR,SCT,800,BKN,1700,,,,,IFR,,,,,,,,,,,,METAR,7.0
K4S1 080035Z AUTO 21009KT 1 3/4SM BR SCT019 09/08 A3042 RMK AO2,K4S1,2023-02-08T00:35:00Z,42.42,-124.42,9.0,8.0,210,9,,1.75,30.41929,,,TRUE,TRUE,,,,,,BR,SCT,1900,,,,,,,IFR,,,,,,,,,,,,METAR,7.0
K4S1 080015Z AUTO 20009KT 1 3/4SM BR BKN016 SCT022 09/08 A3041 RMK AO2,K4S1,2023-02-08T00:15:00Z,42.42,-124.42,9.0,8.0,200,9,,1.75,30.410433,,,TRUE,TRUE,,,,,,BR,BKN,1600,SCT,2200,,,,,IFR,,,,,,,,,,,,METAR,7.0
K4S1 072355Z AUTO 21009KT 1 1/2SM BR BKN016 OVC024 10/08 A3041 RMK AO2,K4S1,2023-02-07T23:55:00Z,42.42,-124.42,10.0,8.0,210,9,,1.5,30.410433,,,TRUE,TRUE,,,,,,BR,BKN,1600,OVC,2400,,,,,IFR,,,,,,,,,,,,METAR,7.0
K4S1 072335Z AUTO 19010G17KT 1 3/4SM BR SCT007 SCT013 BKN018 09/08 A3041 RMK AO2,K4S1,2023-02-07T23:35:00Z,42.42,-124.42,9.0,8.0,190,10,17,1.75,30.410433,,,TRUE,TRUE,,,,,,BR,SCT,700,SCT,1300,BKN,1800,,,IFR,,,,,,,,,,,,METAR,7.0
K4S1 072315Z AUTO 19013G19KT 1 3/4SM -DZ SCT007 BKN015 OVC021 09/08 A3040 RMK AO2,K4S1,2023-02-07T23:15:00Z,42.42,-124.42,9.0,8.0,190,13,19,1.75,30.398623,,,TRUE,TRUE,,,,,,-DZ,SCT,700,BKN,1500,OVC,2100,,,IFR,,,,,,,,,,,,METAR,7.0
K4S1 072255Z AUTO 21011KT 1 1/2SM -RA OVC023 10/08 A3040 RMK AO2,K4S1,2023-02-07T22:55:00Z,42.42,-124.42,10.0,8.0,210,11,,1.5,30.398623,,,TRUE,TRUE,,,,,,-RA,OVC,2300,,,,,,,IFR,,,,,,,,,,,,METAR,7.0
K4S1 072235Z AUTO 20011KT 1 1/4SM -RA OVC025 10/08 A3039 RMK AO2,K4S1,2023-02-07T22:35:00Z,42.42,-124.42,10.0,8.0,200,11,,1.25,30.389763,,,TRUE,TRUE,,,,,,-RA,OVC,2500,,,,,,,IFR,,,,,,,,,,,,METAR,7.0
K4S1 072215Z AUTO 20013KT 2SM -RA OVC025 10/07 A3039 RMK AO2,K4S1,2023-02-07T22:15:00Z,42.42,-124.42,10.0,7.0,200,13,,2.0,30.389763,,,TRUE,TRUE,,,,,,-RA,OVC,2500,,,,,,,IFR,,,,,,,,,,,,METAR,7.0
K4S1 072155Z AUTO 21014G17KT 1 3/4SM HZ BKN028 OVC035 10/07 A3039 RMK AO2,K4S1,2023-02-07T21:55:00Z,42.42,-124.42,10.0,7.0,210,14,17,1.75,30.389763,,,TRUE,TRUE,,,,,,HZ,BKN,2800,OVC,3500,,,,,IFR,,,,,,,,,,,,METAR,7.0
K4S1 072135Z AUTO 21013KT 2SM -RA SCT023 SCT036 11/07 A3039 RMK AO2,K4S1,2023-02-07T21:35:00Z,42.42,-124.42,11.0,7.0,210,13,,2.0,30.389763,,,TRUE,TRUE,,,,,,-RA,SCT,2300,SCT,3600,,,,,IFR,,,,,,,,,,,,METAR,7.0
K4S1 072115Z AUTO 20012KT 2SM HZ CLR 11/07 A3039 RMK AO2,K4S1,2023-02-07T21:15:00Z,42.42,-124.42,11.0,7.0,200,12,,2.0,30.389763,,,TRUE,TRUE,,,,,,HZ,CLR,,,,,,,,IFR,,,,,,,,,,,,METAR,7.0
K4S1 072055Z AUTO 20012KT 2 1/2SM HZ CLR 11/07 A3040 RMK AO2 VIS 1 1/2V3,K4S1,2023-02-07T20:55:00Z,42.42,-124.42,11.0,7.0,200,12,,2.5,30.398623,,,TRUE,TRUE,,,,,,HZ,CLR,,,,,,,,IFR,,,,,,,,,,,,METAR,7.0
K4S1 072035Z AUTO 21012G16KT 3SM HZ CLR 12/07 A3040 RMK AO2,K4S1,2023-02-07T20:35:00Z,42.42,-124.42,12.0,7.0,210,12,16,3.0,30.398623,,,TRUE,TRUE,,,,,,HZ,CLR,,,,,,,,MVFR,,,,,,,,,,,,METAR,7.0
K4S1 072015Z AUTO 18011G14KT 3SM HZ CLR 12/07 A3040 RMK AO2,K4S1,2023-02-07T20:15:00Z,42.42,-124.42,12.0,7.0,180,11,14,3.0,30.398623,,,TRUE,TRUE,,,,,,HZ,CLR,,,,,,,,MVFR,,,,,,,,,,,,METAR,7.0
K4S1 071955Z AUTO 20011KT 2SM HZ CLR 11/07 A3042 RMK AO2,K4S1,2023-02-07T19:55:00Z,42.42,-124.42,11.0,7.0,200,11,,2.0,30.41929,,,TRUE,TRUE,,,,,,HZ,CLR,,,,,,,,IFR,,,,,,,,,,,,METAR,7.0
K4S1 071935Z AUTO 20010KT 4SM HZ CLR 12/07 A3043 RMK AO2,K4S1,2023-02-07T19:35:00Z,42.42,-124.42,12.0,7.0,200,10,,4.0,30.431103,,,TRUE,TRUE,,,,,,HZ,CLR,,,,,,,,MVFR,,,,,,,,,,,,METAR,7.0
K4S1 071915Z AUTO 16006KT 4SM HZ CLR 11/06 A3042 RMK AO2,K4S1,2023-02-07T19:15:00Z,42.42,-124.42,11.0,6.0,160,6,,4.0,30.41929,,,TRUE,TRUE,,,,,,HZ,CLR,,,,,,,,MVFR,,,,,,,,,,,,METAR,7.0
K4S1 071855Z AUTO 19008KT 3SM HZ CLR 11/06 A3044 RMK AO2,K4S1,2023-02-07T18:55:00Z,42.42,-124.42,11.0,6.0,190,8,,3.0,30.43996,,,TRUE,TRUE,,,,,,HZ,CLR,,,,,,,,MVFR,,,,,,,,,,,,METAR,7.0
K4S1 071835Z AUTO 18007KT 2 1/2SM HZ SCT027 10/07 A3044 RMK AO2 VIS 1 1/2V4,K4S1,2023-02-07T18:35:00Z,42.42,-124.42,10.0,7.0,180,7,,2.5,30.43996,,,TRUE,TRUE,,,,,,HZ,SCT,2700,,,,,,,IFR,,,,,,,,,,,,METAR,7.0
K4S1 071815Z AUTO 20006KT 2SM HZ BKN027 BKN032 BKN038 10/07 A3044 RMK AO2,K4S1,2023-02-07T18:15:00Z,42.42,-124.42,10.0,7.0,200,6,,2.0,30.43996,,,TRUE,TRUE,,,,,,HZ,BKN,2700,BKN,3200,BKN,3800,,,IFR,,,,,,,,,,,,METAR,7.0
K4S1 071755Z AUTO 00000KT 2SM HZ SCT032 SCT038 08/05 A3043 RMK AO2 VIS 1 1/2V5,K4S1,2023-02-07T17:55:00Z,42.42,-124.42,8.0,5.0,0,0,,2.0,30.431103,,,TRUE,TRUE,,,,,,HZ,SCT,3200,SCT,3800,,,,,IFR,,,,,,,,,,,,METAR,7.0
K4S1 071735Z AUTO 23003KT 5SM HZ CLR 07/05 A3043 RMK AO2,K4S1,2023-02-07T17:35:00Z,42.42,-124.42,7.0,5.0,230,3,,5.0,30.431103,,,TRUE,TRUE,,,,,,HZ,CLR,,,,,,,,MVFR,,,,,,,,,,,,METAR,7.0
K4S1 071720Z AUTO 04006KT 7SM CLR 07/05 A3043 RMK AO2,K4S1,2023-02-07T17:20:00Z,42.42,-124.42,7.0,5.0,40,6,,7.0,30.431103,,,TRUE,TRUE,,,,,,,CLR,,,,,,,,VFR,,,,,,,,,,,,METAR,7.0
K4S1 071655Z AUTO 05006KT 5SM BR CLR 06/04 A3043 RMK AO2,K4S1,2023-02-07T16:55:00Z,42.42,-124.42,6.0,4.0,50,6,,5.0,30.431103,,,TRUE,TRUE,,,,,,BR,CLR,,,,,,,,MVFR,,,,,,,,,,,,METAR,7.0
K4S1 071635Z AUTO 04007KT 7SM CLR 06/05 A3042 RMK AO2,K4S1,2023-02-07T16:35:00Z,42.42,-124.42,6.0,5.0,40,7,,7.0,30.41929,,,TRUE,TRUE,,,,,,,CLR,,,,,,,,VFR,,,,,,,,,,,,METAR,7.0
K4S1 071615Z AUTO 05010KT 7SM CLR 06/04 A3042 RMK AO2,K4S1,2023-02-07T16:15:00Z,42.42,-124.42,6.0,4.0,50,10,,7.0,30.41929,,,TRUE,TRUE,,,,,,,CLR,,,,,,,,VFR,,,,,,,,,,,,METAR,7.0
K4S1 071555Z AUTO 04008KT 7SM CLR 06/04 A3042 RMK AO2,K4S1,2023-02-07T15:55:00Z,42.42,-124.42,6.0,4.0,40,8,,7.0,30.41929,,,TRUE,TRUE,,,,,,,CLR,,,,,,,,VFR,,,,,,,,,,,,METAR,7.0
K4S1 071535Z AUTO 06003KT 7SM CLR 06/04 A3042 RMK AO2,K4S1,2023-02-07T15:35:00Z,42.42,-124.42,6.0,4.0,60,3,,7.0,30.41929,,,TRUE,TRUE,,,,,,,CLR,,,,,,,,VFR,,,,,,,,,,,,METAR,7.0
K4S1 071515Z AUTO 05008KT 7SM CLR 06/04 A3041 RMK AO2,K4S1,2023-02-07T15:15:00Z,42.42,-124.42,6.0,4.0,50,8,,7.0,30.410433,,,TRUE,TRUE,,,,,,,CLR,,,,,,,,VFR,,,,,,,,,,,,METAR,7.0
K4S1 071455Z AUTO 05008KT 7SM CLR 06/04 A3041 RMK AO2,K4S1,2023-02-07T14:55:00Z,42.42,-124.42,6.0,4.0,50,8,,7.0,30.410433,,,TRUE,TRUE,,,,,,,CLR,,,,,,,,VFR,,,,,,,,,,,,METAR,7.0
K4S1 071435Z AUTO 00000KT 7SM CLR 06/04 A3041 RMK AO2,K4S1,2023-02-07T14:35:00Z,42.42,-124.42,6.0,4.0,0,0,,7.0,30.410433,,,TRUE,TRUE,,,,,,,CLR,,,,,,,,VFR,,,,,,,,,,,,METAR,7.0
K4S1 071415Z AUTO 05008KT 7SM CLR 05/03 A3041 RMK AO2,K4S1,2023-02-07T14:15:00Z,42.42,-124.42,5.0,3.0,50,8,,7.0,30.410433,,,TRUE,TRUE,,,,,,,CLR,,,,,,,,VFR,,,,,,,,,,,,METAR,7.0
K4S1 071355Z AUTO 05010KT 7SM CLR 06/04 A3041 RMK AO2,K4S1,2023-02-07T13:55:00Z,42.42,-124.42,6.0,4.0,50,10,,7.0,30.410433,,,TRUE,TRUE,,,,,,,CLR,,,,,,,,VFR,,,,,,,,,,,,METAR,7.0
K4S1 071335Z AUTO 05004KT 7SM CLR 06/04 A3042 RMK AO2,K4S1,2023-02-07T13:35:00Z,42.42,-124.42,6.0,4.0,50,4,,7.0,30.41929,,,TRUE,TRUE,,,,,,,CLR,,,,,,,,VFR,,,,,,,,,,,,METAR,7.0
K4S1 071315Z AUTO 05003KT 7SM CLR 06/04 A3041 RMK AO2,K4S1,2023-02-07T13:15:00Z,42.42,-124.42,6.0,4.0,50,3,,7.0,30.410433,,,TRUE,TRUE,,,,,,,CLR,,,,,,,,VFR,,,,,,,,,,,,METAR,7.0
K4S1 071255Z AUTO 05009KT 7SM CLR 05/04 A3041 RMK AO2,K4S1,2023-02-07T12:55:00Z,42.42,-124.42,5.0,4.0,50,9,,7.0,30.410433,,,TRUE,TRUE,,,,,,,CLR,,,,,,,,VFR,,,,,,,,,,,,METAR,7.0
K4S1 071235Z AUTO 05010KT 7SM CLR 05/03 A3040 RMK AO2,K4S1,2023-02-07T12:35:00Z,42.42,-124.42,5.0,3.0,50,10,,7.0,30.398623,,,TRUE,TRUE,,,,,,,CLR,,,,,,,,VFR,,,,,,,,,,,,METAR,7.0
K4S1 071215Z AUTO 06008KT 7SM CLR 05/03 A3041 RMK AO2,K4S1,2023-02-07T12:15:00Z,42.42,-124.42,5.0,3.0,60,8,,7.0,30.410433,,,TRUE,TRUE,,,,,,,CLR,,,,,,,,VFR,,,,,,,,,,,,METAR,7.0
K4S1 071155Z AUTO 05011KT 7SM CLR 05/03 A3041 RMK AO2,K4S1,2023-02-07T11:55:00Z,42.42,-124.42,5.0,3.0,50,11,,7.0,30.410433,,,TRUE,TRUE,,,,,,,CLR,,,,,,,,VFR,,,,,,,,,,,,METAR,7.0
K4S1 071135Z AUTO 05011KT 7SM CLR 05/03 A3041 RMK AO2,K4S1,2023-02-07T11:35:00Z,42.42,-124.42,5.0,3.0,50,11,,7.0,30.410433,,,TRUE,TRUE,,,,,,,CLR,,,,,,,,VFR,,,,,,,,,,,,METAR,7.0
K4S1 071115Z AUTO 05011KT 7SM CLR 05/03 A3042 RMK AO2,K4S1,2023-02-07T11:15:00Z,42.42,-124.42,5.0,3.0,50,11,,7.0,30.41929,,,TRUE,TRUE,,,,,,,CLR,,,,,,,,VFR,,,,,,,,,,,,METAR,7.0
K4S1 071055Z AUTO 06010KT 7SM CLR 05/03 A3043 RMK AO2,K4S1,2023-02-07T10:55:00Z,42.42,-124.42,5.0,3.0,60,10,,7.0,30.431103,,,TRUE,TRUE,,,,,,,CLR,,,,,,,,VFR,,,,,,,,,,,,METAR,7.0
K4S1 071035Z AUTO 05011KT 7SM CLR 05/03 A3043 RMK AO2,K4S1,2023-02-07T10:35:00Z,42.42,-124.42,5.0,3.0,50,11,,7.0,30.431103,,,TRUE,TRUE,,,,,,,CLR,,,,,,,,VFR,,,,,,,,,,,,METAR,7.0
K4S1 071015Z AUTO 05011KT 7SM CLR 05/03 A3043 RMK AO2,K4S1,2023-02-07T10:15:00Z,42.42,-124.42,5.0,3.0,50,11,,7.0,30.431103,,,TRUE,TRUE,,,,,,,CLR,,,,,,,,VFR,,,,,,,,,,,,METAR,7.0
K4S1 070955Z AUTO 05012KT 7SM CLR 05/03 A3043 RMK AO2,K4S1,2023-02-07T09:55:00Z,42.42,-124.42,5.0,3.0,50,12,,7.0,30.431103,,,TRUE,TRUE,,,,,,,CLR,,,,,,,,VFR,,,,,,,,,,,,METAR,7.0
K4S1 070935Z AUTO 06010KT 7SM CLR 05/03 A3043 RMK AO2,K4S1,2023-02-07T09:35:00Z,42.42,-124.42,5.0,3.0,60,10,,7.0,30.431103,,,TRUE,TRUE,,,,,,,CLR,,,,,,,,VFR,,,,,,,,,,,,METAR,7.0
K4S1 070915Z AUTO 05010G15KT 7SM CLR 05/03 A3043 RMK AO2,K4S1,2023-02-07T09:15:00Z,42.42,-124.42,5.0,3.0,50,10,15,7.0,30.431103,,,TRUE,TRUE,,,,,,,CLR,,,,,,,,VFR,,,,,,,,,,,,METAR,7.0
K4S1 070855Z AUTO 05011KT 7SM CLR 05/03 A3043 RMK AO2,K4S1,2023-02-07T08:55:00Z,42.42,-124.42,5.0,3.0,50,11,,7.0,30.431103,,,TRUE,TRUE,,,,,,,CLR,,,,,,,,VFR,,,,,,,,,,,,METAR,7.0
K4S1 070835Z AUTO 05011KT 7SM CLR 05/03 A3044 RMK AO2,K4S1,2023-02-07T08:35:00Z,42.42,-124.42,5.0,3.0,50,11,,7.0,30.43996,,,TRUE,TRUE,,,,,,,CLR,,,,,,,,VFR,,,,,,,,,,,,METAR,7.0
K4S1 070815Z AUTO 05009KT 7SM CLR 05/03 A3045 RMK AO2,K4S1,2023-02-07T08:15:00Z,42.42,-124.42,5.0,3.0,50,9,,7.0,30.448818,,,TRUE,TRUE,,,,,,,CLR,,,,,,,,VFR,,,,,,,,,,,,METAR,7.0
K4S1 070755Z AUTO 05009KT 7SM CLR 05/03 A3046 RMK AO2,K4S1,2023-02-07T07:55:00Z,42.42,-124.42,5.0,3.0,50,9,,7.0,30.46063,,,TRUE,TRUE,,,,,,,CLR,,,,,,,,VFR,,,,,,,,,,,,METAR,7.0
K4S1 070735Z AUTO 05010KT 7SM CLR 05/03 A3046 RMK AO2,K4S1,2023-02-07T07:35:00Z,42.42,-124.42,5.0,3.0,50,10,,7.0,30.46063,,,TRUE,TRUE,,,,,,,CLR,,,,,,,,VFR,,,,,,,,,,,,METAR,7.0
K4S1 070715Z AUTO 05008KT 7SM CLR 05/03 A3046 RMK AO2,K4S1,2023-02-07T07:15:00Z,42.42,-124.42,5.0,3.0,50,8,,7.0,30.46063,,,TRUE,TRUE,,,,,,,CLR,,,,,,,,VFR,,,,,,,,,,,,METAR,7.0
K4S1 070655Z AUTO 05008KT 7SM CLR 05/03 A3046 RMK AO2,K4S1,2023-02-07T06:55:00Z,42.42,-124.42,5.0,3.0,50,8,,7.0,30.46063,,,TRUE,TRUE,,,,,,,CLR,,,,,,,,VFR,,,,,,,,,,,,METAR,7.0
K4S1 070635Z AUTO 06007KT 7SM CLR 05/03 A3046 RMK AO2,K4S1,2023-02-07T06:35:00Z,42.42,-124.42,5.0,3.0,60,7,,7.0,30.46063,,,TRUE,TRUE,,,,,,,CLR,,,,,,,,VFR,,,,,,,,,,,,METAR,7.0
K4S1 070615Z AUTO 05007KT 7SM CLR 05/03 A3046 RMK AO2,K4S1,2023-02-07T06:15:00Z,42.42,-124.42,5.0,3.0,50,7,,7.0,30.46063,,,TRUE,TRUE,,,,,,,CLR,,,,,,,,VFR,,,,,,,,,,,,METAR,7.0
K4S1 070555Z AUTO 05008KT 7SM CLR 05/04 A3046 RMK AO2,K4S1,2023-02-07T05:55:00Z,42.42,-124.42,5.0,4.0,50,8,,7.0,30.46063,,,TRUE,TRUE,,,,,,,CLR,,,,,,,,VFR,,,,,,,,,,,,METAR,7.0
K4S1 070535Z AUTO 05007KT 7SM CLR 05/04 A3046 RMK AO2,K4S1,2023-02-07T05:35:00Z,42.42,-124.42,5.0,4.0,50,7,,7.0,30.46063,,,TRUE,TRUE,,,,,,,CLR,,,,,,,,VFR,,,,,,,,,,,,METAR,7.0
K4S1 070515Z AUTO 05004KT 7SM CLR 05/04 A3046 RMK AO2,K4S1,2023-02-07T05:15:00Z,42.42,-124.42,5.0,4.0,50,4,,7.0,30.46063,,,TRUE,TRUE,,,,,,,CLR,,,,,,,,VFR,,,,,,,,,,,,METAR,7.0
K4S1 070455Z AUTO 06008KT 7SM CLR 06/04 A3045 RMK AO2,K4S1,2023-02-07T04:55:00Z,42.42,-124.42,6.0,4.0,60,8,,7.0,30.448818,,,TRUE,TRUE,,,,,,,CLR,,,,,,,,VFR,,,,,,,,,,,,METAR,7.0
K4S1 070435Z AUTO 07004KT 7SM CLR 06/04 A3046 RMK AO2,K4S1,2023-02-07T04:35:00Z,42.42,-124.42,6.0,4.0,70,4,,7.0,30.46063,,,TRUE,TRUE,,,,,,,CLR,,,,,,,,VFR,,,,,,,,,,,,METAR,7.0
K4S1 070415Z AUTO 06004KT 7SM CLR 06/05 A3047 RMK AO2,K4S1,2023-02-07T04:15:00Z,42.42,-124.42,6.0,5.0,60,4,,7.0,30.469488,,,TRUE,TRUE,,,,,,,CLR,,,,,,,,VFR,,,,,,,,,,,,METAR,7.0
K4S1 070355Z AUTO 05008KT 7SM CLR 06/05 A3046 RMK AO2,K4S1,2023-02-07T03:55:00Z,42.42,-124.42,6.0,5.0,50,8,,7.0,30.46063,,,TRUE,TRUE,,,,,,,CLR,,,,,,,,VFR,,,,,,,,,,,,METAR,7.0
K4S1 070335Z AUTO 06006KT 7SM CLR 06/05 A3047 RMK AO2,K4S1,2023-02-07T03:35:00Z,42.42,-124.42,6.0,5.0,60,6,,7.0,30.469488,,,TRUE,TRUE,,,,,,,CLR,,,,,,,,VFR,,,,,,,,,,,,METAR,7.0
K4S1 070315Z AUTO 05005KT 7SM CLR 06/05 A3048 RMK AO2,K4S1,2023-02-07T03:15:00Z,42.42,-124.42,6.0,5.0,50,5,,7.0,30.481298,,,TRUE,TRUE,,,,,,,CLR,,,,,,,,VFR,,,,,,,,,,,,METAR,7.0
K4S1 070255Z AUTO 03004KT 7SM CLR 06/05 A3048 RMK AO2,K4S1,2023-02-07T02:55:00Z,42.42,-124.42,6.0,5.0,30,4,,7.0,30.481298,,,TRUE,TRUE,,,,,,,CLR,,,,,,,,VFR,,,,,,,,,,,,METAR,7.0
K4S1 070235Z AUTO 03006KT 7SM CLR 07/05 A3048 RMK AO2,K4S1,2023-02-07T02:35:00Z,42.42,-124.42,7.0,5.0,30,6,,7.0,30.481298,,,TRUE,TRUE,,,,,,,CLR,,,,,,,,VFR,,,,,,,,,,,,METAR,7.0
K4S1 070215Z AUTO 05005KT 7SM CLR 07/05 A3048 RMK AO2,K4S1,2023-02-07T02:15:00Z,42.42,-124.42,7.0,5.0,50,5,,7.0,30.481298,,,TRUE,TRUE,,,,,,,CLR,,,,,,,,VFR,,,,,,,,,,,,METAR,7.0
K4S1 070155Z AUTO 00000KT 7SM CLR 08/05 A3048 RMK AO2,K4S1,2023-02-07T01:55:00Z,42.42,-124.42,8.0,5.0,0,0,,7.0,30.481298,,,TRUE,TRUE,,,,,,,CLR,,,,,,,,VFR,,,,,,,,,,,,METAR,7.0
K4S1 070135Z AUTO 03003KT 5SM HZ CLR 08/05 A3049 RMK AO2,K4S1,2023-02-07T01:35:00Z,42.42,-124.42,8.0,5.0,30,3,,5.0,30.490158,,,TRUE,TRUE,,,,,,HZ,CLR,,,,,,,,MVFR,,,,,,,,,,,,METAR,7.0
K4S1 070115Z AUTO 00000KT 5SM HZ CLR 08/05 A3049 RMK AO2,K4S1,2023-02-07T01:15:00Z,42.42,-124.42,8.0,5.0,0,0,,5.0,30.490158,,,TRUE,TRUE,,,,,,HZ,CLR,,,,,,,,MVFR,,,,,,,,,,,,METAR,7.0
K4S1 070055Z AUTO 36003KT 5SM HZ CLR 09/06 A3049 RMK AO2,K4S1,2023-02-07T00:55:00Z,42.42,-124.42,9.0,6.0,360,3,,5.0,30.490158,,,TRUE,TRUE,,,,,,HZ,CLR,,,,,,,,MVFR,,,,,,,,,,,,METAR,7.0
K4S1 070035Z AUTO 36004KT 5SM HZ CLR 10/06 A3050 RMK AO2,K4S1,2023-02-07T00:35:00Z,42.42,-124.42,10.0,6.0,360,4,,5.0,30.499016,,,TRUE,TRUE,,,,,,HZ,CLR,,,,,,,,MVFR,,,,,,,,,,,,METAR,7.0
K4S1 070015Z AUTO 36003KT 5SM HZ CLR 10/06 A3049 RMK AO2,K4S1,2023-02-07T00:15:00Z,42.42,-124.42,10.0,6.0,360,3,,5.0,30.490158,,,TRUE,TRUE,,,,,,HZ,CLR,,,,,,,,MVFR,,,,,,,,,,,,METAR,7.0
K4S1 062355Z AUTO 34005KT 3SM HZ CLR 10/06 A3050 RMK AO2,K4S1,2023-02-06T23:55:00Z,42.42,-124.42,10.0,6.0,340,5,,3.0,30.499016,,,TRUE,TRUE,,,,,,HZ,CLR,,,,,,,,MVFR,,,,,,,,,,,,METAR,7.0
K4S1 062335Z AUTO 34005KT 4SM HZ CLR 10/06 A3050 RMK AO2,K4S1,2023-02-06T23:35:00Z,42.42,-124.42,10.0,6.0,340,5,,4.0,30.499016,,,TRUE,TRUE,,,,,,HZ,CLR,,,,,,,,MVFR,,,,,,,,,,,,METAR,7.0
K4S1 062315Z AUTO 35005KT 5SM HZ CLR 11/05 A3050 RMK AO2,K4S1,2023-02-06T23:15:00Z,42.42,-124.42,11.0,5.0,350,5,,5.0,30.499016,,,TRUE,TRUE,,,,,,HZ,CLR,,,,,,,,MVFR,,,,,,,,,,,,METAR,7.0
K4S1 062255Z AUTO 36007KT 4SM HZ CLR 11/06 A3051 RMK AO2,K4S1,2023-02-06T22:55:00Z,42.42,-124.42,11.0,6.0,360,7,,4.0,30.510826,,,TRUE,TRUE,,,,,,HZ,CLR,,,,,,,,MVFR,,,,,,,,,,,,METAR,7.0
K4S1 062235Z AUTO 33007KT 4SM HZ CLR 11/06 A3051 RMK AO2,K4S1,2023-02-06T22:35:00Z,42.42,-124.42,11.0,6.0,330,7,,4.0,30.510826,,,TRUE,TRUE,,,,,,HZ,CLR,,,,,,,,MVFR,,,,,,,,,,,,METAR,7.0
K4S1 062215Z AUTO 33006KT 4SM HZ CLR 11/06 A3052 RMK AO2,K4S1,2023-02-06T22:15:00Z,42.42,-124.42,11.0,6.0,330,6,,4.0,30.519686,,,TRUE,TRUE,,,,,,HZ,CLR,,,,,,,,MVFR,,,,,,,,,,,,METAR,7.0
K4S1 062155Z AUTO 33005KT 5SM HZ CLR 11/06 A3052 RMK AO2,K4S1,2023-02-06T21:55:00Z,42.42,-124.42,11.0,6.0,330,5,,5.0,30.519686,,,TRUE,TRUE,,,,,,HZ,CLR,,,,,,,,MVFR,,,,,,,,,,,,METAR,7.0
K4S1 062135Z AUTO 32005KT 3SM HZ CLR 11/06 A3053 RMK AO2,K4S1,2023-02-06T21:35:00Z,42.42,-124.42,11.0,6.0,320,5,,3.0,30.528543,,,TRUE,TRUE,,,,,,HZ,CLR,,,,,,,,MVFR,,,,,,,,,,,,METAR,7.0
K4S1 062115Z AUTO 31005KT 2 1/2SM HZ CLR 11/06 A3053 RMK AO2,K4S1,2023-02-06T21:15:00Z,42.42,-124.42,11.0,6.0,310,5,,2.5,30.528543,,,TRUE,TRUE,,,,,,HZ,CLR,,,,,,,,IFR,,,,,,,,,,,,METAR,7.0
K4S1 062055Z AUTO 31003KT 2 1/2SM HZ CLR 10/05 A3053 RMK AO2,K4S1,2023-02-06T20:55:00Z,42.42,-124.42,10.0,5.0,310,3,,2.5,30.528543,,,TRUE,TRUE,,,,,,HZ,CLR,,,,,,,,IFR,,,,,,,,,,,,METAR,7.0
K4S1 062035Z AUTO 00000KT 4SM HZ CLR 10/05 A3054 RMK AO2,K4S1,2023-02-06T20:35:00Z,42.42,-124.42,10.0,5.0,0,0,,4.0,30.540354,,,TRUE,TRUE,,,,,,HZ,CLR,,,,,,,,MVFR,,,,,,,,,,,,METAR,7.0
K4S1 062015Z AUTO 05004KT 5SM HZ CLR 11/06 A3055 RMK AO2,K4S1,2023-02-06T20:15:00Z,42.42,-124.42,11.0,6.0,50,4,,5.0,30.549213,,,TRUE,TRUE,,,,,,HZ,CLR,,,,,,,,MVFR,,,,,,,,,,,,METAR,7.0
K4S1 061955Z AUTO 05006KT 5SM HZ CLR 11/06 A3056 RMK AO2,K4S1,2023-02-06T19:55:00Z,42.42,-124.42,11.0,6.0,50,6,,5.0,30.561024,,,TRUE,TRUE,,,,,,HZ,CLR,,,,,,,,MVFR,,,,,,,,,,,,METAR,7.0
K4S1 061935Z AUTO 05007KT 5SM HZ CLR 09/05 A3056 RMK AO2,K4S1,2023-02-06T19:35:00Z,42.42,-124.42,9.0,5.0,50,7,,5.0,30.561024,,,TRUE,TRUE,,,,,,HZ,CLR,,,,,,,,MVFR,,,,,,,,,,,,METAR,7.0
K4S1 061915Z AUTO 05007KT 7SM CLR 08/05 A3057 RMK AO2,K4S1,2023-02-06T19:15:00Z,42.42,-124.42,8.0,5.0,50,7,,7.0,30.569881,,,TRUE,TRUE,,,,,,,CLR,,,,,,,,VFR,,,,,,,,,,,,METAR,7.0
K4S1 061855Z AUTO 05007KT 5SM HZ CLR 09/05 A3057 RMK AO2,K4S1,2023-02-06T18:55:00Z,42.42,-124.42,9.0,5.0,50,7,,5.0,30.569881,,,TRUE,TRUE,,,,,,HZ,CLR,,,,,,,,MVFR,,,,,,,,,,,,METAR,7.0
K4S1 061835Z AUTO 05008KT 7SM CLR 08/05 A3058 RMK AO2,K4S1,2023-02-06T18:35:00Z,42.42,-124.42,8.0,5.0,50,8,,7.0,30.578741,,,TRUE,TRUE,,,,,,,CLR,,,,,,,,VFR,,,,,,,,,,,,METAR,7.0
K4S1 061815Z AUTO 05009KT 7SM CLR 07/05 A3057 RMK AO2,K4S1,2023-02-06T18:15:00Z,42.42,-124.42,7.0,5.0,50,9,,7.0,30.569881,,,TRUE,TRUE,,,,,,,CLR,,,,,,,,VFR,,,,,,,,,,,,METAR,7.0
K4S1 061755Z AUTO 05009KT 7SM CLR 07/05 A3057 RMK AO2,K4S1,2023-02-06T17:55:00Z,42.42,-124.42,7.0,5.0,50,9,,7.0,30.569881,,,TRUE,TRUE,,,,,,,CLR,,,,,,,,VFR,,,,,,,,,,,,METAR,7.0
K4S1 061735Z AUTO 05011KT 7SM CLR 06/04 A3057 RMK AO2,K4S1,2023-02-06T17:35:00Z,42.42,-124.42,6.0,4.0,50,11,,7.0,30.569881,,,TRUE,TRUE,,,,,,,CLR,,,,,,,,VFR,,,,,,,,,,,,METAR,7.0
K4S1 061715Z AUTO 05010KT 5SM BR CLR 05/03 A3057 RMK AO2,K4S1,2023-02-06T17:15:00Z,42.42,-124.42,5.0,3.0,50,10,,5.0,30.569881,,,TRUE,TRUE,,,,,,BR,CLR,,,,,,,,MVFR,,,,,,,,,,,,METAR,7.0
K4S1 061655Z AUTO 05011KT 5SM BR CLR 05/03 A3056 RMK AO2,K4S1,2023-02-06T16:55:00Z,42.42,-124.42,5.0,3.0,50,11,,5.0,30.561024,,,TRUE,TRUE,,,,,,BR,CLR,,,,,,,,MVFR,,,,,,,,,,,,METAR,7.0
K4S1 061635Z AUTO 06010KT 5SM BR CLR 04/03 A3056 RMK AO2,K4S1,2023-02-06T16:35:00Z,42.42,-124.42,4.0,3.0,60,10,,5.0,30.561024,,,TRUE,TRUE,,,,,,BR,CLR,,,,,,,,MVFR,,,,,,,,,,,,METAR,7.0
K4S1 061615Z AUTO 05011KT 7SM CLR 04/03 A3056 RMK AO2,K4S1,2023-02-06T16:15:00Z,42.42,-124.42,4.0,3.0,50,11,,7.0,30.561024,,,TRUE,TRUE,,,,,,,CLR,,,,,,,,VFR,,,,,,,,,,,,METAR,7.0
K4S1 061555Z AUTO 05012KT 5SM BR CLR 03/03 A3055 RMK AO2,K4S1,2023-02-06T15:55:00Z,42.42,-124.42,3.0,3.0,50,12,,5.0,30.549213,,,TRUE,TRUE,,,,,,BR,CLR,,,,,,,,MVFR,,,,,,,,,,,,METAR,7.0
K4S1 061535Z AUTO 06009KT 7SM CLR 03/03 A3055 RMK AO2,K4S1,2023-02-06T15:35:00Z,42.42,-124.42,3.0,3.0,60,9,,7.0,30.549213,,,TRUE,TRUE,,,,,,,CLR,,,,,,,,VFR,,,,,,,,,,,,METAR,7.0
K4S1 061515Z AUTO 05011KT 7SM CLR 03/02 A3054 RMK AO2,K4S1,2023-02-06T15:15:00Z,42.42,-124.42,3.0,2.0,50,11,,7.0,30.540354,,,TRUE,TRUE,,,,,,,CLR,,,,,,,,VFR,,,,,,,,,,,,METAR,7.0
K4S1 061455Z AUTO 06012KT 7SM CLR 03/03 A3054 RMK AO2,K4S1,2023-02-06T14:55:00Z,42.42,-124.42,3.0,3.0,60,12,,7.0,30.540354,,,TRUE,TRUE,,,,,,,CLR,,,,,,,,VFR,,,,,,,,,,,,METAR,7.0
K4S1 061435Z AUTO 05011KT 7SM CLR 03/03 A3053 RMK AO2,K4S1,2023-02-06T14:35:00Z,42.42,-124.42,3.0,3.0,50,11,,7.0,30.528543,,,TRUE,TRUE,,,,,,,CLR,,,,,,,,VFR,,,,,,,,,,,,METAR,7.0
K4S1 061415Z AUTO 05012KT 5SM BR CLR 03/03 A3053 RMK AO2,K4S1,2023-02-06T14:15:00Z,42.42,-124.42,3.0,3.0,50,12,,5.0,30.528543,,,TRUE,TRUE,,,,,,BR,CLR,,,,,,,,MVFR,,,,,,,,,,,,METAR,7.0
K4S1 061355Z AUTO 05012KT 7SM CLR 03/03 A3053 RMK AO2,K4S1,2023-02-06T13:55:00Z,42.42,-124.42,3.0,3.0,50,12,,7.0,30.528543,,,TRUE,TRUE,,,,,,,CLR,,,,,,,,VFR,,,,,,,,,,,,METAR,7.0
K4S1 061335Z AUTO 05011KT 10SM CLR 03/03 A3053 RMK AO2,K4S1,2023-02-06T13:35:00Z,42.42,-124.42,3.0,3.0,50,11,,10.0,30.528543,,,TRUE,TRUE,,,,,,,CLR,,,,,,,,VFR,,,,,,,,,,,,METAR,7.0
K4S1 061315Z AUTO 05011KT 7SM CLR 03/03 A3053 RMK AO2,K4S1,2023-02-06T13:15:00Z,42.42,-124.42,3.0,3.0,50,11,,7.0,30.528543,,,TRUE,TRUE,,,,,,,CLR,,,,,,,,VFR,,,,,,,,,,,,METAR,7.0
K4S1 061255Z AUTO 05012KT 7SM CLR 03/03 A3052 RMK AO2,K4S1,2023-02-06T12:55:00Z,42.42,-124.42,3.0,3.0,50,12,,7.0,30.519686,,,TRUE,TRUE,,,,,,,CLR,,,,,,,,VFR,,,,,,,,,,,,METAR,7.0
K4S1 061235Z AUTO 05011KT 7SM CLR 04/03 A3052 RMK AO2,K4S1,2023-02-06T12:35:00Z,42.42,-124.42,4.0,3.0,50,11,,7.0,30.519686,,,TRUE,TRUE,,,,,,,CLR,,,,,,,,VFR,,,,,,,,,,,,METAR,7.0
K4S1 061215Z AUTO 06011KT 7SM CLR 04/03 A3052 RMK AO2,K4S1,2023-02-06T12:15:00Z,42.42,-124.42,4.0,3.0,60,11,,7.0,30.519686,,,TRUE,TRUE,,,,,,,CLR,,,,,,,,VFR,,,,,,,,,,,,METAR,7.0
K4S1 061155Z AUTO 06009KT 7SM CLR 04/03 A3051 RMK AO2,K4S1,2023-02-06T11:55:00Z,42.42,-124.42,4.0,3.0,60,9,,7.0,30.510826,,,TRUE,TRUE,,,,,,,CLR,,,,,,,,VFR,,,,,,,,,,,,METAR,7.0
K4S1 061135Z AUTO 05009KT 7SM CLR 04/03 A3051 RMK AO2,K4S1,2023-02-06T11:35:00Z,42.42,-124.42,4.0,3.0,50,9,,7.0,30.510826,,,TRUE,TRUE,,,,,,,CLR,,,,,,,,VFR,,,,,,,,,,,,METAR,7.0
K4S1 061115Z AUTO 06009KT 7SM CLR 05/03 A3051 RMK AO2,K4S1,2023-02-06T11:15:00Z,42.42,-124.42,5.0,3.0,60,9,,7.0,30.510826,,,TRUE,TRUE,,,,,,,CLR,,,,,,,,VFR,,,,,,,,,,,,METAR,7.0
K4S1 061055Z AUTO 05010KT 7SM CLR 05/03 A3051 RMK AO2,K4S1,2023-02-06T10:55:00Z,42.42,-124.42,5.0,3.0,50,10,,7.0,30.510826,,,TRUE,TRUE,,,,,,,CLR,,,,,,,,VFR,,,,,,,,,,,,METAR,7.0
K4S1 061035Z AUTO 06011KT 7SM CLR 05/03 A3051 RMK AO2,K4S1,2023-02-06T10:35:00Z,42.42,-124.42,5.0,3.0,60,11,,7.0,30.510826,,,TRUE,TRUE,,,,,,,CLR,,,,,,,,VFR,,,,,,,,,,,,METAR,7.0
K4S1 061015Z AUTO 05010KT 7SM CLR 05/03 A3051 RMK AO2,K4S1,2023-02-06T10:15:00Z,42.42,-124.42,5.0,3.0,50,10,,7.0,30.510826,,,TRUE,TRUE,,,,,,,CLR,,,,,,,,VFR,,,,,,,,,,,,METAR,7.0
K4S1 060955Z AUTO 06009KT 7SM CLR 05/03 A3050 RMK AO2,K4S1,2023-02-06T09:55:00Z,42.42,-124.42,5.0,3.0,60,9,,7.0,30.499016,,,TRUE,TRUE,,,,,,,CLR,,,,,,,,VFR,,,,,,,,,,,,METAR,7.0
K4S1 060935Z AUTO 05008KT 7SM CLR 05/03 A3049 RMK AO2,K4S1,2023-02-06T09:35:00Z,42.42,-124.42,5.0,3.0,50,8,,7.0,30.490158,,,TRUE,TRUE,,,,,,,CLR,,,,,,,,VFR,,,,,,,,,,,,METAR,7.0
K4S1 060915Z AUTO 06006KT 7SM CLR 05/04 A3049 RMK AO2,K4S1,2023-02-06T09:15:00Z,42.42,-124.42,5.0,4.0,60,6,,7.0,30.490158,,,TRUE,TRUE,,,,,,,CLR,,,,,,,,VFR,,,,,,,,,,,,METAR,7.0
K4S1 060855Z AUTO 05008KT 7SM CLR 05/04 A3049 RMK AO2,K4S1,2023-02-06T08:55:00Z,42.42,-124.42,5.0,4.0,50,8,,7.0,30.490158,,,TRUE,TRUE,,,,,,,CLR,,,,,,,,VFR,,,,,,,,,,,,METAR,7.0
K4S1 060835Z AUTO 06008KT 7SM CLR 05/04 A3049 RMK AO2,K4S1,2023-02-06T08:35:00Z,42.42,-124.42,5.0,4.0,60,8,,7.0,30.490158,,,TRUE,TRUE,,,,,,,CLR,,,,,,,,VFR,,,,,,,,,,,,METAR,7.0
K4S1 060815Z AUTO 05007KT 7SM CLR 05/04 A3048 RMK AO2,K4S1,2023-02-06T08:15:00Z,42.42,-124.42,5.0,4.0,50,7,,7.0,30.481298,,,TRUE,TRUE,,,,,,,CLR,,,,,,,,VFR,,,,,,,,,,,,METAR,7.0
K4S1 060755Z AUTO 05008KT 7SM CLR 05/04 A3047 RMK AO2,K4S1,2023-02-06T07:55:00Z,42.42,-124.42,5.0,4.0,50,8,,7.0,30.469488,,,TRUE,TRUE,,,,,,,CLR,,,,,,,,VFR,,,,,,,,,,,,METAR,7.0
K4S1 060735Z AUTO 04005KT 7SM SCT038 06/05 A3048 RMK AO2,K4S1,2023-02-06T07:35:00Z,42.42,-124.42,6.0,5.0,40,5,,7.0,30.481298,,,TRUE,TRUE,,,,,,,SCT,3800,,,,,,,VFR,,,,,,,,,,,,METAR,7.0
K4S1 060715Z AUTO 04006KT 7SM CLR 06/05 A3048 RMK AO2,K4S1,2023-02-06T07:15:00Z,42.42,-124.42,6.0,5.0,40,6,,7.0,30.481298,,,TRUE,TRUE,,,,,,,CLR,,,,,,,,VFR,,,,,,,,,,,,METAR,7.0
K4S1 060655Z AUTO 05008KT 7SM CLR 06/05 A3046 RMK AO2,K4S1,2023-02-06T06:55:00Z,42.42,-124.42,6.0,5.0,50,8,,7.0,30.46063,,,TRUE,TRUE,,,,,,,CLR,,,,,,,,VFR,,,,,,,,,,,,METAR,7.0
K4S1 060635Z AUTO 04006KT 7SM CLR 05/05 A3045 RMK AO2,K4S1,2023-02-06T06:35:00Z,42.42,-124.42,5.0,5.0,40,6,,7.0,30.448818,,,TRUE,TRUE,,,,,,,CLR,,,,,,,,VFR,,,,,,,,,,,,METAR,7.0
K4S1 060615Z AUTO 05005KT 7SM CLR 06/05 A3044 RMK AO2,K4S1,2023-02-06T06:15:00Z,42.42,-124.42,6.0,5.0,50,5,,7.0,30.43996,,,TRUE,TRUE,,,,,,,CLR,,,,,,,,VFR,,,,,,,,,,,,METAR,7.0
K4S1 060555Z AUTO 05006KT 5SM BR CLR 06/05 A3044 RMK AO2,K4S1,2023-02-06T05:55:00Z,42.42,-124.42,6.0,5.0,50,6,,5.0,30.43996,,,TRUE,TRUE,,,,,,BR,CLR,,,,,,,,MVFR,,,,,,,,,,,,METAR,7.0
K4S1 060535Z AUTO 05006KT 5SM BR CLR 06/06 A3043 RMK AO2,K4S1,2023-02-06T05:35:00Z,42.42,-124.42,6.0,6.0,50,6,,5.0,30.431103,,,TRUE,TRUE,,,,,,BR,CLR,,,,,,,,MVFR,,,,,,,,,,,,METAR,7.0
K4S1 060515Z AUTO 05004KT 7SM CLR 07/06 A3043 RMK AO2,K4S1,2023-02-06T05:15:00Z,42.42,-124.42,7.0,6.0,50,4,,7.0,30.431103,,,TRUE,TRUE,,,,,,,CLR,,,,,,,,VFR,,,,,,,,,,,,METAR,7.0
K4S1 060455Z AUTO 04005KT 7SM CLR 07/06 A3042 RMK AO2,K4S1,2023-02-06T04:55:00Z,42.42,-124.42,7.0,6.0,40,5,,7.0,30.41929,,,TRUE,TRUE,,,,,,,CLR,,,,,,,,VFR,,,,,,,,,,,,METAR,7.0
K4S1 060435Z AUTO 05006KT 7SM SCT025 SCT034 07/06 A3041 RMK AO2,K4S1,2023-02-06T04:35:00Z,42.42,-124.42,7.0,6.0,50,6,,7.0,30.410433,,,TRUE,TRUE,,,,,,,SCT,2500,SCT,3400,,,,,VFR,,,,,,,,,,,,METAR,7.0
K4S1 060415Z AUTO 04005KT 7SM CLR 07/06 A3040 RMK AO2,K4S1,2023-02-06T04:15:00Z,42.42,-124.42,7.0,6.0,40,5,,7.0,30.398623,,,TRUE,TRUE,,,,,,,CLR,,,,,,,,VFR,,,,,,,,,,,,METAR,7.0
K4S1 060355Z AUTO 05007KT 7SM CLR 07/06 A3039 RMK AO2,K4S1,2023-02-06T03:55:00Z,42.42,-124.42,7.0,6.0,50,7,,7.0,30.389763,,,TRUE,TRUE,,,,,,,CLR,,,,,,,,VFR,,,,,,,,,,,,METAR,7.0
K4S1 060335Z AUTO 03006KT 10SM -RA SCT016 SCT022 07/06 A3038 RMK AO2,K4S1,2023-02-06T03:35:00Z,42.42,-124.42,7.0,6.0,30,6,,10.0,30.380905,,,TRUE,TRUE,,,,,,-RA,SCT,1600,SCT,2200,,,,,VFR,,,,,,,,,,,,METAR,7.0
K4S1 060315Z AUTO 05009G14KT 10SM -DZ CLR 07/05 A3037 RMK AO2,K4S1,2023-02-06T03:15:00Z,42.42,-124.42,7.0,5.0,50,9,14,10.0,30.369095,,,TRUE,TRUE,,,,,,-DZ,CLR,,,,,,,,VFR,,,,,,,,,,,,METAR,7.0
K4S1 060255Z AUTO 07/05 A3036 RMK AO2 PWINO,K4S1,2023-02-06T02:55:00Z,42.42,-124.42,7.0,5.0,,,,,30.360237,,,TRUE,TRUE,,,,,TRUE,,,,,,,,,,,,,,,,,,,,,,METAR,7.0
K4S1 060235Z AUTO 01005KT 7SM CLR 07/06 A3035 RMK AO2,K4S1,2023-02-06T02:35:00Z,42.42,-124.42,7.0,6.0,10,5,,7.0,30.351377,,,TRUE,TRUE,,,,,,,CLR,,,,,,,,VFR,,,,,,,,,,,,METAR,7.0
K4S1 060215Z AUTO 01009G16KT 5SM BR CLR 07/06 A3034 RMK AO2,K4S1,2023-02-06T02:15:00Z,42.42,-124.42,7.0,6.0,10,9,16,5.0,30.339567,,,TRUE,TRUE,,,,,,BR,CLR,,,,,,,,MVFR,,,,,,,,,,,,METAR,7.0
K4S1 060155Z AUTO 05006KT 7SM SCT019 SCT024 07/06 A3032 RMK AO2 P0002,K4S1,2023-02-06T01:55:00Z,42.42,-124.42,7.0,6.0,50,6,,7.0,30.318897,,,TRUE,TRUE,,,,,,,SCT,1900,SCT,2400,,,,,VFR,,,,,,0.02,,,,,,METAR,7.0
K4S1 060135Z AUTO 04007G14KT 7SM -RA SCT019 SCT024 SCT030 07/06 A3032 RMK AO2 P0002,K4S1,2023-02-06T01:35:00Z,42.42,-124.42,7.0,6.0,40,7,14,7.0,30.318897,,,TRUE,TRUE,,,,,,-RA,SCT,1900,SCT,2400,SCT,3000,,,VFR,,,,,,0.02,,,,,,METAR,7.0
K4S1 060115Z AUTO 04008G15KT 4SM RA SCT014 SCT022 08/06 A3031 RMK AO2 P0001,K4S1,2023-02-06T01:15:00Z,42.42,-124.42,8.0,6.0,40,8,15,4.0,30.31004,,,TRUE,TRUE,,,,,,RA,SCT,1400,SCT,2200,,,,,MVFR,,,,,,0.01,,,,,,METAR,7.0
K4S1 060055Z AUTO 01005KT 5SM BR SCT026 SCT034 SCT044 08/06 A3030 RMK AO2 P0001,K4S1,2023-02-06T00:55:00Z,42.42,-124.42,8.0,6.0,10,5,,5.0,30.301182,,,TRUE,TRUE,,,,,,BR,SCT,2600,SCT,3400,SCT,4400,,,MVFR,,,,,,0.01,,,,,,METAR,7.0
K4S1 060035Z AUTO 01009G17KT 3SM -RA SCT025 SCT034 08/06 A3028 RMK AO2,K4S1,2023-02-06T00:35:00Z,42.42,-124.42,8.0,6.0,10,9,17,3.0,30.280512,,,TRUE,TRUE,,,,,,-RA,SCT,2500,SCT,3400,,,,,MVFR,,,,,,,,,,,,METAR,7.0
K4S1 060015Z AUTO 02004KT 4SM BR CLR 09/07 A3027 RMK AO2,K4S1,2023-02-06T00:15:00Z,42.42,-124.42,9.0,7.0,20,4,,4.0,30.268702,,,TRUE,TRUE,,,,,,BR,CLR,,,,,,,,MVFR,,,,,,,,,,,,METAR,7.0
K4S1 052355Z AUTO 34008G15KT 3SM BR CLR 09/07 A3026 RMK AO2,K4S1,2023-02-05T23:55:00Z,42.42,-124.42,9.0,7.0,340,8,15,3.0,30.259842,,,TRUE,TRUE,,,,,,BR,CLR,,,,,,,,MVFR,,,,,,,,,,,,METAR,7.0
K4S1 052335Z AUTO 34012G17KT 3SM BR CLR 10/07 A3025 RMK AO2,K4S1,2023-02-05T23:35:00Z,42.42,-124.42,10.0,7.0,340,12,17,3.0,30.250984,,,TRUE,TRUE,,,,,,BR,CLR,,,,,,,,MVFR,,,,,,,,,,,,METAR,7.0
K4S1 052315Z AUTO 34008G15KT 3SM BR CLR 10/08 A3024 RMK AO2,K4S1,2023-02-05T23:15:00Z,42.42,-124.42,10.0,8.0,340,8,15,3.0,30.239174,,,TRUE,TRUE,,,,,,BR,CLR,,,,,,,,MVFR,,,,,,,,,,,,METAR,7.0
K4S1 052255Z AUTO 35007KT 3SM -RA SCT014 SCT020 SCT028 08/07 A3023 RMK AO2 P0002,K4S1,2023-02-05T22:55:00Z,42.42,-124.42,8.0,7.0,350,7,,3.0,30.230314,,,TRUE,TRUE,,,,,,-RA,SCT,1400,SCT,2000,SCT,2800,,,MVFR,,,,,,0.02,,,,,,METAR,7.0
K4S1 052235Z AUTO 00000KT 5SM BR CLR 09/08 A3021 RMK AO2,K4S1,2023-02-05T22:35:00Z,42.42,-124.42,9.0,8.0,0,0,,5.0,30.209646,,,TRUE,TRUE,,,,,,BR,CLR,,,,,,,,MVFR,,,,,,,,,,,,METAR,7.0
K4S1 052215Z AUTO 02004KT 5SM BR SCT030 SCT035 09/07 A3020 RMK AO2,K4S1,2023-02-05T22:15:00Z,42.42,-124.42,9.0,7.0,20,4,,5.0,30.200787,,,TRUE,TRUE,,,,,,BR,SCT,3000,SCT,3500,,,,,MVFR,,,,,,,,,,,,METAR,7.0
K4S1 052155Z AUTO 06003KT 5SM BR SCT018 SCT023 SCT031 09/08 A3020 RMK AO2 P0003,K4S1,2023-02-05T21:55:00Z,42.42,-124.42,9.0,8.0,60,3,,5.0,30.200787,,,TRUE,TRUE,,,,,,BR,SCT,1800,SCT,2300,SCT,3100,,,MVFR,,,,,,0.03,,,,,,METAR,7.0
K4S1 052135Z AUTO 03005KT 3SM -RA SCT022 08/07 A3019 RMK AO2 P0002,K4S1,2023-02-05T21:35:00Z,42.42,-124.42,8.0,7.0,30,5,,3.0,30.188976,,,TRUE,TRUE,,,,,,-RA,SCT,2200,,,,,,,MVFR,,,,,,0.02,,,,,,METAR,7.0
K4S1 052115Z AUTO 31005KT 4SM RA SCT022 08/07 A3018 RMK AO2 P0002,K4S1,2023-02-05T21:15:00Z,42.42,-124.42,8.0,7.0,310,5,,4.0,30.180119,,,TRUE,TRUE,,,,,,RA,SCT,2200,,,,,,,MVFR,,,,,,0.02,,,,,,METAR,7.0
K4S1 052055Z AUTO 00000KT 5SM BR CLR 10/08 A3017 RMK AO2 P0001,K4S1,2023-02-05T20:55:00Z,42.42,-124.42,10.0,8.0,0,0,,5.0,30.171259,,,TRUE,TRUE,,,,,,BR,CLR,,,,,,,,MVFR,,,,,,0.01,,,,,,METAR,7.0
K4S1 052035Z AUTO 34004KT 4SM -RA SCT020 SCT031 08/07 A3017 RMK AO2 P0001,K4S1,2023-02-05T20:35:00Z,42.42,-124.42,8.0,7.0,340,4,,4.0,30.171259,,,TRUE,TRUE,,,,,,-RA,SCT,2000,SCT,3100,,,,,MVFR,,,,,,0.01,,,,,,METAR,7.0
K4S1 052015Z AUTO 00000KT 7SM SCT028 10/08 A3015 RMK AO2,K4S1,2023-02-05T20:15:00Z,42.42,-124.42,10.0,8.0,0,0,,7.0,30.15059,,,TRUE,TRUE,,,,,,,SCT,2800,,,,,,,VFR,,,,,,,,,,,,METAR,7.0
K4S1 051955Z AUTO 03004KT 5SM -RA SCT029 SCT038 08/07 A3015 RMK AO2 P0001,K4S1,2023-02-05T19:55:00Z,42.42,-124.42,8.0,7.0,30,4,,5.0,30.15059,,,TRUE,TRUE,,,,,,-RA,SCT,2900,SCT,3800,,,,,MVFR,,,,,,0.01,,,,,,METAR,7.0
K4S1 051935Z AUTO 07003KT 7SM -RA SCT023 SCT029 SCT036 08/07 A3014 RMK AO2 P0001,K4S1,2023-02-05T19:35:00Z,42.42,-124.42,8.0,7.0,70,3,,7.0,30.138779,,,TRUE,TRUE,,,,,,-RA,SCT,2300,SCT,2900,SCT,3600,,,VFR,,,,,,0.01,,,,,,METAR,7.0
K4S1 051915Z AUTO 04005KT 5SM BR SCT025 SCT034 09/08 A3012 RMK AO2,K4S1,2023-02-05T19:15:00Z,42.42,-124.42,9.0,8.0,40,5,,5.0,30.121063,,,TRUE,TRUE,,,,,,BR,SCT,2500,SCT,3400,,,,,MVFR,,,,,,,,,,,,METAR,7.0
K4S1 051855Z AUTO 06009KT 7SM -DZ SCT025 SCT036 08/07 A3012 RMK AO2,K4S1,2023-02-05T18:55:00Z,42.42,-124.42,8.0,7.0,60,9,,7.0,30.121063,,,TRUE,TRUE,,,,,,-DZ,SCT,2500,SCT,3600,,,,,VFR,,,,,,,,,,,,METAR,7.0
K4S1 051835Z AUTO 05006KT 5SM BR SCT035 SCT046 08/07 A3010 RMK AO2,K4S1,2023-02-05T18:35:00Z,42.42,-124.42,8.0,7.0,50,6,,5.0,30.100393,,,TRUE,TRUE,,,,,,BR,SCT,3500,SCT,4600,,,,,MVFR,,,,,,,,,,,,METAR,7.0
K4S1 051815Z AUTO 06008KT 5SM BR SCT035 SCT044 07/06 A3009 RMK AO2,K4S1,2023-02-05T18:15:00Z,42.42,-124.42,7.0,6.0,60,8,,5.0,30.088583,,,TRUE,TRUE,,,,,,BR,SCT,3500,SCT,4400,,,,,MVFR,,,,,,,,,,,,METAR,7.0
K4S1 051755Z AUTO 05006KT 10SM -DZ SCT035 SCT045 07/06 A3007 RMK AO2,K4S1,2023-02-05T17:55:00Z,42.42,-124.42,7.0,6.0,50,6,,10.0,30.070866,,,TRUE,TRUE,,,,,,-DZ,SCT,3500,SCT,4500,,,,,VFR,,,,,,,,,,,,METAR,7.0
K4S1 051735Z AUTO 05008KT 7SM -RA SCT035 SCT045 07/06 A3006 RMK AO2,K4S1,2023-02-05T17:35:00Z,42.42,-124.42,7.0,6.0,50,8,,7.0,30.059055,,,TRUE,TRUE,,,,,,-RA,SCT,3500,SCT,4500,,,,,VFR,,,,,,,,,,,,METAR,7.0
K4S1 051715Z AUTO 05004KT 7SM SCT007 SCT011 SCT017 07/06 A3004 RMK AO2,K4S1,2023-02-05T17:15:00Z,42.42,-124.42,7.0,6.0,50,4,,7.0,30.041338,,,TRUE,TRUE,,,,,,,SCT,700,SCT,1100,SCT,1700,,,VFR,,,,,,,,,,,,METAR,7.0
K4S1 051655Z AUTO 05006KT 2 1/2SM RA SCT007 SCT011 SCT017 07/06 A3003 RMK AO2 VIS 1 1/4V5 P0012,K4S1,2023-02-05T16:55:00Z,42.42,-124.42,7.0,6.0,50,6,,2.5,30.029528,,,TRUE,TRUE,,,,,,RA,SCT,700,SCT,1100,SCT,1700,,,IFR,,,,,,0.12,,,,,,METAR,7.0
K4S1 051635Z AUTO 00000KT 10SM -RA SCT026 SCT035 07/06 A3001 RMK AO2 P0008,K4S1,2023-02-05T16:35:00Z,42.42,-124.42,7.0,6.0,0,0,,10.0,30.008858,,,TRUE,TRUE,,,,,,-RA,SCT,2600,SCT,3500,,,,,VFR,,,,,,0.08,,,,,,METAR,7.0
K4S1 051615Z AUTO 23006KT 3SM -RA SCT020 SCT026 OVC035 07/06 A2999 RMK AO2 P0006,K4S1,2023-02-05T16:15:00Z,42.42,-124.42,7.0,6.0,230,6,,3.0,29.991142,,,TRUE,TRUE,,,,,,-RA,SCT,2000,SCT,2600,OVC,3500,,,MVFR,,,,,,0.06,,,,,,METAR,7.0
K4S1 051555Z AUTO 27012KT 3SM -RA SCT020 BKN026 BKN037 08/06 A2998 RMK AO2 P0006,K4S1,2023-02-05T15:55:00Z,42.42,-124.42,8.0,6.0,270,12,,3.0,29.97933,,,TRUE,TRUE,,,,,,-RA,SCT,2000,BKN,2600,BKN,3700,,,MVFR,,,,,,0.06,,,,,,METAR,7.0
K4S1 051535Z AUTO 21009KT 3SM BR CLR 09/07 A2996 RMK AO2,K4S1,2023-02-05T15:35:00Z,42.42,-124.42,9.0,7.0,210,9,,3.0,29.958662,,,TRUE,TRUE,,,,,,BR,CLR,,,,,,,,MVFR,,,,,,,,,,,,METAR,7.0
K4S1 051515Z AUTO 20006KT 7SM CLR 08/06 A2995 RMK AO2,K4S1,2023-02-05T15:15:00Z,42.42,-124.42,8.0,6.0,200,6,,7.0,29.949802,,,TRUE,TRUE,,,,,,,CLR,,,,,,,,VFR,,,,,,,,,,,,METAR,7.0
K4S1 051455Z AUTO 19007KT 5SM -RA CLR 08/06 A2993 RMK AO2,K4S1,2023-02-05T14:55:00Z,42.42,-124.42,8.0,6.0,190,7,,5.0,29.929134,,,TRUE,TRUE,,,,,,-RA,CLR,,,,,,,,MVFR,,,,,,,,,,,,METAR,7.0
K4S1 051435Z AUTO 18005KT 10SM DZ CLR 08/06 A2992 RMK AO2,K4S1,2023-02-05T14:35:00Z,42.42,-124.42,8.0,6.0,180,5,,10.0,29.920275,,,TRUE,TRUE,,,,,,DZ,CLR,,,,,,,,VFR,,,,,,,,,,,,METAR,7.0
K4S1 051415Z AUTO 18006KT 7SM CLR 08/06 A2991 RMK AO2,K4S1,2023-02-05T14:15:00Z,42.42,-124.42,8.0,6.0,180,6,,7.0,29.911417,,,TRUE,TRUE,,,,,,,CLR,,,,,,,,VFR,,,,,,,,,,,,METAR,7.0
K4S1 051355Z AUTO 17010KT 7SM CLR 08/06 A2991 RMK AO2,K4S1,2023-02-05T13:55:00Z,42.42,-124.42,8.0,6.0,170,10,,7.0,29.911417,,,TRUE,TRUE,,,,,,,CLR,,,,,,,,VFR,,,,,,,,,,,,METAR,7.0
K4S1 051335Z AUTO 17011KT 7SM -RA SCT018 SCT055 08/07 A2990 RMK AO2,K4S1,2023-02-05T13:35:00Z,42.42,-124.42,8.0,7.0,170,11,,7.0,29.899607,,,TRUE,TRUE,,,,,,-RA,SCT,1800,SCT,5500,,,,,VFR,,,,,,,,,,,,METAR,7.0
K4S1 051315Z AUTO 15008KT 7SM CLR 07/06 A2989 RMK AO2,K4S1,2023-02-05T13:15:00Z,42.42,-124.42,7.0,6.0,150,8,,7.0,29.890747,,,TRUE,TRUE,,,,,,,CLR,,,,,,,,VFR,,,,,,,,,,,,METAR,7.0
K4S1 051255Z AUTO 17009KT 7SM CLR 07/06 A2989 RMK AO2 P0001,K4S1,2023-02-05T12:55:00Z,42.42,-124.42,7.0,6.0,170,9,,7.0,29.890747,,,TRUE,TRUE,,,,,,,CLR,,,,,,,,VFR,,,,,,0.01,,,,,,METAR,7.0
K4S1 051235Z AUTO 18009KT 7SM CLR 07/06 A2988 RMK AO2 P0001,K4S1,2023-02-05T12:35:00Z,42.42,-124.42,7.0,6.0,180,9,,7.0,29.878937,,,TRUE,TRUE,,,,,,,CLR,,,,,,,,VFR,,,,,,0.01,,,,,,METAR,7.0
K4S1 051215Z AUTO 19010KT 4SM -RA SCT017 SCT027 BKN038 07/06 A2988 RMK AO2 P0001,K4S1,2023-02-05T12:15:00Z,42.42,-124.42,7.0,6.0,190,10,,4.0,29.878937,,,TRUE,TRUE,,,,,,-RA,SCT,1700,SCT,2700,BKN,3800,,,MVFR,,,,,,0.01,,,,,,METAR,7.0
K4S1 051155Z AUTO 22017KT 2 1/2SM -RA SCT017 SCT027 SCT036 08/06 A2988 RMK AO2 P0002,K4S1,2023-02-05T11:55:00Z,42.42,-124.42,8.0,6.0,220,17,,2.5,29.878937,,,TRUE,TRUE,,,,,,-RA,SCT,1700,SCT,2700,SCT,3600,,,IFR,,,,,,0.02,,,,,,METAR,7.0
K4S1 051135Z AUTO 21019KT 3SM BR CLR 10/07 A2986 RMK AO2,K4S1,2023-02-05T11:35:00Z,42.42,-124.42,10.0,7.0,210,19,,3.0,29.861221,,,TRUE,TRUE,,,,,,BR,CLR,,,,,,,,MVFR,,,,,,,,,,,,METAR,7.0
K4S1 051115Z AUTO 21020G24KT 4SM BR CLR 10/07 A2986 RMK AO2,K4S1,2023-02-05T11:15:00Z,42.42,-124.42,10.0,7.0,210,20,24,4.0,29.861221,,,TRUE,TRUE,,,,,,BR,CLR,,,,,,,,MVFR,,,,,,,,,,,,METAR,7.0
K4S1 051055Z AUTO 20013KT 3SM BR CLR 09/07 A2986 RMK AO2,K4S1,2023-02-05T10:55:00Z,42.42,-124.42,9.0,7.0,200,13,,3.0,29.861221,,,TRUE,TRUE,,,,,,BR,CLR,,,,,,,,MVFR,,,,,,,,,,,,METAR,7.0
K4S1 051035Z AUTO 21016KT 3SM BR CLR 10/07 A2986 RMK AO2,K4S1,2023-02-05T10:35:00Z,42.42,-124.42,10.0,7.0,210,16,,3.0,29.861221,,,TRUE,TRUE,,,,,,BR,CLR,,,,,,,,MVFR,,,,,,,,,,,,METAR,7.0
K4S1 051015Z AUTO 22016KT 3SM BR CLR 10/07 A2986 RMK AO2,K4S1,2023-02-05T10:15:00Z,42.42,-124.42,10.0,7.0,220,16,,3.0,29.861221,,,TRUE,TRUE,,,,,,BR,CLR,,,,,,,,MVFR,,,,,,,,,,,,METAR,7.0
K4S1 050955Z AUTO 22019KT 3SM BR CLR 10/07 A2984 RMK AO2 P0001,K4S1,2023-02-05T09:55:00Z,42.42,-124.42,10.0,7.0,220,19,,3.0,29.840551,,,TRUE,TRUE,,,,,,BR,CLR,,,,,,,,MVFR,,,,,,0.01,,,,,,METAR,7.0
K4S1 050935Z AUTO 22019G23KT 3SM -RA SCT022 SCT028 SCT035 09/07 A2983 RMK AO2 P0001,K4S1,2023-02-05T09:35:00Z,42.42,-124.42,9.0,7.0,220,19,23,3.0,29.828741,,,TRUE,TRUE,,,,,,-RA,SCT,2200,SCT,2800,SCT,3500,,,MVFR,,,,,,0.01,,,,,,METAR,7.0
K4S1 050915Z AUTO 22016G25KT 3SM BR SCT033 10/08 A2982 RMK AO2,K4S1,2023-02-05T09:15:00Z,42.42,-124.42,10.0,8.0,220,16,25,3.0,29.819881,,,TRUE,TRUE,,,,,,BR,SCT,3300,,,,,,,MVFR,,,,,,,,,,,,METAR,7.0
K4S1 050855Z AUTO 22021G24KT 4SM BR CLR 10/08 A2982 RMK AO2,K4S1,2023-02-05T08:55:00Z,42.42,-124.42,10.0,8.0,220,21,24,4.0,29.819881,,,TRUE,TRUE,,,,,,BR,CLR,,,,,,,,MVFR,,,,,,,,,,,,METAR,7.0
K4S1 050835Z AUTO 23018KT 4SM BR SCT021 SCT029 09/08 A2979 RMK AO2,K4S1,2023-02-05T08:35:00Z,42.42,-124.42,9.0,8.0,230,18,,4.0,29.790354,,,TRUE,TRUE,,,,,,BR,SCT,2100,SCT,2900,,,,,MVFR,,,,,,,,,,,,METAR,7.0
K4S1 050815Z AUTO 24016G21KT 5SM -RA SCT013 SCT021 SCT029 09/08 A2977 RMK AO2,K4S1,2023-02-05T08:15:00Z,42.42,-124.42,9.0,8.0,240,16,21,5.0,29.769686,,,TRUE,TRUE,,,,,,-RA,SCT,1300,SCT,2100,SCT,2900,,,MVFR,,,,,,,,,,,,METAR,7.0
K4S1 050755Z AUTO 25015G20KT 3SM -RA SCT008 SCT011 BKN030 09/08 A2975 RMK AO2 P0015,K4S1,2023-02-05T07:55:00Z,42.42,-124.42,9.0,8.0,250,15,20,3.0,29.749016,,,TRUE,TRUE,,,,,,-RA,SCT,800,SCT,1100,BKN,3000,,,MVFR,,,,,,0.15,,,,,,METAR,7.0
K4S1 050735Z AUTO 18004KT 7SM -RA SCT013 SCT027 SCT040 08/07 A2971 RMK AO2 P0009,K4S1,2023-02-05T07:35:00Z,42.42,-124.42,8.0,7.0,180,4,,7.0,29.71063,,,TRUE,TRUE,,,,,,-RA,SCT,1300,SCT,2700,SCT,4000,,,VFR,,,,,,0.09,,,,,,METAR,7.0
K4S1 050715Z AUTO 20005KT 2 1/2SM RA BKN027 BKN032 BKN040 09/08 A2970 RMK AO2 P0005,K4S1,2023-02-05T07:15:00Z,42.42,-124.42,9.0,8.0,200,5,,2.5,29.698818,,,TRUE,TRUE,,,,,,RA,BKN,2700,BKN,3200,BKN,4000,,,IFR,,,,,,0.05,,,,,,METAR,7.0
K4S1 050655Z AUTO 26012G16KT 3SM RA BKN027 BKN033 BKN042 09/08 A2968 RMK AO2 P0016,K4S1,2023-02-05T06:55:00Z,42.42,-124.42,9.0,8.0,260,12,16,3.0,29.681103,,,TRUE,TRUE,,,,,,RA,BKN,2700,BKN,3300,BKN,4200,,,MVFR,,,,,,0.16,,,,,,METAR,7.0
K4S1 050635Z AUTO 24023G40KT 2 1/2SM -RA SCT011 BKN017 OVC042 09/08 A2965 RMK AO2 P0010,K4S1,2023-02-05T06:35:00Z,42.42,-124.42,9.0,8.0,240,23,40,2.5,29.648623,,,TRUE,TRUE,,,,,,-RA,SCT,1100,BKN,1700,OVC,4200,,,IFR,,,,,,0.1,,,,,,METAR,7.0
K4S1 050615Z AUTO 19012G18KT 4SM -RA BKN017 BKN031 OVC043 10/08 A2963 RMK AO2 P0003,K4S1,2023-02-05T06:15:00Z,42.42,-124.42,10.0,8.0,190,12,18,4.0,29.630905,,,TRUE,TRUE,,,,,,-RA,BKN,1700,BKN,3100,OVC,4300,,,MVFR,,,,,,0.03,,,,,,METAR,7.0
K4S1 050555Z AUTO 18008KT 5SM -RA SCT032 BKN037 BKN045 10/08 A2961 RMK AO2 P0007,K4S1,2023-02-05T05:55:00Z,42.42,-124.42,10.0,8.0,180,8,,5.0,29.610237,,,TRUE,TRUE,,,,,,-RA,SCT,3200,BKN,3700,BKN,4500,,,MVFR,,,,,,0.07,,,,,,METAR,7.0
K4S1 050535Z AUTO 19008KT 3SM -RA BKN034 OVC045 10/08 A2961 RMK AO2 P0005,K4S1,2023-02-05T05:35:00Z,42.42,-124.42,10.0,8.0,190,8,,3.0,29.610237,,,TRUE,TRUE,,,,,,-RA,BKN,3400,OVC,4500,,,,,MVFR,,,,,,0.05,,,,,,METAR,7.0
K4S1 050515Z AUTO 22010KT 2 1/2SM -RA SCT029 SCT034 BKN040 10/08 A2961 RMK AO2 P0002,K4S1,2023-02-05T05:15:00Z,42.42,-124.42,10.0,8.0,220,10,,2.5,29.610237,,,TRUE,TRUE,,,,,,-RA,SCT,2900,SCT,3400,BKN,4000,,,IFR,,,,,,0.02,,,,,,METAR,7.0
K4S1 050455Z AUTO 22011KT 3SM -RA SCT034 SCT042 BKN049 11/08 A2961 RMK AO2,K4S1,2023-02-05T04:55:00Z,42.42,-124.42,11.0,8.0,220,11,,3.0,29.610237,,,TRUE,TRUE,,,,,,-RA,SCT,3400,SCT,4200,BKN,4900,,,MVFR,,,,,,,,,,,,METAR,7.0
K4S1 050435Z AUTO 19007KT 5SM -RA CLR 11/07 A2961 RMK AO2,K4S1,2023-02-05T04:35:00Z,42.42,-124.42,11.0,7.0,190,7,,5.0,29.610237,,,TRUE,TRUE,,,,,,-RA,CLR,,,,,,,,MVFR,,,,,,,,,,,,METAR,7.0
K4S1 050415Z AUTO 19005KT 3SM HZ CLR 11/07 A2962 RMK AO2,K4S1,2023-02-05T04:15:00Z,42.42,-124.42,11.0,7.0,190,5,,3.0,29.619095,,,TRUE,TRUE,,,,,,HZ,CLR,,,,,,,,MVFR,,,,,,,,,,,,METAR,7.0
K4S1 050355Z AUTO 18010KT 7SM CLR 12/08 A2963 RMK AO2,K4S1,2023-02-05T03:55:00Z,42.42,-124.42,12.0,8.0,180,10,,7.0,29.630905,,,TRUE,TRUE,,,,,,,CLR,,,,,,,,VFR,,,,,,,,,,,,METAR,7.0
K4S1 050335Z AUTO 18014G19KT 4SM HZ CLR 12/07 A2965 RMK AO2,K4S1,2023-02-05T03:35:00Z,42.42,-124.42,12.0,7.0,180,14,19,4.0,29.648623,,,TRUE,TRUE,,,,,,HZ,CLR,,,,,,,,MVFR,,,,,,,,,,,,METAR,7.0
K4S1 050315Z AUTO 19009G15KT 3SM HZ SCT046 11/07 A2965 RMK AO2,K4S1,2023-02-05T03:15:00Z,42.42,-124.42,11.0,7.0,190,9,15,3.0,29.648623,,,TRUE,TRUE,,,,,,HZ,SCT,4600,,,,,,,MVFR,,,,,,,,,,,,METAR,7.0
K4S1 050255Z AUTO 19008KT 5SM HZ SCT046 12/06 A2966 RMK AO2,K4S1,2023-02-05T02:55:00Z,42.42,-124.42,12.0,6.0,190,8,,5.0,29.660433,,,TRUE,TRUE,,,,,,HZ,SCT,4600,,,,,,,MVFR,,,,,,,,,,,,METAR,7.0
K4S1 050235Z AUTO 16006KT 7SM CLR 12/05 A2967 RMK AO2,K4S1,2023-02-05T02:35:00Z,42.42,-124.42,12.0,5.0,160,6,,7.0,29.66929,,,TRUE,TRUE,,,,,,,CLR,,,,,,,,VFR,,,,,,,,,,,,METAR,7.0
K4S1 050215Z AUTO 17007KT 7SM CLR 12/05 A2968 RMK AO2,K4S1,2023-02-05T02:15:00Z,42.42,-124.42,12.0,5.0,170,7,,7.0,29.681103,,,TRUE,TRUE,,,,,,,CLR,,,,,,,,VFR,,,,,,,,,,,,METAR,7.0
K4S1 050155Z AUTO 15012G17KT 7SM CLR 12/04 A2968 RMK AO2,K4S1,2023-02-05T01:55:00Z,42.42,-124.42,12.0,4.0,150,12,17,7.0,29.681103,,,TRUE,TRUE,,,,,,,CLR,,,,,,,,VFR,,,,,,,,,,,,METAR,7.0
K4S1 050135Z AUTO 13008KT 5SM HZ CLR 12/05 A2969 RMK AO2,K4S1,2023-02-05T01:35:00Z,42.42,-124.42,12.0,5.0,130,8,,5.0,29.68996,,,TRUE,TRUE,,,,,,HZ,CLR,,,,,,,,MVFR,,,,,,,,,,,,METAR,7.0
K4S1 050115Z AUTO 15008G19KT 7SM CLR 12/06 A2971 RMK AO2,K4S1,2023-02-05T01:15:00Z,42.42,-124.42,12.0,6.0,150,8,19,7.0,29.71063,,,TRUE,TRUE,,,,,,,CLR,,,,,,,,VFR,,,,,,,,,,,,METAR,7.0
K4S1 050055Z AUTO 16010G14KT 5SM HZ CLR 12/05 A2973 RMK AO2,K4S1,2023-02-05T00:55:00Z,42.42,-124.42,12.0,5.0,160,10,14,5.0,29.731298,,,TRUE,TRUE,,,,,,HZ,CLR,,,,,,,,MVFR,,,,,,,,,,,,METAR,7.0
K4S1 050035Z AUTO 18009KT 4SM HZ CLR 12/05 A2975 RMK AO2,K4S1,2023-02-05T00:35:00Z,42.42,-124.42,12.0,5.0,180,9,,4.0,29.749016,,,TRUE,TRUE,,,,,,HZ,CLR,,,,,,,,MVFR,,,,,,,,,,,,METAR,7.0
K4S1 050015Z AUTO 18009G22KT 7SM CLR 13/05 A2974 RMK AO2,K4S1,2023-02-05T00:15:00Z,42.42,-124.42,13.0,5.0,180,9,22,7.0,29.740158,,,TRUE,TRUE,,,,,,,CLR,,,,,,,,VFR,,,,,,,,,,,,METAR,7.0
K4S1 042355Z AUTO 18010KT 3SM HZ CLR 12/06 A2976 RMK AO2,K4S1,2023-02-04T23:55:00Z,42.42,-124.42,12.0,6.0,180,10,,3.0,29.760826,,,TRUE,TRUE,,,,,,HZ,CLR,,,,,,,,MVFR,,,,,,,,,,,,METAR,7.0
K4S1 042335Z AUTO 16011G23KT 5SM HZ CLR 14/03 A2977 RMK AO2,K4S1,2023-02-04T23:35:00Z,42.42,-124.42,14.0,3.0,160,11,23,5.0,29.769686,,,TRUE,TRUE,,,,,,HZ,CLR,,,,,,,,MVFR,,,,,,,,,,,,METAR,7.0
K4S1 042315Z AUTO 18012G17KT 4SM HZ CLR 13/05 A2977 RMK AO2,K4S1,2023-02-04T23:15:00Z,42.42,-124.42,13.0,5.0,180,12,17,4.0,29.769686,,,TRUE,TRUE,,,,,,HZ,CLR,,,,,,,,MVFR,,,,,,,,,,,,METAR,7.0
K4S1 042255Z AUTO 20012G18KT 3SM HZ CLR 12/06 A2978 RMK AO2,K4S1,2023-02-04T22:55:00Z,42.42,-124.42,12.0,6.0,200,12,18,3.0,29.778543,,,TRUE,TRUE,,,,,,HZ,CLR,,,,,,,,MVFR,,,,,,,,,,,,METAR,7.0
K4S1 042235Z AUTO 20013G19KT 4SM HZ CLR 11/06 A2981 RMK AO2,K4S1,2023-02-04T22:35:00Z,42.42,-124.42,11.0,6.0,200,13,19,4.0,29.811024,,,TRUE,TRUE,,,,,,HZ,CLR,,,,,,,,MVFR,,,,,,,,,,,,METAR,7.0
K4S1 042215Z AUTO 21014G18KT 4SM HZ CLR 12/05 A2982 RMK AO2,K4S1,2023-02-04T22:15:00Z,42.42,-124.42,12.0,5.0,210,14,18,4.0,29.819881,,,TRUE,TRUE,,,,,,HZ,CLR,,,,,,,,MVFR,,,,,,,,,,,,METAR,7.0
K4S1 042155Z AUTO 17010G19KT 7SM CLR 12/04 A2983 RMK AO2,K4S1,2023-02-04T21:55:00Z,42.42,-124.42,12.0,4.0,170,10,19,7.0,29.828741,,,TRUE,TRUE,,,,,,,CLR,,,,,,,,VFR,,,,,,,,,,,,METAR,7.0
K4S1 042135Z AUTO 19011G16KT 3SM HZ CLR 12/05 A2984 RMK AO2,K4S1,2023-02-04T21:35:00Z,42.42,-124.42,12.0,5.0,190,11,16,3.0,29.840551,,,TRUE,TRUE,,,,,,HZ,CLR,,,,,,,,MVFR,,,,,,,,,,,,METAR,7.0
K4S1 042115Z AUTO 19014G21KT 3SM HZ CLR 12/05 A2987 RMK AO2,K4S1,2023-02-04T21:15:00Z,42.42,-124.42,12.0,5.0,190,14,21,3.0,29.870079,,,TRUE,TRUE,,,,,,HZ,CLR,,,,,,,,MVFR,,,,,,,,,,,,METAR,7.0
K4S1 042055Z AUTO 19015G20KT 4SM HZ CLR 12/05 A2988 RMK AO2,K4S1,2023-02-04T20:55:00Z,42.42,-124.42,12.0,5.0,190,15,20,4.0,29.878937,,,TRUE,TRUE,,,,,,HZ,CLR,,,,,,,,MVFR,,,,,,,,,,,,METAR,7.0
K4S1 042035Z AUTO 19013G21KT 4SM HZ CLR 12/05 A2989 RMK AO2,K4S1,2023-02-04T20:35:00Z,42.42,-124.42,12.0,5.0,190,13,21,4.0,29.890747,,,TRUE,TRUE,,,,,,HZ,CLR,,,,,,,,MVFR,,,,,,,,,,,,METAR,7.0
K4S1 042015Z AUTO 18018G25KT 7SM CLR 13/05 A2989 RMK AO2,K4S1,2023-02-04T20:15:00Z,42.42,-124.42,13.0,5.0,180,18,25,7.0,29.890747,,,TRUE,TRUE,,,,,,,CLR,,,,,,,,VFR,,,,,,,,,,,,METAR,7.0
K4S1 041955Z AUTO 18012G22KT 4SM HZ CLR 13/05 A2992 RMK AO2,K4S1,2023-02-04T19:55:00Z,42.42,-124.42,13.0,5.0,180,12,22,4.0,29.920275,,,TRUE,TRUE,,,,,,HZ,CLR,,,,,,,,MVFR,,,,,,,,,,,,METAR,7.0
K4S1 041935Z AUTO 18014G25KT 4SM HZ CLR 13/05 A2994 RMK AO2,K4S1,2023-02-04T19:35:00Z,42.42,-124.42,13.0,5.0,180,14,25,4.0,29.940945,,,TRUE,TRUE,,,,,,HZ,CLR,,,,,,,,MVFR,,,,,,,,,,,,METAR,7.0
K4S1 041915Z AUTO 18021G29KT 5SM HZ CLR 13/05 A2994 RMK AO2,K4S1,2023-02-04T19:15:00Z,42.42,-124.42,13.0,5.0,180,21,29,5.0,29.940945,,,TRUE,TRUE,,,,,,HZ,CLR,,,,,,,,MVFR,,,,,,,,,,,,METAR,7.0
K4S1 041855Z AUTO 18012G20KT 5SM HZ CLR 13/05 A2995 RMK AO2,K4S1,2023-02-04T18:55:00Z,42.42,-124.42,13.0,5.0,180,12,20,5.0,29.949802,,,TRUE,TRUE,,,,,,HZ,CLR,,,,,,,,MVFR,,,,,,,,,,,,METAR,7.0
K4S1 041835Z AUTO 18012G24KT 5SM HZ CLR 13/04 A2996 RMK AO2,K4S1,2023-02-04T18:35:00Z,42.42,-124.42,13.0,4.0,180,12,24,5.0,29.958662,,,TRUE,TRUE,,,,,,HZ,CLR,,,,,,,,MVFR,,,,,,,,,,,,METAR,7.0
K4S1 041815Z AUTO 17018G25KT 5SM HZ CLR 12/04 A2996 RMK AO2,K4S1,2023-02-04T18:15:00Z,42.42,-124.42,12.0,4.0,170,18,25,5.0,29.958662,,,TRUE,TRUE,,,,,,HZ,CLR,,,,,,,,MVFR,,,,,,,,,,,,METAR,7.0
K4S1 041755Z AUTO 16013G20KT 5SM HZ CLR 12/04 A2996 RMK AO2,K4S1,2023-02-04T17:55:00Z,42.42,-124.42,12.0,4.0,160,13,20,5.0,29.958662,,,TRUE,TRUE,,,,,,HZ,CLR,,,,,,,,MVFR,,,,,,,,,,,,METAR,7.0
K4S1 041735Z AUTO 17009G20KT 7SM CLR 12/04 A2998 RMK AO2,K4S1,2023-02-04T17:35:00Z,42.42,-124.42,12.0,4.0,170,9,20,7.0,29.97933,,,TRUE,TRUE,,,,,,,CLR,,,,,,,,VFR,,,,,,,,,,,,METAR,7.0
K4S1 041715Z AUTO 16012G18KT 7SM CLR 12/05 A2998 RMK AO2,K4S1,2023-02-04T17:15:00Z,42.42,-124.42,12.0,5.0,160,12,18,7.0,29.97933,,,TRUE,TRUE,,,,,,,CLR,,,,,,,,VFR,,,,,,,,,,,,METAR,7.0
K4S1 041655Z AUTO 18010G14KT 5SM HZ CLR 11/05 A2999 RMK AO2,K4S1,2023-02-04T16:55:00Z,42.42,-124.42,11.0,5.0,180,10,14,5.0,29.991142,,,TRUE,TRUE,,,,,,HZ,CLR,,,,,,,,MVFR,,,,,,,,,,,,METAR,7.0
K4S1 041635Z AUTO 16007G21KT 5SM HZ CLR 11/05 A2999 RMK AO2,K4S1,2023-02-04T16:35:00Z,42.42,-124.42,11.0,5.0,160,7,21,5.0,29.991142,,,TRUE,TRUE,,,,,,HZ,CLR,,,,,,,,MVFR,,,,,,,,,,,,METAR,7.0
K4S1 041615Z AUTO 18012G17KT 7SM CLR 11/05 A3000 RMK AO2,K4S1,2023-02-04T16:15:00Z,42.42,-124.42,11.0,5.0,180,12,17,7.0,30.0,,,TRUE,TRUE,,,,,,,CLR,,,,,,,,VFR,,,,,,,,,,,,METAR,7.0
K4S1 041555Z AUTO 16016G22KT 7SM CLR 11/05 A2999 RMK AO2,K4S1,2023-02-04T15:55:00Z,42.42,-124.42,11.0,5.0,160,16,22,7.0,29.991142,,,TRUE,TRUE,,,,,,,CLR,,,,,,,,VFR,,,,,,,,,,,,METAR,7.0
K4S1 041535Z AUTO 17013G20KT 7SM CLR 11/05 A3000 RMK AO2,K4S1,2023-02-04T15:35:00Z,42.42,-124.42,11.0,5.0,170,13,20,7.0,30.0,,,TRUE,TRUE,,,,,,,CLR,,,,,,,,VFR,,,,,,,,,,,,METAR,7.0
K4S1 041515Z AUTO 17010G22KT 7SM CLR 11/05 A3001 RMK AO2,K4S1,2023-02-04T15:15:00Z,42.42,-124.42,11.0,5.0,170,10,22,7.0,30.008858,,,TRUE,TRUE,,,,,,,CLR,,,,,,,,VFR,,,,,,,,,,,,METAR,7.0
K4S1 041455Z AUTO 17014G22KT 7SM CLR 11/05 A3002 RMK AO2,K4S1,2023-02-04T14:55:00Z,42.42,-124.42,11.0,5.0,170,14,22,7.0,30.02067,,,TRUE,TRUE,,,,,,,CLR,,,,,,,,VFR,,,,,,,,,,,,METAR,7.0
K4S1 041435Z AUTO 16012G15KT 7SM CLR 11/05 A3002 RMK AO2,K4S1,2023-02-04T14:35:00Z,42.42,-124.42,11.0,5.0,160,12,15,7.0,30.02067,,,TRUE,TRUE,,,,,,,CLR,,,,,,,,VFR,,,,,,,,,,,,METAR,7.0
K4S1 041415Z AUTO 17012G19KT 7SM CLR 11/05 A3003 RMK AO2,K4S1,2023-02-04T14:15:00Z,42.42,-124.42,11.0,5.0,170,12,19,7.0,30.029528,,,TRUE,TRUE,,,,,,,CLR,,,,,,,,VFR,,,,,,,,,,,,METAR,7.0
K4S1 041355Z AUTO 17009KT 7SM CLR 11/05 A3003 RMK AO2,K4S1,2023-02-04T13:55:00Z,42.42,-124.42,11.0,5.0,170,9,,7.0,30.029528,,,TRUE,TRUE,,,,,,,CLR,,,,,,,,VFR,,,,,,,,,,,,METAR,7.0
K4S1 041335Z AUTO 17009KT 7SM CLR 11/05 A3003 RMK AO2,K4S1,2023-02-04T13:35:00Z,42.42,-124.42,11.0,5.0,170,9,,7.0,30.029528,,,TRUE,TRUE,,,,,,,CLR,,,,,,,,VFR,,,,,,,,,,,,METAR,7.0
K4S1 041315Z AUTO 18011KT 10SM CLR 11/05 A3004 RMK AO2,K4S1,2023-02-04T13:15:00Z,42.42,-124.42,11.0,5.0,180,11,,10.0,30.041338,,,TRUE,TRUE,,,,,,,CLR,,,,,,,,VFR,,,,,,,,,,,,METAR,7.0
K4S1 041255Z AUTO 18010G16KT 7SM CLR 11/05 A3004 RMK AO2,K4S1,2023-02-04T12:55:00Z,42.42,-124.42,11.0,5.0,180,10,16,7.0,30.041338,,,TRUE,TRUE,,,,,,,CLR,,,,,,,,VFR,,,,,,,,,,,,METAR,7.0
K4S1 041235Z AUTO 17011KT 7SM CLR 11/05 A3004 RMK AO2,K4S1,2023-02-04T12:35:00Z,42.42,-124.42,11.0,5.0,170,11,,7.0,30.041338,,,TRUE,TRUE,,,,,,,CLR,,,,,,,,VFR,,,,,,,,,,,,METAR,7.0
K4S1 041215Z AUTO 16011G17KT 7SM CLR 11/05 A3005 RMK AO2,K4S1,2023-02-04T12:15:00Z,42.42,-124.42,11.0,5.0,160,11,17,7.0,30.050198,,,TRUE,TRUE,,,,,,,CLR,,,,,,,,VFR,,,,,,,,,,,,METAR,7.0
K4S1 041155Z AUTO 18010G18KT 10SM CLR 11/05 A3006 RMK AO2,K4S1,2023-02-04T11:55:00Z,42.42,-124.42,11.0,5.0,180,10,18,10.0,30.059055,,,TRUE,TRUE,,,,,,,CLR,,,,,,,,VFR,,,,,,,,,,,,METAR,7.0
K4S1 041135Z AUTO 17009G17KT 7SM CLR 11/05 A3006 RMK AO2,K4S1,2023-02-04T11:35:00Z,42.42,-124.42,11.0,5.0,170,9,17,7.0,30.059055,,,TRUE,TRUE,,,,,,,CLR,,,,,,,,VFR,,,,,,,,,,,,METAR,7.0
K4S1 041115Z AUTO 17012KT 10SM CLR 11/05 A3006 RMK AO2,K4S1,2023-02-04T11:15:00Z,42.42,-124.42,11.0,5.0,170,12,,10.0,30.059055,,,TRUE,TRUE,,,,,,,CLR,,,,,,,,VFR,,,,,,,,,,,,METAR,7.0
K4S1 041055Z AUTO 18011G16KT 7SM CLR 11/05 A3007 RMK AO2,K4S1,2023-02-04T10:55:00Z,42.42,-124.42,11.0,5.0,180,11,16,7.0,30.070866,,,TRUE,TRUE,,,,,,,CLR,,,,,,,,VFR,,,,,,,,,,,,METAR,7.0
K4S1 041035Z AUTO 17010G16KT 7SM CLR 11/05 A3007 RMK AO2,K4S1,2023-02-04T10:35:00Z,42.42,-124.42,11.0,5.0,170,10,16,7.0,30.070866,,,TRUE,TRUE,,,,,,,CLR,,,,,,,,VFR,,,,,,,,,,,,METAR,7.0
K4S1 041015Z AUTO 16015G19KT 7SM CLR 11/05 A3007 RMK AO2,K4S1,2023-02-04T10:15:00Z,42.42,-124.42,11.0,5.0,160,15,19,7.0,30.070866,,,TRUE,TRUE,,,,,,,CLR,,,,,,,,VFR,,,,,,,,,,,,METAR,7.0
K4S1 040955Z AUTO 17010G18KT 10SM CLR 11/05 A3008 RMK AO2,K4S1,2023-02-04T09:55:00Z,42.42,-124.42,11.0,5.0,170,10,18,10.0,30.079725,,,TRUE,TRUE,,,,,,,CLR,,,,,,,,VFR,,,,,,,,,,,,METAR,7.0
K4S1 040935Z AUTO 16009G20KT 7SM CLR 11/05 A3008 RMK AO2,K4S1,2023-02-04T09:35:00Z,42.42,-124.42,11.0,5.0,160,9,20,7.0,30.079725,,,TRUE,TRUE,,,,,,,CLR,,,,,,,,VFR,,,,,,,,,,,,METAR,7.0
K4S1 040915Z AUTO 17011G15KT 7SM CLR 11/06 A3009 RMK AO2,K4S1,2023-02-04T09:15:00Z,42.42,-124.42,11.0,6.0,170,11,15,7.0,30.088583,,,TRUE,TRUE,,,,,,,CLR,,,,,,,,VFR,,,,,,,,,,,,METAR,7.0
K4S1 040855Z AUTO 17015KT 7SM CLR 11/06 A3009 RMK AO2,K4S1,2023-02-04T08:55:00Z,42.42,-124.42,11.0,6.0,170,15,,7.0,30.088583,,,TRUE,TRUE,,,,,,,CLR,,,,,,,,VFR,,,,,,,,,,,,METAR,7.0
K4S1 040835Z AUTO 17011G17KT 7SM CLR 11/06 A3011 RMK AO2,K4S1,2023-02-04T08:35:00Z,42.42,-124.42,11.0,6.0,170,11,17,7.0,30.109253,,,TRUE,TRUE,,,,,,,CLR,,,,,,,,VFR,,,,,,,,,,,,METAR,7.0
K4S1 040815Z AUTO 17012G18KT 7SM CLR 11/06 A3011 RMK AO2,K4S1,2023-02-04T08:15:00Z,42.42,-124.42,11.0,6.0,170,12,18,7.0,30.109253,,,TRUE,TRUE,,,,,,,CLR,,,,,,,,VFR,,,,,,,,,,,,METAR,7.0
K4S1 040755Z AUTO 17012G18KT 7SM CLR 11/06 A3011 RMK AO2,K4S1,2023-02-04T07:55:00Z,42.42,-124.42,11.0,6.0,170,12,18,7.0,30.109253,,,TRUE,TRUE,,,,,,,CLR,,,,,,,,VFR,,,,,,,,,,,,METAR,7.0
K4S1 040735Z AUTO 17014G21KT 7SM CLR 11/06 A3011 RMK AO2,K4S1,2023-02-04T07:35:00Z,42.42,-124.42,11.0,6.0,170,14,21,7.0,30.109253,,,TRUE,TRUE,,,,,,,CLR,,,,,,,,VFR,,,,,,,,,,,,METAR,7.0
K4S1 040715Z AUTO 18012G20KT 140V200 7SM CLR 11/07 A3011 RMK AO2,K4S1,2023-02-04T07:15:00Z,42.42,-124.42,11.0,7.0,180,12,20,7.0,30.109253,,,TRUE,TRUE,,,,,,,CLR,,,,,,,,VFR,,,,,,,,,,,,METAR,7.0
K4S1 040655Z AUTO 17013G20KT 7SM CLR 11/07 A3011 RMK AO2,K4S1,2023-02-04T06:55:00Z,42.42,-124.42,11.0,7.0,170,13,20,7.0,30.109253,,,TRUE,TRUE,,,,,,,CLR,,,,,,,,VFR,,,,,,,,,,,,METAR,7.0
K4S1 040635Z AUTO 17012G16KT 7SM CLR 11/07 A3012 RMK AO2,K4S1,2023-02-04T06:35:00Z,42.42,-124.42,11.0,7.0,170,12,16,7.0,30.121063,,,TRUE,TRUE,,,,,,,CLR,,,,,,,,VFR,,,,,,,,,,,,METAR,7.0
K4S1 040615Z AUTO 17013KT 7SM CLR 11/07 A3012 RMK AO2,K4S1,2023-02-04T06:15:00Z,42.42,-124.42,11.0,7.0,170,13,,7.0,30.121063,,,TRUE,TRUE,,,,,,,CLR,,,,,,,,VFR,,,,,,,,,,,,METAR,7.0
K4S1 040555Z AUTO 17012G17KT 7SM CLR 11/07 A3012 RMK AO2,K4S1,2023-02-04T05:55:00Z,42.42,-124.42,11.0,7.0,170,12,17,7.0,30.121063,,,TRUE,TRUE,,,,,,,CLR,,,,,,,,VFR,,,,,,,,,,,,METAR,7.0
K4S1 040535Z AUTO 17013G21KT 7SM CLR 11/07 A3012 RMK AO2,K4S1,2023-02-04T05:35:00Z,42.42,-124.42,11.0,7.0,170,13,21,7.0,30.121063,,,TRUE,TRUE,,,,,,,CLR,,,,,,,,VFR,,,,,,,,,,,,METAR,7.0
K4S1 040515Z AUTO 18017G27KT 7SM CLR 11/08 A3013 RMK AO2,K4S1,2023-02-04T05:15:00Z,42.42,-124.42,11.0,8.0,180,17,27,7.0,30.129921,,,TRUE,TRUE,,,,,,,CLR,,,,,,,,VFR,,,,,,,,,,,,METAR,7.0
K4S1 040455Z AUTO 17014G24KT 7SM CLR 11/08 A3012 RMK AO2,K4S1,2023-02-04T04:55:00Z,42.42,-124.42,11.0,8.0,170,14,24,7.0,30.121063,,,TRUE,TRUE,,,,,,,CLR,,,,,,,,VFR,,,,,,,,,,,,METAR,7.0
K4S1 040435Z AUTO 18016G30KT 7SM CLR 11/08 A3013 RMK AO2,K4S1,2023-02-04T04:35:00Z,42.42,-124.42,11.0,8.0,180,16,30,7.0,30.129921,,,TRUE,TRUE,,,,,,,CLR,,,,,,,,VFR,,,,,,,,,,,,METAR,7.0
K4S1 040415Z AUTO 18019G23KT 7SM CLR 11/08 A3013 RMK AO2,K4S1,2023-02-04T04:15:00Z,42.42,-124.42,11.0,8.0,180,19,23,7.0,30.129921,,,TRUE,TRUE,,,,,,,CLR,,,,,,,,VFR,,,,,,,,,,,,METAR,7.0
K4S1 040355Z AUTO 19015G25KT 7SM CLR 11/08 A3014 RMK AO2,K4S1,2023-02-04T03:55:00Z,42.42,-124.42,11.0,8.0,190,15,25,7.0,30.138779,,,TRUE,TRUE,,,,,,,CLR,,,,,,,,VFR,,,,,,,,,,,,METAR,7.0
K4S1 040335Z AUTO 19016G22KT 5SM HZ CLR 11/08 A3014 RMK AO2,K4S1,2023-02-04T03:35:00Z,42.42,-124.42,11.0,8.0,190,16,22,5.0,30.138779,,,TRUE,TRUE,,,,,,HZ,CLR,,,,,,,,MVFR,,,,,,,,,,,,METAR,7.0
K4S1 040315Z AUTO 18020G30KT 5SM HZ CLR 11/08 A3014 RMK AO2,K4S1,2023-02-04T03:15:00Z,42.42,-124.42,11.0,8.0,180,20,30,5.0,30.138779,,,TRUE,TRUE,,,,,,HZ,CLR,,,,,,,,MVFR,,,,,,,,,,,,METAR,7.0
K4S1 040255Z AUTO 18021G28KT 7SM CLR 11/08 A3013 RMK AO2,K4S1,2023-02-04T02:55:00Z,42.42,-124.42,11.0,8.0,180,21,28,7.0,30.129921,,,TRUE,TRUE,,,,,,,CLR,,,,,,,,VFR,,,,,,,,,,,,METAR,7.0
K4S1 040235Z AUTO 18016G26KT 7SM CLR 11/08 A3014 RMK AO2,K4S1,2023-02-04T02:35:00Z,42.42,-124.42,11.0,8.0,180,16,26,7.0,30.138779,,,TRUE,TRUE,,,,,,,CLR,,,,,,,,VFR,,,,,,,,,,,,METAR,7.0
K4S1 040215Z AUTO 18019G24KT 7SM CLR 11/08 A3013 RMK AO2,K4S1,2023-02-04T02:15:00Z,42.42,-124.42,11.0,8.0,180,19,24,7.0,30.129921,,,TRUE,TRUE,,,,,,,CLR,,,,,,,,VFR,,,,,,,,,,,,METAR,7.0
K4S1 040155Z AUTO 18019G26KT 5SM BR CLR 11/08 A3013 RMK AO2,K4S1,2023-02-04T01:55:00Z,42.42,-124.42,11.0,8.0,180,19,26,5.0,30.129921,,,TRUE,TRUE,,,,,,BR,CLR,,,,,,,,MVFR,,,,,,,,,,,,METAR,7.0
K4S1 040135Z AUTO 18017G24KT 7SM CLR 11/08 A3013 RMK AO2,K4S1,2023-02-04T01:35:00Z,42.42,-124.42,11.0,8.0,180,17,24,7.0,30.129921,,,TRUE,TRUE,,,,,,,CLR,,,,,,,,VFR,,,,,,,,,,,,METAR,7.0
K4S1 040115Z AUTO 18016G21KT 7SM CLR 11/08 A3014 RMK AO2,K4S1,2023-02-04T01:15:00Z,42.42,-124.42,11.0,8.0,180,16,21,7.0,30.138779,,,TRUE,TRUE,,,,,,,CLR,,,,,,,,VFR,,,,,,,,,,,,METAR,7.0
K4S1 040055Z AUTO 19015G25KT 4SM BR CLR 11/08 A3013 RMK AO2,K4S1,2023-02-04T00:55:00Z,42.42,-124.42,11.0,8.0,190,15,25,4.0,30.129921,,,TRUE,TRUE,,,,,,BR,CLR,,,,,,,,MVFR,,,,,,,,,,,,METAR,7.0
K4S1 040035Z AUTO 18017G27KT 7SM CLR 11/08 A3013 RMK AO2,K4S1,2023-02-04T00:35:00Z,42.42,-124.42,11.0,8.0,180,17,27,7.0,30.129921,,,TRUE,TRUE,,,,,,,CLR,,,,,,,,VFR,,,,,,,,,,,,METAR,7.0
K4S1 040015Z AUTO 18018G30KT 5SM BR CLR 11/08 A3014 RMK AO2,K4S1,2023-02-04T00:15:00Z,42.42,-124.42,11.0,8.0,180,18,30,5.0,30.138779,,,TRUE,TRUE,,,,,,BR,CLR,,,,,,,,MVFR,,,,,,,,,,,,METAR,7.0
K4S1 032355Z AUTO 18018G27KT 7SM CLR 11/08 A3013 RMK AO2,K4S1,2023-02-03T23:55:00Z,42.42,-124.42,11.0,8.0,180,18,27,7.0,30.129921,,,TRUE,TRUE,,,,,,,CLR,,,,,,,,VFR,,,,,,,,,,,,METAR,7.0
K4S1 032335Z AUTO 18018G26KT 4SM BR CLR 11/09 A3013 RMK AO2,K4S1,2023-02-03T23:35:00Z,42.42,-124.42,11.0,9.0,180,18,26,4.0,30.129921,,,TRUE,TRUE,,,,,,BR,CLR,,,,,,,,MVFR,,,,,,,,,,,,METAR,7.0
K4S1 032315Z AUTO 18015G26KT 4SM BR CLR 11/09 A3013 RMK AO2,K4S1,2023-02-03T23:15:00Z,42.42,-124.42,11.0,9.0,180,15,26,4.0,30.129921,,,TRUE,TRUE,,,,,,BR,CLR,,,,,,,,MVFR,,,,,,,,,,,,METAR,7.0
K4S1 032255Z AUTO 19016G27KT 5SM BR CLR 11/08 A3013 RMK AO2,K4S1,2023-02-03T22:55:00Z,42.42,-124.42,11.0,8.0,190,16,27,5.0,30.129921,,,TRUE,TRUE,,,,,,BR,CLR,,,,,,,,MVFR,,,,,,,,,,,,METAR,7.0
K4S1 032235Z AUTO 18016G23KT 5SM BR CLR 11/08 A3012 RMK AO2,K4S1,2023-02-03T22:35:00Z,42.42,-124.42,11.0,8.0,180,16,23,5.0,30.121063,,,TRUE,TRUE,,,,,,BR,CLR,,,,,,,,MVFR,,,,,,,,,,,,METAR,7.0
K4S1 032215Z AUTO 19018G25KT 5SM HZ CLR 11/08 A3012 RMK AO2,K4S1,2023-02-03T22:15:00Z,42.42,-124.42,11.0,8.0,190,18,25,5.0,30.121063,,,TRUE,TRUE,,,,,,HZ,CLR,,,,,,,,MVFR,,,,,,,,,,,,METAR,7.0
K4S1 032155Z AUTO 18018G26KT 5SM HZ CLR 11/08 A3012 RMK AO2,K4S1,2023-02-03T21:55:00Z,42.42,-124.42,11.0,8.0,180,18,26,5.0,30.121063,,,TRUE,TRUE,,,,,,HZ,CLR,,,,,,,,MVFR,,,,,,,,,,,,METAR,7.0
K4S1 032135Z AUTO 18020G29KT 4SM HZ CLR 11/08 A3012 RMK AO2,K4S1,2023-02-03T21:35:00Z,42.42,-124.42,11.0,8.0,180,20,29,4.0,30.121063,,,TRUE,TRUE,,,,,,HZ,CLR,,,,,,,,MVFR,,,,,,,,,,,,METAR,7.0
K4S1 032115Z AUTO 18021G33KT 5SM HZ CLR 11/08 A3012 RMK AO2,K4S1,2023-02-03T21:15:00Z,42.42,-124.42,11.0,8.0,180,21,33,5.0,30.121063,,,TRUE,TRUE,,,,,,HZ,CLR,,,,,,,,MVFR,,,,,,,,,,,,METAR,7.0
K4S1 032055Z AUTO 18023G31KT 5SM BR CLR 11/08 A3012 RMK AO2,K4S1,2023-02-03T20:55:00Z,42.42,-124.42,11.0,8.0,180,23,31,5.0,30.121063,,,TRUE,TRUE,,,,,,BR,CLR,,,,,,,,MVFR,,,,,,,,,,,,METAR,7.0
K4S1 032035Z AUTO 18025G32KT 5SM BR CLR 11/08 A3012 RMK AO2,K4S1,2023-02-03T20:35:00Z,42.42,-124.42,11.0,8.0,180,25,32,5.0,30.121063,,,TRUE,TRUE,,,,,,BR,CLR,,,,,,,,MVFR,,,,,,,,,,,,METAR,7.0
K4S1 032015Z AUTO 17024G33KT 5SM BR SCT020 SCT026 SCT034 11/09 A3011 RMK AO2,K4S1,2023-02-03T20:15:00Z,42.42,-124.42,11.0,9.0,170,24,33,5.0,30.109253,,,TRUE,TRUE,,,,,,BR,SCT,2000,SCT,2600,SCT,3400,,,MVFR,,,,,,,,,,,,METAR,7.0
K4S1 031955Z AUTO 18023G32KT 5SM -RA SCT020 SCT025 SCT030 10/08 A3012 RMK AO2 P0002,K4S1,2023-02-03T19:55:00Z,42.42,-124.42,10.0,8.0,180,23,32,5.0,30.121063,,,TRUE,TRUE,,,,,,-RA,SCT,2000,SCT,2500,SCT,3000,,,MVFR,,,,,,0.02,,,,,,METAR,7.0
K4S1 031935Z AUTO 18019G30KT 5SM BR SCT024 SCT030 10/08 A3011 RMK AO2,K4S1,2023-02-03T19:35:00Z,42.42,-124.42,10.0,8.0,180,19,30,5.0,30.109253,,,TRUE,TRUE,,,,,,BR,SCT,2400,SCT,3000,,,,,MVFR,,,,,,,,,,,,METAR,7.0
K4S1 031915Z AUTO 17023G31KT 5SM DZ SCT015 SCT023 SCT031 10/08 A3010 RMK AO2,K4S1,2023-02-03T19:15:00Z,42.42,-124.42,10.0,8.0,170,23,31,5.0,30.100393,,,TRUE,TRUE,,,,,,DZ,SCT,1500,SCT,2300,SCT,3100,,,MVFR,,,,,,,,,,,,METAR,7.0
K4S1 031855Z AUTO 18020G26KT 5SM -DZ SCT024 09/08 A3011 RMK AO2 P0002,K4S1,2023-02-03T18:55:00Z,42.42,-124.42,9.0,8.0,180,20,26,5.0,30.109253,,,TRUE,TRUE,,,,,,-DZ,SCT,2400,,,,,,,MVFR,,,,,,0.02,,,,,,METAR,7.0
K4S1 031835Z AUTO 17018G28KT 7SM SCT013 SCT024 SCT031 09/08 A3010 RMK AO2 P0002,K4S1,2023-02-03T18:35:00Z,42.42,-124.42,9.0,8.0,170,18,28,7.0,30.100393,,,TRUE,TRUE,,,,,,,SCT,1300,SCT,2400,SCT,3100,,,VFR,,,,,,0.02,,,,,,METAR,7.0
K4S1 031815Z AUTO 17018G26KT 5SM -RA SCT015 SCT022 BKN027 08/07 A3009 RMK AO2 P0001,K4S1,2023-02-03T18:15:00Z,42.42,-124.42,8.0,7.0,170,18,26,5.0,30.088583,,,TRUE,TRUE,,,,,,-RA,SCT,1500,SCT,2200,BKN,2700,,,MVFR,,,,,,0.01,,,,,,METAR,7.0
K4S1 031755Z AUTO 18017G28KT 5SM -RA SCT018 SCT023 BKN031 09/07 A3008 RMK AO2 P0004,K4S1,2023-02-03T17:55:00Z,42.42,-124.42,9.0,7.0,180,17,28,5.0,30.079725,,,TRUE,TRUE,,,,,,-RA,SCT,1800,SCT,2300,BKN,3100,,,MVFR,,,,,,0.04,,,,,,METAR,7.0
K4S1 031735Z AUTO 18016G37KT 5SM RA SCT018 SCT025 OVC034 09/07 A3006 RMK AO2 P0002,K4S1,2023-02-03T17:35:00Z,42.42,-124.42,9.0,7.0,180,16,37,5.0,30.059055,,,TRUE,TRUE,,,,,,RA,SCT,1800,SCT,2500,OVC,3400,,,MVFR,,,,,,0.02,,,,,,METAR,7.0
K4S1 031655Z AUTO 17022G36KT 5SM HZ SCT020 BKN031 OVC039 10/07 A3003 RMK AO2,K4S1,2023-02-03T16:55:00Z,42.42,-124.42,10.0,7.0,170,22,36,5.0,30.029528,,,TRUE,TRUE,,,,,,HZ,SCT,2000,BKN,3100,OVC,3900,,,MVFR,,,,,,,,,,,,METAR,7.0
K4S1 031635Z AUTO 17027G39KT 5SM HZ SCT020 SCT029 SCT035 10/07 A3001 RMK AO2,K4S1,2023-02-03T16:35:00Z,42.42,-124.42,10.0,7.0,170,27,39,5.0,30.008858,,,TRUE,TRUE,,,,,,HZ,SCT,2000,SCT,2900,SCT,3500,,,MVFR,,,,,,,,,,,,METAR,7.0
K4S1 031615Z AUTO 17028G43KT 7SM CLR 11/07 A3000 RMK AO2,K4S1,2023-02-03T16:15:00Z,42.42,-124.42,11.0,7.0,170,28,43,7.0,30.0,,,TRUE,TRUE,,,,,,,CLR,,,,,,,,VFR,,,,,,,,,,,,METAR,7.0
K4S1 031555Z AUTO 16027G38KT 10SM CLR 10/07 A2997 RMK AO2 P0001,K4S1,2023-02-03T15:55:00Z,42.42,-124.42,10.0,7.0,160,27,38,10.0,29.970472,,,TRUE,TRUE,,,,,,,CLR,,,,,,,,VFR,,,,,,0.01,,,,,,METAR,7.0
K4S1 031535Z AUTO 17025G40KT 7SM CLR 10/07 A2997 RMK AO2 P0001,K4S1,2023-02-03T15:35:00Z,42.42,-124.42,10.0,7.0,170,25,40,7.0,29.970472,,,TRUE,TRUE,,,,,,,CLR,,,,,,,,VFR,,,,,,0.01,,,,,,METAR,7.0
K4S1 031515Z AUTO 17025G35KT 10SM -DZ CLR 10/06 A2996 RMK AO2,K4S1,2023-02-03T15:15:00Z,42.42,-124.42,10.0,6.0,170,25,35,10.0,29.958662,,,TRUE,TRUE,,,,,,-DZ,CLR,,,,,,,,VFR,,,,,,,,,,,,METAR,7.0
K4S1 031455Z AUTO 15020G35KT 110V210 10SM -RA CLR 09/06 A2996 RMK AO2 P0002,K4S1,2023-02-03T14:55:00Z,42.42,-124.42,9.0,6.0,150,20,35,10.0,29.958662,,,TRUE,TRUE,,,,,,-RA,CLR,,,,,,,,VFR,,,,,,0.02,,,,,,METAR,7.0
K4S1 031435Z AUTO 15015G30KT 10SM -RA CLR 09/06 A2996 RMK AO2 P0001,K4S1,2023-02-03T14:35:00Z,42.42,-124.42,9.0,6.0,150,15,30,10.0,29.958662,,,TRUE,TRUE,,,,,,-RA,CLR,,,,,,,,VFR,,,,,,0.01,,,,,,METAR,7.0
K4S1 031415Z AUTO 16018G28KT 10SM DZ CLR 10/05 A2995 RMK AO2,K4S1,2023-02-03T14:15:00Z,42.42,-124.42,10.0,5.0,160,18,28,10.0,29.949802,,,TRUE,TRUE,,,,,,DZ,CLR,,,,,,,,VFR,,,,,,,,,,,,METAR,7.0
K4S1 031355Z AUTO 16016G31KT 10SM RA SCT043 10/05 A2995 RMK AO2,K4S1,2023-02-03T13:55:00Z,42.42,-124.42,10.0,5.0,160,16,31,10.0,29.949802,,,TRUE,TRUE,,,,,,RA,SCT,4300,,,,,,,VFR,,,,,,,,,,,,METAR,7.0
K4S1 031335Z AUTO 14021G31KT 120V180 7SM SCT043 SCT050 10/05 A2995 RMK AO2,K4S1,2023-02-03T13:35:00Z,42.42,-124.42,10.0,5.0,140,21,31,7.0,29.949802,,,TRUE,TRUE,,,,,,,SCT,4300,SCT,5000,,,,,VFR,,,,,,,,,,,,METAR,7.0
K4S1 031315Z AUTO 14023G34KT 7SM SCT049 09/05 A2995 RMK AO2,K4S1,2023-02-03T13:15:00Z,42.42,-124.42,9.0,5.0,140,23,34,7.0,29.949802,,,TRUE,TRUE,,,,,,,SCT,4900,,,,,,,VFR,,,,,,,,,,,,METAR,7.0
K4S1 031255Z AUTO 15026G36KT 7SM CLR 08/05 A2996 RMK AO2,K4S1,2023-02-03T12:55:00Z,42.42,-124.42,8.0,5.0,150,26,36,7.0,29.958662,,,TRUE,TRUE,,,,,,,CLR,,,,,,,,VFR,,,,,,,,,,,,METAR,7.0
K4S1 031235Z AUTO 14024G33KT 7SM CLR 08/06 A2995 RMK AO2,K4S1,2023-02-03T12:35:00Z,42.42,-124.42,8.0,6.0,140,24,33,7.0,29.949802,,,TRUE,TRUE,,,,,,,CLR,,,,,,,,VFR,,,,,,,,,,,,METAR,7.0
K4S1 031215Z AUTO 15023G41KT 10SM -RA CLR 08/06 A2996 RMK AO2,K4S1,2023-02-03T12:15:00Z,42.42,-124.42,8.0,6.0,150,23,41,10.0,29.958662,,,TRUE,TRUE,,,,,,-RA,CLR,,,,,,,,VFR,,,,,,,,,,,,METAR,7.0
K4S1 031155Z AUTO 15020G41KT 7SM -RA SCT025 BKN033 BKN043 08/06 A2997 RMK AO2 P0005,K4S1,2023-02-03T11:55:00Z,42.42,-124.42,8.0,6.0,150,20,41,7.0,29.970472,,,TRUE,TRUE,,,,,,-RA,SCT,2500,BKN,3300,BKN,4300,,,VFR,,,,,,0.05,,,,,,METAR,7.0
K4S1 031135Z AUTO 16029G40KT 7SM -RA SCT024 BKN033 BKN041 08/06 A2997 RMK AO2 P0003,K4S1,2023-02-03T11:35:00Z,42.42,-124.42,8.0,6.0,160,29,40,7.0,29.970472,,,TRUE,TRUE,,,,,,-RA,SCT,2400,BKN,3300,BKN,4100,,,VFR,,,,,,0.03,,,,,,METAR,7.0
K4S1 031115Z AUTO 17025G35KT 10SM -RA SCT028 BKN035 BKN041 08/06 A2998 RMK AO2 P0001,K4S1,2023-02-03T11:15:00Z,42.42,-124.42,8.0,6.0,170,25,35,10.0,29.97933,,,TRUE,TRUE,,,,,,-RA,SCT,2800,BKN,3500,BKN,4100,,,VFR,,,,,,0.01,,,,,,METAR,7.0
K4S1 031055Z AUTO 18021G34KT 4SM -RA SCT020 BKN028 OVC037 08/06 A2999 RMK AO2 P0005,K4S1,2023-02-03T10:55:00Z,42.42,-124.42,8.0,6.0,180,21,34,4.0,29.991142,,,TRUE,TRUE,,,,,,-RA,SCT,2000,BKN,2800,OVC,3700,,,MVFR,,,,,,0.05,,,,,,METAR,7.0
K4S1 031035Z AUTO 18026G37KT 5SM -RA SCT025 SCT030 OVC036 09/06 A2998 RMK AO2 P0002,K4S1,2023-02-03T10:35:00Z,42.42,-124.42,9.0,6.0,180,26,37,5.0,29.97933,,,TRUE,TRUE,,,,,,-RA,SCT,2500,SCT,3000,OVC,3600,,,MVFR,,,,,,0.02,,,,,,METAR,7.0
K4S1 031015Z AUTO 19027G41KT 5SM RA SCT031 SCT038 10/06 A2998 RMK AO2,K4S1,2023-02-03T10:15:00Z,42.42,-124.42,10.0,6.0,190,27,41,5.0,29.97933,,,TRUE,TRUE,,,,,,RA,SCT,3100,SCT,3800,,,,,MVFR,,,,,,,,,,,,METAR,7.0
K4S1 030955Z AUTO 18021G31KT 5SM HZ CLR 10/06 A2997 RMK AO2,K4S1,2023-02-03T09:55:00Z,42.42,-124.42,10.0,6.0,180,21,31,5.0,29.970472,,,TRUE,TRUE,,,,,,HZ,CLR,,,,,,,,MVFR,,,,,,,,,,,,METAR,7.0
K4S1 030935Z AUTO 20030G37KT 5SM HZ CLR 12/02 A2995 RMK AO2,K4S1,2023-02-03T09:35:00Z,42.42,-124.42,12.0,2.0,200,30,37,5.0,29.949802,,,TRUE,TRUE,,,,,,HZ,CLR,,,,,,,,MVFR,,,,,,,,,,,,METAR,7.0
K4S1 030915Z AUTO 17015G20KT 7SM CLR 12/01 A2991 RMK AO2,K4S1,2023-02-03T09:15:00Z,42.42,-124.42,12.0,1.0,170,15,20,7.0,29.911417,,,TRUE,TRUE,,,,,,,CLR,,,,,,,,VFR,,,,,,,,,,,,METAR,7.0
K4S1 030855Z AUTO 18019G27KT 5SM HZ CLR 12/02 A2992 RMK AO2,K4S1,2023-02-03T08:55:00Z,42.42,-124.42,12.0,2.0,180,19,27,5.0,29.920275,,,TRUE,TRUE,,,,,,HZ,CLR,,,,,,,,MVFR,,,,,,,,,,,,METAR,7.0
K4S1 030835Z AUTO 18019G30KT 5SM HZ CLR 12/02 A2993 RMK AO2,K4S1,2023-02-03T08:35:00Z,42.42,-124.42,12.0,2.0,180,19,30,5.0,29.929134,,,TRUE,TRUE,,,,,,HZ,CLR,,,,,,,,MVFR,,,,,,,,,,,,METAR,7.0
K4S1 030815Z AUTO 19018G30KT 5SM HZ CLR 13/01 A2992 RMK AO2,K4S1,2023-02-03T08:15:00Z,42.42,-124.42,13.0,1.0,190,18,30,5.0,29.920275,,,TRUE,TRUE,,,,,,HZ,CLR,,,,,,,,MVFR,,,,,,,,,,,,METAR,7.0
K4S1 030755Z AUTO 18017G27KT 7SM CLR 13/01 A2991 RMK AO2,K4S1,2023-02-03T07:55:00Z,42.42,-124.42,13.0,1.0,180,17,27,7.0,29.911417,,,TRUE,TRUE,,,,,,,CLR,,,,,,,,VFR,,,,,,,,,,,,METAR,7.0
K4S1 030735Z AUTO 18022G33KT 7SM CLR 13/01 A2992 RMK AO2,K4S1,2023-02-03T07:35:00Z,42.42,-124.42,13.0,1.0,180,22,33,7.0,29.920275,,,TRUE,TRUE,,,,,,,CLR,,,,,,,,VFR,,,,,,,,,,,,METAR,7.0
K4S1 030715Z AUTO 19018G24KT 5SM HZ CLR 12/01 A2992 RMK AO2,K4S1,2023-02-03T07:15:00Z,42.42,-124.42,12.0,1.0,190,18,24,5.0,29.920275,,,TRUE,TRUE,,,,,,HZ,CLR,,,,,,,,MVFR,,,,,,,,,,,,METAR,7.0
K4S1 030655Z AUTO 19017G28KT 5SM HZ CLR 13/00 A2993 RMK AO2,K4S1,2023-02-03T06:55:00Z,42.42,-124.42,13.0,0.0,190,17,28,5.0,29.929134,,,TRUE,TRUE,,,,,,HZ,CLR,,,,,,,,MVFR,,,,,,,,,,,,METAR,7.0
K4S1 030635Z AUTO 17019G26KT 7SM CLR 13/M01 A2992 RMK AO2,K4S1,2023-02-03T06:35:00Z,42.42,-124.42,13.0,-1.0,170,19,26,7.0,29.920275,,,TRUE,TRUE,,,,,,,CLR,,,,,,,,VFR,,,,,,,,,,,,METAR,7.0
K4S1 030615Z AUTO 18021G27KT 5SM HZ CLR 13/01 A2993 RMK AO2,K4S1,2023-02-03T06:15:00Z,42.42,-124.42,13.0,1.0,180,21,27,5.0,29.929134,,,TRUE,TRUE,,,,,,HZ,CLR,,,,,,,,MVFR,,,,,,,,,,,,METAR,7.0
K4S1 030555Z AUTO 18017G29KT 7SM CLR 13/01 A2993 RMK AO2,K4S1,2023-02-03T05:55:00Z,42.42,-124.42,13.0,1.0,180,17,29,7.0,29.929134,,,TRUE,TRUE,,,,,,,CLR,,,,,,,,VFR,,,,,,,,,,,,METAR,7.0
K4S1 030535Z AUTO 19014G22KT 4SM HZ CLR 11/05 A2993 RMK AO2,K4S1,2023-02-03T05:35:00Z,42.42,-124.42,11.0,5.0,190,14,22,4.0,29.929134,,,TRUE,TRUE,,,,,,HZ,CLR,,,,,,,,MVFR,,,,,,,,,,,,METAR,7.0
K4S1 030515Z AUTO 20013KT 4SM HZ CLR 12/03 A2992 RMK AO2,K4S1,2023-02-03T05:15:00Z,42.42,-124.42,12.0,3.0,200,13,,4.0,29.920275,,,TRUE,TRUE,,,,,,HZ,CLR,,,,,,,,MVFR,,,,,,,,,,,,METAR,7.0
K4S1 030455Z AUTO 21016G19KT 4SM HZ CLR 10/04 A2991 RMK AO2,K4S1,2023-02-03T04:55:00Z,42.42,-124.42,10.0,4.0,210,16,19,4.0,29.911417,,,TRUE,TRUE,,,,,,HZ,CLR,,,,,,,,MVFR,,,,,,,,,,,,METAR,7.0
K4S1 030435Z AUTO 00000KT 7SM CLR 07/02 A2991 RMK AO2,K4S1,2023-02-03T04:35:00Z,42.42,-124.42,7.0,2.0,0,0,,7.0,29.911417,,,TRUE,TRUE,,,,,,,CLR,,,,,,,,VFR,,,,,,,,,,,,METAR,7.0
K4S1 030415Z AUTO 04003KT 7SM CLR 06/02 A2991 RMK AO2,K4S1,2023-02-03T04:15:00Z,42.42,-124.42,6.0,2.0,40,3,,7.0,29.911417,,,TRUE,TRUE,,,,,,,CLR,,,,,,,,VFR,,,,,,,,,,,,METAR,7.0
K4S1 030355Z AUTO 03007KT 7SM CLR 06/02 A2991 RMK AO2,K4S1,2023-02-03T03:55:00Z,42.42,-124.42,6.0,2.0,30,7,,7.0,29.911417,,,TRUE,TRUE,,,,,,,CLR,,,,,,,,VFR,,,,,,,,,,,,METAR,7.0
K4S1 030335Z AUTO 04009KT 7SM CLR 07/02 A2991 RMK AO2,K4S1,2023-02-03T03:35:00Z,42.42,-124.42,7.0,2.0,40,9,,7.0,29.911417,,,TRUE,TRUE,,,,,,,CLR,,,,,,,,VFR,,,,,,,,,,,,METAR,7.0
K4S1 030315Z AUTO 03003KT 7SM CLR 07/02 A2993 RMK AO2,K4S1,2023-02-03T03:15:00Z,42.42,-124.42,7.0,2.0,30,3,,7.0,29.929134,,,TRUE,TRUE,,,,,,,CLR,,,,,,,,VFR,,,,,,,,,,,,METAR,7.0
K4S1 030255Z AUTO 00000KT 7SM CLR 08/02 A2993 RMK AO2,K4S1,2023-02-03T02:55:00Z,42.42,-124.42,8.0,2.0,0,0,,7.0,29.929134,,,TRUE,TRUE,,,,,,,CLR,,,,,,,,VFR,,,,,,,,,,,,METAR,7.0
K4S1 030235Z AUTO 00000KT 7SM CLR 10/02 A2995 RMK AO2,K4S1,2023-02-03T02:35:00Z,42.42,-124.42,10.0,2.0,0,0,,7.0,29.949802,,,TRUE,TRUE,,,,,,,CLR,,,,,,,,VFR,,,,,,,,,,,,METAR,7.0
K4S1 030215Z AUTO 02007KT 5SM HZ CLR 09/03 A2996 RMK AO2,K4S1,2023-02-03T02:15:00Z,42.42,-124.42,9.0,3.0,20,7,,5.0,29.958662,,,TRUE,TRUE,,,,,,HZ,CLR,,,,,,,,MVFR,,,,,,,,,,,,METAR,7.0
K4S1 030155Z AUTO 17007KT 5SM HZ CLR 10/05 A2996 RMK AO2,K4S1,2023-02-03T01:55:00Z,42.42,-124.42,10.0,5.0,170,7,,5.0,29.958662,,,TRUE,TRUE,,,,,,HZ,CLR,,,,,,,,MVFR,,,,,,,,,,,,METAR,7.0
K4S1 030135Z AUTO 21004KT 3SM HZ CLR 11/04 A2996 RMK AO2,K4S1,2023-02-03T01:35:00Z,42.42,-124.42,11.0,4.0,210,4,,3.0,29.958662,,,TRUE,TRUE,,,,,,HZ,CLR,,,,,,,,MVFR,,,,,,,,,,,,METAR,7.0
K4S1 030115Z AUTO 09005KT 4SM HZ CLR 10/05 A2996 RMK AO2,K4S1,2023-02-03T01:15:00Z,42.42,-124.42,10.0,5.0,90,5,,4.0,29.958662,,,TRUE,TRUE,,,,,,HZ,CLR,,,,,,,,MVFR,,,,,,,,,,,,METAR,7.0
K4S1 030055Z AUTO 31004KT 2SM HZ CLR 10/05 A2997 RMK AO2,K4S1,2023-02-03T00:55:00Z,42.42,-124.42,10.0,5.0,310,4,,2.0,29.970472,,,TRUE,TRUE,,,,,,HZ,CLR,,,,,,,,IFR,,,,,,,,,,,,METAR,7.0
K4S1 030035Z AUTO 00000KT 3SM HZ CLR 10/06 A2997 RMK AO2,K4S1,2023-02-03T00:35:00Z,42.42,-124.42,10.0,6.0,0,0,,3.0,29.970472,,,TRUE,TRUE,,,,,,HZ,CLR,,,,,,,,MVFR,,,,,,,,,,,,METAR,7.0
K4S1 030015Z AUTO 30004KT 2 1/2SM HZ CLR 10/06 A3000 RMK AO2,K4S1,2023-02-03T00:15:00Z,42.42,-124.42,10.0,6.0,300,4,,2.5,30.0,,,TRUE,TRUE,,,,,,HZ,CLR,,,,,,,,IFR,,,,,,,,,,,,METAR,7.0
K4S1 022355Z AUTO 31007KT 3SM HZ CLR 10/06 A3000 RMK AO2,K4S1,2023-02-02T23:55:00Z,42.42,-124.42,10.0,6.0,310,7,,3.0,30.0,,,TRUE,TRUE,,,,,,HZ,CLR,,,,,,,,MVFR,,,,,,,,,,,,METAR,7.0
K4S1 022335Z AUTO 36003KT 2SM HZ CLR 10/06 A3000 RMK AO2,K4S1,2023-02-02T23:35:00Z,42.42,-124.42,10.0,6.0,360,3,,2.0,30.0,,,TRUE,TRUE,,,,,,HZ,CLR,,,,,,,,IFR,,,,,,,,,,,,METAR,7.0
K4S1 022315Z AUTO 22003KT 2 1/2SM HZ CLR 10/06 A3001 RMK AO2,K4S1,2023-02-02T23:15:00Z,42.42,-124.42,10.0,6.0,220,3,,2.5,30.008858,,,TRUE,TRUE,,,,,,HZ,CLR,,,,,,,,IFR,,,,,,,,,,,,METAR,7.0
K4S1 022255Z AUTO 20004KT 2SM HZ CLR 10/06 A3001 RMK AO2,K4S1,2023-02-02T22:55:00Z,42.42,-124.42,10.0,6.0,200,4,,2.0,30.008858,,,TRUE,TRUE,,,,,,HZ,CLR,,,,,,,,IFR,,,,,,,,,,,,METAR,7.0
K4S1 022235Z AUTO 21005KT 2 1/2SM HZ CLR 10/06 A3001 RMK AO2 VIS 1 3/4V3,K4S1,2023-02-02T22:35:00Z,42.42,-124.42,10.0,6.0,210,5,,2.5,30.008858,,,TRUE,TRUE,,,,,,HZ,CLR,,,,,,,,IFR,,,,,,,,,,,,METAR,7.0
K4S1 022215Z AUTO 19006KT 3SM HZ CLR 10/06 A3002 RMK AO2,K4S1,2023-02-02T22:15:00Z,42.42,-124.42,10.0,6.0,190,6,,3.0,30.02067,,,TRUE,TRUE,,,,,,HZ,CLR,,,,,,,,MVFR,,,,,,,,,,,,METAR,7.0
K4S1 022155Z AUTO 21003KT 4SM HZ CLR 10/05 A3004 RMK AO2,K4S1,2023-02-02T21:55:00Z,42.42,-124.42,10.0,5.0,210,3,,4.0,30.041338,,,TRUE,TRUE,,,,,,HZ,CLR,,,,,,,,MVFR,,,,,,,,,,,,METAR,7.0
K4S1 022135Z AUTO 29004KT 3SM HZ CLR 10/05 A3004 RMK AO2,K4S1,2023-02-02T21:35:00Z,42.42,-124.42,10.0,5.0,290,4,,3.0,30.041338,,,TRUE,TRUE,,,,,,HZ,CLR,,,,,,,,MVFR,,,,,,,,,,,,METAR,7.0
K4S1 022115Z AUTO 20011G17KT 3SM HZ CLR 10/06 A3006 RMK AO2,K4S1,2023-02-02T21:15:00Z,42.42,-124.42,10.0,6.0,200,11,17,3.0,30.059055,,,TRUE,TRUE,,,,,,HZ,CLR,,,,,,,,MVFR,,,,,,,,,,,,METAR,7.0
K4S1 022055Z AUTO 20012KT 4SM HZ CLR 10/06 A3008 RMK AO2,K4S1,2023-02-02T20:55:00Z,42.42,-124.42,10.0,6.0,200,12,,4.0,30.079725,,,TRUE,TRUE,,,,,,HZ,CLR,,,,,,,,MVFR,,,,,,,,,,,,METAR,7.0
K4S1 022035Z AUTO 20014KT 3SM HZ CLR 10/06 A3009 RMK AO2,K4S1,2023-02-02T20:35:00Z,42.42,-124.42,10.0,6.0,200,14,,3.0,30.088583,,,TRUE,TRUE,,,,,,HZ,CLR,,,,,,,,MVFR,,,,,,,,,,,,METAR,7.0
K4S1 022015Z AUTO 20014KT 4SM HZ CLR 10/06 A3009 RMK AO2,K4S1,2023-02-02T20:15:00Z,42.42,-124.42,10.0,6.0,200,14,,4.0,30.088583,,,TRUE,TRUE,,,,,,HZ,CLR,,,,,,,,MVFR,,,,,,,,,,,,METAR,7.0
K4S1 021955Z AUTO 20013KT 4SM HZ CLR 10/05 A3010 RMK AO2,K4S1,2023-02-02T19:55:00Z,42.42,-124.42,10.0,5.0,200,13,,4.0,30.100393,,,TRUE,TRUE,,,,,,HZ,CLR,,,,,,,,MVFR,,,,,,,,,,,,METAR,7.0
K4S1 021935Z AUTO 19012G17KT 3SM HZ CLR 11/05 A3011 RMK AO2,K4S1,2023-02-02T19:35:00Z,42.42,-124.42,11.0,5.0,190,12,17,3.0,30.109253,,,TRUE,TRUE,,,,,,HZ,CLR,,,,,,,,MVFR,,,,,,,,,,,,METAR,7.0
K4S1 021915Z AUTO 20010KT 3SM HZ CLR 11/05 A3012 RMK AO2,K4S1,2023-02-02T19:15:00Z,42.42,-124.42,11.0,5.0,200,10,,3.0,30.121063,,,TRUE,TRUE,,,,,,HZ,CLR,,,,,,,,MVFR,,,,,,,,,,,,METAR,7.0
K4S1 021855Z AUTO 17011G16KT 5SM HZ CLR 11/04 A3012 RMK AO2,K4S1,2023-02-02T18:55:00Z,42.42,-124.42,11.0,4.0,170,11,16,5.0,30.121063,,,TRUE,TRUE,,,,,,HZ,CLR,,,,,,,,MVFR,,,,,,,,,,,,METAR,7.0
K4S1 021835Z AUTO 16010KT 7SM CLR 11/04 A3013 RMK AO2,K4S1,2023-02-02T18:35:00Z,42.42,-124.42,11.0,4.0,160,10,,7.0,30.129921,,,TRUE,TRUE,,,,,,,CLR,,,,,,,,VFR,,,,,,,,,,,,METAR,7.0
K4S1 021815Z AUTO 15009KT 7SM CLR 11/04 A3013 RMK AO2,K4S1,2023-02-02T18:15:00Z,42.42,-124.42,11.0,4.0,150,9,,7.0,30.129921,,,TRUE,TRUE,,,,,,,CLR,,,,,,,,VFR,,,,,,,,,,,,METAR,7.0
K4S1 021755Z AUTO 16005G15KT 7SM CLR 10/04 A3013 RMK AO2,K4S1,2023-02-02T17:55:00Z,42.42,-124.42,10.0,4.0,160,5,15,7.0,30.129921,,,TRUE,TRUE,,,,,,,CLR,,,,,,,,VFR,,,,,,,,,,,,METAR,7.0
K4S1 021735Z AUTO 17010G15KT 7SM CLR 10/04 A3013 RMK AO2,K4S1,2023-02-02T17:35:00Z,42.42,-124.42,10.0,4.0,170,10,15,7.0,30.129921,,,TRUE,TRUE,,,,,,,CLR,,,,,,,,VFR,,,,,,,,,,,,METAR,7.0
K4S1 021715Z AUTO 16009G14KT 7SM CLR 10/05 A3013 RMK AO2,K4S1,2023-02-02T17:15:00Z,42.42,-124.42,10.0,5.0,160,9,14,7.0,30.129921,,,TRUE,TRUE,,,,,,,CLR,,,,,,,,VFR,,,,,,,,,,,,METAR,7.0
K4S1 021655Z AUTO 00000KT 7SM CLR 05/01 A3013 RMK AO2,K4S1,2023-02-02T16:55:00Z,42.42,-124.42,5.0,1.0,0,0,,7.0,30.129921,,,TRUE,TRUE,,,,,,,CLR,,,,,,,,VFR,,,,,,,,,,,,METAR,7.0
K4S1 021635Z AUTO 08005KT 7SM CLR 05/01 A3013 RMK AO2,K4S1,2023-02-02T16:35:00Z,42.42,-124.42,5.0,1.0,80,5,,7.0,30.129921,,,TRUE,TRUE,,,,,,,CLR,,,,,,,,VFR,,,,,,,,,,,,METAR,7.0
K4S1 021615Z AUTO 07005KT 7SM CLR 03/00 A3013 RMK AO2,K4S1,2023-02-02T16:15:00Z,42.42,-124.42,3.0,0.0,70,5,,7.0,30.129921,,,TRUE,TRUE,,,,,,,CLR,,,,,,,,VFR,,,,,,,,,,,,METAR,7.0
K4S1 021555Z AUTO 05007KT 7SM CLR 04/00 A3013 RMK AO2,K4S1,2023-02-02T15:55:00Z,42.42,-124.42,4.0,0.0,50,7,,7.0,30.129921,,,TRUE,TRUE,,,,,,,CLR,,,,,,,,VFR,,,,,,,,,,,,METAR,7.0
K4S1 021535Z AUTO 06006KT 10SM CLR 03/00 A3013 RMK AO2,K4S1,2023-02-02T15:35:00Z,42.42,-124.42,3.0,0.0,60,6,,10.0,30.129921,,,TRUE,TRUE,,,,,,,CLR,,,,,,,,VFR,,,,,,,,,,,,METAR,7.0
K4S1 021515Z AUTO 04006KT 10SM CLR 05/01 A3012 RMK AO2,K4S1,2023-02-02T15:15:00Z,42.42,-124.42,5.0,1.0,40,6,,10.0,30.121063,,,TRUE,TRUE,,,,,,,CLR,,,,,,,,VFR,,,,,,,,,,,,METAR,7.0
K4S1 021455Z AUTO 04007KT 10SM CLR 05/01 A3012 RMK AO2,K4S1,2023-02-02T14:55:00Z,42.42,-124.42,5.0,1.0,40,7,,10.0,30.121063,,,TRUE,TRUE,,,,,,,CLR,,,,,,,,VFR,,,,,,,,,,,,METAR,7.0
K4S1 021435Z AUTO 17008KT 10SM CLR 09/05 A3012 RMK AO2,K4S1,2023-02-02T14:35:00Z,42.42,-124.42,9.0,5.0,170,8,,10.0,30.121063,,,TRUE,TRUE,,,,,,,CLR,,,,,,,,VFR,,,,,,,,,,,,METAR,7.0
K4S1 021415Z AUTO 15009KT 140V200 10SM CLR 09/05 A3011 RMK AO2,K4S1,2023-02-02T14:15:00Z,42.42,-124.42,9.0,5.0,150,9,,10.0,30.109253,,,TRUE,TRUE,,,,,,,CLR,,,,,,,,VFR,,,,,,,,,,,,METAR,7.0
K4S1 021355Z AUTO 14009G15KT 110V170 10SM CLR 09/05 A3010 RMK AO2,K4S1,2023-02-02T13:55:00Z,42.42,-124.42,9.0,5.0,140,9,15,10.0,30.100393,,,TRUE,TRUE,,,,,,,CLR,,,,,,,,VFR,,,,,,,,,,,,METAR,7.0
K4S1 021335Z AUTO 15007KT 110V180 10SM CLR 09/04 A3011 RMK AO2,K4S1,2023-02-02T13:35:00Z,42.42,-124.42,9.0,4.0,150,7,,10.0,30.109253,,,TRUE,TRUE,,,,,,,CLR,,,,,,,,VFR,,,,,,,,,,,,METAR,7.0
K4S1 021315Z AUTO 16008G15KT 10SM CLR 09/04 A3012 RMK AO2,K4S1,2023-02-02T13:15:00Z,42.42,-124.42,9.0,4.0,160,8,15,10.0,30.121063,,,TRUE,TRUE,,,,,,,CLR,,,,,,,,VFR,,,,,,,,,,,,METAR,7.0
K4S1 021255Z AUTO 16005KT 10SM CLR 08/04 A3012 RMK AO2,K4S1,2023-02-02T12:55:00Z,42.42,-124.42,8.0,4.0,160,5,,10.0,30.121063,,,TRUE,TRUE,,,,,,,CLR,,,,,,,,VFR,,,,,,,,,,,,METAR,7.0
K4S1 021235Z AUTO 16008KT 10SM CLR 08/03 A3012 RMK AO2,K4S1,2023-02-02T12:35:00Z,42.42,-124.42,8.0,3.0,160,8,,10.0,30.121063,,,TRUE,TRUE,,,,,,,CLR,,,,,,,,VFR,,,,,,,,,,,,METAR,7.0
K4S1 021215Z AUTO 14005KT 7SM CLR 07/03 A3012 RMK AO2,K4S1,2023-02-02T12:15:00Z,42.42,-124.42,7.0,3.0,140,5,,7.0,30.121063,,,TRUE,TRUE,,,,,,,CLR,,,,,,,,VFR,,,,,,,,,,,,METAR,7.0
K4S1 021155Z AUTO 00000KT 10SM CLR 04/01 A3012 RMK AO2,K4S1,2023-02-02T11:55:00Z,42.42,-124.42,4.0,1.0,0,0,,10.0,30.121063,,,TRUE,TRUE,,,,,,,CLR,,,,,,,,VFR,,,,,,,,,,,,METAR,7.0
K4S1 021135Z AUTO 04004KT 10SM CLR 04/01 A3012 RMK AO2,K4S1,2023-02-02T11:35:00Z,42.42,-124.42,4.0,1.0,40,4,,10.0,30.121063,,,TRUE,TRUE,,,,,,,CLR,,,,,,,,VFR,,,,,,,,,,,,METAR,7.0
K4S1 021115Z AUTO 00000KT 10SM CLR 06/01 A3012 RMK AO2,K4S1,2023-02-02T11:15:00Z,42.42,-124.42,6.0,1.0,0,0,,10.0,30.121063,,,TRUE,TRUE,,,,,,,CLR,,,,,,,,VFR,,,,,,,,,,,,METAR,7.0
K4S1 021055Z AUTO 15007KT 10SM CLR 09/05 A3013 RMK AO2,K4S1,2023-02-02T10:55:00Z,42.42,-124.42,9.0,5.0,150,7,,10.0,30.129921,,,TRUE,TRUE,,,,,,,CLR,,,,,,,,VFR,,,,,,,,,,,,METAR,7.0
K4S1 021035Z AUTO 17009KT 10SM CLR 09/05 A3013 RMK AO2,K4S1,2023-02-02T10:35:00Z,42.42,-124.42,9.0,5.0,170,9,,10.0,30.129921,,,TRUE,TRUE,,,,,,,CLR,,,,,,,,VFR,,,,,,,,,,,,METAR,7.0
K4S1 021015Z AUTO 16008KT 10SM CLR 09/05 A3013 RMK AO2,K4S1,2023-02-02T10:15:00Z,42.42,-124.42,9.0,5.0,160,8,,10.0,30.129921,,,TRUE,TRUE,,,,,,,CLR,,,,,,,,VFR,,,,,,,,,,,,METAR,7.0
K4S1 020955Z AUTO 17010KT 10SM CLR 09/05 A3013 RMK AO2,K4S1,2023-02-02T09:55:00Z,42.42,-124.42,9.0,5.0,170,10,,10.0,30.129921,,,TRUE,TRUE,,,,,,,CLR,,,,,,,,VFR,,,,,,,,,,,,METAR,7.0
K4S1 020935Z AUTO 16009G17KT 7SM CLR 09/05 A3013 RMK AO2,K4S1,2023-02-02T09:35:00Z,42.42,-124.42,9.0,5.0,160,9,17,7.0,30.129921,,,TRUE,TRUE,,,,,,,CLR,,,,,,,,VFR,,,,,,,,,,,,METAR,7.0
K4S1 020915Z AUTO 15008G15KT 7SM CLR 09/04 A3014 RMK AO2,K4S1,2023-02-02T09:15:00Z,42.42,-124.42,9.0,4.0,150,8,15,7.0,30.138779,,,TRUE,TRUE,,,,,,,CLR,,,,,,,,VFR,,,,,,,,,,,,METAR,7.0
K4S1 020855Z AUTO 15009KT 7SM CLR 08/04 A3014 RMK AO2,K4S1,2023-02-02T08:55:00Z,42.42,-124.42,8.0,4.0,150,9,,7.0,30.138779,,,TRUE,TRUE,,,,,,,CLR,,,,,,,,VFR,,,,,,,,,,,,METAR,7.0
K4S1 020835Z AUTO 15008G17KT 10SM CLR 09/04 A3014 RMK AO2,K4S1,2023-02-02T08:35:00Z,42.42,-124.42,9.0,4.0,150,8,17,10.0,30.138779,,,TRUE,TRUE,,,,,,,CLR,,,,,,,,VFR,,,,,,,,,,,,METAR,7.0
K4S1 020815Z AUTO 14012G18KT 7SM CLR 09/04 A3014 RMK AO2,K4S1,2023-02-02T08:15:00Z,42.42,-124.42,9.0,4.0,140,12,18,7.0,30.138779,,,TRUE,TRUE,,,,,,,CLR,,,,,,,,VFR,,,,,,,,,,,,METAR,7.0
K4S1 020755Z AUTO 15009G16KT 7SM CLR 09/04 A3015 RMK AO2,K4S1,2023-02-02T07:55:00Z,42.42,-124.42,9.0,4.0,150,9,16,7.0,30.15059,,,TRUE,TRUE,,,,,,,CLR,,,,,,,,VFR,,,,,,,,,,,,METAR,7.0
K4S1 020735Z AUTO 16009KT 7SM CLR 08/03 A3015 RMK AO2,K4S1,2023-02-02T07:35:00Z,42.42,-124.42,8.0,3.0,160,9,,7.0,30.15059,,,TRUE,TRUE,,,,,,,CLR,,,,,,,,VFR,,,,,,,,,,,,METAR,7.0
K4S1 020715Z AUTO 16008G14KT 7SM CLR 08/03 A3015 RMK AO2,K4S1,2023-02-02T07:15:00Z,42.42,-124.42,8.0,3.0,160,8,14,7.0,30.15059,,,TRUE,TRUE,,,,,,,CLR,,,,,,,,VFR,,,,,,,,,,,,METAR,7.0
K4S1 020515Z AUTO 21003KT 7SM CLR 05/02 A3014 RMK AO2,K4S1,2023-02-02T05:15:00Z,42.42,-124.42,5.0,2.0,210,3,,7.0,30.138779,,,TRUE,TRUE,,,,,,,CLR,,,,,,,,VFR,,,,,,,,,,,,METAR,7.0
K4S1 020455Z AUTO 00000KT 7SM CLR 05/00 A3014 RMK AO2,K4S1,2023-02-02T04:55:00Z,42.42,-124.42,5.0,0.0,0,0,,7.0,30.138779,,,TRUE,TRUE,,,,,,,CLR,,,,,,,,VFR,,,,,,,,,,,,METAR,7.0
K4S1 020435Z AUTO 18006KT 7SM CLR 07/02 A3014 RMK AO2,K4S1,2023-02-02T04:35:00Z,42.42,-124.42,7.0,2.0,180,6,,7.0,30.138779,,,TRUE,TRUE,,,,,,,CLR,,,,,,,,VFR,,,,,,,,,,,,METAR,7.0
K4S1 020415Z AUTO 18007KT 7SM CLR 07/04 A3014 RMK AO2,K4S1,2023-02-02T04:15:00Z,42.42,-124.42,7.0,4.0,180,7,,7.0,30.138779,,,TRUE,TRUE,,,,,,,CLR,,,,,,,,VFR,,,,,,,,,,,,METAR,7.0
K4S1 020355Z AUTO 18009KT 5SM HZ CLR 07/04 A3013 RMK AO2,K4S1,2023-02-02T03:55:00Z,42.42,-124.42,7.0,4.0,180,9,,5.0,30.129921,,,TRUE,TRUE,,,,,,HZ,CLR,,,,,,,,MVFR,,,,,,,,,,,,METAR,7.0
K4S1 020335Z AUTO 19009KT 5SM HZ CLR 08/05 A3013 RMK AO2,K4S1,2023-02-02T03:35:00Z,42.42,-124.42,8.0,5.0,190,9,,5.0,30.129921,,,TRUE,TRUE,,,,,,HZ,CLR,,,,,,,,MVFR,,,,,,,,,,,,METAR,7.0
K4S1 020315Z AUTO 20013G17KT 5SM HZ CLR 09/05 A3013 RMK AO2,K4S1,2023-02-02T03:15:00Z,42.42,-124.42,9.0,5.0,200,13,17,5.0,30.129921,,,TRUE,TRUE,,,,,,HZ,CLR,,,,,,,,MVFR,,,,,,,,,,,,METAR,7.0
K4S1 020255Z AUTO 20012KT 5SM HZ CLR 09/05 A3012 RMK AO2,K4S1,2023-02-02T02:55:00Z,42.42,-124.42,9.0,5.0,200,12,,5.0,30.121063,,,TRUE,TRUE,,,,,,HZ,CLR,,,,,,,,MVFR,,,,,,,,,,,,METAR,7.0
K4S1 020235Z AUTO 19008KT 5SM HZ CLR 09/05 A3012 RMK AO2,K4S1,2023-02-02T02:35:00Z,42.42,-124.42,9.0,5.0,190,8,,5.0,30.121063,,,TRUE,TRUE,,,,,,HZ,CLR,,,,,,,,MVFR,,,,,,,,,,,,METAR,7.0
K4S1 020215Z AUTO 19006KT 4SM HZ CLR 08/03 A3012 RMK AO2,K4S1,2023-02-02T02:15:00Z,42.42,-124.42,8.0,3.0,190,6,,4.0,30.121063,,,TRUE,TRUE,,,,,,HZ,CLR,,,,,,,,MVFR,,,,,,,,,,,,METAR,7.0
K4S1 020155Z AUTO 18007KT 4SM HZ CLR 09/03 A3011 RMK AO2,K4S1,2023-02-02T01:55:00Z,42.42,-124.42,9.0,3.0,180,7,,4.0,30.109253,,,TRUE,TRUE,,,,,,HZ,CLR,,,,,,,,MVFR,,,,,,,,,,,,METAR,7.0
K4S1 020135Z AUTO 19008KT 3SM HZ CLR 10/03 A3012 RMK AO2,K4S1,2023-02-02T01:35:00Z,42.42,-124.42,10.0,3.0,190,8,,3.0,30.121063,,,TRUE,TRUE,,,,,,HZ,CLR,,,,,,,,MVFR,,,,,,,,,,,,METAR,7.0
K4S1 020115Z AUTO 19012KT 4SM HZ CLR 10/03 A3012 RMK AO2,K4S1,2023-02-02T01:15:00Z,42.42,-124.42,10.0,3.0,190,12,,4.0,30.121063,,,TRUE,TRUE,,,,,,HZ,CLR,,,,,,,,MVFR,,,,,,,,,,,,METAR,7.0
K4S1 020055Z AUTO 20015KT 4SM HZ CLR 11/02 A3012 RMK AO2,K4S1,2023-02-02T00:55:00Z,42.42,-124.42,11.0,2.0,200,15,,4.0,30.121063,,,TRUE,TRUE,,,,,,HZ,CLR,,,,,,,,MVFR,,,,,,,,,,,,METAR,7.0
K4S1 020035Z AUTO 19013G20KT 4SM HZ CLR 11/02 A3011 RMK AO2,K4S1,2023-02-02T00:35:00Z,42.42,-124.42,11.0,2.0,190,13,20,4.0,30.109253,,,TRUE,TRUE,,,,,,HZ,CLR,,,,,,,,MVFR,,,,,,,,,,,,METAR,7.0
K4S1 020015Z AUTO 19016G22KT 3SM HZ CLR 11/03 A3012 RMK AO2,K4S1,2023-02-02T00:15:00Z,42.42,-124.42,11.0,3.0,190,16,22,3.0,30.121063,,,TRUE,TRUE,,,,,,HZ,CLR,,,,,,,,MVFR,,,,,,,,,,,,METAR,7.0
K4S1 012355Z AUTO 19015KT 4SM HZ CLR 11/03 A3011 RMK AO2,K4S1,2023-02-01T23:55:00Z,42.42,-124.42,11.0,3.0,190,15,,4.0,30.109253,,,TRUE,TRUE,,,,,,HZ,CLR,,,,,,,,MVFR,,,,,,,,,,,,METAR,7.0
K4S1 012335Z AUTO 20020G23KT 4SM HZ CLR 11/05 A3011 RMK AO2,K4S1,2023-02-01T23:35:00Z,42.42,-124.42,11.0,5.0,200,20,23,4.0,30.109253,,,TRUE,TRUE,,,,,,HZ,CLR,,,,,,,,MVFR,,,,,,,,,,,,METAR,7.0
K4S1 012315Z AUTO 20019G25KT 5SM HZ CLR 11/02 A3010 RMK AO2,K4S1,2023-02-01T23:15:00Z,42.42,-124.42,11.0,2.0,200,19,25,5.0,30.100393,,,TRUE,TRUE,,,,,,HZ,CLR,,,,,,,,MVFR,,,,,,,,,,,,METAR,7.0
K4S1 012235Z AUTO 21018G22KT 5SM HZ CLR 10/05 A3010 RMK AO2,K4S1,2023-02-01T22:35:00Z,42.42,-124.42,10.0,5.0,210,18,22,5.0,30.100393,,,TRUE,TRUE,,,,,,HZ,CLR,,,,,,,,MVFR,,,,,,,,,,,,METAR,7.0
K4S1 012215Z AUTO 20019G23KT 4SM HZ CLR 10/04 A3010 RMK AO2,K4S1,2023-02-01T22:15:00Z,42.42,-124.42,10.0,4.0,200,19,23,4.0,30.100393,,,TRUE,TRUE,,,,,,HZ,CLR,,,,,,,,MVFR,,,,,,,,,,,,METAR,7.0
K4S1 012155Z AUTO 20019G23KT 4SM HZ CLR 11/03 A3011 RMK AO2,K4S1,2023-02-01T21:55:00Z,42.42,-124.42,11.0,3.0,200,19,23,4.0,30.109253,,,TRUE,TRUE,,,,,,HZ,CLR,,,,,,,,MVFR,,,,,,,,,,,,METAR,7.0
K4S1 012135Z AUTO 20017KT 4SM HZ CLR 11/04 A3012 RMK AO2,K4S1,2023-02-01T21:35:00Z,42.42,-124.42,11.0,4.0,200,17,,4.0,30.121063,,,TRUE,TRUE,,,,,,HZ,CLR,,,,,,,,MVFR,,,,,,,,,,,,METAR,7.0
K4S1 012115Z AUTO 20016KT 4SM HZ CLR 10/05 A3013 RMK AO2,K4S1,2023-02-01T21:15:00Z,42.42,-124.42,10.0,5.0,200,16,,4.0,30.129921,,,TRUE,TRUE,,,,,,HZ,CLR,,,,,,,,MVFR,,,,,,,,,,,,METAR,7.0
K4S1 012055Z AUTO 21015G20KT 4SM HZ CLR 10/05 A3013 RMK AO2,K4S1,2023-02-01T20:55:00Z,42.42,-124.42,10.0,5.0,210,15,20,4.0,30.129921,,,TRUE,TRUE,,,,,,HZ,CLR,,,,,,,,MVFR,,,,,,,,,,,,METAR,7.0
K4S1 012035Z AUTO 20016G21KT 4SM HZ CLR 11/03 A3013 RMK AO2,K4S1,2023-02-01T20:35:00Z,42.42,-124.42,11.0,3.0,200,16,21,4.0,30.129921,,,TRUE,TRUE,,,,,,HZ,CLR,,,,,,,,MVFR,,,,,,,,,,,,METAR,7.0
K4S1 012015Z AUTO 20017KT 5SM HZ CLR 11/02 A3013 RMK AO2,K4S1,2023-02-01T20:15:00Z,42.42,-124.42,11.0,2.0,200,17,,5.0,30.129921,,,TRUE,TRUE,,,,,,HZ,CLR,,,,,,,,MVFR,,,,,,,,,,,,METAR,7.0
K4S1 011955Z AUTO 20017KT 5SM HZ CLR 11/01 A3014 RMK AO2,K4S1,2023-02-01T19:55:00Z,42.42,-124.42,11.0,1.0,200,17,,5.0,30.138779,,,TRUE,TRUE,,,,,,HZ,CLR,,,,,,,,MVFR,,,,,,,,,,,,METAR,7.0
K4S1 011935Z AUTO 20004KT 5SM HZ CLR 10/00 A3014 RMK AO2,K4S1,2023-02-01T19:35:00Z,42.42,-124.42,10.0,0.0,200,4,,5.0,30.138779,,,TRUE,TRUE,,,,,,HZ,CLR,,,,,,,,MVFR,,,,,,,,,,,,METAR,7.0
K4S1 011915Z AUTO 05005G14KT 5SM HZ CLR 09/M01 A3015 RMK AO2,K4S1,2023-02-01T19:15:00Z,42.42,-124.42,9.0,-1.0,50,5,14,5.0,30.15059,,,TRUE,TRUE,,,,,,HZ,CLR,,,,,,,,MVFR,,,,,,,,,,,,METAR,7.0
K4S1 011855Z AUTO 05008KT 5SM HZ CLR 08/M02 A3015 RMK AO2,K4S1,2023-02-01T18:55:00Z,42.42,-124.42,8.0,-2.0,50,8,,5.0,30.15059,,,TRUE,TRUE,,,,,,HZ,CLR,,,,,,,,MVFR,,,,,,,,,,,,METAR,7.0
K4S1 011835Z AUTO 05008KT 5SM HZ CLR 08/M01 A3015 RMK AO2,K4S1,2023-02-01T18:35:00Z,42.42,-124.42,8.0,-1.0,50,8,,5.0,30.15059,,,TRUE,TRUE,,,,,,HZ,CLR,,,,,,,,MVFR,,,,,,,,,,,,METAR,7.0
K4S1 011815Z AUTO 05009KT 5SM HZ CLR 07/M02 A3014 RMK AO2,K4S1,2023-02-01T18:15:00Z,42.42,-124.42,7.0,-2.0,50,9,,5.0,30.138779,,,TRUE,TRUE,,,,,,HZ,CLR,,,,,,,,MVFR,,,,,,,,,,,,METAR,7.0
K4S1 011755Z AUTO 05012KT 7SM CLR 05/M02 A3014 RMK AO2,K4S1,2023-02-01T17:55:00Z,42.42,-124.42,5.0,-2.0,50,12,,7.0,30.138779,,,TRUE,TRUE,,,,,,,CLR,,,,,,,,VFR,,,,,,,,,,,,METAR,7.0
K4S1 011735Z AUTO 05013KT 5SM HZ CLR 05/M02 A3014 RMK AO2,K4S1,2023-02-01T17:35:00Z,42.42,-124.42,5.0,-2.0,50,13,,5.0,30.138779,,,TRUE,TRUE,,,,,,HZ,CLR,,,,,,,,MVFR,,,,,,,,,,,,METAR,7.0
K4S1 011715Z AUTO 05014KT 7SM CLR 03/M02 A3015 RMK AO2,K4S1,2023-02-01T17:15:00Z,42.42,-124.42,3.0,-2.0,50,14,,7.0,30.15059,,,TRUE,TRUE,,,,,,,CLR,,,,,,,,VFR,,,,,,,,,,,,METAR,7.0
K4S1 011655Z AUTO 05015KT 7SM CLR 02/M02 A3015 RMK AO2,K4S1,2023-02-01T16:55:00Z,42.42,-124.42,2.0,-2.0,50,15,,7.0,30.15059,,,TRUE,TRUE,,,,,,,CLR,,,,,,,,VFR,,,,,,,,,,,,METAR,7.0
K4S1 011635Z AUTO 05016KT 7SM CLR 01/M03 A3015 RMK AO2,K4S1,2023-02-01T16:35:00Z,42.42,-124.42,1.0,-3.0,50,16,,7.0,30.15059,,,TRUE,TRUE,,,,,,,CLR,,,,,,,,VFR,,,,,,,,,,,,METAR,7.0
K4S1 011615Z AUTO 05014KT 5SM HZ CLR 01/M03 A3014 RMK AO2,K4S1,2023-02-01T16:15:00Z,42.42,-124.42,1.0,-3.0,50,14,,5.0,30.138779,,,TRUE,TRUE,,,,,,HZ,CLR,,,,,,,,MVFR,,,,,,,,,,,,METAR,7.0
K4S1 011555Z AUTO 05014KT 7SM CLR 01/M03 A3014 RMK AO2,K4S1,2023-02-01T15:55:00Z,42.42,-124.42,1.0,-3.0,50,14,,7.0,30.138779,,,TRUE,TRUE,,,,,,,CLR,,,,,,,,VFR,,,,,,,,,,,,METAR,7.0
K4S1 011535Z AUTO 05015KT 7SM CLR 01/M03 A3014 RMK AO2,K4S1,2023-02-01T15:35:00Z,42.42,-124.42,1.0,-3.0,50,15,,7.0,30.138779,,,TRUE,TRUE,,,,,,,CLR,,,,,,,,VFR,,,,,,,,,,,,METAR,7.0
K4S1 011515Z AUTO 05013KT 7SM CLR 01/M03 A3014 RMK AO2,K4S1,2023-02-01T15:15:00Z,42.42,-124.42,1.0,-3.0,50,13,,7.0,30.138779,,,TRUE,TRUE,,,,,,,CLR,,,,,,,,VFR,,,,,,,,,,,,METAR,7.0
K4S1 011455Z AUTO 05014KT 7SM CLR 01/M03 A3013 RMK AO2,K4S1,2023-02-01T14:55:00Z,42.42,-124.42,1.0,-3.0,50,14,,7.0,30.129921,,,TRUE,TRUE,,,,,,,CLR,,,,,,,,VFR,,,,,,,,,,,,METAR,7.0
K4S1 011435Z AUTO 05014KT 7SM CLR 01/M03 A3014 RMK AO2,K4S1,2023-02-01T14:35:00Z,42.42,-124.42,1.0,-3.0,50,14,,7.0,30.138779,,,TRUE,TRUE,,,,,,,CLR,,,,,,,,VFR,,,,,,,,,,,,METAR,7.0
K4S1 011415Z AUTO 05014KT 7SM CLR 02/M03 A3014 RMK AO2,K4S1,2023-02-01T14:15:00Z,42.42,-124.42,2.0,-3.0,50,14,,7.0,30.138779,,,TRUE,TRUE,,,,,,,CLR,,,,,,,,VFR,,,,,,,,,,,,METAR,7.0
K4S1 011355Z AUTO 05014KT 7SM CLR 02/M03 A3014 RMK AO2,K4S1,2023-02-01T13:55:00Z,42.42,-124.42,2.0,-3.0,50,14,,7.0,30.138779,,,TRUE,TRUE,,,,,,,CLR,,,,,,,,VFR,,,,,,,,,,,,METAR,7.0
K4S1 011335Z AUTO 05012KT 7SM CLR 02/M03 A3014 RMK AO2,K4S1,2023-02-01T13:35:00Z,42.42,-124.42,2.0,-3.0,50,12,,7.0,30.138779,,,TRUE,TRUE,,,,,,,CLR,,,,,,,,VFR,,,,,,,,,,,,METAR,7.0
K4S1 011315Z AUTO 05012KT 7SM CLR 02/M03 A3015 RMK AO2,K4S1,2023-02-01T13:15:00Z,42.42,-124.42,2.0,-3.0,50,12,,7.0,30.15059,,,TRUE,TRUE,,,,,,,CLR,,,,,,,,VFR,,,,,,,,,,,,METAR,7.0
K4S1 011255Z AUTO 06011KT 7SM CLR 02/M03 A3015 RMK AO2,K4S1,2023-02-01T12:55:00Z,42.42,-124.42,2.0,-3.0,60,11,,7.0,30.15059,,,TRUE,TRUE,,,,,,,CLR,,,,,,,,VFR,,,,,,,,,,,,METAR,7.0
K4S1 011235Z AUTO 05015KT 7SM CLR 02/M02 A3015 RMK AO2,K4S1,2023-02-01T12:35:00Z,42.42,-124.42,2.0,-2.0,50,15,,7.0,30.15059,,,TRUE,TRUE,,,,,,,CLR,,,,,,,,VFR,,,,,,,,,,,,METAR,7.0
K4S1 011215Z AUTO 05013KT 7SM CLR 02/M02 A3014 RMK AO2,K4S1,2023-02-01T12:15:00Z,42.42,-124.42,2.0,-2.0,50,13,,7.0,30.138779,,,TRUE,TRUE,,,,,,,CLR,,,,,,,,VFR,,,,,,,,,,,,METAR,7.0
K4S1 011155Z AUTO 05012KT 7SM CLR 02/M02 A3014 RMK AO2,K4S1,2023-02-01T11:55:00Z,42.42,-124.42,2.0,-2.0,50,12,,7.0,30.138779,,,TRUE,TRUE,,,,,,,CLR,,,,,,,,VFR,,,,,,,,,,,,METAR,7.0
K4S1 011135Z AUTO 05013KT 7SM CLR 02/M02 A3014 RMK AO2,K4S1,2023-02-01T11:35:00Z,42.42,-124.42,2.0,-2.0,50,13,,7.0,30.138779,,,TRUE,TRUE,,,,,,,CLR,,,,,,,,VFR,,,,,,,,,,,,METAR,7.0
K4S1 011115Z AUTO 06011KT 7SM CLR 02/M02 A3014 RMK AO2,K4S1,2023-02-01T11:15:00Z,42.42,-124.42,2.0,-2.0,60,11,,7.0,30.138779,,,TRUE,TRUE,,,,,,,CLR,,,,,,,,VFR,,,,,,,,,,,,METAR,7.0
K4S1 011055Z AUTO 05015KT 7SM CLR 02/M02 A3014 RMK AO2,K4S1,2023-02-01T10:55:00Z,42.42,-124.42,2.0,-2.0,50,15,,7.0,30.138779,,,TRUE,TRUE,,,,,,,CLR,,,,,,,,VFR,,,,,,,,,,,,METAR,7.0
K4S1 011035Z AUTO 06013KT 7SM CLR 03/M02 A3014 RMK AO2,K4S1,2023-02-01T10:35:00Z,42.42,-124.42,3.0,-2.0,60,13,,7.0,30.138779,,,TRUE,TRUE,,,,,,,CLR,,,,,,,,VFR,,,,,,,,,,,,METAR,7.0
K4S1 011015Z AUTO 06010G15KT 10SM CLR 03/M02 A3014 RMK AO2,K4S1,2023-02-01T10:15:00Z,42.42,-124.42,3.0,-2.0,60,10,15,10.0,30.138779,,,TRUE,TRUE,,,,,,,CLR,,,,,,,,VFR,,,,,,,,,,,,METAR,7.0
K4S1 010955Z AUTO 05012G16KT 7SM CLR 03/M02 A3014 RMK AO2,K4S1,2023-02-01T09:55:00Z,42.42,-124.42,3.0,-2.0,50,12,16,7.0,30.138779,,,TRUE,TRUE,,,,,,,CLR,,,,,,,,VFR,,,,,,,,,,,,METAR,7.0
K4S1 010935Z AUTO 05012KT 7SM CLR 03/M02 A3014 RMK AO2,K4S1,2023-02-01T09:35:00Z,42.42,-124.42,3.0,-2.0,50,12,,7.0,30.138779,,,TRUE,TRUE,,,,,,,CLR,,,,,,,,VFR,,,,,,,,,,,,METAR,7.0
K4S1 010915Z AUTO 06011KT 7SM CLR 03/M02 A3014 RMK AO2,K4S1,2023-02-01T09:15:00Z,42.42,-124.42,3.0,-2.0,60,11,,7.0,30.138779,,,TRUE,TRUE,,,,,,,CLR,,,,,,,,VFR,,,,,,,,,,,,METAR,7.0
K4S1 010855Z AUTO 05013KT 7SM CLR 03/M02 A3014 RMK AO2,K4S1,2023-02-01T08:55:00Z,42.42,-124.42,3.0,-2.0,50,13,,7.0,30.138779,,,TRUE,TRUE,,,,,,,CLR,,,,,,,,VFR,,,,,,,,,,,,METAR,7.0
K4S1 010835Z AUTO 06007KT 7SM CLR 04/M02 A3015 RMK AO2,K4S1,2023-02-01T08:35:00Z,42.42,-124.42,4.0,-2.0,60,7,,7.0,30.15059,,,TRUE,TRUE,,,,,,,CLR,,,,,,,,VFR,,,,,,,,,,,,METAR,7.0
K4S1 010815Z AUTO 06009G15KT 7SM CLR 03/M02 A3015 RMK AO2,K4S1,2023-02-01T08:15:00Z,42.42,-124.42,3.0,-2.0,60,9,15,7.0,30.15059,,,TRUE,TRUE,,,,,,,CLR,,,,,,,,VFR,,,,,,,,,,,,METAR,7.0
K4S1 010755Z AUTO 06008KT 7SM CLR 04/M02 A3016 RMK AO2,K4S1,2023-02-01T07:55:00Z,42.42,-124.42,4.0,-2.0,60,8,,7.0,30.159449,,,TRUE,TRUE,,,,,,,CLR,,,,,,,,VFR,,,,,,,,,,,,METAR,7.0
K4S1 010735Z AUTO 05007KT 7SM CLR 04/M01 A3016 RMK AO2,K4S1,2023-02-01T07:35:00Z,42.42,-124.42,4.0,-1.0,50,7,,7.0,30.159449,,,TRUE,TRUE,,,,,,,CLR,,,,,,,,VFR,,,,,,,,,,,,METAR,7.0
K4S1 010715Z AUTO 05011G14KT 7SM CLR 05/M01 A3017 RMK AO2,K4S1,2023-02-01T07:15:00Z,42.42,-124.42,5.0,-1.0,50,11,14,7.0,30.171259,,,TRUE,TRUE,,,,,,,CLR,,,,,,,,VFR,,,,,,,,,,,,METAR,7.0
K4S1 010655Z AUTO 06006KT 7SM CLR 04/M01 A3017 RMK AO2,K4S1,2023-02-01T06:55:00Z,42.42,-124.42,4.0,-1.0,60,6,,7.0,30.171259,,,TRUE,TRUE,,,,,,,CLR,,,,,,,,VFR,,,,,,,,,,,,METAR,7.0
K4S1 010635Z AUTO 06008KT 10SM CLR 05/M01 A3017 RMK AO2,K4S1,2023-02-01T06:35:00Z,42.42,-124.42,5.0,-1.0,60,8,,10.0,30.171259,,,TRUE,TRUE,,,,,,,CLR,,,,,,,,VFR,,,,,,,,,,,,METAR,7.0
K4S1 010615Z AUTO 05007KT 7SM CLR 05/M01 A3017 RMK AO2,K4S1,2023-02-01T06:15:00Z,42.42,-124.42,5.0,-1.0,50,7,,7.0,30.171259,,,TRUE,TRUE,,,,,,,CLR,,,,,,,,VFR,,,,,,,,,,,,METAR,7.0
K4S1 010555Z AUTO 04006KT 7SM CLR 04/00 A3017 RMK AO2,K4S1,2023-02-01T05:55:00Z,42.42,-124.42,4.0,0.0,40,6,,7.0,30.171259,,,TRUE,TRUE,,,,,,,CLR,,,,,,,,VFR,,,,,,,,,,,,METAR,7.0
K4S1 010535Z AUTO 06005KT 7SM CLR 03/M01 A3017 RMK AO2,K4S1,2023-02-01T05:35:00Z,42.42,-124.42,3.0,-1.0,60,5,,7.0,30.171259,,,TRUE,TRUE,,,,,,,CLR,,,,,,,,VFR,,,,,,,,,,,,METAR,7.0
K4S1 010515Z AUTO 05008KT 7SM CLR 05/M01 A3017 RMK AO2,K4S1,2023-02-01T05:15:00Z,42.42,-124.42,5.0,-1.0,50,8,,7.0,30.171259,,,TRUE,TRUE,,,,,,,CLR,,,,,,,,VFR,,,,,,,,,,,,METAR,7.0
K4S1 010455Z AUTO 06003KT 7SM CLR 03/00 A3017 RMK AO2,K4S1,2023-02-01T04:55:00Z,42.42,-124.42,3.0,0.0,60,3,,7.0,30.171259,,,TRUE,TRUE,,,,,,,CLR,,,,,,,,VFR,,,,,,,,,,,,METAR,7.0
K4S1 010435Z AUTO 05008KT 7SM CLR 06/00 A3017 RMK AO2,K4S1,2023-02-01T04:35:00Z,42.42,-124.42,6.0,0.0,50,8,,7.0,30.171259,,,TRUE,TRUE,,,,,,,CLR,,,,,,,,VFR,,,,,,,,,,,,METAR,7.0
K4S1 010415Z AUTO 05006KT 7SM CLR 06/00 A3017 RMK AO2,K4S1,2023-02-01T04:15:00Z,42.42,-124.42,6.0,0.0,50,6,,7.0,30.171259,,,TRUE,TRUE,,,,,,,CLR,,,,,,,,VFR,,,,,,,,,,,,METAR,7.0
K4S1 010355Z AUTO 06004KT 7SM CLR 06/00 A3017 RMK AO2,K4S1,2023-02-01T03:55:00Z,42.42,-124.42,6.0,0.0,60,4,,7.0,30.171259,,,TRUE,TRUE,,,,,,,CLR,,,,,,,,VFR,,,,,,,,,,,,METAR,7.0
K4S1 010335Z AUTO 05008KT 10SM CLR 06/00 A3016 RMK AO2,K4S1,2023-02-01T03:35:00Z,42.42,-124.42,6.0,0.0,50,8,,10.0,30.159449,,,TRUE,TRUE,,,,,,,CLR,,,,,,,,VFR,,,,,,,,,,,,METAR,7.0
K4S1 010315Z AUTO 05008KT 10SM CLR 06/00 A3017 RMK AO2,K4S1,2023-02-01T03:15:00Z,42.42,-124.42,6.0,0.0,50,8,,10.0,30.171259,,,TRUE,TRUE,,,,,,,CLR,,,,,,,,VFR,,,,,,,,,,,,METAR,7.0
K4S1 010255Z AUTO 05008KT 7SM CLR 06/01 A3017 RMK AO2,K4S1,2023-02-01T02:55:00Z,42.42,-124.42,6.0,1.0,50,8,,7.0,30.171259,,,TRUE,TRUE,,,,,,,CLR,,,,,,,,VFR,,,,,,,,,,,,METAR,7.0
K4S1 010235Z AUTO 03006KT 7SM CLR 06/02 A3017 RMK AO2,K4S1,2023-02-01T02:35:00Z,42.42,-124.42,6.0,2.0,30,6,,7.0,30.171259,,,TRUE,TRUE,,,,,,,CLR,,,,,,,,VFR,,,,,,,,,,,,METAR,7.0
K4S1 010215Z AUTO 02006KT 7SM CLR 06/02 A3018 RMK AO2,K4S1,2023-02-01T02:15:00Z,42.42,-124.42,6.0,2.0,20,6,,7.0,30.180119,,,TRUE,TRUE,,,,,,,CLR,,,,,,,,VFR,,,,,,,,,,,,METAR,7.0
K4S1 010155Z AUTO 05005KT 7SM CLR 07/02 A3017 RMK AO2,K4S1,2023-02-01T01:55:00Z,42.42,-124.42,7.0,2.0,50,5,,7.0,30.171259,,,TRUE,TRUE,,,,,,,CLR,,,,,,,,VFR,,,,,,,,,,,,METAR,7.0
K4S1 010135Z AUTO 02003KT 4SM HZ CLR 07/02 A3017 RMK AO2,K4S1,2023-02-01T01:35:00Z,42.42,-124.42,7.0,2.0,20,3,,4.0,30.171259,,,TRUE,TRUE,,,,,,HZ,CLR,,,,,,,,MVFR,,,,,,,,,,,,METAR,7.0
K4S1 010115Z AUTO 35003KT 2 1/2SM HZ CLR 07/03 A3017 RMK AO2,K4S1,2023-02-01T01:15:00Z,42.42,-124.42,7.0,3.0,350,3,,2.5,30.171259,,,TRUE,TRUE,,,,,,HZ,CLR,,,,,,,,IFR,,,,,,,,,,,,METAR,7.0
K4S1 010055Z AUTO 34005KT 3SM HZ CLR 08/03 A3017 RMK AO2,K4S1,2023-02-01T00:55:00Z,42.42,-124.42,8.0,3.0,340,5,,3.0,30.171259,,,TRUE,TRUE,,,,,,HZ,CLR,,,,,,,,MVFR,,,,,,,,,,,,METAR,7.0
K4S1 010035Z AUTO 36003KT 5SM HZ CLR 08/02 A3017 RMK AO2,K4S1,2023-02-01T00:35:00Z,42.42,-124.42,8.0,2.0,360,3,,5.0,30.171259,,,TRUE,TRUE,,,,,,HZ,CLR,,,,,,,,MVFR,,,,,,,,,,,,METAR,7.0
K4S1 010015Z AUTO 35005KT 5SM HZ CLR 08/01 A3017 RMK AO2,K4S1,2023-02-01T00:15:00Z,42.42,-124.42,8.0,1.0,350,5,,5.0,30.171259,,,TRUE,TRUE,,,,,,HZ,CLR,,,,,,,,MVFR,,,,,,,,,,,,METAR,7.0
K4S1 312355Z AUTO 33008KT 5SM HZ CLR 08/02 A3017 RMK AO2,K4S1,2023-01-31T23:55:00Z,42.42,-124.42,8.0,2.0,330,8,,5.0,30.171259,,,TRUE,TRUE,,,,,,HZ,CLR,,,,,,,,MVFR,,,,,,,,,,,,METAR,7.0
K4S1 312335Z AUTO 33006KT 3SM HZ CLR 09/03 A3017 RMK AO2,K4S1,2023-01-31T23:35:00Z,42.42,-124.42,9.0,3.0,330,6,,3.0,30.171259,,,TRUE,TRUE,,,,,,HZ,CLR,,,,,,,,MVFR,,,,,,,,,,,,METAR,7.0
K4S1 312315Z AUTO 33006KT 3SM HZ CLR 10/02 A3017 RMK AO2,K4S1,2023-01-31T23:15:00Z,42.42,-124.42,10.0,2.0,330,6,,3.0,30.171259,,,TRUE,TRUE,,,,,,HZ,CLR,,,,,,,,MVFR,,,,,,,,,,,,METAR,7.0
K4S1 312255Z AUTO 00000KT 3SM HZ CLR 10/02 A3017 RMK AO2,K4S1,2023-01-31T22:55:00Z,42.42,-124.42,10.0,2.0,0,0,,3.0,30.171259,,,TRUE,TRUE,,,,,,HZ,CLR,,,,,,,,MVFR,,,,,,,,,,,,METAR,7.0
K4S1 312235Z AUTO 00000KT 3SM HZ CLR 09/02 A3017 RMK AO2,K4S1,2023-01-31T22:35:00Z,42.42,-124.42,9.0,2.0,0,0,,3.0,30.171259,,,TRUE,TRUE,,,,,,HZ,CLR,,,,,,,,MVFR,,,,,,,,,,,,METAR,7.0
K4S1 312215Z AUTO 33007KT 4SM HZ CLR 10/02 A3017 RMK AO2,K4S1,2023-01-31T22:15:00Z,42.42,-124.42,10.0,2.0,330,7,,4.0,30.171259,,,TRUE,TRUE,,,,,,HZ,CLR,,,,,,,,MVFR,,,,,,,,,,,,METAR,7.0
K4S1 312155Z AUTO 33006KT 4SM HZ CLR 10/00 A3017 RMK AO2,K4S1,2023-01-31T21:55:00Z,42.42,-124.42,10.0,0.0,330,6,,4.0,30.171259,,,TRUE,TRUE,,,,,,HZ,CLR,,,,,,,,MVFR,,,,,,,,,,,,METAR,7.0
K4S1 312135Z AUTO 00000KT 3SM HZ CLR 10/00 A3018 RMK AO2,K4S1,2023-01-31T21:35:00Z,42.42,-124.42,10.0,0.0,0,0,,3.0,30.180119,,,TRUE,TRUE,,,,,,HZ,CLR,,,,,,,,MVFR,,,,,,,,,,,,METAR,7.0
K4S1 312115Z AUTO 22003KT 4SM HZ CLR 10/00 A3018 RMK AO2,K4S1,2023-01-31T21:15:00Z,42.42,-124.42,10.0,0.0,220,3,,4.0,30.180119,,,TRUE,TRUE,,,,,,HZ,CLR,,,,,,,,MVFR,,,,,,,,,,,,METAR,7.0
K4S1 312055Z AUTO 05008KT 7SM CLR 11/M05 A3019 RMK AO2,K4S1,2023-01-31T20:55:00Z,42.42,-124.42,11.0,-5.0,50,8,,7.0,30.188976,,,TRUE,TRUE,,,,,,,CLR,,,,,,,,VFR,,,,,,,,,,,,METAR,7.0
K4S1 312035Z AUTO 04006KT 5SM HZ CLR 10/M05 A3019 RMK AO2,K4S1,2023-01-31T20:35:00Z,42.42,-124.42,10.0,-5.0,40,6,,5.0,30.188976,,,TRUE,TRUE,,,,,,HZ,CLR,,,,,,,,MVFR,,,,,,,,,,,,METAR,7.0
K4S1 312015Z AUTO 00000KT 3SM HZ CLR 10/M01 A3020 RMK AO2,K4S1,2023-01-31T20:15:00Z,42.42,-124.42,10.0,-1.0,0,0,,3.0,30.200787,,,TRUE,TRUE,,,,,,HZ,CLR,,,,,,,,MVFR,,,,,,,,,,,,METAR,7.0
K4S1 311955Z AUTO 00000KT 5SM HZ CLR 11/M05 A3021 RMK AO2,K4S1,2023-01-31T19:55:00Z,42.42,-124.42,11.0,-5.0,0,0,,5.0,30.209646,,,TRUE,TRUE,,,,,,HZ,CLR,,,,,,,,MVFR,,,,,,,,,,,,METAR,7.0
K4S1 311935Z AUTO 04008KT 7SM CLR 10/M03 A3020 RMK AO2,K4S1,2023-01-31T19:35:00Z,42.42,-124.42,10.0,-3.0,40,8,,7.0,30.200787,,,TRUE,TRUE,,,,,,,CLR,,,,,,,,VFR,,,,,,,,,,,,METAR,7.0
K4S1 311915Z AUTO 05012KT 5SM HZ CLR 09/M05 A3022 RMK AO2,K4S1,2023-01-31T19:15:00Z,42.42,-124.42,9.0,-5.0,50,12,,5.0,30.221457,,,TRUE,TRUE,,,,,,HZ,CLR,,,,,,,,MVFR,,,,,,,,,,,,METAR,7.0
K4S1 311855Z AUTO 05010KT 5SM HZ CLR 08/M06 A3023 RMK AO2,K4S1,2023-01-31T18:55:00Z,42.42,-124.42,8.0,-6.0,50,10,,5.0,30.230314,,,TRUE,TRUE,,,,,,HZ,CLR,,,,,,,,MVFR,,,,,,,,,,,,METAR,7.0
K4S1 311835Z AUTO 05011KT 5SM HZ CLR 07/M06 A3023 RMK AO2,K4S1,2023-01-31T18:35:00Z,42.42,-124.42,7.0,-6.0,50,11,,5.0,30.230314,,,TRUE,TRUE,,,,,,HZ,CLR,,,,,,,,MVFR,,,,,,,,,,,,METAR,7.0
K4S1 311815Z AUTO 05010KT 5SM HZ CLR 06/M06 A3022 RMK AO2,K4S1,2023-01-31T18:15:00Z,42.42,-124.42,6.0,-6.0,50,10,,5.0,30.221457,,,TRUE,TRUE,,,,,,HZ,CLR,,,,,,,,MVFR,,,,,,,,,,,,METAR,7.0
K4S1 311755Z AUTO 05012KT 5SM HZ CLR 05/M06 A3023 RMK AO2,K4S1,2023-01-31T17:55:00Z,42.42,-124.42,5.0,-6.0,50,12,,5.0,30.230314,,,TRUE,TRUE,,,,,,HZ,CLR,,,,,,,,MVFR,,,,,,,,,,,,METAR,7.0
K4S1 311735Z AUTO 05013KT 5SM HZ CLR 04/M06 A3023 RMK AO2,K4S1,2023-01-31T17:35:00Z,42.42,-124.42,4.0,-6.0,50,13,,5.0,30.230314,,,TRUE,TRUE,,,,,,HZ,CLR,,,,,,,,MVFR,,,,,,,,,,,,METAR,7.0
K4S1 311715Z AUTO 05012KT 5SM HZ CLR 03/M06 A3023 RMK AO2,K4S1,2023-01-31T17:15:00Z,42.42,-124.42,3.0,-6.0,50,12,,5.0,30.230314,,,TRUE,TRUE,,,,,,HZ,CLR,,,,,,,,MVFR,,,,,,,,,,,,METAR,7.0
K4S1 311655Z AUTO 05012KT 7SM CLR 03/M07 A3024 RMK AO2,K4S1,2023-01-31T16:55:00Z,42.42,-124.42,3.0,-7.0,50,12,,7.0,30.239174,,,TRUE,TRUE,,,,,,,CLR,,,,,,,,VFR,,,,,,,,,,,,METAR,7.0
K4S1 311635Z AUTO 05014KT 7SM CLR 03/M07 A3024 RMK AO2,K4S1,2023-01-31T16:35:00Z,42.42,-124.42,3.0,-7.0,50,14,,7.0,30.239174,,,TRUE,TRUE,,,,,,,CLR,,,,,,,,VFR,,,,,,,,,,,,METAR,7.0
K4S1 311615Z AUTO 04011G17KT 5SM HZ CLR 03/M07 A3024 RMK AO2,K4S1,2023-01-31T16:15:00Z,42.42,-124.42,3.0,-7.0,40,11,17,5.0,30.239174,,,TRUE,TRUE,,,,,,HZ,CLR,,,,,,,,MVFR,,,,,,,,,,,,METAR,7.0
K4S1 311555Z AUTO 05013KT 7SM CLR 02/M07 A3023 RMK AO2,K4S1,2023-01-31T15:55:00Z,42.42,-124.42,2.0,-7.0,50,13,,7.0,30.230314,,,TRUE,TRUE,,,,,,,CLR,,,,,,,,VFR,,,,,,,,,,,,METAR,7.0
K4S1 311535Z AUTO 05013G16KT 7SM CLR 02/M07 A3022 RMK AO2,K4S1,2023-01-31T15:35:00Z,42.42,-124.42,2.0,-7.0,50,13,16,7.0,30.221457,,,TRUE,TRUE,,,,,,,CLR,,,,,,,,VFR,,,,,,,,,,,,METAR,7.0
K4S1 311515Z AUTO 05011G14KT 7SM CLR 03/M07 A3022 RMK AO2,K4S1,2023-01-31T15:15:00Z,42.42,-124.42,3.0,-7.0,50,11,14,7.0,30.221457,,,TRUE,TRUE,,,,,,,CLR,,,,,,,,VFR,,,,,,,,,,,,METAR,7.0
K4S1 311455Z AUTO 07007KT 7SM CLR 03/M07 A3022 RMK AO2,K4S1,2023-01-31T14:55:00Z,42.42,-124.42,3.0,-7.0,70,7,,7.0,30.221457,,,TRUE,TRUE,,,,,,,CLR,,,,,,,,VFR,,,,,,,,,,,,METAR,7.0
K4S1 311435Z AUTO 06012G17KT 7SM CLR 02/M07 A3021 RMK AO2,K4S1,2023-01-31T14:35:00Z,42.42,-124.42,2.0,-7.0,60,12,17,7.0,30.209646,,,TRUE,TRUE,,,,,,,CLR,,,,,,,,VFR,,,,,,,,,,,,METAR,7.0
