No errors
Max results hit (1000): not all possible results returned; 
38 ms
data source=metars
1000 results
raw_text,station_id,observation_time,latitude,longitude,temp_c,dewpoint_c,wind_dir_degrees,wind_speed_kt,wind_gust_kt,visibility_statute_mi,altim_in_hg,sea_level_pressure_mb,corrected,auto,auto_station,maintenance_indicator_on,no_signal,lightning_sensor_off,freezing_rain_sensor_off,present_weather_sensor_off,wx_string,sky_cover,cloud_base_ft_agl,sky_cover,cloud_base_ft_agl,sky_cover,cloud_base_ft_agl,sky_cover,cloud_base_ft_agl,flight_category,three_hr_pressure_tendency_mb,maxT_c,minT_c,maxT24hr_c,minT24hr_c,precip_in,pcp3hr_in,pcp6hr_in,pcp24hr_in,snow_in,vert_vis_ft,metar_type,elevation_m
K4S1 311615Z AUTO 17010G19KT 7SM RA SCT038 08/05 A3010 RMK AO2,K4S1,2023-03-31T16:15:00Z,42.42,-124.42,8.0,5.0,170,10,19,7.0,30.100393,,,TRUE,TRUE,,,,,,RA,SCT,3800,,,,,,,VFR,,,,,,,,,,,,METAR,7.0
K4S1 311555Z AUTO 17013G23KT 7SM CLR 07/05 A3011 RMK AO2,K4S1,2023-03-31T15:55:00Z,42.42,-124.42,7.0,5.0,170,13,23,7.0,30.109253,,,TRUE,TRUE,,,,,,,CLR,,,,,,,,VFR,,,,,,,,,,,,METAR,7.0
K4S1 311535Z AUTO 17014G23KT 7SM CLR 07/05 A3010 RMK AO2,K4S1,2023-03-31T15:35:00Z,42.42,-124.42,7.0,5.0,170,14,23,7.0,30.100393,,,TRUE,TRUE,,,,,,,CLR,,,,,,,,VFR,,,,,,,,,,,,METAR,7.0
K4S1 311515Z AUTO 17015G19KT 5SM BR CLR 07/05 A3010 RMK AO2,K4S1,2023-03-31T15:15:00Z,42.42,-124.42,7.0,5.0,170,15,19,5.0,30.100393,,,TRUE,TRUE,,,,,,BR,CLR,,,,,,,,MVFR,,,,,,,,,,,,METAR,7.0
K4S1 311455Z AUTO 17012G18KT 7SM CLR 07/05 A3010 RMK AO2,K4S1,2023-03-31T14:55:00Z,42.42,-124.42,7.0,5.0,170,12,18,7.0,30.100393,,,TRUE,TRUE,,,,,,,CLR,,,,,,,,VFR,,,,,,,,,,,,METAR,7.0
K4S1 311435Z AUTO 18012G18KT 5SM BR CLR 07/05 A3009 RMK AO2,K4S1,2023-03-31T14:35:00Z,42.42,-124.42,7.0,5.0,180,12,18,5.0,30.088583,,,TRUE,TRUE,,,,,,BR,CLR,,,,,,,,MVFR,,,,,,,,,,,,METAR,7.0
K4S1 311415Z AUTO 17015G21KT 7SM -RA CLR 07/05 A3009 RMK AO2,K4S1,2023-03-31T14:15:00Z,42.42,-124.42,7.0,5.0,170,15,21,7.0,30.088583,,,TRUE,TRUE,,,,,,-RA,CLR,,,,,,,,VFR,,,,,,,,,,,,METAR,7.0
K4S1 311355Z AUTO 17010G19KT 10SM -RA SCT020 SCT027 BKN033 06/04 A3009 RMK AO2 P0001,K4S1,2023-03-31T13:55:00Z,42.42,-124.42,6.0,4.0,170,10,19,10.0,30.088583,,,TRUE,TRUE,,,,,,-RA,SCT,2000,SCT,2700,BKN,3300,,,VFR,,,,,,0.01,,,,,,METAR,7.0
K4S1 311335Z AUTO 18012KT 10SM RA SCT023 SCT031 SCT042 07/04 A3008 RMK AO2,K4S1,2023-03-31T13:35:00Z,42.42,-124.42,7.0,4.0,180,12,,10.0,30.079725,,,TRUE,TRUE,,,,,,RA,SCT,2300,SCT,3100,SCT,4200,,,VFR,,,,,,,,,,,,METAR,7.0
K4S1 311315Z AUTO 17011G16KT 5SM HZ SCT023 SCT031 SCT038 07/04 A3008 RMK AO2,K4S1,2023-03-31T13:15:00Z,42.42,-124.42,7.0,4.0,170,11,16,5.0,30.079725,,,TRUE,TRUE,,,,,,HZ,SCT,2300,SCT,3100,SCT,3800,,,MVFR,,,,,,,,,,,,METAR,7.0
K4S1 311255Z AUTO 18013G16KT 7SM -RA SCT023 SCT038 07/04 A3008 RMK AO2,K4S1,2023-03-31T12:55:00Z,42.42,-124.42,7.0,4.0,180,13,16,7.0,30.079725,,,TRUE,TRUE,,,,,,-RA,SCT,2300,SCT,3800,,,,,VFR,,,,,,,,,,,,METAR,7.0
K4S1 311235Z AUTO 16012G18KT 7SM CLR 07/03 A3007 RMK AO2,K4S1,2023-03-31T12:35:00Z,42.42,-124.42,7.0,3.0,160,12,18,7.0,30.070866,,,TRUE,TRUE,,,,,,,CLR,,,,,,,,VFR,,,,,,,,,,,,METAR,7.0
K4S1 311215Z AUTO 17012G17KT 7SM CLR 07/03 A3007 RMK AO2,K4S1,2023-03-31T12:15:00Z,42.42,-124.42,7.0,3.0,170,12,17,7.0,30.070866,,,TRUE,TRUE,,,,,,,CLR,,,,,,,,VFR,,,,,,,,,,,,METAR,7.0
K4S1 311155Z AUTO 16009KT 7SM CLR 07/03 A3008 RMK AO2,K4S1,2023-03-31T11:55:00Z,42.42,-124.42,7.0,3.0,160,9,,7.0,30.079725,,,TRUE,TRUE,,,,,,,CLR,,,,,,,,VFR,,,,,,,,,,,,METAR,7.0
K4S1 311135Z AUTO 17010KT 7SM CLR 07/03 A3008 RMK AO2,K4S1,2023-03-31T11:35:00Z,42.42,-124.42,7.0,3.0,170,10,,7.0,30.079725,,,TRUE,TRUE,,,,,,,CLR,,,,,,,,VFR,,,,,,,,,,,,METAR,7.0
K4S1 311115Z AUTO 16011KT 7SM CLR 07/03 A3008 RMK AO2,K4S1,2023-03-31T11:15:00Z,42.42,-124.42,7.0,3.0,160,11,,7.0,30.079725,,,TRUE,TRUE,,,,,,,CLR,,,,,,,,VFR,,,,,,,,,,,,METAR,7.0
K4S1 311055Z AUTO 16013G21KT 7SM CLR 07/03 A3008 RMK AO2,K4S1,2023-03-31T10:55:00Z,42.42,-124.42,7.0,3.0,160,13,21,7.0,30.079725,,,TRUE,TRUE,,,,,,,CLR,,,,,,,,VFR,,,,,,,,,,,,METAR,7.0
K4S1 311035Z AUTO 18016G19KT 7SM CLR 07/03 A3008 RMK AO2,K4S1,2023-03-31T10:35:00Z,42.42,-124.42,7.0,3.0,180,16,19,7.0,30.079725,,,TRUE,TRUE,,,,,,,CLR,,,,,,,,VFR,,,,,,,,,,,,METAR,7.0
K4S1 311015Z AUTO 19006KT 7SM CLR 07/03 A3008 RMK AO2,K4S1,2023-03-31T10:15:00Z,42.42,-124.42,7.0,3.0,190,6,,7.0,30.079725,,,TRUE,TRUE,,,,,,,CLR,,,,,,,,VFR,,,,,,,,,,,,METAR,7.0
K4S1 310955Z AUTO 16009KT 7SM CLR 07/03 A3007 RMK AO2,K4S1,2023-03-31T09:55:00Z,42.42,-124.42,7.0,3.0,160,9,,7.0,30.070866,,,TRUE,TRUE,,,,,,,CLR,,,,,,,,VFR,,,,,,,,,,,,METAR,7.0
K4S1 310935Z AUTO 21016G22KT 7SM CLR 08/04 A3007 RMK AO2,K4S1,2023-03-31T09:35:00Z,42.42,-124.42,8.0,4.0,210,16,22,7.0,30.070866,,,TRUE,TRUE,,,,,,,CLR,,,,,,,,VFR,,,,,,,,,,,,METAR,7.0
K4S1 310915Z AUTO 20015G21KT 7SM CLR 07/05 A3007 RMK AO2,K4S1,2023-03-31T09:15:00Z,42.42,-124.42,7.0,5.0,200,15,21,7.0,30.070866,,,TRUE,TRUE,,,,,,,CLR,,,,,,,,VFR,,,,,,,,,,,,METAR,7.0
K4S1 310855Z AUTO 20012G15KT 7SM -RA SCT014 SCT019 07/05 A3007 RMK AO2,K4S1,2023-03-31T08:55:00Z,42.42,-124.42,7.0,5.0,200,12,15,7.0,30.070866,,,TRUE,TRUE,,,,,,-RA,SCT,1400,SCT,1900,,,,,VFR,,,,,,,,,,,,METAR,7.0
K4S1 310835Z AUTO 17008KT 7SM CLR 07/05 A3006 RMK AO2,K4S1,2023-03-31T08:35:00Z,42.42,-124.42,7.0,5.0,170,8,,7.0,30.059055,,,TRUE,TRUE,,,,,,,CLR,,,,,,,,VFR,,,,,,,,,,,,METAR,7.0
K4S1 310815Z AUTO 18008KT 7SM CLR 07/05 A3006 RMK AO2,K4S1,2023-03-31T08:15:00Z,42.42,-124.42,7.0,5.0,180,8,,7.0,30.059055,,,TRUE,TRUE,,,,,,,CLR,,,,,,,,VFR,,,,,,,,,,,,METAR,7.0
K4S1 310755Z AUTO 17007KT 7SM CLR 07/05 A3006 RMK AO2,K4S1,2023-03-31T07:55:00Z,42.42,-124.42,7.0,5.0,170,7,,7.0,30.059055,,,TRUE,TRUE,,,,,,,CLR,,,,,,,,VFR,,,,,,,,,,,,METAR,7.0
K4S1 310735Z AUTO 17009KT 7SM CLR 07/05 A3006 RMK AO2,K4S1,2023-03-31T07:35:00Z,42.42,-124.42,7.0,5.0,170,9,,7.0,30.059055,,,TRUE,TRUE,,,,,,,CLR,,,,,,,,VFR,,,,,,,,,,,,METAR,7.0
K4S1 310715Z AUTO 17007KT 7SM CLR 07/05 A3006 RMK AO2,K4S1,2023-03-31T07:15:00Z,42.42,-124.42,7.0,5.0,170,7,,7.0,30.059055,,,TRUE,TRUE,,,,,,,CLR,,,,,,,,VFR,,,,,,,,,,,,METAR,7.0
K4S1 310655Z AUTO 18007KT 7SM CLR 07/05 A3006 RMK AO2,K4S1,2023-03-31T06:55:00Z,42.42,-124.42,7.0,5.0,180,7,,7.0,30.059055,,,TRUE,TRUE,,,,,,,CLR,,,,,,,,VFR,,,,,,,,,,,,METAR,7.0
K4S1 310635Z AUTO 17007KT 7SM -DZ CLR 07/05 A3006 RMK AO2,K4S1,2023-03-31T06:35:00Z,42.42,-124.42,7.0,5.0,170,7,,7.0,30.059055,,,TRUE,TRUE,,,,,,-DZ,CLR,,,,,,,,VFR,,,,,,,,,,,,METAR,7.0
K4S1 310615Z AUTO 17006KT 7SM CLR 07/05 A3006 RMK AO2,K4S1,2023-03-31T06:15:00Z,42.42,-124.42,7.0,5.0,170,6,,7.0,30.059055,,,TRUE,TRUE,,,,,,,CLR,,,,,,,,VFR,,,,,,,,,,,,METAR,7.0
K4S1 310555Z AUTO 18007KT 7SM CLR 07/06 A3006 RMK AO2,K4S1,2023-03-31T05:55:00Z,42.42,-124.42,7.0,6.0,180,7,,7.0,30.059055,,,TRUE,TRUE,,,,,,,CLR,,,,,,,,VFR,,,,,,,,,,,,METAR,7.0
K4S1 310535Z AUTO 18007KT 7SM -RA CLR 07/06 A3006 RMK AO2,K4S1,2023-03-31T05:35:00Z,42.42,-124.42,7.0,6.0,180,7,,7.0,30.059055,,,TRUE,TRUE,,,,,,-RA,CLR,,,,,,,,VFR,,,,,,,,,,,,METAR,7.0
K4S1 310515Z AUTO 19006KT 7SM -DZ CLR 07/06 A3006 RMK AO2,K4S1,2023-03-31T05:15:00Z,42.42,-124.42,7.0,6.0,190,6,,7.0,30.059055,,,TRUE,TRUE,,,,,,-DZ,CLR,,,,,,,,VFR,,,,,,,,,,,,METAR,7.0
K4S1 310455Z AUTO 21006KT 7SM -RA SCT029 07/06 A3006 RMK AO2,K4S1,2023-03-31T04:55:00Z,42.42,-124.42,7.0,6.0,210,6,,7.0,30.059055,,,TRUE,TRUE,,,,,,-RA,SCT,2900,,,,,,,VFR,,,,,,,,,,,,METAR,7.0
K4S1 310435Z AUTO 21008KT 7SM -RA SCT029 SCT034 07/05 A3005 RMK AO2,K4S1,2023-03-31T04:35:00Z,42.42,-124.42,7.0,5.0,210,8,,7.0,30.050198,,,TRUE,TRUE,,,,,,-RA,SCT,2900,SCT,3400,,,,,VFR,,,,,,,,,,,,METAR,7.0
K4S1 310415Z AUTO 20008KT 5SM -RA CLR 08/05 A3005 RMK AO2,K4S1,2023-03-31T04:15:00Z,42.42,-124.42,8.0,5.0,200,8,,5.0,30.050198,,,TRUE,TRUE,,,,,,-RA,CLR,,,,,,,,MVFR,,,,,,,,,,,,METAR,7.0
K4S1 310355Z AUTO 20007KT 7SM CLR 08/05 A3004 RMK AO2,K4S1,2023-03-31T03:55:00Z,42.42,-124.42,8.0,5.0,200,7,,7.0,30.041338,,,TRUE,TRUE,,,,,,,CLR,,,,,,,,VFR,,,,,,,,,,,,METAR,7.0
K4S1 310335Z AUTO 20007KT 7SM CLR 08/05 A3004 RMK AO2,K4S1,2023-03-31T03:35:00Z,42.42,-124.42,8.0,5.0,200,7,,7.0,30.041338,,,TRUE,TRUE,,,,,,,CLR,,,,,,,,VFR,,,,,,,,,,,,METAR,7.0
K4S1 310315Z AUTO 21007KT 5SM HZ CLR 08/05 A3004 RMK AO2,K4S1,2023-03-31T03:15:00Z,42.42,-124.42,8.0,5.0,210,7,,5.0,30.041338,,,TRUE,TRUE,,,,,,HZ,CLR,,,,,,,,MVFR,,,,,,,,,,,,METAR,7.0
K4S1 310255Z AUTO 22008KT 5SM BR CLR 08/06 A3004 RMK AO2,K4S1,2023-03-31T02:55:00Z,42.42,-124.42,8.0,6.0,220,8,,5.0,30.041338,,,TRUE,TRUE,,,,,,BR,CLR,,,,,,,,MVFR,,,,,,,,,,,,METAR,7.0
K4S1 310235Z AUTO 22007KT 4SM BR CLR 08/06 A3003 RMK AO2,K4S1,2023-03-31T02:35:00Z,42.42,-124.42,8.0,6.0,220,7,,4.0,30.029528,,,TRUE,TRUE,,,,,,BR,CLR,,,,,,,,MVFR,,,,,,,,,,,,METAR,7.0
K4S1 310215Z AUTO 23007KT 4SM BR CLR 08/06 A3003 RMK AO2,K4S1,2023-03-31T02:15:00Z,42.42,-124.42,8.0,6.0,230,7,,4.0,30.029528,,,TRUE,TRUE,,,,,,BR,CLR,,,,,,,,MVFR,,,,,,,,,,,,METAR,7.0
K4S1 310155Z AUTO 23007KT 4SM HZ CLR 08/06 A3003 RMK AO2,K4S1,2023-03-31T01:55:00Z,42.42,-124.42,8.0,6.0,230,7,,4.0,30.029528,,,TRUE,TRUE,,,,,,HZ,CLR,,,,,,,,MVFR,,,,,,,,,,,,METAR,7.0
K4S1 310135Z AUTO 23006KT 4SM HZ CLR 08/06 A3003 RMK AO2,K4S1,2023-03-31T01:35:00Z,42.42,-124.42,8.0,6.0,230,6,,4.0,30.029528,,,TRUE,TRUE,,,,,,HZ,CLR,,,,,,,,MVFR,,,,,,,,,,,,METAR,7.0
K4S1 310115Z AUTO 22006KT 4SM HZ CLR 08/06 A3003 RMK AO2,K4S1,2023-03-31T01:15:00Z,42.42,-124.42,8.0,6.0,220,6,,4.0,30.029528,,,TRUE,TRUE,,,,,,HZ,CLR,,,,,,,,MVFR,,,,,,,,,,,,METAR,7.0
K4S1 310055Z AUTO 22006KT 3SM HZ CLR 08/06 A3003 RMK AO2,K4S1,2023-03-31T00:55:00Z,42.42,-124.42,8.0,6.0,220,6,,3.0,30.029528,,,TRUE,TRUE,,,,,,HZ,CLR,,,,,,,,MVFR,,,,,,,,,,,,METAR,7.0
K4S1 310035Z AUTO 23006KT 4SM HZ CLR 08/06 A3003 RMK AO2,K4S1,2023-03-31T00:35:00Z,42.42,-124.42,8.0,6.0,230,6,,4.0,30.029528,,,TRUE,TRUE,,,,,,HZ,CLR,,,,,,,,MVFR,,,,,,,,,,,,METAR,7.0
K4S1 310015Z AUTO 24007KT 3SM HZ CLR 08/06 A3003 RMK AO2,K4S1,2023-03-31T00:15:00Z,42.42,-124.42,8.0,6.0,240,7,,3.0,30.029528,,,TRUE,TRUE,,,,,,HZ,CLR,,,,,,,,MVFR,,,,,,,,,,,,METAR,7.0
K4S1 302355Z AUTO 24007KT 3SM HZ CLR 09/06 A3003 RMK AO2,K4S1,2023-03-30T23:55:00Z,42.42,-124.42,9.0,6.0,240,7,,3.0,30.029528,,,TRUE,TRUE,,,,,,HZ,CLR,,,,,,,,MVFR,,,,,,,,,,,,METAR,7.0
K4S1 302335Z AUTO 23008KT 3SM HZ CLR 08/06 A3004 RMK AO2,K4S1,2023-03-30T23:35:00Z,42.42,-124.42,8.0,6.0,230,8,,3.0,30.041338,,,TRUE,TRUE,,,,,,HZ,CLR,,,,,,,,MVFR,,,,,,,,,,,,METAR,7.0
K4S1 302315Z AUTO 22009KT 4SM HZ CLR 09/05 A3003 RMK AO2,K4S1,2023-03-30T23:15:00Z,42.42,-124.42,9.0,5.0,220,9,,4.0,30.029528,,,TRUE,TRUE,,,,,,HZ,CLR,,,,,,,,MVFR,,,,,,,,,,,,METAR,7.0
K4S1 302255Z AUTO 21008KT 4SM HZ CLR 10/06 A3003 RMK AO2,K4S1,2023-03-30T22:55:00Z,42.42,-124.42,10.0,6.0,210,8,,4.0,30.029528,,,TRUE,TRUE,,,,,,HZ,CLR,,,,,,,,MVFR,,,,,,,,,,,,METAR,7.0
K4S1 302235Z AUTO 21007KT 4SM HZ CLR 10/06 A3003 RMK AO2,K4S1,2023-03-30T22:35:00Z,42.42,-124.42,10.0,6.0,210,7,,4.0,30.029528,,,TRUE,TRUE,,,,,,HZ,CLR,,,,,,,,MVFR,,,,,,,,,,,,METAR,7.0
K4S1 302215Z AUTO 20008KT 4SM HZ CLR 10/06 A3002 RMK AO2,K4S1,2023-03-30T22:15:00Z,42.42,-124.42,10.0,6.0,200,8,,4.0,30.02067,,,TRUE,TRUE,,,,,,HZ,CLR,,,,,,,,MVFR,,,,,,,,,,,,METAR,7.0
K4S1 302155Z AUTO 20008KT 4SM HZ CLR 10/06 A3002 RMK AO2,K4S1,2023-03-30T21:55:00Z,42.42,-124.42,10.0,6.0,200,8,,4.0,30.02067,,,TRUE,TRUE,,,,,,HZ,CLR,,,,,,,,MVFR,,,,,,,,,,,,METAR,7.0
K4S1 302135Z AUTO 20008KT 4SM HZ CLR 09/06 A3002 RMK AO2,K4S1,2023-03-30T21:35:00Z,42.42,-124.42,9.0,6.0,200,8,,4.0,30.02067,,,TRUE,TRUE,,,,,,HZ,CLR,,,,,,,,MVFR,,,,,,,,,,,,METAR,7.0
K4S1 302115Z AUTO 20007KT 4SM HZ CLR 10/06 A3002 RMK AO2,K4S1,2023-03-30T21:15:00Z,42.42,-124.42,10.0,6.0,200,7,,4.0,30.02067,,,TRUE,TRUE,,,,,,HZ,CLR,,,,,,,,MVFR,,,,,,,,,,,,METAR,7.0
K4S1 302055Z AUTO 20006KT 4SM HZ CLR 09/06 A3002 RMK AO2,K4S1,2023-03-30T20:55:00Z,42.42,-124.42,9.0,6.0,200,6,,4.0,30.02067,,,TRUE,TRUE,,,,,,HZ,CLR,,,,,,,,MVFR,,,,,,,,,,,,METAR,7.0
K4S1 302035Z AUTO 21006KT 4SM HZ CLR 09/06 A3002 RMK AO2,K4S1,2023-03-30T20:35:00Z,42.42,-124.42,9.0,6.0,210,6,,4.0,30.02067,,,TRUE,TRUE,,,,,,HZ,CLR,,,,,,,,MVFR,,,,,,,,,,,,METAR,7.0
K4S1 302015Z AUTO 21006KT 4SM HZ CLR 09/06 A3001 RMK AO2,K4S1,2023-03-30T20:15:00Z,42.42,-124.42,9.0,6.0,210,6,,4.0,30.008858,,,TRUE,TRUE,,,,,,HZ,CLR,,,,,,,,MVFR,,,,,,,,,,,,METAR,7.0
K4S1 301955Z AUTO 21006KT 4SM HZ CLR 08/06 A3001 RMK AO2,K4S1,2023-03-30T19:55:00Z,42.42,-124.42,8.0,6.0,210,6,,4.0,30.008858,,,TRUE,TRUE,,,,,,HZ,CLR,,,,,,,,MVFR,,,,,,,,,,,,METAR,7.0
K4S1 301935Z AUTO 20007KT 4SM HZ CLR 09/06 A3001 RMK AO2,K4S1,2023-03-30T19:35:00Z,42.42,-124.42,9.0,6.0,200,7,,4.0,30.008858,,,TRUE,TRUE,,,,,,HZ,CLR,,,,,,,,MVFR,,,,,,,,,,,,METAR,7.0
K4S1 301915Z AUTO 20007KT 4SM HZ CLR 08/06 A3001 RMK AO2,K4S1,2023-03-30T19:15:00Z,42.42,-124.42,8.0,6.0,200,7,,4.0,30.008858,,,TRUE,TRUE,,,,,,HZ,CLR,,,,,,,,MVFR,,,,,,,,,,,,METAR,7.0
K4S1 301855Z AUTO 20007KT 4SM HZ CLR 08/06 A3000 RMK AO2,K4S1,2023-03-30T18:55:00Z,42.42,-124.42,8.0,6.0,200,7,,4.0,30.0,,,TRUE,TRUE,,,,,,HZ,CLR,,,,,,,,MVFR,,,,,,,,,,,,METAR,7.0
K4S1 301835Z AUTO 20007KT 4SM BR CLR 08/06 A3000 RMK AO2,K4S1,2023-03-30T18:35:00Z,42.42,-124.42,8.0,6.0,200,7,,4.0,30.0,,,TRUE,TRUE,,,,,,BR,CLR,,,,,,,,MVFR,,,,,,,,,,,,METAR,7.0
K4S1 301815Z AUTO 20008KT 4SM HZ CLR 08/06 A2999 RMK AO2,K4S1,2023-03-30T18:15:00Z,42.42,-124.42,8.0,6.0,200,8,,4.0,29.991142,,,TRUE,TRUE,,,,,,HZ,CLR,,,,,,,,MVFR,,,,,,,,,,,,METAR,7.0
K4S1 301755Z AUTO 20008KT 3SM HZ CLR 08/06 A2999 RMK AO2,K4S1,2023-03-30T17:55:00Z,42.42,-124.42,8.0,6.0,200,8,,3.0,29.991142,,,TRUE,TRUE,,,,,,HZ,CLR,,,,,,,,MVFR,,,,,,,,,,,,METAR,7.0
K4S1 301735Z AUTO 20007KT 5SM HZ CLR 08/05 A2998 RMK AO2,K4S1,2023-03-30T17:35:00Z,42.42,-124.42,8.0,5.0,200,7,,5.0,29.97933,,,TRUE,TRUE,,,,,,HZ,CLR,,,,,,,,MVFR,,,,,,,,,,,,METAR,7.0
K4S1 301715Z AUTO 21007KT 5SM BR CLR 08/06 A2997 RMK AO2,K4S1,2023-03-30T17:15:00Z,42.42,-124.42,8.0,6.0,210,7,,5.0,29.970472,,,TRUE,TRUE,,,,,,BR,CLR,,,,,,,,MVFR,,,,,,,,,,,,METAR,7.0
K4S1 301655Z AUTO 20004KT 3SM BR CLR 08/06 A2997 RMK AO2,K4S1,2023-03-30T16:55:00Z,42.42,-124.42,8.0,6.0,200,4,,3.0,29.970472,,,TRUE,TRUE,,,,,,BR,CLR,,,,,,,,MVFR,,,,,,,,,,,,METAR,7.0
K4S1 301635Z AUTO 00000KT 5SM BR CLR 07/05 A2996 RMK AO2,K4S1,2023-03-30T16:35:00Z,42.42,-124.42,7.0,5.0,0,0,,5.0,29.958662,,,TRUE,TRUE,,,,,,BR,CLR,,,,,,,,MVFR,,,,,,,,,,,,METAR,7.0
K4S1 301615Z AUTO 05005KT 5SM BR CLR 06/04 A2997 RMK AO2,K4S1,2023-03-30T16:15:00Z,42.42,-124.42,6.0,4.0,50,5,,5.0,29.970472,,,TRUE,TRUE,,,,,,BR,CLR,,,,,,,,MVFR,,,,,,,,,,,,METAR,7.0
K4S1 301555Z AUTO 04006KT 5SM BR CLR 06/04 A2996 RMK AO2,K4S1,2023-03-30T15:55:00Z,42.42,-124.42,6.0,4.0,40,6,,5.0,29.958662,,,TRUE,TRUE,,,,,,BR,CLR,,,,,,,,MVFR,,,,,,,,,,,,METAR,7.0
K4S1 301535Z AUTO 04007KT 5SM BR CLR 05/03 A2996 RMK AO2,K4S1,2023-03-30T15:35:00Z,42.42,-124.42,5.0,3.0,40,7,,5.0,29.958662,,,TRUE,TRUE,,,,,,BR,CLR,,,,,,,,MVFR,,,,,,,,,,,,METAR,7.0
K4S1 301515Z AUTO 04007KT 5SM BR CLR 05/03 A2996 RMK AO2,K4S1,2023-03-30T15:15:00Z,42.42,-124.42,5.0,3.0,40,7,,5.0,29.958662,,,TRUE,TRUE,,,,,,BR,CLR,,,,,,,,MVFR,,,,,,,,,,,,METAR,7.0
K4S1 301455Z AUTO 05007KT 5SM BR CLR 05/03 A2995 RMK AO2,K4S1,2023-03-30T14:55:00Z,42.42,-124.42,5.0,3.0,50,7,,5.0,29.949802,,,TRUE,TRUE,,,,,,BR,CLR,,,,,,,,MVFR,,,,,,,,,,,,METAR,7.0
K4S1 301435Z AUTO 05007KT 7SM CLR 05/03 A2995 RMK AO2,K4S1,2023-03-30T14:35:00Z,42.42,-124.42,5.0,3.0,50,7,,7.0,29.949802,,,TRUE,TRUE,,,,,,,CLR,,,,,,,,VFR,,,,,,,,,,,,METAR,7.0
K4S1 301415Z AUTO 05006KT 7SM CLR 05/03 A2994 RMK AO2,K4S1,2023-03-30T14:15:00Z,42.42,-124.42,5.0,3.0,50,6,,7.0,29.940945,,,TRUE,TRUE,,,,,,,CLR,,,,,,,,VFR,,,,,,,,,,,,METAR,7.0
K4S1 301355Z AUTO 05008KT 7SM CLR 05/03 A2993 RMK AO2,K4S1,2023-03-30T13:55:00Z,42.42,-124.42,5.0,3.0,50,8,,7.0,29.929134,,,TRUE,TRUE,,,,,,,CLR,,,,,,,,VFR,,,,,,,,,,,,METAR,7.0
K4S1 301335Z AUTO 05006KT 7SM CLR 05/03 A2993 RMK AO2,K4S1,2023-03-30T13:35:00Z,42.42,-124.42,5.0,3.0,50,6,,7.0,29.929134,,,TRUE,TRUE,,,,,,,CLR,,,,,,,,VFR,,,,,,,,,,,,METAR,7.0
K4S1 301315Z AUTO 06007KT 7SM CLR 05/03 A2992 RMK AO2,K4S1,2023-03-30T13:15:00Z,42.42,-124.42,5.0,3.0,60,7,,7.0,29.920275,,,TRUE,TRUE,,,,,,,CLR,,,,,,,,VFR,,,,,,,,,,,,METAR,7.0
K4S1 301255Z AUTO 06010KT 7SM CLR 05/03 A2992 RMK AO2,K4S1,2023-03-30T12:55:00Z,42.42,-124.42,5.0,3.0,60,10,,7.0,29.920275,,,TRUE,TRUE,,,,,,,CLR,,,,,,,,VFR,,,,,,,,,,,,METAR,7.0
K4S1 301235Z AUTO 05011KT 7SM CLR 05/03 A2991 RMK AO2,K4S1,2023-03-30T12:35:00Z,42.42,-124.42,5.0,3.0,50,11,,7.0,29.911417,,,TRUE,TRUE,,,,,,,CLR,,,,,,,,VFR,,,,,,,,,,,,METAR,7.0
K4S1 301215Z AUTO 05011KT 7SM CLR 05/03 A2992 RMK AO2,K4S1,2023-03-30T12:15:00Z,42.42,-124.42,5.0,3.0,50,11,,7.0,29.920275,,,TRUE,TRUE,,,,,,,CLR,,,,,,,,VFR,,,,,,,,,,,,METAR,7.0
K4S1 301155Z AUTO 05011KT 7SM CLR 05/03 A2991 RMK AO2,K4S1,2023-03-30T11:55:00Z,42.42,-124.42,5.0,3.0,50,11,,7.0,29.911417,,,TRUE,TRUE,,,,,,,CLR,,,,,,,,VFR,,,,,,,,,,,,METAR,7.0
K4S1 301135Z AUTO 05011KT 7SM CLR 05/03 A2992 RMK AO2,K4S1,2023-03-30T11:35:00Z,42.42,-124.42,5.0,3.0,50,11,,7.0,29.920275,,,TRUE,TRUE,,,,,,,CLR,,,,,,,,VFR,,,,,,,,,,,,METAR,7.0
K4S1 301115Z AUTO 05010KT 7SM CLR 05/03 A2992 RMK AO2,K4S1,2023-03-30T11:15:00Z,42.42,-124.42,5.0,3.0,50,10,,7.0,29.920275,,,TRUE,TRUE,,,,,,,CLR,,,,,,,,VFR,,,,,,,,,,,,METAR,7.0
K4S1 301055Z AUTO 05010KT 7SM CLR 05/03 A2993 RMK AO2,K4S1,2023-03-30T10:55:00Z,42.42,-124.42,5.0,3.0,50,10,,7.0,29.929134,,,TRUE,TRUE,,,,,,,CLR,,,,,,,,VFR,,,,,,,,,,,,METAR,7.0
K4S1 301035Z AUTO 06010KT 7SM CLR 05/03 A2992 RMK AO2,K4S1,2023-03-30T10:35:00Z,42.42,-124.42,5.0,3.0,60,10,,7.0,29.920275,,,TRUE,TRUE,,,,,,,CLR,,,,,,,,VFR,,,,,,,,,,,,METAR,7.0
K4S1 301015Z AUTO 05011KT 7SM CLR 05/03 A2992 RMK AO2,K4S1,2023-03-30T10:15:00Z,42.42,-124.42,5.0,3.0,50,11,,7.0,29.920275,,,TRUE,TRUE,,,,,,,CLR,,,,,,,,VFR,,,,,,,,,,,,METAR,7.0
K4S1 300955Z AUTO 05010KT 10SM CLR 05/03 A2992 RMK AO2,K4S1,2023-03-30T09:55:00Z,42.42,-124.42,5.0,3.0,50,10,,10.0,29.920275,,,TRUE,TRUE,,,,,,,CLR,,,,,,,,VFR,,,,,,,,,,,,METAR,7.0
K4S1 300935Z AUTO 06009KT 7SM CLR 05/03 A2992 RMK AO2,K4S1,2023-03-30T09:35:00Z,42.42,-124.42,5.0,3.0,60,9,,7.0,29.920275,,,TRUE,TRUE,,,,,,,CLR,,,,,,,,VFR,,,,,,,,,,,,METAR,7.0
K4S1 300915Z AUTO 05009KT 7SM CLR 05/03 A2993 RMK AO2,K4S1,2023-03-30T09:15:00Z,42.42,-124.42,5.0,3.0,50,9,,7.0,29.929134,,,TRUE,TRUE,,,,,,,CLR,,,,,,,,VFR,,,,,,,,,,,,METAR,7.0
K4S1 300855Z AUTO 05008KT 7SM CLR 05/03 A2992 RMK AO2,K4S1,2023-03-30T08:55:00Z,42.42,-124.42,5.0,3.0,50,8,,7.0,29.920275,,,TRUE,TRUE,,,,,,,CLR,,,,,,,,VFR,,,,,,,,,,,,METAR,7.0
K4S1 300835Z AUTO 05008KT 7SM CLR 05/03 A2992 RMK AO2,K4S1,2023-03-30T08:35:00Z,42.42,-124.42,5.0,3.0,50,8,,7.0,29.920275,,,TRUE,TRUE,,,,,,,CLR,,,,,,,,VFR,,,,,,,,,,,,METAR,7.0
K4S1 300815Z AUTO 05009KT 7SM CLR 05/03 A2991 RMK AO2,K4S1,2023-03-30T08:15:00Z,42.42,-124.42,5.0,3.0,50,9,,7.0,29.911417,,,TRUE,TRUE,,,,,,,CLR,,,,,,,,VFR,,,,,,,,,,,,METAR,7.0
K4S1 300755Z AUTO 05008KT 7SM CLR 05/03 A2991 RMK AO2,K4S1,2023-03-30T07:55:00Z,42.42,-124.42,5.0,3.0,50,8,,7.0,29.911417,,,TRUE,TRUE,,,,,,,CLR,,,,,,,,VFR,,,,,,,,,,,,METAR,7.0
K4S1 300735Z AUTO 05009KT 7SM CLR 05/03 A2991 RMK AO2,K4S1,2023-03-30T07:35:00Z,42.42,-124.42,5.0,3.0,50,9,,7.0,29.911417,,,TRUE,TRUE,,,,,,,CLR,,,,,,,,VFR,,,,,,,,,,,,METAR,7.0
K4S1 300715Z AUTO 06007KT 7SM CLR 06/04 A2991 RMK AO2,K4S1,2023-03-30T07:15:00Z,42.42,-124.42,6.0,4.0,60,7,,7.0,29.911417,,,TRUE,TRUE,,,,,,,CLR,,,,,,,,VFR,,,,,,,,,,,,METAR,7.0
K4S1 300655Z AUTO 05005KT 7SM CLR 05/03 A2991 RMK AO2,K4S1,2023-03-30T06:55:00Z,42.42,-124.42,5.0,3.0,50,5,,7.0,29.911417,,,TRUE,TRUE,,,,,,,CLR,,,,,,,,VFR,,,,,,,,,,,,METAR,7.0
K4S1 300635Z AUTO 05006KT 7SM CLR 06/04 A2990 RMK AO2,K4S1,2023-03-30T06:35:00Z,42.42,-124.42,6.0,4.0,50,6,,7.0,29.899607,,,TRUE,TRUE,,,,,,,CLR,,,,,,,,VFR,,,,,,,,,,,,METAR,7.0
K4S1 300615Z AUTO 04007KT 7SM CLR 06/04 A2990 RMK AO2,K4S1,2023-03-30T06:15:00Z,42.42,-124.42,6.0,4.0,40,7,,7.0,29.899607,,,TRUE,TRUE,,,,,,,CLR,,,,,,,,VFR,,,,,,,,,,,,METAR,7.0
K4S1 300555Z AUTO 04007KT 7SM CLR 06/04 A2990 RMK AO2,K4S1,2023-03-30T05:55:00Z,42.42,-124.42,6.0,4.0,40,7,,7.0,29.899607,,,TRUE,TRUE,,,,,,,CLR,,,,,,,,VFR,,,,,,,,,,,,METAR,7.0
K4S1 300535Z AUTO 00000KT 7SM CLR 06/05 A2990 RMK AO2,K4S1,2023-03-30T05:35:00Z,42.42,-124.42,6.0,5.0,0,0,,7.0,29.899607,,,TRUE,TRUE,,,,,,,CLR,,,,,,,,VFR,,,,,,,,,,,,METAR,7.0
K4S1 300515Z AUTO 05003KT 7SM CLR 07/05 A2991 RMK AO2,K4S1,2023-03-30T05:15:00Z,42.42,-124.42,7.0,5.0,50,3,,7.0,29.911417,,,TRUE,TRUE,,,,,,,CLR,,,,,,,,VFR,,,,,,,,,,,,METAR,7.0
K4S1 300455Z AUTO 06003KT 7SM CLR 07/05 A2991 RMK AO2,K4S1,2023-03-30T04:55:00Z,42.42,-124.42,7.0,5.0,60,3,,7.0,29.911417,,,TRUE,TRUE,,,,,,,CLR,,,,,,,,VFR,,,,,,,,,,,,METAR,7.0
K4S1 300435Z AUTO 05005KT 7SM CLR 07/05 A2990 RMK AO2,K4S1,2023-03-30T04:35:00Z,42.42,-124.42,7.0,5.0,50,5,,7.0,29.899607,,,TRUE,TRUE,,,,,,,CLR,,,,,,,,VFR,,,,,,,,,,,,METAR,7.0
K4S1 300415Z AUTO 05008KT 7SM CLR 08/06 A2990 RMK AO2,K4S1,2023-03-30T04:15:00Z,42.42,-124.42,8.0,6.0,50,8,,7.0,29.899607,,,TRUE,TRUE,,,,,,,CLR,,,,,,,,VFR,,,,,,,,,,,,METAR,7.0
K4S1 300355Z AUTO 03006KT 7SM CLR 08/06 A2989 RMK AO2,K4S1,2023-03-30T03:55:00Z,42.42,-124.42,8.0,6.0,30,6,,7.0,29.890747,,,TRUE,TRUE,,,,,,,CLR,,,,,,,,VFR,,,,,,,,,,,,METAR,7.0
K4S1 300335Z AUTO 04006KT 7SM CLR 08/06 A2989 RMK AO2,K4S1,2023-03-30T03:35:00Z,42.42,-124.42,8.0,6.0,40,6,,7.0,29.890747,,,TRUE,TRUE,,,,,,,CLR,,,,,,,,VFR,,,,,,,,,,,,METAR,7.0
K4S1 300315Z AUTO 03006KT 7SM CLR 08/06 A2988 RMK AO2,K4S1,2023-03-30T03:15:00Z,42.42,-124.42,8.0,6.0,30,6,,7.0,29.878937,,,TRUE,TRUE,,,,,,,CLR,,,,,,,,VFR,,,,,,,,,,,,METAR,7.0
K4S1 300255Z AUTO 03007KT 7SM CLR 08/06 A2988 RMK AO2,K4S1,2023-03-30T02:55:00Z,42.42,-124.42,8.0,6.0,30,7,,7.0,29.878937,,,TRUE,TRUE,,,,,,,CLR,,,,,,,,VFR,,,,,,,,,,,,METAR,7.0
K4S1 300235Z AUTO 02005KT 4SM HZ CLR 08/05 A2987 RMK AO2,K4S1,2023-03-30T02:35:00Z,42.42,-124.42,8.0,5.0,20,5,,4.0,29.870079,,,TRUE,TRUE,,,,,,HZ,CLR,,,,,,,,MVFR,,,,,,,,,,,,METAR,7.0
K4S1 300215Z AUTO 36008KT 7SM CLR 09/06 A2987 RMK AO2,K4S1,2023-03-30T02:15:00Z,42.42,-124.42,9.0,6.0,360,8,,7.0,29.870079,,,TRUE,TRUE,,,,,,,CLR,,,,,,,,VFR,,,,,,,,,,,,METAR,7.0
K4S1 300155Z AUTO 36006KT 7SM CLR 09/06 A2986 RMK AO2,K4S1,2023-03-30T01:55:00Z,42.42,-124.42,9.0,6.0,360,6,,7.0,29.861221,,,TRUE,TRUE,,,,,,,CLR,,,,,,,,VFR,,,,,,,,,,,,METAR,7.0
K4S1 300135Z AUTO 34008KT 4SM HZ CLR 09/06 A2985 RMK AO2,K4S1,2023-03-30T01:35:00Z,42.42,-124.42,9.0,6.0,340,8,,4.0,29.84941,,,TRUE,TRUE,,,,,,HZ,CLR,,,,,,,,MVFR,,,,,,,,,,,,METAR,7.0
K4S1 300115Z AUTO 35008KT 5SM HZ CLR 10/06 A2984 RMK AO2,K4S1,2023-03-30T01:15:00Z,42.42,-124.42,10.0,6.0,350,8,,5.0,29.840551,,,TRUE,TRUE,,,,,,HZ,CLR,,,,,,,,MVFR,,,,,,,,,,,,METAR,7.0
K4S1 300055Z AUTO 33010KT 4SM HZ CLR 10/06 A2984 RMK AO2,K4S1,2023-03-30T00:55:00Z,42.42,-124.42,10.0,6.0,330,10,,4.0,29.840551,,,TRUE,TRUE,,,,,,HZ,CLR,,,,,,,,MVFR,,,,,,,,,,,,METAR,7.0
K4S1 300035Z AUTO 33007KT 5SM HZ CLR 10/06 A2984 RMK AO2,K4S1,2023-03-30T00:35:00Z,42.42,-124.42,10.0,6.0,330,7,,5.0,29.840551,,,TRUE,TRUE,,,,,,HZ,CLR,,,,,,,,MVFR,,,,,,,,,,,,METAR,7.0
K4S1 300015Z AUTO 34007KT 7SM CLR 10/06 A2984 RMK AO2,K4S1,2023-03-30T00:15:00Z,42.42,-124.42,10.0,6.0,340,7,,7.0,29.840551,,,TRUE,TRUE,,,,,,,CLR,,,,,,,,VFR,,,,,,,,,,,,METAR,7.0
K4S1 292355Z AUTO 36008KT 5SM HZ CLR 10/06 A2985 RMK AO2,K4S1,2023-03-29T23:55:00Z,42.42,-124.42,10.0,6.0,360,8,,5.0,29.84941,,,TRUE,TRUE,,,,,,HZ,CLR,,,,,,,,MVFR,,,,,,,,,,,,METAR,7.0
K4S1 292335Z AUTO 35009KT 7SM CLR 10/06 A2986 RMK AO2,K4S1,2023-03-29T23:35:00Z,42.42,-124.42,10.0,6.0,350,9,,7.0,29.861221,,,TRUE,TRUE,,,,,,,CLR,,,,,,,,VFR,,,,,,,,,,,,METAR,7.0
K4S1 292315Z AUTO 35008KT 5SM HZ CLR 10/06 A2986 RMK AO2,K4S1,2023-03-29T23:15:00Z,42.42,-124.42,10.0,6.0,350,8,,5.0,29.861221,,,TRUE,TRUE,,,,,,HZ,CLR,,,,,,,,MVFR,,,,,,,,,,,,METAR,7.0
K4S1 292255Z AUTO 34009KT 5SM HZ CLR 11/06 A2987 RMK AO2,K4S1,2023-03-29T22:55:00Z,42.42,-124.42,11.0,6.0,340,9,,5.0,29.870079,,,TRUE,TRUE,,,,,,HZ,CLR,,,,,,,,MVFR,,,,,,,,,,,,METAR,7.0
K4S1 292235Z AUTO 33007KT 5SM HZ CLR 11/06 A2987 RMK AO2,K4S1,2023-03-29T22:35:00Z,42.42,-124.42,11.0,6.0,330,7,,5.0,29.870079,,,TRUE,TRUE,,,,,,HZ,CLR,,,,,,,,MVFR,,,,,,,,,,,,METAR,7.0
K4S1 292215Z AUTO 33005KT 7SM CLR 11/06 A2987 RMK AO2,K4S1,2023-03-29T22:15:00Z,42.42,-124.42,11.0,6.0,330,5,,7.0,29.870079,,,TRUE,TRUE,,,,,,,CLR,,,,,,,,VFR,,,,,,,,,,,,METAR,7.0
K4S1 292155Z AUTO 33006KT 5SM HZ CLR 11/06 A2987 RMK AO2,K4S1,2023-03-29T21:55:00Z,42.42,-124.42,11.0,6.0,330,6,,5.0,29.870079,,,TRUE,TRUE,,,,,,HZ,CLR,,,,,,,,MVFR,,,,,,,,,,,,METAR,7.0
K4S1 292135Z AUTO 34007KT 320V020 5SM HZ CLR 11/06 A2987 RMK AO2,K4S1,2023-03-29T21:35:00Z,42.42,-124.42,11.0,6.0,340,7,,5.0,29.870079,,,TRUE,TRUE,,,,,,HZ,CLR,,,,,,,,MVFR,,,,,,,,,,,,METAR,7.0
K4S1 292115Z AUTO 35008KT 7SM CLR 11/06 A2987 RMK AO2,K4S1,2023-03-29T21:15:00Z,42.42,-124.42,11.0,6.0,350,8,,7.0,29.870079,,,TRUE,TRUE,,,,,,,CLR,,,,,,,,VFR,,,,,,,,,,,,METAR,7.0
K4S1 292055Z AUTO 35007KT 7SM CLR 11/06 A2987 RMK AO2,K4S1,2023-03-29T20:55:00Z,42.42,-124.42,11.0,6.0,350,7,,7.0,29.870079,,,TRUE,TRUE,,,,,,,CLR,,,,,,,,VFR,,,,,,,,,,,,METAR,7.0
K4S1 292035Z AUTO 35006KT 7SM CLR 11/06 A2987 RMK AO2,K4S1,2023-03-29T20:35:00Z,42.42,-124.42,11.0,6.0,350,6,,7.0,29.870079,,,TRUE,TRUE,,,,,,,CLR,,,,,,,,VFR,,,,,,,,,,,,METAR,7.0
K4S1 292015Z AUTO 34007KT 7SM CLR 11/06 A2987 RMK AO2,K4S1,2023-03-29T20:15:00Z,42.42,-124.42,11.0,6.0,340,7,,7.0,29.870079,,,TRUE,TRUE,,,,,,,CLR,,,,,,,,VFR,,,,,,,,,,,,METAR,7.0
K4S1 291955Z AUTO 36008KT 5SM HZ CLR 11/07 A2987 RMK AO2,K4S1,2023-03-29T19:55:00Z,42.42,-124.42,11.0,7.0,360,8,,5.0,29.870079,,,TRUE,TRUE,,,,,,HZ,CLR,,,,,,,,MVFR,,,,,,,,,,,,METAR,7.0
K4S1 291935Z AUTO 34008KT 5SM HZ CLR 11/07 A2986 RMK AO2,K4S1,2023-03-29T19:35:00Z,42.42,-124.42,11.0,7.0,340,8,,5.0,29.861221,,,TRUE,TRUE,,,,,,HZ,CLR,,,,,,,,MVFR,,,,,,,,,,,,METAR,7.0
K4S1 291915Z AUTO 36008KT 7SM CLR 11/07 A2986 RMK AO2,K4S1,2023-03-29T19:15:00Z,42.42,-124.42,11.0,7.0,360,8,,7.0,29.861221,,,TRUE,TRUE,,,,,,,CLR,,,,,,,,VFR,,,,,,,,,,,,METAR,7.0
K4S1 291855Z AUTO 36010KT 7SM CLR 11/06 A2986 RMK AO2,K4S1,2023-03-29T18:55:00Z,42.42,-124.42,11.0,6.0,360,10,,7.0,29.861221,,,TRUE,TRUE,,,,,,,CLR,,,,,,,,VFR,,,,,,,,,,,,METAR,7.0
K4S1 291835Z AUTO 36011KT 7SM CLR 11/05 A2985 RMK AO2,K4S1,2023-03-29T18:35:00Z,42.42,-124.42,11.0,5.0,360,11,,7.0,29.84941,,,TRUE,TRUE,,,,,,,CLR,,,,,,,,VFR,,,,,,,,,,,,METAR,7.0
K4S1 291815Z AUTO 36010G14KT 5SM HZ CLR 10/05 A2985 RMK AO2,K4S1,2023-03-29T18:15:00Z,42.42,-124.42,10.0,5.0,360,10,14,5.0,29.84941,,,TRUE,TRUE,,,,,,HZ,CLR,,,,,,,,MVFR,,,,,,,,,,,,METAR,7.0
K4S1 291755Z AUTO 06007KT 7SM CLR 11/06 A2984 RMK AO2,K4S1,2023-03-29T17:55:00Z,42.42,-124.42,11.0,6.0,60,7,,7.0,29.840551,,,TRUE,TRUE,,,,,,,CLR,,,,,,,,VFR,,,,,,,,,,,,METAR,7.0
K4S1 291735Z AUTO 04008KT 5SM HZ CLR 10/05 A2983 RMK AO2,K4S1,2023-03-29T17:35:00Z,42.42,-124.42,10.0,5.0,40,8,,5.0,29.828741,,,TRUE,TRUE,,,,,,HZ,CLR,,,,,,,,MVFR,,,,,,,,,,,,METAR,7.0
K4S1 291715Z AUTO 05010KT 7SM CLR 08/05 A2983 RMK AO2,K4S1,2023-03-29T17:15:00Z,42.42,-124.42,8.0,5.0,50,10,,7.0,29.828741,,,TRUE,TRUE,,,,,,,CLR,,,,,,,,VFR,,,,,,,,,,,,METAR,7.0
K4S1 291655Z AUTO 05010KT 5SM BR CLR 06/03 A2982 RMK AO2,K4S1,2023-03-29T16:55:00Z,42.42,-124.42,6.0,3.0,50,10,,5.0,29.819881,,,TRUE,TRUE,,,,,,BR,CLR,,,,,,,,MVFR,,,,,,,,,,,,METAR,7.0
K4S1 291635Z AUTO 05011KT 5SM HZ CLR 07/04 A2982 RMK AO2,K4S1,2023-03-29T16:35:00Z,42.42,-124.42,7.0,4.0,50,11,,5.0,29.819881,,,TRUE,TRUE,,,,,,HZ,CLR,,,,,,,,MVFR,,,,,,,,,,,,METAR,7.0
K4S1 291615Z AUTO 05013KT 7SM CLR 06/04 A2981 RMK AO2,K4S1,2023-03-29T16:15:00Z,42.42,-124.42,6.0,4.0,50,13,,7.0,29.811024,,,TRUE,TRUE,,,,,,,CLR,,,,,,,,VFR,,,,,,,,,,,,METAR,7.0
K4S1 291555Z AUTO 05010KT 5SM BR CLR 06/04 A2981 RMK AO2,K4S1,2023-03-29T15:55:00Z,42.42,-124.42,6.0,4.0,50,10,,5.0,29.811024,,,TRUE,TRUE,,,,,,BR,CLR,,,,,,,,MVFR,,,,,,,,,,,,METAR,7.0
K4S1 291535Z AUTO 05011G15KT 5SM BR CLR 05/03 A2980 RMK AO2,K4S1,2023-03-29T15:35:00Z,42.42,-124.42,5.0,3.0,50,11,15,5.0,29.799213,,,TRUE,TRUE,,,,,,BR,CLR,,,,,,,,MVFR,,,,,,,,,,,,METAR,7.0
K4S1 291515Z AUTO 04010KT 5SM BR CLR 05/03 A2980 RMK AO2,K4S1,2023-03-29T15:15:00Z,42.42,-124.42,5.0,3.0,40,10,,5.0,29.799213,,,TRUE,TRUE,,,,,,BR,CLR,,,,,,,,MVFR,,,,,,,,,,,,METAR,7.0
K4S1 291455Z AUTO 04011KT 5SM BR CLR 04/02 A2979 RMK AO2,K4S1,2023-03-29T14:55:00Z,42.42,-124.42,4.0,2.0,40,11,,5.0,29.790354,,,TRUE,TRUE,,,,,,BR,CLR,,,,,,,,MVFR,,,,,,,,,,,,METAR,7.0
K4S1 291435Z AUTO 05012KT 5SM BR CLR 05/02 A2978 RMK AO2,K4S1,2023-03-29T14:35:00Z,42.42,-124.42,5.0,2.0,50,12,,5.0,29.778543,,,TRUE,TRUE,,,,,,BR,CLR,,,,,,,,MVFR,,,,,,,,,,,,METAR,7.0
K4S1 291415Z AUTO 06008KT 7SM CLR 05/02 A2978 RMK AO2,K4S1,2023-03-29T14:15:00Z,42.42,-124.42,5.0,2.0,60,8,,7.0,29.778543,,,TRUE,TRUE,,,,,,,CLR,,,,,,,,VFR,,,,,,,,,,,,METAR,7.0
K4S1 291355Z AUTO 05011KT 7SM CLR 05/02 A2977 RMK AO2,K4S1,2023-03-29T13:55:00Z,42.42,-124.42,5.0,2.0,50,11,,7.0,29.769686,,,TRUE,TRUE,,,,,,,CLR,,,,,,,,VFR,,,,,,,,,,,,METAR,7.0
K4S1 291335Z AUTO 06007KT 5SM BR CLR 05/02 A2975 RMK AO2,K4S1,2023-03-29T13:35:00Z,42.42,-124.42,5.0,2.0,60,7,,5.0,29.749016,,,TRUE,TRUE,,,,,,BR,CLR,,,,,,,,MVFR,,,,,,,,,,,,METAR,7.0
K4S1 291315Z AUTO 05010KT 7SM CLR 05/02 A2975 RMK AO2,K4S1,2023-03-29T13:15:00Z,42.42,-124.42,5.0,2.0,50,10,,7.0,29.749016,,,TRUE,TRUE,,,,,,,CLR,,,,,,,,VFR,,,,,,,,,,,,METAR,7.0
K4S1 291255Z AUTO 04006KT 7SM CLR 05/02 A2974 RMK AO2,K4S1,2023-03-29T12:55:00Z,42.42,-124.42,5.0,2.0,40,6,,7.0,29.740158,,,TRUE,TRUE,,,,,,,CLR,,,,,,,,VFR,,,,,,,,,,,,METAR,7.0
K4S1 291235Z AUTO 05012G17KT 7SM CLR 05/02 A2973 RMK AO2,K4S1,2023-03-29T12:35:00Z,42.42,-124.42,5.0,2.0,50,12,17,7.0,29.731298,,,TRUE,TRUE,,,,,,,CLR,,,,,,,,VFR,,,,,,,,,,,,METAR,7.0
K4S1 291215Z AUTO 05006KT 7SM CLR 04/02 A2972 RMK AO2,K4S1,2023-03-29T12:15:00Z,42.42,-124.42,4.0,2.0,50,6,,7.0,29.719488,,,TRUE,TRUE,,,,,,,CLR,,,,,,,,VFR,,,,,,,,,,,,METAR,7.0
K4S1 291155Z AUTO 06004KT 7SM CLR 05/02 A2972 RMK AO2,K4S1,2023-03-29T11:55:00Z,42.42,-124.42,5.0,2.0,60,4,,7.0,29.719488,,,TRUE,TRUE,,,,,,,CLR,,,,,,,,VFR,,,,,,,,,,,,METAR,7.0
K4S1 291135Z AUTO 06011KT 7SM CLR 05/03 A2970 RMK AO2,K4S1,2023-03-29T11:35:00Z,42.42,-124.42,5.0,3.0,60,11,,7.0,29.698818,,,TRUE,TRUE,,,,,,,CLR,,,,,,,,VFR,,,,,,,,,,,,METAR,7.0
K4S1 291115Z AUTO 05013KT 7SM CLR 05/03 A2970 RMK AO2,K4S1,2023-03-29T11:15:00Z,42.42,-124.42,5.0,3.0,50,13,,7.0,29.698818,,,TRUE,TRUE,,,,,,,CLR,,,,,,,,VFR,,,,,,,,,,,,METAR,7.0
K4S1 291055Z AUTO 04009KT 7SM CLR 05/03 A2970 RMK AO2,K4S1,2023-03-29T10:55:00Z,42.42,-124.42,5.0,3.0,40,9,,7.0,29.698818,,,TRUE,TRUE,,,,,,,CLR,,,,,,,,VFR,,,,,,,,,,,,METAR,7.0
K4S1 291035Z AUTO 07006KT 7SM CLR 05/03 A2970 RMK AO2,K4S1,2023-03-29T10:35:00Z,42.42,-124.42,5.0,3.0,70,6,,7.0,29.698818,,,TRUE,TRUE,,,,,,,CLR,,,,,,,,VFR,,,,,,,,,,,,METAR,7.0
K4S1 291015Z AUTO 05012KT 7SM CLR 05/03 A2969 RMK AO2,K4S1,2023-03-29T10:15:00Z,42.42,-124.42,5.0,3.0,50,12,,7.0,29.68996,,,TRUE,TRUE,,,,,,,CLR,,,,,,,,VFR,,,,,,,,,,,,METAR,7.0
K4S1 290955Z AUTO 06011KT 7SM CLR 05/03 A2968 RMK AO2,K4S1,2023-03-29T09:55:00Z,42.42,-124.42,5.0,3.0,60,11,,7.0,29.681103,,,TRUE,TRUE,,,,,,,CLR,,,,,,,,VFR,,,,,,,,,,,,METAR,7.0
K4S1 290935Z AUTO 05010KT 7SM CLR 05/03 A2968 RMK AO2,K4S1,2023-03-29T09:35:00Z,42.42,-124.42,5.0,3.0,50,10,,7.0,29.681103,,,TRUE,TRUE,,,,,,,CLR,,,,,,,,VFR,,,,,,,,,,,,METAR,7.0
K4S1 290915Z AUTO 05010KT 7SM CLR 05/03 A2968 RMK AO2,K4S1,2023-03-29T09:15:00Z,42.42,-124.42,5.0,3.0,50,10,,7.0,29.681103,,,TRUE,TRUE,,,,,,,CLR,,,,,,,,VFR,,,,,,,,,,,,METAR,7.0
K4S1 290855Z AUTO 05010KT 7SM CLR 05/03 A2967 RMK AO2,K4S1,2023-03-29T08:55:00Z,42.42,-124.42,5.0,3.0,50,10,,7.0,29.66929,,,TRUE,TRUE,,,,,,,CLR,,,,,,,,VFR,,,,,,,,,,,,METAR,7.0
K4S1 290835Z AUTO 00000KT 7SM CLR 05/03 A2967 RMK AO2,K4S1,2023-03-29T08:35:00Z,42.42,-124.42,5.0,3.0,0,0,,7.0,29.66929,,,TRUE,TRUE,,,,,,,CLR,,,,,,,,VFR,,,,,,,,,,,,METAR,7.0
K4S1 290815Z AUTO 00000KT 7SM CLR 05/03 A2967 RMK AO2,K4S1,2023-03-29T08:15:00Z,42.42,-124.42,5.0,3.0,0,0,,7.0,29.66929,,,TRUE,TRUE,,,,,,,CLR,,,,,,,,VFR,,,,,,,,,,,,METAR,7.0
K4S1 290755Z AUTO 05004KT 7SM CLR 05/03 A2966 RMK AO2,K4S1,2023-03-29T07:55:00Z,42.42,-124.42,5.0,3.0,50,4,,7.0,29.660433,,,TRUE,TRUE,,,,,,,CLR,,,,,,,,VFR,,,,,,,,,,,,METAR,7.0
K4S1 290735Z AUTO 32003KT 7SM CLR 05/03 A2966 RMK AO2,K4S1,2023-03-29T07:35:00Z,42.42,-124.42,5.0,3.0,320,3,,7.0,29.660433,,,TRUE,TRUE,,,,,,,CLR,,,,,,,,VFR,,,,,,,,,,,,METAR,7.0
K4S1 290715Z AUTO 00000KT 7SM CLR 05/03 A2965 RMK AO2,K4S1,2023-03-29T07:15:00Z,42.42,-124.42,5.0,3.0,0,0,,7.0,29.648623,,,TRUE,TRUE,,,,,,,CLR,,,,,,,,VFR,,,,,,,,,,,,METAR,7.0
K4S1 290655Z AUTO 02006KT 7SM CLR 05/03 A2965 RMK AO2,K4S1,2023-03-29T06:55:00Z,42.42,-124.42,5.0,3.0,20,6,,7.0,29.648623,,,TRUE,TRUE,,,,,,,CLR,,,,,,,,VFR,,,,,,,,,,,,METAR,7.0
K4S1 290635Z AUTO 04006KT 7SM CLR 06/03 A2965 RMK AO2,K4S1,2023-03-29T06:35:00Z,42.42,-124.42,6.0,3.0,40,6,,7.0,29.648623,,,TRUE,TRUE,,,,,,,CLR,,,,,,,,VFR,,,,,,,,,,,,METAR,7.0
K4S1 290615Z AUTO 12005KT 10SM -RA CLR 06/03 A2966 RMK AO2,K4S1,2023-03-29T06:15:00Z,42.42,-124.42,6.0,3.0,120,5,,10.0,29.660433,,,TRUE,TRUE,,,,,,-RA,CLR,,,,,,,,VFR,,,,,,,,,,,,METAR,7.0
K4S1 290555Z AUTO 18004KT 5SM HZ CLR 07/03 A2965 RMK AO2,K4S1,2023-03-29T05:55:00Z,42.42,-124.42,7.0,3.0,180,4,,5.0,29.648623,,,TRUE,TRUE,,,,,,HZ,CLR,,,,,,,,MVFR,,,,,,,,,,,,METAR,7.0
K4S1 290535Z AUTO 15004KT 7SM CLR 07/03 A2964 RMK AO2,K4S1,2023-03-29T05:35:00Z,42.42,-124.42,7.0,3.0,150,4,,7.0,29.639763,,,TRUE,TRUE,,,,,,,CLR,,,,,,,,VFR,,,,,,,,,,,,METAR,7.0
K4S1 290515Z AUTO 10009G16KT 7SM CLR 06/04 A2964 RMK AO2,K4S1,2023-03-29T05:15:00Z,42.42,-124.42,6.0,4.0,100,9,16,7.0,29.639763,,,TRUE,TRUE,,,,,,,CLR,,,,,,,,VFR,,,,,,,,,,,,METAR,7.0
K4S1 290455Z AUTO 08009KT 7SM CLR 06/05 A2964 RMK AO2 P0004,K4S1,2023-03-29T04:55:00Z,42.42,-124.42,6.0,5.0,80,9,,7.0,29.639763,,,TRUE,TRUE,,,,,,,CLR,,,,,,,,VFR,,,,,,0.04,,,,,,METAR,7.0
K4S1 290435Z AUTO 00000KT 10SM -RA SCT030 06/05 A2966 RMK AO2 P0004,K4S1,2023-03-29T04:35:00Z,42.42,-124.42,6.0,5.0,0,0,,10.0,29.660433,,,TRUE,TRUE,,,,,,-RA,SCT,3000,,,,,,,VFR,,,,,,0.04,,,,,,METAR,7.0
K4S1 290415Z AUTO 11003KT 7SM RA SCT019 BKN030 06/05 A2965 RMK AO2 P0002,K4S1,2023-03-29T04:15:00Z,42.42,-124.42,6.0,5.0,110,3,,7.0,29.648623,,,TRUE,TRUE,,,,,,RA,SCT,1900,BKN,3000,,,,,MVFR,,,,,,0.02,,,,,,METAR,7.0
K4S1 290355Z AUTO 19004KT 4SM RA SCT019 SCT031 07/04 A2964 RMK AO2 P0001,K4S1,2023-03-29T03:55:00Z,42.42,-124.42,7.0,4.0,190,4,,4.0,29.639763,,,TRUE,TRUE,,,,,,RA,SCT,1900,SCT,3100,,,,,MVFR,,,,,,0.01,,,,,,METAR,7.0
K4S1 290335Z AUTO 08003KT 10SM RA SCT033 07/03 A2962 RMK AO2,K4S1,2023-03-29T03:35:00Z,42.42,-124.42,7.0,3.0,80,3,,10.0,29.619095,,,TRUE,TRUE,,,,,,RA,SCT,3300,,,,,,,VFR,,,,,,,,,,,,METAR,7.0
K4S1 290315Z AUTO 18004KT 7SM -RA SCT021 SCT033 07/03 A2961 RMK AO2,K4S1,2023-03-29T03:15:00Z,42.42,-124.42,7.0,3.0,180,4,,7.0,29.610237,,,TRUE,TRUE,,,,,,-RA,SCT,2100,SCT,3300,,,,,VFR,,,,,,,,,,,,METAR,7.0
K4S1 290255Z AUTO 08009G16KT 7SM CLR 07/03 A2960 RMK AO2,K4S1,2023-03-29T02:55:00Z,42.42,-124.42,7.0,3.0,80,9,16,7.0,29.601377,,,TRUE,TRUE,,,,,,,CLR,,,,,,,,VFR,,,,,,,,,,,,METAR,7.0
K4S1 290235Z AUTO 13005KT 10SM -RA CLR 07/03 A2962 RMK AO2,K4S1,2023-03-29T02:35:00Z,42.42,-124.42,7.0,3.0,130,5,,10.0,29.619095,,,TRUE,TRUE,,,,,,-RA,CLR,,,,,,,,VFR,,,,,,,,,,,,METAR,7.0
K4S1 290215Z AUTO 14004G18KT 10SM -RA SCT032 08/03 A2962 RMK AO2,K4S1,2023-03-29T02:15:00Z,42.42,-124.42,8.0,3.0,140,4,18,10.0,29.619095,,,TRUE,TRUE,,,,,,-RA,SCT,3200,,,,,,,VFR,,,,,,,,,,,,METAR,7.0
K4S1 290155Z AUTO 16009G17KT 5SM RA SCT032 08/02 A2961 RMK AO2,K4S1,2023-03-29T01:55:00Z,42.42,-124.42,8.0,2.0,160,9,17,5.0,29.610237,,,TRUE,TRUE,,,,,,RA,SCT,3200,,,,,,,MVFR,,,,,,,,,,,,METAR,7.0
K4S1 290135Z AUTO 14005G14KT 7SM CLR 09/02 A2960 RMK AO2,K4S1,2023-03-29T01:35:00Z,42.42,-124.42,9.0,2.0,140,5,14,7.0,29.601377,,,TRUE,TRUE,,,,,,,CLR,,,,,,,,VFR,,,,,,,,,,,,METAR,7.0
K4S1 290115Z AUTO 13010G18KT 100V160 10SM -DZ CLR 09/02 A2960 RMK AO2,K4S1,2023-03-29T01:15:00Z,42.42,-124.42,9.0,2.0,130,10,18,10.0,29.601377,,,TRUE,TRUE,,,,,,-DZ,CLR,,,,,,,,VFR,,,,,,,,,,,,METAR,7.0
K4S1 290055Z AUTO 13013G22KT 7SM CLR 09/02 A2961 RMK AO2,K4S1,2023-03-29T00:55:00Z,42.42,-124.42,9.0,2.0,130,13,22,7.0,29.610237,,,TRUE,TRUE,,,,,,,CLR,,,,,,,,VFR,,,,,,,,,,,,METAR,7.0
K4S1 290035Z AUTO 15015G22KT 7SM CLR 10/02 A2961 RMK AO2,K4S1,2023-03-29T00:35:00Z,42.42,-124.42,10.0,2.0,150,15,22,7.0,29.610237,,,TRUE,TRUE,,,,,,,CLR,,,,,,,,VFR,,,,,,,,,,,,METAR,7.0
K4S1 290015Z AUTO 15014G24KT 7SM CLR 10/02 A2961 RMK AO2,K4S1,2023-03-29T00:15:00Z,42.42,-124.42,10.0,2.0,150,14,24,7.0,29.610237,,,TRUE,TRUE,,,,,,,CLR,,,,,,,,VFR,,,,,,,,,,,,METAR,7.0
K4S1 282355Z AUTO 16015G24KT 120V180 7SM CLR 10/03 A2961 RMK AO2,K4S1,2023-03-28T23:55:00Z,42.42,-124.42,10.0,3.0,160,15,24,7.0,29.610237,,,TRUE,TRUE,,,,,,,CLR,,,,,,,,VFR,,,,,,,,,,,,METAR,7.0
K4S1 282335Z AUTO 13012G21KT 7SM CLR 10/03 A2961 RMK AO2,K4S1,2023-03-28T23:35:00Z,42.42,-124.42,10.0,3.0,130,12,21,7.0,29.610237,,,TRUE,TRUE,,,,,,,CLR,,,,,,,,VFR,,,,,,,,,,,,METAR,7.0
K4S1 282315Z AUTO 15013G21KT 7SM CLR 11/02 A2961 RMK AO2,K4S1,2023-03-28T23:15:00Z,42.42,-124.42,11.0,2.0,150,13,21,7.0,29.610237,,,TRUE,TRUE,,,,,,,CLR,,,,,,,,VFR,,,,,,,,,,,,METAR,7.0
K4S1 282255Z AUTO 15014G28KT 5SM HZ CLR 10/02 A2961 RMK AO2,K4S1,2023-03-28T22:55:00Z,42.42,-124.42,10.0,2.0,150,14,28,5.0,29.610237,,,TRUE,TRUE,,,,,,HZ,CLR,,,,,,,,MVFR,,,,,,,,,,,,METAR,7.0
K4S1 282235Z AUTO 17020G32KT 5SM HZ CLR 10/03 A2962 RMK AO2,K4S1,2023-03-28T22:35:00Z,42.42,-124.42,10.0,3.0,170,20,32,5.0,29.619095,,,TRUE,TRUE,,,,,,HZ,CLR,,,,,,,,MVFR,,,,,,,,,,,,METAR,7.0
K4S1 282215Z AUTO 17013G22KT 140V200 5SM HZ CLR 10/04 A2962 RMK AO2,K4S1,2023-03-28T22:15:00Z,42.42,-124.42,10.0,4.0,170,13,22,5.0,29.619095,,,TRUE,TRUE,,,,,,HZ,CLR,,,,,,,,MVFR,,,,,,,,,,,,METAR,7.0
K4S1 282155Z AUTO 15017G28KT 5SM HZ SCT024 SCT030 SCT038 08/04 A2964 RMK AO2,K4S1,2023-03-28T21:55:00Z,42.42,-124.42,8.0,4.0,150,17,28,5.0,29.639763,,,TRUE,TRUE,,,,,,HZ,SCT,2400,SCT,3000,SCT,3800,,,MVFR,,,,,,,,,,,,METAR,7.0
K4S1 282135Z AUTO 15015G24KT 7SM RA SCT028 SCT038 08/03 A2965 RMK AO2,K4S1,2023-03-28T21:35:00Z,42.42,-124.42,8.0,3.0,150,15,24,7.0,29.648623,,,TRUE,TRUE,,,,,,RA,SCT,2800,SCT,3800,,,,,VFR,,,,,,,,,,,,METAR,7.0
K4S1 282115Z AUTO 14014G27KT 7SM CLR 08/02 A2964 RMK AO2,K4S1,2023-03-28T21:15:00Z,42.42,-124.42,8.0,2.0,140,14,27,7.0,29.639763,,,TRUE,TRUE,,,,,,,CLR,,,,,,,,VFR,,,,,,,,,,,,METAR,7.0
K4S1 282055Z AUTO 14015G30KT 7SM SCT028 08/03 A2964 RMK AO2,K4S1,2023-03-28T20:55:00Z,42.42,-124.42,8.0,3.0,140,15,30,7.0,29.639763,,,TRUE,TRUE,,,,,,,SCT,2800,,,,,,,VFR,,,,,,,,,,,,METAR,7.0
K4S1 282035Z AUTO 15014G23KT 5SM HZ CLR 08/03 A2964 RMK AO2,K4S1,2023-03-28T20:35:00Z,42.42,-124.42,8.0,3.0,150,14,23,5.0,29.639763,,,TRUE,TRUE,,,,,,HZ,CLR,,,,,,,,MVFR,,,,,,,,,,,,METAR,7.0
K4S1 282015Z AUTO 14015G24KT 5SM HZ CLR 09/03 A2965 RMK AO2,K4S1,2023-03-28T20:15:00Z,42.42,-124.42,9.0,3.0,140,15,24,5.0,29.648623,,,TRUE,TRUE,,,,,,HZ,CLR,,,,,,,,MVFR,,,,,,,,,,,,METAR,7.0
K4S1 281955Z AUTO 14017G31KT 5SM HZ CLR 08/05 A2965 RMK AO2 P0001,K4S1,2023-03-28T19:55:00Z,42.42,-124.42,8.0,5.0,140,17,31,5.0,29.648623,,,TRUE,TRUE,,,,,,HZ,CLR,,,,,,,,MVFR,,,,,,0.01,,,,,,METAR,7.0
K4S1 281935Z AUTO 13012G24KT 7SM CLR 08/05 A2965 RMK AO2 P0001,K4S1,2023-03-28T19:35:00Z,42.42,-124.42,8.0,5.0,130,12,24,7.0,29.648623,,,TRUE,TRUE,,,,,,,CLR,,,,,,,,VFR,,,,,,0.01,,,,,,METAR,7.0
K4S1 281915Z AUTO 15012G22KT 5SM HZ CLR 07/04 A2966 RMK AO2 P0001,K4S1,2023-03-28T19:15:00Z,42.42,-124.42,7.0,4.0,150,12,22,5.0,29.660433,,,TRUE,TRUE,,,,,,HZ,CLR,,,,,,,,MVFR,,,,,,0.01,,,,,,METAR,7.0
K4S1 281855Z AUTO 15012G21KT 100V170 5SM BR CLR 07/05 A2966 RMK AO2 P0006,K4S1,2023-03-28T18:55:00Z,42.42,-124.42,7.0,5.0,150,12,21,5.0,29.660433,,,TRUE,TRUE,,,,,,BR,CLR,,,,,,,,MVFR,,,,,,0.06,,,,,,METAR,7.0
K4S1 281835Z AUTO 11005KT 5SM BR SCT016 SCT023 07/05 A2966 RMK AO2 P0006,K4S1,2023-03-28T18:35:00Z,42.42,-124.42,7.0,5.0,110,5,,5.0,29.660433,,,TRUE,TRUE,,,,,,BR,SCT,1600,SCT,2300,,,,,MVFR,,,,,,0.06,,,,,,METAR,7.0
K4S1 281815Z AUTO 15009G17KT 4SM RA BKN023 OVC028 05/02 A2967 RMK AO2 P0004,K4S1,2023-03-28T18:15:00Z,42.42,-124.42,5.0,2.0,150,9,17,4.0,29.66929,,,TRUE,TRUE,,,,,,RA,BKN,2300,OVC,2800,,,,,MVFR,,,,,,0.04,,,,,,METAR,7.0
K4S1 281755Z AUTO 14011G16KT 10SM -RA BKN027 BKN033 06/02 A2968 RMK AO2 P0002,K4S1,2023-03-28T17:55:00Z,42.42,-124.42,6.0,2.0,140,11,16,10.0,29.681103,,,TRUE,TRUE,,,,,,-RA,BKN,2700,BKN,3300,,,,,MVFR,,,,,,0.02,,,,,,METAR,7.0
K4S1 281735Z AUTO 15017G24KT 7SM -RA SCT027 SCT034 06/02 A2966 RMK AO2 P0001,K4S1,2023-03-28T17:35:00Z,42.42,-124.42,6.0,2.0,150,17,24,7.0,29.660433,,,TRUE,TRUE,,,,,,-RA,SCT,2700,SCT,3400,,,,,VFR,,,,,,0.01,,,,,,METAR,7.0
K4S1 281715Z AUTO 14013G24KT 10SM -DZ CLR 06/02 A2965 RMK AO2,K4S1,2023-03-28T17:15:00Z,42.42,-124.42,6.0,2.0,140,13,24,10.0,29.648623,,,TRUE,TRUE,,,,,,-DZ,CLR,,,,,,,,VFR,,,,,,,,,,,,METAR,7.0
K4S1 281655Z AUTO 13010G20KT 7SM -RA CLR 06/02 A2965 RMK AO2,K4S1,2023-03-28T16:55:00Z,42.42,-124.42,6.0,2.0,130,10,20,7.0,29.648623,,,TRUE,TRUE,,,,,,-RA,CLR,,,,,,,,VFR,,,,,,,,,,,,METAR,7.0
K4S1 281635Z AUTO 13012G20KT 5SM HZ CLR 07/02 A2966 RMK AO2,K4S1,2023-03-28T16:35:00Z,42.42,-124.42,7.0,2.0,130,12,20,5.0,29.660433,,,TRUE,TRUE,,,,,,HZ,CLR,,,,,,,,MVFR,,,,,,,,,,,,METAR,7.0
K4S1 281615Z AUTO 13014G19KT 5SM HZ CLR 06/02 A2966 RMK AO2,K4S1,2023-03-28T16:15:00Z,42.42,-124.42,6.0,2.0,130,14,19,5.0,29.660433,,,TRUE,TRUE,,,,,,HZ,CLR,,,,,,,,MVFR,,,,,,,,,,,,METAR,7.0
K4S1 281555Z AUTO 14011KT 7SM CLR 06/02 A2966 RMK AO2,K4S1,2023-03-28T15:55:00Z,42.42,-124.42,6.0,2.0,140,11,,7.0,29.660433,,,TRUE,TRUE,,,,,,,CLR,,,,,,,,VFR,,,,,,,,,,,,METAR,7.0
K4S1 281535Z AUTO 13009G16KT 5SM HZ CLR 05/02 A2966 RMK AO2,K4S1,2023-03-28T15:35:00Z,42.42,-124.42,5.0,2.0,130,9,16,5.0,29.660433,,,TRUE,TRUE,,,,,,HZ,CLR,,,,,,,,MVFR,,,,,,,,,,,,METAR,7.0
K4S1 281515Z AUTO 14012G17KT 5SM HZ CLR 05/02 A2967 RMK AO2,K4S1,2023-03-28T15:15:00Z,42.42,-124.42,5.0,2.0,140,12,17,5.0,29.66929,,,TRUE,TRUE,,,,,,HZ,CLR,,,,,,,,MVFR,,,,,,,,,,,,METAR,7.0
K4S1 281455Z AUTO 13006G15KT 7SM CLR 05/02 A2967 RMK AO2,K4S1,2023-03-28T14:55:00Z,42.42,-124.42,5.0,2.0,130,6,15,7.0,29.66929,,,TRUE,TRUE,,,,,,,CLR,,,,,,,,VFR,,,,,,,,,,,,METAR,7.0
K4S1 281435Z AUTO 14010G14KT 7SM -RA SCT033 05/03 A2968 RMK AO2,K4S1,2023-03-28T14:35:00Z,42.42,-124.42,5.0,3.0,140,10,14,7.0,29.681103,,,TRUE,TRUE,,,,,,-RA,SCT,3300,,,,,,,VFR,,,,,,,,,,,,METAR,7.0
K4S1 281415Z AUTO 15008KT 7SM SCT031 05/03 A2967 RMK AO2,K4S1,2023-03-28T14:15:00Z,42.42,-124.42,5.0,3.0,150,8,,7.0,29.66929,,,TRUE,TRUE,,,,,,,SCT,3100,,,,,,,VFR,,,,,,,,,,,,METAR,7.0
K4S1 281355Z AUTO 12007KT 10SM -RA BKN033 05/03 A2967 RMK AO2 P0002,K4S1,2023-03-28T13:55:00Z,42.42,-124.42,5.0,3.0,120,7,,10.0,29.66929,,,TRUE,TRUE,,,,,,-RA,BKN,3300,,,,,,,VFR,,,,,,0.02,,,,,,METAR,7.0
K4S1 281335Z AUTO 14007KT 10SM -RA SCT023 OVC033 05/03 A2967 RMK AO2 P0002,K4S1,2023-03-28T13:35:00Z,42.42,-124.42,5.0,3.0,140,7,,10.0,29.66929,,,TRUE,TRUE,,,,,,-RA,SCT,2300,OVC,3300,,,,,VFR,,,,,,0.02,,,,,,METAR,7.0
K4S1 281315Z AUTO 15007KT 7SM -RA OVC021 05/03 A2967 RMK AO2 P0002,K4S1,2023-03-28T13:15:00Z,42.42,-124.42,5.0,3.0,150,7,,7.0,29.66929,,,TRUE,TRUE,,,,,,-RA,OVC,2100,,,,,,,MVFR,,,,,,0.02,,,,,,METAR,7.0
K4S1 281255Z AUTO 15007KT 7SM RA BKN021 BKN027 BKN035 05/03 A2967 RMK AO2 P0005,K4S1,2023-03-28T12:55:00Z,42.42,-124.42,5.0,3.0,150,7,,7.0,29.66929,,,TRUE,TRUE,,,,,,RA,BKN,2100,BKN,2700,BKN,3500,,,MVFR,,,,,,0.05,,,,,,METAR,7.0
K4S1 281235Z AUTO 15008KT 10SM -RA SCT022 BKN028 05/04 A2966 RMK AO2 P0002,K4S1,2023-03-28T12:35:00Z,42.42,-124.42,5.0,4.0,150,8,,10.0,29.660433,,,TRUE,TRUE,,,,,,-RA,SCT,2200,BKN,2800,,,,,MVFR,,,,,,0.02,,,,,,METAR,7.0
K4S1 281215Z AUTO 16007KT 10SM -RA SCT018 SCT025 BKN031 06/04 A2967 RMK AO2 P0001,K4S1,2023-03-28T12:15:00Z,42.42,-124.42,6.0,4.0,160,7,,10.0,29.66929,,,TRUE,TRUE,,,,,,-RA,SCT,1800,SCT,2500,BKN,3100,,,VFR,,,,,,0.01,,,,,,METAR,7.0
K4S1 281155Z AUTO 16005KT 4SM -RA SCT012 BKN031 BKN036 06/05 A2968 RMK AO2 P0011,K4S1,2023-03-28T11:55:00Z,42.42,-124.42,6.0,5.0,160,5,,4.0,29.681103,,,TRUE,TRUE,,,,,,-RA,SCT,1200,BKN,3100,BKN,3600,,,MVFR,,,,,,0.11,,,,,,METAR,7.0
K4S1 281135Z AUTO 20008KT 3SM -RA SCT010 BKN016 OVC031 06/05 A2968 RMK AO2 P0009,K4S1,2023-03-28T11:35:00Z,42.42,-124.42,6.0,5.0,200,8,,3.0,29.681103,,,TRUE,TRUE,,,,,,-RA,SCT,1000,BKN,1600,OVC,3100,,,MVFR,,,,,,0.09,,,,,,METAR,7.0
K4S1 281115Z AUTO 26008KT 1 3/4SM -RA OVC010 06/05 A2968 RMK AO2 P0009,K4S1,2023-03-28T11:15:00Z,42.42,-124.42,6.0,5.0,260,8,,1.75,29.681103,,,TRUE,TRUE,,,,,,-RA,OVC,1000,,,,,,,IFR,,,,,,0.09,,,,,,METAR,7.0
K4S1 281055Z AUTO 25008KT 1 1/2SM -RA OVC010 06/05 A2969 RMK AO2 P0018,K4S1,2023-03-28T10:55:00Z,42.42,-124.42,6.0,5.0,250,8,,1.5,29.68996,,,TRUE,TRUE,,,,,,-RA,OVC,1000,,,,,,,IFR,,,,,,0.18,,,,,,METAR,7.0
K4S1 281035Z AUTO 23013KT 2SM RA BKN010 OVC021 06/05 A2970 RMK AO2 P0007,K4S1,2023-03-28T10:35:00Z,42.42,-124.42,6.0,5.0,230,13,,2.0,29.698818,,,TRUE,TRUE,,,,,,RA,BKN,1000,OVC,2100,,,,,IFR,,,,,,0.07,,,,,,METAR,7.0
K4S1 281015Z AUTO 24018G31KT 3SM -RA SCT010 SCT015 OVC024 06/05 A2970 RMK AO2 P0002,K4S1,2023-03-28T10:15:00Z,42.42,-124.42,6.0,5.0,240,18,31,3.0,29.698818,,,TRUE,TRUE,,,,,,-RA,SCT,1000,SCT,1500,OVC,2400,,,MVFR,,,,,,0.02,,,,,,METAR,7.0
K4S1 280955Z AUTO 21027G33KT 2SM UP BKN012 BKN018 OVC024 07/06 A2969 RMK AO2 P0008,K4S1,2023-03-28T09:55:00Z,42.42,-124.42,7.0,6.0,210,27,33,2.0,29.68996,,,TRUE,TRUE,,,,,,UP,BKN,1200,BKN,1800,OVC,2400,,,IFR,,,,,,0.08,,,,,,METAR,7.0
K4S1 280935Z AUTO 19020G28KT 4SM RA OVC014 07/06 A2969 RMK AO2 P0004,K4S1,2023-03-28T09:35:00Z,42.42,-124.42,7.0,6.0,190,20,28,4.0,29.68996,,,TRUE,TRUE,,,,,,RA,OVC,1400,,,,,,,MVFR,,,,,,0.04,,,,,,METAR,7.0
K4S1 280915Z AUTO 19017G25KT 2SM -RA SCT008 OVC015 08/06 A2970 RMK AO2 P0002,K4S1,2023-03-28T09:15:00Z,42.42,-124.42,8.0,6.0,190,17,25,2.0,29.698818,,,TRUE,TRUE,,,,,,-RA,SCT,800,OVC,1500,,,,,IFR,,,,,,0.02,,,,,,METAR,7.0
K4S1 280855Z AUTO 19015G20KT 2 1/2SM -RA BKN010 OVC018 08/06 A2971 RMK AO2 P0006,K4S1,2023-03-28T08:55:00Z,42.42,-124.42,8.0,6.0,190,15,20,2.5,29.71063,,,TRUE,TRUE,,,,,,-RA,BKN,1000,OVC,1800,,,,,IFR,,,,,,0.06,,,,,,METAR,7.0
K4S1 280835Z AUTO 20014G19KT 2SM -RA SCT009 BKN017 OVC024 08/06 A2971 RMK AO2 P0002,K4S1,2023-03-28T08:35:00Z,42.42,-124.42,8.0,6.0,200,14,19,2.0,29.71063,,,TRUE,TRUE,,,,,,-RA,SCT,900,BKN,1700,OVC,2400,,,IFR,,,,,,0.02,,,,,,METAR,7.0
K4S1 280815Z AUTO 19013G22KT 4SM RA BKN028 OVC032 08/06 A2972 RMK AO2,K4S1,2023-03-28T08:15:00Z,42.42,-124.42,8.0,6.0,190,13,22,4.0,29.719488,,,TRUE,TRUE,,,,,,RA,BKN,2800,OVC,3200,,,,,MVFR,,,,,,,,,,,,METAR,7.0
K4S1 280755Z AUTO 18019G25KT 5SM RA BKN029 OVC034 09/05 A2971 RMK AO2,K4S1,2023-03-28T07:55:00Z,42.42,-124.42,9.0,5.0,180,19,25,5.0,29.71063,,,TRUE,TRUE,,,,,,RA,BKN,2900,OVC,3400,,,,,MVFR,,,,,,,,,,,,METAR,7.0
K4S1 280735Z AUTO 18020G36KT 7SM -RA BKN036 10/05 A2971 RMK AO2,K4S1,2023-03-28T07:35:00Z,42.42,-124.42,10.0,5.0,180,20,36,7.0,29.71063,,,TRUE,TRUE,,,,,,-RA,BKN,3600,,,,,,,VFR,,,,,,,,,,,,METAR,7.0
K4S1 280715Z AUTO 17027G39KT 10SM -RA BKN036 09/05 A2971 RMK AO2,K4S1,2023-03-28T07:15:00Z,42.42,-124.42,9.0,5.0,170,27,39,10.0,29.71063,,,TRUE,TRUE,,,,,,-RA,BKN,3600,,,,,,,VFR,,,,,,,,,,,,METAR,7.0
K4S1 280655Z AUTO 18021G36KT 130V200 7SM SCT038 10/05 A2971 RMK AO2,K4S1,2023-03-28T06:55:00Z,42.42,-124.42,10.0,5.0,180,21,36,7.0,29.71063,,,TRUE,TRUE,,,,,,,SCT,3800,,,,,,,VFR,,,,,,,,,,,,METAR,7.0
K4S1 280635Z AUTO 17022G38KT 7SM SCT038 10/05 A2970 RMK AO2,K4S1,2023-03-28T06:35:00Z,42.42,-124.42,10.0,5.0,170,22,38,7.0,29.698818,,,TRUE,TRUE,,,,,,,SCT,3800,,,,,,,VFR,,,,,,,,,,,,METAR,7.0
K4S1 280615Z AUTO 17022G42KT 7SM SCT039 10/05 A2969 RMK AO2,K4S1,2023-03-28T06:15:00Z,42.42,-124.42,10.0,5.0,170,22,42,7.0,29.68996,,,TRUE,TRUE,,,,,,,SCT,3900,,,,,,,VFR,,,,,,,,,,,,METAR,7.0
K4S1 280555Z AUTO 17026G41KT 7SM SCT038 10/05 A2971 RMK AO2,K4S1,2023-03-28T05:55:00Z,42.42,-124.42,10.0,5.0,170,26,41,7.0,29.71063,,,TRUE,TRUE,,,,,,,SCT,3800,,,,,,,VFR,,,,,,,,,,,,METAR,7.0
K4S1 280535Z AUTO 16025G36KT 7SM CLR 10/05 A2970 RMK AO2,K4S1,2023-03-28T05:35:00Z,42.42,-124.42,10.0,5.0,160,25,36,7.0,29.698818,,,TRUE,TRUE,,,,,,,CLR,,,,,,,,VFR,,,,,,,,,,,,METAR,7.0
K4S1 280515Z AUTO 16023G35KT 7SM CLR 09/05 A2971 RMK AO2,K4S1,2023-03-28T05:15:00Z,42.42,-124.42,9.0,5.0,160,23,35,7.0,29.71063,,,TRUE,TRUE,,,,,,,CLR,,,,,,,,VFR,,,,,,,,,,,,METAR,7.0
K4S1 280455Z AUTO 16022G35KT 7SM CLR 09/05 A2972 RMK AO2,K4S1,2023-03-28T04:55:00Z,42.42,-124.42,9.0,5.0,160,22,35,7.0,29.719488,,,TRUE,TRUE,,,,,,,CLR,,,,,,,,VFR,,,,,,,,,,,,METAR,7.0
K4S1 280435Z AUTO 17021G38KT 7SM CLR 08/05 A2972 RMK AO2,K4S1,2023-03-28T04:35:00Z,42.42,-124.42,8.0,5.0,170,21,38,7.0,29.719488,,,TRUE,TRUE,,,,,,,CLR,,,,,,,,VFR,,,,,,,,,,,,METAR,7.0
K4S1 280415Z AUTO 17016G31KT 10SM -DZ CLR 08/05 A2973 RMK AO2,K4S1,2023-03-28T04:15:00Z,42.42,-124.42,8.0,5.0,170,16,31,10.0,29.731298,,,TRUE,TRUE,,,,,,-DZ,CLR,,,,,,,,VFR,,,,,,,,,,,,METAR,7.0
K4S1 280355Z AUTO 16022G34KT 130V190 10SM SCT032 BKN040 BKN047 07/05 A2973 RMK AO2,K4S1,2023-03-28T03:55:00Z,42.42,-124.42,7.0,5.0,160,22,34,10.0,29.731298,,,TRUE,TRUE,,,,,,,SCT,3200,BKN,4000,BKN,4700,,,VFR,,,,,,,,,,,,METAR,7.0
K4S1 280335Z AUTO 16021G35KT 10SM -DZ SCT028 BKN033 OVC040 06/05 A2975 RMK AO2,K4S1,2023-03-28T03:35:00Z,42.42,-124.42,6.0,5.0,160,21,35,10.0,29.749016,,,TRUE,TRUE,,,,,,-DZ,SCT,2800,BKN,3300,OVC,4000,,,VFR,,,,,,,,,,,,METAR,7.0
K4S1 280315Z AUTO 17020G29KT 7SM -DZ BKN028 OVC034 06/04 A2977 RMK AO2,K4S1,2023-03-28T03:15:00Z,42.42,-124.42,6.0,4.0,170,20,29,7.0,29.769686,,,TRUE,TRUE,,,,,,-DZ,BKN,2800,OVC,3400,,,,,MVFR,,,,,,,,,,,,METAR,7.0
K4S1 280255Z AUTO 16017G30KT 10SM -RA BKN026 OVC032 06/03 A2977 RMK AO2 P0006,K4S1,2023-03-28T02:55:00Z,42.42,-124.42,6.0,3.0,160,17,30,10.0,29.769686,,,TRUE,TRUE,,,,,,-RA,BKN,2600,OVC,3200,,,,,MVFR,,,,,,0.06,,,,,,METAR,7.0
K4S1 280235Z AUTO 16015G22KT 120V200 7SM -RA SCT017 OVC026 05/03 A2979 RMK AO2 P0005,K4S1,2023-03-28T02:35:00Z,42.42,-124.42,5.0,3.0,160,15,22,7.0,29.790354,,,TRUE,TRUE,,,,,,-RA,SCT,1700,OVC,2600,,,,,MVFR,,,,,,0.05,,,,,,METAR,7.0
K4S1 280215Z AUTO 15012G30KT 5SM -RA OVC028 05/03 A2979 RMK AO2 P0002,K4S1,2023-03-28T02:15:00Z,42.42,-124.42,5.0,3.0,150,12,30,5.0,29.790354,,,TRUE,TRUE,,,,,,-RA,OVC,2800,,,,,,,MVFR,,,,,,0.02,,,,,,METAR,7.0
K4S1 280155Z AUTO 17018G28KT 7SM -RA OVC028 05/03 A2980 RMK AO2 P0007,K4S1,2023-03-28T01:55:00Z,42.42,-124.42,5.0,3.0,170,18,28,7.0,29.799213,,,TRUE,TRUE,,,,,,-RA,OVC,2800,,,,,,,MVFR,,,,,,0.07,,,,,,METAR,7.0
K4S1 280135Z AUTO 17020G30KT 7SM -RA OVC026 05/03 A2981 RMK AO2 P0005,K4S1,2023-03-28T01:35:00Z,42.42,-124.42,5.0,3.0,170,20,30,7.0,29.811024,,,TRUE,TRUE,,,,,,-RA,OVC,2600,,,,,,,MVFR,,,,,,0.05,,,,,,METAR,7.0
K4S1 280115Z AUTO 18018G29KT 7SM -RA SCT022 OVC030 05/03 A2981 RMK AO2 P0002,K4S1,2023-03-28T01:15:00Z,42.42,-124.42,5.0,3.0,180,18,29,7.0,29.811024,,,TRUE,TRUE,,,,,,-RA,SCT,2200,OVC,3000,,,,,MVFR,,,,,,0.02,,,,,,METAR,7.0
K4S1 280055Z AUTO 17014G24KT 7SM -RA SCT018 OVC028 05/03 A2983 RMK AO2 P0009,K4S1,2023-03-28T00:55:00Z,42.42,-124.42,5.0,3.0,170,14,24,7.0,29.828741,,,TRUE,TRUE,,,,,,-RA,SCT,1800,OVC,2800,,,,,MVFR,,,,,,0.09,,,,,,METAR,7.0
K4S1 280035Z AUTO 17018G35KT 5SM -RA BKN024 OVC030 05/03 A2984 RMK AO2 P0007,K4S1,2023-03-28T00:35:00Z,42.42,-124.42,5.0,3.0,170,18,35,5.0,29.840551,,,TRUE,TRUE,,,,,,-RA,BKN,2400,OVC,3000,,,,,MVFR,,,,,,0.07,,,,,,METAR,7.0
K4S1 280015Z AUTO 17014G25KT 7SM -RA SCT024 OVC030 05/03 A2985 RMK AO2 P0002,K4S1,2023-03-28T00:15:00Z,42.42,-124.42,5.0,3.0,170,14,25,7.0,29.84941,,,TRUE,TRUE,,,,,,-RA,SCT,2400,OVC,3000,,,,,MVFR,,,,,,0.02,,,,,,METAR,7.0
K4S1 272355Z AUTO 16010G22KT 10SM -RA BKN027 OVC035 05/03 A2986 RMK AO2 P0004,K4S1,2023-03-27T23:55:00Z,42.42,-124.42,5.0,3.0,160,10,22,10.0,29.861221,,,TRUE,TRUE,,,,,,-RA,BKN,2700,OVC,3500,,,,,MVFR,,,,,,0.04,,,,,,METAR,7.0
K4S1 272335Z AUTO 16009G23KT 10SM -RA BKN025 OVC033 05/03 A2989 RMK AO2 P0003,K4S1,2023-03-27T23:35:00Z,42.42,-124.42,5.0,3.0,160,9,23,10.0,29.890747,,,TRUE,TRUE,,,,,,-RA,BKN,2500,OVC,3300,,,,,MVFR,,,,,,0.03,,,,,,METAR,7.0
K4S1 272315Z AUTO 16010G22KT 5SM RA BKN023 BKN030 OVC035 05/03 A2991 RMK AO2 P0002,K4S1,2023-03-27T23:15:00Z,42.42,-124.42,5.0,3.0,160,10,22,5.0,29.911417,,,TRUE,TRUE,,,,,,RA,BKN,2300,BKN,3000,OVC,3500,,,MVFR,,,,,,0.02,,,,,,METAR,7.0
K4S1 272255Z AUTO 17012G21KT 5SM RA BKN023 BKN031 05/03 A2993 RMK AO2 P0007,K4S1,2023-03-27T22:55:00Z,42.42,-124.42,5.0,3.0,170,12,21,5.0,29.929134,,,TRUE,TRUE,,,,,,RA,BKN,2300,BKN,3100,,,,,MVFR,,,,,,0.07,,,,,,METAR,7.0
K4S1 272235Z AUTO 15007G18KT 080V180 7SM RA BKN023 BKN027 05/03 A2995 RMK AO2 P0004,K4S1,2023-03-27T22:35:00Z,42.42,-124.42,5.0,3.0,150,7,18,7.0,29.949802,,,TRUE,TRUE,,,,,,RA,BKN,2300,BKN,2700,,,,,MVFR,,,,,,0.04,,,,,,METAR,7.0
K4S1 272215Z AUTO 15011G21KT 5SM -RA BKN023 05/03 A2996 RMK AO2 P0002,K4S1,2023-03-27T22:15:00Z,42.42,-124.42,5.0,3.0,150,11,21,5.0,29.958662,,,TRUE,TRUE,,,,,,-RA,BKN,2300,,,,,,,MVFR,,,,,,0.02,,,,,,METAR,7.0
K4S1 272155Z AUTO 17010G20KT 7SM -RA BKN025 BKN030 05/03 A2999 RMK AO2 P0004,K4S1,2023-03-27T21:55:00Z,42.42,-124.42,5.0,3.0,170,10,20,7.0,29.991142,,,TRUE,TRUE,,,,,,-RA,BKN,2500,BKN,3000,,,,,MVFR,,,,,,0.04,,,,,,METAR,7.0
K4S1 272135Z AUTO 17013G19KT 10SM -RA SCT025 05/02 A3000 RMK AO2 P0002,K4S1,2023-03-27T21:35:00Z,42.42,-124.42,5.0,2.0,170,13,19,10.0,30.0,,,TRUE,TRUE,,,,,,-RA,SCT,2500,,,,,,,VFR,,,,,,0.02,,,,,,METAR,7.0
K4S1 272115Z AUTO 17012G25KT 130V190 7SM -RA BKN025 06/02 A3002 RMK AO2 P0001,K4S1,2023-03-27T21:15:00Z,42.42,-124.42,6.0,2.0,170,12,25,7.0,30.02067,,,TRUE,TRUE,,,,,,-RA,BKN,2500,,,,,,,MVFR,,,,,,0.01,,,,,,METAR,7.0
K4S1 272055Z AUTO 16010G25KT 7SM RA BKN025 BKN029 BKN035 06/02 A3004 RMK AO2 P0002,K4S1,2023-03-27T20:55:00Z,42.42,-124.42,6.0,2.0,160,10,25,7.0,30.041338,,,TRUE,TRUE,,,,,,RA,BKN,2500,BKN,2900,BKN,3500,,,MVFR,,,,,,0.02,,,,,,METAR,7.0
K4S1 272035Z AUTO 17023G34KT 10SM DZ SCT030 06/01 A3004 RMK AO2,K4S1,2023-03-27T20:35:00Z,42.42,-124.42,6.0,1.0,170,23,34,10.0,30.041338,,,TRUE,TRUE,,,,,,DZ,SCT,3000,,,,,,,VFR,,,,,,,,,,,,METAR,7.0
K4S1 272015Z AUTO 16017G34KT 7SM -RA CLR 07/01 A3004 RMK AO2,K4S1,2023-03-27T20:15:00Z,42.42,-124.42,7.0,1.0,160,17,34,7.0,30.041338,,,TRUE,TRUE,,,,,,-RA,CLR,,,,,,,,VFR,,,,,,,,,,,,METAR,7.0
K4S1 271955Z AUTO 15010G17KT 7SM CLR 08/00 A3004 RMK AO2,K4S1,2023-03-27T19:55:00Z,42.42,-124.42,8.0,0.0,150,10,17,7.0,30.041338,,,TRUE,TRUE,,,,,,,CLR,,,,,,,,VFR,,,,,,,,,,,,METAR,7.0
K4S1 271935Z AUTO 16014G26KT 130V200 7SM CLR 08/00 A3006 RMK AO2,K4S1,2023-03-27T19:35:00Z,42.42,-124.42,8.0,0.0,160,14,26,7.0,30.059055,,,TRUE,TRUE,,,,,,,CLR,,,,,,,,VFR,,,,,,,,,,,,METAR,7.0
K4S1 271915Z AUTO 18013G25KT 140V200 7SM CLR 07/00 A3007 RMK AO2,K4S1,2023-03-27T19:15:00Z,42.42,-124.42,7.0,0.0,180,13,25,7.0,30.070866,,,TRUE,TRUE,,,,,,,CLR,,,,,,,,VFR,,,,,,,,,,,,METAR,7.0
K4S1 271855Z AUTO 18015KT 5SM HZ CLR 07/01 A3008 RMK AO2,K4S1,2023-03-27T18:55:00Z,42.42,-124.42,7.0,1.0,180,15,,5.0,30.079725,,,TRUE,TRUE,,,,,,HZ,CLR,,,,,,,,MVFR,,,,,,,,,,,,METAR,7.0
K4S1 271835Z AUTO 10006KT 5SM HZ CLR 06/02 A3008 RMK AO2,K4S1,2023-03-27T18:35:00Z,42.42,-124.42,6.0,2.0,100,6,,5.0,30.079725,,,TRUE,TRUE,,,,,,HZ,CLR,,,,,,,,MVFR,,,,,,,,,,,,METAR,7.0
K4S1 271815Z AUTO 05006KT 4SM HZ CLR 06/02 A3010 RMK AO2,K4S1,2023-03-27T18:15:00Z,42.42,-124.42,6.0,2.0,50,6,,4.0,30.100393,,,TRUE,TRUE,,,,,,HZ,CLR,,,,,,,,MVFR,,,,,,,,,,,,METAR,7.0
K4S1 271755Z AUTO 05005KT 5SM HZ CLR 05/02 A3012 RMK AO2,K4S1,2023-03-27T17:55:00Z,42.42,-124.42,5.0,2.0,50,5,,5.0,30.121063,,,TRUE,TRUE,,,,,,HZ,CLR,,,,,,,,MVFR,,,,,,,,,,,,METAR,7.0
K4S1 271735Z AUTO 04006KT 5SM BR CLR 04/02 A3012 RMK AO2,K4S1,2023-03-27T17:35:00Z,42.42,-124.42,4.0,2.0,40,6,,5.0,30.121063,,,TRUE,TRUE,,,,,,BR,CLR,,,,,,,,MVFR,,,,,,,,,,,,METAR,7.0
K4S1 271715Z AUTO 05007KT 7SM CLR 04/01 A3012 RMK AO2,K4S1,2023-03-27T17:15:00Z,42.42,-124.42,4.0,1.0,50,7,,7.0,30.121063,,,TRUE,TRUE,,,,,,,CLR,,,,,,,,VFR,,,,,,,,,,,,METAR,7.0
K4S1 271655Z AUTO 05007KT 7SM CLR 04/02 A3012 RMK AO2,K4S1,2023-03-27T16:55:00Z,42.42,-124.42,4.0,2.0,50,7,,7.0,30.121063,,,TRUE,TRUE,,,,,,,CLR,,,,,,,,VFR,,,,,,,,,,,,METAR,7.0
K4S1 271635Z AUTO 05007KT 5SM BR CLR 03/01 A3014 RMK AO2,K4S1,2023-03-27T16:35:00Z,42.42,-124.42,3.0,1.0,50,7,,5.0,30.138779,,,TRUE,TRUE,,,,,,BR,CLR,,,,,,,,MVFR,,,,,,,,,,,,METAR,7.0
K4S1 271615Z AUTO 05008KT 7SM CLR 03/01 A3014 RMK AO2,K4S1,2023-03-27T16:15:00Z,42.42,-124.42,3.0,1.0,50,8,,7.0,30.138779,,,TRUE,TRUE,,,,,,,CLR,,,,,,,,VFR,,,,,,,,,,,,METAR,7.0
K4S1 271555Z AUTO 05008KT 5SM BR CLR 03/01 A3014 RMK AO2,K4S1,2023-03-27T15:55:00Z,42.42,-124.42,3.0,1.0,50,8,,5.0,30.138779,,,TRUE,TRUE,,,,,,BR,CLR,,,,,,,,MVFR,,,,,,,,,,,,METAR,7.0
K4S1 271535Z AUTO 05011KT 5SM BR CLR 03/01 A3015 RMK AO2,K4S1,2023-03-27T15:35:00Z,42.42,-124.42,3.0,1.0,50,11,,5.0,30.15059,,,TRUE,TRUE,,,,,,BR,CLR,,,,,,,,MVFR,,,,,,,,,,,,METAR,7.0
K4S1 271515Z AUTO 05009KT 5SM BR CLR 03/01 A3015 RMK AO2,K4S1,2023-03-27T15:15:00Z,42.42,-124.42,3.0,1.0,50,9,,5.0,30.15059,,,TRUE,TRUE,,,,,,BR,CLR,,,,,,,,MVFR,,,,,,,,,,,,METAR,7.0
K4S1 271455Z AUTO 05009KT 7SM CLR 02/01 A3015 RMK AO2,K4S1,2023-03-27T14:55:00Z,42.42,-124.42,2.0,1.0,50,9,,7.0,30.15059,,,TRUE,TRUE,,,,,,,CLR,,,,,,,,VFR,,,,,,,,,,,,METAR,7.0
K4S1 271435Z AUTO 05009KT 7SM CLR 02/01 A3016 RMK AO2,K4S1,2023-03-27T14:35:00Z,42.42,-124.42,2.0,1.0,50,9,,7.0,30.159449,,,TRUE,TRUE,,,,,,,CLR,,,,,,,,VFR,,,,,,,,,,,,METAR,7.0
K4S1 271415Z AUTO 05008KT 7SM CLR 02/01 A3016 RMK AO2,K4S1,2023-03-27T14:15:00Z,42.42,-124.42,2.0,1.0,50,8,,7.0,30.159449,,,TRUE,TRUE,,,,,,,CLR,,,,,,,,VFR,,,,,,,,,,,,METAR,7.0
K4S1 271355Z AUTO 06008KT 7SM CLR 02/01 A3017 RMK AO2,K4S1,2023-03-27T13:55:00Z,42.42,-124.42,2.0,1.0,60,8,,7.0,30.171259,,,TRUE,TRUE,,,,,,,CLR,,,,,,,,VFR,,,,,,,,,,,,METAR,7.0
K4S1 271335Z AUTO 05009KT 7SM CLR 02/01 A3018 RMK AO2,K4S1,2023-03-27T13:35:00Z,42.42,-124.42,2.0,1.0,50,9,,7.0,30.180119,,,TRUE,TRUE,,,,,,,CLR,,,,,,,,VFR,,,,,,,,,,,,METAR,7.0
K4S1 271315Z AUTO 05009KT 7SM CLR 02/01 A3019 RMK AO2,K4S1,2023-03-27T13:15:00Z,42.42,-124.42,2.0,1.0,50,9,,7.0,30.188976,,,TRUE,TRUE,,,,,,,CLR,,,,,,,,VFR,,,,,,,,,,,,METAR,7.0
K4S1 271255Z AUTO 05009KT 7SM CLR 02/01 A3019 RMK AO2,K4S1,2023-03-27T12:55:00Z,42.42,-124.42,2.0,1.0,50,9,,7.0,30.188976,,,TRUE,TRUE,,,,,,,CLR,,,,,,,,VFR,,,,,,,,,,,,METAR,7.0
K4S1 271235Z AUTO 05007KT 7SM CLR 02/01 A3020 RMK AO2,K4S1,2023-03-27T12:35:00Z,42.42,-124.42,2.0,1.0,50,7,,7.0,30.200787,,,TRUE,TRUE,,,,,,,CLR,,,,,,,,VFR,,,,,,,,,,,,METAR,7.0
K4S1 271215Z AUTO 05007KT 7SM CLR 02/01 A3020 RMK AO2,K4S1,2023-03-27T12:15:00Z,42.42,-124.42,2.0,1.0,50,7,,7.0,30.200787,,,TRUE,TRUE,,,,,,,CLR,,,,,,,,VFR,,,,,,,,,,,,METAR,7.0
K4S1 271155Z AUTO 05009KT 7SM CLR 02/01 A3020 RMK AO2,K4S1,2023-03-27T11:55:00Z,42.42,-124.42,2.0,1.0,50,9,,7.0,30.200787,,,TRUE,TRUE,,,,,,,CLR,,,,,,,,VFR,,,,,,,,,,,,METAR,7.0
K4S1 271135Z AUTO 05008KT 7SM CLR 03/01 A3021 RMK AO2,K4S1,2023-03-27T11:35:00Z,42.42,-124.42,3.0,1.0,50,8,,7.0,30.209646,,,TRUE,TRUE,,,,,,,CLR,,,,,,,,VFR,,,,,,,,,,,,METAR,7.0
K4S1 271115Z AUTO 05006KT 7SM CLR 03/01 A3022 RMK AO2,K4S1,2023-03-27T11:15:00Z,42.42,-124.42,3.0,1.0,50,6,,7.0,30.221457,,,TRUE,TRUE,,,,,,,CLR,,,,,,,,VFR,,,,,,,,,,,,METAR,7.0
K4S1 271055Z AUTO 04007KT 7SM CLR 03/01 A3022 RMK AO2,K4S1,2023-03-27T10:55:00Z,42.42,-124.42,3.0,1.0,40,7,,7.0,30.221457,,,TRUE,TRUE,,,,,,,CLR,,,,,,,,VFR,,,,,,,,,,,,METAR,7.0
K4S1 271035Z AUTO 00000KT 7SM CLR 02/01 A3023 RMK AO2,K4S1,2023-03-27T10:35:00Z,42.42,-124.42,2.0,1.0,0,0,,7.0,30.230314,,,TRUE,TRUE,,,,,,,CLR,,,,,,,,VFR,,,,,,,,,,,,METAR,7.0
K4S1 271015Z AUTO 05005KT 7SM CLR 03/01 A3023 RMK AO2,K4S1,2023-03-27T10:15:00Z,42.42,-124.42,3.0,1.0,50,5,,7.0,30.230314,,,TRUE,TRUE,,,,,,,CLR,,,,,,,,VFR,,,,,,,,,,,,METAR,7.0
K4S1 270955Z AUTO 05008KT 7SM CLR 03/01 A3024 RMK AO2,K4S1,2023-03-27T09:55:00Z,42.42,-124.42,3.0,1.0,50,8,,7.0,30.239174,,,TRUE,TRUE,,,,,,,CLR,,,,,,,,VFR,,,,,,,,,,,,METAR,7.0
K4S1 270935Z AUTO 06005KT 7SM CLR 03/01 A3025 RMK AO2,K4S1,2023-03-27T09:35:00Z,42.42,-124.42,3.0,1.0,60,5,,7.0,30.250984,,,TRUE,TRUE,,,,,,,CLR,,,,,,,,VFR,,,,,,,,,,,,METAR,7.0
K4S1 270915Z AUTO 05006KT 7SM CLR 03/01 A3025 RMK AO2,K4S1,2023-03-27T09:15:00Z,42.42,-124.42,3.0,1.0,50,6,,7.0,30.250984,,,TRUE,TRUE,,,,,,,CLR,,,,,,,,VFR,,,,,,,,,,,,METAR,7.0
K4S1 270855Z AUTO 05008KT 10SM CLR 03/01 A3026 RMK AO2,K4S1,2023-03-27T08:55:00Z,42.42,-124.42,3.0,1.0,50,8,,10.0,30.259842,,,TRUE,TRUE,,,,,,,CLR,,,,,,,,VFR,,,,,,,,,,,,METAR,7.0
K4S1 270835Z AUTO 06004KT 7SM CLR 03/01 A3027 RMK AO2,K4S1,2023-03-27T08:35:00Z,42.42,-124.42,3.0,1.0,60,4,,7.0,30.268702,,,TRUE,TRUE,,,,,,,CLR,,,,,,,,VFR,,,,,,,,,,,,METAR,7.0
K4S1 270815Z AUTO 05006KT 7SM CLR 03/01 A3027 RMK AO2,K4S1,2023-03-27T08:15:00Z,42.42,-124.42,3.0,1.0,50,6,,7.0,30.268702,,,TRUE,TRUE,,,,,,,CLR,,,,,,,,VFR,,,,,,,,,,,,METAR,7.0
K4S1 270755Z AUTO 05008KT 7SM CLR 03/01 A3028 RMK AO2,K4S1,2023-03-27T07:55:00Z,42.42,-124.42,3.0,1.0,50,8,,7.0,30.280512,,,TRUE,TRUE,,,,,,,CLR,,,,,,,,VFR,,,,,,,,,,,,METAR,7.0
K4S1 270735Z AUTO 05008KT 7SM CLR 03/01 A3029 RMK AO2,K4S1,2023-03-27T07:35:00Z,42.42,-124.42,3.0,1.0,50,8,,7.0,30.28937,,,TRUE,TRUE,,,,,,,CLR,,,,,,,,VFR,,,,,,,,,,,,METAR,7.0
K4S1 270715Z AUTO 05004KT 7SM CLR 03/01 A3029 RMK AO2,K4S1,2023-03-27T07:15:00Z,42.42,-124.42,3.0,1.0,50,4,,7.0,30.28937,,,TRUE,TRUE,,,,,,,CLR,,,,,,,,VFR,,,,,,,,,,,,METAR,7.0
K4S1 270655Z AUTO 06004KT 7SM CLR 03/02 A3029 RMK AO2,K4S1,2023-03-27T06:55:00Z,42.42,-124.42,3.0,2.0,60,4,,7.0,30.28937,,,TRUE,TRUE,,,,,,,CLR,,,,,,,,VFR,,,,,,,,,,,,METAR,7.0
K4S1 270635Z AUTO 05008KT 7SM CLR 04/02 A3030 RMK AO2,K4S1,2023-03-27T06:35:00Z,42.42,-124.42,4.0,2.0,50,8,,7.0,30.301182,,,TRUE,TRUE,,,,,,,CLR,,,,,,,,VFR,,,,,,,,,,,,METAR,7.0
K4S1 270615Z AUTO 05007KT 7SM CLR 04/02 A3030 RMK AO2,K4S1,2023-03-27T06:15:00Z,42.42,-124.42,4.0,2.0,50,7,,7.0,30.301182,,,TRUE,TRUE,,,,,,,CLR,,,,,,,,VFR,,,,,,,,,,,,METAR,7.0
K4S1 270555Z AUTO 05006KT 7SM CLR 04/02 A3031 RMK AO2,K4S1,2023-03-27T05:55:00Z,42.42,-124.42,4.0,2.0,50,6,,7.0,30.31004,,,TRUE,TRUE,,,,,,,CLR,,,,,,,,VFR,,,,,,,,,,,,METAR,7.0
K4S1 270535Z AUTO 05008KT 7SM CLR 04/02 A3031 RMK AO2,K4S1,2023-03-27T05:35:00Z,42.42,-124.42,4.0,2.0,50,8,,7.0,30.31004,,,TRUE,TRUE,,,,,,,CLR,,,,,,,,VFR,,,,,,,,,,,,METAR,7.0
K4S1 270515Z AUTO 05006KT 7SM CLR 04/02 A3032 RMK AO2,K4S1,2023-03-27T05:15:00Z,42.42,-124.42,4.0,2.0,50,6,,7.0,30.318897,,,TRUE,TRUE,,,,,,,CLR,,,,,,,,VFR,,,,,,,,,,,,METAR,7.0
K4S1 270455Z AUTO 05007KT 7SM CLR 05/02 A3032 RMK AO2,K4S1,2023-03-27T04:55:00Z,42.42,-124.42,5.0,2.0,50,7,,7.0,30.318897,,,TRUE,TRUE,,,,,,,CLR,,,,,,,,VFR,,,,,,,,,,,,METAR,7.0
K4S1 270435Z AUTO 05004KT 7SM CLR 05/01 A3032 RMK AO2,K4S1,2023-03-27T04:35:00Z,42.42,-124.42,5.0,1.0,50,4,,7.0,30.318897,,,TRUE,TRUE,,,,,,,CLR,,,,,,,,VFR,,,,,,,,,,,,METAR,7.0
K4S1 270415Z AUTO 05004KT 7SM CLR 05/01 A3032 RMK AO2,K4S1,2023-03-27T04:15:00Z,42.42,-124.42,5.0,1.0,50,4,,7.0,30.318897,,,TRUE,TRUE,,,,,,,CLR,,,,,,,,VFR,,,,,,,,,,,,METAR,7.0
K4S1 270355Z AUTO 03003KT 7SM CLR 05/01 A3032 RMK AO2,K4S1,2023-03-27T03:55:00Z,42.42,-124.42,5.0,1.0,30,3,,7.0,30.318897,,,TRUE,TRUE,,,,,,,CLR,,,,,,,,VFR,,,,,,,,,,,,METAR,7.0
K4S1 270335Z AUTO 06004KT 7SM CLR 05/01 A3032 RMK AO2,K4S1,2023-03-27T03:35:00Z,42.42,-124.42,5.0,1.0,60,4,,7.0,30.318897,,,TRUE,TRUE,,,,,,,CLR,,,,,,,,VFR,,,,,,,,,,,,METAR,7.0
K4S1 270315Z AUTO 05004KT 7SM CLR 06/02 A3032 RMK AO2,K4S1,2023-03-27T03:15:00Z,42.42,-124.42,6.0,2.0,50,4,,7.0,30.318897,,,TRUE,TRUE,,,,,,,CLR,,,,,,,,VFR,,,,,,,,,,,,METAR,7.0
K4S1 270255Z AUTO 04006KT 7SM CLR 06/02 A3032 RMK AO2,K4S1,2023-03-27T02:55:00Z,42.42,-124.42,6.0,2.0,40,6,,7.0,30.318897,,,TRUE,TRUE,,,,,,,CLR,,,,,,,,VFR,,,,,,,,,,,,METAR,7.0
K4S1 270235Z AUTO 06004KT 7SM CLR 06/02 A3033 RMK AO2,K4S1,2023-03-27T02:35:00Z,42.42,-124.42,6.0,2.0,60,4,,7.0,30.33071,,,TRUE,TRUE,,,,,,,CLR,,,,,,,,VFR,,,,,,,,,,,,METAR,7.0
K4S1 270215Z AUTO 34006KT 5SM HZ CLR 07/02 A3033 RMK AO2,K4S1,2023-03-27T02:15:00Z,42.42,-124.42,7.0,2.0,340,6,,5.0,30.33071,,,TRUE,TRUE,,,,,,HZ,CLR,,,,,,,,MVFR,,,,,,,,,,,,METAR,7.0
K4S1 270155Z AUTO 34007KT 4SM HZ CLR 07/02 A3033 RMK AO2,K4S1,2023-03-27T01:55:00Z,42.42,-124.42,7.0,2.0,340,7,,4.0,30.33071,,,TRUE,TRUE,,,,,,HZ,CLR,,,,,,,,MVFR,,,,,,,,,,,,METAR,7.0
K4S1 270135Z AUTO 33007KT 5SM HZ CLR 07/02 A3033 RMK AO2,K4S1,2023-03-27T01:35:00Z,42.42,-124.42,7.0,2.0,330,7,,5.0,30.33071,,,TRUE,TRUE,,,,,,HZ,CLR,,,,,,,,MVFR,,,,,,,,,,,,METAR,7.0
K4S1 270115Z AUTO 34008KT 5SM HZ CLR 08/01 A3033 RMK AO2,K4S1,2023-03-27T01:15:00Z,42.42,-124.42,8.0,1.0,340,8,,5.0,30.33071,,,TRUE,TRUE,,,,,,HZ,CLR,,,,,,,,MVFR,,,,,,,,,,,,METAR,7.0
K4S1 270055Z AUTO 33008KT 5SM HZ CLR 08/01 A3033 RMK AO2,K4S1,2023-03-27T00:55:00Z,42.42,-124.42,8.0,1.0,330,8,,5.0,30.33071,,,TRUE,TRUE,,,,,,HZ,CLR,,,,,,,,MVFR,,,,,,,,,,,,METAR,7.0
K4S1 270035Z AUTO 33008KT 5SM HZ CLR 08/01 A3033 RMK AO2,K4S1,2023-03-27T00:35:00Z,42.42,-124.42,8.0,1.0,330,8,,5.0,30.33071,,,TRUE,TRUE,,,,,,HZ,CLR,,,,,,,,MVFR,,,,,,,,,,,,METAR,7.0
K4S1 270015Z AUTO 33008KT 4SM HZ CLR 08/02 A3034 RMK AO2,K4S1,2023-03-27T00:15:00Z,42.42,-124.42,8.0,2.0,330,8,,4.0,30.339567,,,TRUE,TRUE,,,,,,HZ,CLR,,,,,,,,MVFR,,,,,,,,,,,,METAR,7.0
K4S1 262355Z AUTO 33008KT 5SM HZ CLR 08/02 A3035 RMK AO2,K4S1,2023-03-26T23:55:00Z,42.42,-124.42,8.0,2.0,330,8,,5.0,30.351377,,,TRUE,TRUE,,,,,,HZ,CLR,,,,,,,,MVFR,,,,,,,,,,,,METAR,7.0
K4S1 262335Z AUTO 33007KT 7SM CLR 08/02 A3036 RMK AO2,K4S1,2023-03-26T23:35:00Z,42.42,-124.42,8.0,2.0,330,7,,7.0,30.360237,,,TRUE,TRUE,,,,,,,CLR,,,,,,,,VFR,,,,,,,,,,,,METAR,7.0
K4S1 262315Z AUTO 33007KT 5SM HZ CLR 08/03 A3036 RMK AO2,K4S1,2023-03-26T23:15:00Z,42.42,-124.42,8.0,3.0,330,7,,5.0,30.360237,,,TRUE,TRUE,,,,,,HZ,CLR,,,,,,,,MVFR,,,,,,,,,,,,METAR,7.0
K4S1 262255Z AUTO 33008KT 5SM HZ CLR 08/02 A3037 RMK AO2,K4S1,2023-03-26T22:55:00Z,42.42,-124.42,8.0,2.0,330,8,,5.0,30.369095,,,TRUE,TRUE,,,,,,HZ,CLR,,,,,,,,MVFR,,,,,,,,,,,,METAR,7.0
K4S1 262235Z AUTO 33007KT 5SM HZ CLR 08/02 A3037 RMK AO2,K4S1,2023-03-26T22:35:00Z,42.42,-124.42,8.0,2.0,330,7,,5.0,30.369095,,,TRUE,TRUE,,,,,,HZ,CLR,,,,,,,,MVFR,,,,,,,,,,,,METAR,7.0
K4S1 262215Z AUTO 33007KT 5SM HZ CLR 08/02 A3037 RMK AO2,K4S1,2023-03-26T22:15:00Z,42.42,-124.42,8.0,2.0,330,7,,5.0,30.369095,,,TRUE,TRUE,,,,,,HZ,CLR,,,,,,,,MVFR,,,,,,,,,,,,METAR,7.0
K4S1 262155Z AUTO 33008KT 5SM HZ CLR 08/02 A3038 RMK AO2,K4S1,2023-03-26T21:55:00Z,42.42,-124.42,8.0,2.0,330,8,,5.0,30.380905,,,TRUE,TRUE,,,,,,HZ,CLR,,,,,,,,MVFR,,,,,,,,,,,,METAR,7.0
K4S1 262135Z AUTO 32007KT 5SM HZ CLR 08/01 A3038 RMK AO2,K4S1,2023-03-26T21:35:00Z,42.42,-124.42,8.0,1.0,320,7,,5.0,30.380905,,,TRUE,TRUE,,,,,,HZ,CLR,,,,,,,,MVFR,,,,,,,,,,,,METAR,7.0
K4S1 262115Z AUTO 32006KT 5SM HZ CLR 08/02 A3038 RMK AO2,K4S1,2023-03-26T21:15:00Z,42.42,-124.42,8.0,2.0,320,6,,5.0,30.380905,,,TRUE,TRUE,,,,,,HZ,CLR,,,,,,,,MVFR,,,,,,,,,,,,METAR,7.0
K4S1 262055Z AUTO 32008KT 5SM HZ CLR 08/01 A3038 RMK AO2,K4S1,2023-03-26T20:55:00Z,42.42,-124.42,8.0,1.0,320,8,,5.0,30.380905,,,TRUE,TRUE,,,,,,HZ,CLR,,,,,,,,MVFR,,,,,,,,,,,,METAR,7.0
K4S1 262035Z AUTO 31007KT 5SM HZ CLR 08/01 A3038 RMK AO2,K4S1,2023-03-26T20:35:00Z,42.42,-124.42,8.0,1.0,310,7,,5.0,30.380905,,,TRUE,TRUE,,,,,,HZ,CLR,,,,,,,,MVFR,,,,,,,,,,,,METAR,7.0
K4S1 262015Z AUTO 31005KT 4SM HZ CLR 08/01 A3039 RMK AO2,K4S1,2023-03-26T20:15:00Z,42.42,-124.42,8.0,1.0,310,5,,4.0,30.389763,,,TRUE,TRUE,,,,,,HZ,CLR,,,,,,,,MVFR,,,,,,,,,,,,METAR,7.0
K4S1 261955Z AUTO 31005KT 5SM HZ CLR 08/01 A3039 RMK AO2,K4S1,2023-03-26T19:55:00Z,42.42,-124.42,8.0,1.0,310,5,,5.0,30.389763,,,TRUE,TRUE,,,,,,HZ,CLR,,,,,,,,MVFR,,,,,,,,,,,,METAR,7.0
K4S1 261935Z AUTO 26003KT 5SM HZ CLR 07/02 A3040 RMK AO2,K4S1,2023-03-26T19:35:00Z,42.42,-124.42,7.0,2.0,260,3,,5.0,30.398623,,,TRUE,TRUE,,,,,,HZ,CLR,,,,,,,,MVFR,,,,,,,,,,,,METAR,7.0
K4S1 261915Z AUTO 00000KT 4SM HZ CLR 07/01 A3040 RMK AO2,K4S1,2023-03-26T19:15:00Z,42.42,-124.42,7.0,1.0,0,0,,4.0,30.398623,,,TRUE,TRUE,,,,,,HZ,CLR,,,,,,,,MVFR,,,,,,,,,,,,METAR,7.0
K4S1 261855Z AUTO 24003KT 5SM HZ CLR 06/01 A3041 RMK AO2,K4S1,2023-03-26T18:55:00Z,42.42,-124.42,6.0,1.0,240,3,,5.0,30.410433,,,TRUE,TRUE,,,,,,HZ,CLR,,,,,,,,MVFR,,,,,,,,,,,,METAR,7.0
K4S1 261835Z AUTO 00000KT 5SM HZ CLR 06/01 A3041 RMK AO2,K4S1,2023-03-26T18:35:00Z,42.42,-124.42,6.0,1.0,0,0,,5.0,30.410433,,,TRUE,TRUE,,,,,,HZ,CLR,,,,,,,,MVFR,,,,,,,,,,,,METAR,7.0
K4S1 261815Z AUTO 22003KT 4SM HZ CLR 06/01 A3041 RMK AO2,K4S1,2023-03-26T18:15:00Z,42.42,-124.42,6.0,1.0,220,3,,4.0,30.410433,,,TRUE,TRUE,,,,,,HZ,CLR,,,,,,,,MVFR,,,,,,,,,,,,METAR,7.0
K4S1 261755Z AUTO 00000KT 5SM HZ CLR 06/01 A3040 RMK AO2,K4S1,2023-03-26T17:55:00Z,42.42,-124.42,6.0,1.0,0,0,,5.0,30.398623,,,TRUE,TRUE,,,,,,HZ,CLR,,,,,,,,MVFR,,,,,,,,,,,,METAR,7.0
K4S1 261735Z AUTO 00000KT 4SM HZ CLR 06/00 A3040 RMK AO2,K4S1,2023-03-26T17:35:00Z,42.42,-124.42,6.0,0.0,0,0,,4.0,30.398623,,,TRUE,TRUE,,,,,,HZ,CLR,,,,,,,,MVFR,,,,,,,,,,,,METAR,7.0
K4S1 261715Z AUTO 02004KT 5SM HZ CLR 06/01 A3040 RMK AO2,K4S1,2023-03-26T17:15:00Z,42.42,-124.42,6.0,1.0,20,4,,5.0,30.398623,,,TRUE,TRUE,,,,,,HZ,CLR,,,,,,,,MVFR,,,,,,,,,,,,METAR,7.0
K4S1 261655Z AUTO 06005KT 5SM HZ CLR 06/02 A3039 RMK AO2,K4S1,2023-03-26T16:55:00Z,42.42,-124.42,6.0,2.0,60,5,,5.0,30.389763,,,TRUE,TRUE,,,,,,HZ,CLR,,,,,,,,MVFR,,,,,,,,,,,,METAR,7.0
K4S1 261635Z AUTO 07006KT 5SM HZ CLR 04/01 A3038 RMK AO2,K4S1,2023-03-26T16:35:00Z,42.42,-124.42,4.0,1.0,70,6,,5.0,30.380905,,,TRUE,TRUE,,,,,,HZ,CLR,,,,,,,,MVFR,,,,,,,,,,,,METAR,7.0
K4S1 261615Z AUTO 05010KT 5SM BR CLR 03/01 A3038 RMK AO2,K4S1,2023-03-26T16:15:00Z,42.42,-124.42,3.0,1.0,50,10,,5.0,30.380905,,,TRUE,TRUE,,,,,,BR,CLR,,,,,,,,MVFR,,,,,,,,,,,,METAR,7.0
K4S1 261555Z AUTO 05011KT 5SM BR CLR 02/00 A3039 RMK AO2,K4S1,2023-03-26T15:55:00Z,42.42,-124.42,2.0,0.0,50,11,,5.0,30.389763,,,TRUE,TRUE,,,,,,BR,CLR,,,,,,,,MVFR,,,,,,,,,,,,METAR,7.0
K4S1 261535Z AUTO 05011KT 4SM BR CLR 02/00 A3040 RMK AO2,K4S1,2023-03-26T15:35:00Z,42.42,-124.42,2.0,0.0,50,11,,4.0,30.398623,,,TRUE,TRUE,,,,,,BR,CLR,,,,,,,,MVFR,,,,,,,,,,,,METAR,7.0
K4S1 261515Z AUTO 05010KT 5SM BR CLR 01/00 A3039 RMK AO2,K4S1,2023-03-26T15:15:00Z,42.42,-124.42,1.0,0.0,50,10,,5.0,30.389763,,,TRUE,TRUE,,,,,,BR,CLR,,,,,,,,MVFR,,,,,,,,,,,,METAR,7.0
K4S1 261455Z AUTO 06010KT 5SM BR CLR 01/00 A3038 RMK AO2,K4S1,2023-03-26T14:55:00Z,42.42,-124.42,1.0,0.0,60,10,,5.0,30.380905,,,TRUE,TRUE,,,,,,BR,CLR,,,,,,,,MVFR,,,,,,,,,,,,METAR,7.0
K4S1 261435Z AUTO 06009KT 7SM CLR 01/00 A3039 RMK AO2,K4S1,2023-03-26T14:35:00Z,42.42,-124.42,1.0,0.0,60,9,,7.0,30.389763,,,TRUE,TRUE,,,,,,,CLR,,,,,,,,VFR,,,,,,,,,,,,METAR,7.0
K4S1 261415Z AUTO 05010KT 7SM CLR 01/00 A3038 RMK AO2,K4S1,2023-03-26T14:15:00Z,42.42,-124.42,1.0,0.0,50,10,,7.0,30.380905,,,TRUE,TRUE,,,,,,,CLR,,,,,,,,VFR,,,,,,,,,,,,METAR,7.0
K4S1 261355Z AUTO 06010KT 7SM CLR 01/00 A3038 RMK AO2,K4S1,2023-03-26T13:55:00Z,42.42,-124.42,1.0,0.0,60,10,,7.0,30.380905,,,TRUE,TRUE,,,,,,,CLR,,,,,,,,VFR,,,,,,,,,,,,METAR,7.0
K4S1 261335Z AUTO 05011KT 7SM CLR 01/00 A3038 RMK AO2,K4S1,2023-03-26T13:35:00Z,42.42,-124.42,1.0,0.0,50,11,,7.0,30.380905,,,TRUE,TRUE,,,,,,,CLR,,,,,,,,VFR,,,,,,,,,,,,METAR,7.0
K4S1 261315Z AUTO 05011KT 7SM CLR 01/00 A3038 RMK AO2,K4S1,2023-03-26T13:15:00Z,42.42,-124.42,1.0,0.0,50,11,,7.0,30.380905,,,TRUE,TRUE,,,,,,,CLR,,,,,,,,VFR,,,,,,,,,,,,METAR,7.0
K4S1 261255Z AUTO 06009KT 7SM CLR 01/00 A3038 RMK AO2,K4S1,2023-03-26T12:55:00Z,42.42,-124.42,1.0,0.0,60,9,,7.0,30.380905,,,TRUE,TRUE,,,,,,,CLR,,,,,,,,VFR,,,,,,,,,,,,METAR,7.0
K4S1 261235Z AUTO 06010KT 7SM CLR 01/00 A3038 RMK AO2,K4S1,2023-03-26T12:35:00Z,42.42,-124.42,1.0,0.0,60,10,,7.0,30.380905,,,TRUE,TRUE,,,,,,,CLR,,,,,,,,VFR,,,,,,,,,,,,METAR,7.0
K4S1 261215Z AUTO 05011KT 7SM CLR 01/00 A3038 RMK AO2,K4S1,2023-03-26T12:15:00Z,42.42,-124.42,1.0,0.0,50,11,,7.0,30.380905,,,TRUE,TRUE,,,,,,,CLR,,,,,,,,VFR,,,,,,,,,,,,METAR,7.0
K4S1 261155Z AUTO 06010KT 7SM CLR 01/00 A3037 RMK AO2,K4S1,2023-03-26T11:55:00Z,42.42,-124.42,1.0,0.0,60,10,,7.0,30.369095,,,TRUE,TRUE,,,,,,,CLR,,,,,,,,VFR,,,,,,,,,,,,METAR,7.0
K4S1 261135Z AUTO 05011KT 7SM CLR 01/00 A3038 RMK AO2,K4S1,2023-03-26T11:35:00Z,42.42,-124.42,1.0,0.0,50,11,,7.0,30.380905,,,TRUE,TRUE,,,,,,,CLR,,,,,,,,VFR,,,,,,,,,,,,METAR,7.0
K4S1 261115Z AUTO 05011KT 7SM CLR 01/00 A3038 RMK AO2,K4S1,2023-03-26T11:15:00Z,42.42,-124.42,1.0,0.0,50,11,,7.0,30.380905,,,TRUE,TRUE,,,,,,,CLR,,,,,,,,VFR,,,,,,,,,,,,METAR,7.0
K4S1 261055Z AUTO 05008KT 5SM BR CLR 01/00 A3038 RMK AO2,K4S1,2023-03-26T10:55:00Z,42.42,-124.42,1.0,0.0,50,8,,5.0,30.380905,,,TRUE,TRUE,,,,,,BR,CLR,,,,,,,,MVFR,,,,,,,,,,,,METAR,7.0
K4S1 261035Z AUTO 05011KT 7SM CLR 01/00 A3038 RMK AO2,K4S1,2023-03-26T10:35:00Z,42.42,-124.42,1.0,0.0,50,11,,7.0,30.380905,,,TRUE,TRUE,,,,,,,CLR,,,,,,,,VFR,,,,,,,,,,,,METAR,7.0
K4S1 261015Z AUTO 05010KT 7SM CLR 01/00 A3038 RMK AO2,K4S1,2023-03-26T10:15:00Z,42.42,-124.42,1.0,0.0,50,10,,7.0,30.380905,,,TRUE,TRUE,,,,,,,CLR,,,,,,,,VFR,,,,,,,,,,,,METAR,7.0
K4S1 260955Z AUTO 05010KT 7SM CLR 01/00 A3038 RMK AO2,K4S1,2023-03-26T09:55:00Z,42.42,-124.42,1.0,0.0,50,10,,7.0,30.380905,,,TRUE,TRUE,,,,,,,CLR,,,,,,,,VFR,,,,,,,,,,,,METAR,7.0
K4S1 260935Z AUTO 05009KT 7SM CLR 01/00 A3039 RMK AO2,K4S1,2023-03-26T09:35:00Z,42.42,-124.42,1.0,0.0,50,9,,7.0,30.389763,,,TRUE,TRUE,,,,,,,CLR,,,,,,,,VFR,,,,,,,,,,,,METAR,7.0
K4S1 260915Z AUTO 05008KT 7SM CLR 01/00 A3039 RMK AO2,K4S1,2023-03-26T09:15:00Z,42.42,-124.42,1.0,0.0,50,8,,7.0,30.389763,,,TRUE,TRUE,,,,,,,CLR,,,,,,,,VFR,,,,,,,,,,,,METAR,7.0
K4S1 260855Z AUTO 05011KT 7SM CLR 01/00 A3039 RMK AO2,K4S1,2023-03-26T08:55:00Z,42.42,-124.42,1.0,0.0,50,11,,7.0,30.389763,,,TRUE,TRUE,,,,,,,CLR,,,,,,,,VFR,,,,,,,,,,,,METAR,7.0
K4S1 260835Z AUTO 05009KT 7SM CLR 01/00 A3039 RMK AO2,K4S1,2023-03-26T08:35:00Z,42.42,-124.42,1.0,0.0,50,9,,7.0,30.389763,,,TRUE,TRUE,,,,,,,CLR,,,,,,,,VFR,,,,,,,,,,,,METAR,7.0
K4S1 260815Z AUTO 05009KT 7SM CLR 02/01 A3039 RMK AO2,K4S1,2023-03-26T08:15:00Z,42.42,-124.42,2.0,1.0,50,9,,7.0,30.389763,,,TRUE,TRUE,,,,,,,CLR,,,,,,,,VFR,,,,,,,,,,,,METAR,7.0
K4S1 260755Z AUTO 05009KT 7SM CLR 02/01 A3038 RMK AO2,K4S1,2023-03-26T07:55:00Z,42.42,-124.42,2.0,1.0,50,9,,7.0,30.380905,,,TRUE,TRUE,,,,,,,CLR,,,,,,,,VFR,,,,,,,,,,,,METAR,7.0
K4S1 260735Z AUTO 05008KT 5SM BR CLR 02/01 A3039 RMK AO2,K4S1,2023-03-26T07:35:00Z,42.42,-124.42,2.0,1.0,50,8,,5.0,30.389763,,,TRUE,TRUE,,,,,,BR,CLR,,,,,,,,MVFR,,,,,,,,,,,,METAR,7.0
K4S1 260715Z AUTO 06005KT 7SM CLR 02/01 A3039 RMK AO2,K4S1,2023-03-26T07:15:00Z,42.42,-124.42,2.0,1.0,60,5,,7.0,30.389763,,,TRUE,TRUE,,,,,,,CLR,,,,,,,,VFR,,,,,,,,,,,,METAR,7.0
K4S1 260655Z AUTO 06005KT 7SM CLR 02/01 A3038 RMK AO2,K4S1,2023-03-26T06:55:00Z,42.42,-124.42,2.0,1.0,60,5,,7.0,30.380905,,,TRUE,TRUE,,,,,,,CLR,,,,,,,,VFR,,,,,,,,,,,,METAR,7.0
K4S1 260635Z AUTO 05006KT 7SM CLR 03/01 A3039 RMK AO2,K4S1,2023-03-26T06:35:00Z,42.42,-124.42,3.0,1.0,50,6,,7.0,30.389763,,,TRUE,TRUE,,,,,,,CLR,,,,,,,,VFR,,,,,,,,,,,,METAR,7.0
K4S1 260615Z AUTO 05004KT 7SM CLR 03/01 A3038 RMK AO2,K4S1,2023-03-26T06:15:00Z,42.42,-124.42,3.0,1.0,50,4,,7.0,30.380905,,,TRUE,TRUE,,,,,,,CLR,,,,,,,,VFR,,,,,,,,,,,,METAR,7.0
K4S1 260555Z AUTO 05003KT 7SM CLR 03/01 A3038 RMK AO2,K4S1,2023-03-26T05:55:00Z,42.42,-124.42,3.0,1.0,50,3,,7.0,30.380905,,,TRUE,TRUE,,,,,,,CLR,,,,,,,,VFR,,,,,,,,,,,,METAR,7.0
K4S1 260535Z AUTO 05003KT 7SM -DZ CLR 04/02 A3038 RMK AO2,K4S1,2023-03-26T05:35:00Z,42.42,-124.42,4.0,2.0,50,3,,7.0,30.380905,,,TRUE,TRUE,,,,,,-DZ,CLR,,,,,,,,VFR,,,,,,,,,,,,METAR,7.0
K4S1 260515Z AUTO 04006KT 10SM RA CLR 04/02 A3038 RMK AO2,K4S1,2023-03-26T05:15:00Z,42.42,-124.42,4.0,2.0,40,6,,10.0,30.380905,,,TRUE,TRUE,,,,,,RA,CLR,,,,,,,,VFR,,,,,,,,,,,,METAR,7.0
K4S1 260455Z AUTO 05006KT 7SM CLR 04/02 A3038 RMK AO2,K4S1,2023-03-26T04:55:00Z,42.42,-124.42,4.0,2.0,50,6,,7.0,30.380905,,,TRUE,TRUE,,,,,,,CLR,,,,,,,,VFR,,,,,,,,,,,,METAR,7.0
K4S1 260435Z AUTO 05004KT 7SM CLR 04/02 A3037 RMK AO2,K4S1,2023-03-26T04:35:00Z,42.42,-124.42,4.0,2.0,50,4,,7.0,30.369095,,,TRUE,TRUE,,,,,,,CLR,,,,,,,,VFR,,,,,,,,,,,,METAR,7.0
K4S1 260415Z AUTO 07003KT 7SM CLR 04/01 A3037 RMK AO2,K4S1,2023-03-26T04:15:00Z,42.42,-124.42,4.0,1.0,70,3,,7.0,30.369095,,,TRUE,TRUE,,,,,,,CLR,,,,,,,,VFR,,,,,,,,,,,,METAR,7.0
K4S1 260355Z AUTO 04003KT 7SM CLR 05/02 A3037 RMK AO2,K4S1,2023-03-26T03:55:00Z,42.42,-124.42,5.0,2.0,40,3,,7.0,30.369095,,,TRUE,TRUE,,,,,,,CLR,,,,,,,,VFR,,,,,,,,,,,,METAR,7.0
K4S1 260335Z AUTO 02005KT 5SM HZ CLR 05/02 A3036 RMK AO2,K4S1,2023-03-26T03:35:00Z,42.42,-124.42,5.0,2.0,20,5,,5.0,30.360237,,,TRUE,TRUE,,,,,,HZ,CLR,,,,,,,,MVFR,,,,,,,,,,,,METAR,7.0
K4S1 260315Z AUTO 35006KT 10SM -RA CLR 05/02 A3037 RMK AO2,K4S1,2023-03-26T03:15:00Z,42.42,-124.42,5.0,2.0,350,6,,10.0,30.369095,,,TRUE,TRUE,,,,,,-RA,CLR,,,,,,,,VFR,,,,,,,,,,,,METAR,7.0
K4S1 260255Z AUTO 36007KT 7SM -DZ CLR 05/02 A3036 RMK AO2,K4S1,2023-03-26T02:55:00Z,42.42,-124.42,5.0,2.0,360,7,,7.0,30.360237,,,TRUE,TRUE,,,,,,-DZ,CLR,,,,,,,,VFR,,,,,,,,,,,,METAR,7.0
K4S1 260235Z AUTO 35011G15KT 5SM HZ CLR 06/02 A3036 RMK AO2,K4S1,2023-03-26T02:35:00Z,42.42,-124.42,6.0,2.0,350,11,15,5.0,30.360237,,,TRUE,TRUE,,,,,,HZ,CLR,,,,,,,,MVFR,,,,,,,,,,,,METAR,7.0
K4S1 260215Z AUTO 34009KT 4SM HZ CLR 06/02 A3036 RMK AO2,K4S1,2023-03-26T02:15:00Z,42.42,-124.42,6.0,2.0,340,9,,4.0,30.360237,,,TRUE,TRUE,,,,,,HZ,CLR,,,,,,,,MVFR,,,,,,,,,,,,METAR,7.0
K4S1 260155Z AUTO 33007KT 5SM HZ CLR 06/02 A3036 RMK AO2,K4S1,2023-03-26T01:55:00Z,42.42,-124.42,6.0,2.0,330,7,,5.0,30.360237,,,TRUE,TRUE,,,,,,HZ,CLR,,,,,,,,MVFR,,,,,,,,,,,,METAR,7.0
K4S1 260135Z AUTO 32007KT 4SM HZ CLR 07/02 A3036 RMK AO2,K4S1,2023-03-26T01:35:00Z,42.42,-124.42,7.0,2.0,320,7,,4.0,30.360237,,,TRUE,TRUE,,,,,,HZ,CLR,,,,,,,,MVFR,,,,,,,,,,,,METAR,7.0
K4S1 260115Z AUTO 33005KT 4SM HZ CLR 07/02 A3036 RMK AO2,K4S1,2023-03-26T01:15:00Z,42.42,-124.42,7.0,2.0,330,5,,4.0,30.360237,,,TRUE,TRUE,,,,,,HZ,CLR,,,,,,,,MVFR,,,,,,,,,,,,METAR,7.0
K4S1 260055Z AUTO 32006KT 5SM HZ CLR 07/03 A3036 RMK AO2,K4S1,2023-03-26T00:55:00Z,42.42,-124.42,7.0,3.0,320,6,,5.0,30.360237,,,TRUE,TRUE,,,,,,HZ,CLR,,,,,,,,MVFR,,,,,,,,,,,,METAR,7.0
K4S1 260035Z AUTO 31007KT 4SM HZ CLR 07/03 A3037 RMK AO2,K4S1,2023-03-26T00:35:00Z,42.42,-124.42,7.0,3.0,310,7,,4.0,30.369095,,,TRUE,TRUE,,,,,,HZ,CLR,,,,,,,,MVFR,,,,,,,,,,,,METAR,7.0
K4S1 260015Z AUTO 33003KT 5SM HZ CLR 07/02 A3037 RMK AO2,K4S1,2023-03-26T00:15:00Z,42.42,-124.42,7.0,2.0,330,3,,5.0,30.369095,,,TRUE,TRUE,,,,,,HZ,CLR,,,,,,,,MVFR,,,,,,,,,,,,METAR,7.0
K4S1 252355Z AUTO 34004KT 5SM HZ CLR 07/02 A3037 RMK AO2,K4S1,2023-03-25T23:55:00Z,42.42,-124.42,7.0,2.0,340,4,,5.0,30.369095,,,TRUE,TRUE,,,,,,HZ,CLR,,,,,,,,MVFR,,,,,,,,,,,,METAR,7.0
K4S1 252335Z AUTO 33005KT 4SM HZ CLR 07/03 A3037 RMK AO2,K4S1,2023-03-25T23:35:00Z,42.42,-124.42,7.0,3.0,330,5,,4.0,30.369095,,,TRUE,TRUE,,,,,,HZ,CLR,,,,,,,,MVFR,,,,,,,,,,,,METAR,7.0
K4S1 252315Z AUTO 33006KT 4SM HZ CLR 07/03 A3037 RMK AO2,K4S1,2023-03-25T23:15:00Z,42.42,-124.42,7.0,3.0,330,6,,4.0,30.369095,,,TRUE,TRUE,,,,,,HZ,CLR,,,,,,,,MVFR,,,,,,,,,,,,METAR,7.0
K4S1 252255Z AUTO 32007KT 4SM HZ CLR 07/03 A3038 RMK AO2,K4S1,2023-03-25T22:55:00Z,42.42,-124.42,7.0,3.0,320,7,,4.0,30.380905,,,TRUE,TRUE,,,,,,HZ,CLR,,,,,,,,MVFR,,,,,,,,,,,,METAR,7.0
K4S1 252235Z AUTO 32014G17KT 4SM HZ CLR 07/03 A3039 RMK AO2,K4S1,2023-03-25T22:35:00Z,42.42,-124.42,7.0,3.0,320,14,17,4.0,30.389763,,,TRUE,TRUE,,,,,,HZ,CLR,,,,,,,,MVFR,,,,,,,,,,,,METAR,7.0
K4S1 252215Z AUTO 32006KT 4SM HZ CLR 07/03 A3040 RMK AO2,K4S1,2023-03-25T22:15:00Z,42.42,-124.42,7.0,3.0,320,6,,4.0,30.398623,,,TRUE,TRUE,,,,,,HZ,CLR,,,,,,,,MVFR,,,,,,,,,,,,METAR,7.0
K4S1 252155Z AUTO 32007KT 3SM HZ CLR 08/03 A3040 RMK AO2,K4S1,2023-03-25T21:55:00Z,42.42,-124.42,8.0,3.0,320,7,,3.0,30.398623,,,TRUE,TRUE,,,,,,HZ,CLR,,,,,,,,MVFR,,,,,,,,,,,,METAR,7.0
K4S1 252135Z AUTO 35008KT 5SM HZ CLR 08/03 A3040 RMK AO2,K4S1,2023-03-25T21:35:00Z,42.42,-124.42,8.0,3.0,350,8,,5.0,30.398623,,,TRUE,TRUE,,,,,,HZ,CLR,,,,,,,,MVFR,,,,,,,,,,,,METAR,7.0
K4S1 252115Z AUTO 36008KT 340V040 5SM HZ CLR 08/03 A3040 RMK AO2,K4S1,2023-03-25T21:15:00Z,42.42,-124.42,8.0,3.0,360,8,,5.0,30.398623,,,TRUE,TRUE,,,,,,HZ,CLR,,,,,,,,MVFR,,,,,,,,,,,,METAR,7.0
K4S1 252055Z AUTO 36008KT 5SM HZ SCT024 SCT031 07/04 A3041 RMK AO2,K4S1,2023-03-25T20:55:00Z,42.42,-124.42,7.0,4.0,360,8,,5.0,30.410433,,,TRUE,TRUE,,,,,,HZ,SCT,2400,SCT,3100,,,,,MVFR,,,,,,,,,,,,METAR,7.0
K4S1 252035Z AUTO 31012G17KT 4SM -RA CLR 07/03 A3041 RMK AO2,K4S1,2023-03-25T20:35:00Z,42.42,-124.42,7.0,3.0,310,12,17,4.0,30.410433,,,TRUE,TRUE,,,,,,-RA,CLR,,,,,,,,MVFR,,,,,,,,,,,,METAR,7.0
K4S1 252015Z AUTO 29003KT 3SM HZ CLR 07/03 A3041 RMK AO2,K4S1,2023-03-25T20:15:00Z,42.42,-124.42,7.0,3.0,290,3,,3.0,30.410433,,,TRUE,TRUE,,,,,,HZ,CLR,,,,,,,,MVFR,,,,,,,,,,,,METAR,7.0
K4S1 251955Z AUTO 31004KT 3SM HZ CLR 07/03 A3041 RMK AO2,K4S1,2023-03-25T19:55:00Z,42.42,-124.42,7.0,3.0,310,4,,3.0,30.410433,,,TRUE,TRUE,,,,,,HZ,CLR,,,,,,,,MVFR,,,,,,,,,,,,METAR,7.0
K4S1 251935Z AUTO 00000KT 5SM HZ CLR 07/03 A3042 RMK AO2,K4S1,2023-03-25T19:35:00Z,42.42,-124.42,7.0,3.0,0,0,,5.0,30.41929,,,TRUE,TRUE,,,,,,HZ,CLR,,,,,,,,MVFR,,,,,,,,,,,,METAR,7.0
K4S1 251915Z AUTO 36005KT 7SM -RA CLR 07/03 A3043 RMK AO2,K4S1,2023-03-25T19:15:00Z,42.42,-124.42,7.0,3.0,360,5,,7.0,30.431103,,,TRUE,TRUE,,,,,,-RA,CLR,,,,,,,,VFR,,,,,,,,,,,,METAR,7.0
K4S1 251855Z AUTO 05009KT 5SM BR CLR 06/04 A3043 RMK AO2,K4S1,2023-03-25T18:55:00Z,42.42,-124.42,6.0,4.0,50,9,,5.0,30.431103,,,TRUE,TRUE,,,,,,BR,CLR,,,,,,,,MVFR,,,,,,,,,,,,METAR,7.0
K4S1 251835Z AUTO 03003KT 7SM CLR 07/05 A3042 RMK AO2,K4S1,2023-03-25T18:35:00Z,42.42,-124.42,7.0,5.0,30,3,,7.0,30.41929,,,TRUE,TRUE,,,,,,,CLR,,,,,,,,VFR,,,,,,,,,,,,METAR,7.0
K4S1 251815Z AUTO 06004KT 5SM BR CLR 07/05 A3042 RMK AO2,K4S1,2023-03-25T18:15:00Z,42.42,-124.42,7.0,5.0,60,4,,5.0,30.41929,,,TRUE,TRUE,,,,,,BR,CLR,,,,,,,,MVFR,,,,,,,,,,,,METAR,7.0
K4S1 251755Z AUTO 04006KT 5SM BR CLR 07/05 A3043 RMK AO2,K4S1,2023-03-25T17:55:00Z,42.42,-124.42,7.0,5.0,40,6,,5.0,30.431103,,,TRUE,TRUE,,,,,,BR,CLR,,,,,,,,MVFR,,,,,,,,,,,,METAR,7.0
K4S1 251735Z AUTO 06005KT 7SM -RA SCT033 SCT040 05/03 A3042 RMK AO2,K4S1,2023-03-25T17:35:00Z,42.42,-124.42,5.0,3.0,60,5,,7.0,30.41929,,,TRUE,TRUE,,,,,,-RA,SCT,3300,SCT,4000,,,,,VFR,,,,,,,,,,,,METAR,7.0
K4S1 251715Z AUTO 06008KT 5SM -RA SCT024 SCT030 SCT040 05/03 A3042 RMK AO2,K4S1,2023-03-25T17:15:00Z,42.42,-124.42,5.0,3.0,60,8,,5.0,30.41929,,,TRUE,TRUE,,,,,,-RA,SCT,2400,SCT,3000,SCT,4000,,,MVFR,,,,,,,,,,,,METAR,7.0
K4S1 251655Z AUTO 04005KT 5SM BR CLR 06/05 A3042 RMK AO2,K4S1,2023-03-25T16:55:00Z,42.42,-124.42,6.0,5.0,40,5,,5.0,30.41929,,,TRUE,TRUE,,,,,,BR,CLR,,,,,,,,MVFR,,,,,,,,,,,,METAR,7.0
K4S1 251635Z AUTO 06004KT 5SM BR CLR 05/05 A3042 RMK AO2,K4S1,2023-03-25T16:35:00Z,42.42,-124.42,5.0,5.0,60,4,,5.0,30.41929,,,TRUE,TRUE,,,,,,BR,CLR,,,,,,,,MVFR,,,,,,,,,,,,METAR,7.0
K4S1 251615Z AUTO 04004KT 5SM BR CLR 05/03 A3042 RMK AO2,K4S1,2023-03-25T16:15:00Z,42.42,-124.42,5.0,3.0,40,4,,5.0,30.41929,,,TRUE,TRUE,,,,,,BR,CLR,,,,,,,,MVFR,,,,,,,,,,,,METAR,7.0
K4S1 251555Z AUTO 05004KT 5SM BR SCT020 SCT027 04/03 A3042 RMK AO2 P0002,K4S1,2023-03-25T15:55:00Z,42.42,-124.42,4.0,3.0,50,4,,5.0,30.41929,,,TRUE,TRUE,,,,,,BR,SCT,2000,SCT,2700,,,,,MVFR,,,,,,0.02,,,,,,METAR,7.0
K4S1 251535Z AUTO 05003KT 4SM RA SCT020 SCT027 04/03 A3042 RMK AO2 P0002,K4S1,2023-03-25T15:35:00Z,42.42,-124.42,4.0,3.0,50,3,,4.0,30.41929,,,TRUE,TRUE,,,,,,RA,SCT,2000,SCT,2700,,,,,MVFR,,,,,,0.02,,,,,,METAR,7.0
K4S1 251515Z AUTO 00000KT 5SM BR CLR 04/03 A3041 RMK AO2,K4S1,2023-03-25T15:15:00Z,42.42,-124.42,4.0,3.0,0,0,,5.0,30.410433,,,TRUE,TRUE,,,,,,BR,CLR,,,,,,,,MVFR,,,,,,,,,,,,METAR,7.0
K4S1 251455Z AUTO 00000KT 7SM -RA SCT014 BKN021 03/02 A3041 RMK AO2 P0005,K4S1,2023-03-25T14:55:00Z,42.42,-124.42,3.0,2.0,0,0,,7.0,30.410433,,,TRUE,TRUE,,,,,,-RA,SCT,1400,BKN,2100,,,,,MVFR,,,,,,0.05,,,,,,METAR,7.0
K4S1 251435Z AUTO 00000KT 5SM RA BKN021 03/02 A3042 RMK AO2 P0002,K4S1,2023-03-25T14:35:00Z,42.42,-124.42,3.0,2.0,0,0,,5.0,30.41929,,,TRUE,TRUE,,,,,,RA,BKN,2100,,,,,,,MVFR,,,,,,0.02,,,,,,METAR,7.0
K4S1 251415Z AUTO 06003G08KT 7SM CLR 03/03 A3041 RMK AO2,K4S1,2023-03-25T14:15:00Z,42.42,-124.42,3.0,3.0,60,3,8,7.0,30.410433,,,TRUE,TRUE,,,,,,,CLR,,,,,,,,VFR,,,,,,,,,,,,METAR,7.0
K4S1 251355Z AUTO 14003KT 7SM CLR 03/02 A3041 RMK AO2 P0001,K4S1,2023-03-25T13:55:00Z,42.42,-124.42,3.0,2.0,140,3,,7.0,30.410433,,,TRUE,TRUE,,,,,,,CLR,,,,,,,,VFR,,,,,,0.01,,,,,,METAR,7.0
K4S1 251335Z AUTO 07003KT 7SM SCT020 04/03 A3042 RMK AO2 P0001,K4S1,2023-03-25T13:35:00Z,42.42,-124.42,4.0,3.0,70,3,,7.0,30.41929,,,TRUE,TRUE,,,,,,,SCT,2000,,,,,,,VFR,,,,,,0.01,,,,,,METAR,7.0
K4S1 251315Z AUTO 00000KT 7SM CLR 04/03 A3042 RMK AO2,K4S1,2023-03-25T13:15:00Z,42.42,-124.42,4.0,3.0,0,0,,7.0,30.41929,,,TRUE,TRUE,,,,,,,CLR,,,,,,,,VFR,,,,,,,,,,,,METAR,7.0
K4S1 251255Z AUTO 11003KT 7SM CLR 04/03 A3042 RMK AO2,K4S1,2023-03-25T12:55:00Z,42.42,-124.42,4.0,3.0,110,3,,7.0,30.41929,,,TRUE,TRUE,,,,,,,CLR,,,,,,,,VFR,,,,,,,,,,,,METAR,7.0
K4S1 251235Z AUTO 05004KT 7SM RA CLR 05/03 A3043 RMK AO2,K4S1,2023-03-25T12:35:00Z,42.42,-124.42,5.0,3.0,50,4,,7.0,30.431103,,,TRUE,TRUE,,,,,,RA,CLR,,,,,,,,VFR,,,,,,,,,,,,METAR,7.0
K4S1 251215Z AUTO 00000KT 7SM -RA SCT020 03/02 A3043 RMK AO2,K4S1,2023-03-25T12:15:00Z,42.42,-124.42,3.0,2.0,0,0,,7.0,30.431103,,,TRUE,TRUE,,,,,,-RA,SCT,2000,,,,,,,VFR,,,,,,,,,,,,METAR,7.0
K4S1 251155Z AUTO 00000KT 7SM -RA SCT022 SCT032 SCT040 03/02 A3043 RMK AO2 P0002,K4S1,2023-03-25T11:55:00Z,42.42,-124.42,3.0,2.0,0,0,,7.0,30.431103,,,TRUE,TRUE,,,,,,-RA,SCT,2200,SCT,3200,SCT,4000,,,VFR,,,,,,0.02,,,,,,METAR,7.0
K4S1 251135Z AUTO 13006KT 7SM -RA SCT032 SCT040 SCT048 03/02 A3043 RMK AO2,K4S1,2023-03-25T11:35:00Z,42.42,-124.42,3.0,2.0,130,6,,7.0,30.431103,,,TRUE,TRUE,,,,,,-RA,SCT,3200,SCT,4000,SCT,4800,,,VFR,,,,,,,,,,,,METAR,7.0
K4S1 251115Z AUTO 10003KT 10SM DZ SCT018 SCT023 03/02 A3044 RMK AO2,K4S1,2023-03-25T11:15:00Z,42.42,-124.42,3.0,2.0,100,3,,10.0,30.43996,,,TRUE,TRUE,,,,,,DZ,SCT,1800,SCT,2300,,,,,VFR,,,,,,,,,,,,METAR,7.0
K4S1 251055Z AUTO 00000KT 3SM RA SCT013 SCT021 03/02 A3045 RMK AO2 P0008,K4S1,2023-03-25T10:55:00Z,42.42,-124.42,3.0,2.0,0,0,,3.0,30.448818,,,TRUE,TRUE,,,,,,RA,SCT,1300,SCT,2100,,,,,MVFR,,,,,,0.08,,,,,,METAR,7.0
K4S1 251035Z AUTO 12003KT 3SM -RA CLR 05/03 A3044 RMK AO2,K4S1,2023-03-25T10:35:00Z,42.42,-124.42,5.0,3.0,120,3,,3.0,30.43996,,,TRUE,TRUE,,,,,,-RA,CLR,,,,,,,,MVFR,,,,,,,,,,,,METAR,7.0
K4S1 251015Z AUTO 18005KT 7SM SCT023 04/03 A3045 RMK AO2,K4S1,2023-03-25T10:15:00Z,42.42,-124.42,4.0,3.0,180,5,,7.0,30.448818,,,TRUE,TRUE,,,,,,,SCT,2300,,,,,,,VFR,,,,,,,,,,,,METAR,7.0
K4S1 250955Z AUTO 16006KT 5SM -RA SCT021 04/03 A3045 RMK AO2,K4S1,2023-03-25T09:55:00Z,42.42,-124.42,4.0,3.0,160,6,,5.0,30.448818,,,TRUE,TRUE,,,,,,-RA,SCT,2100,,,,,,,MVFR,,,,,,,,,,,,METAR,7.0
K4S1 250935Z AUTO 00000KT 5SM BR CLR 04/03 A3046 RMK AO2,K4S1,2023-03-25T09:35:00Z,42.42,-124.42,4.0,3.0,0,0,,5.0,30.46063,,,TRUE,TRUE,,,,,,BR,CLR,,,,,,,,MVFR,,,,,,,,,,,,METAR,7.0
K4S1 250915Z AUTO 00000KT 5SM -RA CLR 03/03 A3046 RMK AO2,K4S1,2023-03-25T09:15:00Z,42.42,-124.42,3.0,3.0,0,0,,5.0,30.46063,,,TRUE,TRUE,,,,,,-RA,CLR,,,,,,,,MVFR,,,,,,,,,,,,METAR,7.0
K4S1 250855Z AUTO 00000KT 7SM -RA CLR 03/02 A3046 RMK AO2 P0001,K4S1,2023-03-25T08:55:00Z,42.42,-124.42,3.0,2.0,0,0,,7.0,30.46063,,,TRUE,TRUE,,,,,,-RA,CLR,,,,,,,,VFR,,,,,,0.01,,,,,,METAR,7.0
K4S1 250835Z AUTO 00000KT 7SM CLR 03/02 A3047 RMK AO2 P0001,K4S1,2023-03-25T08:35:00Z,42.42,-124.42,3.0,2.0,0,0,,7.0,30.469488,,,TRUE,TRUE,,,,,,,CLR,,,,,,,,VFR,,,,,,0.01,,,,,,METAR,7.0
K4S1 250815Z AUTO 09003KT 10SM SCT026 SCT032 SCT041 03/02 A3047 RMK AO2 P0001,K4S1,2023-03-25T08:15:00Z,42.42,-124.42,3.0,2.0,90,3,,10.0,30.469488,,,TRUE,TRUE,,,,,,,SCT,2600,SCT,3200,SCT,4100,,,VFR,,,,,,0.01,,,,,,METAR,7.0
K4S1 250755Z AUTO 05006KT 7SM RA SCT029 SCT033 SCT041 03/02 A3047 RMK AO2,K4S1,2023-03-25T07:55:00Z,42.42,-124.42,3.0,2.0,50,6,,7.0,30.469488,,,TRUE,TRUE,,,,,,RA,SCT,2900,SCT,3300,SCT,4100,,,VFR,,,,,,,,,,,,METAR,7.0
K4S1 250735Z AUTO 00000KT 5SM BR CLR 03/02 A3047 RMK AO2,K4S1,2023-03-25T07:35:00Z,42.42,-124.42,3.0,2.0,0,0,,5.0,30.469488,,,TRUE,TRUE,,,,,,BR,CLR,,,,,,,,MVFR,,,,,,,,,,,,METAR,7.0
K4S1 250715Z AUTO 00000KT 7SM CLR 03/02 A3047 RMK AO2,K4S1,2023-03-25T07:15:00Z,42.42,-124.42,3.0,2.0,0,0,,7.0,30.469488,,,TRUE,TRUE,,,,,,,CLR,,,,,,,,VFR,,,,,,,,,,,,METAR,7.0
K4S1 250655Z AUTO 05006KT 7SM CLR 03/02 A3048 RMK AO2,K4S1,2023-03-25T06:55:00Z,42.42,-124.42,3.0,2.0,50,6,,7.0,30.481298,,,TRUE,TRUE,,,,,,,CLR,,,,,,,,VFR,,,,,,,,,,,,METAR,7.0
K4S1 250635Z AUTO 05005KT 7SM CLR 03/02 A3048 RMK AO2,K4S1,2023-03-25T06:35:00Z,42.42,-124.42,3.0,2.0,50,5,,7.0,30.481298,,,TRUE,TRUE,,,,,,,CLR,,,,,,,,VFR,,,,,,,,,,,,METAR,7.0
K4S1 250615Z AUTO 07005KT 10SM DZ CLR 03/02 A3049 RMK AO2,K4S1,2023-03-25T06:15:00Z,42.42,-124.42,3.0,2.0,70,5,,10.0,30.490158,,,TRUE,TRUE,,,,,,DZ,CLR,,,,,,,,VFR,,,,,,,,,,,,METAR,7.0
K4S1 250555Z AUTO 05004KT 7SM CLR 03/02 A3049 RMK AO2,K4S1,2023-03-25T05:55:00Z,42.42,-124.42,3.0,2.0,50,4,,7.0,30.490158,,,TRUE,TRUE,,,,,,,CLR,,,,,,,,VFR,,,,,,,,,,,,METAR,7.0
K4S1 250535Z AUTO 03003KT 7SM CLR 03/02 A3049 RMK AO2,K4S1,2023-03-25T05:35:00Z,42.42,-124.42,3.0,2.0,30,3,,7.0,30.490158,,,TRUE,TRUE,,,,,,,CLR,,,,,,,,VFR,,,,,,,,,,,,METAR,7.0
K4S1 250515Z AUTO 05006KT 7SM CLR 04/02 A3049 RMK AO2,K4S1,2023-03-25T05:15:00Z,42.42,-124.42,4.0,2.0,50,6,,7.0,30.490158,,,TRUE,TRUE,,,,,,,CLR,,,,,,,,VFR,,,,,,,,,,,,METAR,7.0
K4S1 250455Z AUTO 05008KT 7SM CLR 04/02 A3049 RMK AO2,K4S1,2023-03-25T04:55:00Z,42.42,-124.42,4.0,2.0,50,8,,7.0,30.490158,,,TRUE,TRUE,,,,,,,CLR,,,,,,,,VFR,,,,,,,,,,,,METAR,7.0
K4S1 250435Z AUTO 06003KT 7SM -RA SCT023 05/02 A3048 RMK AO2,K4S1,2023-03-25T04:35:00Z,42.42,-124.42,5.0,2.0,60,3,,7.0,30.481298,,,TRUE,TRUE,,,,,,-RA,SCT,2300,,,,,,,VFR,,,,,,,,,,,,METAR,7.0
K4S1 250415Z AUTO 04006KT 7SM CLR 05/02 A3048 RMK AO2,K4S1,2023-03-25T04:15:00Z,42.42,-124.42,5.0,2.0,40,6,,7.0,30.481298,,,TRUE,TRUE,,,,,,,CLR,,,,,,,,VFR,,,,,,,,,,,,METAR,7.0
K4S1 250355Z AUTO 03007KT 7SM CLR 05/01 A3048 RMK AO2,K4S1,2023-03-25T03:55:00Z,42.42,-124.42,5.0,1.0,30,7,,7.0,30.481298,,,TRUE,TRUE,,,,,,,CLR,,,,,,,,VFR,,,,,,,,,,,,METAR,7.0
K4S1 250335Z AUTO 06004KT 7SM CLR 05/02 A3048 RMK AO2,K4S1,2023-03-25T03:35:00Z,42.42,-124.42,5.0,2.0,60,4,,7.0,30.481298,,,TRUE,TRUE,,,,,,,CLR,,,,,,,,VFR,,,,,,,,,,,,METAR,7.0
K4S1 250315Z AUTO 03008KT 5SM HZ CLR 06/02 A3047 RMK AO2,K4S1,2023-03-25T03:15:00Z,42.42,-124.42,6.0,2.0,30,8,,5.0,30.469488,,,TRUE,TRUE,,,,,,HZ,CLR,,,,,,,,MVFR,,,,,,,,,,,,METAR,7.0
K4S1 250255Z AUTO 31007KT 5SM HZ CLR 07/02 A3046 RMK AO2,K4S1,2023-03-25T02:55:00Z,42.42,-124.42,7.0,2.0,310,7,,5.0,30.46063,,,TRUE,TRUE,,,,,,HZ,CLR,,,,,,,,MVFR,,,,,,,,,,,,METAR,7.0
K4S1 250235Z AUTO 31008KT 5SM HZ CLR 07/02 A3046 RMK AO2,K4S1,2023-03-25T02:35:00Z,42.42,-124.42,7.0,2.0,310,8,,5.0,30.46063,,,TRUE,TRUE,,,,,,HZ,CLR,,,,,,,,MVFR,,,,,,,,,,,,METAR,7.0
K4S1 250215Z AUTO 32004KT 4SM HZ CLR 07/02 A3046 RMK AO2,K4S1,2023-03-25T02:15:00Z,42.42,-124.42,7.0,2.0,320,4,,4.0,30.46063,,,TRUE,TRUE,,,,,,HZ,CLR,,,,,,,,MVFR,,,,,,,,,,,,METAR,7.0
K4S1 250155Z AUTO 33003KT 5SM HZ CLR 07/02 A3046 RMK AO2,K4S1,2023-03-25T01:55:00Z,42.42,-124.42,7.0,2.0,330,3,,5.0,30.46063,,,TRUE,TRUE,,,,,,HZ,CLR,,,,,,,,MVFR,,,,,,,,,,,,METAR,7.0
K4S1 250135Z AUTO 33004KT 4SM HZ CLR 07/02 A3047 RMK AO2,K4S1,2023-03-25T01:35:00Z,42.42,-124.42,7.0,2.0,330,4,,4.0,30.469488,,,TRUE,TRUE,,,,,,HZ,CLR,,,,,,,,MVFR,,,,,,,,,,,,METAR,7.0
K4S1 250115Z AUTO 00000KT 4SM HZ CLR 07/01 A3047 RMK AO2,K4S1,2023-03-25T01:15:00Z,42.42,-124.42,7.0,1.0,0,0,,4.0,30.469488,,,TRUE,TRUE,,,,,,HZ,CLR,,,,,,,,MVFR,,,,,,,,,,,,METAR,7.0
K4S1 250055Z AUTO 00000KT 4SM HZ CLR 07/02 A3047 RMK AO2,K4S1,2023-03-25T00:55:00Z,42.42,-124.42,7.0,2.0,0,0,,4.0,30.469488,,,TRUE,TRUE,,,,,,HZ,CLR,,,,,,,,MVFR,,,,,,,,,,,,METAR,7.0
K4S1 250035Z AUTO 28003KT 4SM HZ CLR 07/02 A3048 RMK AO2,K4S1,2023-03-25T00:35:00Z,42.42,-124.42,7.0,2.0,280,3,,4.0,30.481298,,,TRUE,TRUE,,,,,,HZ,CLR,,,,,,,,MVFR,,,,,,,,,,,,METAR,7.0
K4S1 250015Z AUTO 28004KT 4SM HZ CLR 07/02 A3048 RMK AO2,K4S1,2023-03-25T00:15:00Z,42.42,-124.42,7.0,2.0,280,4,,4.0,30.481298,,,TRUE,TRUE,,,,,,HZ,CLR,,,,,,,,MVFR,,,,,,,,,,,,METAR,7.0
K4S1 242355Z AUTO 02004KT 3SM HZ SCT043 08/03 A3048 RMK AO2,K4S1,2023-03-24T23:55:00Z,42.42,-124.42,8.0,3.0,20,4,,3.0,30.481298,,,TRUE,TRUE,,,,,,HZ,SCT,4300,,,,,,,MVFR,,,,,,,,,,,,METAR,7.0
K4S1 242335Z AUTO 00000KT 4SM HZ CLR 07/02 A3048 RMK AO2,K4S1,2023-03-24T23:35:00Z,42.42,-124.42,7.0,2.0,0,0,,4.0,30.481298,,,TRUE,TRUE,,,,,,HZ,CLR,,,,,,,,MVFR,,,,,,,,,,,,METAR,7.0
K4S1 242315Z AUTO 00000KT 4SM HZ CLR 07/03 A3048 RMK AO2,K4S1,2023-03-24T23:15:00Z,42.42,-124.42,7.0,3.0,0,0,,4.0,30.481298,,,TRUE,TRUE,,,,,,HZ,CLR,,,,,,,,MVFR,,,,,,,,,,,,METAR,7.0
K4S1 242255Z AUTO 00000KT 4SM HZ SCT027 07/03 A3048 RMK AO2,K4S1,2023-03-24T22:55:00Z,42.42,-124.42,7.0,3.0,0,0,,4.0,30.481298,,,TRUE,TRUE,,,,,,HZ,SCT,2700,,,,,,,MVFR,,,,,,,,,,,,METAR,7.0
K4S1 242235Z AUTO 32013KT 5SM -RA SCT027 07/02 A3048 RMK AO2,K4S1,2023-03-24T22:35:00Z,42.42,-124.42,7.0,2.0,320,13,,5.0,30.481298,,,TRUE,TRUE,,,,,,-RA,SCT,2700,,,,,,,MVFR,,,,,,,,,,,,METAR,7.0
K4S1 242215Z AUTO 28006KT 4SM HZ CLR 08/03 A3048 RMK AO2,K4S1,2023-03-24T22:15:00Z,42.42,-124.42,8.0,3.0,280,6,,4.0,30.481298,,,TRUE,TRUE,,,,,,HZ,CLR,,,,,,,,MVFR,,,,,,,,,,,,METAR,7.0
K4S1 242155Z AUTO 26003KT 3SM HZ CLR 08/02 A3047 RMK AO2,K4S1,2023-03-24T21:55:00Z,42.42,-124.42,8.0,2.0,260,3,,3.0,30.469488,,,TRUE,TRUE,,,,,,HZ,CLR,,,,,,,,MVFR,,,,,,,,,,,,METAR,7.0
K4S1 242135Z AUTO 26003KT 4SM HZ CLR 08/02 A3047 RMK AO2,K4S1,2023-03-24T21:35:00Z,42.42,-124.42,8.0,2.0,260,3,,4.0,30.469488,,,TRUE,TRUE,,,,,,HZ,CLR,,,,,,,,MVFR,,,,,,,,,,,,METAR,7.0
K4S1 242115Z AUTO 00000KT 4SM HZ CLR 07/02 A3047 RMK AO2,K4S1,2023-03-24T21:15:00Z,42.42,-124.42,7.0,2.0,0,0,,4.0,30.469488,,,TRUE,TRUE,,,,,,HZ,CLR,,,,,,,,MVFR,,,,,,,,,,,,METAR,7.0
K4S1 242055Z AUTO 30011G26KT 4SM HZ CLR 06/02 A3047 RMK AO2,K4S1,2023-03-24T20:55:00Z,42.42,-124.42,6.0,2.0,300,11,26,4.0,30.469488,,,TRUE,TRUE,,,,,,HZ,CLR,,,,,,,,MVFR,,,,,,,,,,,,METAR,7.0
K4S1 242035Z AUTO 31016KT 3SM HZ CLR 08/03 A3048 RMK AO2,K4S1,2023-03-24T20:35:00Z,42.42,-124.42,8.0,3.0,310,16,,3.0,30.481298,,,TRUE,TRUE,,,,,,HZ,CLR,,,,,,,,MVFR,,,,,,,,,,,,METAR,7.0
K4S1 242015Z AUTO 31007KT 3SM HZ CLR 08/03 A3047 RMK AO2,K4S1,2023-03-24T20:15:00Z,42.42,-124.42,8.0,3.0,310,7,,3.0,30.469488,,,TRUE,TRUE,,,,,,HZ,CLR,,,,,,,,MVFR,,,,,,,,,,,,METAR,7.0
K4S1 241955Z AUTO 00000KT 5SM HZ CLR 07/03 A3047 RMK AO2 P0001,K4S1,2023-03-24T19:55:00Z,42.42,-124.42,7.0,3.0,0,0,,5.0,30.469488,,,TRUE,TRUE,,,,,,HZ,CLR,,,,,,,,MVFR,,,,,,0.01,,,,,,METAR,7.0
K4S1 241935Z AUTO 01006KT 4SM HZ SCT028 SCT033 06/02 A3047 RMK AO2 P0001,K4S1,2023-03-24T19:35:00Z,42.42,-124.42,6.0,2.0,10,6,,4.0,30.469488,,,TRUE,TRUE,,,,,,HZ,SCT,2800,SCT,3300,,,,,MVFR,,,,,,0.01,,,,,,METAR,7.0
K4S1 241915Z AUTO 33011G15KT 5SM -RA SCT028 SCT035 06/02 A3048 RMK AO2 P0001,K4S1,2023-03-24T19:15:00Z,42.42,-124.42,6.0,2.0,330,11,15,5.0,30.481298,,,TRUE,TRUE,,,,,,-RA,SCT,2800,SCT,3500,,,,,MVFR,,,,,,0.01,,,,,,METAR,7.0
K4S1 241855Z AUTO 07003KT 5SM HZ CLR 07/03 A3046 RMK AO2 P0001,K4S1,2023-03-24T18:55:00Z,42.42,-124.42,7.0,3.0,70,3,,5.0,30.46063,,,TRUE,TRUE,,,,,,HZ,CLR,,,,,,,,MVFR,,,,,,0.01,,,,,,METAR,7.0
K4S1 241835Z AUTO 34010G14KT 4SM HZ SCT020 SCT027 07/04 A3046 RMK AO2 P0001,K4S1,2023-03-24T18:35:00Z,42.42,-124.42,7.0,4.0,340,10,14,4.0,30.46063,,,TRUE,TRUE,,,,,,HZ,SCT,2000,SCT,2700,,,,,MVFR,,,,,,0.01,,,,,,METAR,7.0
K4S1 241815Z AUTO 34006G19KT 4SM -RA SCT020 SCT029 05/02 A3045 RMK AO2 P0001,K4S1,2023-03-24T18:15:00Z,42.42,-124.42,5.0,2.0,340,6,19,4.0,30.448818,,,TRUE,TRUE,,,,,,-RA,SCT,2000,SCT,2900,,,,,MVFR,,,,,,0.01,,,,,,METAR,7.0
K4S1 241755Z AUTO 02010G18KT 3SM BR SCT027 06/03 A3045 RMK AO2,K4S1,2023-03-24T17:55:00Z,42.42,-124.42,6.0,3.0,20,10,18,3.0,30.448818,,,TRUE,TRUE,,,,,,BR,SCT,2700,,,,,,,MVFR,,,,,,,,,,,,METAR,7.0
K4S1 241735Z AUTO 00000KT 5SM BR CLR 06/04 A3044 RMK AO2,K4S1,2023-03-24T17:35:00Z,42.42,-124.42,6.0,4.0,0,0,,5.0,30.43996,,,TRUE,TRUE,,,,,,BR,CLR,,,,,,,,MVFR,,,,,,,,,,,,METAR,7.0
K4S1 241715Z AUTO 04006KT 5SM BR CLR 06/05 A3043 RMK AO2,K4S1,2023-03-24T17:15:00Z,42.42,-124.42,6.0,5.0,40,6,,5.0,30.431103,,,TRUE,TRUE,,,,,,BR,CLR,,,,,,,,MVFR,,,,,,,,,,,,METAR,7.0
K4S1 241655Z AUTO 00000KT 3SM BR CLR 05/03 A3043 RMK AO2,K4S1,2023-03-24T16:55:00Z,42.42,-124.42,5.0,3.0,0,0,,3.0,30.431103,,,TRUE,TRUE,,,,,,BR,CLR,,,,,,,,MVFR,,,,,,,,,,,,METAR,7.0
K4S1 241635Z AUTO 00000KT 5SM BR CLR 04/03 A3042 RMK AO2,K4S1,2023-03-24T16:35:00Z,42.42,-124.42,4.0,3.0,0,0,,5.0,30.41929,,,TRUE,TRUE,,,,,,BR,CLR,,,,,,,,MVFR,,,,,,,,,,,,METAR,7.0
K4S1 241615Z AUTO 05003KT 7SM CLR 04/03 A3042 RMK AO2,K4S1,2023-03-24T16:15:00Z,42.42,-124.42,4.0,3.0,50,3,,7.0,30.41929,,,TRUE,TRUE,,,,,,,CLR,,,,,,,,VFR,,,,,,,,,,,,METAR,7.0
K4S1 241555Z AUTO 06004KT 5SM BR CLR 04/03 A3042 RMK AO2 P0006,K4S1,2023-03-24T15:55:00Z,42.42,-124.42,4.0,3.0,60,4,,5.0,30.41929,,,TRUE,TRUE,,,,,,BR,CLR,,,,,,,,MVFR,,,,,,0.06,,,,,,METAR,7.0
K4S1 241535Z AUTO 11004KT 5SM -RA SCT013 SCT020 02/01 A3041 RMK AO2 P0006,K4S1,2023-03-24T15:35:00Z,42.42,-124.42,2.0,1.0,110,4,,5.0,30.410433,,,TRUE,TRUE,,,,,,-RA,SCT,1300,SCT,2000,,,,,MVFR,,,,,,0.06,,,,,,METAR,7.0
K4S1 241515Z AUTO 33005G18KT 2SM RA BKN012 BKN018 02/01 A3043 RMK AO2 P0004,K4S1,2023-03-24T15:15:00Z,42.42,-124.42,2.0,1.0,330,5,18,2.0,30.431103,,,TRUE,TRUE,,,,,,RA,BKN,1200,BKN,1800,,,,,IFR,,,,,,0.04,,,,,,METAR,7.0
K4S1 241455Z AUTO 15005KT 5SM BR CLR 04/03 A3040 RMK AO2 P0005,K4S1,2023-03-24T14:55:00Z,42.42,-124.42,4.0,3.0,150,5,,5.0,30.398623,,,TRUE,TRUE,,,,,,BR,CLR,,,,,,,,MVFR,,,,,,0.05,,,,,,METAR,7.0
K4S1 241435Z AUTO 13005KT 5SM BR SCT014 SCT019 SCT024 04/02 A3040 RMK AO2 P0005,K4S1,2023-03-24T14:35:00Z,42.42,-124.42,4.0,2.0,130,5,,5.0,30.398623,,,TRUE,TRUE,,,,,,BR,SCT,1400,SCT,1900,SCT,2400,,,MVFR,,,,,,0.05,,,,,,METAR,7.0
K4S1 241415Z AUTO 30005G11KT 2 1/2SM -RA SCT014 SCT021 BKN028 04/02 A3040 RMK AO2 P0005,K4S1,2023-03-24T14:15:00Z,42.42,-124.42,4.0,2.0,300,5,11,2.5,30.398623,,,TRUE,TRUE,,,,,,-RA,SCT,1400,SCT,2100,BKN,2800,,,IFR,,,,,,0.05,,,,,,METAR,7.0
K4S1 241355Z AUTO 32011KT 5SM DZ CLR 05/03 A3039 RMK AO2,K4S1,2023-03-24T13:55:00Z,42.42,-124.42,5.0,3.0,320,11,,5.0,30.389763,,,TRUE,TRUE,,,,,,DZ,CLR,,,,,,,,MVFR,,,,,,,,,,,,METAR,7.0
K4S1 241335Z AUTO 14008KT 7SM CLR 05/03 A3037 RMK AO2,K4S1,2023-03-24T13:35:00Z,42.42,-124.42,5.0,3.0,140,8,,7.0,30.369095,,,TRUE,TRUE,,,,,,,CLR,,,,,,,,VFR,,,,,,,,,,,,METAR,7.0
K4S1 241315Z AUTO 15004KT 7SM CLR 04/03 A3038 RMK AO2,K4S1,2023-03-24T13:15:00Z,42.42,-124.42,4.0,3.0,150,4,,7.0,30.380905,,,TRUE,TRUE,,,,,,,CLR,,,,,,,,VFR,,,,,,,,,,,,METAR,7.0
K4S1 241255Z AUTO 18003KT 5SM BR CLR 05/02 A3038 RMK AO2 P0004,K4S1,2023-03-24T12:55:00Z,42.42,-124.42,5.0,2.0,180,3,,5.0,30.380905,,,TRUE,TRUE,,,,,,BR,CLR,,,,,,,,MVFR,,,,,,0.04,,,,,,METAR,7.0
K4S1 241235Z AUTO 23010G15KT 7SM SCT026 SCT031 05/03 A3039 RMK AO2 P0004,K4S1,2023-03-24T12:35:00Z,42.42,-124.42,5.0,3.0,230,10,15,7.0,30.389763,,,TRUE,TRUE,,,,,,,SCT,2600,SCT,3100,,,,,VFR,,,,,,0.04,,,,,,METAR,7.0
K4S1 241215Z AUTO 25006KT 5SM RA BKN022 BKN028 06/03 A3039 RMK AO2 P0002,K4S1,2023-03-24T12:15:00Z,42.42,-124.42,6.0,3.0,250,6,,5.0,30.389763,,,TRUE,TRUE,,,,,,RA,BKN,2200,BKN,2800,,,,,MVFR,,,,,,0.02,,,,,,METAR,7.0
K4S1 241155Z AUTO 22006KT 10SM RA SCT020 SCT035 SCT043 05/03 A3038 RMK AO2,K4S1,2023-03-24T11:55:00Z,42.42,-124.42,5.0,3.0,220,6,,10.0,30.380905,,,TRUE,TRUE,,,,,,RA,SCT,2000,SCT,3500,SCT,4300,,,VFR,,,,,,,,,,,,METAR,7.0
K4S1 241135Z AUTO 16006KT 7SM CLR 05/03 A3037 RMK AO2,K4S1,2023-03-24T11:35:00Z,42.42,-124.42,5.0,3.0,160,6,,7.0,30.369095,,,TRUE,TRUE,,,,,,,CLR,,,,,,,,VFR,,,,,,,,,,,,METAR,7.0
K4S1 241115Z AUTO 15003KT 7SM CLR 04/02 A3038 RMK AO2,K4S1,2023-03-24T11:15:00Z,42.42,-124.42,4.0,2.0,150,3,,7.0,30.380905,,,TRUE,TRUE,,,,,,,CLR,,,,,,,,VFR,,,,,,,,,,,,METAR,7.0
K4S1 241055Z AUTO 00000KT 7SM CLR 04/02 A3039 RMK AO2,K4S1,2023-03-24T10:55:00Z,42.42,-124.42,4.0,2.0,0,0,,7.0,30.389763,,,TRUE,TRUE,,,,,,,CLR,,,,,,,,VFR,,,,,,,,,,,,METAR,7.0
K4S1 241035Z AUTO 12005KT 7SM CLR 04/02 A3039 RMK AO2,K4S1,2023-03-24T10:35:00Z,42.42,-124.42,4.0,2.0,120,5,,7.0,30.389763,,,TRUE,TRUE,,,,,,,CLR,,,,,,,,VFR,,,,,,,,,,,,METAR,7.0
K4S1 241015Z AUTO 14005KT 4SM HZ CLR 06/02 A3039 RMK AO2,K4S1,2023-03-24T10:15:00Z,42.42,-124.42,6.0,2.0,140,5,,4.0,30.389763,,,TRUE,TRUE,,,,,,HZ,CLR,,,,,,,,MVFR,,,,,,,,,,,,METAR,7.0
K4S1 240955Z AUTO 25010G19KT 4SM HZ CLR 06/03 A3039 RMK AO2,K4S1,2023-03-24T09:55:00Z,42.42,-124.42,6.0,3.0,250,10,19,4.0,30.389763,,,TRUE,TRUE,,,,,,HZ,CLR,,,,,,,,MVFR,,,,,,,,,,,,METAR,7.0
K4S1 240935Z AUTO 27003KT 5SM BR CLR 04/02 A3039 RMK AO2,K4S1,2023-03-24T09:35:00Z,42.42,-124.42,4.0,2.0,270,3,,5.0,30.389763,,,TRUE,TRUE,,,,,,BR,CLR,,,,,,,,MVFR,,,,,,,,,,,,METAR,7.0
K4S1 240915Z AUTO 00000KT 5SM BR CLR 05/03 A3039 RMK AO2,K4S1,2023-03-24T09:15:00Z,42.42,-124.42,5.0,3.0,0,0,,5.0,30.389763,,,TRUE,TRUE,,,,,,BR,CLR,,,,,,,,MVFR,,,,,,,,,,,,METAR,7.0
K4S1 240855Z AUTO 13005KT 7SM CLR 03/02 A3038 RMK AO2,K4S1,2023-03-24T08:55:00Z,42.42,-124.42,3.0,2.0,130,5,,7.0,30.380905,,,TRUE,TRUE,,,,,,,CLR,,,,,,,,VFR,,,,,,,,,,,,METAR,7.0
K4S1 240835Z AUTO 14003KT 7SM CLR 03/02 A3038 RMK AO2,K4S1,2023-03-24T08:35:00Z,42.42,-124.42,3.0,2.0,140,3,,7.0,30.380905,,,TRUE,TRUE,,,,,,,CLR,,,,,,,,VFR,,,,,,,,,,,,METAR,7.0
K4S1 240815Z AUTO 15005KT 7SM CLR 03/02 A3037 RMK AO2,K4S1,2023-03-24T08:15:00Z,42.42,-124.42,3.0,2.0,150,5,,7.0,30.369095,,,TRUE,TRUE,,,,,,,CLR,,,,,,,,VFR,,,,,,,,,,,,METAR,7.0
K4S1 240755Z AUTO 13007KT 7SM SCT024 04/02 A3036 RMK AO2 P0002,K4S1,2023-03-24T07:55:00Z,42.42,-124.42,4.0,2.0,130,7,,7.0,30.360237,,,TRUE,TRUE,,,,,,,SCT,2400,,,,,,,VFR,,,,,,0.02,,,,,,METAR,7.0
K4S1 240735Z AUTO 23015G18KT 5SM BR CLR 04/03 A3037 RMK AO2,K4S1,2023-03-24T07:35:00Z,42.42,-124.42,4.0,3.0,230,15,18,5.0,30.369095,,,TRUE,TRUE,,,,,,BR,CLR,,,,,,,,MVFR,,,,,,,,,,,,METAR,7.0
K4S1 240715Z AUTO 14006KT 5SM BR SCT026 04/02 A3036 RMK AO2,K4S1,2023-03-24T07:15:00Z,42.42,-124.42,4.0,2.0,140,6,,5.0,30.360237,,,TRUE,TRUE,,,,,,BR,SCT,2600,,,,,,,MVFR,,,,,,,,,,,,METAR,7.0
K4S1 240655Z AUTO 05003KT 7SM SCT026 04/02 A3036 RMK AO2,K4S1,2023-03-24T06:55:00Z,42.42,-124.42,4.0,2.0,50,3,,7.0,30.360237,,,TRUE,TRUE,,,,,,,SCT,2600,,,,,,,VFR,,,,,,,,,,,,METAR,7.0
K4S1 240635Z AUTO 00000KT 7SM CLR 03/02 A3035 RMK AO2,K4S1,2023-03-24T06:35:00Z,42.42,-124.42,3.0,2.0,0,0,,7.0,30.351377,,,TRUE,TRUE,,,,,,,CLR,,,,,,,,VFR,,,,,,,,,,,,METAR,7.0
K4S1 240615Z AUTO 00000KT 7SM CLR 04/02 A3035 RMK AO2,K4S1,2023-03-24T06:15:00Z,42.42,-124.42,4.0,2.0,0,0,,7.0,30.351377,,,TRUE,TRUE,,,,,,,CLR,,,,,,,,VFR,,,,,,,,,,,,METAR,7.0
K4S1 240555Z AUTO 13006KT 5SM BR CLR 04/02 A3035 RMK AO2 P0001,K4S1,2023-03-24T05:55:00Z,42.42,-124.42,4.0,2.0,130,6,,5.0,30.351377,,,TRUE,TRUE,,,,,,BR,CLR,,,,,,,,MVFR,,,,,,0.01,,,,,,METAR,7.0
K4S1 240535Z AUTO 00000KT 5SM BR CLR 04/02 A3035 RMK AO2 P0001,K4S1,2023-03-24T05:35:00Z,42.42,-124.42,4.0,2.0,0,0,,5.0,30.351377,,,TRUE,TRUE,,,,,,BR,CLR,,,,,,,,MVFR,,,,,,0.01,,,,,,METAR,7.0
K4S1 240515Z AUTO 29004KT 7SM SCT024 SCT029 05/02 A3035 RMK AO2 P0001,K4S1,2023-03-24T05:15:00Z,42.42,-124.42,5.0,2.0,290,4,,7.0,30.351377,,,TRUE,TRUE,,,,,,,SCT,2400,SCT,2900,,,,,VFR,,,,,,0.01,,,,,,METAR,7.0
K4S1 240455Z AUTO 30013G16KT 3SM RA SCT018 BKN025 05/02 A3035 RMK AO2 P0005,K4S1,2023-03-24T04:55:00Z,42.42,-124.42,5.0,2.0,300,13,16,3.0,30.351377,,,TRUE,TRUE,,,,,,RA,SCT,1800,BKN,2500,,,,,MVFR,,,,,,0.05,,,,,,METAR,7.0
K4S1 240435Z AUTO 17010KT 7SM CLR 05/02 A3032 RMK AO2,K4S1,2023-03-24T04:35:00Z,42.42,-124.42,5.0,2.0,170,10,,7.0,30.318897,,,TRUE,TRUE,,,,,,,CLR,,,,,,,,VFR,,,,,,,,,,,,METAR,7.0
K4S1 240415Z AUTO 17007KT 5SM HZ CLR 05/02 A3031 RMK AO2,K4S1,2023-03-24T04:15:00Z,42.42,-124.42,5.0,2.0,170,7,,5.0,30.31004,,,TRUE,TRUE,,,,,,HZ,CLR,,,,,,,,MVFR,,,,,,,,,,,,METAR,7.0
K4S1 240355Z AUTO 20005KT 5SM HZ CLR 06/03 A3031 RMK AO2,K4S1,2023-03-24T03:55:00Z,42.42,-124.42,6.0,3.0,200,5,,5.0,30.31004,,,TRUE,TRUE,,,,,,HZ,CLR,,,,,,,,MVFR,,,,,,,,,,,,METAR,7.0
K4S1 240335Z AUTO 18008KT 7SM CLR 06/03 A3030 RMK AO2,K4S1,2023-03-24T03:35:00Z,42.42,-124.42,6.0,3.0,180,8,,7.0,30.301182,,,TRUE,TRUE,,,,,,,CLR,,,,,,,,VFR,,,,,,,,,,,,METAR,7.0
K4S1 240315Z AUTO 18003KT 7SM CLR 05/02 A3030 RMK AO2,K4S1,2023-03-24T03:15:00Z,42.42,-124.42,5.0,2.0,180,3,,7.0,30.301182,,,TRUE,TRUE,,,,,,,CLR,,,,,,,,VFR,,,,,,,,,,,,METAR,7.0
K4S1 240255Z AUTO 13005KT 7SM CLR 05/02 A3029 RMK AO2,K4S1,2023-03-24T02:55:00Z,42.42,-124.42,5.0,2.0,130,5,,7.0,30.28937,,,TRUE,TRUE,,,,,,,CLR,,,,,,,,VFR,,,,,,,,,,,,METAR,7.0
K4S1 240235Z AUTO 14006KT 7SM CLR 05/03 A3029 RMK AO2,K4S1,2023-03-24T02:35:00Z,42.42,-124.42,5.0,3.0,140,6,,7.0,30.28937,,,TRUE,TRUE,,,,,,,CLR,,,,,,,,VFR,,,,,,,,,,,,METAR,7.0
K4S1 240215Z AUTO 17003KT 5SM BR CLR 05/03 A3029 RMK AO2,K4S1,2023-03-24T02:15:00Z,42.42,-124.42,5.0,3.0,170,3,,5.0,30.28937,,,TRUE,TRUE,,,,,,BR,CLR,,,,,,,,MVFR,,,,,,,,,,,,METAR,7.0
K4S1 240155Z AUTO 12003KT 5SM HZ CLR 06/03 A3028 RMK AO2 P0001,K4S1,2023-03-24T01:55:00Z,42.42,-124.42,6.0,3.0,120,3,,5.0,30.280512,,,TRUE,TRUE,,,,,,HZ,CLR,,,,,,,,MVFR,,,,,,0.01,,,,,,METAR,7.0
K4S1 240135Z AUTO 14005KT 5SM HZ SCT023 SCT028 SCT033 06/02 A3029 RMK AO2 P0001,K4S1,2023-03-24T01:35:00Z,42.42,-124.42,6.0,2.0,140,5,,5.0,30.28937,,,TRUE,TRUE,,,,,,HZ,SCT,2300,SCT,2800,SCT,3300,,,MVFR,,,,,,0.01,,,,,,METAR,7.0
K4S1 240115Z AUTO 25005G17KT 5SM -RA SCT026 BKN035 06/02 A3029 RMK AO2 P0001,K4S1,2023-03-24T01:15:00Z,42.42,-124.42,6.0,2.0,250,5,17,5.0,30.28937,,,TRUE,TRUE,,,,,,-RA,SCT,2600,BKN,3500,,,,,MVFR,,,,,,0.01,,,,,,METAR,7.0
K4S1 240055Z AUTO 22010KT 4SM -RA SCT040 07/03 A3028 RMK AO2,K4S1,2023-03-24T00:55:00Z,42.42,-124.42,7.0,3.0,220,10,,4.0,30.280512,,,TRUE,TRUE,,,,,,-RA,SCT,4000,,,,,,,MVFR,,,,,,,,,,,,METAR,7.0
K4S1 240035Z AUTO 20006KT 4SM HZ CLR 07/03 A3028 RMK AO2,K4S1,2023-03-24T00:35:00Z,42.42,-124.42,7.0,3.0,200,6,,4.0,30.280512,,,TRUE,TRUE,,,,,,HZ,CLR,,,,,,,,MVFR,,,,,,,,,,,,METAR,7.0
K4S1 240015Z AUTO 20008KT 4SM HZ CLR 07/03 A3027 RMK AO2,K4S1,2023-03-24T00:15:00Z,42.42,-124.42,7.0,3.0,200,8,,4.0,30.268702,,,TRUE,TRUE,,,,,,HZ,CLR,,,,,,,,MVFR,,,,,,,,,,,,METAR,7.0
K4S1 232355Z AUTO 20008KT 4SM HZ CLR 08/04 A3027 RMK AO2,K4S1,2023-03-23T23:55:00Z,42.42,-124.42,8.0,4.0,200,8,,4.0,30.268702,,,TRUE,TRUE,,,,,,HZ,CLR,,,,,,,,MVFR,,,,,,,,,,,,METAR,7.0
K4S1 232335Z AUTO 21007KT 4SM HZ CLR 08/04 A3027 RMK AO2,K4S1,2023-03-23T23:35:00Z,42.42,-124.42,8.0,4.0,210,7,,4.0,30.268702,,,TRUE,TRUE,,,,,,HZ,CLR,,,,,,,,MVFR,,,,,,,,,,,,METAR,7.0
K4S1 232315Z AUTO 22003KT 3SM HZ CLR 08/04 A3026 RMK AO2,K4S1,2023-03-23T23:15:00Z,42.42,-124.42,8.0,4.0,220,3,,3.0,30.259842,,,TRUE,TRUE,,,,,,HZ,CLR,,,,,,,,MVFR,,,,,,,,,,,,METAR,7.0
K4S1 232255Z AUTO 00000KT 4SM HZ CLR 07/04 A3025 RMK AO2,K4S1,2023-03-23T22:55:00Z,42.42,-124.42,7.0,4.0,0,0,,4.0,30.250984,,,TRUE,TRUE,,,,,,HZ,CLR,,,,,,,,MVFR,,,,,,,,,,,,METAR,7.0
K4S1 232235Z AUTO 00000KT 4SM HZ CLR 08/05 A3025 RMK AO2,K4S1,2023-03-23T22:35:00Z,42.42,-124.42,8.0,5.0,0,0,,4.0,30.250984,,,TRUE,TRUE,,,,,,HZ,CLR,,,,,,,,MVFR,,,,,,,,,,,,METAR,7.0
K4S1 232215Z AUTO 02006KT 7SM CLR 07/06 A3024 RMK AO2,K4S1,2023-03-23T22:15:00Z,42.42,-124.42,7.0,6.0,20,6,,7.0,30.239174,,,TRUE,TRUE,,,,,,,CLR,,,,,,,,VFR,,,,,,,,,,,,METAR,7.0
K4S1 232155Z AUTO 05008KT 7SM CLR 06/05 A3023 RMK AO2,K4S1,2023-03-23T21:55:00Z,42.42,-124.42,6.0,5.0,50,8,,7.0,30.230314,,,TRUE,TRUE,,,,,,,CLR,,,,,,,,VFR,,,,,,,,,,,,METAR,7.0
K4S1 232135Z AUTO 05008KT 5SM BR CLR 07/05 A3022 RMK AO2,K4S1,2023-03-23T21:35:00Z,42.42,-124.42,7.0,5.0,50,8,,5.0,30.221457,,,TRUE,TRUE,,,,,,BR,CLR,,,,,,,,MVFR,,,,,,,,,,,,METAR,7.0
K4S1 232115Z AUTO 08003KT 5SM BR CLR 06/05 A3022 RMK AO2,K4S1,2023-03-23T21:15:00Z,42.42,-124.42,6.0,5.0,80,3,,5.0,30.221457,,,TRUE,TRUE,,,,,,BR,CLR,,,,,,,,MVFR,,,,,,,,,,,,METAR,7.0
K4S1 232055Z AUTO 07008KT 10SM -RA SCT023 05/03 A3022 RMK AO2 P0002,K4S1,2023-03-23T20:55:00Z,42.42,-124.42,5.0,3.0,70,8,,10.0,30.221457,,,TRUE,TRUE,,,,,,-RA,SCT,2300,,,,,,,VFR,,,,,,0.02,,,,,,METAR,7.0
K4S1 232035Z AUTO 06005KT 7SM RA SCT023 05/03 A3022 RMK AO2 P0002,K4S1,2023-03-23T20:35:00Z,42.42,-124.42,5.0,3.0,60,5,,7.0,30.221457,,,TRUE,TRUE,,,,,,RA,SCT,2300,,,,,,,VFR,,,,,,0.02,,,,,,METAR,7.0
K4S1 232015Z AUTO 05006KT 7SM RA SCT023 05/04 A3023 RMK AO2 P0001,K4S1,2023-03-23T20:15:00Z,42.42,-124.42,5.0,4.0,50,6,,7.0,30.230314,,,TRUE,TRUE,,,,,,RA,SCT,2300,,,,,,,VFR,,,,,,0.01,,,,,,METAR,7.0
K4S1 231955Z AUTO 11006KT 7SM RA SCT018 SCT024 05/03 A3023 RMK AO2 P0010,K4S1,2023-03-23T19:55:00Z,42.42,-124.42,5.0,3.0,110,6,,7.0,30.230314,,,TRUE,TRUE,,,,,,RA,SCT,1800,SCT,2400,,,,,VFR,,,,,,0.1,,,,,,METAR,7.0
K4S1 231935Z AUTO 32006KT 4SM RA BKN015 OVC022 05/03 A3024 RMK AO2 P0008,K4S1,2023-03-23T19:35:00Z,42.42,-124.42,5.0,3.0,320,6,,4.0,30.239174,,,TRUE,TRUE,,,,,,RA,BKN,1500,OVC,2200,,,,,MVFR,,,,,,0.08,,,,,,METAR,7.0
K4S1 231915Z AUTO 31011KT 3SM RA BKN014 OVC021 05/03 A3023 RMK AO2 P0005,K4S1,2023-03-23T19:15:00Z,42.42,-124.42,5.0,3.0,310,11,,3.0,30.230314,,,TRUE,TRUE,,,,,,RA,BKN,1400,OVC,2100,,,,,MVFR,,,,,,0.05,,,,,,METAR,7.0
K4S1 231855Z AUTO 31017G28KT 3SM RA BKN018 BKN026 BKN032 05/03 A3021 RMK AO2 P0011,K4S1,2023-03-23T18:55:00Z,42.42,-124.42,5.0,3.0,310,17,28,3.0,30.209646,,,TRUE,TRUE,,,,,,RA,BKN,1800,BKN,2600,BKN,3200,,,MVFR,,,,,,0.11,,,,,,METAR,7.0
K4S1 231835Z AUTO 18015G25KT 5SM -RA BKN020 BKN026 BKN031 07/05 A3016 RMK AO2 P0001,K4S1,2023-03-23T18:35:00Z,42.42,-124.42,7.0,5.0,180,15,25,5.0,30.159449,,,TRUE,TRUE,,,,,,-RA,BKN,2000,BKN,2600,BKN,3100,,,MVFR,,,,,,0.01,,,,,,METAR,7.0
K4S1 231815Z AUTO 17015G25KT 7SM -RA BKN024 BKN030 BKN036 07/05 A3015 RMK AO2 P0001,K4S1,2023-03-23T18:15:00Z,42.42,-124.42,7.0,5.0,170,15,25,7.0,30.15059,,,TRUE,TRUE,,,,,,-RA,BKN,2400,BKN,3000,BKN,3600,,,MVFR,,,,,,0.01,,,,,,METAR,7.0
K4S1 231755Z AUTO 16015G21KT 5SM RA SCT018 BKN026 BKN033 06/05 A3016 RMK AO2 P0004,K4S1,2023-03-23T17:55:00Z,42.42,-124.42,6.0,5.0,160,15,21,5.0,30.159449,,,TRUE,TRUE,,,,,,RA,SCT,1800,BKN,2600,BKN,3300,,,MVFR,,,,,,0.04,,,,,,METAR,7.0
K4S1 231735Z AUTO 18012G22KT 7SM -RA SCT022 SCT028 07/05 A3016 RMK AO2,K4S1,2023-03-23T17:35:00Z,42.42,-124.42,7.0,5.0,180,12,22,7.0,30.159449,,,TRUE,TRUE,,,,,,-RA,SCT,2200,SCT,2800,,,,,VFR,,,,,,,,,,,,METAR,7.0
K4S1 231715Z AUTO 18013G21KT 7SM -RA SCT030 SCT036 SCT042 07/05 A3015 RMK AO2,K4S1,2023-03-23T17:15:00Z,42.42,-124.42,7.0,5.0,180,13,21,7.0,30.15059,,,TRUE,TRUE,,,,,,-RA,SCT,3000,SCT,3600,SCT,4200,,,VFR,,,,,,,,,,,,METAR,7.0
K4S1 231655Z AUTO 17016G20KT 5SM BR SCT022 SCT028 SCT036 07/05 A3015 RMK AO2,K4S1,2023-03-23T16:55:00Z,42.42,-124.42,7.0,5.0,170,16,20,5.0,30.15059,,,TRUE,TRUE,,,,,,BR,SCT,2200,SCT,2800,SCT,3600,,,MVFR,,,,,,,,,,,,METAR,7.0
K4S1 231635Z AUTO 18014G19KT 7SM -RA SCT022 BKN027 BKN033 07/05 A3015 RMK AO2,K4S1,2023-03-23T16:35:00Z,42.42,-124.42,7.0,5.0,180,14,19,7.0,30.15059,,,TRUE,TRUE,,,,,,-RA,SCT,2200,BKN,2700,BKN,3300,,,MVFR,,,,,,,,,,,,METAR,7.0
K4S1 231615Z AUTO 17013G23KT 5SM BR BKN035 BKN044 07/05 A3014 RMK AO2,K4S1,2023-03-23T16:15:00Z,42.42,-124.42,7.0,5.0,170,13,23,5.0,30.138779,,,TRUE,TRUE,,,,,,BR,BKN,3500,BKN,4400,,,,,MVFR,,,,,,,,,,,,METAR,7.0
K4S1 231555Z AUTO 16012G16KT 5SM BR SCT023 SCT027 BKN034 07/05 A3014 RMK AO2 P0001,K4S1,2023-03-23T15:55:00Z,42.42,-124.42,7.0,5.0,160,12,16,5.0,30.138779,,,TRUE,TRUE,,,,,,BR,SCT,2300,SCT,2700,BKN,3400,,,MVFR,,,,,,0.01,,,,,,METAR,7.0
K4S1 231535Z AUTO 16010KT 7SM -RA SCT019 SCT028 BKN038 07/05 A3014 RMK AO2 P0001,K4S1,2023-03-23T15:35:00Z,42.42,-124.42,7.0,5.0,160,10,,7.0,30.138779,,,TRUE,TRUE,,,,,,-RA,SCT,1900,SCT,2800,BKN,3800,,,VFR,,,,,,0.01,,,,,,METAR,7.0
K4S1 231515Z AUTO 16009G18KT 7SM -RA SCT019 SCT026 BKN039 07/05 A3015 RMK AO2 P0001,K4S1,2023-03-23T15:15:00Z,42.42,-124.42,7.0,5.0,160,9,18,7.0,30.15059,,,TRUE,TRUE,,,,,,-RA,SCT,1900,SCT,2600,BKN,3900,,,VFR,,,,,,0.01,,,,,,METAR,7.0
K4S1 231455Z AUTO 16009KT 7SM CLR 07/05 A3015 RMK AO2,K4S1,2023-03-23T14:55:00Z,42.42,-124.42,7.0,5.0,160,9,,7.0,30.15059,,,TRUE,TRUE,,,,,,,CLR,,,,,,,,VFR,,,,,,,,,,,,METAR,7.0
K4S1 231435Z AUTO 16009G14KT 7SM CLR 07/05 A3014 RMK AO2,K4S1,2023-03-23T14:35:00Z,42.42,-124.42,7.0,5.0,160,9,14,7.0,30.138779,,,TRUE,TRUE,,,,,,,CLR,,,,,,,,VFR,,,,,,,,,,,,METAR,7.0
K4S1 231415Z AUTO 16006KT 10SM -RA SCT040 06/05 A3014 RMK AO2,K4S1,2023-03-23T14:15:00Z,42.42,-124.42,6.0,5.0,160,6,,10.0,30.138779,,,TRUE,TRUE,,,,,,-RA,SCT,4000,,,,,,,VFR,,,,,,,,,,,,METAR,7.0
K4S1 231355Z AUTO 16007KT 10SM -RA CLR 06/05 A3015 RMK AO2 P0003,K4S1,2023-03-23T13:55:00Z,42.42,-124.42,6.0,5.0,160,7,,10.0,30.15059,,,TRUE,TRUE,,,,,,-RA,CLR,,,,,,,,VFR,,,,,,0.03,,,,,,METAR,7.0
K4S1 231335Z AUTO 17007KT 10SM -RA SCT028 SCT033 06/05 A3015 RMK AO2 P0002,K4S1,2023-03-23T13:35:00Z,42.42,-124.42,6.0,5.0,170,7,,10.0,30.15059,,,TRUE,TRUE,,,,,,-RA,SCT,2800,SCT,3300,,,,,VFR,,,,,,0.02,,,,,,METAR,7.0
K4S1 231315Z AUTO 20008KT 5SM RA BKN028 OVC033 06/05 A3015 RMK AO2 P0002,K4S1,2023-03-23T13:15:00Z,42.42,-124.42,6.0,5.0,200,8,,5.0,30.15059,,,TRUE,TRUE,,,,,,RA,BKN,2800,OVC,3300,,,,,MVFR,,,,,,0.02,,,,,,METAR,7.0
K4S1 231255Z AUTO 21012KT 4SM RA SCT013 SCT018 BKN033 06/05 A3015 RMK AO2 P0005,K4S1,2023-03-23T12:55:00Z,42.42,-124.42,6.0,5.0,210,12,,4.0,30.15059,,,TRUE,TRUE,,,,,,RA,SCT,1300,SCT,1800,BKN,3300,,,MVFR,,,,,,0.05,,,,,,METAR,7.0
K4S1 231235Z AUTO 19004KT 5SM RA SCT018 SCT032 SCT041 07/05 A3014 RMK AO2 P0001,K4S1,2023-03-23T12:35:00Z,42.42,-124.42,7.0,5.0,190,4,,5.0,30.138779,,,TRUE,TRUE,,,,,,RA,SCT,1800,SCT,3200,SCT,4100,,,MVFR,,,,,,0.01,,,,,,METAR,7.0
K4S1 231215Z AUTO 20006KT 5SM -RA SCT031 SCT039 07/05 A3014 RMK AO2,K4S1,2023-03-23T12:15:00Z,42.42,-124.42,7.0,5.0,200,6,,5.0,30.138779,,,TRUE,TRUE,,,,,,-RA,SCT,3100,SCT,3900,,,,,MVFR,,,,,,,,,,,,METAR,7.0
K4S1 231155Z AUTO 21006KT 4SM BR CLR 07/06 A3014 RMK AO2,K4S1,2023-03-23T11:55:00Z,42.42,-124.42,7.0,6.0,210,6,,4.0,30.138779,,,TRUE,TRUE,,,,,,BR,CLR,,,,,,,,MVFR,,,,,,,,,,,,METAR,7.0
K4S1 231135Z AUTO 21006KT 4SM BR CLR 07/06 A3013 RMK AO2,K4S1,2023-03-23T11:35:00Z,42.42,-124.42,7.0,6.0,210,6,,4.0,30.129921,,,TRUE,TRUE,,,,,,BR,CLR,,,,,,,,MVFR,,,,,,,,,,,,METAR,7.0
K4S1 231115Z AUTO 19004KT 5SM BR CLR 07/06 A3014 RMK AO2,K4S1,2023-03-23T11:15:00Z,42.42,-124.42,7.0,6.0,190,4,,5.0,30.138779,,,TRUE,TRUE,,,,,,BR,CLR,,,,,,,,MVFR,,,,,,,,,,,,METAR,7.0
K4S1 231055Z AUTO 18005KT 4SM BR CLR 07/06 A3014 RMK AO2,K4S1,2023-03-23T10:55:00Z,42.42,-124.42,7.0,6.0,180,5,,4.0,30.138779,,,TRUE,TRUE,,,,,,BR,CLR,,,,,,,,MVFR,,,,,,,,,,,,METAR,7.0
K4S1 231035Z AUTO 17007KT 7SM CLR 07/06 A3014 RMK AO2,K4S1,2023-03-23T10:35:00Z,42.42,-124.42,7.0,6.0,170,7,,7.0,30.138779,,,TRUE,TRUE,,,,,,,CLR,,,,,,,,VFR,,,,,,,,,,,,METAR,7.0
K4S1 231015Z AUTO 18006KT 3SM BR CLR 07/06 A3014 RMK AO2,K4S1,2023-03-23T10:15:00Z,42.42,-124.42,7.0,6.0,180,6,,3.0,30.138779,,,TRUE,TRUE,,,,,,BR,CLR,,,,,,,,MVFR,,,,,,,,,,,,METAR,7.0
K4S1 230955Z AUTO 16003KT 7SM CLR 06/05 A3013 RMK AO2,K4S1,2023-03-23T09:55:00Z,42.42,-124.42,6.0,5.0,160,3,,7.0,30.129921,,,TRUE,TRUE,,,,,,,CLR,,,,,,,,VFR,,,,,,,,,,,,METAR,7.0
K4S1 230935Z AUTO 15003KT 7SM CLR 06/05 A3013 RMK AO2,K4S1,2023-03-23T09:35:00Z,42.42,-124.42,6.0,5.0,150,3,,7.0,30.129921,,,TRUE,TRUE,,,,,,,CLR,,,,,,,,VFR,,,,,,,,,,,,METAR,7.0
K4S1 230915Z AUTO 16003KT 7SM CLR 06/05 A3013 RMK AO2,K4S1,2023-03-23T09:15:00Z,42.42,-124.42,6.0,5.0,160,3,,7.0,30.129921,,,TRUE,TRUE,,,,,,,CLR,,,,,,,,VFR,,,,,,,,,,,,METAR,7.0
K4S1 230855Z AUTO 15004KT 5SM BR CLR 06/05 A3012 RMK AO2,K4S1,2023-03-23T08:55:00Z,42.42,-124.42,6.0,5.0,150,4,,5.0,30.121063,,,TRUE,TRUE,,,,,,BR,CLR,,,,,,,,MVFR,,,,,,,,,,,,METAR,7.0
K4S1 230835Z AUTO 15004KT 7SM CLR 06/05 A3012 RMK AO2,K4S1,2023-03-23T08:35:00Z,42.42,-124.42,6.0,5.0,150,4,,7.0,30.121063,,,TRUE,TRUE,,,,,,,CLR,,,,,,,,VFR,,,,,,,,,,,,METAR,7.0
K4S1 230815Z AUTO 13003KT 7SM CLR 06/06 A3012 RMK AO2,K4S1,2023-03-23T08:15:00Z,42.42,-124.42,6.0,6.0,130,3,,7.0,30.121063,,,TRUE,TRUE,,,,,,,CLR,,,,,,,,VFR,,,,,,,,,,,,METAR,7.0
K4S1 230755Z AUTO 13003KT 7SM CLR 06/05 A3012 RMK AO2,K4S1,2023-03-23T07:55:00Z,42.42,-124.42,6.0,5.0,130,3,,7.0,30.121063,,,TRUE,TRUE,,,,,,,CLR,,,,,,,,VFR,,,,,,,,,,,,METAR,7.0
K4S1 230735Z AUTO 00000KT 7SM CLR 06/05 A3012 RMK AO2,K4S1,2023-03-23T07:35:00Z,42.42,-124.42,6.0,5.0,0,0,,7.0,30.121063,,,TRUE,TRUE,,,,,,,CLR,,,,,,,,VFR,,,,,,,,,,,,METAR,7.0
K4S1 230715Z AUTO 13003KT 7SM CLR 07/06 A3012 RMK AO2,K4S1,2023-03-23T07:15:00Z,42.42,-124.42,7.0,6.0,130,3,,7.0,30.121063,,,TRUE,TRUE,,,,,,,CLR,,,,,,,,VFR,,,,,,,,,,,,METAR,7.0
K4S1 230655Z AUTO 15003KT 5SM BR CLR 07/06 A3011 RMK AO2,K4S1,2023-03-23T06:55:00Z,42.42,-124.42,7.0,6.0,150,3,,5.0,30.109253,,,TRUE,TRUE,,,,,,BR,CLR,,,,,,,,MVFR,,,,,,,,,,,,METAR,7.0
K4S1 230635Z AUTO 15003KT 7SM CLR 07/06 A3011 RMK AO2,K4S1,2023-03-23T06:35:00Z,42.42,-124.42,7.0,6.0,150,3,,7.0,30.109253,,,TRUE,TRUE,,,,,,,CLR,,,,,,,,VFR,,,,,,,,,,,,METAR,7.0
K4S1 230615Z AUTO 12003KT 7SM CLR 07/06 A3011 RMK AO2,K4S1,2023-03-23T06:15:00Z,42.42,-124.42,7.0,6.0,120,3,,7.0,30.109253,,,TRUE,TRUE,,,,,,,CLR,,,,,,,,VFR,,,,,,,,,,,,METAR,7.0
K4S1 230555Z AUTO 12003KT 5SM BR SCT018 SCT028 07/06 A3011 RMK AO2 P0001,K4S1,2023-03-23T05:55:00Z,42.42,-124.42,7.0,6.0,120,3,,5.0,30.109253,,,TRUE,TRUE,,,,,,BR,SCT,1800,SCT,2800,,,,,MVFR,,,,,,0.01,,,,,,METAR,7.0
K4S1 230535Z AUTO 00000KT 3SM -RA SCT008 SCT012 BKN018 07/06 A3010 RMK AO2 P0001,K4S1,2023-03-23T05:35:00Z,42.42,-124.42,7.0,6.0,0,0,,3.0,30.100393,,,TRUE,TRUE,,,,,,-RA,SCT,800,SCT,1200,BKN,1800,,,MVFR,,,,,,0.01,,,,,,METAR,7.0
K4S1 230515Z AUTO 00000KT 5SM BR SCT013 SCT018 07/06 A3009 RMK AO2,K4S1,2023-03-23T05:15:00Z,42.42,-124.42,7.0,6.0,0,0,,5.0,30.088583,,,TRUE,TRUE,,,,,,BR,SCT,1300,SCT,1800,,,,,MVFR,,,,,,,,,,,,METAR,7.0
K4S1 230455Z AUTO 00000KT 7SM -RA CLR 07/06 A3009 RMK AO2 P0002,K4S1,2023-03-23T04:55:00Z,42.42,-124.42,7.0,6.0,0,0,,7.0,30.088583,,,TRUE,TRUE,,,,,,-RA,CLR,,,,,,,,VFR,,,,,,0.02,,,,,,METAR,7.0
K4S1 230435Z AUTO 12003KT 7SM -RA SCT004 SCT014 07/07 A3008 RMK AO2 P0002,K4S1,2023-03-23T04:35:00Z,42.42,-124.42,7.0,7.0,120,3,,7.0,30.079725,,,TRUE,TRUE,,,,,,-RA,SCT,400,SCT,1400,,,,,VFR,,,,,,0.02,,,,,,METAR,7.0
K4S1 230415Z AUTO 00000KT 2 1/2SM -RA SCT004 SCT016 SCT024 07/07 A3007 RMK AO2 P0001,K4S1,2023-03-23T04:15:00Z,42.42,-124.42,7.0,7.0,0,0,,2.5,30.070866,,,TRUE,TRUE,,,,,,-RA,SCT,400,SCT,1600,SCT,2400,,,IFR,,,,,,0.01,,,,,,METAR,7.0
K4S1 230355Z AUTO 00000KT 3SM RA SCT018 SCT024 07/07 A3006 RMK AO2 P0002,K4S1,2023-03-23T03:55:00Z,42.42,-124.42,7.0,7.0,0,0,,3.0,30.059055,,,TRUE,TRUE,,,,,,RA,SCT,1800,SCT,2400,,,,,MVFR,,,,,,0.02,,,,,,METAR,7.0
K4S1 230335Z AUTO 00000KT 3SM -RA SCT003 SCT010 SCT015 07/06 A3006 RMK AO2 P0001,K4S1,2023-03-23T03:35:00Z,42.42,-124.42,7.0,6.0,0,0,,3.0,30.059055,,,TRUE,TRUE,,,,,,-RA,SCT,300,SCT,1000,SCT,1500,,,MVFR,,,,,,0.01,,,,,,METAR,7.0
K4S1 230315Z AUTO 00000KT 1 3/4SM -RA BKN005 OVC009 07/06 A3006 RMK AO2,K4S1,2023-03-23T03:15:00Z,42.42,-124.42,7.0,6.0,0,0,,1.75,30.059055,,,TRUE,TRUE,,,,,,-RA,BKN,500,OVC,900,,,,,IFR,,,,,,,,,,,,METAR,7.0
K4S1 230255Z AUTO 30005KT 2SM -RA BKN005 OVC009 07/06 A3005 RMK AO2,K4S1,2023-03-23T02:55:00Z,42.42,-124.42,7.0,6.0,300,5,,2.0,30.050198,,,TRUE,TRUE,,,,,,-RA,BKN,500,OVC,900,,,,,IFR,,,,,,,,,,,,METAR,7.0
K4S1 230235Z AUTO 32005KT 3SM RA SCT006 SCT009 OVC016 07/06 A3004 RMK AO2,K4S1,2023-03-23T02:35:00Z,42.42,-124.42,7.0,6.0,320,5,,3.0,30.041338,,,TRUE,TRUE,,,,,,RA,SCT,600,SCT,900,OVC,1600,,,MVFR,,,,,,,,,,,,METAR,7.0
K4S1 230215Z AUTO 30006KT 4SM -RA BKN007 BKN016 08/07 A3004 RMK AO2,K4S1,2023-03-23T02:15:00Z,42.42,-124.42,8.0,7.0,300,6,,4.0,30.041338,,,TRUE,TRUE,,,,,,-RA,BKN,700,BKN,1600,,,,,IFR,,,,,,,,,,,,METAR,7.0
K4S1 230155Z AUTO 31006KT 4SM BR CLR 08/06 A3004 RMK AO2,K4S1,2023-03-23T01:55:00Z,42.42,-124.42,8.0,6.0,310,6,,4.0,30.041338,,,TRUE,TRUE,,,,,,BR,CLR,,,,,,,,MVFR,,,,,,,,,,,,METAR,7.0
K4S1 230135Z AUTO 31004KT 3SM BR CLR 08/07 A3003 RMK AO2,K4S1,2023-03-23T01:35:00Z,42.42,-124.42,8.0,7.0,310,4,,3.0,30.029528,,,TRUE,TRUE,,,,,,BR,CLR,,,,,,,,MVFR,,,,,,,,,,,,METAR,7.0
K4S1 230115Z AUTO 31004KT 3SM BR CLR 08/07 A3003 RMK AO2,K4S1,2023-03-23T01:15:00Z,42.42,-124.42,8.0,7.0,310,4,,3.0,30.029528,,,TRUE,TRUE,,,,,,BR,CLR,,,,,,,,MVFR,,,,,,,,,,,,METAR,7.0
K4S1 230055Z AUTO 31005KT 3SM BR CLR 08/07 A3003 RMK AO2,K4S1,2023-03-23T00:55:00Z,42.42,-124.42,8.0,7.0,310,5,,3.0,30.029528,,,TRUE,TRUE,,,,,,BR,CLR,,,,,,,,MVFR,,,,,,,,,,,,METAR,7.0
K4S1 230035Z AUTO 31008KT 4SM BR CLR 08/07 A3002 RMK AO2,K4S1,2023-03-23T00:35:00Z,42.42,-124.42,8.0,7.0,310,8,,4.0,30.02067,,,TRUE,TRUE,,,,,,BR,CLR,,,,,,,,MVFR,,,,,,,,,,,,METAR,7.0
K4S1 230015Z AUTO 32008KT 4SM BR CLR 08/07 A3002 RMK AO2,K4S1,2023-03-23T00:15:00Z,42.42,-124.42,8.0,7.0,320,8,,4.0,30.02067,,,TRUE,TRUE,,,,,,BR,CLR,,,,,,,,MVFR,,,,,,,,,,,,METAR,7.0
K4S1 222355Z AUTO 32008KT 4SM BR CLR 08/07 A3001 RMK AO2,K4S1,2023-03-22T23:55:00Z,42.42,-124.42,8.0,7.0,320,8,,4.0,30.008858,,,TRUE,TRUE,,,,,,BR,CLR,,,,,,,,MVFR,,,,,,,,,,,,METAR,7.0
K4S1 222335Z AUTO 32008KT 4SM BR CLR 08/07 A3001 RMK AO2,K4S1,2023-03-22T23:35:00Z,42.42,-124.42,8.0,7.0,320,8,,4.0,30.008858,,,TRUE,TRUE,,,,,,BR,CLR,,,,,,,,MVFR,,,,,,,,,,,,METAR,7.0
K4S1 222315Z AUTO 31009KT 4SM BR CLR 08/07 A3000 RMK AO2,K4S1,2023-03-22T23:15:00Z,42.42,-124.42,8.0,7.0,310,9,,4.0,30.0,,,TRUE,TRUE,,,,,,BR,CLR,,,,,,,,MVFR,,,,,,,,,,,,METAR,7.0
K4S1 222255Z AUTO 30009KT 3SM BR CLR 08/07 A2999 RMK AO2,K4S1,2023-03-22T22:55:00Z,42.42,-124.42,8.0,7.0,300,9,,3.0,29.991142,,,TRUE,TRUE,,,,,,BR,CLR,,,,,,,,MVFR,,,,,,,,,,,,METAR,7.0
K4S1 222235Z AUTO 31008KT 3SM BR CLR 08/07 A2999 RMK AO2,K4S1,2023-03-22T22:35:00Z,42.42,-124.42,8.0,7.0,310,8,,3.0,29.991142,,,TRUE,TRUE,,,,,,BR,CLR,,,,,,,,MVFR,,,,,,,,,,,,METAR,7.0
K4S1 222215Z AUTO 31007KT 2 1/2SM BR CLR 08/07 A2998 RMK AO2 VIS 1 1/4V4,K4S1,2023-03-22T22:15:00Z,42.42,-124.42,8.0,7.0,310,7,,2.5,29.97933,,,TRUE,TRUE,,,,,,BR,CLR,,,,,,,,IFR,,,,,,,,,,,,METAR,7.0
K4S1 222155Z AUTO 32008KT 3SM BR CLR 09/07 A2998 RMK AO2,K4S1,2023-03-22T21:55:00Z,42.42,-124.42,9.0,7.0,320,8,,3.0,29.97933,,,TRUE,TRUE,,,,,,BR,CLR,,,,,,,,MVFR,,,,,,,,,,,,METAR,7.0
K4S1 222135Z AUTO 32009KT 3SM BR CLR 09/07 A2997 RMK AO2,K4S1,2023-03-22T21:35:00Z,42.42,-124.42,9.0,7.0,320,9,,3.0,29.970472,,,TRUE,TRUE,,,,,,BR,CLR,,,,,,,,MVFR,,,,,,,,,,,,METAR,7.0
K4S1 222115Z AUTO 33008KT 4SM BR CLR 10/07 A2996 RMK AO2,K4S1,2023-03-22T21:15:00Z,42.42,-124.42,10.0,7.0,330,8,,4.0,29.958662,,,TRUE,TRUE,,,,,,BR,CLR,,,,,,,,MVFR,,,,,,,,,,,,METAR,7.0
K4S1 222055Z AUTO 33008KT 4SM BR CLR 10/08 A2996 RMK AO2,K4S1,2023-03-22T20:55:00Z,42.42,-124.42,10.0,8.0,330,8,,4.0,29.958662,,,TRUE,TRUE,,,,,,BR,CLR,,,,,,,,MVFR,,,,,,,,,,,,METAR,7.0
K4S1 222035Z AUTO 33008KT 3SM BR CLR 10/08 A2995 RMK AO2,K4S1,2023-03-22T20:35:00Z,42.42,-124.42,10.0,8.0,330,8,,3.0,29.949802,,,TRUE,TRUE,,,,,,BR,CLR,,,,,,,,MVFR,,,,,,,,,,,,METAR,7.0
K4S1 222015Z AUTO 34010KT 4SM BR CLR 10/07 A2994 RMK AO2,K4S1,2023-03-22T20:15:00Z,42.42,-124.42,10.0,7.0,340,10,,4.0,29.940945,,,TRUE,TRUE,,,,,,BR,CLR,,,,,,,,MVFR,,,,,,,,,,,,METAR,7.0
K4S1 221955Z AUTO 33009KT 3SM BR CLR 10/08 A2993 RMK AO2,K4S1,2023-03-22T19:55:00Z,42.42,-124.42,10.0,8.0,330,9,,3.0,29.929134,,,TRUE,TRUE,,,,,,BR,CLR,,,,,,,,MVFR,,,,,,,,,,,,METAR,7.0
K4S1 221935Z AUTO 33007KT 4SM BR CLR 10/08 A2992 RMK AO2,K4S1,2023-03-22T19:35:00Z,42.42,-124.42,10.0,8.0,330,7,,4.0,29.920275,,,TRUE,TRUE,,,,,,BR,CLR,,,,,,,,MVFR,,,,,,,,,,,,METAR,7.0
K4S1 221915Z AUTO 34005KT 4SM BR CLR 10/07 A2991 RMK AO2,K4S1,2023-03-22T19:15:00Z,42.42,-124.42,10.0,7.0,340,5,,4.0,29.911417,,,TRUE,TRUE,,,,,,BR,CLR,,,,,,,,MVFR,,,,,,,,,,,,METAR,7.0
K4S1 221855Z AUTO 32005KT 2 1/2SM BR 10/08 A2991 RMK AO2,K4S1,2023-03-22T18:55:00Z,42.42,-124.42,10.0,8.0,320,5,,2.5,29.911417,,,TRUE,TRUE,,,,,,BR,,,,,,,,,,,,,,,,,,,,,METAR,7.0
K4S1 221835Z AUTO 33004KT 3SM BR 10/07 A2990 RMK AO2,K4S1,2023-03-22T18:35:00Z,42.42,-124.42,10.0,7.0,330,4,,3.0,29.899607,,,TRUE,TRUE,,,,,,BR,,,,,,,,,,,,,,,,,,,,,METAR,7.0
K4S1 221815Z AUTO 34004KT 3SM BR CLR 10/07 A2988 RMK AO2,K4S1,2023-03-22T18:15:00Z,42.42,-124.42,10.0,7.0,340,4,,3.0,29.878937,,,TRUE,TRUE,,,,,,BR,CLR,,,,,,,,MVFR,,,,,,,,,,,,METAR,7.0
K4S1 221755Z AUTO 33003KT 5SM BR CLR 09/07 A2988 RMK AO2,K4S1,2023-03-22T17:55:00Z,42.42,-124.42,9.0,7.0,330,3,,5.0,29.878937,,,TRUE,TRUE,,,,,,BR,CLR,,,,,,,,MVFR,,,,,,,,,,,,METAR,7.0
K4S1 221735Z AUTO 00000KT 5SM BR CLR 08/06 A2987 RMK AO2,K4S1,2023-03-22T17:35:00Z,42.42,-124.42,8.0,6.0,0,0,,5.0,29.870079,,,TRUE,TRUE,,,,,,BR,CLR,,,,,,,,MVFR,,,,,,,,,,,,METAR,7.0
K4S1 221715Z AUTO 02003KT 5SM HZ CLR 08/06 A2986 RMK AO2,K4S1,2023-03-22T17:15:00Z,42.42,-124.42,8.0,6.0,20,3,,5.0,29.861221,,,TRUE,TRUE,,,,,,HZ,CLR,,,,,,,,MVFR,,,,,,,,,,,,METAR,7.0
K4S1 221655Z AUTO 03004KT 5SM HZ CLR 08/06 A2985 RMK AO2,K4S1,2023-03-22T16:55:00Z,42.42,-124.42,8.0,6.0,30,4,,5.0,29.84941,,,TRUE,TRUE,,,,,,HZ,CLR,,,,,,,,MVFR,,,,,,,,,,,,METAR,7.0
K4S1 221635Z AUTO 03006KT 5SM BR CLR 08/06 A2984 RMK AO2,K4S1,2023-03-22T16:35:00Z,42.42,-124.42,8.0,6.0,30,6,,5.0,29.840551,,,TRUE,TRUE,,,,,,BR,CLR,,,,,,,,MVFR,,,,,,,,,,,,METAR,7.0
K4S1 221615Z AUTO 04007KT 5SM BR CLR 07/05 A2983 RMK AO2,K4S1,2023-03-22T16:15:00Z,42.42,-124.42,7.0,5.0,40,7,,5.0,29.828741,,,TRUE,TRUE,,,,,,BR,CLR,,,,,,,,MVFR,,,,,,,,,,,,METAR,7.0
K4S1 221555Z AUTO 05008KT 7SM CLR 06/05 A2982 RMK AO2,K4S1,2023-03-22T15:55:00Z,42.42,-124.42,6.0,5.0,50,8,,7.0,29.819881,,,TRUE,TRUE,,,,,,,CLR,,,,,,,,VFR,,,,,,,,,,,,METAR,7.0
K4S1 221535Z AUTO 05008KT 7SM CLR 06/04 A2981 RMK AO2,K4S1,2023-03-22T15:35:00Z,42.42,-124.42,6.0,4.0,50,8,,7.0,29.811024,,,TRUE,TRUE,,,,,,,CLR,,,,,,,,VFR,,,,,,,,,,,,METAR,7.0
K4S1 221515Z AUTO 05006KT 5SM BR CLR 06/04 A2980 RMK AO2,K4S1,2023-03-22T15:15:00Z,42.42,-124.42,6.0,4.0,50,6,,5.0,29.799213,,,TRUE,TRUE,,,,,,BR,CLR,,,,,,,,MVFR,,,,,,,,,,,,METAR,7.0
K4S1 221455Z AUTO 05004KT 7SM CLR 06/04 A2978 RMK AO2,K4S1,2023-03-22T14:55:00Z,42.42,-124.42,6.0,4.0,50,4,,7.0,29.778543,,,TRUE,TRUE,,,,,,,CLR,,,,,,,,VFR,,,,,,,,,,,,METAR,7.0
K4S1 221435Z AUTO 05005KT 10SM CLR 05/03 A2977 RMK AO2,K4S1,2023-03-22T14:35:00Z,42.42,-124.42,5.0,3.0,50,5,,10.0,29.769686,,,TRUE,TRUE,,,,,,,CLR,,,,,,,,VFR,,,,,,,,,,,,METAR,7.0
K4S1 221415Z AUTO 05003KT 7SM CLR 06/04 A2975 RMK AO2,K4S1,2023-03-22T14:15:00Z,42.42,-124.42,6.0,4.0,50,3,,7.0,29.749016,,,TRUE,TRUE,,,,,,,CLR,,,,,,,,VFR,,,,,,,,,,,,METAR,7.0
K4S1 221355Z AUTO 04007KT 7SM CLR 06/04 A2975 RMK AO2,K4S1,2023-03-22T13:55:00Z,42.42,-124.42,6.0,4.0,40,7,,7.0,29.749016,,,TRUE,TRUE,,,,,,,CLR,,,,,,,,VFR,,,,,,,,,,,,METAR,7.0
K4S1 221335Z AUTO 05003KT 7SM CLR 05/04 A2974 RMK AO2,K4S1,2023-03-22T13:35:00Z,42.42,-124.42,5.0,4.0,50,3,,7.0,29.740158,,,TRUE,TRUE,,,,,,,CLR,,,,,,,,VFR,,,,,,,,,,,,METAR,7.0
K4S1 221315Z AUTO 00000KT 5SM BR CLR 06/04 A2973 RMK AO2,K4S1,2023-03-22T13:15:00Z,42.42,-124.42,6.0,4.0,0,0,,5.0,29.731298,,,TRUE,TRUE,,,,,,BR,CLR,,,,,,,,MVFR,,,,,,,,,,,,METAR,7.0
K4S1 221255Z AUTO 13003KT 10SM CLR 05/03 A2972 RMK AO2,K4S1,2023-03-22T12:55:00Z,42.42,-124.42,5.0,3.0,130,3,,10.0,29.719488,,,TRUE,TRUE,,,,,,,CLR,,,,,,,,VFR,,,,,,,,,,,,METAR,7.0
K4S1 221235Z AUTO 00000KT 7SM CLR 05/03 A2971 RMK AO2,K4S1,2023-03-22T12:35:00Z,42.42,-124.42,5.0,3.0,0,0,,7.0,29.71063,,,TRUE,TRUE,,,,,,,CLR,,,,,,,,VFR,,,,,,,,,,,,METAR,7.0
K4S1 221215Z AUTO 00000KT 7SM CLR 05/03 A2970 RMK AO2,K4S1,2023-03-22T12:15:00Z,42.42,-124.42,5.0,3.0,0,0,,7.0,29.698818,,,TRUE,TRUE,,,,,,,CLR,,,,,,,,VFR,,,,,,,,,,,,METAR,7.0
K4S1 221155Z AUTO 04005KT 7SM CLR 05/03 A2969 RMK AO2,K4S1,2023-03-22T11:55:00Z,42.42,-124.42,5.0,3.0,40,5,,7.0,29.68996,,,TRUE,TRUE,,,,,,,CLR,,,,,,,,VFR,,,,,,,,,,,,METAR,7.0
K4S1 221135Z AUTO 02003KT 7SM CLR 06/05 A2968 RMK AO2,K4S1,2023-03-22T11:35:00Z,42.42,-124.42,6.0,5.0,20,3,,7.0,29.681103,,,TRUE,TRUE,,,,,,,CLR,,,,,,,,VFR,,,,,,,,,,,,METAR,7.0
K4S1 221115Z AUTO 05005KT 7SM CLR 05/03 A2967 RMK AO2,K4S1,2023-03-22T11:15:00Z,42.42,-124.42,5.0,3.0,50,5,,7.0,29.66929,,,TRUE,TRUE,,,,,,,CLR,,,,,,,,VFR,,,,,,,,,,,,METAR,7.0
K4S1 221055Z AUTO 00000KT 7SM SCT002 05/04 A2967 RMK AO2,K4S1,2023-03-22T10:55:00Z,42.42,-124.42,5.0,4.0,0,0,,7.0,29.66929,,,TRUE,TRUE,,,,,,,SCT,200,,,,,,,VFR,,,,,,,,,,,,METAR,7.0
K4S1 221035Z AUTO 00000KT 7SM CLR 06/04 A2966 RMK AO2,K4S1,2023-03-22T10:35:00Z,42.42,-124.42,6.0,4.0,0,0,,7.0,29.660433,,,TRUE,TRUE,,,,,,,CLR,,,,,,,,VFR,,,,,,,,,,,,METAR,7.0
K4S1 221015Z AUTO 00000KT 7SM CLR 06/04 A2965 RMK AO2,K4S1,2023-03-22T10:15:00Z,42.42,-124.42,6.0,4.0,0,0,,7.0,29.648623,,,TRUE,TRUE,,,,,,,CLR,,,,,,,,VFR,,,,,,,,,,,,METAR,7.0
K4S1 220955Z AUTO 02004KT 7SM CLR 06/05 A2964 RMK AO2,K4S1,2023-03-22T09:55:00Z,42.42,-124.42,6.0,5.0,20,4,,7.0,29.639763,,,TRUE,TRUE,,,,,,,CLR,,,,,,,,VFR,,,,,,,,,,,,METAR,7.0
K4S1 220935Z AUTO 04004KT 7SM CLR 06/05 A2963 RMK AO2,K4S1,2023-03-22T09:35:00Z,42.42,-124.42,6.0,5.0,40,4,,7.0,29.630905,,,TRUE,TRUE,,,,,,,CLR,,,,,,,,VFR,,,,,,,,,,,,METAR,7.0
K4S1 220915Z AUTO 03005KT 7SM CLR 06/05 A2962 RMK AO2,K4S1,2023-03-22T09:15:00Z,42.42,-124.42,6.0,5.0,30,5,,7.0,29.619095,,,TRUE,TRUE,,,,,,,CLR,,,,,,,,VFR,,,,,,,,,,,,METAR,7.0
K4S1 220855Z AUTO 04004KT 7SM CLR 07/05 A2961 RMK AO2,K4S1,2023-03-22T08:55:00Z,42.42,-124.42,7.0,5.0,40,4,,7.0,29.610237,,,TRUE,TRUE,,,,,,,CLR,,,,,,,,VFR,,,,,,,,,,,,METAR,7.0
K4S1 220835Z AUTO 03004KT 7SM CLR 07/05 A2960 RMK AO2,K4S1,2023-03-22T08:35:00Z,42.42,-124.42,7.0,5.0,30,4,,7.0,29.601377,,,TRUE,TRUE,,,,,,,CLR,,,,,,,,VFR,,,,,,,,,,,,METAR,7.0
K4S1 220815Z AUTO 05004KT 7SM CLR 07/05 A2960 RMK AO2,K4S1,2023-03-22T08:15:00Z,42.42,-124.42,7.0,5.0,50,4,,7.0,29.601377,,,TRUE,TRUE,,,,,,,CLR,,,,,,,,VFR,,,,,,,,,,,,METAR,7.0
K4S1 220755Z AUTO 36005KT 7SM CLR 08/06 A2959 RMK AO2,K4S1,2023-03-22T07:55:00Z,42.42,-124.42,8.0,6.0,360,5,,7.0,29.589567,,,TRUE,TRUE,,,,,,,CLR,,,,,,,,VFR,,,,,,,,,,,,METAR,7.0
K4S1 220735Z AUTO 01007KT 7SM CLR 08/06 A2959 RMK AO2,K4S1,2023-03-22T07:35:00Z,42.42,-124.42,8.0,6.0,10,7,,7.0,29.589567,,,TRUE,TRUE,,,,,,,CLR,,,,,,,,VFR,,,,,,,,,,,,METAR,7.0
K4S1 220715Z AUTO 36008KT 7SM CLR 09/06 A2957 RMK AO2,K4S1,2023-03-22T07:15:00Z,42.42,-124.42,9.0,6.0,360,8,,7.0,29.568897,,,TRUE,TRUE,,,,,,,CLR,,,,,,,,VFR,,,,,,,,,,,,METAR,7.0
K4S1 220655Z AUTO 35005KT 7SM CLR 09/06 A2957 RMK AO2,K4S1,2023-03-22T06:55:00Z,42.42,-124.42,9.0,6.0,350,5,,7.0,29.568897,,,TRUE,TRUE,,,,,,,CLR,,,,,,,,VFR,,,,,,,,,,,,METAR,7.0
K4S1 220635Z AUTO 00000KT 7SM CLR 08/05 A2956 RMK AO2,K4S1,2023-03-22T06:35:00Z,42.42,-124.42,8.0,5.0,0,0,,7.0,29.56004,,,TRUE,TRUE,,,,,,,CLR,,,,,,,,VFR,,,,,,,,,,,,METAR,7.0
K4S1 220615Z AUTO 03006KT 7SM CLR 09/06 A2955 RMK AO2,K4S1,2023-03-22T06:15:00Z,42.42,-124.42,9.0,6.0,30,6,,7.0,29.551182,,,TRUE,TRUE,,,,,,,CLR,,,,,,,,VFR,,,,,,,,,,,,METAR,7.0
K4S1 220555Z AUTO 02007KT 7SM CLR 09/05 A2955 RMK AO2,K4S1,2023-03-22T05:55:00Z,42.42,-124.42,9.0,5.0,20,7,,7.0,29.551182,,,TRUE,TRUE,,,,,,,CLR,,,,,,,,VFR,,,,,,,,,,,,METAR,7.0
K4S1 220535Z AUTO 02008KT 7SM CLR 10/05 A2953 RMK AO2,K4S1,2023-03-22T05:35:00Z,42.42,-124.42,10.0,5.0,20,8,,7.0,29.530512,,,TRUE,TRUE,,,,,,,CLR,,,,,,,,VFR,,,,,,,,,,,,METAR,7.0
K4S1 220515Z AUTO 36008KT 7SM CLR 10/06 A2953 RMK AO2,K4S1,2023-03-22T05:15:00Z,42.42,-124.42,10.0,6.0,360,8,,7.0,29.530512,,,TRUE,TRUE,,,,,,,CLR,,,,,,,,VFR,,,,,,,,,,,,METAR,7.0
K4S1 220455Z AUTO 01009KT 7SM CLR 10/06 A2952 RMK AO2,K4S1,2023-03-22T04:55:00Z,42.42,-124.42,10.0,6.0,10,9,,7.0,29.518702,,,TRUE,TRUE,,,,,,,CLR,,,,,,,,VFR,,,,,,,,,,,,METAR,7.0
K4S1 220435Z AUTO 36012G16KT 7SM CLR 10/06 A2951 RMK AO2,K4S1,2023-03-22T04:35:00Z,42.42,-124.42,10.0,6.0,360,12,16,7.0,29.509842,,,TRUE,TRUE,,,,,,,CLR,,,,,,,,VFR,,,,,,,,,,,,METAR,7.0
K4S1 220415Z AUTO 03007KT 7SM CLR 09/06 A2951 RMK AO2,K4S1,2023-03-22T04:15:00Z,42.42,-124.42,9.0,6.0,30,7,,7.0,29.509842,,,TRUE,TRUE,,,,,,,CLR,,,,,,,,VFR,,,,,,,,,,,,METAR,7.0
K4S1 220355Z AUTO 02010KT 7SM CLR 10/06 A2950 RMK AO2,K4S1,2023-03-22T03:55:00Z,42.42,-124.42,10.0,6.0,20,10,,7.0,29.500984,,,TRUE,TRUE,,,,,,,CLR,,,,,,,,VFR,,,,,,,,,,,,METAR,7.0
K4S1 220335Z AUTO 02009KT 7SM CLR 11/06 A2950 RMK AO2,K4S1,2023-03-22T03:35:00Z,42.42,-124.42,11.0,6.0,20,9,,7.0,29.500984,,,TRUE,TRUE,,,,,,,CLR,,,,,,,,VFR,,,,,,,,,,,,METAR,7.0
K4S1 220315Z AUTO 05009KT 7SM CLR 11/06 A2949 RMK AO2,K4S1,2023-03-22T03:15:00Z,42.42,-124.42,11.0,6.0,50,9,,7.0,29.489174,,,TRUE,TRUE,,,,,,,CLR,,,,,,,,VFR,,,,,,,,,,,,METAR,7.0
K4S1 220255Z AUTO 04004G14KT 7SM CLR 11/06 A2949 RMK AO2,K4S1,2023-03-22T02:55:00Z,42.42,-124.42,11.0,6.0,40,4,14,7.0,29.489174,,,TRUE,TRUE,,,,,,,CLR,,,,,,,,VFR,,,,,,,,,,,,METAR,7.0
K4S1 220235Z AUTO 03012G22KT 7SM CLR 11/06 A2948 RMK AO2,K4S1,2023-03-22T02:35:00Z,42.42,-124.42,11.0,6.0,30,12,22,7.0,29.480314,,,TRUE,TRUE,,,,,,,CLR,,,,,,,,VFR,,,,,,,,,,,,METAR,7.0
K4S1 220215Z AUTO 36016G21KT 5SM HZ CLR 11/07 A2947 RMK AO2,K4S1,2023-03-22T02:15:00Z,42.42,-124.42,11.0,7.0,360,16,21,5.0,29.471457,,,TRUE,TRUE,,,,,,HZ,CLR,,,,,,,,MVFR,,,,,,,,,,,,METAR,7.0
K4S1 220155Z AUTO 35013G21KT 4SM HZ CLR 11/07 A2946 RMK AO2,K4S1,2023-03-22T01:55:00Z,42.42,-124.42,11.0,7.0,350,13,21,4.0,29.459646,,,TRUE,TRUE,,,,,,HZ,CLR,,,,,,,,MVFR,,,,,,,,,,,,METAR,7.0
K4S1 220135Z AUTO 35014G21KT 5SM HZ CLR 11/07 A2945 RMK AO2,K4S1,2023-03-22T01:35:00Z,42.42,-124.42,11.0,7.0,350,14,21,5.0,29.450787,,,TRUE,TRUE,,,,,,HZ,CLR,,,,,,,,MVFR,,,,,,,,,,,,METAR,7.0
K4S1 220115Z AUTO 35018G26KT 5SM HZ CLR 11/07 A2944 RMK AO2,K4S1,2023-03-22T01:15:00Z,42.42,-124.42,11.0,7.0,350,18,26,5.0,29.438976,,,TRUE,TRUE,,,,,,HZ,CLR,,,,,,,,MVFR,,,,,,,,,,,,METAR,7.0
K4S1 220055Z AUTO 35016G25KT 5SM HZ CLR 12/07 A2943 RMK AO2,K4S1,2023-03-22T00:55:00Z,42.42,-124.42,12.0,7.0,350,16,25,5.0,29.430119,,,TRUE,TRUE,,,,,,HZ,CLR,,,,,,,,MVFR,,,,,,,,,,,,METAR,7.0
K4S1 220035Z AUTO 35022G29KT 5SM HZ CLR 12/07 A2942 RMK AO2,K4S1,2023-03-22T00:35:00Z,42.42,-124.42,12.0,7.0,350,22,29,5.0,29.421259,,,TRUE,TRUE,,,,,,HZ,CLR,,,,,,,,MVFR,,,,,,,,,,,,METAR,7.0
K4S1 220015Z AUTO 35023G29KT 5SM HZ CLR 12/07 A2942 RMK AO2,K4S1,2023-03-22T00:15:00Z,42.42,-124.42,12.0,7.0,350,23,29,5.0,29.421259,,,TRUE,TRUE,,,,,,HZ,CLR,,,,,,,,MVFR,,,,,,,,,,,,METAR,7.0
K4S1 212355Z AUTO 35021G29KT 5SM HZ CLR 12/07 A2943 RMK AO2,K4S1,2023-03-21T23:55:00Z,42.42,-124.42,12.0,7.0,350,21,29,5.0,29.430119,,,TRUE,TRUE,,,,,,HZ,CLR,,,,,,,,MVFR,,,,,,,,,,,,METAR,7.0
K4S1 212335Z AUTO 34020G28KT 5SM HZ CLR 12/07 A2944 RMK AO2,K4S1,2023-03-21T23:35:00Z,42.42,-124.42,12.0,7.0,340,20,28,5.0,29.438976,,,TRUE,TRUE,,,,,,HZ,CLR,,,,,,,,MVFR,,,,,,,,,,,,METAR,7.0
K4S1 212315Z AUTO 35021G26KT 5SM HZ CLR 12/07 A2944 RMK AO2,K4S1,2023-03-21T23:15:00Z,42.42,-124.42,12.0,7.0,350,21,26,5.0,29.438976,,,TRUE,TRUE,,,,,,HZ,CLR,,,,,,,,MVFR,,,,,,,,,,,,METAR,7.0
K4S1 212255Z AUTO 35019G28KT 5SM HZ CLR 12/07 A2945 RMK AO2,K4S1,2023-03-21T22:55:00Z,42.42,-124.42,12.0,7.0,350,19,28,5.0,29.450787,,,TRUE,TRUE,,,,,,HZ,CLR,,,,,,,,MVFR,,,,,,,,,,,,METAR,7.0
K4S1 212235Z AUTO 35021G26KT 5SM HZ CLR 12/07 A2945 RMK AO2,K4S1,2023-03-21T22:35:00Z,42.42,-124.42,12.0,7.0,350,21,26,5.0,29.450787,,,TRUE,TRUE,,,,,,HZ,CLR,,,,,,,,MVFR,,,,,,,,,,,,METAR,7.0
K4S1 212215Z AUTO 35015G23KT 5SM HZ CLR 12/07 A2946 RMK AO2,K4S1,2023-03-21T22:15:00Z,42.42,-124.42,12.0,7.0,350,15,23,5.0,29.459646,,,TRUE,TRUE,,,,,,HZ,CLR,,,,,,,,MVFR,,,,,,,,,,,,METAR,7.0
K4S1 212155Z AUTO 34017G23KT 5SM HZ CLR 12/07 A2947 RMK AO2,K4S1,2023-03-21T21:55:00Z,42.42,-124.42,12.0,7.0,340,17,23,5.0,29.471457,,,TRUE,TRUE,,,,,,HZ,CLR,,,,,,,,MVFR,,,,,,,,,,,,METAR,7.0
K4S1 212135Z AUTO 35017G24KT 5SM HZ CLR 12/06 A2947 RMK AO2,K4S1,2023-03-21T21:35:00Z,42.42,-124.42,12.0,6.0,350,17,24,5.0,29.471457,,,TRUE,TRUE,,,,,,HZ,CLR,,,,,,,,MVFR,,,,,,,,,,,,METAR,7.0
K4S1 212115Z AUTO 34018G23KT 7SM CLR 12/07 A2948 RMK AO2,K4S1,2023-03-21T21:15:00Z,42.42,-124.42,12.0,7.0,340,18,23,7.0,29.480314,,,TRUE,TRUE,,,,,,,CLR,,,,,,,,VFR,,,,,,,,,,,,METAR,7.0
K4S1 212055Z AUTO 34016G21KT 5SM HZ CLR 12/07 A2949 RMK AO2,K4S1,2023-03-21T20:55:00Z,42.42,-124.42,12.0,7.0,340,16,21,5.0,29.489174,,,TRUE,TRUE,,,,,,HZ,CLR,,,,,,,,MVFR,,,,,,,,,,,,METAR,7.0
K4S1 212035Z AUTO 34012KT 7SM CLR 12/06 A2949 RMK AO2,K4S1,2023-03-21T20:35:00Z,42.42,-124.42,12.0,6.0,340,12,,7.0,29.489174,,,TRUE,TRUE,,,,,,,CLR,,,,,,,,VFR,,,,,,,,,,,,METAR,7.0
K4S1 212015Z AUTO 34012G17KT 7SM CLR 13/05 A2950 RMK AO2,K4S1,2023-03-21T20:15:00Z,42.42,-124.42,13.0,5.0,340,12,17,7.0,29.500984,,,TRUE,TRUE,,,,,,,CLR,,,,,,,,VFR,,,,,,,,,,,,METAR,7.0
K4S1 211955Z AUTO 34015G18KT 5SM HZ CLR 12/05 A2950 RMK AO2,K4S1,2023-03-21T19:55:00Z,42.42,-124.42,12.0,5.0,340,15,18,5.0,29.500984,,,TRUE,TRUE,,,,,,HZ,CLR,,,,,,,,MVFR,,,,,,,,,,,,METAR,7.0
K4S1 211935Z AUTO 34014KT 5SM HZ CLR 13/05 A2950 RMK AO2,K4S1,2023-03-21T19:35:00Z,42.42,-124.42,13.0,5.0,340,14,,5.0,29.500984,,,TRUE,TRUE,,,,,,HZ,CLR,,,,,,,,MVFR,,,,,,,,,,,,METAR,7.0
K4S1 211915Z AUTO 33011KT 7SM CLR 12/06 A2951 RMK AO2,K4S1,2023-03-21T19:15:00Z,42.42,-124.42,12.0,6.0,330,11,,7.0,29.509842,,,TRUE,TRUE,,,,,,,CLR,,,,,,,,VFR,,,,,,,,,,,,METAR,7.0
K4S1 211855Z AUTO 35009G14KT 5SM HZ CLR 13/03 A2952 RMK AO2,K4S1,2023-03-21T18:55:00Z,42.42,-124.42,13.0,3.0,350,9,14,5.0,29.518702,,,TRUE,TRUE,,,,,,HZ,CLR,,,,,,,,MVFR,,,,,,,,,,,,METAR,7.0
K4S1 211835Z AUTO 34009KT 5SM HZ CLR 13/04 A2953 RMK AO2,K4S1,2023-03-21T18:35:00Z,42.42,-124.42,13.0,4.0,340,9,,5.0,29.530512,,,TRUE,TRUE,,,,,,HZ,CLR,,,,,,,,MVFR,,,,,,,,,,,,METAR,7.0
K4S1 211815Z AUTO 35007KT 7SM CLR 13/02 A2953 RMK AO2,K4S1,2023-03-21T18:15:00Z,42.42,-124.42,13.0,2.0,350,7,,7.0,29.530512,,,TRUE,TRUE,,,,,,,CLR,,,,,,,,VFR,,,,,,,,,,,,METAR,7.0
K4S1 211755Z AUTO 36007G14KT 7SM CLR 12/01 A2953 RMK AO2,K4S1,2023-03-21T17:55:00Z,42.42,-124.42,12.0,1.0,360,7,14,7.0,29.530512,,,TRUE,TRUE,,,,,,,CLR,,,,,,,,VFR,,,,,,,,,,,,METAR,7.0
K4S1 211735Z AUTO 04010KT 5SM HZ CLR 12/01 A2953 RMK AO2,K4S1,2023-03-21T17:35:00Z,42.42,-124.42,12.0,1.0,40,10,,5.0,29.530512,,,TRUE,TRUE,,,,,,HZ,CLR,,,,,,,,MVFR,,,,,,,,,,,,METAR,7.0
K4S1 211715Z AUTO 03011G14KT 7SM CLR 12/01 A2954 RMK AO2,K4S1,2023-03-21T17:15:00Z,42.42,-124.42,12.0,1.0,30,11,14,7.0,29.53937,,,TRUE,TRUE,,,,,,,CLR,,,,,,,,VFR,,,,,,,,,,,,METAR,7.0
K4S1 211655Z AUTO 05007G14KT 5SM HZ CLR 10/02 A2955 RMK AO2,K4S1,2023-03-21T16:55:00Z,42.42,-124.42,10.0,2.0,50,7,14,5.0,29.551182,,,TRUE,TRUE,,,,,,HZ,CLR,,,,,,,,MVFR,,,,,,,,,,,,METAR,7.0
K4S1 211635Z AUTO 06009KT 4SM HZ CLR 08/02 A2955 RMK AO2,K4S1,2023-03-21T16:35:00Z,42.42,-124.42,8.0,2.0,60,9,,4.0,29.551182,,,TRUE,TRUE,,,,,,HZ,CLR,,,,,,,,MVFR,,,,,,,,,,,,METAR,7.0
K4S1 211615Z AUTO 06013KT 7SM CLR 07/02 A2955 RMK AO2,K4S1,2023-03-21T16:15:00Z,42.42,-124.42,7.0,2.0,60,13,,7.0,29.551182,,,TRUE,TRUE,,,,,,,CLR,,,,,,,,VFR,,,,,,,,,,,,METAR,7.0
K4S1 211555Z AUTO 05014KT 5SM HZ CLR 07/02 A2956 RMK AO2,K4S1,2023-03-21T15:55:00Z,42.42,-124.42,7.0,2.0,50,14,,5.0,29.56004,,,TRUE,TRUE,,,,,,HZ,CLR,,,,,,,,MVFR,,,,,,,,,,,,METAR,7.0
K4S1 211535Z AUTO 05017G21KT 5SM HZ CLR 06/01 A2957 RMK AO2,K4S1,2023-03-21T15:35:00Z,42.42,-124.42,6.0,1.0,50,17,21,5.0,29.568897,,,TRUE,TRUE,,,,,,HZ,CLR,,,,,,,,MVFR,,,,,,,,,,,,METAR,7.0
K4S1 211515Z AUTO 06013KT 7SM CLR 06/01 A2957 RMK AO2,K4S1,2023-03-21T15:15:00Z,42.42,-124.42,6.0,1.0,60,13,,7.0,29.568897,,,TRUE,TRUE,,,,,,,CLR,,,,,,,,VFR,,,,,,,,,,,,METAR,7.0
K4S1 211455Z AUTO 06014G20KT 5SM HZ CLR 06/01 A2958 RMK AO2,K4S1,2023-03-21T14:55:00Z,42.42,-124.42,6.0,1.0,60,14,20,5.0,29.58071,,,TRUE,TRUE,,,,,,HZ,CLR,,,,,,,,MVFR,,,,,,,,,,,,METAR,7.0
K4S1 211435Z AUTO 06017KT 7SM CLR 06/02 A2959 RMK AO2,K4S1,2023-03-21T14:35:00Z,42.42,-124.42,6.0,2.0,60,17,,7.0,29.589567,,,TRUE,TRUE,,,,,,,CLR,,,,,,,,VFR,,,,,,,,,,,,METAR,7.0
K4S1 211415Z AUTO 04014KT 7SM CLR 05/02 A2960 RMK AO2,K4S1,2023-03-21T14:15:00Z,42.42,-124.42,5.0,2.0,40,14,,7.0,29.601377,,,TRUE,TRUE,,,,,,,CLR,,,,,,,,VFR,,,,,,,,,,,,METAR,7.0
K4S1 211355Z AUTO 05013KT 7SM CLR 05/02 A2960 RMK AO2,K4S1,2023-03-21T13:55:00Z,42.42,-124.42,5.0,2.0,50,13,,7.0,29.601377,,,TRUE,TRUE,,,,,,,CLR,,,,,,,,VFR,,,,,,,,,,,,METAR,7.0
K4S1 211335Z AUTO 05010KT 7SM CLR 05/02 A2962 RMK AO2,K4S1,2023-03-21T13:35:00Z,42.42,-124.42,5.0,2.0,50,10,,7.0,29.619095,,,TRUE,TRUE,,,,,,,CLR,,,,,,,,VFR,,,,,,,,,,,,METAR,7.0
K4S1 211315Z AUTO 00000KT 5SM BR CLR 03/01 A2963 RMK AO2,K4S1,2023-03-21T13:15:00Z,42.42,-124.42,3.0,1.0,0,0,,5.0,29.630905,,,TRUE,TRUE,,,,,,BR,CLR,,,,,,,,MVFR,,,,,,,,,,,,METAR,7.0
K4S1 211255Z AUTO 04007KT 7SM CLR 04/02 A2964 RMK AO2,K4S1,2023-03-21T12:55:00Z,42.42,-124.42,4.0,2.0,40,7,,7.0,29.639763,,,TRUE,TRUE,,,,,,,CLR,,,,,,,,VFR,,,,,,,,,,,,METAR,7.0
K4S1 211235Z AUTO 00000KT 7SM CLR 03/01 A2965 RMK AO2,K4S1,2023-03-21T12:35:00Z,42.42,-124.42,3.0,1.0,0,0,,7.0,29.648623,,,TRUE,TRUE,,,,,,,CLR,,,,,,,,VFR,,,,,,,,,,,,METAR,7.0
K4S1 211215Z AUTO 14003KT 7SM CLR 04/01 A2965 RMK AO2,K4S1,2023-03-21T12:15:00Z,42.42,-124.42,4.0,1.0,140,3,,7.0,29.648623,,,TRUE,TRUE,,,,,,,CLR,,,,,,,,VFR,,,,,,,,,,,,METAR,7.0
K4S1 211155Z AUTO 00000KT 7SM CLR 04/02 A2966 RMK AO2,K4S1,2023-03-21T11:55:00Z,42.42,-124.42,4.0,2.0,0,0,,7.0,29.660433,,,TRUE,TRUE,,,,,,,CLR,,,,,,,,VFR,,,,,,,,,,,,METAR,7.0
K4S1 211135Z AUTO 06006KT 7SM CLR 05/02 A2967 RMK AO2,K4S1,2023-03-21T11:35:00Z,42.42,-124.42,5.0,2.0,60,6,,7.0,29.66929,,,TRUE,TRUE,,,,,,,CLR,,,,,,,,VFR,,,,,,,,,,,,METAR,7.0
K4S1 211115Z AUTO 05007KT 7SM SCT001 04/02 A2967 RMK AO2,K4S1,2023-03-21T11:15:00Z,42.42,-124.42,4.0,2.0,50,7,,7.0,29.66929,,,TRUE,TRUE,,,,,,,SCT,100,,,,,,,VFR,,,,,,,,,,,,METAR,7.0
K4S1 211055Z AUTO 07003KT 7SM CLR 04/02 A2968 RMK AO2,K4S1,2023-03-21T10:55:00Z,42.42,-124.42,4.0,2.0,70,3,,7.0,29.681103,,,TRUE,TRUE,,,,,,,CLR,,,,,,,,VFR,,,,,,,,,,,,METAR,7.0
K4S1 211035Z AUTO 00000KT 7SM CLR 03/02 A2970 RMK AO2,K4S1,2023-03-21T10:35:00Z,42.42,-124.42,3.0,2.0,0,0,,7.0,29.698818,,,TRUE,TRUE,,,,,,,CLR,,,,,,,,VFR,,,,,,,,,,,,METAR,7.0
K4S1 211015Z AUTO 00000KT 7SM CLR 04/02 A2970 RMK AO2,K4S1,2023-03-21T10:15:00Z,42.42,-124.42,4.0,2.0,0,0,,7.0,29.698818,,,TRUE,TRUE,,,,,,,CLR,,,,,,,,VFR,,,,,,,,,,,,METAR,7.0
K4S1 210955Z AUTO 05004KT 7SM CLR 04/02 A2970 RMK AO2,K4S1,2023-03-21T09:55:00Z,42.42,-124.42,4.0,2.0,50,4,,7.0,29.698818,,,TRUE,TRUE,,,,,,,CLR,,,,,,,,VFR,,,,,,,,,,,,METAR,7.0
K4S1 210935Z AUTO 00000KT 7SM CLR 03/02 A2970 RMK AO2,K4S1,2023-03-21T09:35:00Z,42.42,-124.42,3.0,2.0,0,0,,7.0,29.698818,,,TRUE,TRUE,,,,,,,CLR,,,,,,,,VFR,,,,,,,,,,,,METAR,7.0
K4S1 210915Z AUTO 00000KT 5SM BR CLR 03/02 A2970 RMK AO2,K4S1,2023-03-21T09:15:00Z,42.42,-124.42,3.0,2.0,0,0,,5.0,29.698818,,,TRUE,TRUE,,,,,,BR,CLR,,,,,,,,MVFR,,,,,,,,,,,,METAR,7.0
K4S1 210855Z AUTO 00000KT 7SM CLR 03/01 A2970 RMK AO2,K4S1,2023-03-21T08:55:00Z,42.42,-124.42,3.0,1.0,0,0,,7.0,29.698818,,,TRUE,TRUE,,,,,,,CLR,,,,,,,,VFR,,,,,,,,,,,,METAR,7.0
K4S1 210835Z AUTO 00000KT 7SM CLR 03/02 A2970 RMK AO2,K4S1,2023-03-21T08:35:00Z,42.42,-124.42,3.0,2.0,0,0,,7.0,29.698818,,,TRUE,TRUE,,,,,,,CLR,,,,,,,,VFR,,,,,,,,,,,,METAR,7.0
K4S1 210815Z AUTO 05006KT 7SM CLR 04/02 A2971 RMK AO2,K4S1,2023-03-21T08:15:00Z,42.42,-124.42,4.0,2.0,50,6,,7.0,29.71063,,,TRUE,TRUE,,,,,,,CLR,,,,,,,,VFR,,,,,,,,,,,,METAR,7.0
K4S1 210755Z AUTO 04004KT 7SM CLR 04/02 A2973 RMK AO2,K4S1,2023-03-21T07:55:00Z,42.42,-124.42,4.0,2.0,40,4,,7.0,29.731298,,,TRUE,TRUE,,,,,,,CLR,,,,,,,,VFR,,,,,,,,,,,,METAR,7.0
K4S1 210735Z AUTO 03006KT 7SM CLR 04/02 A2974 RMK AO2,K4S1,2023-03-21T07:35:00Z,42.42,-124.42,4.0,2.0,30,6,,7.0,29.740158,,,TRUE,TRUE,,,,,,,CLR,,,,,,,,VFR,,,,,,,,,,,,METAR,7.0
K4S1 210715Z AUTO 03005KT 7SM CLR 04/02 A2975 RMK AO2,K4S1,2023-03-21T07:15:00Z,42.42,-124.42,4.0,2.0,30,5,,7.0,29.749016,,,TRUE,TRUE,,,,,,,CLR,,,,,,,,VFR,,,,,,,,,,,,METAR,7.0
K4S1 210655Z AUTO 05006KT 7SM CLR 04/02 A2976 RMK AO2,K4S1,2023-03-21T06:55:00Z,42.42,-124.42,4.0,2.0,50,6,,7.0,29.760826,,,TRUE,TRUE,,,,,,,CLR,,,,,,,,VFR,,,,,,,,,,,,METAR,7.0
K4S1 210635Z AUTO 05007KT 5SM BR CLR 04/03 A2976 RMK AO2,K4S1,2023-03-21T06:35:00Z,42.42,-124.42,4.0,3.0,50,7,,5.0,29.760826,,,TRUE,TRUE,,,,,,BR,CLR,,,,,,,,MVFR,,,,,,,,,,,,METAR,7.0
K4S1 210615Z AUTO 05005KT 7SM CLR 04/02 A2977 RMK AO2,K4S1,2023-03-21T06:15:00Z,42.42,-124.42,4.0,2.0,50,5,,7.0,29.769686,,,TRUE,TRUE,,,,,,,CLR,,,,,,,,VFR,,,,,,,,,,,,METAR,7.0
K4S1 210555Z AUTO 03006KT 7SM CLR 04/02 A2977 RMK AO2,K4S1,2023-03-21T05:55:00Z,42.42,-124.42,4.0,2.0,30,6,,7.0,29.769686,,,TRUE,TRUE,,,,,,,CLR,,,,,,,,VFR,,,,,,,,,,,,METAR,7.0
K4S1 210535Z AUTO 05007KT 7SM CLR 04/02 A2978 RMK AO2,K4S1,2023-03-21T05:35:00Z,42.42,-124.42,4.0,2.0,50,7,,7.0,29.778543,,,TRUE,TRUE,,,,,,,CLR,,,,,,,,VFR,,,,,,,,,,,,METAR,7.0
K4S1 210515Z AUTO 05007KT 7SM CLR 04/02 A2978 RMK AO2,K4S1,2023-03-21T05:15:00Z,42.42,-124.42,4.0,2.0,50,7,,7.0,29.778543,,,TRUE,TRUE,,,,,,,CLR,,,,,,,,VFR,,,,,,,,,,,,METAR,7.0
K4S1 210455Z AUTO 06008KT 7SM CLR 04/02 A2978 RMK AO2,K4S1,2023-03-21T04:55:00Z,42.42,-124.42,4.0,2.0,60,8,,7.0,29.778543,,,TRUE,TRUE,,,,,,,CLR,,,,,,,,VFR,,,,,,,,,,,,METAR,7.0
K4S1 210435Z AUTO 05008KT 5SM BR CLR 05/02 A2979 RMK AO2,K4S1,2023-03-21T04:35:00Z,42.42,-124.42,5.0,2.0,50,8,,5.0,29.790354,,,TRUE,TRUE,,,,,,BR,CLR,,,,,,,,MVFR,,,,,,,,,,,,METAR,7.0
K4S1 210415Z AUTO 05008KT 7SM CLR 05/02 A2979 RMK AO2,K4S1,2023-03-21T04:15:00Z,42.42,-124.42,5.0,2.0,50,8,,7.0,29.790354,,,TRUE,TRUE,,,,,,,CLR,,,,,,,,VFR,,,,,,,,,,,,METAR,7.0
K4S1 210355Z AUTO 04007KT 5SM HZ CLR 05/02 A2980 RMK AO2,K4S1,2023-03-21T03:55:00Z,42.42,-124.42,5.0,2.0,40,7,,5.0,29.799213,,,TRUE,TRUE,,,,,,HZ,CLR,,,,,,,,MVFR,,,,,,,,,,,,METAR,7.0
K4S1 210335Z AUTO 05003KT 7SM CLR 05/02 A2981 RMK AO2,K4S1,2023-03-21T03:35:00Z,42.42,-124.42,5.0,2.0,50,3,,7.0,29.811024,,,TRUE,TRUE,,,,,,,CLR,,,,,,,,VFR,,,,,,,,,,,,METAR,7.0
K4S1 210315Z AUTO 00000KT 7SM CLR 06/02 A2981 RMK AO2,K4S1,2023-03-21T03:15:00Z,42.42,-124.42,6.0,2.0,0,0,,7.0,29.811024,,,TRUE,TRUE,,,,,,,CLR,,,,,,,,VFR,,,,,,,,,,,,METAR,7.0
K4S1 210255Z AUTO 00000KT 7SM CLR 06/02 A2981 RMK AO2,K4S1,2023-03-21T02:55:00Z,42.42,-124.42,6.0,2.0,0,0,,7.0,29.811024,,,TRUE,TRUE,,,,,,,CLR,,,,,,,,VFR,,,,,,,,,,,,METAR,7.0
K4S1 210235Z AUTO 05003KT 7SM CLR 07/02 A2981 RMK AO2,K4S1,2023-03-21T02:35:00Z,42.42,-124.42,7.0,2.0,50,3,,7.0,29.811024,,,TRUE,TRUE,,,,,,,CLR,,,,,,,,VFR,,,,,,,,,,,,METAR,7.0
K4S1 210215Z AUTO 00000KT 7SM CLR 07/03 A2982 RMK AO2,K4S1,2023-03-21T02:15:00Z,42.42,-124.42,7.0,3.0,0,0,,7.0,29.819881,,,TRUE,TRUE,,,,,,,CLR,,,,,,,,VFR,,,,,,,,,,,,METAR,7.0
K4S1 210155Z AUTO 00000KT 5SM HZ CLR 08/02 A2982 RMK AO2,K4S1,2023-03-21T01:55:00Z,42.42,-124.42,8.0,2.0,0,0,,5.0,29.819881,,,TRUE,TRUE,,,,,,HZ,CLR,,,,,,,,MVFR,,,,,,,,,,,,METAR,7.0
K4S1 210135Z AUTO 00000KT 5SM HZ CLR 08/03 A2983 RMK AO2,K4S1,2023-03-21T01:35:00Z,42.42,-124.42,8.0,3.0,0,0,,5.0,29.828741,,,TRUE,TRUE,,,,,,HZ,CLR,,,,,,,,MVFR,,,,,,,,,,,,METAR,7.0
K4S1 210115Z AUTO 23003KT 4SM HZ CLR 08/03 A2984 RMK AO2,K4S1,2023-03-21T01:15:00Z,42.42,-124.42,8.0,3.0,230,3,,4.0,29.840551,,,TRUE,TRUE,,,,,,HZ,CLR,,,,,,,,MVFR,,,,,,,,,,,,METAR,7.0
K4S1 210055Z AUTO 23004KT 4SM HZ CLR 08/03 A2985 RMK AO2,K4S1,2023-03-21T00:55:00Z,42.42,-124.42,8.0,3.0,230,4,,4.0,29.84941,,,TRUE,TRUE,,,,,,HZ,CLR,,,,,,,,MVFR,,,,,,,,,,,,METAR,7.0
K4S1 210035Z AUTO 21003KT 4SM HZ CLR 09/03 A2986 RMK AO2,K4S1,2023-03-21T00:35:00Z,42.42,-124.42,9.0,3.0,210,3,,4.0,29.861221,,,TRUE,TRUE,,,,,,HZ,CLR,,,,,,,,MVFR,,,,,,,,,,,,METAR,7.0
K4S1 210015Z AUTO 22005KT 4SM HZ CLR 09/04 A2987 RMK AO2,K4S1,2023-03-21T00:15:00Z,42.42,-124.42,9.0,4.0,220,5,,4.0,29.870079,,,TRUE,TRUE,,,,,,HZ,CLR,,,,,,,,MVFR,,,,,,,,,,,,METAR,7.0
K4S1 202355Z AUTO 22008KT 3SM HZ CLR 08/03 A2988 RMK AO2,K4S1,2023-03-20T23:55:00Z,42.42,-124.42,8.0,3.0,220,8,,3.0,29.878937,,,TRUE,TRUE,,,,,,HZ,CLR,,,,,,,,MVFR,,,,,,,,,,,,METAR,7.0
K4S1 202335Z AUTO 22007KT 4SM HZ CLR 08/03 A2988 RMK AO2,K4S1,2023-03-20T23:35:00Z,42.42,-124.42,8.0,3.0,220,7,,4.0,29.878937,,,TRUE,TRUE,,,,,,HZ,CLR,,,,,,,,MVFR,,,,,,,,,,,,METAR,7.0
K4S1 202315Z AUTO 23010KT 4SM HZ CLR 09/03 A2988 RMK AO2,K4S1,2023-03-20T23:15:00Z,42.42,-124.42,9.0,3.0,230,10,,4.0,29.878937,,,TRUE,TRUE,,,,,,HZ,CLR,,,,,,,,MVFR,,,,,,,,,,,,METAR,7.0
K4S1 202255Z AUTO 22008KT 4SM HZ CLR 10/04 A2988 RMK AO2,K4S1,2023-03-20T22:55:00Z,42.42,-124.42,10.0,4.0,220,8,,4.0,29.878937,,,TRUE,TRUE,,,,,,HZ,CLR,,,,,,,,MVFR,,,,,,,,,,,,METAR,7.0
K4S1 202235Z AUTO 21009KT 4SM HZ SCT044 SCT055 10/05 A2989 RMK AO2,K4S1,2023-03-20T22:35:00Z,42.42,-124.42,10.0,5.0,210,9,,4.0,29.890747,,,TRUE,TRUE,,,,,,HZ,SCT,4400,SCT,5500,,,,,MVFR,,,,,,,,,,,,METAR,7.0
K4S1 202215Z AUTO 21008KT 4SM HZ CLR 10/05 A2990 RMK AO2,K4S1,2023-03-20T22:15:00Z,42.42,-124.42,10.0,5.0,210,8,,4.0,29.899607,,,TRUE,TRUE,,,,,,HZ,CLR,,,,,,,,MVFR,,,,,,,,,,,,METAR,7.0
K4S1 202155Z AUTO 21010KT 5SM HZ CLR 10/05 A2990 RMK AO2,K4S1,2023-03-20T21:55:00Z,42.42,-124.42,10.0,5.0,210,10,,5.0,29.899607,,,TRUE,TRUE,,,,,,HZ,CLR,,,,,,,,MVFR,,,,,,,,,,,,METAR,7.0
K4S1 202135Z AUTO 21008KT 3SM HZ CLR 09/04 A2991 RMK AO2,K4S1,2023-03-20T21:35:00Z,42.42,-124.42,9.0,4.0,210,8,,3.0,29.911417,,,TRUE,TRUE,,,,,,HZ,CLR,,,,,,,,MVFR,,,,,,,,,,,,METAR,7.0
K4S1 202115Z AUTO 21008KT 3SM HZ CLR 09/05 A2992 RMK AO2,K4S1,2023-03-20T21:15:00Z,42.42,-124.42,9.0,5.0,210,8,,3.0,29.920275,,,TRUE,TRUE,,,,,,HZ,CLR,,,,,,,,MVFR,,,,,,,,,,,,METAR,7.0
K4S1 202055Z AUTO 20006KT 5SM -RA CLR 08/03 A2992 RMK AO2,K4S1,2023-03-20T20:55:00Z,42.42,-124.42,8.0,3.0,200,6,,5.0,29.920275,,,TRUE,TRUE,,,,,,-RA,CLR,,,,,,,,MVFR,,,,,,,,,,,,METAR,7.0
K4S1 202035Z AUTO 21010G15KT 3SM HZ CLR 10/05 A2993 RMK AO2,K4S1,2023-03-20T20:35:00Z,42.42,-124.42,10.0,5.0,210,10,15,3.0,29.929134,,,TRUE,TRUE,,,,,,HZ,CLR,,,,,,,,MVFR,,,,,,,,,,,,METAR,7.0
K4S1 202015Z AUTO 21012KT 4SM HZ CLR 09/04 A2993 RMK AO2,K4S1,2023-03-20T20:15:00Z,42.42,-124.42,9.0,4.0,210,12,,4.0,29.929134,,,TRUE,TRUE,,,,,,HZ,CLR,,,,,,,,MVFR,,,,,,,,,,,,METAR,7.0
K4S1 201955Z AUTO 20008KT 3SM HZ CLR 09/05 A2992 RMK AO2,K4S1,2023-03-20T19:55:00Z,42.42,-124.42,9.0,5.0,200,8,,3.0,29.920275,,,TRUE,TRUE,,,,,,HZ,CLR,,,,,,,,MVFR,,,,,,,,,,,,METAR,7.0
K4S1 201935Z AUTO 20009KT 3SM HZ CLR 08/03 A2992 RMK AO2,K4S1,2023-03-20T19:35:00Z,42.42,-124.42,8.0,3.0,200,9,,3.0,29.920275,,,TRUE,TRUE,,,,,,HZ,CLR,,,,,,,,MVFR,,,,,,,,,,,,METAR,7.0
K4S1 201915Z AUTO 20008KT 3SM HZ CLR 08/04 A2992 RMK AO2,K4S1,2023-03-20T19:15:00Z,42.42,-124.42,8.0,4.0,200,8,,3.0,29.920275,,,TRUE,TRUE,,,,,,HZ,CLR,,,,,,,,MVFR,,,,,,,,,,,,METAR,7.0
K4S1 201855Z AUTO 20008KT 2 1/2SM HZ CLR 09/05 A2992 RMK AO2,K4S1,2023-03-20T18:55:00Z,42.42,-124.42,9.0,5.0,200,8,,2.5,29.920275,,,TRUE,TRUE,,,,,,HZ,CLR,,,,,,,,IFR,,,,,,,,,,,,METAR,7.0
K4S1 201835Z AUTO 20009KT 2 1/2SM HZ CLR 08/05 A2993 RMK AO2,K4S1,2023-03-20T18:35:00Z,42.42,-124.42,8.0,5.0,200,9,,2.5,29.929134,,,TRUE,TRUE,,,,,,HZ,CLR,,,,,,,,IFR,,,,,,,,,,,,METAR,7.0
K4S1 201815Z AUTO 19008KT 3SM HZ CLR 08/04 A2993 RMK AO2,K4S1,2023-03-20T18:15:00Z,42.42,-124.42,8.0,4.0,190,8,,3.0,29.929134,,,TRUE,TRUE,,,,,,HZ,CLR,,,,,,,,MVFR,,,,,,,,,,,,METAR,7.0
K4S1 201755Z AUTO 19006KT 7SM -DZ CLR 08/04 A2993 RMK AO2,K4S1,2023-03-20T17:55:00Z,42.42,-124.42,8.0,4.0,190,6,,7.0,29.929134,,,TRUE,TRUE,,,,,,-DZ,CLR,,,,,,,,VFR,,,,,,,,,,,,METAR,7.0
K4S1 201735Z AUTO 20006KT 3SM HZ CLR 08/05 A2993 RMK AO2,K4S1,2023-03-20T17:35:00Z,42.42,-124.42,8.0,5.0,200,6,,3.0,29.929134,,,TRUE,TRUE,,,,,,HZ,CLR,,,,,,,,MVFR,,,,,,,,,,,,METAR,7.0
K4S1 201715Z AUTO 19007KT 4SM HZ CLR 07/04 A2993 RMK AO2,K4S1,2023-03-20T17:15:00Z,42.42,-124.42,7.0,4.0,190,7,,4.0,29.929134,,,TRUE,TRUE,,,,,,HZ,CLR,,,,,,,,MVFR,,,,,,,,,,,,METAR,7.0
K4S1 201655Z AUTO 18007KT 5SM HZ CLR 07/04 A2993 RMK AO2,K4S1,2023-03-20T16:55:00Z,42.42,-124.42,7.0,4.0,180,7,,5.0,29.929134,,,TRUE,TRUE,,,,,,HZ,CLR,,,,,,,,MVFR,,,,,,,,,,,,METAR,7.0
K4S1 201635Z AUTO 19006KT 2 1/2SM HZ CLR 07/04 A2993 RMK AO2 VIS 2V5,K4S1,2023-03-20T16:35:00Z,42.42,-124.42,7.0,4.0,190,6,,2.5,29.929134,,,TRUE,TRUE,,,,,,HZ,CLR,,,,,,,,IFR,,,,,,,,,,,,METAR,7.0
K4S1 201615Z AUTO 21008KT 5SM HZ CLR 07/03 A2993 RMK AO2,K4S1,2023-03-20T16:15:00Z,42.42,-124.42,7.0,3.0,210,8,,5.0,29.929134,,,TRUE,TRUE,,,,,,HZ,CLR,,,,,,,,MVFR,,,,,,,,,,,,METAR,7.0
K4S1 201555Z AUTO 17010KT 4SM HZ CLR 07/03 A2992 RMK AO2,K4S1,2023-03-20T15:55:00Z,42.42,-124.42,7.0,3.0,170,10,,4.0,29.920275,,,TRUE,TRUE,,,,,,HZ,CLR,,,,,,,,MVFR,,,,,,,,,,,,METAR,7.0
K4S1 201535Z AUTO 23010KT 4SM HZ CLR 07/03 A2992 RMK AO2,K4S1,2023-03-20T15:35:00Z,42.42,-124.42,7.0,3.0,230,10,,4.0,29.920275,,,TRUE,TRUE,,,,,,HZ,CLR,,,,,,,,MVFR,,,,,,,,,,,,METAR,7.0
K4S1 201515Z AUTO 24011KT 4SM HZ CLR 07/03 A2991 RMK AO2,K4S1,2023-03-20T15:15:00Z,42.42,-124.42,7.0,3.0,240,11,,4.0,29.911417,,,TRUE,TRUE,,,,,,HZ,CLR,,,,,,,,MVFR,,,,,,,,,,,,METAR,7.0
K4S1 201455Z AUTO 23013KT 5SM HZ CLR 07/03 A2991 RMK AO2,K4S1,2023-03-20T14:55:00Z,42.42,-124.42,7.0,3.0,230,13,,5.0,29.911417,,,TRUE,TRUE,,,,,,HZ,CLR,,,,,,,,MVFR,,,,,,,,,,,,METAR,7.0
K4S1 201435Z AUTO 25012G15KT 5SM HZ CLR 07/04 A2990 RMK AO2,K4S1,2023-03-20T14:35:00Z,42.42,-124.42,7.0,4.0,250,12,15,5.0,29.899607,,,TRUE,TRUE,,,,,,HZ,CLR,,,,,,,,MVFR,,,,,,,,,,,,METAR,7.0
K4S1 201415Z AUTO 22009KT 5SM HZ CLR 07/04 A2990 RMK AO2,K4S1,2023-03-20T14:15:00Z,42.42,-124.42,7.0,4.0,220,9,,5.0,29.899607,,,TRUE,TRUE,,,,,,HZ,CLR,,,,,,,,MVFR,,,,,,,,,,,,METAR,7.0
K4S1 201355Z AUTO 24011KT 5SM HZ CLR 07/04 A2989 RMK AO2,K4S1,2023-03-20T13:55:00Z,42.42,-124.42,7.0,4.0,240,11,,5.0,29.890747,,,TRUE,TRUE,,,,,,HZ,CLR,,,,,,,,MVFR,,,,,,,,,,,,METAR,7.0
K4S1 201335Z AUTO 25011G14KT 5SM HZ CLR 07/04 A2989 RMK AO2,K4S1,2023-03-20T13:35:00Z,42.42,-124.42,7.0,4.0,250,11,14,5.0,29.890747,,,TRUE,TRUE,,,,,,HZ,CLR,,,,,,,,MVFR,,,,,,,,,,,,METAR,7.0
K4S1 201315Z AUTO 25013KT 5SM HZ CLR 07/04 A2988 RMK AO2,K4S1,2023-03-20T13:15:00Z,42.42,-124.42,7.0,4.0,250,13,,5.0,29.878937,,,TRUE,TRUE,,,,,,HZ,CLR,,,,,,,,MVFR,,,,,,,,,,,,METAR,7.0
K4S1 201255Z AUTO 25013G18KT 5SM HZ CLR 07/04 A2987 RMK AO2,K4S1,2023-03-20T12:55:00Z,42.42,-124.42,7.0,4.0,250,13,18,5.0,29.870079,,,TRUE,TRUE,,,,,,HZ,CLR,,,,,,,,MVFR,,,,,,,,,,,,METAR,7.0
K4S1 201235Z AUTO 24017KT 5SM HZ CLR 08/04 A2986 RMK AO2,K4S1,2023-03-20T12:35:00Z,42.42,-124.42,8.0,4.0,240,17,,5.0,29.861221,,,TRUE,TRUE,,,,,,HZ,CLR,,,,,,,,MVFR,,,,,,,,,,,,METAR,7.0
K4S1 201215Z AUTO 22012KT 5SM HZ CLR 08/04 A2986 RMK AO2,K4S1,2023-03-20T12:15:00Z,42.42,-124.42,8.0,4.0,220,12,,5.0,29.861221,,,TRUE,TRUE,,,,,,HZ,CLR,,,,,,,,MVFR,,,,,,,,,,,,METAR,7.0
K4S1 201155Z AUTO 22013KT 4SM HZ CLR 07/04 A2986 RMK AO2,K4S1,2023-03-20T11:55:00Z,42.42,-124.42,7.0,4.0,220,13,,4.0,29.861221,,,TRUE,TRUE,,,,,,HZ,CLR,,,,,,,,MVFR,,,,,,,,,,,,METAR,7.0
K4S1 201135Z AUTO 23012KT 5SM HZ CLR 07/04 A2985 RMK AO2,K4S1,2023-03-20T11:35:00Z,42.42,-124.42,7.0,4.0,230,12,,5.0,29.84941,,,TRUE,TRUE,,,,,,HZ,CLR,,,,,,,,MVFR,,,,,,,,,,,,METAR,7.0
K4S1 201115Z AUTO 24013G17KT 5SM HZ CLR 07/05 A2985 RMK AO2,K4S1,2023-03-20T11:15:00Z,42.42,-124.42,7.0,5.0,240,13,17,5.0,29.84941,,,TRUE,TRUE,,,,,,HZ,CLR,,,,,,,,MVFR,,,,,,,,,,,,METAR,7.0
K4S1 201055Z AUTO 23006KT 7SM RA SCT033 07/04 A2984 RMK AO2,K4S1,2023-03-20T10:55:00Z,42.42,-124.42,7.0,4.0,230,6,,7.0,29.840551,,,TRUE,TRUE,,,,,,RA,SCT,3300,,,,,,,VFR,,,,,,,,,,,,METAR,7.0
K4S1 201035Z AUTO 26015KT 7SM -DZ CLR 07/04 A2984 RMK AO2,K4S1,2023-03-20T10:35:00Z,42.42,-124.42,7.0,4.0,260,15,,7.0,29.840551,,,TRUE,TRUE,,,,,,-DZ,CLR,,,,,,,,VFR,,,,,,,,,,,,METAR,7.0
K4S1 201015Z AUTO 25012G18KT 5SM BR SCT032 07/05 A2984 RMK AO2,K4S1,2023-03-20T10:15:00Z,42.42,-124.42,7.0,5.0,250,12,18,5.0,29.840551,,,TRUE,TRUE,,,,,,BR,SCT,3200,,,,,,,MVFR,,,,,,,,,,,,METAR,7.0
K4S1 200955Z AUTO 26010KT 5SM RA SCT032 07/05 A2984 RMK AO2,K4S1,2023-03-20T09:55:00Z,42.42,-124.42,7.0,5.0,260,10,,5.0,29.840551,,,TRUE,TRUE,,,,,,RA,SCT,3200,,,,,,,MVFR,,,,,,,,,,,,METAR,7.0
K4S1 200935Z AUTO 25012KT 5SM BR CLR 07/05 A2984 RMK AO2,K4S1,2023-03-20T09:35:00Z,42.42,-124.42,7.0,5.0,250,12,,5.0,29.840551,,,TRUE,TRUE,,,,,,BR,CLR,,,,,,,,MVFR,,,,,,,,,,,,METAR,7.0
K4S1 200915Z AUTO 25010KT 4SM BR CLR 07/05 A2983 RMK AO2,K4S1,2023-03-20T09:15:00Z,42.42,-124.42,7.0,5.0,250,10,,4.0,29.828741,,,TRUE,TRUE,,,,,,BR,CLR,,,,,,,,MVFR,,,,,,,,,,,,METAR,7.0
K4S1 200855Z AUTO 26013G16KT 5SM -RA SCT015 SCT020 SCT027 07/05 A2982 RMK AO2 P0001,K4S1,2023-03-20T08:55:00Z,42.42,-124.42,7.0,5.0,260,13,16,5.0,29.819881,,,TRUE,TRUE,,,,,,-RA,SCT,1500,SCT,2000,SCT,2700,,,MVFR,,,,,,0.01,,,,,,METAR,7.0
K4S1 200835Z AUTO 27008KT 4SM BR CLR 07/06 A2981 RMK AO2,K4S1,2023-03-20T08:35:00Z,42.42,-124.42,7.0,6.0,270,8,,4.0,29.811024,,,TRUE,TRUE,,,,,,BR,CLR,,,,,,,,MVFR,,,,,,,,,,,,METAR,7.0
K4S1 200815Z AUTO 26013G17KT 5SM BR CLR 07/06 A2981 RMK AO2,K4S1,2023-03-20T08:15:00Z,42.42,-124.42,7.0,6.0,260,13,17,5.0,29.811024,,,TRUE,TRUE,,,,,,BR,CLR,,,,,,,,MVFR,,,,,,,,,,,,METAR,7.0
K4S1 200755Z AUTO 26010KT 4SM BR CLR 07/06 A2980 RMK AO2,K4S1,2023-03-20T07:55:00Z,42.42,-124.42,7.0,6.0,260,10,,4.0,29.799213,,,TRUE,TRUE,,,,,,BR,CLR,,,,,,,,MVFR,,,,,,,,,,,,METAR,7.0
K4S1 200735Z AUTO 27009KT 5SM BR SCT016 SCT024 SCT029 07/06 A2980 RMK AO2,K4S1,2023-03-20T07:35:00Z,42.42,-124.42,7.0,6.0,270,9,,5.0,29.799213,,,TRUE,TRUE,,,,,,BR,SCT,1600,SCT,2400,SCT,2900,,,MVFR,,,,,,,,,,,,METAR,7.0
K4S1 200715Z AUTO 26010KT 5SM BR SCT014 SCT029 07/06 A2979 RMK AO2,K4S1,2023-03-20T07:15:00Z,42.42,-124.42,7.0,6.0,260,10,,5.0,29.790354,,,TRUE,TRUE,,,,,,BR,SCT,1400,SCT,2900,,,,,MVFR,,,,,,,,,,,,METAR,7.0
K4S1 200655Z AUTO 27014KT 5SM BR SCT014 SCT038 07/06 A2979 RMK AO2 P0001,K4S1,2023-03-20T06:55:00Z,42.42,-124.42,7.0,6.0,270,14,,5.0,29.790354,,,TRUE,TRUE,,,,,,BR,SCT,1400,SCT,3800,,,,,MVFR,,,,,,0.01,,,,,,METAR,7.0
K4S1 200635Z AUTO 25010KT 5SM BR SCT013 SCT022 SCT027 07/07 A2978 RMK AO2 P0001,K4S1,2023-03-20T06:35:00Z,42.42,-124.42,7.0,7.0,250,10,,5.0,29.778543,,,TRUE,TRUE,,,,,,BR,SCT,1300,SCT,2200,SCT,2700,,,MVFR,,,,,,0.01,,,,,,METAR,7.0
K4S1 200615Z AUTO 26008KT 5SM BR CLR 07/07 A2978 RMK AO2,K4S1,2023-03-20T06:15:00Z,42.42,-124.42,7.0,7.0,260,8,,5.0,29.778543,,,TRUE,TRUE,,,,,,BR,CLR,,,,,,,,MVFR,,,,,,,,,,,,METAR,7.0
K4S1 200555Z AUTO 27010KT 5SM BR SCT014 SCT019 07/07 A2978 RMK AO2,K4S1,2023-03-20T05:55:00Z,42.42,-124.42,7.0,7.0,270,10,,5.0,29.778543,,,TRUE,TRUE,,,,,,BR,SCT,1400,SCT,1900,,,,,MVFR,,,,,,,,,,,,METAR,7.0
K4S1 200535Z AUTO 28012G15KT 5SM BR CLR 07/07 A2977 RMK AO2,K4S1,2023-03-20T05:35:00Z,42.42,-124.42,7.0,7.0,280,12,15,5.0,29.769686,,,TRUE,TRUE,,,,,,BR,CLR,,,,,,,,MVFR,,,,,,,,,,,,METAR,7.0
K4S1 200515Z AUTO 28015KT 5SM BR SCT009 SCT018 08/07 A2976 RMK AO2,K4S1,2023-03-20T05:15:00Z,42.42,-124.42,8.0,7.0,280,15,,5.0,29.760826,,,TRUE,TRUE,,,,,,BR,SCT,900,SCT,1800,,,,,MVFR,,,,,,,,,,,,METAR,7.0
K4S1 200455Z AUTO 28015G20KT 5SM BR SCT009 SCT015 08/07 A2975 RMK AO2,K4S1,2023-03-20T04:55:00Z,42.42,-124.42,8.0,7.0,280,15,20,5.0,29.749016,,,TRUE,TRUE,,,,,,BR,SCT,900,SCT,1500,,,,,MVFR,,,,,,,,,,,,METAR,7.0
K4S1 200435Z AUTO 27014KT 4SM BR SCT004 SCT009 SCT015 08/07 A2974 RMK AO2,K4S1,2023-03-20T04:35:00Z,42.42,-124.42,8.0,7.0,270,14,,4.0,29.740158,,,TRUE,TRUE,,,,,,BR,SCT,400,SCT,900,SCT,1500,,,MVFR,,,,,,,,,,,,METAR,7.0
K4S1 200415Z AUTO 28012G19KT 2 1/2SM BR BKN004 BKN008 OVC014 08/07 A2973 RMK AO2 VIS 1 1/2V5,K4S1,2023-03-20T04:15:00Z,42.42,-124.42,8.0,7.0,280,12,19,2.5,29.731298,,,TRUE,TRUE,,,,,,BR,BKN,400,BKN,800,OVC,1400,,,LIFR,,,,,,,,,,,,METAR,7.0
K4S1 200355Z AUTO 19008KT 1 3/4SM RA OVC004 08/08 A2972 RMK AO2 P0004,K4S1,2023-03-20T03:55:00Z,42.42,-124.42,8.0,8.0,190,8,,1.75,29.719488,,,TRUE,TRUE,,,,,,RA,OVC,400,,,,,,,LIFR,,,,,,0.04,,,,,,METAR,7.0
K4S1 200335Z AUTO 20010KT 2SM RA OVC006 08/08 A2971 RMK AO2 P0001,K4S1,2023-03-20T03:35:00Z,42.42,-124.42,8.0,8.0,200,10,,2.0,29.71063,,,TRUE,TRUE,,,,,,RA,OVC,600,,,,,,,IFR,,,,,,0.01,,,,,,METAR,7.0
K4S1 200315Z AUTO 19006KT 2 1/2SM BR BKN006 08/08 A2971 RMK AO2,K4S1,2023-03-20T03:15:00Z,42.42,-124.42,8.0,8.0,190,6,,2.5,29.71063,,,TRUE,TRUE,,,,,,BR,BKN,600,,,,,,,IFR,,,,,,,,,,,,METAR,7.0
K4S1 200255Z AUTO 20008KT 2SM BR OVC008 08/08 A2971 RMK AO2,K4S1,2023-03-20T02:55:00Z,42.42,-124.42,8.0,8.0,200,8,,2.0,29.71063,,,TRUE,TRUE,,,,,,BR,OVC,800,,,,,,,IFR,,,,,,,,,,,,METAR,7.0
K4S1 200235Z AUTO 18007KT 2 1/2SM BR SCT003 BKN008 09/08 A2971 RMK AO2,K4S1,2023-03-20T02:35:00Z,42.42,-124.42,9.0,8.0,180,7,,2.5,29.71063,,,TRUE,TRUE,,,,,,BR,SCT,300,BKN,800,,,,,IFR,,,,,,,,,,,,METAR,7.0
K4S1 200215Z AUTO 19006KT 1SM BR BKN003 BKN006 09/08 A2971 RMK AO2,K4S1,2023-03-20T02:15:00Z,42.42,-124.42,9.0,8.0,190,6,,1.0,29.71063,,,TRUE,TRUE,,,,,,BR,BKN,300,BKN,600,,,,,LIFR,,,,,,,,,,,,METAR,7.0
K4S1 200155Z AUTO 19007KT 1 3/4SM BR BKN003 BKN010 09/08 A2971 RMK AO2,K4S1,2023-03-20T01:55:00Z,42.42,-124.42,9.0,8.0,190,7,,1.75,29.71063,,,TRUE,TRUE,,,,,,BR,BKN,300,BKN,1000,,,,,LIFR,,,,,,,,,,,,METAR,7.0
K4S1 200135Z AUTO 20008KT 1SM BR OVC003 09/08 A2971 RMK AO2,K4S1,2023-03-20T01:35:00Z,42.42,-124.42,9.0,8.0,200,8,,1.0,29.71063,,,TRUE,TRUE,,,,,,BR,OVC,300,,,,,,,LIFR,,,,,,,,,,,,METAR,7.0
K4S1 200115Z AUTO 19009KT 3/4SM BR OVC003 09/08 A2970 RMK AO2,K4S1,2023-03-20T01:15:00Z,42.42,-124.42,9.0,8.0,190,9,,0.75,29.698818,,,TRUE,TRUE,,,,,,BR,OVC,300,,,,,,,LIFR,,,,,,,,,,,,METAR,7.0
K4S1 200055Z AUTO 19011KT 1 1/4SM -RA OVC003 09/08 A2970 RMK AO2 P0003,K4S1,2023-03-20T00:55:00Z,42.42,-124.42,9.0,8.0,190,11,,1.25,29.698818,,,TRUE,TRUE,,,,,,-RA,OVC,300,,,,,,,LIFR,,,,,,0.03,,,,,,METAR,7.0
K4S1 200035Z AUTO 19012G18KT 1 1/2SM -RA OVC005 10/08 A2970 RMK AO2 P0002,K4S1,2023-03-20T00:35:00Z,42.42,-124.42,10.0,8.0,190,12,18,1.5,29.698818,,,TRUE,TRUE,,,,,,-RA,OVC,500,,,,,,,IFR,,,,,,0.02,,,,,,METAR,7.0
K4S1 200015Z AUTO 19013G20KT 2SM -RA OVC007 10/08 A2970 RMK AO2 P0002,K4S1,2023-03-20T00:15:00Z,42.42,-124.42,10.0,8.0,190,13,20,2.0,29.698818,,,TRUE,TRUE,,,,,,-RA,OVC,700,,,,,,,IFR,,,,,,0.02,,,,,,METAR,7.0
K4S1 192355Z AUTO 18014G20KT 2SM -RA OVC009 10/09 A2970 RMK AO2 P0004,K4S1,2023-03-19T23:55:00Z,42.42,-124.42,10.0,9.0,180,14,20,2.0,29.698818,,,TRUE,TRUE,,,,,,-RA,OVC,900,,,,,,,IFR,,,,,,0.04,,,,,,METAR,7.0
K4S1 192335Z AUTO 19015G20KT 2 1/2SM -RA BKN009 OVC017 10/09 A2971 RMK AO2 P0002,K4S1,2023-03-19T23:35:00Z,42.42,-124.42,10.0,9.0,190,15,20,2.5,29.71063,,,TRUE,TRUE,,,,,,-RA,BKN,900,OVC,1700,,,,,IFR,,,,,,0.02,,,,,,METAR,7.0
K4S1 192315Z AUTO 18014G21KT 2SM -RA BKN009 OVC017 10/09 A2971 RMK AO2 P0001,K4S1,2023-03-19T23:15:00Z,42.42,-124.42,10.0,9.0,180,14,21,2.0,29.71063,,,TRUE,TRUE,,,,,,-RA,BKN,900,OVC,1700,,,,,IFR,,,,,,0.01,,,,,,METAR,7.0
K4S1 192255Z AUTO 18014G21KT 2SM -RA OVC009 10/08 A2971 RMK AO2 P0006,K4S1,2023-03-19T22:55:00Z,42.42,-124.42,10.0,8.0,180,14,21,2.0,29.71063,,,TRUE,TRUE,,,,,,-RA,OVC,900,,,,,,,IFR,,,,,,0.06,,,,,,METAR,7.0
K4S1 192235Z AUTO 19011G19KT 1 1/2SM -RA BKN009 OVC016 10/08 A2971 RMK AO2 P0003,K4S1,2023-03-19T22:35:00Z,42.42,-124.42,10.0,8.0,190,11,19,1.5,29.71063,,,TRUE,TRUE,,,,,,-RA,BKN,900,OVC,1600,,,,,IFR,,,,,,0.03,,,,,,METAR,7.0
K4S1 192215Z AUTO 19015KT 1 1/2SM -RA OVC009 10/08 A2972 RMK AO2 P0001,K4S1,2023-03-19T22:15:00Z,42.42,-124.42,10.0,8.0,190,15,,1.5,29.719488,,,TRUE,TRUE,,,,,,-RA,OVC,900,,,,,,,IFR,,,,,,0.01,,,,,,METAR,7.0
K4S1 192155Z AUTO 20015KT 2SM RA OVC011 10/08 A2972 RMK AO2,K4S1,2023-03-19T21:55:00Z,42.42,-124.42,10.0,8.0,200,15,,2.0,29.719488,,,TRUE,TRUE,,,,,,RA,OVC,1100,,,,,,,IFR,,,,,,,,,,,,METAR,7.0
K4S1 192135Z AUTO 19013G21KT 2SM BR OVC011 10/09 A2972 RMK AO2,K4S1,2023-03-19T21:35:00Z,42.42,-124.42,10.0,9.0,190,13,21,2.0,29.719488,,,TRUE,TRUE,,,,,,BR,OVC,1100,,,,,,,IFR,,,,,,,,,,,,METAR,7.0
K4S1 192115Z AUTO 20013KT 3SM BR BKN011 BKN017 OVC022 10/09 A2972 RMK AO2,K4S1,2023-03-19T21:15:00Z,42.42,-124.42,10.0,9.0,200,13,,3.0,29.719488,,,TRUE,TRUE,,,,,,BR,BKN,1100,BKN,1700,OVC,2200,,,MVFR,,,,,,,,,,,,METAR,7.0
K4S1 192055Z AUTO 19011KT 2SM BR SCT010 OVC015 10/09 A2973 RMK AO2,K4S1,2023-03-19T20:55:00Z,42.42,-124.42,10.0,9.0,190,11,,2.0,29.731298,,,TRUE,TRUE,,,,,,BR,SCT,1000,OVC,1500,,,,,IFR,,,,,,,,,,,,METAR,7.0
K4S1 192035Z AUTO 21011KT 2SM BR BKN012 BKN019 OVC033 10/08 A2973 RMK AO2,K4S1,2023-03-19T20:35:00Z,42.42,-124.42,10.0,8.0,210,11,,2.0,29.731298,,,TRUE,TRUE,,,,,,BR,BKN,1200,BKN,1900,OVC,3300,,,IFR,,,,,,,,,,,,METAR,7.0
K4S1 192015Z AUTO 20008KT 3SM BR SCT015 SCT020 SCT033 10/08 A2973 RMK AO2,K4S1,2023-03-19T20:15:00Z,42.42,-124.42,10.0,8.0,200,8,,3.0,29.731298,,,TRUE,TRUE,,,,,,BR,SCT,1500,SCT,2000,SCT,3300,,,MVFR,,,,,,,,,,,,METAR,7.0
K4S1 191955Z AUTO 21008KT 4SM -DZ SCT015 SCT022 10/08 A2974 RMK AO2,K4S1,2023-03-19T19:55:00Z,42.42,-124.42,10.0,8.0,210,8,,4.0,29.740158,,,TRUE,TRUE,,,,,,-DZ,SCT,1500,SCT,2200,,,,,MVFR,,,,,,,,,,,,METAR,7.0
K4S1 191935Z AUTO 00000KT 3SM BR CLR 09/08 A2974 RMK AO2,K4S1,2023-03-19T19:35:00Z,42.42,-124.42,9.0,8.0,0,0,,3.0,29.740158,,,TRUE,TRUE,,,,,,BR,CLR,,,,,,,,MVFR,,,,,,,,,,,,METAR,7.0
K4S1 191915Z AUTO 05003KT 5SM BR CLR 10/08 A2974 RMK AO2,K4S1,2023-03-19T19:15:00Z,42.42,-124.42,10.0,8.0,50,3,,5.0,29.740158,,,TRUE,TRUE,,,,,,BR,CLR,,,,,,,,MVFR,,,,,,,,,,,,METAR,7.0
K4S1 191855Z AUTO 00000KT 5SM RA CLR 10/08 A2975 RMK AO2 P0002,K4S1,2023-03-19T18:55:00Z,42.42,-124.42,10.0,8.0,0,0,,5.0,29.749016,,,TRUE,TRUE,,,,,,RA,CLR,,,,,,,,MVFR,,,,,,0.02,,,,,,METAR,7.0
K4S1 191835Z AUTO 05005KT 4SM -RA BKN017 SCT026 08/07 A2975 RMK AO2 P0002,K4S1,2023-03-19T18:35:00Z,42.42,-124.42,8.0,7.0,50,5,,4.0,29.749016,,,TRUE,TRUE,,,,,,-RA,BKN,1700,SCT,2600,,,,,MVFR,,,,,,0.02,,,,,,METAR,7.0
K4S1 191815Z AUTO 04006KT 5SM -RA BKN019 BKN023 BKN029 08/07 A2975 RMK AO2,K4S1,2023-03-19T18:15:00Z,42.42,-124.42,8.0,7.0,40,6,,5.0,29.749016,,,TRUE,TRUE,,,,,,-RA,BKN,1900,BKN,2300,BKN,2900,,,MVFR,,,,,,,,,,,,METAR,7.0
K4S1 191755Z AUTO 04007KT 10SM -RA SCT030 SCT039 08/07 A2975 RMK AO2 P0002,K4S1,2023-03-19T17:55:00Z,42.42,-124.42,8.0,7.0,40,7,,10.0,29.749016,,,TRUE,TRUE,,,,,,-RA,SCT,3000,SCT,3900,,,,,VFR,,,,,,0.02,,,,,,METAR,7.0
K4S1 191735Z AUTO 06008KT 7SM -RA SCT006 SCT019 SCT029 08/07 A2975 RMK AO2 P0001,K4S1,2023-03-19T17:35:00Z,42.42,-124.42,8.0,7.0,60,8,,7.0,29.749016,,,TRUE,TRUE,,,,,,-RA,SCT,600,SCT,1900,SCT,2900,,,VFR,,,,,,0.01,,,,,,METAR,7.0
K4S1 191715Z AUTO 05008KT 7SM -RA SCT013 SCT019 08/07 A2976 RMK AO2,K4S1,2023-03-19T17:15:00Z,42.42,-124.42,8.0,7.0,50,8,,7.0,29.760826,,,TRUE,TRUE,,,,,,-RA,SCT,1300,SCT,1900,,,,,VFR,,,,,,,,,,,,METAR,7.0
K4S1 191655Z AUTO 04007KT 10SM -DZ SCT013 07/07 A2976 RMK AO2,K4S1,2023-03-19T16:55:00Z,42.42,-124.42,7.0,7.0,40,7,,10.0,29.760826,,,TRUE,TRUE,,,,,,-DZ,SCT,1300,,,,,,,VFR,,,,,,,,,,,,METAR,7.0
K4S1 191635Z AUTO 05008KT 10SM -RA CLR 07/06 A2976 RMK AO2,K4S1,2023-03-19T16:35:00Z,42.42,-124.42,7.0,6.0,50,8,,10.0,29.760826,,,TRUE,TRUE,,,,,,-RA,CLR,,,,,,,,VFR,,,,,,,,,,,,METAR,7.0
K4S1 191615Z AUTO 05008KT 10SM -RA SCT012 07/06 A2976 RMK AO2,K4S1,2023-03-19T16:15:00Z,42.42,-124.42,7.0,6.0,50,8,,10.0,29.760826,,,TRUE,TRUE,,,,,,-RA,SCT,1200,,,,,,,VFR,,,,,,,,,,,,METAR,7.0
K4S1 191555Z AUTO 05008KT 7SM CLR 07/06 A2976 RMK AO2 P0002,K4S1,2023-03-19T15:55:00Z,42.42,-124.42,7.0,6.0,50,8,,7.0,29.760826,,,TRUE,TRUE,,,,,,,CLR,,,,,,,,VFR,,,,,,0.02,,,,,,METAR,7.0
K4S1 191535Z AUTO 05007KT 10SM -RA CLR 07/06 A2977 RMK AO2 P0002,K4S1,2023-03-19T15:35:00Z,42.42,-124.42,7.0,6.0,50,7,,10.0,29.769686,,,TRUE,TRUE,,,,,,-RA,CLR,,,,,,,,VFR,,,,,,0.02,,,,,,METAR,7.0
K4S1 191515Z AUTO 04006KT 10SM -RA SCT014 07/06 A2977 RMK AO2 P0001,K4S1,2023-03-19T15:15:00Z,42.42,-124.42,7.0,6.0,40,6,,10.0,29.769686,,,TRUE,TRUE,,,,,,-RA,SCT,1400,,,,,,,VFR,,,,,,0.01,,,,,,METAR,7.0
K4S1 191455Z AUTO 05008KT 10SM -RA SCT016 SCT025 07/06 A2977 RMK AO2 P0004,K4S1,2023-03-19T14:55:00Z,42.42,-124.42,7.0,6.0,50,8,,10.0,29.769686,,,TRUE,TRUE,,,,,,-RA,SCT,1600,SCT,2500,,,,,VFR,,,,,,0.04,,,,,,METAR,7.0
K4S1 191435Z AUTO 05008KT 10SM -RA BKN025 07/06 A2976 RMK AO2 P0002,K4S1,2023-03-19T14:35:00Z,42.42,-124.42,7.0,6.0,50,8,,10.0,29.760826,,,TRUE,TRUE,,,,,,-RA,BKN,2500,,,,,,,MVFR,,,,,,0.02,,,,,,METAR,7.0
K4S1 191415Z AUTO 05005KT 10SM -RA SCT025 SCT031 07/06 A2977 RMK AO2 P0001,K4S1,2023-03-19T14:15:00Z,42.42,-124.42,7.0,6.0,50,5,,10.0,29.769686,,,TRUE,TRUE,,,,,,-RA,SCT,2500,SCT,3100,,,,,VFR,,,,,,0.01,,,,,,METAR,7.0
K4S1 191355Z AUTO 05009KT 10SM -RA SCT027 07/06 A2977 RMK AO2 P0003,K4S1,2023-03-19T13:55:00Z,42.42,-124.42,7.0,6.0,50,9,,10.0,29.769686,,,TRUE,TRUE,,,,,,-RA,SCT,2700,,,,,,,VFR,,,,,,0.03,,,,,,METAR,7.0
K4S1 191335Z AUTO 05009KT 10SM -RA SCT027 07/06 A2977 RMK AO2 P0002,K4S1,2023-03-19T13:35:00Z,42.42,-124.42,7.0,6.0,50,9,,10.0,29.769686,,,TRUE,TRUE,,,,,,-RA,SCT,2700,,,,,,,VFR,,,,,,0.02,,,,,,METAR,7.0
K4S1 191315Z AUTO 05008KT 10SM -RA SCT024 07/06 A2978 RMK AO2,K4S1,2023-03-19T13:15:00Z,42.42,-124.42,7.0,6.0,50,8,,10.0,29.778543,,,TRUE,TRUE,,,,,,-RA,SCT,2400,,,,,,,VFR,,,,,,,,,,,,METAR,7.0
K4S1 191255Z AUTO 04007KT 10SM RA SCT017 08/06 A2978 RMK AO2 P0002,K4S1,2023-03-19T12:55:00Z,42.42,-124.42,8.0,6.0,40,7,,10.0,29.778543,,,TRUE,TRUE,,,,,,RA,SCT,1700,,,,,,,VFR,,,,,,0.02,,,,,,METAR,7.0
K4S1 191235Z AUTO 05007KT 10SM RA CLR 08/07 A2978 RMK AO2 P0001,K4S1,2023-03-19T12:35:00Z,42.42,-124.42,8.0,7.0,50,7,,10.0,29.778543,,,TRUE,TRUE,,,,,,RA,CLR,,,,,,,,VFR,,,,,,0.01,,,,,,METAR,7.0
K4S1 191215Z AUTO 05006KT 10SM -RA CLR 08/07 A2979 RMK AO2,K4S1,2023-03-19T12:15:00Z,42.42,-124.42,8.0,7.0,50,6,,10.0,29.790354,,,TRUE,TRUE,,,,,,-RA,CLR,,,,,,,,VFR,,,,,,,,,,,,METAR,7.0
K4S1 191155Z AUTO 04008KT 10SM -RA CLR 08/07 A2980 RMK AO2 P0003,K4S1,2023-03-19T11:55:00Z,42.42,-124.42,8.0,7.0,40,8,,10.0,29.799213,,,TRUE,TRUE,,,,,,-RA,CLR,,,,,,,,VFR,,,,,,0.03,,,,,,METAR,7.0
K4S1 191135Z AUTO 00000KT 7SM -RA CLR 08/07 A2980 RMK AO2 P0002,K4S1,2023-03-19T11:35:00Z,42.42,-124.42,8.0,7.0,0,0,,7.0,29.799213,,,TRUE,TRUE,,,,,,-RA,CLR,,,,,,,,VFR,,,,,,0.02,,,,,,METAR,7.0
K4S1 191115Z AUTO 19003KT 7SM -RA CLR 10/08 A2981 RMK AO2 P0001,K4S1,2023-03-19T11:15:00Z,42.42,-124.42,10.0,8.0,190,3,,7.0,29.811024,,,TRUE,TRUE,,,,,,-RA,CLR,,,,,,,,VFR,,,,,,0.01,,,,,,METAR,7.0
K4S1 191055Z AUTO 19004KT 7SM -RA SCT026 08/07 A2981 RMK AO2,K4S1,2023-03-19T10:55:00Z,42.42,-124.42,8.0,7.0,190,4,,7.0,29.811024,,,TRUE,TRUE,,,,,,-RA,SCT,2600,,,,,,,VFR,,,,,,,,,,,,METAR,7.0
K4S1 191035Z AUTO 00000KT 10SM -RA SCT026 09/06 A2982 RMK AO2,K4S1,2023-03-19T10:35:00Z,42.42,-124.42,9.0,6.0,0,0,,10.0,29.819881,,,TRUE,TRUE,,,,,,-RA,SCT,2600,,,,,,,VFR,,,,,,,,,,,,METAR,7.0
K4S1 191015Z AUTO 05005KT 10SM -DZ CLR 08/06 A2982 RMK AO2,K4S1,2023-03-19T10:15:00Z,42.42,-124.42,8.0,6.0,50,5,,10.0,29.819881,,,TRUE,TRUE,,,,,,-DZ,CLR,,,,,,,,VFR,,,,,,,,,,,,METAR,7.0
K4S1 190955Z AUTO 05004KT 10SM DZ CLR 09/06 A2982 RMK AO2,K4S1,2023-03-19T09:55:00Z,42.42,-124.42,9.0,6.0,50,4,,10.0,29.819881,,,TRUE,TRUE,,,,,,DZ,CLR,,,,,,,,VFR,,,,,,,,,,,,METAR,7.0
K4S1 190935Z AUTO 07003KT 10SM CLR 09/05 A2982 RMK AO2,K4S1,2023-03-19T09:35:00Z,42.42,-124.42,9.0,5.0,70,3,,10.0,29.819881,,,TRUE,TRUE,,,,,,,CLR,,,,,,,,VFR,,,,,,,,,,,,METAR,7.0
K4S1 190915Z AUTO 05008KT 10SM -RA CLR 09/06 A2982 RMK AO2,K4S1,2023-03-19T09:15:00Z,42.42,-124.42,9.0,6.0,50,8,,10.0,29.819881,,,TRUE,TRUE,,,,,,-RA,CLR,,,,,,,,VFR,,,,,,,,,,,,METAR,7.0
K4S1 190855Z AUTO 08004KT 10SM -RA CLR 10/06 A2983 RMK AO2,K4S1,2023-03-19T08:55:00Z,42.42,-124.42,10.0,6.0,80,4,,10.0,29.828741,,,TRUE,TRUE,,,,,,-RA,CLR,,,,,,,,VFR,,,,,,,,,,,,METAR,7.0
K4S1 190835Z AUTO 05006KT 10SM -RA CLR 10/05 A2983 RMK AO2,K4S1,2023-03-19T08:35:00Z,42.42,-124.42,10.0,5.0,50,6,,10.0,29.828741,,,TRUE,TRUE,,,,,,-RA,CLR,,,,,,,,VFR,,,,,,,,,,,,METAR,7.0
K4S1 190815Z AUTO 10005KT 7SM CLR 10/05 A2982 RMK AO2,K4S1,2023-03-19T08:15:00Z,42.42,-124.42,10.0,5.0,100,5,,7.0,29.819881,,,TRUE,TRUE,,,,,,,CLR,,,,,,,,VFR,,,,,,,,,,,,METAR,7.0
K4S1 190755Z AUTO 05011KT 7SM CLR 09/05 A2982 RMK AO2,K4S1,2023-03-19T07:55:00Z,42.42,-124.42,9.0,5.0,50,11,,7.0,29.819881,,,TRUE,TRUE,,,,,,,CLR,,,,,,,,VFR,,,,,,,,,,,,METAR,7.0
K4S1 190735Z AUTO 06010KT 7SM CLR 09/05 A2983 RMK AO2,K4S1,2023-03-19T07:35:00Z,42.42,-124.42,9.0,5.0,60,10,,7.0,29.828741,,,TRUE,TRUE,,,,,,,CLR,,,,,,,,VFR,,,,,,,,,,,,METAR,7.0
K4S1 190715Z AUTO 08006KT 7SM CLR 09/05 A2984 RMK AO2,K4S1,2023-03-19T07:15:00Z,42.42,-124.42,9.0,5.0,80,6,,7.0,29.840551,,,TRUE,TRUE,,,,,,,CLR,,,,,,,,VFR,,,,,,,,,,,,METAR,7.0
K4S1 190655Z AUTO 05012KT 7SM CLR 09/05 A2983 RMK AO2,K4S1,2023-03-19T06:55:00Z,42.42,-124.42,9.0,5.0,50,12,,7.0,29.828741,,,TRUE,TRUE,,,,,,,CLR,,,,,,,,VFR,,,,,,,,,,,,METAR,7.0
K4S1 190635Z AUTO 05012KT 7SM CLR 09/06 A2983 RMK AO2,K4S1,2023-03-19T06:35:00Z,42.42,-124.42,9.0,6.0,50,12,,7.0,29.828741,,,TRUE,TRUE,,,,,,,CLR,,,,,,,,VFR,,,,,,,,,,,,METAR,7.0
K4S1 190615Z AUTO 05011KT 10SM CLR 10/06 A2984 RMK AO2,K4S1,2023-03-19T06:15:00Z,42.42,-124.42,10.0,6.0,50,11,,10.0,29.840551,,,TRUE,TRUE,,,,,,,CLR,,,,,,,,VFR,,,,,,,,,,,,METAR,7.0
K4S1 190555Z AUTO 06005KT 7SM CLR 10/06 A2985 RMK AO2,K4S1,2023-03-19T05:55:00Z,42.42,-124.42,10.0,6.0,60,5,,7.0,29.84941,,,TRUE,TRUE,,,,,,,CLR,,,,,,,,VFR,,,,,,,,,,,,METAR,7.0
K4S1 190535Z AUTO 05008KT 7SM CLR 10/06 A2985 RMK AO2,K4S1,2023-03-19T05:35:00Z,42.42,-124.42,10.0,6.0,50,8,,7.0,29.84941,,,TRUE,TRUE,,,,,,,CLR,,,,,,,,VFR,,,,,,,,,,,,METAR,7.0
K4S1 190515Z AUTO 05004KT 10SM CLR 10/06 A2985 RMK AO2,K4S1,2023-03-19T05:15:00Z,42.42,-124.42,10.0,6.0,50,4,,10.0,29.84941,,,TRUE,TRUE,,,,,,,CLR,,,,,,,,VFR,,,,,,,,,,,,METAR,7.0
K4S1 190455Z AUTO 01003KT 7SM CLR 10/06 A2986 RMK AO2,K4S1,2023-03-19T04:55:00Z,42.42,-124.42,10.0,6.0,10,3,,7.0,29.861221,,,TRUE,TRUE,,,,,,,CLR,,,,,,,,VFR,,,,,,,,,,,,METAR,7.0
K4S1 190435Z AUTO 05005KT 7SM CLR 11/06 A2986 RMK AO2,K4S1,2023-03-19T04:35:00Z,42.42,-124.42,11.0,6.0,50,5,,7.0,29.861221,,,TRUE,TRUE,,,,,,,CLR,,,,,,,,VFR,,,,,,,,,,,,METAR,7.0
K4S1 190415Z AUTO 04005KT 7SM CLR 11/06 A2986 RMK AO2,K4S1,2023-03-19T04:15:00Z,42.42,-124.42,11.0,6.0,40,5,,7.0,29.861221,,,TRUE,TRUE,,,,,,,CLR,,,,,,,,VFR,,,,,,,,,,,,METAR,7.0
K4S1 190355Z AUTO 08003KT 7SM CLR 11/06 A2986 RMK AO2,K4S1,2023-03-19T03:55:00Z,42.42,-124.42,11.0,6.0,80,3,,7.0,29.861221,,,TRUE,TRUE,,,,,,,CLR,,,,,,,,VFR,,,,,,,,,,,,METAR,7.0
K4S1 190335Z AUTO 04004KT 7SM CLR 11/06 A2985 RMK AO2,K4S1,2023-03-19T03:35:00Z,42.42,-124.42,11.0,6.0,40,4,,7.0,29.84941,,,TRUE,TRUE,,,,,,,CLR,,,,,,,,VFR,,,,,,,,,,,,METAR,7.0
K4S1 190315Z AUTO 05009KT 7SM CLR 11/06 A2985 RMK AO2,K4S1,2023-03-19T03:15:00Z,42.42,-124.42,11.0,6.0,50,9,,7.0,29.84941,,,TRUE,TRUE,,,,,,,CLR,,,,,,,,VFR,,,,,,,,,,,,METAR,7.0
K4S1 190255Z AUTO 00000KT 7SM CLR 11/06 A2986 RMK AO2,K4S1,2023-03-19T02:55:00Z,42.42,-124.42,11.0,6.0,0,0,,7.0,29.861221,,,TRUE,TRUE,,,,,,,CLR,,,,,,,,VFR,,,,,,,,,,,,METAR,7.0
K4S1 190235Z AUTO 00000KT 7SM CLR 11/06 A2986 RMK AO2,K4S1,2023-03-19T02:35:00Z,42.42,-124.42,11.0,6.0,0,0,,7.0,29.861221,,,TRUE,TRUE,,,,,,,CLR,,,,,,,,VFR,,,,,,,,,,,,METAR,7.0
K4S1 190215Z AUTO 05003KT 5SM HZ CLR 11/05 A2986 RMK AO2,K4S1,2023-03-19T02:15:00Z,42.42,-124.42,11.0,5.0,50,3,,5.0,29.861221,,,TRUE,TRUE,,,,,,HZ,CLR,,,,,,,,MVFR,,,,,,,,,,,,METAR,7.0
K4S1 190155Z AUTO 00000KT 4SM HZ CLR 11/06 A2987 RMK AO2,K4S1,2023-03-19T01:55:00Z,42.42,-124.42,11.0,6.0,0,0,,4.0,29.870079,,,TRUE,TRUE,,,,,,HZ,CLR,,,,,,,,MVFR,,,,,,,,,,,,METAR,7.0
K4S1 190135Z AUTO 00000KT 5SM HZ CLR 11/05 A2986 RMK AO2,K4S1,2023-03-19T01:35:00Z,42.42,-124.42,11.0,5.0,0,0,,5.0,29.861221,,,TRUE,TRUE,,,,,,HZ,CLR,,,,,,,,MVFR,,,,,,,,,,,,METAR,7.0
K4S1 190115Z AUTO 00000KT 5SM HZ CLR 10/05 A2986 RMK AO2,K4S1,2023-03-19T01:15:00Z,42.42,-124.42,10.0,5.0,0,0,,5.0,29.861221,,,TRUE,TRUE,,,,,,HZ,CLR,,,,,,,,MVFR,,,,,,,,,,,,METAR,7.0
K4S1 190055Z AUTO 00000KT 5SM HZ CLR 11/05 A2986 RMK AO2,K4S1,2023-03-19T00:55:00Z,42.42,-124.42,11.0,5.0,0,0,,5.0,29.861221,,,TRUE,TRUE,,,,,,HZ,CLR,,,,,,,,MVFR,,,,,,,,,,,,METAR,7.0
K4S1 190035Z AUTO 00000KT 7SM CLR 11/05 A2986 RMK AO2,K4S1,2023-03-19T00:35:00Z,42.42,-124.42,11.0,5.0,0,0,,7.0,29.861221,,,TRUE,TRUE,,,,,,,CLR,,,,,,,,VFR,,,,,,,,,,,,METAR,7.0
K4S1 190015Z AUTO 00000KT 5SM HZ CLR 11/05 A2986 RMK AO2,K4S1,2023-03-19T00:15:00Z,42.42,-124.42,11.0,5.0,0,0,,5.0,29.861221,,,TRUE,TRUE,,,,,,HZ,CLR,,,,,,,,MVFR,,,,,,,,,,,,METAR,7.0
K4S1 182355Z AUTO 00000KT 7SM CLR 11/05 A2987 RMK AO2,K4S1,2023-03-18T23:55:00Z,42.42,-124.42,11.0,5.0,0,0,,7.0,29.870079,,,TRUE,TRUE,,,,,,,CLR,,,,,,,,VFR,,,,,,,,,,,,METAR,7.0
K4S1 182335Z AUTO 32003KT 7SM CLR 11/06 A2987 RMK AO2,K4S1,2023-03-18T23:35:00Z,42.42,-124.42,11.0,6.0,320,3,,7.0,29.870079,,,TRUE,TRUE,,,,,,,CLR,,,,,,,,VFR,,,,,,,,,,,,METAR,7.0
K4S1 182315Z AUTO 31004KT 5SM HZ CLR 11/05 A2988 RMK AO2,K4S1,2023-03-18T23:15:00Z,42.42,-124.42,11.0,5.0,310,4,,5.0,29.878937,,,TRUE,TRUE,,,,,,HZ,CLR,,,,,,,,MVFR,,,,,,,,,,,,METAR,7.0
K4S1 182255Z AUTO 00000KT 7SM CLR 11/05 A2988 RMK AO2,K4S1,2023-03-18T22:55:00Z,42.42,-124.42,11.0,5.0,0,0,,7.0,29.878937,,,TRUE,TRUE,,,,,,,CLR,,,,,,,,VFR,,,,,,,,,,,,METAR,7.0
K4S1 182235Z AUTO 00000KT 7SM CLR 10/05 A2990 RMK AO2,K4S1,2023-03-18T22:35:00Z,42.42,-124.42,10.0,5.0,0,0,,7.0,29.899607,,,TRUE,TRUE,,,,,,,CLR,,,,,,,,VFR,,,,,,,,,,,,METAR,7.0
K4S1 182215Z AUTO 00000KT 5SM HZ CLR 10/05 A2991 RMK AO2,K4S1,2023-03-18T22:15:00Z,42.42,-124.42,10.0,5.0,0,0,,5.0,29.911417,,,TRUE,TRUE,,,,,,HZ,CLR,,,,,,,,MVFR,,,,,,,,,,,,METAR,7.0
K4S1 182155Z AUTO 00000KT 5SM HZ CLR 10/05 A2992 RMK AO2,K4S1,2023-03-18T21:55:00Z,42.42,-124.42,10.0,5.0,0,0,,5.0,29.920275,,,TRUE,TRUE,,,,,,HZ,CLR,,,,,,,,MVFR,,,,,,,,,,,,METAR,7.0
K4S1 182135Z AUTO 00000KT 5SM HZ CLR 10/05 A2993 RMK AO2,K4S1,2023-03-18T21:35:00Z,42.42,-124.42,10.0,5.0,0,0,,5.0,29.929134,,,TRUE,TRUE,,,,,,HZ,CLR,,,,,,,,MVFR,,,,,,,,,,,,METAR,7.0
K4S1 182115Z AUTO 00000KT 5SM HZ CLR 10/05 A2994 RMK AO2,K4S1,2023-03-18T21:15:00Z,42.42,-124.42,10.0,5.0,0,0,,5.0,29.940945,,,TRUE,TRUE,,,,,,HZ,CLR,,,,,,,,MVFR,,,,,,,,,,,,METAR,7.0
K4S1 182055Z AUTO 32005KT 5SM HZ CLR 10/06 A2994 RMK AO2,K4S1,2023-03-18T20:55:00Z,42.42,-124.42,10.0,6.0,320,5,,5.0,29.940945,,,TRUE,TRUE,,,,,,HZ,CLR,,,,,,,,MVFR,,,,,,,,,,,,METAR,7.0
K4S1 182035Z AUTO 32004KT 7SM CLR 11/06 A2995 RMK AO2,K4S1,2023-03-18T20:35:00Z,42.42,-124.42,11.0,6.0,320,4,,7.0,29.949802,,,TRUE,TRUE,,,,,,,CLR,,,,,,,,VFR,,,,,,,,,,,,METAR,7.0
K4S1 182015Z AUTO 32006KT 7SM CLR 11/05 A2996 RMK AO2,K4S1,2023-03-18T20:15:00Z,42.42,-124.42,11.0,5.0,320,6,,7.0,29.958662,,,TRUE,TRUE,,,,,,,CLR,,,,,,,,VFR,,,,,,,,,,,,METAR,7.0
K4S1 181955Z AUTO 04007KT 7SM CLR 12/06 A2996 RMK AO2,K4S1,2023-03-18T19:55:00Z,42.42,-124.42,12.0,6.0,40,7,,7.0,29.958662,,,TRUE,TRUE,,,,,,,CLR,,,,,,,,VFR,,,,,,,,,,,,METAR,7.0
K4S1 181935Z AUTO 00000KT 7SM CLR 10/04 A2998 RMK AO2,K4S1,2023-03-18T19:35:00Z,42.42,-124.42,10.0,4.0,0,0,,7.0,29.97933,,,TRUE,TRUE,,,,,,,CLR,,,,,,,,VFR,,,,,,,,,,,,METAR,7.0
K4S1 181915Z AUTO 19003KT 5SM HZ CLR 09/05 A3000 RMK AO2,K4S1,2023-03-18T19:15:00Z,42.42,-124.42,9.0,5.0,190,3,,5.0,30.0,,,TRUE,TRUE,,,,,,HZ,CLR,,,,,,,,MVFR,,,,,,,,,,,,METAR,7.0
K4S1 181855Z AUTO 05004KT 7SM CLR 11/05 A2999 RMK AO2,K4S1,2023-03-18T18:55:00Z,42.42,-124.42,11.0,5.0,50,4,,7.0,29.991142,,,TRUE,TRUE,,,,,,,CLR,,,,,,,,VFR,,,,,,,,,,,,METAR,7.0
K4S1 181835Z AUTO 05009KT 5SM HZ CLR 10/05 A2999 RMK AO2,K4S1,2023-03-18T18:35:00Z,42.42,-124.42,10.0,5.0,50,9,,5.0,29.991142,,,TRUE,TRUE,,,,,,HZ,CLR,,,,,,,,MVFR,,,,,,,,,,,,METAR,7.0
K4S1 181815Z AUTO 04007KT 7SM CLR 10/05 A2999 RMK AO2,K4S1,2023-03-18T18:15:00Z,42.42,-124.42,10.0,5.0,40,7,,7.0,29.991142,,,TRUE,TRUE,,,,,,,CLR,,,,,,,,VFR,,,,,,,,,,,,METAR,7.0
K4S1 181755Z AUTO 06006KT 5SM HZ CLR 09/04 A3000 RMK AO2,K4S1,2023-03-18T17:55:00Z,42.42,-124.42,9.0,4.0,60,6,,5.0,30.0,,,TRUE,TRUE,,,,,,HZ,CLR,,,,,,,,MVFR,,,,,,,,,,,,METAR,7.0
K4S1 181735Z AUTO 06008KT 5SM HZ CLR 08/04 A2999 RMK AO2,K4S1,2023-03-18T17:35:00Z,42.42,-124.42,8.0,4.0,60,8,,5.0,29.991142,,,TRUE,TRUE,,,,,,HZ,CLR,,,,,,,,MVFR,,,,,,,,,,,,METAR,7.0
K4S1 181715Z AUTO 05010KT 5SM HZ CLR 08/03 A2999 RMK AO2,K4S1,2023-03-18T17:15:00Z,42.42,-124.42,8.0,3.0,50,10,,5.0,29.991142,,,TRUE,TRUE,,,,,,HZ,CLR,,,,,,,,MVFR,,,,,,,,,,,,METAR,7.0
K4S1 181655Z AUTO 06005KT 5SM HZ CLR 07/03 A3002 RMK AO2,K4S1,2023-03-18T16:55:00Z,42.42,-124.42,7.0,3.0,60,5,,5.0,30.02067,,,TRUE,TRUE,,,,,,HZ,CLR,,,,,,,,MVFR,,,,,,,,,,,,METAR,7.0
K4S1 181635Z AUTO 06009KT 5SM HZ CLR 06/03 A3001 RMK AO2,K4S1,2023-03-18T16:35:00Z,42.42,-124.42,6.0,3.0,60,9,,5.0,30.008858,,,TRUE,TRUE,,,,,,HZ,CLR,,,,,,,,MVFR,,,,,,,,,,,,METAR,7.0
K4S1 181615Z AUTO 05013KT 7SM CLR 06/03 A3000 RMK AO2,K4S1,2023-03-18T16:15:00Z,42.42,-124.42,6.0,3.0,50,13,,7.0,30.0,,,TRUE,TRUE,,,,,,,CLR,,,,,,,,VFR,,,,,,,,,,,,METAR,7.0
K4S1 181555Z AUTO 05010KT 7SM CLR 05/02 A3001 RMK AO2,K4S1,2023-03-18T15:55:00Z,42.42,-124.42,5.0,2.0,50,10,,7.0,30.008858,,,TRUE,TRUE,,,,,,,CLR,,,,,,,,VFR,,,,,,,,,,,,METAR,7.0
K4S1 181535Z AUTO 05010KT 7SM CLR 05/02 A3002 RMK AO2,K4S1,2023-03-18T15:35:00Z,42.42,-124.42,5.0,2.0,50,10,,7.0,30.02067,,,TRUE,TRUE,,,,,,,CLR,,,,,,,,VFR,,,,,,,,,,,,METAR,7.0
K4S1 181515Z AUTO 05010KT 7SM CLR 05/02 A3002 RMK AO2,K4S1,2023-03-18T15:15:00Z,42.42,-124.42,5.0,2.0,50,10,,7.0,30.02067,,,TRUE,TRUE,,,,,,,CLR,,,,,,,,VFR,,,,,,,,,,,,METAR,7.0
K4S1 181455Z AUTO 05006KT 7SM CLR 04/02 A3002 RMK AO2,K4S1,2023-03-18T14:55:00Z,42.42,-124.42,4.0,2.0,50,6,,7.0,30.02067,,,TRUE,TRUE,,,,,,,CLR,,,,,,,,VFR,,,,,,,,,,,,METAR,7.0
K4S1 181435Z AUTO 05007KT 7SM CLR 04/02 A3002 RMK AO2,K4S1,2023-03-18T14:35:00Z,42.42,-124.42,4.0,2.0,50,7,,7.0,30.02067,,,TRUE,TRUE,,,,,,,CLR,,,,,,,,VFR,,,,,,,,,,,,METAR,7.0
K4S1 181415Z AUTO 07006KT 7SM CLR 04/01 A3002 RMK AO2,K4S1,2023-03-18T14:15:00Z,42.42,-124.42,4.0,1.0,70,6,,7.0,30.02067,,,TRUE,TRUE,,,,,,,CLR,,,,,,,,VFR,,,,,,,,,,,,METAR,7.0
K4S1 181355Z AUTO 06006KT 7SM CLR 04/02 A3002 RMK AO2,K4S1,2023-03-18T13:55:00Z,42.42,-124.42,4.0,2.0,60,6,,7.0,30.02067,,,TRUE,TRUE,,,,,,,CLR,,,,,,,,VFR,,,,,,,,,,,,METAR,7.0
K4S1 181335Z AUTO 06009KT 7SM CLR 04/02 A3003 RMK AO2,K4S1,2023-03-18T13:35:00Z,42.42,-124.42,4.0,2.0,60,9,,7.0,30.029528,,,TRUE,TRUE,,,,,,,CLR,,,,,,,,VFR,,,,,,,,,,,,METAR,7.0
K4S1 181315Z AUTO 05009KT 7SM CLR 04/02 A3004 RMK AO2,K4S1,2023-03-18T13:15:00Z,42.42,-124.42,4.0,2.0,50,9,,7.0,30.041338,,,TRUE,TRUE,,,,,,,CLR,,,,,,,,VFR,,,,,,,,,,,,METAR,7.0
K4S1 181255Z AUTO 05008KT 7SM CLR 04/02 A3004 RMK AO2,K4S1,2023-03-18T12:55:00Z,42.42,-124.42,4.0,2.0,50,8,,7.0,30.041338,,,TRUE,TRUE,,,,,,,CLR,,,,,,,,VFR,,,,,,,,,,,,METAR,7.0
K4S1 181235Z AUTO 06007KT 7SM CLR 04/02 A3005 RMK AO2,K4S1,2023-03-18T12:35:00Z,42.42,-124.42,4.0,2.0,60,7,,7.0,30.050198,,,TRUE,TRUE,,,,,,,CLR,,,,,,,,VFR,,,,,,,,,,,,METAR,7.0
K4S1 181215Z AUTO 06008KT 7SM CLR 04/02 A3004 RMK AO2,K4S1,2023-03-18T12:15:00Z,42.42,-124.42,4.0,2.0,60,8,,7.0,30.041338,,,TRUE,TRUE,,,,,,,CLR,,,,,,,,VFR,,,,,,,,,,,,METAR,7.0
K4S1 181155Z AUTO 05011KT 7SM CLR 04/02 A3004 RMK AO2,K4S1,2023-03-18T11:55:00Z,42.42,-124.42,4.0,2.0,50,11,,7.0,30.041338,,,TRUE,TRUE,,,,,,,CLR,,,,,,,,VFR,,,,,,,,,,,,METAR,7.0
K4S1 181135Z AUTO 06007KT 7SM CLR 04/02 A3006 RMK AO2,K4S1,2023-03-18T11:35:00Z,42.42,-124.42,4.0,2.0,60,7,,7.0,30.059055,,,TRUE,TRUE,,,,,,,CLR,,,,,,,,VFR,,,,,,,,,,,,METAR,7.0
K4S1 181115Z AUTO 05010KT 7SM CLR 04/02 A3006 RMK AO2,K4S1,2023-03-18T11:15:00Z,42.42,-124.42,4.0,2.0,50,10,,7.0,30.059055,,,TRUE,TRUE,,,,,,,CLR,,,,,,,,VFR,,,,,,,,,,,,METAR,7.0
K4S1 181055Z AUTO 06008KT 7SM CLR 04/02 A3006 RMK AO2,K4S1,2023-03-18T10:55:00Z,42.42,-124.42,4.0,2.0,60,8,,7.0,30.059055,,,TRUE,TRUE,,,,,,,CLR,,,,,,,,VFR,,,,,,,,,,,,METAR,7.0
K4S1 181035Z AUTO 05010KT 10SM CLR 03/02 A3007 RMK AO2,K4S1,2023-03-18T10:35:00Z,42.42,-124.42,3.0,2.0,50,10,,10.0,30.070866,,,TRUE,TRUE,,,,,,,CLR,,,,,,,,VFR,,,,,,,,,,,,METAR,7.0
K4S1 181015Z AUTO 05008KT 7SM CLR 04/03 A3008 RMK AO2,K4S1,2023-03-18T10:15:00Z,42.42,-124.42,4.0,3.0,50,8,,7.0,30.079725,,,TRUE,TRUE,,,,,,,CLR,,,,,,,,VFR,,,,,,,,,,,,METAR,7.0
K4S1 180955Z AUTO 06006KT 7SM CLR 05/03 A3007 RMK AO2,K4S1,2023-03-18T09:55:00Z,42.42,-124.42,5.0,3.0,60,6,,7.0,30.070866,,,TRUE,TRUE,,,,,,,CLR,,,,,,,,VFR,,,,,,,,,,,,METAR,7.0
K4S1 180935Z AUTO 05008KT 7SM CLR 05/03 A3008 RMK AO2,K4S1,2023-03-18T09:35:00Z,42.42,-124.42,5.0,3.0,50,8,,7.0,30.079725,,,TRUE,TRUE,,,,,,,CLR,,,,,,,,VFR,,,,,,,,,,,,METAR,7.0
K4S1 180915Z AUTO 05007KT 7SM CLR 05/03 A3008 RMK AO2,K4S1,2023-03-18T09:15:00Z,42.42,-124.42,5.0,3.0,50,7,,7.0,30.079725,,,TRUE,TRUE,,,,,,,CLR,,,,,,,,VFR,,,,,,,,,,,,METAR,7.0
K4S1 180855Z AUTO 05006KT 7SM CLR 05/03 A3009 RMK AO2,K4S1,2023-03-18T08:55:00Z,42.42,-124.42,5.0,3.0,50,6,,7.0,30.088583,,,TRUE,TRUE,,,,,,,CLR,,,,,,,,VFR,,,,,,,,,,,,METAR,7.0
K4S1 180835Z AUTO 05006KT 7SM CLR 05/03 A3008 RMK AO2,K4S1,2023-03-18T08:35:00Z,42.42,-124.42,5.0,3.0,50,6,,7.0,30.079725,,,TRUE,TRUE,,,,,,,CLR,,,,,,,,VFR,,,,,,,,,,,,METAR,7.0
K4S1 180815Z AUTO 05007KT 5SM BR CLR 05/03 A3008 RMK AO2,K4S1,2023-03-18T08:15:00Z,42.42,-124.42,5.0,3.0,50,7,,5.0,30.079725,,,TRUE,TRUE,,,,,,BR,CLR,,,,,,,,MVFR,,,,,,,,,,,,METAR,7.0
K4S1 180755Z AUTO 06005KT 7SM CLR 05/04 A3009 RMK AO2,K4S1,2023-03-18T07:55:00Z,42.42,-124.42,5.0,4.0,60,5,,7.0,30.088583,,,TRUE,TRUE,,,,,,,CLR,,,,,,,,VFR,,,,,,,,,,,,METAR,7.0
K4S1 180735Z AUTO 09003KT 7SM CLR 05/03 A3010 RMK AO2,K4S1,2023-03-18T07:35:00Z,42.42,-124.42,5.0,3.0,90,3,,7.0,30.100393,,,TRUE,TRUE,,,,,,,CLR,,,,,,,,VFR,,,,,,,,,,,,METAR,7.0
K4S1 180715Z AUTO 05007KT 7SM CLR 05/03 A3010 RMK AO2,K4S1,2023-03-18T07:15:00Z,42.42,-124.42,5.0,3.0,50,7,,7.0,30.100393,,,TRUE,TRUE,,,,,,,CLR,,,,,,,,VFR,,,,,,,,,,,,METAR,7.0
K4S1 180655Z AUTO 05008KT 7SM CLR 06/04 A3011 RMK AO2,K4S1,2023-03-18T06:55:00Z,42.42,-124.42,6.0,4.0,50,8,,7.0,30.109253,,,TRUE,TRUE,,,,,,,CLR,,,,,,,,VFR,,,,,,,,,,,,METAR,7.0
K4S1 180635Z AUTO 08003KT 7SM CLR 05/03 A3012 RMK AO2,K4S1,2023-03-18T06:35:00Z,42.42,-124.42,5.0,3.0,80,3,,7.0,30.121063,,,TRUE,TRUE,,,,,,,CLR,,,,,,,,VFR,,,,,,,,,,,,METAR,7.0
K4S1 180615Z AUTO 04004KT 7SM CLR 05/04 A3013 RMK AO2,K4S1,2023-03-18T06:15:00Z,42.42,-124.42,5.0,4.0,40,4,,7.0,30.129921,,,TRUE,TRUE,,,,,,,CLR,,,,,,,,VFR,,,,,,,,,,,,METAR,7.0
K4S1 180555Z AUTO 00000KT 7SM CLR 05/03 A3013 RMK AO2,K4S1,2023-03-18T05:55:00Z,42.42,-124.42,5.0,3.0,0,0,,7.0,30.129921,,,TRUE,TRUE,,,,,,,CLR,,,,,,,,VFR,,,,,,,,,,,,METAR,7.0
K4S1 180535Z AUTO 00000KT 7SM CLR 06/04 A3013 RMK AO2,K4S1,2023-03-18T05:35:00Z,42.42,-124.42,6.0,4.0,0,0,,7.0,30.129921,,,TRUE,TRUE,,,,,,,CLR,,,,,,,,VFR,,,,,,,,,,,,METAR,7.0
K4S1 180515Z AUTO 00000KT 7SM CLR 06/04 A3013 RMK AO2,K4S1,2023-03-18T05:15:00Z,42.42,-124.42,6.0,4.0,0,0,,7.0,30.129921,,,TRUE,TRUE,,,,,,,CLR,,,,,,,,VFR,,,,,,,,,,,,METAR,7.0
K4S1 180455Z AUTO 00000KT 7SM CLR 06/05 A3014 RMK AO2,K4S1,2023-03-18T04:55:00Z,42.42,-124.42,6.0,5.0,0,0,,7.0,30.138779,,,TRUE,TRUE,,,,,,,CLR,,,,,,,,VFR,,,,,,,,,,,,METAR,7.0
K4S1 180435Z AUTO 00000KT 7SM CLR 06/05 A3013 RMK AO2,K4S1,2023-03-18T04:35:00Z,42.42,-124.42,6.0,5.0,0,0,,7.0,30.129921,,,TRUE,TRUE,,,,,,,CLR,,,,,,,,VFR,,,,,,,,,,,,METAR,7.0
K4S1 180415Z AUTO 11003KT 7SM CLR 06/04 A3012 RMK AO2,K4S1,2023-03-18T04:15:00Z,42.42,-124.42,6.0,4.0,110,3,,7.0,30.121063,,,TRUE,TRUE,,,,,,,CLR,,,,,,,,VFR,,,,,,,,,,,,METAR,7.0
K4S1 180355Z AUTO 00000KT 7SM CLR 07/05 A3012 RMK AO2,K4S1,2023-03-18T03:55:00Z,42.42,-124.42,7.0,5.0,0,0,,7.0,30.121063,,,TRUE,TRUE,,,,,,,CLR,,,,,,,,VFR,,,,,,,,,,,,METAR,7.0
K4S1 180335Z AUTO 00000KT 7SM CLR 08/05 A3012 RMK AO2,K4S1,2023-03-18T03:35:00Z,42.42,-124.42,8.0,5.0,0,0,,7.0,30.121063,,,TRUE,TRUE,,,,,,,CLR,,,,,,,,VFR,,,,,,,,,,,,METAR,7.0
K4S1 180315Z AUTO 00000KT 7SM CLR 08/05 A3012 RMK AO2,K4S1,2023-03-18T03:15:00Z,42.42,-124.42,8.0,5.0,0,0,,7.0,30.121063,,,TRUE,TRUE,,,,,,,CLR,,,,,,,,VFR,,,,,,,,,,,,METAR,7.0
K4S1 180255Z AUTO 00000KT 5SM BR CLR 08/06 A3012 RMK AO2,K4S1,2023-03-18T02:55:00Z,42.42,-124.42,8.0,6.0,0,0,,5.0,30.121063,,,TRUE,TRUE,,,,,,BR,CLR,,,,,,,,MVFR,,,,,,,,,,,,METAR,7.0
K4S1 180235Z AUTO 00000KT 7SM CLR 08/06 A3012 RMK AO2,K4S1,2023-03-18T02:35:00Z,42.42,-124.42,8.0,6.0,0,0,,7.0,30.121063,,,TRUE,TRUE,,,,,,,CLR,,,,,,,,VFR,,,,,,,,,,,,METAR,7.0
K4S1 180215Z AUTO 00000KT 5SM HZ CLR 08/06 A3012 RMK AO2,K4S1,2023-03-18T02:15:00Z,42.42,-124.42,8.0,6.0,0,0,,5.0,30.121063,,,TRUE,TRUE,,,,,,HZ,CLR,,,,,,,,MVFR,,,,,,,,,,,,METAR,7.0
K4S1 180155Z AUTO 27003KT 4SM HZ CLR 08/06 A3011 RMK AO2,K4S1,2023-03-18T01:55:00Z,42.42,-124.42,8.0,6.0,270,3,,4.0,30.109253,,,TRUE,TRUE,,,,,,HZ,CLR,,,,,,,,MVFR,,,,,,,,,,,,METAR,7.0
K4S1 180135Z AUTO 00000KT 4SM HZ CLR 09/06 A3011 RMK AO2,K4S1,2023-03-18T01:35:00Z,42.42,-124.42,9.0,6.0,0,0,,4.0,30.109253,,,TRUE,TRUE,,,,,,HZ,CLR,,,,,,,,MVFR,,,,,,,,,,,,METAR,7.0
K4S1 180115Z AUTO 00000KT 4SM HZ CLR 10/06 A3011 RMK AO2,K4S1,2023-03-18T01:15:00Z,42.42,-124.42,10.0,6.0,0,0,,4.0,30.109253,,,TRUE,TRUE,,,,,,HZ,CLR,,,,,,,,MVFR,,,,,,,,,,,,METAR,7.0
K4S1 180055Z AUTO 00000KT 5SM HZ CLR 10/07 A3012 RMK AO2,K4S1,2023-03-18T00:55:00Z,42.42,-124.42,10.0,7.0,0,0,,5.0,30.121063,,,TRUE,TRUE,,,,,,HZ,CLR,,,,,,,,MVFR,,,,,,,,,,,,METAR,7.0
K4S1 180035Z AUTO 00000KT 5SM HZ CLR 10/07 A3011 RMK AO2,K4S1,2023-03-18T00:35:00Z,42.42,-124.42,10.0,7.0,0,0,,5.0,30.109253,,,TRUE,TRUE,,,,,,HZ,CLR,,,,,,,,MVFR,,,,,,,,,,,,METAR,7.0
K4S1 180015Z AUTO 00000KT 7SM CLR 10/06 A3011 RMK AO2,K4S1,2023-03-18T00:15:00Z,42.42,-124.42,10.0,6.0,0,0,,7.0,30.109253,,,TRUE,TRUE,,,,,,,CLR,,,,,,,,VFR,,,,,,,,,,,,METAR,7.0
K4S1 172355Z AUTO 00000KT 5SM HZ CLR 10/07 A3010 RMK AO2,K4S1,2023-03-17T23:55:00Z,42.42,-124.42,10.0,7.0,0,0,,5.0,30.100393,,,TRUE,TRUE,,,,,,HZ,CLR,,,,,,,,MVFR,,,,,,,,,,,,METAR,7.0
K4S1 172335Z AUTO 00000KT 5SM HZ CLR 10/07 A3010 RMK AO2,K4S1,2023-03-17T23:35:00Z,42.42,-124.42,10.0,7.0,0,0,,5.0,30.100393,,,TRUE,TRUE,,,,,,HZ,CLR,,,,,,,,MVFR,,,,,,,,,,,,METAR,7.0
K4S1 172315Z AUTO 00000KT 7SM CLR 10/07 A3011 RMK AO2,K4S1,2023-03-17T23:15:00Z,42.42,-124.42,10.0,7.0,0,0,,7.0,30.109253,,,TRUE,TRUE,,,,,,,CLR,,,,,,,,VFR,,,,,,,,,,,,METAR,7.0
K4S1 172255Z AUTO 00000KT 5SM HZ CLR 10/07 A3010 RMK AO2,K4S1,2023-03-17T22:55:00Z,42.42,-124.42,10.0,7.0,0,0,,5.0,30.100393,,,TRUE,TRUE,,,,,,HZ,CLR,,,,,,,,MVFR,,,,,,,,,,,,METAR,7.0
K4S1 172235Z AUTO 00000KT 5SM HZ CLR 09/06 A3010 RMK AO2,K4S1,2023-03-17T22:35:00Z,42.42,-124.42,9.0,6.0,0,0,,5.0,30.100393,,,TRUE,TRUE,,,,,,HZ,CLR,,,,,,,,MVFR,,,,,,,,,,,,METAR,7.0
K4S1 172215Z AUTO 00000KT 5SM HZ CLR 09/06 A3012 RMK AO2,K4S1,2023-03-17T22:15:00Z,42.42,-124.42,9.0,6.0,0,0,,5.0,30.121063,,,TRUE,TRUE,,,,,,HZ,CLR,,,,,,,,MVFR,,,,,,,,,,,,METAR,7.0
K4S1 172155Z AUTO 22003KT 4SM BR CLR 09/07 A3013 RMK AO2,K4S1,2023-03-17T21:55:00Z,42.42,-124.42,9.0,7.0,220,3,,4.0,30.129921,,,TRUE,TRUE,,,,,,BR,CLR,,,,,,,,MVFR,,,,,,,,,,,,METAR,7.0
K4S1 172135Z AUTO 22003KT 5SM HZ CLR 10/06 A3013 RMK AO2,K4S1,2023-03-17T21:35:00Z,42.42,-124.42,10.0,6.0,220,3,,5.0,30.129921,,,TRUE,TRUE,,,,,,HZ,CLR,,,,,,,,MVFR,,,,,,,,,,,,METAR,7.0
K4S1 172115Z AUTO 22004KT 5SM HZ CLR 10/07 A3013 RMK AO2,K4S1,2023-03-17T21:15:00Z,42.42,-124.42,10.0,7.0,220,4,,5.0,30.129921,,,TRUE,TRUE,,,,,,HZ,CLR,,,,,,,,MVFR,,,,,,,,,,,,METAR,7.0
K4S1 172055Z AUTO 24005KT 5SM HZ CLR 10/07 A3014 RMK AO2,K4S1,2023-03-17T20:55:00Z,42.42,-124.42,10.0,7.0,240,5,,5.0,30.138779,,,TRUE,TRUE,,,,,,HZ,CLR,,,,,,,,MVFR,,,,,,,,,,,,METAR,7.0
K4S1 172035Z AUTO 22004KT 5SM HZ CLR 10/07 A3014 RMK AO2,K4S1,2023-03-17T20:35:00Z,42.42,-124.42,10.0,7.0,220,4,,5.0,30.138779,,,TRUE,TRUE,,,,,,HZ,CLR,,,,,,,,MVFR,,,,,,,,,,,,METAR,7.0
K4S1 172015Z AUTO 24005KT 5SM HZ CLR 10/06 A3015 RMK AO2,K4S1,2023-03-17T20:15:00Z,42.42,-124.42,10.0,6.0,240,5,,5.0,30.15059,,,TRUE,TRUE,,,,,,HZ,CLR,,,,,,,,MVFR,,,,,,,,,,,,METAR,7.0
K4S1 171955Z AUTO 23005KT 5SM HZ CLR 10/06 A3015 RMK AO2,K4S1,2023-03-17T19:55:00Z,42.42,-124.42,10.0,6.0,230,5,,5.0,30.15059,,,TRUE,TRUE,,,,,,HZ,CLR,,,,,,,,MVFR,,,,,,,,,,,,METAR,7.0
K4S1 171935Z AUTO 21005KT 5SM HZ CLR 10/06 A3016 RMK AO2,K4S1,2023-03-17T19:35:00Z,42.42,-124.42,10.0,6.0,210,5,,5.0,30.159449,,,TRUE,TRUE,,,,,,HZ,CLR,,,,,,,,MVFR,,,,,,,,,,,,METAR,7.0
K4S1 171915Z AUTO 22005KT 5SM HZ CLR 10/06 A3016 RMK AO2,K4S1,2023-03-17T19:15:00Z,42.42,-124.42,10.0,6.0,220,5,,5.0,30.159449,,,TRUE,TRUE,,,,,,HZ,CLR,,,,,,,,MVFR,,,,,,,,,,,,METAR,7.0
