No errors
Max results hit (1000): not all possible results returned; 
482 ms
data source=metars
1000 results
raw_text,station_id,observation_time,latitude,longitude,temp_c,dewpoint_c,wind_dir_degrees,wind_speed_kt,wind_gust_kt,visibility_statute_mi,altim_in_hg,sea_level_pressure_mb,corrected,auto,auto_station,maintenance_indicator_on,no_signal,lightning_sensor_off,freezing_rain_sensor_off,present_weather_sensor_off,wx_string,sky_cover,cloud_base_ft_agl,sky_cover,cloud_base_ft_agl,sky_cover,cloud_base_ft_agl,sky_cover,cloud_base_ft_agl,flight_category,three_hr_pressure_tendency_mb,maxT_c,minT_c,maxT24hr_c,minT24hr_c,precip_in,pcp3hr_in,pcp6hr_in,pcp24hr_in,snow_in,vert_vis_ft,metar_type,elevation_m
K6S2 021655Z AUTO VRB04G11KT 2SM -RA BR BKN014 05/05 A3012 RMK AO2 P0001,K6S2,2023-03-02T16:55:00Z,43.98,-124.12,5.0,5.0,0,4,11,2.0,30.121063,,,TRUE,TRUE,,,,,,-RA BR,BKN,1400,,,,,,,IFR,,,,,,0.01,,,,,,METAR,16.0
K6S2 021635Z AUTO 18009KT 130V200 3SM UP BR OVC016 05/05 A3013 RMK AO2,K6S2,2023-03-02T16:35:00Z,43.98,-124.12,5.0,5.0,180,9,,3.0,30.129921,,,TRUE,TRUE,,,,,,BR UP,OVC,1600,,,,,,,MVFR,,,,,,,,,,,,SPECI,16.0
K6S2 021615Z AUTO VRB06G11KT 3SM -RA BR OVC017 05/05 A3013 RMK AO2,K6S2,2023-03-02T16:15:00Z,43.98,-124.12,5.0,5.0,0,6,11,3.0,30.129921,,,TRUE,TRUE,,,,,,-RA BR,OVC,1700,,,,,,,MVFR,,,,,,,,,,,,METAR,16.0
K6S2 021555Z AUTO VRB05KT 3SM UP BR OVC018 05/05 A3013 RMK AO2,K6S2,2023-03-02T15:55:00Z,43.98,-124.12,5.0,5.0,0,5,,3.0,30.129921,,,TRUE,TRUE,,,,,,BR UP,OVC,1800,,,,,,,MVFR,,,,,,,,,,,,METAR,16.0
K6S2 021535Z AUTO VRB05KT 6SM UP BR OVC018 05/05 A3013 RMK AO2,K6S2,2023-03-02T15:35:00Z,43.98,-124.12,5.0,5.0,0,5,,6.0,30.129921,,,TRUE,TRUE,,,,,,BR UP,OVC,1800,,,,,,,MVFR,,,,,,,,,,,,METAR,16.0
K6S2 021515Z AUTO 15004G10KT 3SM -RA BR OVC018 05/05 A3013 RMK AO2,K6S2,2023-03-02T15:15:00Z,43.98,-124.12,5.0,5.0,150,4,10,3.0,30.129921,,,TRUE,TRUE,,,,,,-RA BR,OVC,1800,,,,,,,MVFR,,,,,,,,,,,,SPECI,16.0
K6S2 021455Z AUTO VRB04G12KT 3SM -RA BR OVC020 05/04 A3012 RMK AO2,K6S2,2023-03-02T14:55:00Z,43.98,-124.12,5.0,4.0,0,4,12,3.0,30.121063,,,TRUE,TRUE,,,,,,-RA BR,OVC,2000,,,,,,,MVFR,,,,,,,,,,,,METAR,16.0
K6S2 021435Z AUTO VRB05G13KT 9SM -RA OVC022 05/04 A3013 RMK AO2,K6S2,2023-03-02T14:35:00Z,43.98,-124.12,5.0,4.0,0,5,13,9.0,30.129921,,,TRUE,TRUE,,,,,,-RA,OVC,2200,,,,,,,MVFR,,,,,,,,,,,,METAR,16.0
K6S2 021415Z AUTO VRB06G12KT 10SM OVC023 06/04 A3013 RMK AO2,K6S2,2023-03-02T14:15:00Z,43.98,-124.12,6.0,4.0,0,6,12,10.0,30.129921,,,TRUE,TRUE,,,,,,,OVC,2300,,,,,,,MVFR,,,,,,,,,,,,SPECI,16.0
K6S2 021355Z AUTO 17006G12KT 10SM BKN027 OVC037 05/03 A3014 RMK AO2,K6S2,2023-03-02T13:55:00Z,43.98,-124.12,5.0,3.0,170,6,12,10.0,30.138779,,,TRUE,TRUE,,,,,,,BKN,2700,OVC,3700,,,,,MVFR,,,,,,,,,,,,METAR,16.0
K6S2 021335Z AUTO 16006KT 10SM -RA BKN030 OVC038 06/03 A3015 RMK AO2,K6S2,2023-03-02T13:35:00Z,43.98,-124.12,6.0,3.0,160,6,,10.0,30.15059,,,TRUE,TRUE,,,,,,-RA,BKN,3000,OVC,3800,,,,,MVFR,,,,,,,,,,,,METAR,16.0
K6S2 021315Z AUTO 15006KT 10SM -RA BKN032 BKN041 OVC046 05/03 A3016 RMK AO2,K6S2,2023-03-02T13:15:00Z,43.98,-124.12,5.0,3.0,150,6,,10.0,30.159449,,,TRUE,TRUE,,,,,,-RA,BKN,3200,BKN,4100,OVC,4600,,,VFR,,,,,,,,,,,,METAR,16.0
K6S2 021255Z AUTO VRB06G11KT 10SM -RA BKN034 BKN047 OVC055 06/03 A3016 RMK AO2,K6S2,2023-03-02T12:55:00Z,43.98,-124.12,6.0,3.0,0,6,11,10.0,30.159449,,,TRUE,TRUE,,,,,,-RA,BKN,3400,BKN,4700,OVC,5500,,,VFR,,,,,,,,,,,,METAR,16.0
K6S2 021235Z AUTO 15004G10KT 10SM FEW037 OVC050 06/02 A3016 RMK AO2,K6S2,2023-03-02T12:35:00Z,43.98,-124.12,6.0,2.0,150,4,10,10.0,30.159449,,,TRUE,TRUE,,,,,,,FEW,3700,OVC,5000,,,,,VFR,,,,,,,,,,,,METAR,16.0
K6S2 021215Z AUTO VRB06KT 10SM FEW036 OVC050 05/02 A3016 RMK AO2,K6S2,2023-03-02T12:15:00Z,43.98,-124.12,5.0,2.0,0,6,,10.0,30.159449,,,TRUE,TRUE,,,,,,,FEW,3600,OVC,5000,,,,,VFR,,,,,,,,,,,,METAR,16.0
K6S2 021155Z AUTO VRB05KT 10SM BKN034 OVC050 05/02 A3018 RMK AO2,K6S2,2023-03-02T11:55:00Z,43.98,-124.12,5.0,2.0,0,5,,10.0,30.180119,,,TRUE,TRUE,,,,,,,BKN,3400,OVC,5000,,,,,VFR,,,,,,,,,,,,METAR,16.0
K6S2 021135Z AUTO 16004KT 10SM BKN033 OVC041 05/02 A3018 RMK AO2,K6S2,2023-03-02T11:35:00Z,43.98,-124.12,5.0,2.0,160,4,,10.0,30.180119,,,TRUE,TRUE,,,,,,,BKN,3300,OVC,4100,,,,,VFR,,,,,,,,,,,,SPECI,16.0
K6S2 021115Z AUTO 17005KT 10SM OVC036 05/02 A3019 RMK AO2,K6S2,2023-03-02T11:15:00Z,43.98,-124.12,5.0,2.0,170,5,,10.0,30.188976,,,TRUE,TRUE,,,,,,,OVC,3600,,,,,,,VFR,,,,,,,,,,,,METAR,16.0
K6S2 021055Z AUTO VRB05KT 10SM BKN034 BKN040 OVC046 05/03 A3018 RMK AO2,K6S2,2023-03-02T10:55:00Z,43.98,-124.12,5.0,3.0,0,5,,10.0,30.180119,,,TRUE,TRUE,,,,,,,BKN,3400,BKN,4000,OVC,4600,,,VFR,,,,,,,,,,,,METAR,16.0
K6S2 021035Z AUTO VRB04KT 10SM FEW029 BKN036 OVC048 05/03 A3019 RMK AO2,K6S2,2023-03-02T10:35:00Z,43.98,-124.12,5.0,3.0,0,4,,10.0,30.188976,,,TRUE,TRUE,,,,,,,FEW,2900,BKN,3600,OVC,4800,,,VFR,,,,,,,,,,,,METAR,16.0
K6S2 021015Z AUTO 00000KT 10SM FEW028 FEW035 OVC050 04/04 A3020 RMK AO2,K6S2,2023-03-02T10:15:00Z,43.98,-124.12,4.0,4.0,0,0,,10.0,30.200787,,,TRUE,TRUE,,,,,,,FEW,2800,FEW,3500,OVC,5000,,,VFR,,,,,,,,,,,,METAR,16.0
K6S2 020955Z AUTO 00000KT 10SM OVC055 04/04 A3020 RMK AO2,K6S2,2023-03-02T09:55:00Z,43.98,-124.12,4.0,4.0,0,0,,10.0,30.200787,,,TRUE,TRUE,,,,,,,OVC,5500,,,,,,,VFR,,,,,,,,,,,,METAR,16.0
K6S2 020935Z AUTO 00000KT 10SM OVC055 04/04 A3020 RMK AO2,K6S2,2023-03-02T09:35:00Z,43.98,-124.12,4.0,4.0,0,0,,10.0,30.200787,,,TRUE,TRUE,,,,,,,OVC,5500,,,,,,,VFR,,,,,,,,,,,,METAR,16.0
K6S2 020915Z AUTO 00000KT 10SM OVC055 04/04 A3020 RMK AO2,K6S2,2023-03-02T09:15:00Z,43.98,-124.12,4.0,4.0,0,0,,10.0,30.200787,,,TRUE,TRUE,,,,,,,OVC,5500,,,,,,,VFR,,,,,,,,,,,,SPECI,16.0
K6S2 020855Z AUTO 00000KT 10SM OVC055 04/03 A3019 RMK AO2,K6S2,2023-03-02T08:55:00Z,43.98,-124.12,4.0,3.0,0,0,,10.0,30.188976,,,TRUE,TRUE,,,,,,,OVC,5500,,,,,,,VFR,,,,,,,,,,,,METAR,16.0
K6S2 020835Z AUTO 00000KT 10SM OVC050 04/04 A3020 RMK AO2,K6S2,2023-03-02T08:35:00Z,43.98,-124.12,4.0,4.0,0,0,,10.0,30.200787,,,TRUE,TRUE,,,,,,,OVC,5000,,,,,,,VFR,,,,,,,,,,,,METAR,16.0
K6S2 020815Z AUTO 00000KT 10SM OVC055 04/04 A3020 RMK AO2,K6S2,2023-03-02T08:15:00Z,43.98,-124.12,4.0,4.0,0,0,,10.0,30.200787,,,TRUE,TRUE,,,,,,,OVC,5500,,,,,,,VFR,,,,,,,,,,,,METAR,16.0
K6S2 020755Z AUTO 00000KT 10SM BKN060 OVC070 03/03 A3020 RMK AO2,K6S2,2023-03-02T07:55:00Z,43.98,-124.12,3.0,3.0,0,0,,10.0,30.200787,,,TRUE,TRUE,,,,,,,BKN,6000,OVC,7000,,,,,VFR,,,,,,,,,,,,METAR,16.0
K6S2 020735Z AUTO 00000KT 10SM OVC065 03/03 A3020 RMK AO2,K6S2,2023-03-02T07:35:00Z,43.98,-124.12,3.0,3.0,0,0,,10.0,30.200787,,,TRUE,TRUE,,,,,,,OVC,6500,,,,,,,VFR,,,,,,,,,,,,METAR,16.0
K6S2 020715Z AUTO 00000KT 10SM OVC070 02/02 A3021 RMK AO2,K6S2,2023-03-02T07:15:00Z,43.98,-124.12,2.0,2.0,0,0,,10.0,30.209646,,,TRUE,TRUE,,,,,,,OVC,7000,,,,,,,VFR,,,,,,,,,,,,SPECI,16.0
K6S2 020635Z AUTO 00000KT 10SM OVC065 02/02 A3022 RMK AO2,K6S2,2023-03-02T06:35:00Z,43.98,-124.12,2.0,2.0,0,0,,10.0,30.221457,,,TRUE,TRUE,,,,,,,OVC,6500,,,,,,,VFR,,,,,,,,,,,,SPECI,16.0
K6S2 020615Z AUTO 00000KT 10SM OVC060 02/02 A3023 RMK AO2,K6S2,2023-03-02T06:15:00Z,43.98,-124.12,2.0,2.0,0,0,,10.0,30.230314,,,TRUE,TRUE,,,,,,,OVC,6000,,,,,,,VFR,,,,,,,,,,,,METAR,16.0
K6S2 020555Z AUTO 00000KT 10SM OVC060 02/02 A3023 RMK AO2,K6S2,2023-03-02T05:55:00Z,43.98,-124.12,2.0,2.0,0,0,,10.0,30.230314,,,TRUE,TRUE,,,,,,,OVC,6000,,,,,,,VFR,,,,,,,,,,,,METAR,16.0
K6S2 020535Z AUTO 00000KT 10SM BKN065 02/02 A3023 RMK AO2,K6S2,2023-03-02T05:35:00Z,43.98,-124.12,2.0,2.0,0,0,,10.0,30.230314,,,TRUE,TRUE,,,,,,,BKN,6500,,,,,,,VFR,,,,,,,,,,,,METAR,16.0
K6S2 020515Z AUTO 00000KT 10SM SCT070 02/02 A3022 RMK AO2,K6S2,2023-03-02T05:15:00Z,43.98,-124.12,2.0,2.0,0,0,,10.0,30.221457,,,TRUE,TRUE,,,,,,,SCT,7000,,,,,,,VFR,,,,,,,,,,,,SPECI,16.0
K6S2 020455Z AUTO 00000KT 10SM BKN070 02/02 A3021 RMK AO2,K6S2,2023-03-02T04:55:00Z,43.98,-124.12,2.0,2.0,0,0,,10.0,30.209646,,,TRUE,TRUE,,,,,,,BKN,7000,,,,,,,VFR,,,,,,,,,,,,SPECI,16.0
K6S2 020435Z AUTO 00000KT 10SM CLR 02/02 A3021 RMK AO2,K6S2,2023-03-02T04:35:00Z,43.98,-124.12,2.0,2.0,0,0,,10.0,30.209646,,,TRUE,TRUE,,,,,,,CLR,,,,,,,,VFR,,,,,,,,,,,,SPECI,16.0
K6S2 020415Z AUTO 00000KT 10SM FEW075 03/03 A3021 RMK AO2,K6S2,2023-03-02T04:15:00Z,43.98,-124.12,3.0,3.0,0,0,,10.0,30.209646,,,TRUE,TRUE,,,,,,,FEW,7500,,,,,,,VFR,,,,,,,,,,,,SPECI,16.0
K6S2 020355Z AUTO 00000KT 10SM SCT075 03/03 A3021 RMK AO2,K6S2,2023-03-02T03:55:00Z,43.98,-124.12,3.0,3.0,0,0,,10.0,30.209646,,,TRUE,TRUE,,,,,,,SCT,7500,,,,,,,VFR,,,,,,,,,,,,METAR,16.0
K6S2 020335Z AUTO 00000KT 10SM SCT075 SCT085 03/03 A3022 RMK AO2,K6S2,2023-03-02T03:35:00Z,43.98,-124.12,3.0,3.0,0,0,,10.0,30.221457,,,TRUE,TRUE,,,,,,,SCT,7500,SCT,8500,,,,,VFR,,,,,,,,,,,,METAR,16.0
K6S2 020315Z AUTO 00000KT 10SM FEW004 03/03 A3022 RMK AO2,K6S2,2023-03-02T03:15:00Z,43.98,-124.12,3.0,3.0,0,0,,10.0,30.221457,,,TRUE,TRUE,,,,,,,FEW,400,,,,,,,VFR,,,,,,,,,,,,SPECI,16.0
K6S2 020255Z AUTO 00000KT 10SM FEW003 04/04 A3022 RMK AO2,K6S2,2023-03-02T02:55:00Z,43.98,-124.12,4.0,4.0,0,0,,10.0,30.221457,,,TRUE,TRUE,,,,,,,FEW,300,,,,,,,VFR,,,,,,,,,,,,METAR,16.0
K6S2 020235Z AUTO 00000KT 10SM CLR 04/03 A3022 RMK AO2,K6S2,2023-03-02T02:35:00Z,43.98,-124.12,4.0,3.0,0,0,,10.0,30.221457,,,TRUE,TRUE,,,,,,,CLR,,,,,,,,VFR,,,,,,,,,,,,METAR,16.0
K6S2 020215Z AUTO 00000KT 10SM CLR 05/03 A3022 RMK AO2,K6S2,2023-03-02T02:15:00Z,43.98,-124.12,5.0,3.0,0,0,,10.0,30.221457,,,TRUE,TRUE,,,,,,,CLR,,,,,,,,VFR,,,,,,,,,,,,METAR,16.0
K6S2 020155Z AUTO 00000KT 10SM CLR 07/02 A3021 RMK AO2,K6S2,2023-03-02T01:55:00Z,43.98,-124.12,7.0,2.0,0,0,,10.0,30.209646,,,TRUE,TRUE,,,,,,,CLR,,,,,,,,VFR,,,,,,,,,,,,METAR,16.0
K6S2 020135Z AUTO 00000KT 10SM CLR 07/02 A3021 RMK AO2,K6S2,2023-03-02T01:35:00Z,43.98,-124.12,7.0,2.0,0,0,,10.0,30.209646,,,TRUE,TRUE,,,,,,,CLR,,,,,,,,VFR,,,,,,,,,,,,SPECI,16.0
K6S2 020115Z AUTO 30004KT 10SM CLR 07/02 A3021 RMK AO2,K6S2,2023-03-02T01:15:00Z,43.98,-124.12,7.0,2.0,300,4,,10.0,30.209646,,,TRUE,TRUE,,,,,,,CLR,,,,,,,,VFR,,,,,,,,,,,,SPECI,16.0
K6S2 020055Z AUTO 26004KT 10SM CLR 07/01 A3021 RMK AO2,K6S2,2023-03-02T00:55:00Z,43.98,-124.12,7.0,1.0,260,4,,10.0,30.209646,,,TRUE,TRUE,,,,,,,CLR,,,,,,,,VFR,,,,,,,,,,,,METAR,16.0
K6S2 020035Z AUTO VRB04KT 10SM CLR 08/02 A3021 RMK AO2,K6S2,2023-03-02T00:35:00Z,43.98,-124.12,8.0,2.0,0,4,,10.0,30.209646,,,TRUE,TRUE,,,,,,,CLR,,,,,,,,VFR,,,,,,,,,,,,METAR,16.0
K6S2 020015Z AUTO 27004KT 10SM CLR 07/02 A3021 RMK AO2,K6S2,2023-03-02T00:15:00Z,43.98,-124.12,7.0,2.0,270,4,,10.0,30.209646,,,TRUE,TRUE,,,,,,,CLR,,,,,,,,VFR,,,,,,,,,,,,METAR,16.0
K6S2 012355Z AUTO 29005KT 10SM CLR 07/02 A3021 RMK AO2,K6S2,2023-03-01T23:55:00Z,43.98,-124.12,7.0,2.0,290,5,,10.0,30.209646,,,TRUE,TRUE,,,,,,,CLR,,,,,,,,VFR,,,,,,,,,,,,SPECI,16.0
K6S2 012335Z AUTO 25006KT 10SM CLR 08/02 A3021 RMK AO2,K6S2,2023-03-01T23:35:00Z,43.98,-124.12,8.0,2.0,250,6,,10.0,30.209646,,,TRUE,TRUE,,,,,,,CLR,,,,,,,,VFR,,,,,,,,,,,,SPECI,16.0
K6S2 012315Z AUTO VRB06KT 10SM CLR 08/03 A3020 RMK AO2,K6S2,2023-03-01T23:15:00Z,43.98,-124.12,8.0,3.0,0,6,,10.0,30.200787,,,TRUE,TRUE,,,,,,,CLR,,,,,,,,VFR,,,,,,,,,,,,METAR,16.0
K6S2 012255Z AUTO 23004KT 10SM CLR 08/03 A3020 RMK AO2,K6S2,2023-03-01T22:55:00Z,43.98,-124.12,8.0,3.0,230,4,,10.0,30.200787,,,TRUE,TRUE,,,,,,,CLR,,,,,,,,VFR,,,,,,,,,,,,METAR,16.0
K6S2 012235Z AUTO VRB06KT 10SM CLR 07/02 A3019 RMK AO2,K6S2,2023-03-01T22:35:00Z,43.98,-124.12,7.0,2.0,0,6,,10.0,30.188976,,,TRUE,TRUE,,,,,,,CLR,,,,,,,,VFR,,,,,,,,,,,,SPECI,16.0
K6S2 012215Z AUTO 24005KT 10SM CLR 07/02 A3019 RMK AO2,K6S2,2023-03-01T22:15:00Z,43.98,-124.12,7.0,2.0,240,5,,10.0,30.188976,,,TRUE,TRUE,,,,,,,CLR,,,,,,,,VFR,,,,,,,,,,,,SPECI,16.0
K6S2 012155Z AUTO 25006KT 10SM CLR 07/02 A3019 RMK AO2,K6S2,2023-03-01T21:55:00Z,43.98,-124.12,7.0,2.0,250,6,,10.0,30.188976,,,TRUE,TRUE,,,,,,,CLR,,,,,,,,VFR,,,,,,,,,,,,METAR,16.0
K6S2 012135Z AUTO 24007KT 210V280 10SM CLR 07/03 A3019 RMK AO2,K6S2,2023-03-01T21:35:00Z,43.98,-124.12,7.0,3.0,240,7,,10.0,30.188976,,,TRUE,TRUE,,,,,,,CLR,,,,,,,,VFR,,,,,,,,,,,,METAR,16.0
K6S2 012115Z AUTO VRB05KT 10SM CLR 07/04 A3019 RMK AO2,K6S2,2023-03-01T21:15:00Z,43.98,-124.12,7.0,4.0,0,5,,10.0,30.188976,,,TRUE,TRUE,,,,,,,CLR,,,,,,,,VFR,,,,,,,,,,,,METAR,16.0
K6S2 012055Z AUTO 27007KT 10SM CLR 07/03 A3018 RMK AO2,K6S2,2023-03-01T20:55:00Z,43.98,-124.12,7.0,3.0,270,7,,10.0,30.180119,,,TRUE,TRUE,,,,,,,CLR,,,,,,,,VFR,,,,,,,,,,,,METAR,16.0
K6S2 012035Z AUTO 25006KT 10SM SCT026 SCT032 06/04 A3018 RMK AO2,K6S2,2023-03-01T20:35:00Z,43.98,-124.12,6.0,4.0,250,6,,10.0,30.180119,,,TRUE,TRUE,,,,,,,SCT,2600,SCT,3200,,,,,VFR,,,,,,,,,,,,SPECI,16.0
K6S2 012015Z AUTO 28005KT 10SM SCT025 SCT032 07/03 A3017 RMK AO2,K6S2,2023-03-01T20:15:00Z,43.98,-124.12,7.0,3.0,280,5,,10.0,30.171259,,,TRUE,TRUE,,,,,,,SCT,2500,SCT,3200,,,,,VFR,,,,,,,,,,,,METAR,16.0
K6S2 011955Z AUTO 00000KT 10SM FEW022 06/03 A3017 RMK AO2,K6S2,2023-03-01T19:55:00Z,43.98,-124.12,6.0,3.0,0,0,,10.0,30.171259,,,TRUE,TRUE,,,,,,,FEW,2200,,,,,,,VFR,,,,,,,,,,,,METAR,16.0
K6S2 011935Z AUTO 00000KT 10SM CLR 06/02 A3017 RMK AO2,K6S2,2023-03-01T19:35:00Z,43.98,-124.12,6.0,2.0,0,0,,10.0,30.171259,,,TRUE,TRUE,,,,,,,CLR,,,,,,,,VFR,,,,,,,,,,,,SPECI,16.0
K6S2 011915Z AUTO 00000KT 10SM CLR 06/03 A3018 RMK AO2,K6S2,2023-03-01T19:15:00Z,43.98,-124.12,6.0,3.0,0,0,,10.0,30.180119,,,TRUE,TRUE,,,,,,,CLR,,,,,,,,VFR,,,,,,,,,,,,METAR,16.0
K6S2 011855Z AUTO 00000KT 10SM CLR 06/03 A3017 RMK AO2,K6S2,2023-03-01T18:55:00Z,43.98,-124.12,6.0,3.0,0,0,,10.0,30.171259,,,TRUE,TRUE,,,,,,,CLR,,,,,,,,VFR,,,,,,,,,,,,METAR,16.0
K6S2 011835Z AUTO 00000KT 10SM CLR 05/05 A3016 RMK AO2,K6S2,2023-03-01T18:35:00Z,43.98,-124.12,5.0,5.0,0,0,,10.0,30.159449,,,TRUE,TRUE,,,,,,,CLR,,,,,,,,VFR,,,,,,,,,,,,SPECI,16.0
K6S2 011815Z AUTO 00000KT 10SM CLR 04/04 A3015 RMK AO2,K6S2,2023-03-01T18:15:00Z,43.98,-124.12,4.0,4.0,0,0,,10.0,30.15059,,,TRUE,TRUE,,,,,,,CLR,,,,,,,,VFR,,,,,,,,,,,,SPECI,16.0
K6S2 011755Z AUTO 00000KT 10SM CLR 03/03 A3015 RMK AO2,K6S2,2023-03-01T17:55:00Z,43.98,-124.12,3.0,3.0,0,0,,10.0,30.15059,,,TRUE,TRUE,,,,,,,CLR,,,,,,,,VFR,,,,,,,,,,,,SPECI,16.0
K6S2 011735Z AUTO 00000KT 10SM CLR 03/03 A3014 RMK AO2,K6S2,2023-03-01T17:35:00Z,43.98,-124.12,3.0,3.0,0,0,,10.0,30.138779,,,TRUE,TRUE,,,,,,,CLR,,,,,,,,VFR,,,,,,,,,,,,SPECI,16.0
K6S2 011715Z AUTO 00000KT 10SM CLR 02/02 A3013 RMK AO2,K6S2,2023-03-01T17:15:00Z,43.98,-124.12,2.0,2.0,0,0,,10.0,30.129921,,,TRUE,TRUE,,,,,,,CLR,,,,,,,,VFR,,,,,,,,,,,,SPECI,16.0
K6S2 011655Z AUTO 00000KT 10SM CLR 01/01 A3013 RMK AO2,K6S2,2023-03-01T16:55:00Z,43.98,-124.12,1.0,1.0,0,0,,10.0,30.129921,,,TRUE,TRUE,,,,,,,CLR,,,,,,,,VFR,,,,,,,,,,,,METAR,16.0
K6S2 011635Z AUTO 00000KT 10SM CLR 00/00 A3012 RMK AO2,K6S2,2023-03-01T16:35:00Z,43.98,-124.12,0.0,0.0,0,0,,10.0,30.121063,,,TRUE,TRUE,,,,,,,CLR,,,,,,,,VFR,,,,,,,,,,,,SPECI,16.0
K6S2 011615Z AUTO 00000KT 10SM CLR M00/M00 A3011 RMK AO2,K6S2,2023-03-01T16:15:00Z,43.98,-124.12,0.0,0.0,0,0,,10.0,30.109253,,,TRUE,TRUE,,,,,,,CLR,,,,,,,,VFR,,,,,,,,,,,,SPECI,16.0
K6S2 011555Z AUTO 00000KT 10SM CLR M00/M00 A3009 RMK AO2,K6S2,2023-03-01T15:55:00Z,43.98,-124.12,0.0,0.0,0,0,,10.0,30.088583,,,TRUE,TRUE,,,,,,,CLR,,,,,,,,VFR,,,,,,,,,,,,METAR,16.0
K6S2 011535Z AUTO 00000KT 10SM CLR M01/M01 A3008 RMK AO2,K6S2,2023-03-01T15:35:00Z,43.98,-124.12,-1.0,-1.0,0,0,,10.0,30.079725,,,TRUE,TRUE,,,,,,,CLR,,,,,,,,VFR,,,,,,,,,,,,METAR,16.0
K6S2 011515Z AUTO 00000KT 10SM CLR M01/M01 A3007 RMK AO2,K6S2,2023-03-01T15:15:00Z,43.98,-124.12,-1.0,-1.0,0,0,,10.0,30.070866,,,TRUE,TRUE,,,,,,,CLR,,,,,,,,VFR,,,,,,,,,,,,SPECI,16.0
K6S2 011455Z AUTO 00000KT 10SM CLR M01/M01 A3007 RMK AO2,K6S2,2023-03-01T14:55:00Z,43.98,-124.12,-1.0,-1.0,0,0,,10.0,30.070866,,,TRUE,TRUE,,,,,,,CLR,,,,,,,,VFR,,,,,,,,,,,,METAR,16.0
K6S2 011435Z AUTO 00000KT 10SM CLR M01/M01 A3006 RMK AO2,K6S2,2023-03-01T14:35:00Z,43.98,-124.12,-1.0,-1.0,0,0,,10.0,30.059055,,,TRUE,TRUE,,,,,,,CLR,,,,,,,,VFR,,,,,,,,,,,,METAR,16.0
K6S2 011415Z AUTO 00000KT 10SM CLR M01/M01 A3005 RMK AO2,K6S2,2023-03-01T14:15:00Z,43.98,-124.12,-1.0,-1.0,0,0,,10.0,30.050198,,,TRUE,TRUE,,,,,,,CLR,,,,,,,,VFR,,,,,,,,,,,,SPECI,16.0
K6S2 011355Z AUTO VRB04KT 10SM CLR M01/M01 A3004 RMK AO2,K6S2,2023-03-01T13:55:00Z,43.98,-124.12,-1.0,-1.0,0,4,,10.0,30.041338,,,TRUE,TRUE,,,,,,,CLR,,,,,,,,VFR,,,,,,,,,,,,METAR,16.0
K6S2 011335Z AUTO 11003KT 10SM CLR M01/M01 A3003 RMK AO2,K6S2,2023-03-01T13:35:00Z,43.98,-124.12,-1.0,-1.0,110,3,,10.0,30.029528,,,TRUE,TRUE,,,,,,,CLR,,,,,,,,VFR,,,,,,,,,,,,SPECI,16.0
K6S2 011315Z AUTO 00000KT 10SM CLR M01/M01 A3003 RMK AO2,K6S2,2023-03-01T13:15:00Z,43.98,-124.12,-1.0,-1.0,0,0,,10.0,30.029528,,,TRUE,TRUE,,,,,,,CLR,,,,,,,,VFR,,,,,,,,,,,,SPECI,16.0
K6S2 011255Z AUTO 00000KT 10SM CLR M01/M01 A3001 RMK AO2,K6S2,2023-03-01T12:55:00Z,43.98,-124.12,-1.0,-1.0,0,0,,10.0,30.008858,,,TRUE,TRUE,,,,,,,CLR,,,,,,,,VFR,,,,,,,,,,,,METAR,16.0
K6S2 011235Z AUTO 00000KT 10SM CLR M01/M01 A3000 RMK AO2,K6S2,2023-03-01T12:35:00Z,43.98,-124.12,-1.0,-1.0,0,0,,10.0,30.0,,,TRUE,TRUE,,,,,,,CLR,,,,,,,,VFR,,,,,,,,,,,,METAR,16.0
K6S2 011215Z AUTO 00000KT 10SM CLR M01/M01 A2998 RMK AO2,K6S2,2023-03-01T12:15:00Z,43.98,-124.12,-1.0,-1.0,0,0,,10.0,29.97933,,,TRUE,TRUE,,,,,,,CLR,,,,,,,,VFR,,,,,,,,,,,,METAR,16.0
K6S2 011155Z AUTO 00000KT 10SM CLR M01/M01 A2997 RMK AO2,K6S2,2023-03-01T11:55:00Z,43.98,-124.12,-1.0,-1.0,0,0,,10.0,29.970472,,,TRUE,TRUE,,,,,,,CLR,,,,,,,,VFR,,,,,,,,,,,,METAR,16.0
K6S2 011135Z AUTO 00000KT 6SM BR SCT001 M01/M01 A2997 RMK AO2,K6S2,2023-03-01T11:35:00Z,43.98,-124.12,-1.0,-1.0,0,0,,6.0,29.970472,,,TRUE,TRUE,,,,,,BR,SCT,100,,,,,,,VFR,,,,,,,,,,,,SPECI,16.0
K6S2 011115Z AUTO 00000KT 1/2SM BR OVC001 M01/M01 A2996 RMK AO2,K6S2,2023-03-01T11:15:00Z,43.98,-124.12,-1.0,-1.0,0,0,,0.5,29.958662,,,TRUE,TRUE,,,,,,BR,OVC,100,,,,,,,LIFR,,,,,,,,,,,,SPECI,16.0
K6S2 011055Z AUTO 00000KT 1 1/4SM BR OVC001 M01/M01 A2995 RMK AO2,K6S2,2023-03-01T10:55:00Z,43.98,-124.12,-1.0,-1.0,0,0,,1.25,29.949802,,,TRUE,TRUE,,,,,,BR,OVC,100,,,,,,,LIFR,,,,,,,,,,,,METAR,16.0
K6S2 011035Z AUTO 00000KT 9SM BKN002 M01/M01 A2994 RMK AO2,K6S2,2023-03-01T10:35:00Z,43.98,-124.12,-1.0,-1.0,0,0,,9.0,29.940945,,,TRUE,TRUE,,,,,,,BKN,200,,,,,,,LIFR,,,,,,,,,,,,SPECI,16.0
K6S2 011015Z AUTO 00000KT 10SM SCT002 M01/M01 A2993 RMK AO2,K6S2,2023-03-01T10:15:00Z,43.98,-124.12,-1.0,-1.0,0,0,,10.0,29.929134,,,TRUE,TRUE,,,,,,,SCT,200,,,,,,,VFR,,,,,,,,,,,,SPECI,16.0
K6S2 010955Z AUTO 00000KT 8SM SCT001 M01/M01 A2992 RMK AO2,K6S2,2023-03-01T09:55:00Z,43.98,-124.12,-1.0,-1.0,0,0,,8.0,29.920275,,,TRUE,TRUE,,,,,,,SCT,100,,,,,,,VFR,,,,,,,,,,,,METAR,16.0
K6S2 010935Z AUTO 00000KT 3SM BR SCT001 M01/M01 A2991 RMK AO2,K6S2,2023-03-01T09:35:00Z,43.98,-124.12,-1.0,-1.0,0,0,,3.0,29.911417,,,TRUE,TRUE,,,,,,BR,SCT,100,,,,,,,MVFR,,,,,,,,,,,,SPECI,16.0
K6S2 010915Z AUTO 00000KT 9SM SCT001 M01/M01 A2990 RMK AO2,K6S2,2023-03-01T09:15:00Z,43.98,-124.12,-1.0,-1.0,0,0,,9.0,29.899607,,,TRUE,TRUE,,,,,,,SCT,100,,,,,,,VFR,,,,,,,,,,,,SPECI,16.0
K6S2 010855Z AUTO 00000KT 7SM BKN001 M01/M01 A2990 RMK AO2,K6S2,2023-03-01T08:55:00Z,43.98,-124.12,-1.0,-1.0,0,0,,7.0,29.899607,,,TRUE,TRUE,,,,,,,BKN,100,,,,,,,LIFR,,,,,,,,,,,,METAR,16.0
K6S2 010835Z AUTO 00000KT 10SM FEW002 M00/M00 A2989 RMK AO2,K6S2,2023-03-01T08:35:00Z,43.98,-124.12,0.0,0.0,0,0,,10.0,29.890747,,,TRUE,TRUE,,,,,,,FEW,200,,,,,,,VFR,,,,,,,,,,,,SPECI,16.0
K6S2 010815Z AUTO 00000KT 2SM BR BKN001 M00/M00 A2989 RMK AO2 VIS 1V5,K6S2,2023-03-01T08:15:00Z,43.98,-124.12,0.0,0.0,0,0,,2.0,29.890747,,,TRUE,TRUE,,,,,,BR,BKN,100,,,,,,,LIFR,,,,,,,,,,,,SPECI,16.0
K6S2 010755Z AUTO 00000KT 3/4SM BR OVC001 M00/M00 A2987 RMK AO2,K6S2,2023-03-01T07:55:00Z,43.98,-124.12,0.0,0.0,0,0,,0.75,29.870079,,,TRUE,TRUE,,,,,,BR,OVC,100,,,,,,,LIFR,,,,,,,,,,,,METAR,16.0
K6S2 010735Z AUTO VRB03KT 1SM BR OVC001 M00/M00 A2987 RMK AO2,K6S2,2023-03-01T07:35:00Z,43.98,-124.12,0.0,0.0,0,3,,1.0,29.870079,,,TRUE,TRUE,,,,,,BR,OVC,100,,,,,,,LIFR,,,,,,,,,,,,SPECI,16.0
K6S2 010715Z AUTO 00000KT 1/2SM FG OVC001 00/00 A2986 RMK AO2,K6S2,2023-03-01T07:15:00Z,43.98,-124.12,0.0,0.0,0,0,,0.5,29.861221,,,TRUE,TRUE,,,,,,FG,OVC,100,,,,,,,LIFR,,,,,,,,,,,,SPECI,16.0
K6S2 010655Z AUTO VRB03KT 1/4SM FG OVC001 00/00 A2984 RMK AO2,K6S2,2023-03-01T06:55:00Z,43.98,-124.12,0.0,0.0,0,3,,0.25,29.840551,,,TRUE,TRUE,,,,,,FG,OVC,100,,,,,,,LIFR,,,,,,,,,,,,METAR,16.0
K6S2 010635Z AUTO 00000KT 1/2SM FG OVC001 00/00 A2984 RMK AO2,K6S2,2023-03-01T06:35:00Z,43.98,-124.12,0.0,0.0,0,0,,0.5,29.840551,,,TRUE,TRUE,,,,,,FG,OVC,100,,,,,,,LIFR,,,,,,,,,,,,METAR,16.0
K6S2 010615Z AUTO 09003KT 2SM BR OVC001 00/00 A2982 RMK AO2,K6S2,2023-03-01T06:15:00Z,43.98,-124.12,0.0,0.0,90,3,,2.0,29.819881,,,TRUE,TRUE,,,,,,BR,OVC,100,,,,,,,LIFR,,,,,,,,,,,,METAR,16.0
K6S2 010555Z AUTO 00000KT 6SM BR SCT001 SCT070 M00/M00 A2981 RMK AO2,K6S2,2023-03-01T05:55:00Z,43.98,-124.12,0.0,0.0,0,0,,6.0,29.811024,,,TRUE,TRUE,,,,,,BR,SCT,100,SCT,7000,,,,,VFR,,,,,,,,,,,,METAR,16.0
K6S2 010535Z AUTO 00000KT 4SM BR SCT003 SCT055 BKN060 00/00 A2980 RMK AO2,K6S2,2023-03-01T05:35:00Z,43.98,-124.12,0.0,0.0,0,0,,4.0,29.799213,,,TRUE,TRUE,,,,,,BR,SCT,300,SCT,5500,BKN,6000,,,MVFR,,,,,,,,,,,,SPECI,16.0
K6S2 010515Z AUTO 10003KT 6SM BR SCT003 BKN033 OVC055 00/00 A2979 RMK AO2,K6S2,2023-03-01T05:15:00Z,43.98,-124.12,0.0,0.0,100,3,,6.0,29.790354,,,TRUE,TRUE,,,,,,BR,SCT,300,BKN,3300,OVC,5500,,,VFR,,,,,,,,,,,,METAR,16.0
K6S2 010455Z AUTO 00000KT 8SM SCT013 BKN036 BKN070 01/01 A2978 RMK AO2 P0001,K6S2,2023-03-01T04:55:00Z,43.98,-124.12,1.0,1.0,0,0,,8.0,29.778543,,,TRUE,TRUE,,,,,,,SCT,1300,BKN,3600,BKN,7000,,,VFR,,,,,,0.01,,,,,,METAR,16.0
K6S2 010435Z AUTO 00000KT 5SM BR FEW012 SCT034 BKN070 01/01 A2977 RMK AO2,K6S2,2023-03-01T04:35:00Z,43.98,-124.12,1.0,1.0,0,0,,5.0,29.769686,,,TRUE,TRUE,,,,,,BR,FEW,1200,SCT,3400,BKN,7000,,,MVFR,,,,,,,,,,,,METAR,16.0
K6S2 010415Z AUTO 00000KT 9SM FEW009 SCT019 BKN060 02/02 A2976 RMK AO2,K6S2,2023-03-01T04:15:00Z,43.98,-124.12,2.0,2.0,0,0,,9.0,29.760826,,,TRUE,TRUE,,,,,,,FEW,900,SCT,1900,BKN,6000,,,VFR,,,,,,,,,,,,METAR,16.0
K6S2 010355Z AUTO VRB04KT 5SM -RA BR SCT015 SCT028 BKN065 01/01 A2976 RMK AO2,K6S2,2023-03-01T03:55:00Z,43.98,-124.12,1.0,1.0,0,4,,5.0,29.760826,,,TRUE,TRUE,,,,,,-RA BR,SCT,1500,SCT,2800,BKN,6500,,,MVFR,,,,,,,,,,,,SPECI,16.0
K6S2 010335Z AUTO 00000KT 7SM FEW120 01/01 A2975 RMK AO2,K6S2,2023-03-01T03:35:00Z,43.98,-124.12,1.0,1.0,0,0,,7.0,29.749016,,,TRUE,TRUE,,,,,,,FEW,12000,,,,,,,VFR,,,,,,,,,,,,SPECI,16.0
K6S2 010315Z AUTO 00000KT 8SM FEW003 SCT026 SCT036 01/01 A2975 RMK AO2,K6S2,2023-03-01T03:15:00Z,43.98,-124.12,1.0,1.0,0,0,,8.0,29.749016,,,TRUE,TRUE,,,,,,,FEW,300,SCT,2600,SCT,3600,,,VFR,,,,,,,,,,,,SPECI,16.0
K6S2 010255Z AUTO 00000KT 10SM SCT003 BKN028 OVC075 02/02 A2974 RMK AO2 P0001,K6S2,2023-03-01T02:55:00Z,43.98,-124.12,2.0,2.0,0,0,,10.0,29.740158,,,TRUE,TRUE,,,,,,,SCT,300,BKN,2800,OVC,7500,,,MVFR,,,,,,0.01,,,,,,SPECI,16.0
K6S2 010235Z AUTO 00000KT 10SM FEW025 BKN043 BKN055 02/02 A2973 RMK AO2,K6S2,2023-03-01T02:35:00Z,43.98,-124.12,2.0,2.0,0,0,,10.0,29.731298,,,TRUE,TRUE,,,,,,,FEW,2500,BKN,4300,BKN,5500,,,VFR,,,,,,,,,,,,METAR,16.0
K6S2 010215Z AUTO 00000KT 9SM UP FEW009 SCT037 BKN050 02/02 A2972 RMK AO2,K6S2,2023-03-01T02:15:00Z,43.98,-124.12,2.0,2.0,0,0,,9.0,29.719488,,,TRUE,TRUE,,,,,,UP,FEW,900,SCT,3700,BKN,5000,,,VFR,,,,,,,,,,,,METAR,16.0
K6S2 010155Z AUTO 35009KT 9SM UP FEW008 SCT048 BKN055 03/03 A2971 RMK AO2,K6S2,2023-03-01T01:55:00Z,43.98,-124.12,3.0,3.0,350,9,,9.0,29.71063,,,TRUE,TRUE,,,,,,UP,FEW,800,SCT,4800,BKN,5500,,,VFR,,,,,,,,,,,,METAR,16.0
K6S2 010135Z AUTO 35004KT 10SM FEW008 SCT018 BKN050 03/03 A2969 RMK AO2,K6S2,2023-03-01T01:35:00Z,43.98,-124.12,3.0,3.0,350,4,,10.0,29.68996,,,TRUE,TRUE,,,,,,,FEW,800,SCT,1800,BKN,5000,,,VFR,,,,,,,,,,,,METAR,16.0
K6S2 010115Z AUTO 35006G14KT 4SM -RA BR SCT012 SCT017 BKN022 04/04 A2969 RMK AO2,K6S2,2023-03-01T01:15:00Z,43.98,-124.12,4.0,4.0,350,6,14,4.0,29.68996,,,TRUE,TRUE,,,,,,-RA BR,SCT,1200,SCT,1700,BKN,2200,,,MVFR,,,,,,,,,,,,METAR,16.0
K6S2 010055Z AUTO 33004G10KT 7SM -RA SCT021 SCT028 BKN055 04/03 A2968 RMK AO2,K6S2,2023-03-01T00:55:00Z,43.98,-124.12,4.0,3.0,330,4,10,7.0,29.681103,,,TRUE,TRUE,,,,,,-RA,SCT,2100,SCT,2800,BKN,5500,,,VFR,,,,,,,,,,,,METAR,16.0
K6S2 010035Z AUTO VRB06KT 10SM FEW020 SCT033 BKN041 06/03 A2967 RMK AO2,K6S2,2023-03-01T00:35:00Z,43.98,-124.12,6.0,3.0,0,6,,10.0,29.66929,,,TRUE,TRUE,,,,,,,FEW,2000,SCT,3300,BKN,4100,,,VFR,,,,,,,,,,,,SPECI,16.0
K6S2 010015Z AUTO 34006G12KT 10SM SCT020 BKN026 OVC033 05/03 A2966 RMK AO2,K6S2,2023-03-01T00:15:00Z,43.98,-124.12,5.0,3.0,340,6,12,10.0,29.660433,,,TRUE,TRUE,,,,,,,SCT,2000,BKN,2600,OVC,3300,,,MVFR,,,,,,,,,,,,SPECI,16.0
K6S2 282355Z AUTO 00000KT 10SM BKN020 BKN027 OVC044 05/03 A2966 RMK AO2,K6S2,2023-02-28T23:55:00Z,43.98,-124.12,5.0,3.0,0,0,,10.0,29.660433,,,TRUE,TRUE,,,,,,,BKN,2000,BKN,2700,OVC,4400,,,MVFR,,,,,,,,,,,,METAR,16.0
K6S2 282335Z AUTO 00000KT 10SM BKN022 BKN036 OVC044 05/02 A2965 RMK AO2,K6S2,2023-02-28T23:35:00Z,43.98,-124.12,5.0,2.0,0,0,,10.0,29.648623,,,TRUE,TRUE,,,,,,,BKN,2200,BKN,3600,OVC,4400,,,MVFR,,,,,,,,,,,,METAR,16.0
K6S2 282315Z AUTO 00000KT 10SM FEW017 SCT024 BKN031 05/03 A2965 RMK AO2,K6S2,2023-02-28T23:15:00Z,43.98,-124.12,5.0,3.0,0,0,,10.0,29.648623,,,TRUE,TRUE,,,,,,,FEW,1700,SCT,2400,BKN,3100,,,VFR,,,,,,,,,,,,SPECI,16.0
K6S2 282255Z AUTO 30004KT 10SM BKN030 BKN037 BKN047 04/03 A2964 RMK AO2,K6S2,2023-02-28T22:55:00Z,43.98,-124.12,4.0,3.0,300,4,,10.0,29.639763,,,TRUE,TRUE,,,,,,,BKN,3000,BKN,3700,BKN,4700,,,MVFR,,,,,,,,,,,,METAR,16.0
K6S2 282235Z AUTO VRB05KT 10SM SCT036 BKN046 04/02 A2964 RMK AO2 LTG DSNT SE,K6S2,2023-02-28T22:35:00Z,43.98,-124.12,4.0,2.0,0,5,,10.0,29.639763,,,TRUE,TRUE,,,,,,,SCT,3600,BKN,4600,,,,,VFR,,,,,,,,,,,,SPECI,16.0
K6S2 282215Z AUTO 31005G12KT 10SM FEW019 SCT024 BKN043 05/03 A2963 RMK AO2,K6S2,2023-02-28T22:15:00Z,43.98,-124.12,5.0,3.0,310,5,12,10.0,29.630905,,,TRUE,TRUE,,,,,,,FEW,1900,SCT,2400,BKN,4300,,,VFR,,,,,,,,,,,,SPECI,16.0
K6S2 282155Z AUTO 28008G15KT 10SM FEW018 SCT023 BKN033 06/03 A2962 RMK AO2,K6S2,2023-02-28T21:55:00Z,43.98,-124.12,6.0,3.0,280,8,15,10.0,29.619095,,,TRUE,TRUE,,,,,,,FEW,1800,SCT,2300,BKN,3300,,,VFR,,,,,,,,,,,,METAR,16.0
K6S2 282135Z AUTO VRB05G13KT 10SM -RA SCT029 BKN040 BKN049 06/03 A2962 RMK AO2,K6S2,2023-02-28T21:35:00Z,43.98,-124.12,6.0,3.0,0,5,13,10.0,29.619095,,,TRUE,TRUE,,,,,,-RA,SCT,2900,BKN,4000,BKN,4900,,,VFR,,,,,,,,,,,,METAR,16.0
K6S2 282115Z AUTO VRB07KT 10SM FEW018 SCT047 BKN075 05/03 A2963 RMK AO2,K6S2,2023-02-28T21:15:00Z,43.98,-124.12,5.0,3.0,0,7,,10.0,29.630905,,,TRUE,TRUE,,,,,,,FEW,1800,SCT,4700,BKN,7500,,,VFR,,,,,,,,,,,,SPECI,16.0
K6S2 282055Z AUTO 29007KT 260V320 10SM FEW017 SCT043 BKN055 04/02 A2962 RMK AO2,K6S2,2023-02-28T20:55:00Z,43.98,-124.12,4.0,2.0,290,7,,10.0,29.619095,,,TRUE,TRUE,,,,,,,FEW,1700,SCT,4300,BKN,5500,,,VFR,,,,,,,,,,,,METAR,16.0
K6S2 282035Z AUTO 26013KT 230V290 10SM FEW028 SCT036 BKN045 05/03 A2962 RMK AO2,K6S2,2023-02-28T20:35:00Z,43.98,-124.12,5.0,3.0,260,13,,10.0,29.619095,,,TRUE,TRUE,,,,,,,FEW,2800,SCT,3600,BKN,4500,,,VFR,,,,,,,,,,,,METAR,16.0
K6S2 282015Z AUTO 23010G16KT 190V260 10SM FEW019 BKN028 OVC043 06/03 A2961 RMK AO2,K6S2,2023-02-28T20:15:00Z,43.98,-124.12,6.0,3.0,230,10,16,10.0,29.610237,,,TRUE,TRUE,,,,,,,FEW,1900,BKN,2800,OVC,4300,,,MVFR,,,,,,,,,,,,METAR,16.0
K6S2 281955Z AUTO 00000KT 10SM BKN020 BKN026 OVC042 05/04 A2962 RMK AO2,K6S2,2023-02-28T19:55:00Z,43.98,-124.12,5.0,4.0,0,0,,10.0,29.619095,,,TRUE,TRUE,,,,,,,BKN,2000,BKN,2600,OVC,4200,,,MVFR,,,,,,,,,,,,SPECI,16.0
K6S2 281935Z AUTO 00000KT 10SM FEW014 BKN020 OVC042 04/04 A2962 RMK AO2,K6S2,2023-02-28T19:35:00Z,43.98,-124.12,4.0,4.0,0,0,,10.0,29.619095,,,TRUE,TRUE,,,,,,,FEW,1400,BKN,2000,OVC,4200,,,MVFR,,,,,,,,,,,,METAR,16.0
K6S2 281915Z AUTO VRB05KT 10SM BKN021 OVC030 04/03 A2962 RMK AO2,K6S2,2023-02-28T19:15:00Z,43.98,-124.12,4.0,3.0,0,5,,10.0,29.619095,,,TRUE,TRUE,,,,,,,BKN,2100,OVC,3000,,,,,MVFR,,,,,,,,,,,,METAR,16.0
K6S2 281855Z AUTO VRB06G12KT 10SM BKN021 OVC027 04/04 A2962 RMK AO2,K6S2,2023-02-28T18:55:00Z,43.98,-124.12,4.0,4.0,0,6,12,10.0,29.619095,,,TRUE,TRUE,,,,,,,BKN,2100,OVC,2700,,,,,MVFR,,,,,,,,,,,,METAR,16.0
K6S2 281835Z AUTO 29011G20KT 260V320 8SM -RA FEW019 SCT025 BKN035 04/04 A2961 RMK AO2,K6S2,2023-02-28T18:35:00Z,43.98,-124.12,4.0,4.0,290,11,20,8.0,29.610237,,,TRUE,TRUE,,,,,,-RA,FEW,1900,SCT,2500,BKN,3500,,,VFR,,,,,,,,,,,,METAR,16.0
K6S2 281815Z AUTO VRB05KT 10SM SCT034 BKN050 BKN060 03/03 A2960 RMK AO2,K6S2,2023-02-28T18:15:00Z,43.98,-124.12,3.0,3.0,0,5,,10.0,29.601377,,,TRUE,TRUE,,,,,,,SCT,3400,BKN,5000,BKN,6000,,,VFR,,,,,,,,,,,,METAR,16.0
K6S2 281755Z AUTO 00000KT 10SM FEW025 FEW048 BKN060 03/03 A2960 RMK AO2,K6S2,2023-02-28T17:55:00Z,43.98,-124.12,3.0,3.0,0,0,,10.0,29.601377,,,TRUE,TRUE,,,,,,,FEW,2500,FEW,4800,BKN,6000,,,VFR,,,,,,,,,,,,METAR,16.0
K6S2 281735Z AUTO 29008G15KT 7SM -RA FEW018 SCT030 BKN038 02/02 A2960 RMK AO2,K6S2,2023-02-28T17:35:00Z,43.98,-124.12,2.0,2.0,290,8,15,7.0,29.601377,,,TRUE,TRUE,,,,,,-RA,FEW,1800,SCT,3000,BKN,3800,,,VFR,,,,,,,,,,,,METAR,16.0
K6S2 281715Z AUTO VRB03KT 10SM SCT032 SCT037 SCT060 02/02 A2960 RMK AO2,K6S2,2023-02-28T17:15:00Z,43.98,-124.12,2.0,2.0,0,3,,10.0,29.601377,,,TRUE,TRUE,,,,,,,SCT,3200,SCT,3700,SCT,6000,,,VFR,,,,,,,,,,,,METAR,16.0
K6S2 281655Z AUTO 00000KT 10SM FEW034 SCT060 BKN065 02/02 A2959 RMK AO2 P0006,K6S2,2023-02-28T16:55:00Z,43.98,-124.12,2.0,2.0,0,0,,10.0,29.589567,,,TRUE,TRUE,,,,,,,FEW,3400,SCT,6000,BKN,6500,,,VFR,,,,,,0.06,,,,,,SPECI,16.0
K6S2 281635Z AUTO 00000KT 4SM -SN BR FEW003 SCT023 BKN039 01/01 A2959 RMK AO2,K6S2,2023-02-28T16:35:00Z,43.98,-124.12,1.0,1.0,0,0,,4.0,29.589567,,,TRUE,TRUE,,,,,,-SN BR,FEW,300,SCT,2300,BKN,3900,,,MVFR,,,,,,,,,,,,METAR,16.0
K6S2 281615Z AUTO 00000KT 6SM -RA BR FEW012 SCT021 BKN030 01/01 A2958 RMK AO2,K6S2,2023-02-28T16:15:00Z,43.98,-124.12,1.0,1.0,0,0,,6.0,29.58071,,,TRUE,TRUE,,,,,,-RA BR,FEW,1200,SCT,2100,BKN,3000,,,MVFR,,,,,,,,,,,,METAR,16.0
K6S2 281555Z AUTO 00000KT 9SM FEW013 SCT034 SCT040 01/01 A2957 RMK AO2 P0004,K6S2,2023-02-28T15:55:00Z,43.98,-124.12,1.0,1.0,0,0,,9.0,29.568897,,,TRUE,TRUE,,,,,,,FEW,1300,SCT,3400,SCT,4000,,,VFR,,,,,,0.04,,,,,,METAR,16.0
K6S2 281535Z AUTO 00000KT 2SM UP BR BKN012 BKN020 01/01 A2957 RMK AO2 VIS 3/4V5,K6S2,2023-02-28T15:35:00Z,43.98,-124.12,1.0,1.0,0,0,,2.0,29.568897,,,TRUE,TRUE,,,,,,BR UP,BKN,1200,BKN,2000,,,,,IFR,,,,,,,,,,,,SPECI,16.0
K6S2 281515Z AUTO 00000KT 3SM RA BR FEW009 BKN012 BKN017 00/00 A2957 RMK AO2,K6S2,2023-02-28T15:15:00Z,43.98,-124.12,0.0,0.0,0,0,,3.0,29.568897,,,TRUE,TRUE,,,,,,RA BR,FEW,900,BKN,1200,BKN,1700,,,MVFR,,,,,,,,,,,,SPECI,16.0
K6S2 281455Z AUTO 00000KT 9SM FEW013 BKN032 OVC095 00/00 A2956 RMK AO2 P0001,K6S2,2023-02-28T14:55:00Z,43.98,-124.12,0.0,0.0,0,0,,9.0,29.56004,,,TRUE,TRUE,,,,,,,FEW,1300,BKN,3200,OVC,9500,,,VFR,,,,,,0.01,,,,,,METAR,16.0
K6S2 281435Z AUTO 00000KT 9SM BKN010 BKN032 OVC110 00/00 A2955 RMK AO2,K6S2,2023-02-28T14:35:00Z,43.98,-124.12,0.0,0.0,0,0,,9.0,29.551182,,,TRUE,TRUE,,,,,,,BKN,1000,BKN,3200,OVC,11000,,,MVFR,,,,,,,,,,,,SPECI,16.0
K6S2 281415Z AUTO 00000KT 9SM OVC008 00/00 A2955 RMK AO2,K6S2,2023-02-28T14:15:00Z,43.98,-124.12,0.0,0.0,0,0,,9.0,29.551182,,,TRUE,TRUE,,,,,,,OVC,800,,,,,,,IFR,,,,,,,,,,,,METAR,16.0
K6S2 281355Z AUTO 00000KT 3SM -SN BR BKN006 OVC009 00/00 A2955 RMK AO2 P0003,K6S2,2023-02-28T13:55:00Z,43.98,-124.12,0.0,0.0,0,0,,3.0,29.551182,,,TRUE,TRUE,,,,,,-SN BR,BKN,600,OVC,900,,,,,IFR,,,,,,0.03,,,,,,SPECI,16.0
K6S2 281335Z AUTO 00000KT 3SM -SN BR SCT006 BKN012 OVC030 01/01 A2955 RMK AO2 LTG DSNT S,K6S2,2023-02-28T13:35:00Z,43.98,-124.12,1.0,1.0,0,0,,3.0,29.551182,,,TRUE,TRUE,,,,,,-SN BR,SCT,600,BKN,1200,OVC,3000,,,MVFR,,,,,,,,,,,,METAR,16.0
K6S2 281315Z AUTO 00000KT 4SM UP BR FEW005 SCT012 BKN018 01/01 A2954 RMK AO2,K6S2,2023-02-28T13:15:00Z,43.98,-124.12,1.0,1.0,0,0,,4.0,29.53937,,,TRUE,TRUE,,,,,,BR UP,FEW,500,SCT,1200,BKN,1800,,,MVFR,,,,,,,,,,,,METAR,16.0
K6S2 281255Z AUTO 00000KT 2 1/2SM -SN BR FEW006 SCT012 BKN021 00/00 A2954 RMK AO2 P0013 VIS 2V3,K6S2,2023-02-28T12:55:00Z,43.98,-124.12,0.0,0.0,0,0,,2.5,29.53937,,,TRUE,TRUE,,,,,,-SN BR,FEW,600,SCT,1200,BKN,2100,,,IFR,,,,,,0.13,,,,,,METAR,16.0
K6S2 281235Z AUTO 00000KT 3SM -SN BR FEW004 SCT015 BKN020 01/01 A2955 RMK AO2,K6S2,2023-02-28T12:35:00Z,43.98,-124.12,1.0,1.0,0,0,,3.0,29.551182,,,TRUE,TRUE,,,,,,-SN BR,FEW,400,SCT,1500,BKN,2000,,,MVFR,,,,,,,,,,,,SPECI,16.0
K6S2 281215Z AUTO 00000KT 9SM UP BKN003 BKN010 OVC026 01/01 A2955 RMK AO2 LTG DSNT S,K6S2,2023-02-28T12:15:00Z,43.98,-124.12,1.0,1.0,0,0,,9.0,29.551182,,,TRUE,TRUE,,,,,,UP,BKN,300,BKN,1000,OVC,2600,,,LIFR,,,,,,,,,,,,SPECI,16.0
K6S2 281155Z AUTO VRB04KT 1SM -SN BR OVC003 01/01 A2956 RMK AO2 P0012,K6S2,2023-02-28T11:55:00Z,43.98,-124.12,1.0,1.0,0,4,,1.0,29.56004,,,TRUE,TRUE,,,,,,-SN BR,OVC,300,,,,,,,LIFR,,,,,,0.12,,,,,,SPECI,16.0
K6S2 281135Z AUTO VRB04G10KT 1 3/4SM -SN BR OVC004 01/01 A2957 RMK AO2 VIS 1V5,K6S2,2023-02-28T11:35:00Z,43.98,-124.12,1.0,1.0,0,4,10,1.75,29.568897,,,TRUE,TRUE,,,,,,-SN BR,OVC,400,,,,,,,LIFR,,,,,,,,,,,,METAR,16.0
K6S2 281115Z AUTO 16005KT 5SM UP BR BKN009 OVC014 02/02 A2958 RMK AO2,K6S2,2023-02-28T11:15:00Z,43.98,-124.12,2.0,2.0,160,5,,5.0,29.58071,,,TRUE,TRUE,,,,,,BR UP,BKN,900,OVC,1400,,,,,IFR,,,,,,,,,,,,METAR,16.0
K6S2 281055Z AUTO VRB04KT 3SM UP BR FEW007 SCT011 BKN017 02/02 A2959 RMK AO2 P0005,K6S2,2023-02-28T10:55:00Z,43.98,-124.12,2.0,2.0,0,4,,3.0,29.589567,,,TRUE,TRUE,,,,,,BR UP,FEW,700,SCT,1100,BKN,1700,,,MVFR,,,,,,0.05,,,,,,METAR,16.0
K6S2 281035Z AUTO VRB04G14KT 2 1/2SM -RA BR SCT009 BKN021 OVC055 03/03 A2960 RMK AO2,K6S2,2023-02-28T10:35:00Z,43.98,-124.12,3.0,3.0,0,4,14,2.5,29.601377,,,TRUE,TRUE,,,,,,-RA BR,SCT,900,BKN,2100,OVC,5500,,,IFR,,,,,,,,,,,,SPECI,16.0
K6S2 281015Z AUTO VRB06KT 10SM FEW012 SCT048 BKN055 04/02 A2959 RMK AO2,K6S2,2023-02-28T10:15:00Z,43.98,-124.12,4.0,2.0,0,6,,10.0,29.589567,,,TRUE,TRUE,,,,,,,FEW,1200,SCT,4800,BKN,5500,,,VFR,,,,,,,,,,,,SPECI,16.0
K6S2 280955Z AUTO VRB04G20KT 7SM -RA FEW012 SCT036 BKN046 05/00 A2960 RMK AO2,K6S2,2023-02-28T09:55:00Z,43.98,-124.12,5.0,0.0,0,4,20,7.0,29.601377,,,TRUE,TRUE,,,,,,-RA,FEW,1200,SCT,3600,BKN,4600,,,VFR,,,,,,,,,,,,METAR,16.0
K6S2 280935Z AUTO 19008G16KT 10SM FEW003 FEW041 BKN055 06/M00 A2961 RMK AO2,K6S2,2023-02-28T09:35:00Z,43.98,-124.12,6.0,0.0,190,8,16,10.0,29.610237,,,TRUE,TRUE,,,,,,,FEW,300,FEW,4100,BKN,5500,,,VFR,,,,,,,,,,,,SPECI,16.0
K6S2 280915Z AUTO 22005G13KT 10SM FEW036 SCT055 SCT065 06/00 A2961 RMK AO2 LTG DSNT N,K6S2,2023-02-28T09:15:00Z,43.98,-124.12,6.0,0.0,220,5,13,10.0,29.610237,,,TRUE,TRUE,,,,,,,FEW,3600,SCT,5500,SCT,6500,,,VFR,,,,,,,,,,,,METAR,16.0
K6S2 280855Z AUTO 23007G13KT 200V270 10SM FEW037 BKN055 BKN070 07/01 A2961 RMK AO2,K6S2,2023-02-28T08:55:00Z,43.98,-124.12,7.0,1.0,230,7,13,10.0,29.610237,,,TRUE,TRUE,,,,,,,FEW,3700,BKN,5500,BKN,7000,,,VFR,,,,,,,,,,,,METAR,16.0
K6S2 280835Z AUTO VRB06G13KT 10SM SCT037 BKN065 06/00 A2961 RMK AO2,K6S2,2023-02-28T08:35:00Z,43.98,-124.12,6.0,0.0,0,6,13,10.0,29.610237,,,TRUE,TRUE,,,,,,,SCT,3700,BKN,6500,,,,,VFR,,,,,,,,,,,,METAR,16.0
K6S2 280815Z AUTO 23009G14KT 200V270 10SM SCT035 BKN042 BKN060 06/01 A2961 RMK AO2,K6S2,2023-02-28T08:15:00Z,43.98,-124.12,6.0,1.0,230,9,14,10.0,29.610237,,,TRUE,TRUE,,,,,,,SCT,3500,BKN,4200,BKN,6000,,,VFR,,,,,,,,,,,,SPECI,16.0
K6S2 280755Z AUTO 27004G12KT 10SM FEW003 SCT037 BKN065 06/02 A2961 RMK AO2 LTG DSNT N,K6S2,2023-02-28T07:55:00Z,43.98,-124.12,6.0,2.0,270,4,12,10.0,29.610237,,,TRUE,TRUE,,,,,,,FEW,300,SCT,3700,BKN,6500,,,VFR,,,,,,,,,,,,METAR,16.0
K6S2 280735Z AUTO VRB06KT 10SM FEW037 SCT044 BKN070 06/01 A2961 RMK AO2,K6S2,2023-02-28T07:35:00Z,43.98,-124.12,6.0,1.0,0,6,,10.0,29.610237,,,TRUE,TRUE,,,,,,,FEW,3700,SCT,4400,BKN,7000,,,VFR,,,,,,,,,,,,METAR,16.0
K6S2 280715Z AUTO 27009G15KT 240V300 10SM FEW039 SCT055 BKN075 06/01 A2961 RMK AO2,K6S2,2023-02-28T07:15:00Z,43.98,-124.12,6.0,1.0,270,9,15,10.0,29.610237,,,TRUE,TRUE,,,,,,,FEW,3900,SCT,5500,BKN,7500,,,VFR,,,,,,,,,,,,METAR,16.0
K6S2 280655Z AUTO 29011G20KT 10SM FEW029 SCT055 BKN075 06/01 A2960 RMK AO2,K6S2,2023-02-28T06:55:00Z,43.98,-124.12,6.0,1.0,290,11,20,10.0,29.601377,,,TRUE,TRUE,,,,,,,FEW,2900,SCT,5500,BKN,7500,,,VFR,,,,,,,,,,,,METAR,16.0
K6S2 280635Z AUTO 27011G19KT 10SM SCT030 BKN035 OVC085 06/03 A2959 RMK AO2,K6S2,2023-02-28T06:35:00Z,43.98,-124.12,6.0,3.0,270,11,19,10.0,29.589567,,,TRUE,TRUE,,,,,,,SCT,3000,BKN,3500,OVC,8500,,,VFR,,,,,,,,,,,,SPECI,16.0
K6S2 280615Z AUTO 29009G19KT 270V340 10SM SCT034 BKN050 OVC075 07/02 A2959 RMK AO2,K6S2,2023-02-28T06:15:00Z,43.98,-124.12,7.0,2.0,290,9,19,10.0,29.589567,,,TRUE,TRUE,,,,,,,SCT,3400,BKN,5000,OVC,7500,,,VFR,,,,,,,,,,,,METAR,16.0
K6S2 280555Z AUTO 28012G20KT 250V310 10SM FEW034 SCT045 BKN050 06/02 A2958 RMK AO2,K6S2,2023-02-28T05:55:00Z,43.98,-124.12,6.0,2.0,280,12,20,10.0,29.58071,,,TRUE,TRUE,,,,,,,FEW,3400,SCT,4500,BKN,5000,,,VFR,,,,,,,,,,,,METAR,16.0
K6S2 280535Z AUTO 26012G23KT 230V300 10SM FEW024 SCT030 BKN036 06/03 A2957 RMK AO2,K6S2,2023-02-28T05:35:00Z,43.98,-124.12,6.0,3.0,260,12,23,10.0,29.568897,,,TRUE,TRUE,,,,,,,FEW,2400,SCT,3000,BKN,3600,,,VFR,,,,,,,,,,,,SPECI,16.0
K6S2 280515Z AUTO 28010G22KT 240V310 10SM FEW024 BKN033 OVC045 06/03 A2956 RMK AO2 LTG DSNT S,K6S2,2023-02-28T05:15:00Z,43.98,-124.12,6.0,3.0,280,10,22,10.0,29.56004,,,TRUE,TRUE,,,,,,,FEW,2400,BKN,3300,OVC,4500,,,VFR,,,,,,,,,,,,METAR,16.0
K6S2 280455Z AUTO 31010G21KT 10SM BKN024 BKN033 OVC045 06/04 A2955 RMK AO2,K6S2,2023-02-28T04:55:00Z,43.98,-124.12,6.0,4.0,310,10,21,10.0,29.551182,,,TRUE,TRUE,,,,,,,BKN,2400,BKN,3300,OVC,4500,,,MVFR,,,,,,,,,,,,SPECI,16.0
K6S2 280435Z AUTO 29013G26KT 270V330 6SM -RA HZ FEW007 BKN024 OVC042 06/04 A2953 RMK AO2,K6S2,2023-02-28T04:35:00Z,43.98,-124.12,6.0,4.0,290,13,26,6.0,29.530512,,,TRUE,TRUE,,,,,,-RA HZ,FEW,700,BKN,2400,OVC,4200,,,MVFR,,,,,,,,,,,,SPECI,16.0
K6S2 280415Z AUTO 31013G23KT 9SM SCT020 BKN026 OVC048 06/05 A2952 RMK AO2 LTG DSNT S,K6S2,2023-02-28T04:15:00Z,43.98,-124.12,6.0,5.0,310,13,23,9.0,29.518702,,,TRUE,TRUE,,,,,,,SCT,2000,BKN,2600,OVC,4800,,,MVFR,,,,,,,,,,,,METAR,16.0
K6S2 280355Z AUTO 30014G20KT 9SM SCT017 BKN023 OVC049 06/05 A2951 RMK AO2,K6S2,2023-02-28T03:55:00Z,43.98,-124.12,6.0,5.0,300,14,20,9.0,29.509842,,,TRUE,TRUE,,,,,,,SCT,1700,BKN,2300,OVC,4900,,,MVFR,,,,,,,,,,,,SPECI,16.0
K6S2 280335Z AUTO 30015G27KT 250V330 7SM SCT016 BKN023 OVC043 05/05 A2950 RMK AO2,K6S2,2023-02-28T03:35:00Z,43.98,-124.12,5.0,5.0,300,15,27,7.0,29.500984,,,TRUE,TRUE,,,,,,,SCT,1600,BKN,2300,OVC,4300,,,MVFR,,,,,,,,,,,,METAR,16.0
K6S2 280315Z AUTO 27013G20KT 9SM SCT024 BKN032 OVC060 06/04 A2949 RMK AO2,K6S2,2023-02-28T03:15:00Z,43.98,-124.12,6.0,4.0,270,13,20,9.0,29.489174,,,TRUE,TRUE,,,,,,,SCT,2400,BKN,3200,OVC,6000,,,VFR,,,,,,,,,,,,SPECI,16.0
K6S2 280255Z AUTO 28017G24KT 240V300 6SM BR BKN023 BKN032 OVC040 05/05 A2948 RMK AO2 P0002,K6S2,2023-02-28T02:55:00Z,43.98,-124.12,5.0,5.0,280,17,24,6.0,29.480314,,,TRUE,TRUE,,,,,,BR,BKN,2300,BKN,3200,OVC,4000,,,MVFR,,,,,,0.02,,,,,,METAR,16.0
K6S2 280235Z AUTO VRB06G13KT 240V310 10SM BKN024 BKN032 OVC040 04/04 A2947 RMK AO2,K6S2,2023-02-28T02:35:00Z,43.98,-124.12,4.0,4.0,0,6,13,10.0,29.471457,,,TRUE,TRUE,,,,,,,BKN,2400,BKN,3200,OVC,4000,,,MVFR,,,,,,,,,,,,METAR,16.0
K6S2 280215Z AUTO 12005G11KT 8SM UP SCT019 BKN024 OVC055 03/03 A2946 RMK AO2,K6S2,2023-02-28T02:15:00Z,43.98,-124.12,3.0,3.0,120,5,11,8.0,29.459646,,,TRUE,TRUE,,,,,,UP,SCT,1900,BKN,2400,OVC,5500,,,MVFR,,,,,,,,,,,,METAR,16.0
K6S2 280155Z AUTO 16004KT 4SM -RA BR FEW009 FEW016 OVC024 03/03 A2946 RMK AO2 P0005,K6S2,2023-02-28T01:55:00Z,43.98,-124.12,3.0,3.0,160,4,,4.0,29.459646,,,TRUE,TRUE,,,,,,-RA BR,FEW,900,FEW,1600,OVC,2400,,,MVFR,,,,,,0.05,,,,,,METAR,16.0
K6S2 280135Z AUTO 19006KT 7SM -RA BKN023 BKN029 04/04 A2946 RMK AO2,K6S2,2023-02-28T01:35:00Z,43.98,-124.12,4.0,4.0,190,6,,7.0,29.459646,,,TRUE,TRUE,,,,,,-RA,BKN,2300,BKN,2900,,,,,MVFR,,,,,,,,,,,,METAR,16.0
K6S2 280115Z AUTO VRB05KT 4SM -RA BR FEW009 SCT013 BKN024 04/04 A2945 RMK AO2,K6S2,2023-02-28T01:15:00Z,43.98,-124.12,4.0,4.0,0,5,,4.0,29.450787,,,TRUE,TRUE,,,,,,-RA BR,FEW,900,SCT,1300,BKN,2400,,,MVFR,,,,,,,,,,,,METAR,16.0
K6S2 280055Z AUTO 00000G10KT 3SM RA BR FEW020 BKN025 BKN031 04/04 A2944 RMK AO2 P0005,K6S2,2023-02-28T00:55:00Z,43.98,-124.12,4.0,4.0,0,0,10,3.0,29.438976,,,TRUE,TRUE,,,,,,RA BR,FEW,2000,BKN,2500,BKN,3100,,,MVFR,,,,,,0.05,,,,,,METAR,16.0
K6S2 280035Z AUTO VRB06KT 3SM -RA BR FEW022 SCT026 BKN035 04/04 A2944 RMK AO2,K6S2,2023-02-28T00:35:00Z,43.98,-124.12,4.0,4.0,0,6,,3.0,29.438976,,,TRUE,TRUE,,,,,,-RA BR,FEW,2200,SCT,2600,BKN,3500,,,MVFR,,,,,,,,,,,,METAR,16.0
K6S2 280015Z AUTO 15005G11KT 5SM -RA BR FEW015 FEW021 SCT028 04/04 A2944 RMK AO2,K6S2,2023-02-28T00:15:00Z,43.98,-124.12,4.0,4.0,150,5,11,5.0,29.438976,,,TRUE,TRUE,,,,,,-RA BR,FEW,1500,FEW,2100,SCT,2800,,,MVFR,,,,,,,,,,,,METAR,16.0
K6S2 272355Z AUTO 15008G13KT 10SM FEW014 SCT022 BKN035 04/04 A2944 RMK AO2 P0002,K6S2,2023-02-27T23:55:00Z,43.98,-124.12,4.0,4.0,150,8,13,10.0,29.438976,,,TRUE,TRUE,,,,,,,FEW,1400,SCT,2200,BKN,3500,,,VFR,,,,,,0.02,,,,,,METAR,16.0
K6S2 272335Z AUTO 19011KT 8SM -RA FEW014 FEW018 SCT026 05/05 A2944 RMK AO2 LTG DSNT S,K6S2,2023-02-27T23:35:00Z,43.98,-124.12,5.0,5.0,190,11,,8.0,29.438976,,,TRUE,TRUE,,,,,,-RA,FEW,1400,FEW,1800,SCT,2600,,,VFR,,,,,,,,,,,,METAR,16.0
K6S2 272315Z AUTO 17009G16KT 120V200 3SM -RA BR SCT021 BKN026 04/04 A2944 RMK AO2 LTG DSNT S,K6S2,2023-02-27T23:15:00Z,43.98,-124.12,4.0,4.0,170,9,16,3.0,29.438976,,,TRUE,TRUE,,,,,,-RA BR,SCT,2100,BKN,2600,,,,,MVFR,,,,,,,,,,,,METAR,16.0
K6S2 272255Z AUTO 15009G16KT 110V170 8SM -RA BKN020 04/04 A2943 RMK AO2 P0004,K6S2,2023-02-27T22:55:00Z,43.98,-124.12,4.0,4.0,150,9,16,8.0,29.430119,,,TRUE,TRUE,,,,,,-RA,BKN,2000,,,,,,,MVFR,,,,,,0.04,,,,,,METAR,16.0
K6S2 272235Z AUTO 16007G16KT 130V190 3SM -RA BR FEW017 FEW023 04/04 A2944 RMK AO2,K6S2,2023-02-27T22:35:00Z,43.98,-124.12,4.0,4.0,160,7,16,3.0,29.438976,,,TRUE,TRUE,,,,,,-RA BR,FEW,1700,FEW,2300,,,,,MVFR,,,,,,,,,,,,METAR,16.0
K6S2 272215Z AUTO 15008G14KT 090V200 5SM -RA BR FEW018 SCT023 04/04 A2944 RMK AO2,K6S2,2023-02-27T22:15:00Z,43.98,-124.12,4.0,4.0,150,8,14,5.0,29.438976,,,TRUE,TRUE,,,,,,-RA BR,FEW,1800,SCT,2300,,,,,MVFR,,,,,,,,,,,,METAR,16.0
K6S2 272155Z AUTO 19008G24KT 140V200 3SM -RA BR SCT020 SCT027 BKN034 05/04 A2945 RMK AO2 P0005,K6S2,2023-02-27T21:55:00Z,43.98,-124.12,5.0,4.0,190,8,24,3.0,29.450787,,,TRUE,TRUE,,,,,,-RA BR,SCT,2000,SCT,2700,BKN,3400,,,MVFR,,,,,,0.05,,,,,,METAR,16.0
K6S2 272135Z AUTO VRB06KT 10SM SCT024 BKN032 BKN043 05/05 A2945 RMK AO2,K6S2,2023-02-27T21:35:00Z,43.98,-124.12,5.0,5.0,0,6,,10.0,29.450787,,,TRUE,TRUE,,,,,,,SCT,2400,BKN,3200,BKN,4300,,,VFR,,,,,,,,,,,,METAR,16.0
K6S2 272115Z AUTO VRB04G10KT 9SM -RA FEW018 SCT024 SCT040 05/05 A2946 RMK AO2 LTG DSNT S,K6S2,2023-02-27T21:15:00Z,43.98,-124.12,5.0,5.0,0,4,10,9.0,29.459646,,,TRUE,TRUE,,,,,,-RA,FEW,1800,SCT,2400,SCT,4000,,,VFR,,,,,,,,,,,,METAR,16.0
K6S2 272055Z AUTO VRB06G13KT 5SM -RA BR FEW018 SCT023 BKN075 06/05 A2947 RMK AO2,K6S2,2023-02-27T20:55:00Z,43.98,-124.12,6.0,5.0,0,6,13,5.0,29.471457,,,TRUE,TRUE,,,,,,-RA BR,FEW,1800,SCT,2300,BKN,7500,,,MVFR,,,,,,,,,,,,SPECI,16.0
K6S2 272035Z AUTO VRB06G16KT 10SM SCT025 SCT038 BKN046 07/05 A2948 RMK AO2,K6S2,2023-02-27T20:35:00Z,43.98,-124.12,7.0,5.0,0,6,16,10.0,29.480314,,,TRUE,TRUE,,,,,,,SCT,2500,SCT,3800,BKN,4600,,,VFR,,,,,,,,,,,,SPECI,16.0
K6S2 272015Z AUTO VRB06G12KT 10SM FEW018 SCT023 BKN028 07/07 A2948 RMK AO2 LTG DSNT W,K6S2,2023-02-27T20:15:00Z,43.98,-124.12,7.0,7.0,0,6,12,10.0,29.480314,,,TRUE,TRUE,,,,,,,FEW,1800,SCT,2300,BKN,2800,,,MVFR,,,,,,,,,,,,METAR,16.0
K6S2 271955Z AUTO VRB05G10KT 7SM -RA FEW018 SCT022 BKN027 06/06 A2950 RMK AO2,K6S2,2023-02-27T19:55:00Z,43.98,-124.12,6.0,6.0,0,5,10,7.0,29.500984,,,TRUE,TRUE,,,,,,-RA,FEW,1800,SCT,2200,BKN,2700,,,MVFR,,,,,,,,,,,,METAR,16.0
K6S2 271935Z AUTO VRB05KT 10SM FEW018 SCT027 BKN033 06/06 A2950 RMK AO2,K6S2,2023-02-27T19:35:00Z,43.98,-124.12,6.0,6.0,0,5,,10.0,29.500984,,,TRUE,TRUE,,,,,,,FEW,1800,SCT,2700,BKN,3300,,,VFR,,,,,,,,,,,,SPECI,16.0
K6S2 271915Z AUTO VRB04G13KT 6SM -RA BR SCT018 SCT023 BKN028 04/04 A2951 RMK AO2,K6S2,2023-02-27T19:15:00Z,43.98,-124.12,4.0,4.0,0,4,13,6.0,29.509842,,,TRUE,TRUE,,,,,,-RA BR,SCT,1800,SCT,2300,BKN,2800,,,MVFR,,,,,,,,,,,,METAR,16.0
K6S2 271855Z AUTO VRB06KT 9SM -RA SCT019 BKN024 BKN032 04/04 A2952 RMK AO2 P0004,K6S2,2023-02-27T18:55:00Z,43.98,-124.12,4.0,4.0,0,6,,9.0,29.518702,,,TRUE,TRUE,,,,,,-RA,SCT,1900,BKN,2400,BKN,3200,,,MVFR,,,,,,0.04,,,,,,METAR,16.0
K6S2 271835Z AUTO 00000KT 9SM -RA SCT019 BKN025 02/02 A2953 RMK AO2,K6S2,2023-02-27T18:35:00Z,43.98,-124.12,2.0,2.0,0,0,,9.0,29.530512,,,TRUE,TRUE,,,,,,-RA,SCT,1900,BKN,2500,,,,,MVFR,,,,,,,,,,,,METAR,16.0
K6S2 271815Z AUTO VRB04KT 3SM -RA BR FEW020 FEW025 SCT030 03/03 A2954 RMK AO2,K6S2,2023-02-27T18:15:00Z,43.98,-124.12,3.0,3.0,0,4,,3.0,29.53937,,,TRUE,TRUE,,,,,,-RA BR,FEW,2000,FEW,2500,SCT,3000,,,MVFR,,,,,,,,,,,,METAR,16.0
K6S2 271755Z AUTO VRB03KT 5SM -RA BR FEW020 FEW026 03/03 A2954 RMK AO2 P0012,K6S2,2023-02-27T17:55:00Z,43.98,-124.12,3.0,3.0,0,3,,5.0,29.53937,,,TRUE,TRUE,,,,,,-RA BR,FEW,2000,FEW,2600,,,,,MVFR,,,,,,0.12,,,,,,METAR,16.0
K6S2 271735Z AUTO VRB04KT 4SM -SN BR CLR 02/02 A2955 RMK AO2,K6S2,2023-02-27T17:35:00Z,43.98,-124.12,2.0,2.0,0,4,,4.0,29.551182,,,TRUE,TRUE,,,,,,-SN BR,CLR,,,,,,,,MVFR,,,,,,,,,,,,SPECI,16.0
K6S2 271715Z AUTO VRB06G11KT 4SM RA BR SCT018 03/03 A2955 RMK AO2,K6S2,2023-02-27T17:15:00Z,43.98,-124.12,3.0,3.0,0,6,11,4.0,29.551182,,,TRUE,TRUE,,,,,,RA BR,SCT,1800,,,,,,,MVFR,,,,,,,,,,,,SPECI,16.0
K6S2 271655Z AUTO VRB06KT 5SM -RA BR SCT019 SCT024 03/03 A2954 RMK AO2 P0003,K6S2,2023-02-27T16:55:00Z,43.98,-124.12,3.0,3.0,0,6,,5.0,29.53937,,,TRUE,TRUE,,,,,,-RA BR,SCT,1900,SCT,2400,,,,,MVFR,,,,,,0.03,,,,,,METAR,16.0
K6S2 271635Z AUTO VRB06KT 4SM UP BR SCT019 SCT023 03/03 A2955 RMK AO2,K6S2,2023-02-27T16:35:00Z,43.98,-124.12,3.0,3.0,0,6,,4.0,29.551182,,,TRUE,TRUE,,,,,,BR UP,SCT,1900,SCT,2300,,,,,MVFR,,,,,,,,,,,,SPECI,16.0
K6S2 271615Z AUTO VRB04KT 6SM -RA BR SCT022 BKN050 BKN060 03/03 A2954 RMK AO2,K6S2,2023-02-27T16:15:00Z,43.98,-124.12,3.0,3.0,0,4,,6.0,29.53937,,,TRUE,TRUE,,,,,,-RA BR,SCT,2200,BKN,5000,BKN,6000,,,VFR,,,,,,,,,,,,METAR,16.0
K6S2 271555Z AUTO 00000G11KT 10SM FEW020 SCT028 BKN042 02/02 A2954 RMK AO2 P0001,K6S2,2023-02-27T15:55:00Z,43.98,-124.12,2.0,2.0,0,0,11,10.0,29.53937,,,TRUE,TRUE,,,,,,,FEW,2000,SCT,2800,BKN,4200,,,VFR,,,,,,0.01,,,,,,METAR,16.0
K6S2 271535Z AUTO VRB05KT 9SM UP FEW018 BKN026 BKN032 02/02 A2955 RMK AO2,K6S2,2023-02-27T15:35:00Z,43.98,-124.12,2.0,2.0,0,5,,9.0,29.551182,,,TRUE,TRUE,,,,,,UP,FEW,1800,BKN,2600,BKN,3200,,,MVFR,,,,,,,,,,,,METAR,16.0
K6S2 271515Z AUTO VRB06G13KT 4SM -RA BR FEW015 FEW022 BKN030 02/02 A2955 RMK AO2,K6S2,2023-02-27T15:15:00Z,43.98,-124.12,2.0,2.0,0,6,13,4.0,29.551182,,,TRUE,TRUE,,,,,,-RA BR,FEW,1500,FEW,2200,BKN,3000,,,MVFR,,,,,,,,,,,,SPECI,16.0
K6S2 271455Z AUTO VRB05KT 10SM UP FEW015 SCT022 OVC028 02/02 A2955 RMK AO2,K6S2,2023-02-27T14:55:00Z,43.98,-124.12,2.0,2.0,0,5,,10.0,29.551182,,,TRUE,TRUE,,,,,,UP,FEW,1500,SCT,2200,OVC,2800,,,MVFR,,,,,,,,,,,,METAR,16.0
K6S2 271435Z AUTO VRB04G11KT 7SM UP SCT016 OVC022 02/02 A2955 RMK AO2,K6S2,2023-02-27T14:35:00Z,43.98,-124.12,2.0,2.0,0,4,11,7.0,29.551182,,,TRUE,TRUE,,,,,,UP,SCT,1600,OVC,2200,,,,,MVFR,,,,,,,,,,,,METAR,16.0
K6S2 271415Z AUTO VRB06KT 9SM UP FEW010 OVC018 02/02 A2956 RMK AO2,K6S2,2023-02-27T14:15:00Z,43.98,-124.12,2.0,2.0,0,6,,9.0,29.56004,,,TRUE,TRUE,,,,,,UP,FEW,1000,OVC,1800,,,,,MVFR,,,,,,,,,,,,SPECI,16.0
K6S2 271355Z AUTO 14006G11KT 4SM -SN BR SCT007 BKN012 OVC019 02/02 A2957 RMK AO2 P0015,K6S2,2023-02-27T13:55:00Z,43.98,-124.12,2.0,2.0,140,6,11,4.0,29.568897,,,TRUE,TRUE,,,,,,-SN BR,SCT,700,BKN,1200,OVC,1900,,,MVFR,,,,,,0.15,,,,,,METAR,16.0
K6S2 271335Z AUTO 16007G15KT 120V200 3SM RA BR FEW003 SCT011 OVC017 03/03 A2957 RMK AO2,K6S2,2023-02-27T13:35:00Z,43.98,-124.12,3.0,3.0,160,7,15,3.0,29.568897,,,TRUE,TRUE,,,,,,RA BR,FEW,300,SCT,1100,OVC,1700,,,MVFR,,,,,,,,,,,,SPECI,16.0
K6S2 271315Z AUTO VRB07G12KT 110V170 9SM UP BKN018 OVC022 03/03 A2957 RMK AO2,K6S2,2023-02-27T13:15:00Z,43.98,-124.12,3.0,3.0,0,7,12,9.0,29.568897,,,TRUE,TRUE,,,,,,UP,BKN,1800,OVC,2200,,,,,MVFR,,,,,,,,,,,,METAR,16.0
K6S2 271255Z AUTO VRB05G12KT 9SM UP FEW012 OVC021 02/02 A2957 RMK AO2 P0003,K6S2,2023-02-27T12:55:00Z,43.98,-124.12,2.0,2.0,0,5,12,9.0,29.568897,,,TRUE,TRUE,,,,,,UP,FEW,1200,OVC,2100,,,,,MVFR,,,,,,0.03,,,,,,METAR,16.0
K6S2 271235Z AUTO VRB05KT 6SM UP BR BKN010 BKN019 02/02 A2957 RMK AO2,K6S2,2023-02-27T12:35:00Z,43.98,-124.12,2.0,2.0,0,5,,6.0,29.568897,,,TRUE,TRUE,,,,,,BR UP,BKN,1000,BKN,1900,,,,,MVFR,,,,,,,,,,,,METAR,16.0
K6S2 271215Z AUTO 17008KT 4SM UP BR BKN009 OVC017 03/03 A2958 RMK AO2,K6S2,2023-02-27T12:15:00Z,43.98,-124.12,3.0,3.0,170,8,,4.0,29.58071,,,TRUE,TRUE,,,,,,BR UP,BKN,900,OVC,1700,,,,,IFR,,,,,,,,,,,,SPECI,16.0
K6S2 271155Z AUTO 17007G13KT 140V200 5SM UP BR FEW009 SCT012 BKN017 03/03 A2958 RMK AO2 P0002,K6S2,2023-02-27T11:55:00Z,43.98,-124.12,3.0,3.0,170,7,13,5.0,29.58071,,,TRUE,TRUE,,,,,,BR UP,FEW,900,SCT,1200,BKN,1700,,,MVFR,,,,,,0.02,,,,,,METAR,16.0
K6S2 271135Z AUTO VRB05G11KT 9SM -RA SCT009 BKN016 OVC024 03/02 A2957 RMK AO2,K6S2,2023-02-27T11:35:00Z,43.98,-124.12,3.0,2.0,0,5,11,9.0,29.568897,,,TRUE,TRUE,,,,,,-RA,SCT,900,BKN,1600,OVC,2400,,,MVFR,,,,,,,,,,,,METAR,16.0
K6S2 271115Z AUTO 15008G18KT 110V210 6SM -RA BR SCT008 BKN011 OVC029 04/02 A2958 RMK AO2,K6S2,2023-02-27T11:15:00Z,43.98,-124.12,4.0,2.0,150,8,18,6.0,29.58071,,,TRUE,TRUE,,,,,,-RA BR,SCT,800,BKN,1100,OVC,2900,,,MVFR,,,,,,,,,,,,SPECI,16.0
K6S2 271055Z AUTO VRB06G14KT 10SM FEW025 BKN031 OVC037 05/01 A2959 RMK AO2 LTG DSNT S,K6S2,2023-02-27T10:55:00Z,43.98,-124.12,5.0,1.0,0,6,14,10.0,29.589567,,,TRUE,TRUE,,,,,,,FEW,2500,BKN,3100,OVC,3700,,,VFR,,,,,,,,,,,,METAR,16.0
K6S2 271035Z AUTO VRB04G11KT 10SM SCT028 BKN037 OVC047 05/01 A2959 RMK AO2,K6S2,2023-02-27T10:35:00Z,43.98,-124.12,5.0,1.0,0,4,11,10.0,29.589567,,,TRUE,TRUE,,,,,,,SCT,2800,BKN,3700,OVC,4700,,,VFR,,,,,,,,,,,,METAR,16.0
K6S2 271015Z AUTO 14007G14KT 100V190 10SM -RA FEW016 FEW027 BKN037 04/02 A2962 RMK AO2,K6S2,2023-02-27T10:15:00Z,43.98,-124.12,4.0,2.0,140,7,14,10.0,29.619095,,,TRUE,TRUE,,,,,,-RA,FEW,1600,FEW,2700,BKN,3700,,,VFR,,,,,,,,,,,,METAR,16.0
K6S2 270955Z AUTO 14008G14KT 120V210 10SM BKN037 BKN045 OVC055 05/02 A2963 RMK AO2 LTG DSNT SW,K6S2,2023-02-27T09:55:00Z,43.98,-124.12,5.0,2.0,140,8,14,10.0,29.630905,,,TRUE,TRUE,,,,,,,BKN,3700,BKN,4500,OVC,5500,,,VFR,,,,,,,,,,,,METAR,16.0
K6S2 270935Z AUTO VRB06G11KT 10SM BKN035 OVC050 04/02 A2964 RMK AO2 LTG DSNT S,K6S2,2023-02-27T09:35:00Z,43.98,-124.12,4.0,2.0,0,6,11,10.0,29.639763,,,TRUE,TRUE,,,,,,,BKN,3500,OVC,5000,,,,,VFR,,,,,,,,,,,,METAR,16.0
K6S2 270915Z AUTO VRB05G11KT 10SM FEW035 SCT044 BKN050 04/03 A2965 RMK AO2,K6S2,2023-02-27T09:15:00Z,43.98,-124.12,4.0,3.0,0,5,11,10.0,29.648623,,,TRUE,TRUE,,,,,,,FEW,3500,SCT,4400,BKN,5000,,,VFR,,,,,,,,,,,,METAR,16.0
K6S2 270855Z AUTO VRB04G10KT 10SM FEW028 BKN034 OVC045 04/03 A2967 RMK AO2,K6S2,2023-02-27T08:55:00Z,43.98,-124.12,4.0,3.0,0,4,10,10.0,29.66929,,,TRUE,TRUE,,,,,,,FEW,2800,BKN,3400,OVC,4500,,,VFR,,,,,,,,,,,,METAR,16.0
K6S2 270835Z AUTO VRB05G11KT 8SM -RA FEW017 SCT024 BKN034 04/04 A2969 RMK AO2,K6S2,2023-02-27T08:35:00Z,43.98,-124.12,4.0,4.0,0,5,11,8.0,29.68996,,,TRUE,TRUE,,,,,,-RA,FEW,1700,SCT,2400,BKN,3400,,,VFR,,,,,,,,,,,,SPECI,16.0
K6S2 270815Z AUTO VRB05G13KT 8SM -RA FEW018 SCT024 BKN029 04/04 A2970 RMK AO2,K6S2,2023-02-27T08:15:00Z,43.98,-124.12,4.0,4.0,0,5,13,8.0,29.698818,,,TRUE,TRUE,,,,,,-RA,FEW,1800,SCT,2400,BKN,2900,,,MVFR,,,,,,,,,,,,METAR,16.0
K6S2 270755Z AUTO VRB05G13KT 10SM -RA BKN031 BKN042 OVC070 04/03 A2971 RMK AO2,K6S2,2023-02-27T07:55:00Z,43.98,-124.12,4.0,3.0,0,5,13,10.0,29.71063,,,TRUE,TRUE,,,,,,-RA,BKN,3100,BKN,4200,OVC,7000,,,VFR,,,,,,,,,,,,METAR,16.0
K6S2 270715Z AUTO VRB06G14KT 10SM FEW033 SCT046 BKN075 04/03 A2973 RMK AO2,K6S2,2023-02-27T07:15:00Z,43.98,-124.12,4.0,3.0,0,6,14,10.0,29.731298,,,TRUE,TRUE,,,,,,,FEW,3300,SCT,4600,BKN,7500,,,VFR,,,,,,,,,,,,METAR,16.0
K6S2 270655Z AUTO VRB04G15KT 10SM FEW033 FEW040 BKN048 04/03 A2974 RMK AO2,K6S2,2023-02-27T06:55:00Z,43.98,-124.12,4.0,3.0,0,4,15,10.0,29.740158,,,TRUE,TRUE,,,,,,,FEW,3300,FEW,4000,BKN,4800,,,VFR,,,,,,,,,,,,METAR,16.0
K6S2 270635Z AUTO VRB05KT 10SM SCT026 SCT037 OVC047 04/04 A2975 RMK AO2,K6S2,2023-02-27T06:35:00Z,43.98,-124.12,4.0,4.0,0,5,,10.0,29.749016,,,TRUE,TRUE,,,,,,,SCT,2600,SCT,3700,OVC,4700,,,VFR,,,,,,,,,,,,METAR,16.0
K6S2 270615Z AUTO VRB04G10KT 10SM -RA FEW018 BKN025 OVC035 04/04 A2976 RMK AO2,K6S2,2023-02-27T06:15:00Z,43.98,-124.12,4.0,4.0,0,4,10,10.0,29.760826,,,TRUE,TRUE,,,,,,-RA,FEW,1800,BKN,2500,OVC,3500,,,MVFR,,,,,,,,,,,,METAR,16.0
K6S2 270555Z AUTO VRB06G13KT 10SM BKN029 BKN038 OVC070 04/04 A2977 RMK AO2 P0002,K6S2,2023-02-27T05:55:00Z,43.98,-124.12,4.0,4.0,0,6,13,10.0,29.769686,,,TRUE,TRUE,,,,,,,BKN,2900,BKN,3800,OVC,7000,,,MVFR,,,,,,0.02,,,,,,SPECI,16.0
K6S2 270535Z AUTO 15008G16KT 120V200 10SM FEW005 SCT015 BKN028 04/04 A2977 RMK AO2,K6S2,2023-02-27T05:35:00Z,43.98,-124.12,4.0,4.0,150,8,16,10.0,29.769686,,,TRUE,TRUE,,,,,,,FEW,500,SCT,1500,BKN,2800,,,MVFR,,,,,,,,,,,,SPECI,16.0
K6S2 270515Z AUTO 17010G18KT 130V200 4SM -RA BR FEW003 SCT019 BKN028 04/04 A2978 RMK AO2,K6S2,2023-02-27T05:15:00Z,43.98,-124.12,4.0,4.0,170,10,18,4.0,29.778543,,,TRUE,TRUE,,,,,,-RA BR,FEW,300,SCT,1900,BKN,2800,,,MVFR,,,,,,,,,,,,METAR,16.0
K6S2 270455Z AUTO 15006G12KT 10SM BKN030 BKN042 OVC055 04/04 A2978 RMK AO2,K6S2,2023-02-27T04:55:00Z,43.98,-124.12,4.0,4.0,150,6,12,10.0,29.778543,,,TRUE,TRUE,,,,,,,BKN,3000,BKN,4200,OVC,5500,,,MVFR,,,,,,,,,,,,METAR,16.0
K6S2 270435Z AUTO 15006G12KT 9SM UP SCT027 BKN035 OVC041 04/04 A2979 RMK AO2,K6S2,2023-02-27T04:35:00Z,43.98,-124.12,4.0,4.0,150,6,12,9.0,29.790354,,,TRUE,TRUE,,,,,,UP,SCT,2700,BKN,3500,OVC,4100,,,VFR,,,,,,,,,,,,SPECI,16.0
K6S2 270415Z AUTO VRB06G15KT 9SM UP FEW016 SCT023 BKN028 04/04 A2980 RMK AO2,K6S2,2023-02-27T04:15:00Z,43.98,-124.12,4.0,4.0,0,6,15,9.0,29.799213,,,TRUE,TRUE,,,,,,UP,FEW,1600,SCT,2300,BKN,2800,,,MVFR,,,,,,,,,,,,METAR,16.0
K6S2 270355Z AUTO 16008KT 4SM -RA BR SCT016 SCT023 BKN033 04/04 A2981 RMK AO2 P0001,K6S2,2023-02-27T03:55:00Z,43.98,-124.12,4.0,4.0,160,8,,4.0,29.811024,,,TRUE,TRUE,,,,,,-RA BR,SCT,1600,SCT,2300,BKN,3300,,,MVFR,,,,,,0.01,,,,,,METAR,16.0
K6S2 270335Z AUTO VRB05G10KT 10SM FEW038 SCT055 BKN075 04/04 A2980 RMK AO2,K6S2,2023-02-27T03:35:00Z,43.98,-124.12,4.0,4.0,0,5,10,10.0,29.799213,,,TRUE,TRUE,,,,,,,FEW,3800,SCT,5500,BKN,7500,,,VFR,,,,,,,,,,,,METAR,16.0
K6S2 270315Z AUTO VRB06KT 10SM FEW036 FEW041 BKN050 04/04 A2981 RMK AO2,K6S2,2023-02-27T03:15:00Z,43.98,-124.12,4.0,4.0,0,6,,10.0,29.811024,,,TRUE,TRUE,,,,,,,FEW,3600,FEW,4100,BKN,5000,,,VFR,,,,,,,,,,,,SPECI,16.0
K6S2 270255Z AUTO 15007G13KT 120V180 10SM FEW042 OVC050 05/04 A2982 RMK AO2,K6S2,2023-02-27T02:55:00Z,43.98,-124.12,5.0,4.0,150,7,13,10.0,29.819881,,,TRUE,TRUE,,,,,,,FEW,4200,OVC,5000,,,,,VFR,,,,,,,,,,,,METAR,16.0
K6S2 270235Z AUTO 19011G22KT 10SM FEW041 OVC047 05/05 A2982 RMK AO2,K6S2,2023-02-27T02:35:00Z,43.98,-124.12,5.0,5.0,190,11,22,10.0,29.819881,,,TRUE,TRUE,,,,,,,FEW,4100,OVC,4700,,,,,VFR,,,,,,,,,,,,SPECI,16.0
K6S2 270215Z AUTO 19009KT 10SM FEW028 FEW036 BKN047 05/04 A2982 RMK AO2,K6S2,2023-02-27T02:15:00Z,43.98,-124.12,5.0,4.0,190,9,,10.0,29.819881,,,TRUE,TRUE,,,,,,,FEW,2800,FEW,3600,BKN,4700,,,VFR,,,,,,,,,,,,SPECI,16.0
K6S2 270155Z AUTO VRB04G10KT 10SM FEW024 SCT033 BKN055 04/04 A2982 RMK AO2 LTG DSNT N,K6S2,2023-02-27T01:55:00Z,43.98,-124.12,4.0,4.0,0,4,10,10.0,29.819881,,,TRUE,TRUE,,,,,,,FEW,2400,SCT,3300,BKN,5500,,,VFR,,,,,,,,,,,,SPECI,16.0
K6S2 270135Z AUTO 19011G26KT 8SM -RA SCT024 BKN030 OVC049 04/04 A2984 RMK AO2,K6S2,2023-02-27T01:35:00Z,43.98,-124.12,4.0,4.0,190,11,26,8.0,29.840551,,,TRUE,TRUE,,,,,,-RA,SCT,2400,BKN,3000,OVC,4900,,,MVFR,,,,,,,,,,,,SPECI,16.0
K6S2 270115Z AUTO 20009G15KT 170V230 10SM FEW030 SCT036 BKN049 07/04 A2983 RMK AO2,K6S2,2023-02-27T01:15:00Z,43.98,-124.12,7.0,4.0,200,9,15,10.0,29.828741,,,TRUE,TRUE,,,,,,,FEW,3000,SCT,3600,BKN,4900,,,VFR,,,,,,,,,,,,METAR,16.0
K6S2 270055Z AUTO 21009G16KT 10SM SCT055 BKN065 OVC075 07/03 A2984 RMK AO2,K6S2,2023-02-27T00:55:00Z,43.98,-124.12,7.0,3.0,210,9,16,10.0,29.840551,,,TRUE,TRUE,,,,,,,SCT,5500,BKN,6500,OVC,7500,,,VFR,,,,,,,,,,,,METAR,16.0
K6S2 270035Z AUTO 20009KT 10SM FEW050 SCT065 BKN075 07/04 A2985 RMK AO2,K6S2,2023-02-27T00:35:00Z,43.98,-124.12,7.0,4.0,200,9,,10.0,29.84941,,,TRUE,TRUE,,,,,,,FEW,5000,SCT,6500,BKN,7500,,,VFR,,,,,,,,,,,,METAR,16.0
K6S2 270015Z AUTO 20005G11KT 10SM BKN055 BKN065 BKN075 06/04 A2985 RMK AO2,K6S2,2023-02-27T00:15:00Z,43.98,-124.12,6.0,4.0,200,5,11,10.0,29.84941,,,TRUE,TRUE,,,,,,,BKN,5500,BKN,6500,BKN,7500,,,VFR,,,,,,,,,,,,METAR,16.0
K6S2 262355Z AUTO 21007KT 10SM FEW028 SCT060 BKN070 06/04 A2985 RMK AO2,K6S2,2023-02-26T23:55:00Z,43.98,-124.12,6.0,4.0,210,7,,10.0,29.84941,,,TRUE,TRUE,,,,,,,FEW,2800,SCT,6000,BKN,7000,,,VFR,,,,,,,,,,,,METAR,16.0
K6S2 262335Z AUTO 20014G22KT 10SM FEW027 SCT041 BKN070 06/03 A2986 RMK AO2,K6S2,2023-02-26T23:35:00Z,43.98,-124.12,6.0,3.0,200,14,22,10.0,29.861221,,,TRUE,TRUE,,,,,,,FEW,2700,SCT,4100,BKN,7000,,,VFR,,,,,,,,,,,,SPECI,16.0
K6S2 262315Z AUTO 20007G13KT 10SM FEW044 FEW060 BKN090 07/04 A2986 RMK AO2,K6S2,2023-02-26T23:15:00Z,43.98,-124.12,7.0,4.0,200,7,13,10.0,29.861221,,,TRUE,TRUE,,,,,,,FEW,4400,FEW,6000,BKN,9000,,,VFR,,,,,,,,,,,,SPECI,16.0
K6S2 262255Z AUTO 20008G15KT 10SM FEW033 SCT045 BKN110 07/05 A2986 RMK AO2 P0002,K6S2,2023-02-26T22:55:00Z,43.98,-124.12,7.0,5.0,200,8,15,10.0,29.861221,,,TRUE,TRUE,,,,,,,FEW,3300,SCT,4500,BKN,11000,,,VFR,,,,,,0.02,,,,,,METAR,16.0
K6S2 262235Z AUTO 21009G26KT 2 1/2SM RA HZ SCT034 SCT042 BKN048 06/03 A2987 RMK AO2,K6S2,2023-02-26T22:35:00Z,43.98,-124.12,6.0,3.0,210,9,26,2.5,29.870079,,,TRUE,TRUE,,,,,,RA HZ,SCT,3400,SCT,4200,BKN,4800,,,IFR,,,,,,,,,,,,METAR,16.0
K6S2 262215Z AUTO VRB05G12KT 10SM FEW038 SCT045 BKN055 08/01 A2986 RMK AO2,K6S2,2023-02-26T22:15:00Z,43.98,-124.12,8.0,1.0,0,5,12,10.0,29.861221,,,TRUE,TRUE,,,,,,,FEW,3800,SCT,4500,BKN,5500,,,VFR,,,,,,,,,,,,SPECI,16.0
K6S2 262155Z AUTO VRB06G12KT 10SM SCT036 BKN044 BKN120 07/03 A2987 RMK AO2,K6S2,2023-02-26T21:55:00Z,43.98,-124.12,7.0,3.0,0,6,12,10.0,29.870079,,,TRUE,TRUE,,,,,,,SCT,3600,BKN,4400,BKN,12000,,,VFR,,,,,,,,,,,,METAR,16.0
K6S2 262115Z AUTO 34005KT 10SM FEW039 SCT050 SCT060 06/04 A2988 RMK AO2,K6S2,2023-02-26T21:15:00Z,43.98,-124.12,6.0,4.0,340,5,,10.0,29.878937,,,TRUE,TRUE,,,,,,,FEW,3900,SCT,5000,SCT,6000,,,VFR,,,,,,,,,,,,SPECI,16.0
K6S2 262055Z AUTO 25007G24KT 220V280 10SM -RA SCT029 BKN038 BKN050 05/03 A2987 RMK AO2,K6S2,2023-02-26T20:55:00Z,43.98,-124.12,5.0,3.0,250,7,24,10.0,29.870079,,,TRUE,TRUE,,,,,,-RA,SCT,2900,BKN,3800,BKN,5000,,,VFR,,,,,,,,,,,,METAR,16.0
K6S2 262035Z AUTO VRB04G15KT 6SM -RA BR SCT026 BKN032 BKN055 05/03 A2987 RMK AO2,K6S2,2023-02-26T20:35:00Z,43.98,-124.12,5.0,3.0,0,4,15,6.0,29.870079,,,TRUE,TRUE,,,,,,-RA BR,SCT,2600,BKN,3200,BKN,5500,,,VFR,,,,,,,,,,,,SPECI,16.0
K6S2 262015Z AUTO VRB07G12KT 260V320 10SM FEW028 FEW033 FEW060 07/03 A2987 RMK AO2,K6S2,2023-02-26T20:15:00Z,43.98,-124.12,7.0,3.0,0,7,12,10.0,29.870079,,,TRUE,TRUE,,,,,,,FEW,2800,FEW,3300,FEW,6000,,,VFR,,,,,,,,,,,,METAR,16.0
K6S2 261955Z AUTO 28008G14KT 240V300 10SM FEW026 SCT031 BKN060 07/04 A2987 RMK AO2,K6S2,2023-02-26T19:55:00Z,43.98,-124.12,7.0,4.0,280,8,14,10.0,29.870079,,,TRUE,TRUE,,,,,,,FEW,2600,SCT,3100,BKN,6000,,,VFR,,,,,,,,,,,,METAR,16.0
K6S2 261935Z AUTO 30006G12KT 10SM SCT024 BKN029 OVC090 06/04 A2987 RMK AO2,K6S2,2023-02-26T19:35:00Z,43.98,-124.12,6.0,4.0,300,6,12,10.0,29.870079,,,TRUE,TRUE,,,,,,,SCT,2400,BKN,2900,OVC,9000,,,MVFR,,,,,,,,,,,,SPECI,16.0
K6S2 261915Z AUTO 27008KT 230V290 10SM FEW026 SCT060 BKN075 06/04 A2986 RMK AO2,K6S2,2023-02-26T19:15:00Z,43.98,-124.12,6.0,4.0,270,8,,10.0,29.861221,,,TRUE,TRUE,,,,,,,FEW,2600,SCT,6000,BKN,7500,,,VFR,,,,,,,,,,,,METAR,16.0
K6S2 261855Z AUTO 00000KT 10SM FEW017 SCT047 BKN075 05/04 A2986 RMK AO2 P0004,K6S2,2023-02-26T18:55:00Z,43.98,-124.12,5.0,4.0,0,0,,10.0,29.861221,,,TRUE,TRUE,,,,,,,FEW,1700,SCT,4700,BKN,7500,,,VFR,,,,,,0.04,,,,,,METAR,16.0
K6S2 261835Z AUTO 31006G13KT 10SM -RA FEW011 SCT017 BKN046 04/04 A2985 RMK AO2,K6S2,2023-02-26T18:35:00Z,43.98,-124.12,4.0,4.0,310,6,13,10.0,29.84941,,,TRUE,TRUE,,,,,,-RA,FEW,1100,SCT,1700,BKN,4600,,,VFR,,,,,,,,,,,,METAR,16.0
K6S2 261815Z AUTO 29012G20KT 2SM -RA BR SCT011 SCT016 BKN041 04/04 A2984 RMK AO2,K6S2,2023-02-26T18:15:00Z,43.98,-124.12,4.0,4.0,290,12,20,2.0,29.840551,,,TRUE,TRUE,,,,,,-RA BR,SCT,1100,SCT,1600,BKN,4100,,,IFR,,,,,,,,,,,,METAR,16.0
K6S2 261755Z AUTO 27008KT 250V310 10SM FEW029 SCT044 BKN050 07/04 A2982 RMK AO2,K6S2,2023-02-26T17:55:00Z,43.98,-124.12,7.0,4.0,270,8,,10.0,29.819881,,,TRUE,TRUE,,,,,,,FEW,2900,SCT,4400,BKN,5000,,,VFR,,,,,,,,,,,,METAR,16.0
K6S2 261735Z AUTO 29007KT 10SM FEW023 SCT028 SCT042 06/03 A2982 RMK AO2,K6S2,2023-02-26T17:35:00Z,43.98,-124.12,6.0,3.0,290,7,,10.0,29.819881,,,TRUE,TRUE,,,,,,,FEW,2300,SCT,2800,SCT,4200,,,VFR,,,,,,,,,,,,SPECI,16.0
K6S2 261715Z AUTO 26009KT 240V310 9SM -RA FEW022 SCT029 BKN039 06/03 A2981 RMK AO2,K6S2,2023-02-26T17:15:00Z,43.98,-124.12,6.0,3.0,260,9,,9.0,29.811024,,,TRUE,TRUE,,,,,,-RA,FEW,2200,SCT,2900,BKN,3900,,,VFR,,,,,,,,,,,,SPECI,16.0
K6S2 261655Z AUTO VRB05G12KT 9SM -RA SCT030 SCT042 BKN055 06/03 A2980 RMK AO2,K6S2,2023-02-26T16:55:00Z,43.98,-124.12,6.0,3.0,0,5,12,9.0,29.799213,,,TRUE,TRUE,,,,,,-RA,SCT,3000,SCT,4200,BKN,5500,,,VFR,,,,,,,,,,,,METAR,16.0
K6S2 261635Z AUTO 32010G26KT 9SM UP FEW028 BKN035 OVC060 05/03 A2979 RMK AO2,K6S2,2023-02-26T16:35:00Z,43.98,-124.12,5.0,3.0,320,10,26,9.0,29.790354,,,TRUE,TRUE,,,,,,UP,FEW,2800,BKN,3500,OVC,6000,,,VFR,,,,,,,,,,,,METAR,16.0
K6S2 261615Z AUTO 31009G16KT 10SM FEW029 SCT034 BKN055 07/03 A2977 RMK AO2,K6S2,2023-02-26T16:15:00Z,43.98,-124.12,7.0,3.0,310,9,16,10.0,29.769686,,,TRUE,TRUE,,,,,,,FEW,2900,SCT,3400,BKN,5500,,,VFR,,,,,,,,,,,,METAR,16.0
K6S2 261555Z AUTO 30010G16KT 270V330 10SM BKN030 BKN041 BKN110 06/03 A2977 RMK AO2,K6S2,2023-02-26T15:55:00Z,43.98,-124.12,6.0,3.0,300,10,16,10.0,29.769686,,,TRUE,TRUE,,,,,,,BKN,3000,BKN,4100,BKN,11000,,,MVFR,,,,,,,,,,,,METAR,16.0
K6S2 261535Z AUTO 30011G19KT 10SM SCT029 SCT041 BKN095 06/03 A2976 RMK AO2,K6S2,2023-02-26T15:35:00Z,43.98,-124.12,6.0,3.0,300,11,19,10.0,29.760826,,,TRUE,TRUE,,,,,,,SCT,2900,SCT,4100,BKN,9500,,,VFR,,,,,,,,,,,,SPECI,16.0
K6S2 261515Z AUTO 31008G17KT 10SM SCT031 BKN047 OVC095 07/04 A2975 RMK AO2,K6S2,2023-02-26T15:15:00Z,43.98,-124.12,7.0,4.0,310,8,17,10.0,29.749016,,,TRUE,TRUE,,,,,,,SCT,3100,BKN,4700,OVC,9500,,,VFR,,,,,,,,,,,,SPECI,16.0
K6S2 261455Z AUTO 29007G12KT 250V320 10SM -RA SCT029 BKN033 OVC060 06/05 A2974 RMK AO2 P0002,K6S2,2023-02-26T14:55:00Z,43.98,-124.12,6.0,5.0,290,7,12,10.0,29.740158,,,TRUE,TRUE,,,,,,-RA,SCT,2900,BKN,3300,OVC,6000,,,VFR,,,,,,0.02,,,,,,METAR,16.0
K6S2 261435Z AUTO 00000KT 10SM FEW003 SCT022 BKN035 05/05 A2973 RMK AO2,K6S2,2023-02-26T14:35:00Z,43.98,-124.12,5.0,5.0,0,0,,10.0,29.731298,,,TRUE,TRUE,,,,,,,FEW,300,SCT,2200,BKN,3500,,,VFR,,,,,,,,,,,,SPECI,16.0
K6S2 261415Z AUTO VRB05KT 7SM -RA SCT022 SCT027 BKN035 05/05 A2973 RMK AO2,K6S2,2023-02-26T14:15:00Z,43.98,-124.12,5.0,5.0,0,5,,7.0,29.731298,,,TRUE,TRUE,,,,,,-RA,SCT,2200,SCT,2700,BKN,3500,,,VFR,,,,,,,,,,,,SPECI,16.0
K6S2 261355Z AUTO VRB05G14KT 5SM -RA BR BKN020 BKN025 BKN031 06/05 A2973 RMK AO2 P0003,K6S2,2023-02-26T13:55:00Z,43.98,-124.12,6.0,5.0,0,5,14,5.0,29.731298,,,TRUE,TRUE,,,,,,-RA BR,BKN,2000,BKN,2500,BKN,3100,,,MVFR,,,,,,0.03,,,,,,METAR,16.0
K6S2 261335Z AUTO 32008G17KT 6SM -RA BR SCT016 BKN021 OVC025 05/04 A2972 RMK AO2,K6S2,2023-02-26T13:35:00Z,43.98,-124.12,5.0,4.0,320,8,17,6.0,29.719488,,,TRUE,TRUE,,,,,,-RA BR,SCT,1600,BKN,2100,OVC,2500,,,MVFR,,,,,,,,,,,,SPECI,16.0
K6S2 261315Z AUTO 30008G14KT 270V330 6SM -RA BR SCT018 BKN022 OVC040 05/05 A2972 RMK AO2,K6S2,2023-02-26T13:15:00Z,43.98,-124.12,5.0,5.0,300,8,14,6.0,29.719488,,,TRUE,TRUE,,,,,,-RA BR,SCT,1800,BKN,2200,OVC,4000,,,MVFR,,,,,,,,,,,,SPECI,16.0
K6S2 261255Z AUTO 29008G16KT 7SM -RA BKN017 OVC021 05/05 A2971 RMK AO2 P0010,K6S2,2023-02-26T12:55:00Z,43.98,-124.12,5.0,5.0,290,8,16,7.0,29.71063,,,TRUE,TRUE,,,,,,-RA,BKN,1700,OVC,2100,,,,,MVFR,,,,,,0.1,,,,,,METAR,16.0
K6S2 261235Z AUTO 31008G17KT 280V350 4SM -RA BR OVC017 05/05 A2970 RMK AO2,K6S2,2023-02-26T12:35:00Z,43.98,-124.12,5.0,5.0,310,8,17,4.0,29.698818,,,TRUE,TRUE,,,,,,-RA BR,OVC,1700,,,,,,,MVFR,,,,,,,,,,,,SPECI,16.0
K6S2 261215Z AUTO 32006G12KT 4SM RA BR OVC017 05/05 A2969 RMK AO2,K6S2,2023-02-26T12:15:00Z,43.98,-124.12,5.0,5.0,320,6,12,4.0,29.68996,,,TRUE,TRUE,,,,,,RA BR,OVC,1700,,,,,,,MVFR,,,,,,,,,,,,METAR,16.0
K6S2 261155Z AUTO 27008KT 240V300 3SM RA BR FEW009 SCT013 OVC021 06/06 A2969 RMK AO2 P0013,K6S2,2023-02-26T11:55:00Z,43.98,-124.12,6.0,6.0,270,8,,3.0,29.68996,,,TRUE,TRUE,,,,,,RA BR,FEW,900,SCT,1300,OVC,2100,,,MVFR,,,,,,0.13,,,,,,METAR,16.0
K6S2 261135Z AUTO 25010G27KT 4SM RA BR BKN013 BKN017 OVC022 06/06 A2968 RMK AO2,K6S2,2023-02-26T11:35:00Z,43.98,-124.12,6.0,6.0,250,10,27,4.0,29.681103,,,TRUE,TRUE,,,,,,RA BR,BKN,1300,BKN,1700,OVC,2200,,,MVFR,,,,,,,,,,,,SPECI,16.0
K6S2 261115Z AUTO 20019G30KT 5SM -RA BR BKN013 OVC017 06/06 A2967 RMK AO2,K6S2,2023-02-26T11:15:00Z,43.98,-124.12,6.0,6.0,200,19,30,5.0,29.66929,,,TRUE,TRUE,,,,,,-RA BR,BKN,1300,OVC,1700,,,,,MVFR,,,,,,,,,,,,SPECI,16.0
K6S2 261055Z AUTO 19016G28KT 130V210 7SM -RA BKN010 OVC015 06/06 A2966 RMK AO2 P0004,K6S2,2023-02-26T10:55:00Z,43.98,-124.12,6.0,6.0,190,16,28,7.0,29.660433,,,TRUE,TRUE,,,,,,-RA,BKN,1000,OVC,1500,,,,,MVFR,,,,,,0.04,,,,,,METAR,16.0
K6S2 261035Z AUTO 19015G21KT 4SM -RA BR BKN010 BKN014 OVC018 05/05 A2966 RMK AO2,K6S2,2023-02-26T10:35:00Z,43.98,-124.12,5.0,5.0,190,15,21,4.0,29.660433,,,TRUE,TRUE,,,,,,-RA BR,BKN,1000,BKN,1400,OVC,1800,,,MVFR,,,,,,,,,,,,SPECI,16.0
K6S2 261015Z AUTO 19013G22KT 3SM -RA BR BKN009 OVC013 06/06 A2967 RMK AO2,K6S2,2023-02-26T10:15:00Z,43.98,-124.12,6.0,6.0,190,13,22,3.0,29.66929,,,TRUE,TRUE,,,,,,-RA BR,BKN,900,OVC,1300,,,,,IFR,,,,,,,,,,,,SPECI,16.0
K6S2 260955Z AUTO 19013G20KT 10SM UP OVC012 06/06 A2967 RMK AO2 P0006,K6S2,2023-02-26T09:55:00Z,43.98,-124.12,6.0,6.0,190,13,20,10.0,29.66929,,,TRUE,TRUE,,,,,,UP,OVC,1200,,,,,,,MVFR,,,,,,0.06,,,,,,METAR,16.0
K6S2 260935Z AUTO 19011G21KT 5SM -RA BR BKN012 OVC017 05/05 A2968 RMK AO2,K6S2,2023-02-26T09:35:00Z,43.98,-124.12,5.0,5.0,190,11,21,5.0,29.681103,,,TRUE,TRUE,,,,,,-RA BR,BKN,1200,OVC,1700,,,,,MVFR,,,,,,,,,,,,METAR,16.0
K6S2 260915Z AUTO 19014G24KT 170V250 4SM -RA BR SCT010 OVC016 05/05 A2969 RMK AO2,K6S2,2023-02-26T09:15:00Z,43.98,-124.12,5.0,5.0,190,14,24,4.0,29.68996,,,TRUE,TRUE,,,,,,-RA BR,SCT,1000,OVC,1600,,,,,MVFR,,,,,,,,,,,,SPECI,16.0
K6S2 260855Z AUTO 19012G17KT 140V210 4SM -RA BR BKN010 OVC017 05/05 A2970 RMK AO2 P0004,K6S2,2023-02-26T08:55:00Z,43.98,-124.12,5.0,5.0,190,12,17,4.0,29.698818,,,TRUE,TRUE,,,,,,-RA BR,BKN,1000,OVC,1700,,,,,MVFR,,,,,,0.04,,,,,,METAR,16.0
K6S2 260835Z AUTO 19011G19KT 140V210 6SM -RA BR SCT013 BKN020 OVC025 05/05 A2970 RMK AO2,K6S2,2023-02-26T08:35:00Z,43.98,-124.12,5.0,5.0,190,11,19,6.0,29.698818,,,TRUE,TRUE,,,,,,-RA BR,SCT,1300,BKN,2000,OVC,2500,,,MVFR,,,,,,,,,,,,SPECI,16.0
K6S2 260815Z AUTO 19016G22KT 4SM -RA BR BKN017 OVC023 05/05 A2970 RMK AO2,K6S2,2023-02-26T08:15:00Z,43.98,-124.12,5.0,5.0,190,16,22,4.0,29.698818,,,TRUE,TRUE,,,,,,-RA BR,BKN,1700,OVC,2300,,,,,MVFR,,,,,,,,,,,,METAR,16.0
K6S2 260755Z AUTO 18010G17KT 140V200 8SM -RA BKN017 OVC023 05/05 A2972 RMK AO2,K6S2,2023-02-26T07:55:00Z,43.98,-124.12,5.0,5.0,180,10,17,8.0,29.719488,,,TRUE,TRUE,,,,,,-RA,BKN,1700,OVC,2300,,,,,MVFR,,,,,,,,,,,,METAR,16.0
K6S2 260735Z AUTO 19009G14KT 160V220 9SM -RA BKN017 OVC023 05/05 A2973 RMK AO2,K6S2,2023-02-26T07:35:00Z,43.98,-124.12,5.0,5.0,190,9,14,9.0,29.731298,,,TRUE,TRUE,,,,,,-RA,BKN,1700,OVC,2300,,,,,MVFR,,,,,,,,,,,,SPECI,16.0
K6S2 260715Z AUTO 16007G13KT 080V200 6SM -RA BR BKN021 OVC029 05/04 A2973 RMK AO2,K6S2,2023-02-26T07:15:00Z,43.98,-124.12,5.0,4.0,160,7,13,6.0,29.731298,,,TRUE,TRUE,,,,,,-RA BR,BKN,2100,OVC,2900,,,,,MVFR,,,,,,,,,,,,SPECI,16.0
K6S2 260655Z AUTO VRB05KT 9SM -RA FEW022 OVC033 05/04 A2974 RMK AO2,K6S2,2023-02-26T06:55:00Z,43.98,-124.12,5.0,4.0,0,5,,9.0,29.740158,,,TRUE,TRUE,,,,,,-RA,FEW,2200,OVC,3300,,,,,VFR,,,,,,,,,,,,METAR,16.0
K6S2 260635Z AUTO 16005G12KT 10SM -RA SCT021 BKN030 OVC036 05/03 A2975 RMK AO2,K6S2,2023-02-26T06:35:00Z,43.98,-124.12,5.0,3.0,160,5,12,10.0,29.749016,,,TRUE,TRUE,,,,,,-RA,SCT,2100,BKN,3000,OVC,3600,,,MVFR,,,,,,,,,,,,METAR,16.0
K6S2 260615Z AUTO 15006KT 10SM SCT021 BKN027 OVC060 05/02 A2976 RMK AO2,K6S2,2023-02-26T06:15:00Z,43.98,-124.12,5.0,2.0,150,6,,10.0,29.760826,,,TRUE,TRUE,,,,,,,SCT,2100,BKN,2700,OVC,6000,,,MVFR,,,,,,,,,,,,METAR,16.0
K6S2 260555Z AUTO VRB06KT 10SM BKN029 BKN065 OVC075 04/02 A2976 RMK AO2,K6S2,2023-02-26T05:55:00Z,43.98,-124.12,4.0,2.0,0,6,,10.0,29.760826,,,TRUE,TRUE,,,,,,,BKN,2900,BKN,6500,OVC,7500,,,MVFR,,,,,,,,,,,,METAR,16.0
K6S2 260535Z AUTO VRB05KT 10SM BKN028 OVC075 04/02 A2976 RMK AO2,K6S2,2023-02-26T05:35:00Z,43.98,-124.12,4.0,2.0,0,5,,10.0,29.760826,,,TRUE,TRUE,,,,,,,BKN,2800,OVC,7500,,,,,MVFR,,,,,,,,,,,,SPECI,16.0
K6S2 260515Z AUTO VRB05KT 10SM BKN027 OVC075 04/02 A2976 RMK AO2,K6S2,2023-02-26T05:15:00Z,43.98,-124.12,4.0,2.0,0,5,,10.0,29.760826,,,TRUE,TRUE,,,,,,,BKN,2700,OVC,7500,,,,,MVFR,,,,,,,,,,,,SPECI,16.0
K6S2 260455Z AUTO 00000KT 10SM BKN022 OVC027 03/02 A2977 RMK AO2,K6S2,2023-02-26T04:55:00Z,43.98,-124.12,3.0,2.0,0,0,,10.0,29.769686,,,TRUE,TRUE,,,,,,,BKN,2200,OVC,2700,,,,,MVFR,,,,,,,,,,,,METAR,16.0
K6S2 260435Z AUTO 00000KT 10SM OVC020 03/02 A2978 RMK AO2,K6S2,2023-02-26T04:35:00Z,43.98,-124.12,3.0,2.0,0,0,,10.0,29.778543,,,TRUE,TRUE,,,,,,,OVC,2000,,,,,,,MVFR,,,,,,,,,,,,SPECI,16.0
K6S2 260415Z AUTO 00000KT 10SM OVC020 03/02 A2978 RMK AO2,K6S2,2023-02-26T04:15:00Z,43.98,-124.12,3.0,2.0,0,0,,10.0,29.778543,,,TRUE,TRUE,,,,,,,OVC,2000,,,,,,,MVFR,,,,,,,,,,,,SPECI,16.0
K6S2 260355Z AUTO 00000KT 10SM BKN020 02/01 A2978 RMK AO2,K6S2,2023-02-26T03:55:00Z,43.98,-124.12,2.0,1.0,0,0,,10.0,29.778543,,,TRUE,TRUE,,,,,,,BKN,2000,,,,,,,MVFR,,,,,,,,,,,,METAR,16.0
K6S2 260335Z AUTO 00000KT 10SM CLR 02/01 A2979 RMK AO2,K6S2,2023-02-26T03:35:00Z,43.98,-124.12,2.0,1.0,0,0,,10.0,29.790354,,,TRUE,TRUE,,,,,,,CLR,,,,,,,,VFR,,,,,,,,,,,,SPECI,16.0
K6S2 260315Z AUTO 00000KT 10SM CLR 02/01 A2980 RMK AO2,K6S2,2023-02-26T03:15:00Z,43.98,-124.12,2.0,1.0,0,0,,10.0,29.799213,,,TRUE,TRUE,,,,,,,CLR,,,,,,,,VFR,,,,,,,,,,,,METAR,16.0
K6S2 260255Z AUTO 00000KT 10SM CLR 03/01 A2980 RMK AO2,K6S2,2023-02-26T02:55:00Z,43.98,-124.12,3.0,1.0,0,0,,10.0,29.799213,,,TRUE,TRUE,,,,,,,CLR,,,,,,,,VFR,,,,,,,,,,,,METAR,16.0
K6S2 260235Z AUTO 00000KT 10SM CLR 03/00 A2980 RMK AO2,K6S2,2023-02-26T02:35:00Z,43.98,-124.12,3.0,0.0,0,0,,10.0,29.799213,,,TRUE,TRUE,,,,,,,CLR,,,,,,,,VFR,,,,,,,,,,,,METAR,16.0
K6S2 260215Z AUTO 00000KT 10SM CLR 05/00 A2980 RMK AO2,K6S2,2023-02-26T02:15:00Z,43.98,-124.12,5.0,0.0,0,0,,10.0,29.799213,,,TRUE,TRUE,,,,,,,CLR,,,,,,,,VFR,,,,,,,,,,,,METAR,16.0
K6S2 260155Z AUTO 00000KT 10SM CLR 05/M00 A2980 RMK AO2,K6S2,2023-02-26T01:55:00Z,43.98,-124.12,5.0,0.0,0,0,,10.0,29.799213,,,TRUE,TRUE,,,,,,,CLR,,,,,,,,VFR,,,,,,,,,,,,METAR,16.0
K6S2 260135Z AUTO 29004KT 10SM CLR 06/M00 A2981 RMK AO2,K6S2,2023-02-26T01:35:00Z,43.98,-124.12,6.0,0.0,290,4,,10.0,29.811024,,,TRUE,TRUE,,,,,,,CLR,,,,,,,,VFR,,,,,,,,,,,,METAR,16.0
K6S2 260115Z AUTO 31005KT 10SM CLR 06/01 A2981 RMK AO2,K6S2,2023-02-26T01:15:00Z,43.98,-124.12,6.0,1.0,310,5,,10.0,29.811024,,,TRUE,TRUE,,,,,,,CLR,,,,,,,,VFR,,,,,,,,,,,,SPECI,16.0
K6S2 260055Z AUTO 30004KT 10SM CLR 06/00 A2981 RMK AO2,K6S2,2023-02-26T00:55:00Z,43.98,-124.12,6.0,0.0,300,4,,10.0,29.811024,,,TRUE,TRUE,,,,,,,CLR,,,,,,,,VFR,,,,,,,,,,,,METAR,16.0
K6S2 260035Z AUTO 31008KT 10SM CLR 07/01 A2981 RMK AO2,K6S2,2023-02-26T00:35:00Z,43.98,-124.12,7.0,1.0,310,8,,10.0,29.811024,,,TRUE,TRUE,,,,,,,CLR,,,,,,,,VFR,,,,,,,,,,,,METAR,16.0
K6S2 260015Z AUTO 34007KT 10SM CLR 07/02 A2981 RMK AO2,K6S2,2023-02-26T00:15:00Z,43.98,-124.12,7.0,2.0,340,7,,10.0,29.811024,,,TRUE,TRUE,,,,,,,CLR,,,,,,,,VFR,,,,,,,,,,,,METAR,16.0
K6S2 252355Z AUTO VRB05KT 10SM CLR 07/01 A2981 RMK AO2,K6S2,2023-02-25T23:55:00Z,43.98,-124.12,7.0,1.0,0,5,,10.0,29.811024,,,TRUE,TRUE,,,,,,,CLR,,,,,,,,VFR,,,,,,,,,,,,METAR,16.0
K6S2 252335Z AUTO 32010KT 10SM CLR 07/01 A2981 RMK AO2,K6S2,2023-02-25T23:35:00Z,43.98,-124.12,7.0,1.0,320,10,,10.0,29.811024,,,TRUE,TRUE,,,,,,,CLR,,,,,,,,VFR,,,,,,,,,,,,SPECI,16.0
K6S2 252315Z AUTO 31010KT 10SM CLR 07/01 A2982 RMK AO2,K6S2,2023-02-25T23:15:00Z,43.98,-124.12,7.0,1.0,310,10,,10.0,29.819881,,,TRUE,TRUE,,,,,,,CLR,,,,,,,,VFR,,,,,,,,,,,,SPECI,16.0
K6S2 252255Z AUTO 32009KT 10SM CLR 07/01 A2982 RMK AO2,K6S2,2023-02-25T22:55:00Z,43.98,-124.12,7.0,1.0,320,9,,10.0,29.819881,,,TRUE,TRUE,,,,,,,CLR,,,,,,,,VFR,,,,,,,,,,,,METAR,16.0
K6S2 252235Z AUTO 31007KT 10SM CLR 07/01 A2982 RMK AO2,K6S2,2023-02-25T22:35:00Z,43.98,-124.12,7.0,1.0,310,7,,10.0,29.819881,,,TRUE,TRUE,,,,,,,CLR,,,,,,,,VFR,,,,,,,,,,,,METAR,16.0
K6S2 252215Z AUTO 32010KT 10SM CLR 07/01 A2984 RMK AO2,K6S2,2023-02-25T22:15:00Z,43.98,-124.12,7.0,1.0,320,10,,10.0,29.840551,,,TRUE,TRUE,,,,,,,CLR,,,,,,,,VFR,,,,,,,,,,,,SPECI,16.0
K6S2 252155Z AUTO 32009G15KT 10SM CLR 07/01 A2985 RMK AO2,K6S2,2023-02-25T21:55:00Z,43.98,-124.12,7.0,1.0,320,9,15,10.0,29.84941,,,TRUE,TRUE,,,,,,,CLR,,,,,,,,VFR,,,,,,,,,,,,METAR,16.0
K6S2 252135Z AUTO 32013KT 10SM CLR 07/02 A2986 RMK AO2,K6S2,2023-02-25T21:35:00Z,43.98,-124.12,7.0,2.0,320,13,,10.0,29.861221,,,TRUE,TRUE,,,,,,,CLR,,,,,,,,VFR,,,,,,,,,,,,SPECI,16.0
K6S2 252115Z AUTO 33009KT 10SM CLR 07/01 A2987 RMK AO2,K6S2,2023-02-25T21:15:00Z,43.98,-124.12,7.0,1.0,330,9,,10.0,29.870079,,,TRUE,TRUE,,,,,,,CLR,,,,,,,,VFR,,,,,,,,,,,,SPECI,16.0
K6S2 252055Z AUTO VRB04KT 10SM CLR 08/M02 A2988 RMK AO2,K6S2,2023-02-25T20:55:00Z,43.98,-124.12,8.0,-2.0,0,4,,10.0,29.878937,,,TRUE,TRUE,,,,,,,CLR,,,,,,,,VFR,,,,,,,,,,,,METAR,16.0
K6S2 252035Z AUTO 00000KT 10SM CLR 08/M02 A2989 RMK AO2,K6S2,2023-02-25T20:35:00Z,43.98,-124.12,8.0,-2.0,0,0,,10.0,29.890747,,,TRUE,TRUE,,,,,,,CLR,,,,,,,,VFR,,,,,,,,,,,,SPECI,16.0
K6S2 252015Z AUTO VRB04KT 10SM CLR 07/M03 A2990 RMK AO2,K6S2,2023-02-25T20:15:00Z,43.98,-124.12,7.0,-3.0,0,4,,10.0,29.899607,,,TRUE,TRUE,,,,,,,CLR,,,,,,,,VFR,,,,,,,,,,,,SPECI,16.0
K6S2 251955Z AUTO VRB04G10KT 10SM CLR 06/M03 A2991 RMK AO2,K6S2,2023-02-25T19:55:00Z,43.98,-124.12,6.0,-3.0,0,4,10,10.0,29.911417,,,TRUE,TRUE,,,,,,,CLR,,,,,,,,VFR,,,,,,,,,,,,METAR,16.0
K6S2 251935Z AUTO VRB04G12KT 10SM CLR 06/M03 A2992 RMK AO2,K6S2,2023-02-25T19:35:00Z,43.98,-124.12,6.0,-3.0,0,4,12,10.0,29.920275,,,TRUE,TRUE,,,,,,,CLR,,,,,,,,VFR,,,,,,,,,,,,SPECI,16.0
K6S2 251915Z AUTO VRB04G10KT 10SM CLR 05/M03 A2994 RMK AO2,K6S2,2023-02-25T19:15:00Z,43.98,-124.12,5.0,-3.0,0,4,10,10.0,29.940945,,,TRUE,TRUE,,,,,,,CLR,,,,,,,,VFR,,,,,,,,,,,,METAR,16.0
K6S2 251855Z AUTO VRB05G13KT 10SM CLR 04/M04 A2995 RMK AO2,K6S2,2023-02-25T18:55:00Z,43.98,-124.12,4.0,-4.0,0,5,13,10.0,29.949802,,,TRUE,TRUE,,,,,,,CLR,,,,,,,,VFR,,,,,,,,,,,,METAR,16.0
K6S2 251835Z AUTO 10007G12KT 070V130 10SM CLR 04/M04 A2996 RMK AO2,K6S2,2023-02-25T18:35:00Z,43.98,-124.12,4.0,-4.0,100,7,12,10.0,29.958662,,,TRUE,TRUE,,,,,,,CLR,,,,,,,,VFR,,,,,,,,,,,,SPECI,16.0
K6S2 251815Z AUTO VRB07KT 10SM CLR 03/M04 A2998 RMK AO2,K6S2,2023-02-25T18:15:00Z,43.98,-124.12,3.0,-4.0,0,7,,10.0,29.97933,,,TRUE,TRUE,,,,,,,CLR,,,,,,,,VFR,,,,,,,,,,,,METAR,16.0
K6S2 251755Z AUTO 00000KT 10SM CLR 03/M04 A2999 RMK AO2,K6S2,2023-02-25T17:55:00Z,43.98,-124.12,3.0,-4.0,0,0,,10.0,29.991142,,,TRUE,TRUE,,,,,,,CLR,,,,,,,,VFR,,,,,,,,,,,,SPECI,16.0
K6S2 251735Z AUTO VRB05G11KT 10SM CLR 02/M04 A3000 RMK AO2,K6S2,2023-02-25T17:35:00Z,43.98,-124.12,2.0,-4.0,0,5,11,10.0,30.0,,,TRUE,TRUE,,,,,,,CLR,,,,,,,,VFR,,,,,,,,,,,,METAR,16.0
K6S2 251715Z AUTO VRB06G12KT 10SM CLR 01/M05 A3000 RMK AO2,K6S2,2023-02-25T17:15:00Z,43.98,-124.12,1.0,-5.0,0,6,12,10.0,30.0,,,TRUE,TRUE,,,,,,,CLR,,,,,,,,VFR,,,,,,,,,,,,METAR,16.0
K6S2 251655Z AUTO VRB04KT 10SM CLR 01/M04 A3001 RMK AO2,K6S2,2023-02-25T16:55:00Z,43.98,-124.12,1.0,-4.0,0,4,,10.0,30.008858,,,TRUE,TRUE,,,,,,,CLR,,,,,,,,VFR,,,,,,,,,,,,METAR,16.0
K6S2 251635Z AUTO VRB03KT 10SM CLR M00/M04 A3001 RMK AO2,K6S2,2023-02-25T16:35:00Z,43.98,-124.12,0.0,-4.0,0,3,,10.0,30.008858,,,TRUE,TRUE,,,,,,,CLR,,,,,,,,VFR,,,,,,,,,,,,SPECI,16.0
K6S2 251615Z AUTO VRB04KT 10SM CLR M01/M04 A3002 RMK AO2,K6S2,2023-02-25T16:15:00Z,43.98,-124.12,-1.0,-4.0,0,4,,10.0,30.02067,,,TRUE,TRUE,,,,,,,CLR,,,,,,,,VFR,,,,,,,,,,,,SPECI,16.0
K6S2 251555Z AUTO 00000KT 10SM CLR M01/M04 A3002 RMK AO2,K6S2,2023-02-25T15:55:00Z,43.98,-124.12,-1.0,-4.0,0,0,,10.0,30.02067,,,TRUE,TRUE,,,,,,,CLR,,,,,,,,VFR,,,,,,,,,,,,METAR,16.0
K6S2 251535Z AUTO 00000KT 10SM CLR M01/M04 A3002 RMK AO2,K6S2,2023-02-25T15:35:00Z,43.98,-124.12,-1.0,-4.0,0,0,,10.0,30.02067,,,TRUE,TRUE,,,,,,,CLR,,,,,,,,VFR,,,,,,,,,,,,SPECI,16.0
K6S2 251515Z AUTO VRB04KT 10SM CLR M01/M05 A3002 RMK AO2,K6S2,2023-02-25T15:15:00Z,43.98,-124.12,-1.0,-5.0,0,4,,10.0,30.02067,,,TRUE,TRUE,,,,,,,CLR,,,,,,,,VFR,,,,,,,,,,,,METAR,16.0
K6S2 251455Z AUTO VRB05KT 10SM CLR M01/M05 A3002 RMK AO2,K6S2,2023-02-25T14:55:00Z,43.98,-124.12,-1.0,-5.0,0,5,,10.0,30.02067,,,TRUE,TRUE,,,,,,,CLR,,,,,,,,VFR,,,,,,,,,,,,METAR,16.0
K6S2 251435Z AUTO VRB04KT 10SM CLR M01/M05 A3001 RMK AO2,K6S2,2023-02-25T14:35:00Z,43.98,-124.12,-1.0,-5.0,0,4,,10.0,30.008858,,,TRUE,TRUE,,,,,,,CLR,,,,,,,,VFR,,,,,,,,,,,,METAR,16.0
K6S2 251415Z AUTO VRB03KT 10SM CLR M01/M05 A3002 RMK AO2,K6S2,2023-02-25T14:15:00Z,43.98,-124.12,-1.0,-5.0,0,3,,10.0,30.02067,,,TRUE,TRUE,,,,,,,CLR,,,,,,,,VFR,,,,,,,,,,,,METAR,16.0
K6S2 251355Z AUTO 00000KT 10SM CLR M01/M04 A3001 RMK AO2,K6S2,2023-02-25T13:55:00Z,43.98,-124.12,-1.0,-4.0,0,0,,10.0,30.008858,,,TRUE,TRUE,,,,,,,CLR,,,,,,,,VFR,,,,,,,,,,,,METAR,16.0
K6S2 251335Z AUTO 00000KT 10SM CLR M01/M04 A3001 RMK AO2,K6S2,2023-02-25T13:35:00Z,43.98,-124.12,-1.0,-4.0,0,0,,10.0,30.008858,,,TRUE,TRUE,,,,,,,CLR,,,,,,,,VFR,,,,,,,,,,,,SPECI,16.0
K6S2 251315Z AUTO VRB03KT 10SM CLR M01/M04 A3002 RMK AO2,K6S2,2023-02-25T13:15:00Z,43.98,-124.12,-1.0,-4.0,0,3,,10.0,30.02067,,,TRUE,TRUE,,,,,,,CLR,,,,,,,,VFR,,,,,,,,,,,,SPECI,16.0
K6S2 251255Z AUTO 00000KT 10SM CLR M01/M04 A3002 RMK AO2,K6S2,2023-02-25T12:55:00Z,43.98,-124.12,-1.0,-4.0,0,0,,10.0,30.02067,,,TRUE,TRUE,,,,,,,CLR,,,,,,,,VFR,,,,,,,,,,,,METAR,16.0
K6S2 251235Z AUTO 00000KT 10SM CLR M01/M04 A3003 RMK AO2,K6S2,2023-02-25T12:35:00Z,43.98,-124.12,-1.0,-4.0,0,0,,10.0,30.029528,,,TRUE,TRUE,,,,,,,CLR,,,,,,,,VFR,,,,,,,,,,,,METAR,16.0
K6S2 251215Z AUTO VRB04G11KT 10SM CLR M01/M04 A3003 RMK AO2,K6S2,2023-02-25T12:15:00Z,43.98,-124.12,-1.0,-4.0,0,4,11,10.0,30.029528,,,TRUE,TRUE,,,,,,,CLR,,,,,,,,VFR,,,,,,,,,,,,SPECI,16.0
K6S2 251155Z AUTO VRB03KT 10SM CLR M01/M04 A3003 RMK AO2,K6S2,2023-02-25T11:55:00Z,43.98,-124.12,-1.0,-4.0,0,3,,10.0,30.029528,,,TRUE,TRUE,,,,,,,CLR,,,,,,,,VFR,,,,,,,,,,,,METAR,16.0
K6S2 251135Z AUTO VRB04KT 10SM CLR M01/M03 A3003 RMK AO2,K6S2,2023-02-25T11:35:00Z,43.98,-124.12,-1.0,-3.0,0,4,,10.0,30.029528,,,TRUE,TRUE,,,,,,,CLR,,,,,,,,VFR,,,,,,,,,,,,SPECI,16.0
K6S2 251115Z AUTO VRB04KT 10SM CLR M01/M03 A3004 RMK AO2,K6S2,2023-02-25T11:15:00Z,43.98,-124.12,-1.0,-3.0,0,4,,10.0,30.041338,,,TRUE,TRUE,,,,,,,CLR,,,,,,,,VFR,,,,,,,,,,,,SPECI,16.0
K6S2 251055Z AUTO 00000KT 10SM CLR M00/M04 A3004 RMK AO2,K6S2,2023-02-25T10:55:00Z,43.98,-124.12,0.0,-4.0,0,0,,10.0,30.041338,,,TRUE,TRUE,,,,,,,CLR,,,,,,,,VFR,,,,,,,,,,,,METAR,16.0
K6S2 251035Z AUTO VRB03KT 10SM CLR M00/M04 A3003 RMK AO2,K6S2,2023-02-25T10:35:00Z,43.98,-124.12,0.0,-4.0,0,3,,10.0,30.029528,,,TRUE,TRUE,,,,,,,CLR,,,,,,,,VFR,,,,,,,,,,,,SPECI,16.0
K6S2 251015Z AUTO VRB04KT 10SM CLR M00/M04 A3004 RMK AO2,K6S2,2023-02-25T10:15:00Z,43.98,-124.12,0.0,-4.0,0,4,,10.0,30.041338,,,TRUE,TRUE,,,,,,,CLR,,,,,,,,VFR,,,,,,,,,,,,METAR,16.0
K6S2 250955Z AUTO VRB03KT 10SM CLR M01/M04 A3003 RMK AO2,K6S2,2023-02-25T09:55:00Z,43.98,-124.12,-1.0,-4.0,0,3,,10.0,30.029528,,,TRUE,TRUE,,,,,,,CLR,,,,,,,,VFR,,,,,,,,,,,,METAR,16.0
K6S2 250935Z AUTO VRB03KT 10SM CLR M01/M03 A3004 RMK AO2,K6S2,2023-02-25T09:35:00Z,43.98,-124.12,-1.0,-3.0,0,3,,10.0,30.041338,,,TRUE,TRUE,,,,,,,CLR,,,,,,,,VFR,,,,,,,,,,,,METAR,16.0
K6S2 250915Z AUTO 00000KT 10SM CLR M00/M03 A3004 RMK AO2,K6S2,2023-02-25T09:15:00Z,43.98,-124.12,0.0,-3.0,0,0,,10.0,30.041338,,,TRUE,TRUE,,,,,,,CLR,,,,,,,,VFR,,,,,,,,,,,,METAR,16.0
K6S2 250855Z AUTO VRB04KT 10SM CLR M00/M02 A3005 RMK AO2,K6S2,2023-02-25T08:55:00Z,43.98,-124.12,0.0,-2.0,0,4,,10.0,30.050198,,,TRUE,TRUE,,,,,,,CLR,,,,,,,,VFR,,,,,,,,,,,,METAR,16.0
K6S2 250835Z AUTO 00000KT 10SM CLR 00/M03 A3005 RMK AO2,K6S2,2023-02-25T08:35:00Z,43.98,-124.12,0.0,-3.0,0,0,,10.0,30.050198,,,TRUE,TRUE,,,,,,,CLR,,,,,,,,VFR,,,,,,,,,,,,SPECI,16.0
K6S2 250815Z AUTO 00000KT 10SM CLR 00/M03 A3006 RMK AO2,K6S2,2023-02-25T08:15:00Z,43.98,-124.12,0.0,-3.0,0,0,,10.0,30.059055,,,TRUE,TRUE,,,,,,,CLR,,,,,,,,VFR,,,,,,,,,,,,METAR,16.0
K6S2 250755Z AUTO VRB04KT 10SM CLR 00/M03 A3006 RMK AO2,K6S2,2023-02-25T07:55:00Z,43.98,-124.12,0.0,-3.0,0,4,,10.0,30.059055,,,TRUE,TRUE,,,,,,,CLR,,,,,,,,VFR,,,,,,,,,,,,METAR,16.0
K6S2 250735Z AUTO 00000KT 10SM CLR 01/M03 A3006 RMK AO2,K6S2,2023-02-25T07:35:00Z,43.98,-124.12,1.0,-3.0,0,0,,10.0,30.059055,,,TRUE,TRUE,,,,,,,CLR,,,,,,,,VFR,,,,,,,,,,,,METAR,16.0
K6S2 250715Z AUTO 00000KT 10SM CLR 01/M03 A3006 RMK AO2,K6S2,2023-02-25T07:15:00Z,43.98,-124.12,1.0,-3.0,0,0,,10.0,30.059055,,,TRUE,TRUE,,,,,,,CLR,,,,,,,,VFR,,,,,,,,,,,,METAR,16.0
K6S2 250655Z AUTO VRB03KT 10SM CLR 00/M03 A3005 RMK AO2,K6S2,2023-02-25T06:55:00Z,43.98,-124.12,0.0,-3.0,0,3,,10.0,30.050198,,,TRUE,TRUE,,,,,,,CLR,,,,,,,,VFR,,,,,,,,,,,,METAR,16.0
K6S2 250635Z AUTO 00000KT 10SM CLR 01/M02 A3005 RMK AO2,K6S2,2023-02-25T06:35:00Z,43.98,-124.12,1.0,-2.0,0,0,,10.0,30.050198,,,TRUE,TRUE,,,,,,,CLR,,,,,,,,VFR,,,,,,,,,,,,SPECI,16.0
K6S2 250615Z AUTO VRB04KT 10SM CLR 01/M02 A3005 RMK AO2,K6S2,2023-02-25T06:15:00Z,43.98,-124.12,1.0,-2.0,0,4,,10.0,30.050198,,,TRUE,TRUE,,,,,,,CLR,,,,,,,,VFR,,,,,,,,,,,,SPECI,16.0
K6S2 250555Z AUTO VRB04KT 10SM CLR 01/M02 A3004 RMK AO2,K6S2,2023-02-25T05:55:00Z,43.98,-124.12,1.0,-2.0,0,4,,10.0,30.041338,,,TRUE,TRUE,,,,,,,CLR,,,,,,,,VFR,,,,,,,,,,,,METAR,16.0
K6S2 250535Z AUTO 03005KT 10SM CLR 01/M02 A3004 RMK AO2,K6S2,2023-02-25T05:35:00Z,43.98,-124.12,1.0,-2.0,30,5,,10.0,30.041338,,,TRUE,TRUE,,,,,,,CLR,,,,,,,,VFR,,,,,,,,,,,,SPECI,16.0
K6S2 250515Z AUTO VRB04KT 10SM CLR 01/M02 A3002 RMK AO2,K6S2,2023-02-25T05:15:00Z,43.98,-124.12,1.0,-2.0,0,4,,10.0,30.02067,,,TRUE,TRUE,,,,,,,CLR,,,,,,,,VFR,,,,,,,,,,,,SPECI,16.0
K6S2 250455Z AUTO 00000KT 10SM CLR 01/M01 A3002 RMK AO2,K6S2,2023-02-25T04:55:00Z,43.98,-124.12,1.0,-1.0,0,0,,10.0,30.02067,,,TRUE,TRUE,,,,,,,CLR,,,,,,,,VFR,,,,,,,,,,,,METAR,16.0
K6S2 250435Z AUTO 03004KT 10SM CLR 01/M01 A3002 RMK AO2,K6S2,2023-02-25T04:35:00Z,43.98,-124.12,1.0,-1.0,30,4,,10.0,30.02067,,,TRUE,TRUE,,,,,,,CLR,,,,,,,,VFR,,,,,,,,,,,,SPECI,16.0
K6S2 250415Z AUTO 00000KT 10SM CLR 01/M01 A3002 RMK AO2,K6S2,2023-02-25T04:15:00Z,43.98,-124.12,1.0,-1.0,0,0,,10.0,30.02067,,,TRUE,TRUE,,,,,,,CLR,,,,,,,,VFR,,,,,,,,,,,,SPECI,16.0
K6S2 250355Z AUTO 00000KT 10SM CLR 01/M00 A3001 RMK AO2,K6S2,2023-02-25T03:55:00Z,43.98,-124.12,1.0,0.0,0,0,,10.0,30.008858,,,TRUE,TRUE,,,,,,,CLR,,,,,,,,VFR,,,,,,,,,,,,METAR,16.0
K6S2 250335Z AUTO 00000KT 10SM CLR 01/M00 A3001 RMK AO2,K6S2,2023-02-25T03:35:00Z,43.98,-124.12,1.0,0.0,0,0,,10.0,30.008858,,,TRUE,TRUE,,,,,,,CLR,,,,,,,,VFR,,,,,,,,,,,,SPECI,16.0
K6S2 250315Z AUTO 00000KT 10SM CLR 02/M01 A3001 RMK AO2,K6S2,2023-02-25T03:15:00Z,43.98,-124.12,2.0,-1.0,0,0,,10.0,30.008858,,,TRUE,TRUE,,,,,,,CLR,,,,,,,,VFR,,,,,,,,,,,,METAR,16.0
K6S2 250255Z AUTO 04003KT 10SM CLR 03/M01 A3001 RMK AO2,K6S2,2023-02-25T02:55:00Z,43.98,-124.12,3.0,-1.0,40,3,,10.0,30.008858,,,TRUE,TRUE,,,,,,,CLR,,,,,,,,VFR,,,,,,,,,,,,METAR,16.0
K6S2 250235Z AUTO 00000KT 10SM CLR 04/M00 A3000 RMK AO2,K6S2,2023-02-25T02:35:00Z,43.98,-124.12,4.0,0.0,0,0,,10.0,30.0,,,TRUE,TRUE,,,,,,,CLR,,,,,,,,VFR,,,,,,,,,,,,METAR,16.0
K6S2 250215Z AUTO VRB04KT 10SM CLR 04/M00 A2998 RMK AO2,K6S2,2023-02-25T02:15:00Z,43.98,-124.12,4.0,0.0,0,4,,10.0,29.97933,,,TRUE,TRUE,,,,,,,CLR,,,,,,,,VFR,,,,,,,,,,,,SPECI,16.0
K6S2 250155Z AUTO 00000KT 10SM CLR 05/M00 A2997 RMK AO2,K6S2,2023-02-25T01:55:00Z,43.98,-124.12,5.0,0.0,0,0,,10.0,29.970472,,,TRUE,TRUE,,,,,,,CLR,,,,,,,,VFR,,,,,,,,,,,,METAR,16.0
K6S2 250135Z AUTO VRB04KT 10SM CLR 05/M00 A2996 RMK AO2,K6S2,2023-02-25T01:35:00Z,43.98,-124.12,5.0,0.0,0,4,,10.0,29.958662,,,TRUE,TRUE,,,,,,,CLR,,,,,,,,VFR,,,,,,,,,,,,SPECI,16.0
K6S2 250115Z AUTO 04004KT 10SM CLR 06/M00 A2996 RMK AO2,K6S2,2023-02-25T01:15:00Z,43.98,-124.12,6.0,0.0,40,4,,10.0,29.958662,,,TRUE,TRUE,,,,,,,CLR,,,,,,,,VFR,,,,,,,,,,,,METAR,16.0
K6S2 250055Z AUTO VRB05G10KT 10SM CLR 06/M00 A2996 RMK AO2,K6S2,2023-02-25T00:55:00Z,43.98,-124.12,6.0,0.0,0,5,10,10.0,29.958662,,,TRUE,TRUE,,,,,,,CLR,,,,,,,,VFR,,,,,,,,,,,,SPECI,16.0
K6S2 250035Z AUTO VRB04KT 10SM CLR 07/00 A2996 RMK AO2,K6S2,2023-02-25T00:35:00Z,43.98,-124.12,7.0,0.0,0,4,,10.0,29.958662,,,TRUE,TRUE,,,,,,,CLR,,,,,,,,VFR,,,,,,,,,,,,SPECI,16.0
K6S2 250015Z AUTO VRB05KT 10SM CLR 07/M01 A2995 RMK AO2,K6S2,2023-02-25T00:15:00Z,43.98,-124.12,7.0,-1.0,0,5,,10.0,29.949802,,,TRUE,TRUE,,,,,,,CLR,,,,,,,,VFR,,,,,,,,,,,,METAR,16.0
K6S2 242355Z AUTO VRB03KT 10SM CLR 07/M02 A2994 RMK AO2,K6S2,2023-02-24T23:55:00Z,43.98,-124.12,7.0,-2.0,0,3,,10.0,29.940945,,,TRUE,TRUE,,,,,,,CLR,,,,,,,,VFR,,,,,,,,,,,,METAR,16.0
K6S2 242335Z AUTO VRB06KT 10SM CLR 07/M02 A2994 RMK AO2,K6S2,2023-02-24T23:35:00Z,43.98,-124.12,7.0,-2.0,0,6,,10.0,29.940945,,,TRUE,TRUE,,,,,,,CLR,,,,,,,,VFR,,,,,,,,,,,,SPECI,16.0
K6S2 242315Z AUTO VRB05G14KT 10SM CLR 07/M03 A2994 RMK AO2,K6S2,2023-02-24T23:15:00Z,43.98,-124.12,7.0,-3.0,0,5,14,10.0,29.940945,,,TRUE,TRUE,,,,,,,CLR,,,,,,,,VFR,,,,,,,,,,,,SPECI,16.0
K6S2 242255Z AUTO VRB04G10KT 10SM CLR 07/M02 A2993 RMK AO2,K6S2,2023-02-24T22:55:00Z,43.98,-124.12,7.0,-2.0,0,4,10,10.0,29.929134,,,TRUE,TRUE,,,,,,,CLR,,,,,,,,VFR,,,,,,,,,,,,METAR,16.0
K6S2 242235Z AUTO VRB04G10KT 10SM CLR 07/M03 A2993 RMK AO2,K6S2,2023-02-24T22:35:00Z,43.98,-124.12,7.0,-3.0,0,4,10,10.0,29.929134,,,TRUE,TRUE,,,,,,,CLR,,,,,,,,VFR,,,,,,,,,,,,METAR,16.0
K6S2 242215Z AUTO VRB05G11KT 10SM CLR 07/M03 A2992 RMK AO2,K6S2,2023-02-24T22:15:00Z,43.98,-124.12,7.0,-3.0,0,5,11,10.0,29.920275,,,TRUE,TRUE,,,,,,,CLR,,,,,,,,VFR,,,,,,,,,,,,SPECI,16.0
K6S2 242155Z AUTO VRB05G17KT 10SM CLR 06/M03 A2992 RMK AO2,K6S2,2023-02-24T21:55:00Z,43.98,-124.12,6.0,-3.0,0,5,17,10.0,29.920275,,,TRUE,TRUE,,,,,,,CLR,,,,,,,,VFR,,,,,,,,,,,,METAR,16.0
K6S2 242135Z AUTO VRB06G13KT 10SM CLR 06/M03 A2990 RMK AO2,K6S2,2023-02-24T21:35:00Z,43.98,-124.12,6.0,-3.0,0,6,13,10.0,29.899607,,,TRUE,TRUE,,,,,,,CLR,,,,,,,,VFR,,,,,,,,,,,,SPECI,16.0
K6S2 242115Z AUTO VRB06G15KT 10SM CLR 06/M03 A2989 RMK AO2,K6S2,2023-02-24T21:15:00Z,43.98,-124.12,6.0,-3.0,0,6,15,10.0,29.890747,,,TRUE,TRUE,,,,,,,CLR,,,,,,,,VFR,,,,,,,,,,,,SPECI,16.0
K6S2 242055Z AUTO VRB05G18KT 10SM CLR 05/M04 A2991 RMK AO2,K6S2,2023-02-24T20:55:00Z,43.98,-124.12,5.0,-4.0,0,5,18,10.0,29.911417,,,TRUE,TRUE,,,,,,,CLR,,,,,,,,VFR,,,,,,,,,,,,SPECI,16.0
K6S2 242035Z AUTO VRB05KT 10SM CLR 05/M04 A2992 RMK AO2,K6S2,2023-02-24T20:35:00Z,43.98,-124.12,5.0,-4.0,0,5,,10.0,29.920275,,,TRUE,TRUE,,,,,,,CLR,,,,,,,,VFR,,,,,,,,,,,,METAR,16.0
K6S2 242015Z AUTO VRB05G11KT 10SM CLR 05/M04 A2992 RMK AO2,K6S2,2023-02-24T20:15:00Z,43.98,-124.12,5.0,-4.0,0,5,11,10.0,29.920275,,,TRUE,TRUE,,,,,,,CLR,,,,,,,,VFR,,,,,,,,,,,,SPECI,16.0
K6S2 241955Z AUTO 10008G15KT 070V150 10SM CLR 04/M05 A2991 RMK AO2,K6S2,2023-02-24T19:55:00Z,43.98,-124.12,4.0,-5.0,100,8,15,10.0,29.911417,,,TRUE,TRUE,,,,,,,CLR,,,,,,,,VFR,,,,,,,,,,,,SPECI,16.0
K6S2 241935Z AUTO VRB06G15KT 030V130 10SM CLR 04/M05 A2991 RMK AO2,K6S2,2023-02-24T19:35:00Z,43.98,-124.12,4.0,-5.0,0,6,15,10.0,29.911417,,,TRUE,TRUE,,,,,,,CLR,,,,,,,,VFR,,,,,,,,,,,,METAR,16.0
K6S2 241915Z AUTO VRB04G13KT 10SM CLR 03/M05 A2991 RMK AO2,K6S2,2023-02-24T19:15:00Z,43.98,-124.12,3.0,-5.0,0,4,13,10.0,29.911417,,,TRUE,TRUE,,,,,,,CLR,,,,,,,,VFR,,,,,,,,,,,,METAR,16.0
K6S2 241855Z AUTO VRB06G12KT 10SM CLR 03/M05 A2990 RMK AO2,K6S2,2023-02-24T18:55:00Z,43.98,-124.12,3.0,-5.0,0,6,12,10.0,29.899607,,,TRUE,TRUE,,,,,,,CLR,,,,,,,,VFR,,,,,,,,,,,,METAR,16.0
K6S2 241835Z AUTO VRB06KT 10SM CLR 02/M05 A2989 RMK AO2,K6S2,2023-02-24T18:35:00Z,43.98,-124.12,2.0,-5.0,0,6,,10.0,29.890747,,,TRUE,TRUE,,,,,,,CLR,,,,,,,,VFR,,,,,,,,,,,,METAR,16.0
K6S2 241815Z AUTO VRB06KT 10SM CLR 02/M06 A2990 RMK AO2 LTG DSNT SW,K6S2,2023-02-24T18:15:00Z,43.98,-124.12,2.0,-6.0,0,6,,10.0,29.899607,,,TRUE,TRUE,,,,,,,CLR,,,,,,,,VFR,,,,,,,,,,,,SPECI,16.0
K6S2 241755Z AUTO VRB03G10KT 10SM CLR 02/M06 A2990 RMK AO2,K6S2,2023-02-24T17:55:00Z,43.98,-124.12,2.0,-6.0,0,3,10,10.0,29.899607,,,TRUE,TRUE,,,,,,,CLR,,,,,,,,VFR,,,,,,,,,,,,METAR,16.0
K6S2 241735Z AUTO VRB04G13KT 10SM CLR 01/M05 A2990 RMK AO2,K6S2,2023-02-24T17:35:00Z,43.98,-124.12,1.0,-5.0,0,4,13,10.0,29.899607,,,TRUE,TRUE,,,,,,,CLR,,,,,,,,VFR,,,,,,,,,,,,METAR,16.0
K6S2 241655Z AUTO VRB06G17KT 10SM CLR 00/M06 A2986 RMK AO2,K6S2,2023-02-24T16:55:00Z,43.98,-124.12,0.0,-6.0,0,6,17,10.0,29.861221,,,TRUE,TRUE,,,,,,,CLR,,,,,,,,VFR,,,,,,,,,,,,METAR,16.0
K6S2 241635Z AUTO 09008G21KT 360V150 10SM CLR M00/M06 A2985 RMK AO2,K6S2,2023-02-24T16:35:00Z,43.98,-124.12,0.0,-6.0,90,8,21,10.0,29.84941,,,TRUE,TRUE,,,,,,,CLR,,,,,,,,VFR,,,,,,,,,,,,METAR,16.0
K6S2 241615Z AUTO 10007G17KT 040V130 10SM CLR M01/M06 A2984 RMK AO2,K6S2,2023-02-24T16:15:00Z,43.98,-124.12,-1.0,-6.0,100,7,17,10.0,29.840551,,,TRUE,TRUE,,,,,,,CLR,,,,,,,,VFR,,,,,,,,,,,,METAR,16.0
K6S2 241555Z AUTO VRB06G20KT 10SM CLR M01/M06 A2983 RMK AO2,K6S2,2023-02-24T15:55:00Z,43.98,-124.12,-1.0,-6.0,0,6,20,10.0,29.828741,,,TRUE,TRUE,,,,,,,CLR,,,,,,,,VFR,,,,,,,,,,,,SPECI,16.0
K6S2 241535Z AUTO 12007G13KT 040V210 10SM CLR M02/M06 A2982 RMK AO2,K6S2,2023-02-24T15:35:00Z,43.98,-124.12,-2.0,-6.0,120,7,13,10.0,29.819881,,,TRUE,TRUE,,,,,,,CLR,,,,,,,,VFR,,,,,,,,,,,,SPECI,16.0
K6S2 241515Z AUTO VRB06G14KT 10SM CLR M02/M06 A2982 RMK AO2,K6S2,2023-02-24T15:15:00Z,43.98,-124.12,-2.0,-6.0,0,6,14,10.0,29.819881,,,TRUE,TRUE,,,,,,,CLR,,,,,,,,VFR,,,,,,,,,,,,METAR,16.0
K6S2 241455Z AUTO 12007G19KT 080V160 10SM CLR M02/M06 A2980 RMK AO2,K6S2,2023-02-24T14:55:00Z,43.98,-124.12,-2.0,-6.0,120,7,19,10.0,29.799213,,,TRUE,TRUE,,,,,,,CLR,,,,,,,,VFR,,,,,,,,,,,,METAR,16.0
K6S2 241435Z AUTO 10008G19KT 050V140 10SM FEW120 M02/M06 A2980 RMK AO2,K6S2,2023-02-24T14:35:00Z,43.98,-124.12,-2.0,-6.0,100,8,19,10.0,29.799213,,,TRUE,TRUE,,,,,,,FEW,12000,,,,,,,VFR,,,,,,,,,,,,METAR,16.0
K6S2 241415Z AUTO 10009G21KT 050V200 10SM BKN120 M02/M06 A2978 RMK AO2,K6S2,2023-02-24T14:15:00Z,43.98,-124.12,-2.0,-6.0,100,9,21,10.0,29.778543,,,TRUE,TRUE,,,,,,,BKN,12000,,,,,,,VFR,,,,,,,,,,,,SPECI,16.0
K6S2 241355Z AUTO 09010G20KT 050V130 10SM BKN120 M02/M06 A2978 RMK AO2,K6S2,2023-02-24T13:55:00Z,43.98,-124.12,-2.0,-6.0,90,10,20,10.0,29.778543,,,TRUE,TRUE,,,,,,,BKN,12000,,,,,,,VFR,,,,,,,,,,,,METAR,16.0
K6S2 241335Z AUTO 10009G21KT 050V140 10SM BKN110 M02/M06 A2977 RMK AO2,K6S2,2023-02-24T13:35:00Z,43.98,-124.12,-2.0,-6.0,100,9,21,10.0,29.769686,,,TRUE,TRUE,,,,,,,BKN,11000,,,,,,,VFR,,,,,,,,,,,,SPECI,16.0
K6S2 241315Z AUTO VRB06G18KT 10SM BKN120 M02/M06 A2977 RMK AO2,K6S2,2023-02-24T13:15:00Z,43.98,-124.12,-2.0,-6.0,0,6,18,10.0,29.769686,,,TRUE,TRUE,,,,,,,BKN,12000,,,,,,,VFR,,,,,,,,,,,,SPECI,16.0
K6S2 241255Z AUTO 09010G23KT 040V140 10SM BKN110 M02/M06 A2977 RMK AO2,K6S2,2023-02-24T12:55:00Z,43.98,-124.12,-2.0,-6.0,90,10,23,10.0,29.769686,,,TRUE,TRUE,,,,,,,BKN,11000,,,,,,,VFR,,,,,,,,,,,,METAR,16.0
K6S2 241235Z AUTO 10007G16KT 070V130 10SM SCT120 M02/M06 A2977 RMK AO2,K6S2,2023-02-24T12:35:00Z,43.98,-124.12,-2.0,-6.0,100,7,16,10.0,29.769686,,,TRUE,TRUE,,,,,,,SCT,12000,,,,,,,VFR,,,,,,,,,,,,SPECI,16.0
K6S2 241215Z AUTO VRB06G17KT 10SM SCT120 M02/M06 A2977 RMK AO2 LTG DSNT SW,K6S2,2023-02-24T12:15:00Z,43.98,-124.12,-2.0,-6.0,0,6,17,10.0,29.769686,,,TRUE,TRUE,,,,,,,SCT,12000,,,,,,,VFR,,,,,,,,,,,,SPECI,16.0
K6S2 241155Z AUTO VRB10G22KT 10SM BKN110 M02/M06 A2976 RMK AO2,K6S2,2023-02-24T11:55:00Z,43.98,-124.12,-2.0,-6.0,0,10,22,10.0,29.760826,,,TRUE,TRUE,,,,,,,BKN,11000,,,,,,,VFR,,,,,,,,,,,,METAR,16.0
K6S2 241135Z AUTO 09010G23KT 060V120 10SM BKN110 M02/M06 A2976 RMK AO2,K6S2,2023-02-24T11:35:00Z,43.98,-124.12,-2.0,-6.0,90,10,23,10.0,29.760826,,,TRUE,TRUE,,,,,,,BKN,11000,,,,,,,VFR,,,,,,,,,,,,METAR,16.0
K6S2 241115Z AUTO 09008G17KT 040V140 10SM FEW110 M02/M06 A2975 RMK AO2,K6S2,2023-02-24T11:15:00Z,43.98,-124.12,-2.0,-6.0,90,8,17,10.0,29.749016,,,TRUE,TRUE,,,,,,,FEW,11000,,,,,,,VFR,,,,,,,,,,,,SPECI,16.0
K6S2 241055Z AUTO 09010G21KT 060V140 10SM CLR M02/M06 A2975 RMK AO2,K6S2,2023-02-24T10:55:00Z,43.98,-124.12,-2.0,-6.0,90,10,21,10.0,29.749016,,,TRUE,TRUE,,,,,,,CLR,,,,,,,,VFR,,,,,,,,,,,,METAR,16.0
K6S2 241035Z AUTO VRB06G18KT 10SM CLR M02/M05 A2975 RMK AO2,K6S2,2023-02-24T10:35:00Z,43.98,-124.12,-2.0,-5.0,0,6,18,10.0,29.749016,,,TRUE,TRUE,,,,,,,CLR,,,,,,,,VFR,,,,,,,,,,,,SPECI,16.0
K6S2 241015Z AUTO 10011G20KT 060V130 10SM CLR M02/M05 A2974 RMK AO2,K6S2,2023-02-24T10:15:00Z,43.98,-124.12,-2.0,-5.0,100,11,20,10.0,29.740158,,,TRUE,TRUE,,,,,,,CLR,,,,,,,,VFR,,,,,,,,,,,,SPECI,16.0
K6S2 240955Z AUTO VRB05G13KT 10SM CLR M02/M05 A2974 RMK AO2,K6S2,2023-02-24T09:55:00Z,43.98,-124.12,-2.0,-5.0,0,5,13,10.0,29.740158,,,TRUE,TRUE,,,,,,,CLR,,,,,,,,VFR,,,,,,,,,,,,METAR,16.0
K6S2 240935Z AUTO 11008G18KT 060V160 10SM CLR M02/M05 A2974 RMK AO2,K6S2,2023-02-24T09:35:00Z,43.98,-124.12,-2.0,-5.0,110,8,18,10.0,29.740158,,,TRUE,TRUE,,,,,,,CLR,,,,,,,,VFR,,,,,,,,,,,,SPECI,16.0
K6S2 240915Z AUTO 10007G15KT 050V140 10SM CLR M01/M05 A2973 RMK AO2,K6S2,2023-02-24T09:15:00Z,43.98,-124.12,-1.0,-5.0,100,7,15,10.0,29.731298,,,TRUE,TRUE,,,,,,,CLR,,,,,,,,VFR,,,,,,,,,,,,METAR,16.0
K6S2 240855Z AUTO 10008G17KT 060V140 10SM CLR M01/M05 A2973 RMK AO2,K6S2,2023-02-24T08:55:00Z,43.98,-124.12,-1.0,-5.0,100,8,17,10.0,29.731298,,,TRUE,TRUE,,,,,,,CLR,,,,,,,,VFR,,,,,,,,,,,,METAR,16.0
K6S2 240835Z AUTO 10008G14KT 060V150 10SM CLR M01/M04 A2972 RMK AO2,K6S2,2023-02-24T08:35:00Z,43.98,-124.12,-1.0,-4.0,100,8,14,10.0,29.719488,,,TRUE,TRUE,,,,,,,CLR,,,,,,,,VFR,,,,,,,,,,,,METAR,16.0
K6S2 240815Z AUTO 10009G16KT 060V120 10SM FEW120 M01/M04 A2971 RMK AO2,K6S2,2023-02-24T08:15:00Z,43.98,-124.12,-1.0,-4.0,100,9,16,10.0,29.71063,,,TRUE,TRUE,,,,,,,FEW,12000,,,,,,,VFR,,,,,,,,,,,,METAR,16.0
K6S2 240755Z AUTO 10009G18KT 040V140 10SM SCT120 M01/M04 A2970 RMK AO2,K6S2,2023-02-24T07:55:00Z,43.98,-124.12,-1.0,-4.0,100,9,18,10.0,29.698818,,,TRUE,TRUE,,,,,,,SCT,12000,,,,,,,VFR,,,,,,,,,,,,METAR,16.0
K6S2 240735Z AUTO 11011G18KT 070V150 10SM CLR M01/M04 A2969 RMK AO2,K6S2,2023-02-24T07:35:00Z,43.98,-124.12,-1.0,-4.0,110,11,18,10.0,29.68996,,,TRUE,TRUE,,,,,,,CLR,,,,,,,,VFR,,,,,,,,,,,,METAR,16.0
K6S2 240715Z AUTO 09008G17KT 060V130 10SM CLR M00/M03 A2969 RMK AO2,K6S2,2023-02-24T07:15:00Z,43.98,-124.12,0.0,-3.0,90,8,17,10.0,29.68996,,,TRUE,TRUE,,,,,,,CLR,,,,,,,,VFR,,,,,,,,,,,,SPECI,16.0
K6S2 240655Z AUTO 10007G15KT 060V170 10SM CLR M00/M02 A2969 RMK AO2,K6S2,2023-02-24T06:55:00Z,43.98,-124.12,0.0,-2.0,100,7,15,10.0,29.68996,,,TRUE,TRUE,,,,,,,CLR,,,,,,,,VFR,,,,,,,,,,,,METAR,16.0
K6S2 240635Z AUTO VRB06G16KT 10SM FEW095 FEW110 M00/M01 A2969 RMK AO2,K6S2,2023-02-24T06:35:00Z,43.98,-124.12,0.0,-1.0,0,6,16,10.0,29.68996,,,TRUE,TRUE,,,,,,,FEW,9500,FEW,11000,,,,,VFR,,,,,,,,,,,,SPECI,16.0
K6S2 240615Z AUTO VRB03G17KT 10SM FEW010 BKN100 00/M00 A2969 RMK AO2,K6S2,2023-02-24T06:15:00Z,43.98,-124.12,0.0,0.0,0,3,17,10.0,29.68996,,,TRUE,TRUE,,,,,,,FEW,1000,BKN,10000,,,,,VFR,,,,,,,,,,,,SPECI,16.0
K6S2 240555Z AUTO VRB06G13KT 10SM SCT090 BKN110 00/M00 A2968 RMK AO2,K6S2,2023-02-24T05:55:00Z,43.98,-124.12,0.0,0.0,0,6,13,10.0,29.681103,,,TRUE,TRUE,,,,,,,SCT,9000,BKN,11000,,,,,VFR,,,,,,,,,,,,METAR,16.0
K6S2 240535Z AUTO VRB05G14KT 10SM CLR 01/M00 A2967 RMK AO2,K6S2,2023-02-24T05:35:00Z,43.98,-124.12,1.0,0.0,0,5,14,10.0,29.66929,,,TRUE,TRUE,,,,,,,CLR,,,,,,,,VFR,,,,,,,,,,,,SPECI,16.0
K6S2 240515Z AUTO 09007G13KT 040V130 10SM SCT070 01/M00 A2966 RMK AO2,K6S2,2023-02-24T05:15:00Z,43.98,-124.12,1.0,0.0,90,7,13,10.0,29.660433,,,TRUE,TRUE,,,,,,,SCT,7000,,,,,,,VFR,,,,,,,,,,,,SPECI,16.0
K6S2 240455Z AUTO VRB05KT 10SM FEW047 BKN065 OVC075 01/00 A2966 RMK AO2,K6S2,2023-02-24T04:55:00Z,43.98,-124.12,1.0,0.0,0,5,,10.0,29.660433,,,TRUE,TRUE,,,,,,,FEW,4700,BKN,6500,OVC,7500,,,VFR,,,,,,,,,,,,METAR,16.0
K6S2 240435Z AUTO VRB05KT 10SM SCT044 SCT060 OVC070 01/01 A2965 RMK AO2,K6S2,2023-02-24T04:35:00Z,43.98,-124.12,1.0,1.0,0,5,,10.0,29.648623,,,TRUE,TRUE,,,,,,,SCT,4400,SCT,6000,OVC,7000,,,VFR,,,,,,,,,,,,METAR,16.0
K6S2 240415Z AUTO 00000KT 10SM -RA SCT005 BKN043 OVC070 01/01 A2965 RMK AO2,K6S2,2023-02-24T04:15:00Z,43.98,-124.12,1.0,1.0,0,0,,10.0,29.648623,,,TRUE,TRUE,,,,,,-RA,SCT,500,BKN,4300,OVC,7000,,,VFR,,,,,,,,,,,,SPECI,16.0
K6S2 240355Z AUTO 00000KT 10SM UP SCT032 BKN043 OVC049 01/01 A2965 RMK AO2,K6S2,2023-02-24T03:55:00Z,43.98,-124.12,1.0,1.0,0,0,,10.0,29.648623,,,TRUE,TRUE,,,,,,UP,SCT,3200,BKN,4300,OVC,4900,,,VFR,,,,,,,,,,,,METAR,16.0
K6S2 240335Z AUTO VRB03KT 10SM FEW005 SCT029 BKN037 01/01 A2964 RMK AO2,K6S2,2023-02-24T03:35:00Z,43.98,-124.12,1.0,1.0,0,3,,10.0,29.639763,,,TRUE,TRUE,,,,,,,FEW,500,SCT,2900,BKN,3700,,,VFR,,,,,,,,,,,,METAR,16.0
K6S2 240315Z AUTO 00000KT 10SM BKN041 BKN046 OVC055 01/01 A2964 RMK AO2,K6S2,2023-02-24T03:15:00Z,43.98,-124.12,1.0,1.0,0,0,,10.0,29.639763,,,TRUE,TRUE,,,,,,,BKN,4100,BKN,4600,OVC,5500,,,VFR,,,,,,,,,,,,METAR,16.0
K6S2 240255Z AUTO 00000KT 10SM FEW045 BKN055 OVC120 01/01 A2963 RMK AO2,K6S2,2023-02-24T02:55:00Z,43.98,-124.12,1.0,1.0,0,0,,10.0,29.630905,,,TRUE,TRUE,,,,,,,FEW,4500,BKN,5500,OVC,12000,,,VFR,,,,,,,,,,,,METAR,16.0
K6S2 240235Z AUTO 00000KT 10SM BKN044 BKN060 BKN120 01/01 A2962 RMK AO2,K6S2,2023-02-24T02:35:00Z,43.98,-124.12,1.0,1.0,0,0,,10.0,29.619095,,,TRUE,TRUE,,,,,,,BKN,4400,BKN,6000,BKN,12000,,,VFR,,,,,,,,,,,,METAR,16.0
K6S2 240215Z AUTO 00000KT 10SM BKN043 OVC060 01/01 A2962 RMK AO2,K6S2,2023-02-24T02:15:00Z,43.98,-124.12,1.0,1.0,0,0,,10.0,29.619095,,,TRUE,TRUE,,,,,,,BKN,4300,OVC,6000,,,,,VFR,,,,,,,,,,,,METAR,16.0
K6S2 240155Z AUTO 00000KT 10SM BKN047 OVC055 02/02 A2961 RMK AO2,K6S2,2023-02-24T01:55:00Z,43.98,-124.12,2.0,2.0,0,0,,10.0,29.610237,,,TRUE,TRUE,,,,,,,BKN,4700,OVC,5500,,,,,VFR,,,,,,,,,,,,METAR,16.0
K6S2 240135Z AUTO 00000KT 10SM FEW015 SCT022 BKN050 02/02 A2961 RMK AO2,K6S2,2023-02-24T01:35:00Z,43.98,-124.12,2.0,2.0,0,0,,10.0,29.610237,,,TRUE,TRUE,,,,,,,FEW,1500,SCT,2200,BKN,5000,,,VFR,,,,,,,,,,,,METAR,16.0
K6S2 240115Z AUTO 00000KT 9SM UP SCT020 BKN027 BKN047 02/02 A2960 RMK AO2,K6S2,2023-02-24T01:15:00Z,43.98,-124.12,2.0,2.0,0,0,,9.0,29.601377,,,TRUE,TRUE,,,,,,UP,SCT,2000,BKN,2700,BKN,4700,,,MVFR,,,,,,,,,,,,METAR,16.0
K6S2 240055Z AUTO 00000KT 10SM FEW029 BKN046 02/02 A2960 RMK AO2,K6S2,2023-02-24T00:55:00Z,43.98,-124.12,2.0,2.0,0,0,,10.0,29.601377,,,TRUE,TRUE,,,,,,,FEW,2900,BKN,4600,,,,,VFR,,,,,,,,,,,,METAR,16.0
K6S2 240035Z AUTO 00000KT 10SM FEW007 FEW043 SCT060 03/03 A2959 RMK AO2,K6S2,2023-02-24T00:35:00Z,43.98,-124.12,3.0,3.0,0,0,,10.0,29.589567,,,TRUE,TRUE,,,,,,,FEW,700,FEW,4300,SCT,6000,,,VFR,,,,,,,,,,,,SPECI,16.0
K6S2 240015Z AUTO 00000KT 3SM -RA BR FEW003 FEW007 SCT080 02/02 A2959 RMK AO2,K6S2,2023-02-24T00:15:00Z,43.98,-124.12,2.0,2.0,0,0,,3.0,29.589567,,,TRUE,TRUE,,,,,,-RA BR,FEW,300,FEW,700,SCT,8000,,,MVFR,,,,,,,,,,,,SPECI,16.0
K6S2 232355Z AUTO 00000KT 3SM -RA BR FEW007 FEW060 FEW080 02/02 A2959 RMK AO2,K6S2,2023-02-23T23:55:00Z,43.98,-124.12,2.0,2.0,0,0,,3.0,29.589567,,,TRUE,TRUE,,,,,,-RA BR,FEW,700,FEW,6000,FEW,8000,,,MVFR,,,,,,,,,,,,METAR,16.0
K6S2 232335Z AUTO 23003KT 8SM FEW022 FEW047 FEW065 02/02 A2959 RMK AO2,K6S2,2023-02-23T23:35:00Z,43.98,-124.12,2.0,2.0,230,3,,8.0,29.589567,,,TRUE,TRUE,,,,,,,FEW,2200,FEW,4700,FEW,6500,,,VFR,,,,,,,,,,,,METAR,16.0
K6S2 232315Z AUTO VRB04KT 7SM -SN FEW007 SCT065 BKN080 01/01 A2959 RMK AO2,K6S2,2023-02-23T23:15:00Z,43.98,-124.12,1.0,1.0,0,4,,7.0,29.589567,,,TRUE,TRUE,,,,,,-SN,FEW,700,SCT,6500,BKN,8000,,,VFR,,,,,,,,,,,,METAR,16.0
K6S2 232235Z AUTO 21007KT 8SM SCT016 BKN022 BKN030 02/02 A2958 RMK AO2,K6S2,2023-02-23T22:35:00Z,43.98,-124.12,2.0,2.0,210,7,,8.0,29.58071,,,TRUE,TRUE,,,,,,,SCT,1600,BKN,2200,BKN,3000,,,MVFR,,,,,,,,,,,,METAR,16.0
K6S2 232215Z AUTO VRB05KT 10SM FEW015 SCT020 SCT027 03/02 A2958 RMK AO2,K6S2,2023-02-23T22:15:00Z,43.98,-124.12,3.0,2.0,0,5,,10.0,29.58071,,,TRUE,TRUE,,,,,,,FEW,1500,SCT,2000,SCT,2700,,,VFR,,,,,,,,,,,,METAR,16.0
K6S2 232155Z AUTO VRB04KT 4SM -RA BR SCT020 BKN026 BKN032 03/02 A2958 RMK AO2,K6S2,2023-02-23T21:55:00Z,43.98,-124.12,3.0,2.0,0,4,,4.0,29.58071,,,TRUE,TRUE,,,,,,-RA BR,SCT,2000,BKN,2600,BKN,3200,,,MVFR,,,,,,,,,,,,METAR,16.0
K6S2 232135Z AUTO VRB05KT 10SM FEW019 SCT023 BKN029 03/02 A2958 RMK AO2,K6S2,2023-02-23T21:35:00Z,43.98,-124.12,3.0,2.0,0,5,,10.0,29.58071,,,TRUE,TRUE,,,,,,,FEW,1900,SCT,2300,BKN,2900,,,MVFR,,,,,,,,,,,,METAR,16.0
K6S2 232115Z AUTO VRB04G11KT 9SM BKN022 BKN027 BKN034 03/02 A2958 RMK AO2,K6S2,2023-02-23T21:15:00Z,43.98,-124.12,3.0,2.0,0,4,11,9.0,29.58071,,,TRUE,TRUE,,,,,,,BKN,2200,BKN,2700,BKN,3400,,,MVFR,,,,,,,,,,,,SPECI,16.0
K6S2 232055Z AUTO VRB04KT 10SM FEW014 SCT023 BKN030 03/02 A2958 RMK AO2,K6S2,2023-02-23T20:55:00Z,43.98,-124.12,3.0,2.0,0,4,,10.0,29.58071,,,TRUE,TRUE,,,,,,,FEW,1400,SCT,2300,BKN,3000,,,MVFR,,,,,,,,,,,,METAR,16.0
K6S2 232035Z AUTO VRB04G13KT 4SM -RA BR SCT016 BKN022 OVC065 02/02 A2959 RMK AO2,K6S2,2023-02-23T20:35:00Z,43.98,-124.12,2.0,2.0,0,4,13,4.0,29.589567,,,TRUE,TRUE,,,,,,-RA BR,SCT,1600,BKN,2200,OVC,6500,,,MVFR,,,,,,,,,,,,METAR,16.0
K6S2 232015Z AUTO VRB05KT 10SM FEW019 BKN024 OVC049 03/02 A2959 RMK AO2,K6S2,2023-02-23T20:15:00Z,43.98,-124.12,3.0,2.0,0,5,,10.0,29.589567,,,TRUE,TRUE,,,,,,,FEW,1900,BKN,2400,OVC,4900,,,MVFR,,,,,,,,,,,,METAR,16.0
K6S2 231935Z AUTO 00000KT 9SM FEW003 FEW050 BKN065 01/01 A2960 RMK AO2,K6S2,2023-02-23T19:35:00Z,43.98,-124.12,1.0,1.0,0,0,,9.0,29.601377,,,TRUE,TRUE,,,,,,,FEW,300,FEW,5000,BKN,6500,,,VFR,,,,,,,,,,,,SPECI,16.0
K6S2 231915Z AUTO 00000KT 1SM -SN BR BKN002 01/01 A2960 RMK AO2,K6S2,2023-02-23T19:15:00Z,43.98,-124.12,1.0,1.0,0,0,,1.0,29.601377,,,TRUE,TRUE,,,,,,-SN BR,BKN,200,,,,,,,LIFR,,,,,,,,,,,,METAR,16.0
K6S2 231855Z AUTO VRB03KT 1/4SM SN FG OVC002 00/00 A2961 RMK AO2 P0005,K6S2,2023-02-23T18:55:00Z,43.98,-124.12,0.0,0.0,0,3,,0.25,29.610237,,,TRUE,TRUE,,,,,,SN FG,OVC,200,,,,,,,LIFR,,,,,,0.05,,,,,,SPECI,16.0
K6S2 231835Z AUTO 00000KT 1/4SM SN FZFG OVC002 M00/M00 A2961 RMK AO2,K6S2,2023-02-23T18:35:00Z,43.98,-124.12,0.0,0.0,0,0,,0.25,29.610237,,,TRUE,TRUE,,,,,,SN FZFG,OVC,200,,,,,,,LIFR,,,,,,,,,,,,SPECI,16.0
K6S2 231815Z AUTO 18008G16KT 1/4SM SN FG OVC002 00/00 A2961 RMK AO2,K6S2,2023-02-23T18:15:00Z,43.98,-124.12,0.0,0.0,180,8,16,0.25,29.610237,,,TRUE,TRUE,,,,,,SN FG,OVC,200,,,,,,,LIFR,,,,,,,,,,,,SPECI,16.0
K6S2 231755Z AUTO 16007G12KT 120V200 7SM UP FEW025 SCT035 BKN075 01/01 A2959 RMK AO2,K6S2,2023-02-23T17:55:00Z,43.98,-124.12,1.0,1.0,160,7,12,7.0,29.589567,,,TRUE,TRUE,,,,,,UP,FEW,2500,SCT,3500,BKN,7500,,,VFR,,,,,,,,,,,,SPECI,16.0
K6S2 231735Z AUTO VRB05G13KT 10SM SCT032 SCT041 BKN060 02/01 A2959 RMK AO2,K6S2,2023-02-23T17:35:00Z,43.98,-124.12,2.0,1.0,0,5,13,10.0,29.589567,,,TRUE,TRUE,,,,,,,SCT,3200,SCT,4100,BKN,6000,,,VFR,,,,,,,,,,,,SPECI,16.0
K6S2 231715Z AUTO VRB06KT 10SM BKN033 BKN042 BKN050 02/02 A2959 RMK AO2,K6S2,2023-02-23T17:15:00Z,43.98,-124.12,2.0,2.0,0,6,,10.0,29.589567,,,TRUE,TRUE,,,,,,,BKN,3300,BKN,4200,BKN,5000,,,VFR,,,,,,,,,,,,SPECI,16.0
K6S2 231655Z AUTO 00000KT 10SM FEW023 BKN032 BKN042 01/01 A2959 RMK AO2,K6S2,2023-02-23T16:55:00Z,43.98,-124.12,1.0,1.0,0,0,,10.0,29.589567,,,TRUE,TRUE,,,,,,,FEW,2300,BKN,3200,BKN,4200,,,VFR,,,,,,,,,,,,SPECI,16.0
K6S2 231635Z AUTO 00000KT 10SM FEW022 BKN031 OVC055 02/02 A2959 RMK AO2,K6S2,2023-02-23T16:35:00Z,43.98,-124.12,2.0,2.0,0,0,,10.0,29.589567,,,TRUE,TRUE,,,,,,,FEW,2200,BKN,3100,OVC,5500,,,VFR,,,,,,,,,,,,METAR,16.0
K6S2 231615Z AUTO 00000KT 10SM SCT032 SCT044 BKN055 01/01 A2958 RMK AO2,K6S2,2023-02-23T16:15:00Z,43.98,-124.12,1.0,1.0,0,0,,10.0,29.58071,,,TRUE,TRUE,,,,,,,SCT,3200,SCT,4400,BKN,5500,,,VFR,,,,,,,,,,,,METAR,16.0
K6S2 231555Z AUTO 00000KT 10SM FEW035 FEW050 SCT085 01/01 A2958 RMK AO2,K6S2,2023-02-23T15:55:00Z,43.98,-124.12,1.0,1.0,0,0,,10.0,29.58071,,,TRUE,TRUE,,,,,,,FEW,3500,FEW,5000,SCT,8500,,,VFR,,,,,,,,,,,,SPECI,16.0
K6S2 231535Z AUTO 00000KT 10SM BKN050 00/00 A2958 RMK AO2,K6S2,2023-02-23T15:35:00Z,43.98,-124.12,0.0,0.0,0,0,,10.0,29.58071,,,TRUE,TRUE,,,,,,,BKN,5000,,,,,,,VFR,,,,,,,,,,,,SPECI,16.0
K6S2 231515Z AUTO 00000KT 10SM FEW019 BKN033 OVC055 01/01 A2958 RMK AO2,K6S2,2023-02-23T15:15:00Z,43.98,-124.12,1.0,1.0,0,0,,10.0,29.58071,,,TRUE,TRUE,,,,,,,FEW,1900,BKN,3300,OVC,5500,,,VFR,,,,,,,,,,,,METAR,16.0
K6S2 231455Z AUTO 11003KT 9SM FEW014 BKN019 OVC030 01/01 A2957 RMK AO2,K6S2,2023-02-23T14:55:00Z,43.98,-124.12,1.0,1.0,110,3,,9.0,29.568897,,,TRUE,TRUE,,,,,,,FEW,1400,BKN,1900,OVC,3000,,,MVFR,,,,,,,,,,,,METAR,16.0
K6S2 231435Z AUTO 23005KT 8SM -SN SCT014 BKN029 OVC050 01/01 A2958 RMK AO2,K6S2,2023-02-23T14:35:00Z,43.98,-124.12,1.0,1.0,230,5,,8.0,29.58071,,,TRUE,TRUE,,,,,,-SN,SCT,1400,BKN,2900,OVC,5000,,,MVFR,,,,,,,,,,,,SPECI,16.0
K6S2 231415Z AUTO 00000KT 9SM FEW003 SCT013 BKN039 01/01 A2958 RMK AO2,K6S2,2023-02-23T14:15:00Z,43.98,-124.12,1.0,1.0,0,0,,9.0,29.58071,,,TRUE,TRUE,,,,,,,FEW,300,SCT,1300,BKN,3900,,,VFR,,,,,,,,,,,,SPECI,16.0
K6S2 231355Z AUTO 00000KT 9SM FEW005 BKN036 OVC041 01/01 A2958 RMK AO2,K6S2,2023-02-23T13:55:00Z,43.98,-124.12,1.0,1.0,0,0,,9.0,29.58071,,,TRUE,TRUE,,,,,,,FEW,500,BKN,3600,OVC,4100,,,VFR,,,,,,,,,,,,SPECI,16.0
K6S2 231335Z AUTO VRB06KT 9SM UP FEW005 BKN034 OVC042 02/01 A2958 RMK AO2,K6S2,2023-02-23T13:35:00Z,43.98,-124.12,2.0,1.0,0,6,,9.0,29.58071,,,TRUE,TRUE,,,,,,UP,FEW,500,BKN,3400,OVC,4200,,,VFR,,,,,,,,,,,,SPECI,16.0
K6S2 231315Z AUTO 00000KT 5SM -SN BR FEW003 FEW022 OVC034 01/01 A2957 RMK AO2,K6S2,2023-02-23T13:15:00Z,43.98,-124.12,1.0,1.0,0,0,,5.0,29.568897,,,TRUE,TRUE,,,,,,-SN BR,FEW,300,FEW,2200,OVC,3400,,,MVFR,,,,,,,,,,,,METAR,16.0
K6S2 231255Z AUTO 11003KT 10SM SCT033 BKN060 OVC075 01/01 A2957 RMK AO2,K6S2,2023-02-23T12:55:00Z,43.98,-124.12,1.0,1.0,110,3,,10.0,29.568897,,,TRUE,TRUE,,,,,,,SCT,3300,BKN,6000,OVC,7500,,,VFR,,,,,,,,,,,,METAR,16.0
K6S2 231235Z AUTO 00000KT 10SM FEW029 BKN065 OVC075 02/M01 A2957 RMK AO2,K6S2,2023-02-23T12:35:00Z,43.98,-124.12,2.0,-1.0,0,0,,10.0,29.568897,,,TRUE,TRUE,,,,,,,FEW,2900,BKN,6500,OVC,7500,,,VFR,,,,,,,,,,,,SPECI,16.0
K6S2 231215Z AUTO VRB04G12KT 10SM FEW021 SCT026 BKN033 02/00 A2958 RMK AO2,K6S2,2023-02-23T12:15:00Z,43.98,-124.12,2.0,0.0,0,4,12,10.0,29.58071,,,TRUE,TRUE,,,,,,,FEW,2100,SCT,2600,BKN,3300,,,VFR,,,,,,,,,,,,SPECI,16.0
K6S2 231155Z AUTO 00000KT 10SM FEW004 SCT021 BKN027 01/01 A2958 RMK AO2 P0004,K6S2,2023-02-23T11:55:00Z,43.98,-124.12,1.0,1.0,0,0,,10.0,29.58071,,,TRUE,TRUE,,,,,,,FEW,400,SCT,2100,BKN,2700,,,MVFR,,,,,,0.04,,,,,,METAR,16.0
K6S2 231135Z AUTO 00000G15KT 2SM -SN BR SCT003 BKN018 OVC033 01/M00 A2958 RMK AO2 VIS 1 1/4V5,K6S2,2023-02-23T11:35:00Z,43.98,-124.12,1.0,0.0,0,0,15,2.0,29.58071,,,TRUE,TRUE,,,,,,-SN BR,SCT,300,BKN,1800,OVC,3300,,,IFR,,,,,,,,,,,,METAR,16.0
K6S2 231115Z AUTO 25010G17KT 5SM BR SCT003 BKN026 OVC060 02/01 A2958 RMK AO2,K6S2,2023-02-23T11:15:00Z,43.98,-124.12,2.0,1.0,250,10,17,5.0,29.58071,,,TRUE,TRUE,,,,,,BR,SCT,300,BKN,2600,OVC,6000,,,MVFR,,,,,,,,,,,,SPECI,16.0
K6S2 231055Z AUTO 28006G12KT 10SM FEW003 SCT018 BKN033 03/01 A2958 RMK AO2,K6S2,2023-02-23T10:55:00Z,43.98,-124.12,3.0,1.0,280,6,12,10.0,29.58071,,,TRUE,TRUE,,,,,,,FEW,300,SCT,1800,BKN,3300,,,VFR,,,,,,,,,,,,METAR,16.0
K6S2 231035Z AUTO 29008KT 10SM FEW003 SCT033 BKN041 02/00 A2959 RMK AO2,K6S2,2023-02-23T10:35:00Z,43.98,-124.12,2.0,0.0,290,8,,10.0,29.589567,,,TRUE,TRUE,,,,,,,FEW,300,SCT,3300,BKN,4100,,,VFR,,,,,,,,,,,,METAR,16.0
K6S2 231015Z AUTO 28007G21KT 9SM FEW003 BKN044 OVC050 02/01 A2959 RMK AO2,K6S2,2023-02-23T10:15:00Z,43.98,-124.12,2.0,1.0,280,7,21,9.0,29.589567,,,TRUE,TRUE,,,,,,,FEW,300,BKN,4400,OVC,5000,,,VFR,,,,,,,,,,,,SPECI,16.0
K6S2 230955Z AUTO 27009G15KT 240V300 9SM FEW013 SCT019 OVC048 02/02 A2959 RMK AO2 P0004,K6S2,2023-02-23T09:55:00Z,43.98,-124.12,2.0,2.0,270,9,15,9.0,29.589567,,,TRUE,TRUE,,,,,,,FEW,1300,SCT,1900,OVC,4800,,,VFR,,,,,,0.04,,,,,,METAR,16.0
K6S2 230935Z AUTO 00000KT 4SM -SN BR BKN003 BKN013 OVC019 01/01 A2959 RMK AO2,K6S2,2023-02-23T09:35:00Z,43.98,-124.12,1.0,1.0,0,0,,4.0,29.589567,,,TRUE,TRUE,,,,,,-SN BR,BKN,300,BKN,1300,OVC,1900,,,LIFR,,,,,,,,,,,,METAR,16.0
K6S2 230915Z AUTO 32006KT 1 1/2SM -SN BR OVC003 01/01 A2959 RMK AO2,K6S2,2023-02-23T09:15:00Z,43.98,-124.12,1.0,1.0,320,6,,1.5,29.589567,,,TRUE,TRUE,,,,,,-SN BR,OVC,300,,,,,,,LIFR,,,,,,,,,,,,METAR,16.0
K6S2 230855Z AUTO 28007G12KT 8SM UP FEW003 SCT008 BKN034 02/01 A2959 RMK AO2,K6S2,2023-02-23T08:55:00Z,43.98,-124.12,2.0,1.0,280,7,12,8.0,29.589567,,,TRUE,TRUE,,,,,,UP,FEW,300,SCT,800,BKN,3400,,,VFR,,,,,,,,,,,,SPECI,16.0
K6S2 230835Z AUTO 27009G16KT 240V300 9SM FEW004 BKN042 OVC075 02/02 A2959 RMK AO2,K6S2,2023-02-23T08:35:00Z,43.98,-124.12,2.0,2.0,270,9,16,9.0,29.589567,,,TRUE,TRUE,,,,,,,FEW,400,BKN,4200,OVC,7500,,,VFR,,,,,,,,,,,,SPECI,16.0
K6S2 230815Z AUTO 17005KT 9SM FEW022 BKN039 OVC050 01/01 A2959 RMK AO2,K6S2,2023-02-23T08:15:00Z,43.98,-124.12,1.0,1.0,170,5,,9.0,29.589567,,,TRUE,TRUE,,,,,,,FEW,2200,BKN,3900,OVC,5000,,,VFR,,,,,,,,,,,,METAR,16.0
K6S2 230755Z AUTO 16004KT 6SM BR SCT031 BKN038 OVC050 01/01 A2959 RMK AO2 P0003,K6S2,2023-02-23T07:55:00Z,43.98,-124.12,1.0,1.0,160,4,,6.0,29.589567,,,TRUE,TRUE,,,,,,BR,SCT,3100,BKN,3800,OVC,5000,,,VFR,,,,,,0.03,,,,,,METAR,16.0
K6S2 230735Z AUTO 00000KT 6SM BR SCT004 BKN030 OVC046 01/01 A2959 RMK AO2,K6S2,2023-02-23T07:35:00Z,43.98,-124.12,1.0,1.0,0,0,,6.0,29.589567,,,TRUE,TRUE,,,,,,BR,SCT,400,BKN,3000,OVC,4600,,,MVFR,,,,,,,,,,,,SPECI,16.0
K6S2 230715Z AUTO VRB04G10KT 2SM -SN BR BKN003 BKN008 OVC024 01/01 A2960 RMK AO2 VIS 1 1/2V4,K6S2,2023-02-23T07:15:00Z,43.98,-124.12,1.0,1.0,0,4,10,2.0,29.601377,,,TRUE,TRUE,,,,,,-SN BR,BKN,300,BKN,800,OVC,2400,,,LIFR,,,,,,,,,,,,METAR,16.0
K6S2 230655Z AUTO VRB05KT 5SM -SN BR FEW005 SCT024 OVC049 01/01 A2960 RMK AO2 P0002,K6S2,2023-02-23T06:55:00Z,43.98,-124.12,1.0,1.0,0,5,,5.0,29.601377,,,TRUE,TRUE,,,,,,-SN BR,FEW,500,SCT,2400,OVC,4900,,,MVFR,,,,,,0.02,,,,,,METAR,16.0
K6S2 230635Z AUTO VRB04KT 10SM UP FEW004 FEW023 OVC050 01/01 A2960 RMK AO2,K6S2,2023-02-23T06:35:00Z,43.98,-124.12,1.0,1.0,0,4,,10.0,29.601377,,,TRUE,TRUE,,,,,,UP,FEW,400,FEW,2300,OVC,5000,,,VFR,,,,,,,,,,,,METAR,16.0
K6S2 230615Z AUTO VRB05KT 2SM -SN BR SCT003 BKN010 OVC031 01/01 A2961 RMK AO2,K6S2,2023-02-23T06:15:00Z,43.98,-124.12,1.0,1.0,0,5,,2.0,29.610237,,,TRUE,TRUE,,,,,,-SN BR,SCT,300,BKN,1000,OVC,3100,,,IFR,,,,,,,,,,,,METAR,16.0
K6S2 230555Z AUTO VRB03KT 3SM -SN BR FEW004 BKN011 OVC043 01/01 A2961 RMK AO2 P0004,K6S2,2023-02-23T05:55:00Z,43.98,-124.12,1.0,1.0,0,3,,3.0,29.610237,,,TRUE,TRUE,,,,,,-SN BR,FEW,400,BKN,1100,OVC,4300,,,MVFR,,,,,,0.04,,,,,,SPECI,16.0
K6S2 230535Z AUTO 00000KT 7SM SCT005 BKN043 OVC050 01/01 A2961 RMK AO2,K6S2,2023-02-23T05:35:00Z,43.98,-124.12,1.0,1.0,0,0,,7.0,29.610237,,,TRUE,TRUE,,,,,,,SCT,500,BKN,4300,OVC,5000,,,VFR,,,,,,,,,,,,SPECI,16.0
K6S2 230515Z AUTO 00000KT 1 3/4SM -SN BR OVC004 00/00 A2961 RMK AO2 VIS 1 1/4V3,K6S2,2023-02-23T05:15:00Z,43.98,-124.12,0.0,0.0,0,0,,1.75,29.610237,,,TRUE,TRUE,,,,,,-SN BR,OVC,400,,,,,,,LIFR,,,,,,,,,,,,METAR,16.0
K6S2 230455Z AUTO VRB03KT 1SM -SN BR OVC004 00/00 A2962 RMK AO2 P0012,K6S2,2023-02-23T04:55:00Z,43.98,-124.12,0.0,0.0,0,3,,1.0,29.619095,,,TRUE,TRUE,,,,,,-SN BR,OVC,400,,,,,,,LIFR,,,,,,0.12,,,,,,METAR,16.0
K6S2 230435Z AUTO 11003KT 2SM -SN BR BKN003 OVC007 00/00 A2962 RMK AO2 VIS 1 1/2V3,K6S2,2023-02-23T04:35:00Z,43.98,-124.12,0.0,0.0,110,3,,2.0,29.619095,,,TRUE,TRUE,,,,,,-SN BR,BKN,300,OVC,700,,,,,LIFR,,,,,,,,,,,,SPECI,16.0
K6S2 230415Z AUTO 00000KT 1 1/4SM -SN BR BKN002 OVC006 01/01 A2962 RMK AO2,K6S2,2023-02-23T04:15:00Z,43.98,-124.12,1.0,1.0,0,0,,1.25,29.619095,,,TRUE,TRUE,,,,,,-SN BR,BKN,200,OVC,600,,,,,LIFR,,,,,,,,,,,,SPECI,16.0
K6S2 230355Z AUTO 35004KT 5SM UP BR BKN006 BKN011 OVC015 02/02 A2962 RMK AO2 P0005,K6S2,2023-02-23T03:55:00Z,43.98,-124.12,2.0,2.0,350,4,,5.0,29.619095,,,TRUE,TRUE,,,,,,BR UP,BKN,600,BKN,1100,OVC,1500,,,IFR,,,,,,0.05,,,,,,METAR,16.0
K6S2 230335Z AUTO 32004KT 5SM -SN BR OVC005 02/02 A2962 RMK AO2,K6S2,2023-02-23T03:35:00Z,43.98,-124.12,2.0,2.0,320,4,,5.0,29.619095,,,TRUE,TRUE,,,,,,-SN BR,OVC,500,,,,,,,IFR,,,,,,,,,,,,SPECI,16.0
K6S2 230315Z AUTO VRB05G11KT 2 1/2SM -SN BR BKN004 OVC008 01/01 A2962 RMK AO2 VIS 1 1/4V5,K6S2,2023-02-23T03:15:00Z,43.98,-124.12,1.0,1.0,0,5,11,2.5,29.619095,,,TRUE,TRUE,,,,,,-SN BR,BKN,400,OVC,800,,,,,LIFR,,,,,,,,,,,,SPECI,16.0
K6S2 230255Z AUTO 29005KT 5SM -RA BR OVC006 02/02 A2962 RMK AO2 P0007,K6S2,2023-02-23T02:55:00Z,43.98,-124.12,2.0,2.0,290,5,,5.0,29.619095,,,TRUE,TRUE,,,,,,-RA BR,OVC,600,,,,,,,IFR,,,,,,0.07,,,,,,METAR,16.0
K6S2 230235Z AUTO VRB04G10KT 2 1/2SM -SN BR OVC004 01/01 A2963 RMK AO2,K6S2,2023-02-23T02:35:00Z,43.98,-124.12,1.0,1.0,0,4,10,2.5,29.630905,,,TRUE,TRUE,,,,,,-SN BR,OVC,400,,,,,,,LIFR,,,,,,,,,,,,SPECI,16.0
K6S2 230215Z AUTO 32006G14KT 4SM -SN BR BKN005 BKN008 OVC014 02/02 A2963 RMK AO2,K6S2,2023-02-23T02:15:00Z,43.98,-124.12,2.0,2.0,320,6,14,4.0,29.630905,,,TRUE,TRUE,,,,,,-SN BR,BKN,500,BKN,800,OVC,1400,,,IFR,,,,,,,,,,,,METAR,16.0
K6S2 230155Z AUTO 21005KT 2SM -SN BR BKN004 OVC015 01/01 A2962 RMK AO2 P0001 VIS 1 1/4V3,K6S2,2023-02-23T01:55:00Z,43.98,-124.12,1.0,1.0,210,5,,2.0,29.619095,,,TRUE,TRUE,,,,,,-SN BR,BKN,400,OVC,1500,,,,,LIFR,,,,,,0.01,,,,,,SPECI,16.0
K6S2 230135Z AUTO VRB06G14KT 2 1/2SM -SN BR SCT004 SCT019 BKN039 02/02 A2962 RMK AO2 VIS 1 1/2V5,K6S2,2023-02-23T01:35:00Z,43.98,-124.12,2.0,2.0,0,6,14,2.5,29.619095,,,TRUE,TRUE,,,,,,-SN BR,SCT,400,SCT,1900,BKN,3900,,,IFR,,,,,,,,,,,,METAR,16.0
K6S2 230115Z AUTO 31007G14KT 9SM FEW016 SCT021 SCT027 03/03 A2962 RMK AO2,K6S2,2023-02-23T01:15:00Z,43.98,-124.12,3.0,3.0,310,7,14,9.0,29.619095,,,TRUE,TRUE,,,,,,,FEW,1600,SCT,2100,SCT,2700,,,VFR,,,,,,,,,,,,METAR,16.0
K6S2 230055Z AUTO 33004G10KT 7SM UP FEW003 FEW014 02/02 A2962 RMK AO2 P0004,K6S2,2023-02-23T00:55:00Z,43.98,-124.12,2.0,2.0,330,4,10,7.0,29.619095,,,TRUE,TRUE,,,,,,UP,FEW,300,FEW,1400,,,,,VFR,,,,,,0.04,,,,,,SPECI,16.0
K6S2 230035Z AUTO 29009G17KT 1/2SM -SN BR BKN003 BKN016 OVC033 02/02 A2962 RMK AO2 VIS 1/4V1 3/4,K6S2,2023-02-23T00:35:00Z,43.98,-124.12,2.0,2.0,290,9,17,0.5,29.619095,,,TRUE,TRUE,,,,,,-SN BR,BKN,300,BKN,1600,OVC,3300,,,LIFR,,,,,,,,,,,,METAR,16.0
K6S2 230015Z AUTO 30007G15KT 270V340 9SM SCT033 SCT040 BKN075 05/02 A2961 RMK AO2,K6S2,2023-02-23T00:15:00Z,43.98,-124.12,5.0,2.0,300,7,15,9.0,29.610237,,,TRUE,TRUE,,,,,,,SCT,3300,SCT,4000,BKN,7500,,,VFR,,,,,,,,,,,,METAR,16.0
K6S2 222355Z AUTO 29007G12KT 9SM FEW034 FEW048 BKN065 05/00 A2961 RMK AO2,K6S2,2023-02-22T23:55:00Z,43.98,-124.12,5.0,0.0,290,7,12,9.0,29.610237,,,TRUE,TRUE,,,,,,,FEW,3400,FEW,4800,BKN,6500,,,VFR,,,,,,,,,,,,METAR,16.0
K6S2 222335Z AUTO 28007G13KT 240V310 8SM BKN033 BKN047 OVC075 05/00 A2961 RMK AO2,K6S2,2023-02-22T23:35:00Z,43.98,-124.12,5.0,0.0,280,7,13,8.0,29.610237,,,TRUE,TRUE,,,,,,,BKN,3300,BKN,4700,OVC,7500,,,VFR,,,,,,,,,,,,SPECI,16.0
K6S2 222315Z AUTO 30007KT 9SM FEW033 BKN050 BKN055 05/00 A2961 RMK AO2,K6S2,2023-02-22T23:15:00Z,43.98,-124.12,5.0,0.0,300,7,,9.0,29.610237,,,TRUE,TRUE,,,,,,,FEW,3300,BKN,5000,BKN,5500,,,VFR,,,,,,,,,,,,SPECI,16.0
K6S2 222255Z AUTO 29010G15KT 9SM FEW027 SCT032 SCT041 05/M00 A2962 RMK AO2,K6S2,2023-02-22T22:55:00Z,43.98,-124.12,5.0,0.0,290,10,15,9.0,29.619095,,,TRUE,TRUE,,,,,,,FEW,2700,SCT,3200,SCT,4100,,,VFR,,,,,,,,,,,,METAR,16.0
K6S2 222235Z AUTO VRB05G11KT 8SM BKN031 BKN041 OVC060 05/01 A2962 RMK AO2,K6S2,2023-02-22T22:35:00Z,43.98,-124.12,5.0,1.0,0,5,11,8.0,29.619095,,,TRUE,TRUE,,,,,,,BKN,3100,BKN,4100,OVC,6000,,,VFR,,,,,,,,,,,,SPECI,16.0
K6S2 222215Z AUTO 31007G15KT 260V330 6SM -RA HZ FEW026 BKN030 OVC040 05/02 A2962 RMK AO2,K6S2,2023-02-22T22:15:00Z,43.98,-124.12,5.0,2.0,310,7,15,6.0,29.619095,,,TRUE,TRUE,,,,,,-RA HZ,FEW,2600,BKN,3000,OVC,4000,,,MVFR,,,,,,,,,,,,SPECI,16.0
K6S2 222155Z AUTO 33007KT 7SM SCT028 BKN043 OVC060 05/03 A2962 RMK AO2,K6S2,2023-02-22T21:55:00Z,43.98,-124.12,5.0,3.0,330,7,,7.0,29.619095,,,TRUE,TRUE,,,,,,,SCT,2800,BKN,4300,OVC,6000,,,VFR,,,,,,,,,,,,METAR,16.0
K6S2 222135Z AUTO 34008G14KT 8SM FEW044 BKN050 OVC060 05/03 A2962 RMK AO2,K6S2,2023-02-22T21:35:00Z,43.98,-124.12,5.0,3.0,340,8,14,8.0,29.619095,,,TRUE,TRUE,,,,,,,FEW,4400,BKN,5000,OVC,6000,,,VFR,,,,,,,,,,,,METAR,16.0
K6S2 222115Z AUTO 34007G14KT 8SM FEW015 SCT024 BKN046 05/03 A2963 RMK AO2,K6S2,2023-02-22T21:15:00Z,43.98,-124.12,5.0,3.0,340,7,14,8.0,29.630905,,,TRUE,TRUE,,,,,,,FEW,1500,SCT,2400,BKN,4600,,,VFR,,,,,,,,,,,,SPECI,16.0
K6S2 222055Z AUTO 00000KT 7SM SCT015 BKN022 OVC032 04/04 A2963 RMK AO2,K6S2,2023-02-22T20:55:00Z,43.98,-124.12,4.0,4.0,0,0,,7.0,29.630905,,,TRUE,TRUE,,,,,,,SCT,1500,BKN,2200,OVC,3200,,,MVFR,,,,,,,,,,,,METAR,16.0
K6S2 222035Z AUTO VRB05G13KT 6SM BR FEW015 BKN025 OVC055 05/04 A2964 RMK AO2,K6S2,2023-02-22T20:35:00Z,43.98,-124.12,5.0,4.0,0,5,13,6.0,29.639763,,,TRUE,TRUE,,,,,,BR,FEW,1500,BKN,2500,OVC,5500,,,MVFR,,,,,,,,,,,,SPECI,16.0
K6S2 222015Z AUTO VRB06G12KT 8SM FEW016 SCT030 BKN038 04/04 A2964 RMK AO2,K6S2,2023-02-22T20:15:00Z,43.98,-124.12,4.0,4.0,0,6,12,8.0,29.639763,,,TRUE,TRUE,,,,,,,FEW,1600,SCT,3000,BKN,3800,,,VFR,,,,,,,,,,,,SPECI,16.0
K6S2 221955Z AUTO 32010KT 8SM -RA FEW019 FEW028 SCT060 04/04 A2965 RMK AO2 P0003,K6S2,2023-02-22T19:55:00Z,43.98,-124.12,4.0,4.0,320,10,,8.0,29.648623,,,TRUE,TRUE,,,,,,-RA,FEW,1900,FEW,2800,SCT,6000,,,VFR,,,,,,0.03,,,,,,METAR,16.0
K6S2 221935Z AUTO 34008G14KT 2SM -SN BR FEW004 FEW015 SCT022 02/02 A2965 RMK AO2,K6S2,2023-02-22T19:35:00Z,43.98,-124.12,2.0,2.0,340,8,14,2.0,29.648623,,,TRUE,TRUE,,,,,,-SN BR,FEW,400,FEW,1500,SCT,2200,,,IFR,,,,,,,,,,,,SPECI,16.0
K6S2 221915Z AUTO 32013G21KT 8SM BKN016 BKN023 04/03 A2965 RMK AO2,K6S2,2023-02-22T19:15:00Z,43.98,-124.12,4.0,3.0,320,13,21,8.0,29.648623,,,TRUE,TRUE,,,,,,,BKN,1600,BKN,2300,,,,,MVFR,,,,,,,,,,,,SPECI,16.0
K6S2 221855Z AUTO 30012G17KT 260V320 7SM -RA SCT017 SCT023 BKN035 04/03 A2965 RMK AO2,K6S2,2023-02-22T18:55:00Z,43.98,-124.12,4.0,3.0,300,12,17,7.0,29.648623,,,TRUE,TRUE,,,,,,-RA,SCT,1700,SCT,2300,BKN,3500,,,VFR,,,,,,,,,,,,METAR,16.0
K6S2 221835Z AUTO 31012KT 9SM SCT022 BKN034 OVC046 04/02 A2965 RMK AO2,K6S2,2023-02-22T18:35:00Z,43.98,-124.12,4.0,2.0,310,12,,9.0,29.648623,,,TRUE,TRUE,,,,,,,SCT,2200,BKN,3400,OVC,4600,,,VFR,,,,,,,,,,,,SPECI,16.0
K6S2 221815Z AUTO 32010G16KT 9SM SCT020 BKN032 OVC048 04/02 A2964 RMK AO2,K6S2,2023-02-22T18:15:00Z,43.98,-124.12,4.0,2.0,320,10,16,9.0,29.639763,,,TRUE,TRUE,,,,,,,SCT,2000,BKN,3200,OVC,4800,,,VFR,,,,,,,,,,,,METAR,16.0
K6S2 221755Z AUTO 32010G15KT 9SM SCT025 BKN036 OVC070 04/02 A2964 RMK AO2,K6S2,2023-02-22T17:55:00Z,43.98,-124.12,4.0,2.0,320,10,15,9.0,29.639763,,,TRUE,TRUE,,,,,,,SCT,2500,BKN,3600,OVC,7000,,,VFR,,,,,,,,,,,,METAR,16.0
K6S2 221735Z AUTO 32010G16KT 8SM SCT027 BKN055 OVC065 05/02 A2964 RMK AO2,K6S2,2023-02-22T17:35:00Z,43.98,-124.12,5.0,2.0,320,10,16,8.0,29.639763,,,TRUE,TRUE,,,,,,,SCT,2700,BKN,5500,OVC,6500,,,VFR,,,,,,,,,,,,SPECI,16.0
K6S2 221715Z AUTO 29008KT 260V320 10SM FEW042 SCT060 BKN070 05/M01 A2963 RMK AO2,K6S2,2023-02-22T17:15:00Z,43.98,-124.12,5.0,-1.0,290,8,,10.0,29.630905,,,TRUE,TRUE,,,,,,,FEW,4200,SCT,6000,BKN,7000,,,VFR,,,,,,,,,,,,SPECI,16.0
K6S2 221655Z AUTO 32010KT 8SM FEW041 FEW047 SCT080 05/00 A2963 RMK AO2,K6S2,2023-02-22T16:55:00Z,43.98,-124.12,5.0,0.0,320,10,,8.0,29.630905,,,TRUE,TRUE,,,,,,,FEW,4100,FEW,4700,SCT,8000,,,VFR,,,,,,,,,,,,METAR,16.0
K6S2 221635Z AUTO 32010G18KT 8SM FEW036 FEW050 SCT065 04/00 A2963 RMK AO2,K6S2,2023-02-22T16:35:00Z,43.98,-124.12,4.0,0.0,320,10,18,8.0,29.630905,,,TRUE,TRUE,,,,,,,FEW,3600,FEW,5000,SCT,6500,,,VFR,,,,,,,,,,,,SPECI,16.0
K6S2 221615Z AUTO 30008KT 8SM BKN035 BKN050 BKN060 04/01 A2962 RMK AO2,K6S2,2023-02-22T16:15:00Z,43.98,-124.12,4.0,1.0,300,8,,8.0,29.619095,,,TRUE,TRUE,,,,,,,BKN,3500,BKN,5000,BKN,6000,,,VFR,,,,,,,,,,,,METAR,16.0
K6S2 221555Z AUTO 27009G15KT 250V310 4SM -RA HZ FEW006 SCT055 BKN070 04/01 A2963 RMK AO2 P0002,K6S2,2023-02-22T15:55:00Z,43.98,-124.12,4.0,1.0,270,9,15,4.0,29.630905,,,TRUE,TRUE,,,,,,-RA HZ,FEW,600,SCT,5500,BKN,7000,,,MVFR,,,,,,0.02,,,,,,SPECI,16.0
K6S2 221535Z AUTO 29009G17KT 5SM HZ FEW005 BKN035 OVC070 04/01 A2963 RMK AO2,K6S2,2023-02-22T15:35:00Z,43.98,-124.12,4.0,1.0,290,9,17,5.0,29.630905,,,TRUE,TRUE,,,,,,HZ,FEW,500,BKN,3500,OVC,7000,,,MVFR,,,,,,,,,,,,METAR,16.0
K6S2 221515Z AUTO 31010G20KT 4SM -RA HZ FEW005 SCT029 BKN038 04/01 A2963 RMK AO2,K6S2,2023-02-22T15:15:00Z,43.98,-124.12,4.0,1.0,310,10,20,4.0,29.630905,,,TRUE,TRUE,,,,,,-RA HZ,FEW,500,SCT,2900,BKN,3800,,,MVFR,,,,,,,,,,,,METAR,16.0
K6S2 221455Z AUTO 30011G17KT 9SM FEW029 SCT040 OVC060 04/01 A2963 RMK AO2,K6S2,2023-02-22T14:55:00Z,43.98,-124.12,4.0,1.0,300,11,17,9.0,29.630905,,,TRUE,TRUE,,,,,,,FEW,2900,SCT,4000,OVC,6000,,,VFR,,,,,,,,,,,,METAR,16.0
K6S2 221435Z AUTO 34007G20KT 9SM FEW026 SCT044 OVC060 04/01 A2963 RMK AO2,K6S2,2023-02-22T14:35:00Z,43.98,-124.12,4.0,1.0,340,7,20,9.0,29.630905,,,TRUE,TRUE,,,,,,,FEW,2600,SCT,4400,OVC,6000,,,VFR,,,,,,,,,,,,SPECI,16.0
K6S2 221415Z AUTO VRB06KT 9SM FEW007 SCT022 BKN037 03/02 A2963 RMK AO2,K6S2,2023-02-22T14:15:00Z,43.98,-124.12,3.0,2.0,0,6,,9.0,29.630905,,,TRUE,TRUE,,,,,,,FEW,700,SCT,2200,BKN,3700,,,VFR,,,,,,,,,,,,SPECI,16.0
K6S2 221355Z AUTO 32011KT 9SM UP FEW009 SCT020 BKN031 03/02 A2964 RMK AO2 P0001,K6S2,2023-02-22T13:55:00Z,43.98,-124.12,3.0,2.0,320,11,,9.0,29.639763,,,TRUE,TRUE,,,,,,UP,FEW,900,SCT,2000,BKN,3100,,,VFR,,,,,,0.01,,,,,,METAR,16.0
K6S2 221335Z AUTO 33012G19KT 8SM SCT009 BKN020 OVC060 02/02 A2965 RMK AO2,K6S2,2023-02-22T13:35:00Z,43.98,-124.12,2.0,2.0,330,12,19,8.0,29.648623,,,TRUE,TRUE,,,,,,,SCT,900,BKN,2000,OVC,6000,,,MVFR,,,,,,,,,,,,SPECI,16.0
K6S2 221315Z AUTO 00000KT 7SM -SN BKN004 BKN029 OVC060 01/01 A2965 RMK AO2,K6S2,2023-02-22T13:15:00Z,43.98,-124.12,1.0,1.0,0,0,,7.0,29.648623,,,TRUE,TRUE,,,,,,-SN,BKN,400,BKN,2900,OVC,6000,,,LIFR,,,,,,,,,,,,METAR,16.0
K6S2 221255Z AUTO 36010G21KT 340V040 4SM -SN BR SCT005 BKN020 OVC050 02/02 A2966 RMK AO2 P0001,K6S2,2023-02-22T12:55:00Z,43.98,-124.12,2.0,2.0,360,10,21,4.0,29.660433,,,TRUE,TRUE,,,,,,-SN BR,SCT,500,BKN,2000,OVC,5000,,,MVFR,,,,,,0.01,,,,,,METAR,16.0
K6S2 221235Z AUTO 34015KT 9SM FEW015 SCT035 BKN048 03/02 A2965 RMK AO2,K6S2,2023-02-22T12:35:00Z,43.98,-124.12,3.0,2.0,340,15,,9.0,29.648623,,,TRUE,TRUE,,,,,,,FEW,1500,SCT,3500,BKN,4800,,,VFR,,,,,,,,,,,,METAR,16.0
K6S2 221215Z AUTO 34012G21KT 9SM FEW003 SCT017 BKN041 04/03 A2965 RMK AO2,K6S2,2023-02-22T12:15:00Z,43.98,-124.12,4.0,3.0,340,12,21,9.0,29.648623,,,TRUE,TRUE,,,,,,,FEW,300,SCT,1700,BKN,4100,,,VFR,,,,,,,,,,,,METAR,16.0
K6S2 221155Z AUTO 34007G13KT 9SM SCT003 BKN038 OVC070 04/02 A2964 RMK AO2,K6S2,2023-02-22T11:55:00Z,43.98,-124.12,4.0,2.0,340,7,13,9.0,29.639763,,,TRUE,TRUE,,,,,,,SCT,300,BKN,3800,OVC,7000,,,VFR,,,,,,,,,,,,METAR,16.0
K6S2 221135Z AUTO 33008G16KT 310V020 9SM FEW013 SCT029 BKN039 04/02 A2964 RMK AO2,K6S2,2023-02-22T11:35:00Z,43.98,-124.12,4.0,2.0,330,8,16,9.0,29.639763,,,TRUE,TRUE,,,,,,,FEW,1300,SCT,2900,BKN,3900,,,VFR,,,,,,,,,,,,SPECI,16.0
K6S2 221115Z AUTO 33017G23KT 7SM -RA FEW016 SCT034 BKN050 05/02 A2965 RMK AO2,K6S2,2023-02-22T11:15:00Z,43.98,-124.12,5.0,2.0,330,17,23,7.0,29.648623,,,TRUE,TRUE,,,,,,-RA,FEW,1600,SCT,3400,BKN,5000,,,VFR,,,,,,,,,,,,METAR,16.0
K6S2 221055Z AUTO 35010G22KT 9SM FEW033 SCT042 BKN055 05/00 A2964 RMK AO2,K6S2,2023-02-22T10:55:00Z,43.98,-124.12,5.0,0.0,350,10,22,9.0,29.639763,,,TRUE,TRUE,,,,,,,FEW,3300,SCT,4200,BKN,5500,,,VFR,,,,,,,,,,,,METAR,16.0
K6S2 221035Z AUTO VRB03G10KT 8SM FEW028 BKN041 OVC055 04/02 A2965 RMK AO2,K6S2,2023-02-22T10:35:00Z,43.98,-124.12,4.0,2.0,0,3,10,8.0,29.648623,,,TRUE,TRUE,,,,,,,FEW,2800,BKN,4100,OVC,5500,,,VFR,,,,,,,,,,,,METAR,16.0
K6S2 221015Z AUTO 36006G17KT 9SM SCT027 BKN037 OVC070 04/02 A2966 RMK AO2,K6S2,2023-02-22T10:15:00Z,43.98,-124.12,4.0,2.0,360,6,17,9.0,29.660433,,,TRUE,TRUE,,,,,,,SCT,2700,BKN,3700,OVC,7000,,,VFR,,,,,,,,,,,,METAR,16.0
K6S2 220955Z AUTO 34007G15KT 9SM SCT031 SCT050 OVC070 04/01 A2967 RMK AO2,K6S2,2023-02-22T09:55:00Z,43.98,-124.12,4.0,1.0,340,7,15,9.0,29.66929,,,TRUE,TRUE,,,,,,,SCT,3100,SCT,5000,OVC,7000,,,VFR,,,,,,,,,,,,METAR,16.0
K6S2 220935Z AUTO 32015G23KT 8SM -RA SCT033 BKN046 OVC080 05/02 A2967 RMK AO2,K6S2,2023-02-22T09:35:00Z,43.98,-124.12,5.0,2.0,320,15,23,8.0,29.66929,,,TRUE,TRUE,,,,,,-RA,SCT,3300,BKN,4600,OVC,8000,,,VFR,,,,,,,,,,,,METAR,16.0
K6S2 220915Z AUTO 31011G18KT 270V360 9SM FEW005 SCT022 BKN038 04/01 A2967 RMK AO2,K6S2,2023-02-22T09:15:00Z,43.98,-124.12,4.0,1.0,310,11,18,9.0,29.66929,,,TRUE,TRUE,,,,,,,FEW,500,SCT,2200,BKN,3800,,,VFR,,,,,,,,,,,,SPECI,16.0
K6S2 220855Z AUTO 32009G21KT 8SM FEW006 SCT022 BKN037 04/02 A2968 RMK AO2 LTG DSNT S,K6S2,2023-02-22T08:55:00Z,43.98,-124.12,4.0,2.0,320,9,21,8.0,29.681103,,,TRUE,TRUE,,,,,,,FEW,600,SCT,2200,BKN,3700,,,VFR,,,,,,,,,,,,METAR,16.0
K6S2 220835Z AUTO 33011G22KT 9SM BKN022 BKN037 OVC070 04/03 A2969 RMK AO2,K6S2,2023-02-22T08:35:00Z,43.98,-124.12,4.0,3.0,330,11,22,9.0,29.68996,,,TRUE,TRUE,,,,,,,BKN,2200,BKN,3700,OVC,7000,,,MVFR,,,,,,,,,,,,METAR,16.0
K6S2 220815Z AUTO 33015G27KT 9SM SCT021 BKN044 OVC070 05/03 A2969 RMK AO2,K6S2,2023-02-22T08:15:00Z,43.98,-124.12,5.0,3.0,330,15,27,9.0,29.68996,,,TRUE,TRUE,,,,,,,SCT,2100,BKN,4400,OVC,7000,,,VFR,,,,,,,,,,,,SPECI,16.0
K6S2 220755Z AUTO 32016G23KT 9SM BKN021 BKN029 OVC048 04/03 A2969 RMK AO2,K6S2,2023-02-22T07:55:00Z,43.98,-124.12,4.0,3.0,320,16,23,9.0,29.68996,,,TRUE,TRUE,,,,,,,BKN,2100,BKN,2900,OVC,4800,,,MVFR,,,,,,,,,,,,METAR,16.0
K6S2 220735Z AUTO VRB06G14KT 10SM SCT032 BKN044 OVC070 04/03 A2969 RMK AO2,K6S2,2023-02-22T07:35:00Z,43.98,-124.12,4.0,3.0,0,6,14,10.0,29.68996,,,TRUE,TRUE,,,,,,,SCT,3200,BKN,4400,OVC,7000,,,VFR,,,,,,,,,,,,METAR,16.0
K6S2 220715Z AUTO 33009KT 300V360 10SM SCT033 BKN049 OVC065 03/03 A2968 RMK AO2,K6S2,2023-02-22T07:15:00Z,43.98,-124.12,3.0,3.0,330,9,,10.0,29.681103,,,TRUE,TRUE,,,,,,,SCT,3300,BKN,4900,OVC,6500,,,VFR,,,,,,,,,,,,SPECI,16.0
K6S2 220655Z AUTO 35006G14KT 10SM SCT010 BKN065 OVC110 03/03 A2969 RMK AO2 P0001,K6S2,2023-02-22T06:55:00Z,43.98,-124.12,3.0,3.0,350,6,14,10.0,29.68996,,,TRUE,TRUE,,,,,,,SCT,1000,BKN,6500,OVC,11000,,,VFR,,,,,,0.01,,,,,,METAR,16.0
K6S2 220635Z AUTO 34017G30KT 6SM -RA BR SCT011 BKN031 OVC060 04/03 A2970 RMK AO2,K6S2,2023-02-22T06:35:00Z,43.98,-124.12,4.0,3.0,340,17,30,6.0,29.698818,,,TRUE,TRUE,,,,,,-RA BR,SCT,1100,BKN,3100,OVC,6000,,,VFR,,,,,,,,,,,,METAR,16.0
K6S2 220615Z AUTO 33010G19KT 9SM SCT028 BKN036 OVC070 05/03 A2969 RMK AO2,K6S2,2023-02-22T06:15:00Z,43.98,-124.12,5.0,3.0,330,10,19,9.0,29.68996,,,TRUE,TRUE,,,,,,,SCT,2800,BKN,3600,OVC,7000,,,VFR,,,,,,,,,,,,SPECI,16.0
K6S2 220555Z AUTO 33010G16KT 9SM VCTS FEW007 SCT016 BKN038 04/04 A2969 RMK AO2 P0001,K6S2,2023-02-22T05:55:00Z,43.98,-124.12,4.0,4.0,330,10,16,9.0,29.68996,,,TRUE,TRUE,,,,,,VCTS,FEW,700,SCT,1600,BKN,3800,,,VFR,,,,,,0.01,,,,,,METAR,16.0
K6S2 220535Z AUTO 33017G24KT 3SM -RA BR FEW003 SCT011 BKN021 04/04 A2971 RMK AO2,K6S2,2023-02-22T05:35:00Z,43.98,-124.12,4.0,4.0,330,17,24,3.0,29.71063,,,TRUE,TRUE,,,,,,-RA BR,FEW,300,SCT,1100,BKN,2100,,,MVFR,,,,,,,,,,,,METAR,16.0
K6S2 220515Z AUTO 35015G24KT 10SM FEW013 BKN030 OVC050 05/03 A2971 RMK AO2,K6S2,2023-02-22T05:15:00Z,43.98,-124.12,5.0,3.0,350,15,24,10.0,29.71063,,,TRUE,TRUE,,,,,,,FEW,1300,BKN,3000,OVC,5000,,,MVFR,,,,,,,,,,,,SPECI,16.0
K6S2 220455Z AUTO 34009G22KT 10SM SCT016 BKN023 OVC036 04/04 A2971 RMK AO2 P0004,K6S2,2023-02-22T04:55:00Z,43.98,-124.12,4.0,4.0,340,9,22,10.0,29.71063,,,TRUE,TRUE,,,,,,,SCT,1600,BKN,2300,OVC,3600,,,MVFR,,,,,,0.04,,,,,,METAR,16.0
K6S2 220435Z AUTO 34014G20KT 6SM -RA BR FEW015 BKN024 OVC035 04/04 A2972 RMK AO2,K6S2,2023-02-22T04:35:00Z,43.98,-124.12,4.0,4.0,340,14,20,6.0,29.719488,,,TRUE,TRUE,,,,,,-RA BR,FEW,1500,BKN,2400,OVC,3500,,,MVFR,,,,,,,,,,,,SPECI,16.0
K6S2 220415Z AUTO 34015G21KT 5SM RA BR BKN026 BKN047 OVC070 05/04 A2972 RMK AO2 LTG DSNT S,K6S2,2023-02-22T04:15:00Z,43.98,-124.12,5.0,4.0,340,15,21,5.0,29.719488,,,TRUE,TRUE,,,,,,RA BR,BKN,2600,BKN,4700,OVC,7000,,,MVFR,,,,,,,,,,,,METAR,16.0
K6S2 220355Z AUTO 34015G22KT 7SM -RA FEW022 BKN036 OVC070 06/05 A2972 RMK AO2,K6S2,2023-02-22T03:55:00Z,43.98,-124.12,6.0,5.0,340,15,22,7.0,29.719488,,,TRUE,TRUE,,,,,,-RA,FEW,2200,BKN,3600,OVC,7000,,,VFR,,,,,,,,,,,,METAR,16.0
K6S2 220335Z AUTO 33016G26KT 8SM BKN037 BKN044 OVC070 07/02 A2971 RMK AO2,K6S2,2023-02-22T03:35:00Z,43.98,-124.12,7.0,2.0,330,16,26,8.0,29.71063,,,TRUE,TRUE,,,,,,,BKN,3700,BKN,4400,OVC,7000,,,VFR,,,,,,,,,,,,METAR,16.0
K6S2 220315Z AUTO 31011KT 8SM SCT035 SCT060 OVC075 06/03 A2972 RMK AO2,K6S2,2023-02-22T03:15:00Z,43.98,-124.12,6.0,3.0,310,11,,8.0,29.719488,,,TRUE,TRUE,,,,,,,SCT,3500,SCT,6000,OVC,7500,,,VFR,,,,,,,,,,,,SPECI,16.0
K6S2 220255Z AUTO 32010G21KT 9SM -RA SCT022 BKN035 OVC070 06/03 A2973 RMK AO2,K6S2,2023-02-22T02:55:00Z,43.98,-124.12,6.0,3.0,320,10,21,9.0,29.731298,,,TRUE,TRUE,,,,,,-RA,SCT,2200,BKN,3500,OVC,7000,,,VFR,,,,,,,,,,,,METAR,16.0
K6S2 220235Z AUTO 34016G22KT 310V010 7SM BKN030 BKN049 OVC070 06/04 A2974 RMK AO2,K6S2,2023-02-22T02:35:00Z,43.98,-124.12,6.0,4.0,340,16,22,7.0,29.740158,,,TRUE,TRUE,,,,,,,BKN,3000,BKN,4900,OVC,7000,,,MVFR,,,,,,,,,,,,METAR,16.0
K6S2 220215Z AUTO 31011G21KT 9SM -RA FEW003 SCT024 BKN038 06/03 A2974 RMK AO2,K6S2,2023-02-22T02:15:00Z,43.98,-124.12,6.0,3.0,310,11,21,9.0,29.740158,,,TRUE,TRUE,,,,,,-RA,FEW,300,SCT,2400,BKN,3800,,,VFR,,,,,,,,,,,,METAR,16.0
K6S2 220155Z AUTO 32015G29KT 10SM SCT024 BKN031 OVC120 06/03 A2975 RMK AO2,K6S2,2023-02-22T01:55:00Z,43.98,-124.12,6.0,3.0,320,15,29,10.0,29.749016,,,TRUE,TRUE,,,,,,,SCT,2400,BKN,3100,OVC,12000,,,VFR,,,,,,,,,,,,METAR,16.0
K6S2 220135Z AUTO 32015G23KT 9SM SCT025 BKN031 OVC100 07/04 A2975 RMK AO2,K6S2,2023-02-22T01:35:00Z,43.98,-124.12,7.0,4.0,320,15,23,9.0,29.749016,,,TRUE,TRUE,,,,,,,SCT,2500,BKN,3100,OVC,10000,,,VFR,,,,,,,,,,,,SPECI,16.0
K6S2 220115Z AUTO 32014G23KT 9SM FEW048 BKN075 OVC110 07/03 A2975 RMK AO2,K6S2,2023-02-22T01:15:00Z,43.98,-124.12,7.0,3.0,320,14,23,9.0,29.749016,,,TRUE,TRUE,,,,,,,FEW,4800,BKN,7500,OVC,11000,,,VFR,,,,,,,,,,,,METAR,16.0
K6S2 220055Z AUTO 32014G24KT 8SM BKN032 BKN045 BKN050 07/04 A2976 RMK AO2,K6S2,2023-02-22T00:55:00Z,43.98,-124.12,7.0,4.0,320,14,24,8.0,29.760826,,,TRUE,TRUE,,,,,,,BKN,3200,BKN,4500,BKN,5000,,,VFR,,,,,,,,,,,,METAR,16.0
K6S2 220035Z AUTO 32014G21KT 8SM SCT032 BKN038 BKN055 07/03 A2977 RMK AO2,K6S2,2023-02-22T00:35:00Z,43.98,-124.12,7.0,3.0,320,14,21,8.0,29.769686,,,TRUE,TRUE,,,,,,,SCT,3200,BKN,3800,BKN,5500,,,VFR,,,,,,,,,,,,METAR,16.0
K6S2 220015Z AUTO 32016G24KT 10SM FEW035 FEW050 SCT080 07/03 A2977 RMK AO2,K6S2,2023-02-22T00:15:00Z,43.98,-124.12,7.0,3.0,320,16,24,10.0,29.769686,,,TRUE,TRUE,,,,,,,FEW,3500,FEW,5000,SCT,8000,,,VFR,,,,,,,,,,,,SPECI,16.0
K6S2 212355Z AUTO 33014G24KT 8SM FEW032 SCT065 BKN080 07/04 A2977 RMK AO2,K6S2,2023-02-21T23:55:00Z,43.98,-124.12,7.0,4.0,330,14,24,8.0,29.769686,,,TRUE,TRUE,,,,,,,FEW,3200,SCT,6500,BKN,8000,,,VFR,,,,,,,,,,,,METAR,16.0
K6S2 212335Z AUTO 33015G23KT 6SM HZ FEW031 FEW045 FEW085 08/04 A2977 RMK AO2,K6S2,2023-02-21T23:35:00Z,43.98,-124.12,8.0,4.0,330,15,23,6.0,29.769686,,,TRUE,TRUE,,,,,,HZ,FEW,3100,FEW,4500,FEW,8500,,,VFR,,,,,,,,,,,,METAR,16.0
K6S2 212315Z AUTO 33017G22KT 8SM SCT037 SCT044 SCT085 07/03 A2979 RMK AO2,K6S2,2023-02-21T23:15:00Z,43.98,-124.12,7.0,3.0,330,17,22,8.0,29.790354,,,TRUE,TRUE,,,,,,,SCT,3700,SCT,4400,SCT,8500,,,VFR,,,,,,,,,,,,METAR,16.0
K6S2 212255Z AUTO 33015G20KT 6SM -RA HZ FEW028 SCT038 BKN055 07/04 A2979 RMK AO2 P0003,K6S2,2023-02-21T22:55:00Z,43.98,-124.12,7.0,4.0,330,15,20,6.0,29.790354,,,TRUE,TRUE,,,,,,-RA HZ,FEW,2800,SCT,3800,BKN,5500,,,VFR,,,,,,0.03,,,,,,METAR,16.0
K6S2 212235Z AUTO 35009G32KT 4SM -RA BR FEW019 SCT031 BKN055 05/03 A2980 RMK AO2,K6S2,2023-02-21T22:35:00Z,43.98,-124.12,5.0,3.0,350,9,32,4.0,29.799213,,,TRUE,TRUE,,,,,,-RA BR,FEW,1900,SCT,3100,BKN,5500,,,MVFR,,,,,,,,,,,,SPECI,16.0
K6S2 212215Z AUTO 35009G20KT 2 1/2SM -RA BR FEW021 SCT032 05/05 A2981 RMK AO2 VIS 1 1/4V5,K6S2,2023-02-21T22:15:00Z,43.98,-124.12,5.0,5.0,350,9,20,2.5,29.811024,,,TRUE,TRUE,,,,,,-RA BR,FEW,2100,SCT,3200,,,,,IFR,,,,,,,,,,,,METAR,16.0
K6S2 212155Z AUTO 29007KT 10SM FEW031 06/06 A2980 RMK AO2 P0001,K6S2,2023-02-21T21:55:00Z,43.98,-124.12,6.0,6.0,290,7,,10.0,29.799213,,,TRUE,TRUE,,,,,,,FEW,3100,,,,,,,VFR,,,,,,0.01,,,,,,METAR,16.0
K6S2 212135Z AUTO 32007KT 280V340 8SM FEW016 SCT021 SCT028 05/05 A2982 RMK AO2,K6S2,2023-02-21T21:35:00Z,43.98,-124.12,5.0,5.0,320,7,,8.0,29.819881,,,TRUE,TRUE,,,,,,,FEW,1600,SCT,2100,SCT,2800,,,VFR,,,,,,,,,,,,METAR,16.0
K6S2 212115Z AUTO 31010G21KT 7SM -RA SCT015 BKN021 05/05 A2984 RMK AO2,K6S2,2023-02-21T21:15:00Z,43.98,-124.12,5.0,5.0,310,10,21,7.0,29.840551,,,TRUE,TRUE,,,,,,-RA,SCT,1500,BKN,2100,,,,,MVFR,,,,,,,,,,,,SPECI,16.0
K6S2 212055Z AUTO 32018G25KT 2 1/2SM -RA BR SCT017 SCT029 SCT038 05/05 A2986 RMK AO2 P0002,K6S2,2023-02-21T20:55:00Z,43.98,-124.12,5.0,5.0,320,18,25,2.5,29.861221,,,TRUE,TRUE,,,,,,-RA BR,SCT,1700,SCT,2900,SCT,3800,,,IFR,,,,,,0.02,,,,,,METAR,16.0
K6S2 212035Z AUTO 34018G26KT 9SM SCT018 BKN038 OVC065 06/06 A2986 RMK AO2,K6S2,2023-02-21T20:35:00Z,43.98,-124.12,6.0,6.0,340,18,26,9.0,29.861221,,,TRUE,TRUE,,,,,,,SCT,1800,BKN,3800,OVC,6500,,,VFR,,,,,,,,,,,,METAR,16.0
K6S2 212015Z AUTO 32011G17KT 6SM -RA BR SCT017 BKN023 BKN032 05/05 A2987 RMK AO2,K6S2,2023-02-21T20:15:00Z,43.98,-124.12,5.0,5.0,320,11,17,6.0,29.870079,,,TRUE,TRUE,,,,,,-RA BR,SCT,1700,BKN,2300,BKN,3200,,,MVFR,,,,,,,,,,,,METAR,16.0
K6S2 211955Z AUTO 33013G29KT 7SM -RA FEW015 SCT022 BKN039 05/05 A2987 RMK AO2 P0007,K6S2,2023-02-21T19:55:00Z,43.98,-124.12,5.0,5.0,330,13,29,7.0,29.870079,,,TRUE,TRUE,,,,,,-RA,FEW,1500,SCT,2200,BKN,3900,,,VFR,,,,,,0.07,,,,,,METAR,16.0
K6S2 211935Z AUTO 33012G25KT 3SM -RA BR FEW015 FEW019 SCT028 05/04 A2988 RMK AO2,K6S2,2023-02-21T19:35:00Z,43.98,-124.12,5.0,4.0,330,12,25,3.0,29.878937,,,TRUE,TRUE,,,,,,-RA BR,FEW,1500,FEW,1900,SCT,2800,,,MVFR,,,,,,,,,,,,SPECI,16.0
K6S2 211915Z AUTO 32009G15KT 6SM BR FEW018 BKN029 BKN038 07/05 A2988 RMK AO2,K6S2,2023-02-21T19:15:00Z,43.98,-124.12,7.0,5.0,320,9,15,6.0,29.878937,,,TRUE,TRUE,,,,,,BR,FEW,1800,BKN,2900,BKN,3800,,,MVFR,,,,,,,,,,,,METAR,16.0
K6S2 211855Z AUTO 31007G14KT 7SM -RA FEW021 SCT033 BKN045 05/04 A2988 RMK AO2,K6S2,2023-02-21T18:55:00Z,43.98,-124.12,5.0,4.0,310,7,14,7.0,29.878937,,,TRUE,TRUE,,,,,,-RA,FEW,2100,SCT,3300,BKN,4500,,,VFR,,,,,,,,,,,,SPECI,16.0
K6S2 211835Z AUTO 32013G19KT 280V340 10SM FEW022 BKN031 OVC070 07/05 A2989 RMK AO2,K6S2,2023-02-21T18:35:00Z,43.98,-124.12,7.0,5.0,320,13,19,10.0,29.890747,,,TRUE,TRUE,,,,,,,FEW,2200,BKN,3100,OVC,7000,,,VFR,,,,,,,,,,,,METAR,16.0
K6S2 211815Z AUTO 32013KT 10SM FEW021 SCT028 BKN070 06/05 A2990 RMK AO2,K6S2,2023-02-21T18:15:00Z,43.98,-124.12,6.0,5.0,320,13,,10.0,29.899607,,,TRUE,TRUE,,,,,,,FEW,2100,SCT,2800,BKN,7000,,,VFR,,,,,,,,,,,,SPECI,16.0
K6S2 211755Z AUTO 30016G24KT 6SM -RA BR FEW022 BKN028 BKN039 06/04 A2990 RMK AO2,K6S2,2023-02-21T17:55:00Z,43.98,-124.12,6.0,4.0,300,16,24,6.0,29.899607,,,TRUE,TRUE,,,,,,-RA BR,FEW,2200,BKN,2800,BKN,3900,,,MVFR,,,,,,,,,,,,SPECI,16.0
K6S2 211735Z AUTO 31013G18KT 280V340 10SM BKN028 BKN035 BKN044 08/04 A2990 RMK AO2,K6S2,2023-02-21T17:35:00Z,43.98,-124.12,8.0,4.0,310,13,18,10.0,29.899607,,,TRUE,TRUE,,,,,,,BKN,2800,BKN,3500,BKN,4400,,,MVFR,,,,,,,,,,,,SPECI,16.0
K6S2 211715Z AUTO 30015G21KT 10SM SCT024 SCT031 BKN100 08/04 A2991 RMK AO2,K6S2,2023-02-21T17:15:00Z,43.98,-124.12,8.0,4.0,300,15,21,10.0,29.911417,,,TRUE,TRUE,,,,,,,SCT,2400,SCT,3100,BKN,10000,,,VFR,,,,,,,,,,,,METAR,16.0
K6S2 211655Z AUTO 32008G15KT 290V360 7SM -RA SCT025 BKN036 OVC055 07/05 A2992 RMK AO2,K6S2,2023-02-21T16:55:00Z,43.98,-124.12,7.0,5.0,320,8,15,7.0,29.920275,,,TRUE,TRUE,,,,,,-RA,SCT,2500,BKN,3600,OVC,5500,,,VFR,,,,,,,,,,,,METAR,16.0
K6S2 211635Z AUTO 32012G20KT 9SM OVC038 08/03 A2993 RMK AO2,K6S2,2023-02-21T16:35:00Z,43.98,-124.12,8.0,3.0,320,12,20,9.0,29.929134,,,TRUE,TRUE,,,,,,,OVC,3800,,,,,,,VFR,,,,,,,,,,,,SPECI,16.0
K6S2 211615Z AUTO 35009KT 300V360 9SM SCT032 BKN041 OVC050 07/05 A2993 RMK AO2,K6S2,2023-02-21T16:15:00Z,43.98,-124.12,7.0,5.0,350,9,,9.0,29.929134,,,TRUE,TRUE,,,,,,,SCT,3200,BKN,4100,OVC,5000,,,VFR,,,,,,,,,,,,METAR,16.0
K6S2 211555Z AUTO 32012G18KT 10SM SCT029 BKN045 BKN090 07/03 A2994 RMK AO2,K6S2,2023-02-21T15:55:00Z,43.98,-124.12,7.0,3.0,320,12,18,10.0,29.940945,,,TRUE,TRUE,,,,,,,SCT,2900,BKN,4500,BKN,9000,,,VFR,,,,,,,,,,,,METAR,16.0
K6S2 211535Z AUTO 32012G19KT 10SM FEW055 SCT070 BKN085 07/04 A2995 RMK AO2,K6S2,2023-02-21T15:35:00Z,43.98,-124.12,7.0,4.0,320,12,19,10.0,29.949802,,,TRUE,TRUE,,,,,,,FEW,5500,SCT,7000,BKN,8500,,,VFR,,,,,,,,,,,,SPECI,16.0
K6S2 211515Z AUTO 32009G20KT 9SM -RA SCT026 BKN045 OVC065 06/04 A2995 RMK AO2,K6S2,2023-02-21T15:15:00Z,43.98,-124.12,6.0,4.0,320,9,20,9.0,29.949802,,,TRUE,TRUE,,,,,,-RA,SCT,2600,BKN,4500,OVC,6500,,,VFR,,,,,,,,,,,,METAR,16.0
K6S2 211455Z AUTO 31007G12KT 9SM -RA FEW004 SCT021 BKN028 06/05 A2996 RMK AO2 P0003,K6S2,2023-02-21T14:55:00Z,43.98,-124.12,6.0,5.0,310,7,12,9.0,29.958662,,,TRUE,TRUE,,,,,,-RA,FEW,400,SCT,2100,BKN,2800,,,MVFR,,,,,,0.03,,,,,,METAR,16.0
K6S2 211435Z AUTO 31014G23KT 3SM -RA BR FEW010 BKN020 OVC070 05/05 A2998 RMK AO2 LTG DSNT N,K6S2,2023-02-21T14:35:00Z,43.98,-124.12,5.0,5.0,310,14,23,3.0,29.97933,,,TRUE,TRUE,,,,,,-RA BR,FEW,1000,BKN,2000,OVC,7000,,,MVFR,,,,,,,,,,,,SPECI,16.0
K6S2 211415Z AUTO 29007G13KT 9SM -RA SCT027 BKN044 OVC070 06/05 A2997 RMK AO2,K6S2,2023-02-21T14:15:00Z,43.98,-124.12,6.0,5.0,290,7,13,9.0,29.970472,,,TRUE,TRUE,,,,,,-RA,SCT,2700,BKN,4400,OVC,7000,,,VFR,,,,,,,,,,,,METAR,16.0
K6S2 211355Z AUTO 29009G15KT 10SM SCT026 BKN044 OVC060 07/05 A2999 RMK AO2 P0001,K6S2,2023-02-21T13:55:00Z,43.98,-124.12,7.0,5.0,290,9,15,10.0,29.991142,,,TRUE,TRUE,,,,,,,SCT,2600,BKN,4400,OVC,6000,,,VFR,,,,,,0.01,,,,,,METAR,16.0
K6S2 211335Z AUTO 32010KT 10SM FEW022 SCT028 BKN035 07/06 A2999 RMK AO2,K6S2,2023-02-21T13:35:00Z,43.98,-124.12,7.0,6.0,320,10,,10.0,29.991142,,,TRUE,TRUE,,,,,,,FEW,2200,SCT,2800,BKN,3500,,,VFR,,,,,,,,,,,,METAR,16.0
K6S2 211315Z AUTO 33010G17KT 10SM FEW015 SCT027 BKN035 06/05 A3001 RMK AO2,K6S2,2023-02-21T13:15:00Z,43.98,-124.12,6.0,5.0,330,10,17,10.0,30.008858,,,TRUE,TRUE,,,,,,,FEW,1500,SCT,2700,BKN,3500,,,VFR,,,,,,,,,,,,SPECI,16.0
K6S2 211255Z AUTO 32017G22KT 6SM -RA BR FEW018 BKN027 OVC035 07/05 A3002 RMK AO2,K6S2,2023-02-21T12:55:00Z,43.98,-124.12,7.0,5.0,320,17,22,6.0,30.02067,,,TRUE,TRUE,,,,,,-RA BR,FEW,1800,BKN,2700,OVC,3500,,,MVFR,,,,,,,,,,,,METAR,16.0
K6S2 211235Z AUTO 32011G23KT 8SM -RA FEW020 BKN028 OVC045 07/05 A3002 RMK AO2,K6S2,2023-02-21T12:35:00Z,43.98,-124.12,7.0,5.0,320,11,23,8.0,30.02067,,,TRUE,TRUE,,,,,,-RA,FEW,2000,BKN,2800,OVC,4500,,,MVFR,,,,,,,,,,,,SPECI,16.0
K6S2 211215Z AUTO 31006G14KT 8SM -RA FEW027 BKN036 OVC055 07/04 A3003 RMK AO2,K6S2,2023-02-21T12:15:00Z,43.98,-124.12,7.0,4.0,310,6,14,8.0,30.029528,,,TRUE,TRUE,,,,,,-RA,FEW,2700,BKN,3600,OVC,5500,,,VFR,,,,,,,,,,,,SPECI,16.0
K6S2 211155Z AUTO 32015G20KT 10SM FEW026 SCT035 OVC055 08/06 A3004 RMK AO2,K6S2,2023-02-21T11:55:00Z,43.98,-124.12,8.0,6.0,320,15,20,10.0,30.041338,,,TRUE,TRUE,,,,,,,FEW,2600,SCT,3500,OVC,5500,,,VFR,,,,,,,,,,,,METAR,16.0
K6S2 211135Z AUTO 34010G16KT 10SM FEW029 SCT037 BKN044 07/06 A3005 RMK AO2,K6S2,2023-02-21T11:35:00Z,43.98,-124.12,7.0,6.0,340,10,16,10.0,30.050198,,,TRUE,TRUE,,,,,,,FEW,2900,SCT,3700,BKN,4400,,,VFR,,,,,,,,,,,,METAR,16.0
K6S2 211115Z AUTO 31014G20KT 9SM SCT037 BKN043 OVC048 08/06 A3005 RMK AO2,K6S2,2023-02-21T11:15:00Z,43.98,-124.12,8.0,6.0,310,14,20,9.0,30.050198,,,TRUE,TRUE,,,,,,,SCT,3700,BKN,4300,OVC,4800,,,VFR,,,,,,,,,,,,SPECI,16.0
K6S2 211055Z AUTO 33013G18KT 9SM FEW023 BKN036 OVC041 08/06 A3005 RMK AO2,K6S2,2023-02-21T10:55:00Z,43.98,-124.12,8.0,6.0,330,13,18,9.0,30.050198,,,TRUE,TRUE,,,,,,,FEW,2300,BKN,3600,OVC,4100,,,VFR,,,,,,,,,,,,METAR,16.0
K6S2 211035Z AUTO 32012KT 8SM SCT023 OVC038 09/07 A3006 RMK AO2,K6S2,2023-02-21T10:35:00Z,43.98,-124.12,9.0,7.0,320,12,,8.0,30.059055,,,TRUE,TRUE,,,,,,,SCT,2300,OVC,3800,,,,,VFR,,,,,,,,,,,,METAR,16.0
K6S2 211015Z AUTO 33012KT 9SM FEW021 SCT026 OVC037 08/07 A3006 RMK AO2,K6S2,2023-02-21T10:15:00Z,43.98,-124.12,8.0,7.0,330,12,,9.0,30.059055,,,TRUE,TRUE,,,,,,,FEW,2100,SCT,2600,OVC,3700,,,VFR,,,,,,,,,,,,METAR,16.0
K6S2 210955Z AUTO 32011G18KT 8SM SCT015 OVC022 08/08 A3006 RMK AO2,K6S2,2023-02-21T09:55:00Z,43.98,-124.12,8.0,8.0,320,11,18,8.0,30.059055,,,TRUE,TRUE,,,,,,,SCT,1500,OVC,2200,,,,,MVFR,,,,,,,,,,,,METAR,16.0
K6S2 210935Z AUTO 32010KT 4SM UP BR BKN012 OVC016 08/08 A3006 RMK AO2,K6S2,2023-02-21T09:35:00Z,43.98,-124.12,8.0,8.0,320,10,,4.0,30.059055,,,TRUE,TRUE,,,,,,BR UP,BKN,1200,OVC,1600,,,,,MVFR,,,,,,,,,,,,METAR,16.0
K6S2 210915Z AUTO 33009KT 9SM FEW005 BKN011 OVC022 09/09 A3007 RMK AO2,K6S2,2023-02-21T09:15:00Z,43.98,-124.12,9.0,9.0,330,9,,9.0,30.070866,,,TRUE,TRUE,,,,,,,FEW,500,BKN,1100,OVC,2200,,,MVFR,,,,,,,,,,,,METAR,16.0
K6S2 210855Z AUTO 33010G17KT 7SM SCT004 BKN009 OVC022 08/08 A3008 RMK AO2 P0001,K6S2,2023-02-21T08:55:00Z,43.98,-124.12,8.0,8.0,330,10,17,7.0,30.079725,,,TRUE,TRUE,,,,,,,SCT,400,BKN,900,OVC,2200,,,IFR,,,,,,0.01,,,,,,METAR,16.0
K6S2 210835Z AUTO 31007G14KT 8SM BKN003 BKN008 OVC014 09/09 A3007 RMK AO2,K6S2,2023-02-21T08:35:00Z,43.98,-124.12,9.0,9.0,310,7,14,8.0,30.070866,,,TRUE,TRUE,,,,,,,BKN,300,BKN,800,OVC,1400,,,LIFR,,,,,,,,,,,,METAR,16.0
K6S2 210815Z AUTO VRB07KT 2SM -RA BR BKN004 OVC008 09/09 A3007 RMK AO2,K6S2,2023-02-21T08:15:00Z,43.98,-124.12,9.0,9.0,0,7,,2.0,30.070866,,,TRUE,TRUE,,,,,,-RA BR,BKN,400,OVC,800,,,,,LIFR,,,,,,,,,,,,METAR,16.0
K6S2 210755Z AUTO 29007KT 6SM UP BR OVC005 09/09 A3009 RMK AO2 P0002,K6S2,2023-02-21T07:55:00Z,43.98,-124.12,9.0,9.0,290,7,,6.0,30.088583,,,TRUE,TRUE,,,,,,BR UP,OVC,500,,,,,,,IFR,,,,,,0.02,,,,,,METAR,16.0
K6S2 210735Z AUTO 27007G13KT 3SM UP BR OVC002 09/09 A3009 RMK AO2,K6S2,2023-02-21T07:35:00Z,43.98,-124.12,9.0,9.0,270,7,13,3.0,30.088583,,,TRUE,TRUE,,,,,,BR UP,OVC,200,,,,,,,LIFR,,,,,,,,,,,,SPECI,16.0
K6S2 210715Z AUTO 27007KT 240V300 1 3/4SM UP BR OVC002 09/09 A3009 RMK AO2 VIS 1V4,K6S2,2023-02-21T07:15:00Z,43.98,-124.12,9.0,9.0,270,7,,1.75,30.088583,,,TRUE,TRUE,,,,,,BR UP,OVC,200,,,,,,,LIFR,,,,,,,,,,,,METAR,16.0
K6S2 210655Z AUTO 24007G13KT 210V280 1 1/2SM UP BR OVC002 09/09 A3011 RMK AO2 P0001,K6S2,2023-02-21T06:55:00Z,43.98,-124.12,9.0,9.0,240,7,13,1.5,30.109253,,,TRUE,TRUE,,,,,,BR UP,OVC,200,,,,,,,LIFR,,,,,,0.01,,,,,,METAR,16.0
K6S2 210635Z AUTO VRB06KT 1SM UP BR OVC002 09/09 A3011 RMK AO2,K6S2,2023-02-21T06:35:00Z,43.98,-124.12,9.0,9.0,0,6,,1.0,30.109253,,,TRUE,TRUE,,,,,,BR UP,OVC,200,,,,,,,LIFR,,,,,,,,,,,,SPECI,16.0
K6S2 210615Z AUTO 22007G14KT 2SM UP BR OVC002 09/09 A3010 RMK AO2,K6S2,2023-02-21T06:15:00Z,43.98,-124.12,9.0,9.0,220,7,14,2.0,30.100393,,,TRUE,TRUE,,,,,,BR UP,OVC,200,,,,,,,LIFR,,,,,,,,,,,,SPECI,16.0
K6S2 210555Z AUTO 21008KT 2SM UP BR OVC002 09/09 A3011 RMK AO2 P0002,K6S2,2023-02-21T05:55:00Z,43.98,-124.12,9.0,9.0,210,8,,2.0,30.109253,,,TRUE,TRUE,,,,,,BR UP,OVC,200,,,,,,,LIFR,,,,,,0.02,,,,,,SPECI,16.0
K6S2 210535Z AUTO VRB06KT 180V240 2 1/2SM UP BR OVC003 09/09 A3014 RMK AO2,K6S2,2023-02-21T05:35:00Z,43.98,-124.12,9.0,9.0,0,6,,2.5,30.138779,,,TRUE,TRUE,,,,,,BR UP,OVC,300,,,,,,,LIFR,,,,,,,,,,,,SPECI,16.0
K6S2 210515Z AUTO VRB05G10KT 2SM UP BR OVC003 09/09 A3015 RMK AO2,K6S2,2023-02-21T05:15:00Z,43.98,-124.12,9.0,9.0,0,5,10,2.0,30.15059,,,TRUE,TRUE,,,,,,BR UP,OVC,300,,,,,,,LIFR,,,,,,,,,,,,METAR,16.0
K6S2 210455Z AUTO 25007KT 220V290 2SM UP BR OVC003 09/09 A3017 RMK AO2 P0003,K6S2,2023-02-21T04:55:00Z,43.98,-124.12,9.0,9.0,250,7,,2.0,30.171259,,,TRUE,TRUE,,,,,,BR UP,OVC,300,,,,,,,LIFR,,,,,,0.03,,,,,,METAR,16.0
K6S2 210435Z AUTO 26008KT 1 3/4SM -RA BR BKN004 OVC008 09/09 A3017 RMK AO2,K6S2,2023-02-21T04:35:00Z,43.98,-124.12,9.0,9.0,260,8,,1.75,30.171259,,,TRUE,TRUE,,,,,,-RA BR,BKN,400,OVC,800,,,,,LIFR,,,,,,,,,,,,METAR,16.0
K6S2 210415Z AUTO VRB05KT 5SM UP BR SCT003 OVC011 09/09 A3017 RMK AO2,K6S2,2023-02-21T04:15:00Z,43.98,-124.12,9.0,9.0,0,5,,5.0,30.171259,,,TRUE,TRUE,,,,,,BR UP,SCT,300,OVC,1100,,,,,MVFR,,,,,,,,,,,,METAR,16.0
K6S2 210355Z AUTO 21007KT 180V260 1 1/4SM UP BR OVC003 08/08 A3017 RMK AO2,K6S2,2023-02-21T03:55:00Z,43.98,-124.12,8.0,8.0,210,7,,1.25,30.171259,,,TRUE,TRUE,,,,,,BR UP,OVC,300,,,,,,,LIFR,,,,,,,,,,,,METAR,16.0
K6S2 210335Z AUTO 20006KT 2SM UP BR OVC004 08/08 A3018 RMK AO2,K6S2,2023-02-21T03:35:00Z,43.98,-124.12,8.0,8.0,200,6,,2.0,30.180119,,,TRUE,TRUE,,,,,,BR UP,OVC,400,,,,,,,LIFR,,,,,,,,,,,,METAR,16.0
K6S2 210315Z AUTO 20005KT 3SM BR OVC004 08/08 A3019 RMK AO2,K6S2,2023-02-21T03:15:00Z,43.98,-124.12,8.0,8.0,200,5,,3.0,30.188976,,,TRUE,TRUE,,,,,,BR,OVC,400,,,,,,,LIFR,,,,,,,,,,,,METAR,16.0
K6S2 210255Z AUTO VRB06G12KT 4SM BR OVC004 08/08 A3018 RMK AO2,K6S2,2023-02-21T02:55:00Z,43.98,-124.12,8.0,8.0,0,6,12,4.0,30.180119,,,TRUE,TRUE,,,,,,BR,OVC,400,,,,,,,LIFR,,,,,,,,,,,,SPECI,16.0
K6S2 210235Z AUTO 19007KT 3SM BR OVC004 08/08 A3019 RMK AO2,K6S2,2023-02-21T02:35:00Z,43.98,-124.12,8.0,8.0,190,7,,3.0,30.188976,,,TRUE,TRUE,,,,,,BR,OVC,400,,,,,,,LIFR,,,,,,,,,,,,METAR,16.0
K6S2 210215Z AUTO 17004KT 2 1/2SM UP BR SCT004 OVC009 08/08 A3021 RMK AO2,K6S2,2023-02-21T02:15:00Z,43.98,-124.12,8.0,8.0,170,4,,2.5,30.209646,,,TRUE,TRUE,,,,,,BR UP,SCT,400,OVC,900,,,,,IFR,,,,,,,,,,,,METAR,16.0
K6S2 210155Z AUTO VRB05KT 3SM -RA BR BKN008 OVC013 09/09 A3023 RMK AO2,K6S2,2023-02-21T01:55:00Z,43.98,-124.12,9.0,9.0,0,5,,3.0,30.230314,,,TRUE,TRUE,,,,,,-RA BR,BKN,800,OVC,1300,,,,,IFR,,,,,,,,,,,,METAR,16.0
K6S2 210135Z AUTO 20004KT 10SM OVC014 09/08 A3023 RMK AO2,K6S2,2023-02-21T01:35:00Z,43.98,-124.12,9.0,8.0,200,4,,10.0,30.230314,,,TRUE,TRUE,,,,,,,OVC,1400,,,,,,,MVFR,,,,,,,,,,,,METAR,16.0
K6S2 210115Z AUTO 20005KT 10SM OVC016 09/08 A3022 RMK AO2,K6S2,2023-02-21T01:15:00Z,43.98,-124.12,9.0,8.0,200,5,,10.0,30.221457,,,TRUE,TRUE,,,,,,,OVC,1600,,,,,,,MVFR,,,,,,,,,,,,SPECI,16.0
K6S2 210055Z AUTO 22004KT 10SM OVC017 09/08 A3024 RMK AO2,K6S2,2023-02-21T00:55:00Z,43.98,-124.12,9.0,8.0,220,4,,10.0,30.239174,,,TRUE,TRUE,,,,,,,OVC,1700,,,,,,,MVFR,,,,,,,,,,,,METAR,16.0
K6S2 210035Z AUTO VRB04KT 10SM OVC017 09/08 A3025 RMK AO2,K6S2,2023-02-21T00:35:00Z,43.98,-124.12,9.0,8.0,0,4,,10.0,30.250984,,,TRUE,TRUE,,,,,,,OVC,1700,,,,,,,MVFR,,,,,,,,,,,,METAR,16.0
K6S2 210015Z AUTO VRB04KT 10SM OVC014 09/09 A3025 RMK AO2,K6S2,2023-02-21T00:15:00Z,43.98,-124.12,9.0,9.0,0,4,,10.0,30.250984,,,TRUE,TRUE,,,,,,,OVC,1400,,,,,,,MVFR,,,,,,,,,,,,METAR,16.0
K6S2 202355Z AUTO 24004KT 10SM OVC014 09/09 A3027 RMK AO2,K6S2,2023-02-20T23:55:00Z,43.98,-124.12,9.0,9.0,240,4,,10.0,30.268702,,,TRUE,TRUE,,,,,,,OVC,1400,,,,,,,MVFR,,,,,,,,,,,,METAR,16.0
K6S2 202335Z AUTO 21004KT 10SM FEW009 OVC014 09/09 A3026 RMK AO2,K6S2,2023-02-20T23:35:00Z,43.98,-124.12,9.0,9.0,210,4,,10.0,30.259842,,,TRUE,TRUE,,,,,,,FEW,900,OVC,1400,,,,,MVFR,,,,,,,,,,,,SPECI,16.0
K6S2 202315Z AUTO VRB05KT 4SM BR BKN006 OVC011 09/09 A3026 RMK AO2,K6S2,2023-02-20T23:15:00Z,43.98,-124.12,9.0,9.0,0,5,,4.0,30.259842,,,TRUE,TRUE,,,,,,BR,BKN,600,OVC,1100,,,,,IFR,,,,,,,,,,,,SPECI,16.0
K6S2 202255Z AUTO VRB06KT 250V310 10SM OVC008 09/09 A3028 RMK AO2,K6S2,2023-02-20T22:55:00Z,43.98,-124.12,9.0,9.0,0,6,,10.0,30.280512,,,TRUE,TRUE,,,,,,,OVC,800,,,,,,,IFR,,,,,,,,,,,,METAR,16.0
K6S2 202235Z AUTO VRB05KT 10SM OVC009 09/09 A3028 RMK AO2,K6S2,2023-02-20T22:35:00Z,43.98,-124.12,9.0,9.0,0,5,,10.0,30.280512,,,TRUE,TRUE,,,,,,,OVC,900,,,,,,,IFR,,,,,,,,,,,,SPECI,16.0
K6S2 202215Z AUTO VRB05G11KT 10SM SCT011 09/08 A3028 RMK AO2,K6S2,2023-02-20T22:15:00Z,43.98,-124.12,9.0,8.0,0,5,11,10.0,30.280512,,,TRUE,TRUE,,,,,,,SCT,1100,,,,,,,VFR,,,,,,,,,,,,METAR,16.0
K6S2 202155Z AUTO 25008KT 220V280 10SM CLR 10/08 A3028 RMK AO2,K6S2,2023-02-20T21:55:00Z,43.98,-124.12,10.0,8.0,250,8,,10.0,30.280512,,,TRUE,TRUE,,,,,,,CLR,,,,,,,,VFR,,,,,,,,,,,,METAR,16.0
K6S2 202135Z AUTO 23006KT 10SM CLR 10/08 A3029 RMK AO2,K6S2,2023-02-20T21:35:00Z,43.98,-124.12,10.0,8.0,230,6,,10.0,30.28937,,,TRUE,TRUE,,,,,,,CLR,,,,,,,,VFR,,,,,,,,,,,,SPECI,16.0
K6S2 202115Z AUTO 26005KT 10SM CLR 10/08 A3031 RMK AO2,K6S2,2023-02-20T21:15:00Z,43.98,-124.12,10.0,8.0,260,5,,10.0,30.31004,,,TRUE,TRUE,,,,,,,CLR,,,,,,,,VFR,,,,,,,,,,,,SPECI,16.0
K6S2 202055Z AUTO VRB06KT 10SM FEW015 10/08 A3033 RMK AO2,K6S2,2023-02-20T20:55:00Z,43.98,-124.12,10.0,8.0,0,6,,10.0,30.33071,,,TRUE,TRUE,,,,,,,FEW,1500,,,,,,,VFR,,,,,,,,,,,,METAR,16.0
K6S2 202035Z AUTO VRB05KT 10SM BKN014 10/08 A3033 RMK AO2,K6S2,2023-02-20T20:35:00Z,43.98,-124.12,10.0,8.0,0,5,,10.0,30.33071,,,TRUE,TRUE,,,,,,,BKN,1400,,,,,,,MVFR,,,,,,,,,,,,METAR,16.0
K6S2 202015Z AUTO VRB05KT 10SM OVC014 10/08 A3034 RMK AO2,K6S2,2023-02-20T20:15:00Z,43.98,-124.12,10.0,8.0,0,5,,10.0,30.339567,,,TRUE,TRUE,,,,,,,OVC,1400,,,,,,,MVFR,,,,,,,,,,,,METAR,16.0
K6S2 201955Z AUTO 00000KT 10SM OVC013 09/08 A3036 RMK AO2,K6S2,2023-02-20T19:55:00Z,43.98,-124.12,9.0,8.0,0,0,,10.0,30.360237,,,TRUE,TRUE,,,,,,,OVC,1300,,,,,,,MVFR,,,,,,,,,,,,METAR,16.0
K6S2 201935Z AUTO 19006KT 10SM OVC013 09/08 A3036 RMK AO2,K6S2,2023-02-20T19:35:00Z,43.98,-124.12,9.0,8.0,190,6,,10.0,30.360237,,,TRUE,TRUE,,,,,,,OVC,1300,,,,,,,MVFR,,,,,,,,,,,,METAR,16.0
K6S2 201915Z AUTO VRB03KT 10SM OVC011 09/08 A3039 RMK AO2,K6S2,2023-02-20T19:15:00Z,43.98,-124.12,9.0,8.0,0,3,,10.0,30.389763,,,TRUE,TRUE,,,,,,,OVC,1100,,,,,,,MVFR,,,,,,,,,,,,SPECI,16.0
K6S2 201855Z AUTO 00000KT 10SM OVC011 09/08 A3039 RMK AO2,K6S2,2023-02-20T18:55:00Z,43.98,-124.12,9.0,8.0,0,0,,10.0,30.389763,,,TRUE,TRUE,,,,,,,OVC,1100,,,,,,,MVFR,,,,,,,,,,,,METAR,16.0
K6S2 201835Z AUTO 00000KT 10SM OVC011 08/08 A3038 RMK AO2,K6S2,2023-02-20T18:35:00Z,43.98,-124.12,8.0,8.0,0,0,,10.0,30.380905,,,TRUE,TRUE,,,,,,,OVC,1100,,,,,,,MVFR,,,,,,,,,,,,SPECI,16.0
K6S2 201815Z AUTO 11003KT 10SM OVC011 08/08 A3039 RMK AO2,K6S2,2023-02-20T18:15:00Z,43.98,-124.12,8.0,8.0,110,3,,10.0,30.389763,,,TRUE,TRUE,,,,,,,OVC,1100,,,,,,,MVFR,,,,,,,,,,,,METAR,16.0
K6S2 201755Z AUTO 00000KT 10SM BKN007 OVC011 08/08 A3038 RMK AO2,K6S2,2023-02-20T17:55:00Z,43.98,-124.12,8.0,8.0,0,0,,10.0,30.380905,,,TRUE,TRUE,,,,,,,BKN,700,OVC,1100,,,,,IFR,,,,,,,,,,,,METAR,16.0
K6S2 201735Z AUTO 00000KT 9SM OVC006 07/07 A3039 RMK AO2,K6S2,2023-02-20T17:35:00Z,43.98,-124.12,7.0,7.0,0,0,,9.0,30.389763,,,TRUE,TRUE,,,,,,,OVC,600,,,,,,,IFR,,,,,,,,,,,,METAR,16.0
K6S2 201715Z AUTO 00000KT 9SM OVC004 07/07 A3038 RMK AO2,K6S2,2023-02-20T17:15:00Z,43.98,-124.12,7.0,7.0,0,0,,9.0,30.380905,,,TRUE,TRUE,,,,,,,OVC,400,,,,,,,LIFR,,,,,,,,,,,,SPECI,16.0
K6S2 201655Z AUTO 00000KT 10SM OVC005 06/06 A3038 RMK AO2,K6S2,2023-02-20T16:55:00Z,43.98,-124.12,6.0,6.0,0,0,,10.0,30.380905,,,TRUE,TRUE,,,,,,,OVC,500,,,,,,,IFR,,,,,,,,,,,,METAR,16.0
K6S2 201635Z AUTO 00000KT 10SM OVC005 05/05 A3038 RMK AO2,K6S2,2023-02-20T16:35:00Z,43.98,-124.12,5.0,5.0,0,0,,10.0,30.380905,,,TRUE,TRUE,,,,,,,OVC,500,,,,,,,IFR,,,,,,,,,,,,METAR,16.0
K6S2 201615Z AUTO 00000KT 9SM OVC006 05/05 A3039 RMK AO2,K6S2,2023-02-20T16:15:00Z,43.98,-124.12,5.0,5.0,0,0,,9.0,30.389763,,,TRUE,TRUE,,,,,,,OVC,600,,,,,,,IFR,,,,,,,,,,,,METAR,16.0
K6S2 201555Z AUTO 00000KT 6SM BR OVC006 05/05 A3037 RMK AO2,K6S2,2023-02-20T15:55:00Z,43.98,-124.12,5.0,5.0,0,0,,6.0,30.369095,,,TRUE,TRUE,,,,,,BR,OVC,600,,,,,,,IFR,,,,,,,,,,,,METAR,16.0
K6S2 201535Z AUTO 00000KT 9SM OVC006 05/05 A3038 RMK AO2,K6S2,2023-02-20T15:35:00Z,43.98,-124.12,5.0,5.0,0,0,,9.0,30.380905,,,TRUE,TRUE,,,,,,,OVC,600,,,,,,,IFR,,,,,,,,,,,,SPECI,16.0
K6S2 201515Z AUTO 00000KT 10SM OVC008 05/05 A3037 RMK AO2,K6S2,2023-02-20T15:15:00Z,43.98,-124.12,5.0,5.0,0,0,,10.0,30.369095,,,TRUE,TRUE,,,,,,,OVC,800,,,,,,,IFR,,,,,,,,,,,,METAR,16.0
K6S2 201455Z AUTO 00000KT 10SM OVC008 05/05 A3037 RMK AO2,K6S2,2023-02-20T14:55:00Z,43.98,-124.12,5.0,5.0,0,0,,10.0,30.369095,,,TRUE,TRUE,,,,,,,OVC,800,,,,,,,IFR,,,,,,,,,,,,METAR,16.0
K6S2 201435Z AUTO 00000KT 10SM BKN006 OVC009 04/04 A3038 RMK AO2,K6S2,2023-02-20T14:35:00Z,43.98,-124.12,4.0,4.0,0,0,,10.0,30.380905,,,TRUE,TRUE,,,,,,,BKN,600,OVC,900,,,,,IFR,,,,,,,,,,,,METAR,16.0
K6S2 201415Z AUTO 00000KT 10SM BKN004 OVC009 05/05 A3038 RMK AO2,K6S2,2023-02-20T14:15:00Z,43.98,-124.12,5.0,5.0,0,0,,10.0,30.380905,,,TRUE,TRUE,,,,,,,BKN,400,OVC,900,,,,,LIFR,,,,,,,,,,,,METAR,16.0
K6S2 201355Z AUTO 00000KT 9SM OVC004 05/05 A3038 RMK AO2,K6S2,2023-02-20T13:55:00Z,43.98,-124.12,5.0,5.0,0,0,,9.0,30.380905,,,TRUE,TRUE,,,,,,,OVC,400,,,,,,,LIFR,,,,,,,,,,,,METAR,16.0
K6S2 201335Z AUTO 00000KT 9SM OVC004 05/05 A3039 RMK AO2,K6S2,2023-02-20T13:35:00Z,43.98,-124.12,5.0,5.0,0,0,,9.0,30.389763,,,TRUE,TRUE,,,,,,,OVC,400,,,,,,,LIFR,,,,,,,,,,,,SPECI,16.0
K6S2 201315Z AUTO 00000KT 9SM OVC005 05/05 A3039 RMK AO2,K6S2,2023-02-20T13:15:00Z,43.98,-124.12,5.0,5.0,0,0,,9.0,30.389763,,,TRUE,TRUE,,,,,,,OVC,500,,,,,,,IFR,,,,,,,,,,,,SPECI,16.0
K6S2 201255Z AUTO 00000KT 10SM OVC004 04/04 A3040 RMK AO2,K6S2,2023-02-20T12:55:00Z,43.98,-124.12,4.0,4.0,0,0,,10.0,30.398623,,,TRUE,TRUE,,,,,,,OVC,400,,,,,,,LIFR,,,,,,,,,,,,SPECI,16.0
K6S2 201235Z AUTO 00000KT 10SM OVC005 05/05 A3040 RMK AO2,K6S2,2023-02-20T12:35:00Z,43.98,-124.12,5.0,5.0,0,0,,10.0,30.398623,,,TRUE,TRUE,,,,,,,OVC,500,,,,,,,IFR,,,,,,,,,,,,SPECI,16.0
K6S2 201215Z AUTO 00000KT 10SM OVC005 04/04 A3040 RMK AO2,K6S2,2023-02-20T12:15:00Z,43.98,-124.12,4.0,4.0,0,0,,10.0,30.398623,,,TRUE,TRUE,,,,,,,OVC,500,,,,,,,IFR,,,,,,,,,,,,METAR,16.0
K6S2 201155Z AUTO 00000KT 7SM OVC004 05/05 A3038 RMK AO2,K6S2,2023-02-20T11:55:00Z,43.98,-124.12,5.0,5.0,0,0,,7.0,30.380905,,,TRUE,TRUE,,,,,,,OVC,400,,,,,,,LIFR,,,,,,,,,,,,METAR,16.0
K6S2 201135Z AUTO 00000KT 2SM UP BR OVC005 05/05 A3040 RMK AO2,K6S2,2023-02-20T11:35:00Z,43.98,-124.12,5.0,5.0,0,0,,2.0,30.398623,,,TRUE,TRUE,,,,,,BR UP,OVC,500,,,,,,,IFR,,,,,,,,,,,,METAR,16.0
K6S2 201115Z AUTO 00000KT 9SM OVC005 04/04 A3040 RMK AO2,K6S2,2023-02-20T11:15:00Z,43.98,-124.12,4.0,4.0,0,0,,9.0,30.398623,,,TRUE,TRUE,,,,,,,OVC,500,,,,,,,IFR,,,,,,,,,,,,METAR,16.0
K6S2 201055Z AUTO 00000KT 10SM OVC006 04/04 A3040 RMK AO2,K6S2,2023-02-20T10:55:00Z,43.98,-124.12,4.0,4.0,0,0,,10.0,30.398623,,,TRUE,TRUE,,,,,,,OVC,600,,,,,,,IFR,,,,,,,,,,,,METAR,16.0
K6S2 201035Z AUTO 00000KT 9SM OVC006 04/04 A3040 RMK AO2,K6S2,2023-02-20T10:35:00Z,43.98,-124.12,4.0,4.0,0,0,,9.0,30.398623,,,TRUE,TRUE,,,,,,,OVC,600,,,,,,,IFR,,,,,,,,,,,,METAR,16.0
K6S2 200955Z AUTO 00000KT 9SM OVC004 04/04 A3039 RMK AO2,K6S2,2023-02-20T09:55:00Z,43.98,-124.12,4.0,4.0,0,0,,9.0,30.389763,,,TRUE,TRUE,,,,,,,OVC,400,,,,,,,LIFR,,,,,,,,,,,,METAR,16.0
K6S2 200935Z AUTO 00000KT 9SM OVC004 04/04 A3040 RMK AO2,K6S2,2023-02-20T09:35:00Z,43.98,-124.12,4.0,4.0,0,0,,9.0,30.398623,,,TRUE,TRUE,,,,,,,OVC,400,,,,,,,LIFR,,,,,,,,,,,,SPECI,16.0
K6S2 200915Z AUTO 00000KT 9SM OVC005 04/04 A3040 RMK AO2,K6S2,2023-02-20T09:15:00Z,43.98,-124.12,4.0,4.0,0,0,,9.0,30.398623,,,TRUE,TRUE,,,,,,,OVC,500,,,,,,,IFR,,,,,,,,,,,,METAR,16.0
K6S2 200855Z AUTO 00000KT 8SM OVC006 04/04 A3038 RMK AO2,K6S2,2023-02-20T08:55:00Z,43.98,-124.12,4.0,4.0,0,0,,8.0,30.380905,,,TRUE,TRUE,,,,,,,OVC,600,,,,,,,IFR,,,,,,,,,,,,METAR,16.0
K6S2 200835Z AUTO 00000KT 8SM BKN008 BKN012 OVC037 04/04 A3039 RMK AO2,K6S2,2023-02-20T08:35:00Z,43.98,-124.12,4.0,4.0,0,0,,8.0,30.389763,,,TRUE,TRUE,,,,,,,BKN,800,BKN,1200,OVC,3700,,,IFR,,,,,,,,,,,,SPECI,16.0
K6S2 200815Z AUTO 00000KT 7SM FEW004 SCT012 OVC038 03/03 A3038 RMK AO2,K6S2,2023-02-20T08:15:00Z,43.98,-124.12,3.0,3.0,0,0,,7.0,30.380905,,,TRUE,TRUE,,,,,,,FEW,400,SCT,1200,OVC,3800,,,VFR,,,,,,,,,,,,METAR,16.0
K6S2 200755Z AUTO 00000KT 8SM BKN004 OVC039 03/03 A3039 RMK AO2,K6S2,2023-02-20T07:55:00Z,43.98,-124.12,3.0,3.0,0,0,,8.0,30.389763,,,TRUE,TRUE,,,,,,,BKN,400,OVC,3900,,,,,LIFR,,,,,,,,,,,,METAR,16.0
K6S2 200735Z AUTO 00000KT 7SM OVC004 04/04 A3039 RMK AO2,K6S2,2023-02-20T07:35:00Z,43.98,-124.12,4.0,4.0,0,0,,7.0,30.389763,,,TRUE,TRUE,,,,,,,OVC,400,,,,,,,LIFR,,,,,,,,,,,,METAR,16.0
K6S2 200715Z AUTO 00000KT 7SM OVC004 04/04 A3039 RMK AO2,K6S2,2023-02-20T07:15:00Z,43.98,-124.12,4.0,4.0,0,0,,7.0,30.389763,,,TRUE,TRUE,,,,,,,OVC,400,,,,,,,LIFR,,,,,,,,,,,,METAR,16.0
K6S2 200655Z AUTO 00000KT 6SM BR BKN004 OVC046 04/04 A3040 RMK AO2,K6S2,2023-02-20T06:55:00Z,43.98,-124.12,4.0,4.0,0,0,,6.0,30.398623,,,TRUE,TRUE,,,,,,BR,BKN,400,OVC,4600,,,,,LIFR,,,,,,,,,,,,METAR,16.0
K6S2 200635Z AUTO 00000KT 6SM BR SCT003 SCT015 BKN046 04/04 A3039 RMK AO2,K6S2,2023-02-20T06:35:00Z,43.98,-124.12,4.0,4.0,0,0,,6.0,30.389763,,,TRUE,TRUE,,,,,,BR,SCT,300,SCT,1500,BKN,4600,,,VFR,,,,,,,,,,,,METAR,16.0
K6S2 200615Z AUTO 00000KT 6SM BR BKN003 BKN048 04/04 A3039 RMK AO2,K6S2,2023-02-20T06:15:00Z,43.98,-124.12,4.0,4.0,0,0,,6.0,30.389763,,,TRUE,TRUE,,,,,,BR,BKN,300,BKN,4800,,,,,LIFR,,,,,,,,,,,,SPECI,16.0
K6S2 200555Z AUTO 00000KT 6SM BR SCT003 OVC046 05/05 A3039 RMK AO2,K6S2,2023-02-20T05:55:00Z,43.98,-124.12,5.0,5.0,0,0,,6.0,30.389763,,,TRUE,TRUE,,,,,,BR,SCT,300,OVC,4600,,,,,VFR,,,,,,,,,,,,METAR,16.0
K6S2 200535Z AUTO 00000KT 9SM OVC046 07/07 A3040 RMK AO2,K6S2,2023-02-20T05:35:00Z,43.98,-124.12,7.0,7.0,0,0,,9.0,30.398623,,,TRUE,TRUE,,,,,,,OVC,4600,,,,,,,VFR,,,,,,,,,,,,METAR,16.0
K6S2 200515Z AUTO 35005KT 7SM SCT002 OVC047 07/07 A3040 RMK AO2,K6S2,2023-02-20T05:15:00Z,43.98,-124.12,7.0,7.0,350,5,,7.0,30.398623,,,TRUE,TRUE,,,,,,,SCT,200,OVC,4700,,,,,VFR,,,,,,,,,,,,SPECI,16.0
K6S2 200455Z AUTO 00000KT 5SM BR OVC002 05/05 A3039 RMK AO2,K6S2,2023-02-20T04:55:00Z,43.98,-124.12,5.0,5.0,0,0,,5.0,30.389763,,,TRUE,TRUE,,,,,,BR,OVC,200,,,,,,,LIFR,,,,,,,,,,,,SPECI,16.0
K6S2 200435Z AUTO 00000KT 5SM BR OVC002 05/05 A3039 RMK AO2,K6S2,2023-02-20T04:35:00Z,43.98,-124.12,5.0,5.0,0,0,,5.0,30.389763,,,TRUE,TRUE,,,,,,BR,OVC,200,,,,,,,LIFR,,,,,,,,,,,,METAR,16.0
K6S2 200415Z AUTO 00000KT 5SM BR OVC002 05/05 A3038 RMK AO2,K6S2,2023-02-20T04:15:00Z,43.98,-124.12,5.0,5.0,0,0,,5.0,30.380905,,,TRUE,TRUE,,,,,,BR,OVC,200,,,,,,,LIFR,,,,,,,,,,,,METAR,16.0
K6S2 200355Z AUTO 00000KT 5SM BR OVC002 06/05 A3037 RMK AO2,K6S2,2023-02-20T03:55:00Z,43.98,-124.12,6.0,5.0,0,0,,5.0,30.369095,,,TRUE,TRUE,,,,,,BR,OVC,200,,,,,,,LIFR,,,,,,,,,,,,METAR,16.0
K6S2 200335Z AUTO 00000KT 5SM BR OVC003 06/06 A3036 RMK AO2,K6S2,2023-02-20T03:35:00Z,43.98,-124.12,6.0,6.0,0,0,,5.0,30.360237,,,TRUE,TRUE,,,,,,BR,OVC,300,,,,,,,LIFR,,,,,,,,,,,,METAR,16.0
K6S2 200315Z AUTO 00000KT 6SM BR OVC002 07/06 A3035 RMK AO2,K6S2,2023-02-20T03:15:00Z,43.98,-124.12,7.0,6.0,0,0,,6.0,30.351377,,,TRUE,TRUE,,,,,,BR,OVC,200,,,,,,,LIFR,,,,,,,,,,,,SPECI,16.0
K6S2 200255Z AUTO 00000KT 7SM BKN003 08/06 A3035 RMK AO2,K6S2,2023-02-20T02:55:00Z,43.98,-124.12,8.0,6.0,0,0,,7.0,30.351377,,,TRUE,TRUE,,,,,,,BKN,300,,,,,,,LIFR,,,,,,,,,,,,METAR,16.0
K6S2 200235Z AUTO 35007KT 8SM FEW003 08/07 A3036 RMK AO2,K6S2,2023-02-20T02:35:00Z,43.98,-124.12,8.0,7.0,350,7,,8.0,30.360237,,,TRUE,TRUE,,,,,,,FEW,300,,,,,,,VFR,,,,,,,,,,,,SPECI,16.0
K6S2 200215Z AUTO 35007G12KT 7SM SCT003 08/07 A3034 RMK AO2,K6S2,2023-02-20T02:15:00Z,43.98,-124.12,8.0,7.0,350,7,12,7.0,30.339567,,,TRUE,TRUE,,,,,,,SCT,300,,,,,,,VFR,,,,,,,,,,,,SPECI,16.0
K6S2 200155Z AUTO 34008G15KT 7SM CLR 09/07 A3034 RMK AO2,K6S2,2023-02-20T01:55:00Z,43.98,-124.12,9.0,7.0,340,8,15,7.0,30.339567,,,TRUE,TRUE,,,,,,,CLR,,,,,,,,VFR,,,,,,,,,,,,METAR,16.0
K6S2 200135Z AUTO 35009G15KT 8SM CLR 09/06 A3035 RMK AO2,K6S2,2023-02-20T01:35:00Z,43.98,-124.12,9.0,6.0,350,9,15,8.0,30.351377,,,TRUE,TRUE,,,,,,,CLR,,,,,,,,VFR,,,,,,,,,,,,METAR,16.0
K6S2 200115Z AUTO 34007G13KT 320V020 8SM CLR 09/07 A3035 RMK AO2,K6S2,2023-02-20T01:15:00Z,43.98,-124.12,9.0,7.0,340,7,13,8.0,30.351377,,,TRUE,TRUE,,,,,,,CLR,,,,,,,,VFR,,,,,,,,,,,,SPECI,16.0
K6S2 200055Z AUTO 34010G17KT 8SM CLR 10/07 A3035 RMK AO2,K6S2,2023-02-20T00:55:00Z,43.98,-124.12,10.0,7.0,340,10,17,8.0,30.351377,,,TRUE,TRUE,,,,,,,CLR,,,,,,,,VFR,,,,,,,,,,,,METAR,16.0
K6S2 200035Z AUTO 34011G17KT 8SM CLR 10/07 A3036 RMK AO2,K6S2,2023-02-20T00:35:00Z,43.98,-124.12,10.0,7.0,340,11,17,8.0,30.360237,,,TRUE,TRUE,,,,,,,CLR,,,,,,,,VFR,,,,,,,,,,,,SPECI,16.0
K6S2 200015Z AUTO 34011G18KT 8SM CLR 10/06 A3037 RMK AO2,K6S2,2023-02-20T00:15:00Z,43.98,-124.12,10.0,6.0,340,11,18,8.0,30.369095,,,TRUE,TRUE,,,,,,,CLR,,,,,,,,VFR,,,,,,,,,,,,SPECI,16.0
K6S2 192355Z AUTO 33014G19KT 8SM CLR 10/07 A3037 RMK AO2,K6S2,2023-02-19T23:55:00Z,43.98,-124.12,10.0,7.0,330,14,19,8.0,30.369095,,,TRUE,TRUE,,,,,,,CLR,,,,,,,,VFR,,,,,,,,,,,,METAR,16.0
K6S2 192335Z AUTO 35013G19KT 8SM CLR 10/07 A3037 RMK AO2,K6S2,2023-02-19T23:35:00Z,43.98,-124.12,10.0,7.0,350,13,19,8.0,30.369095,,,TRUE,TRUE,,,,,,,CLR,,,,,,,,VFR,,,,,,,,,,,,METAR,16.0
K6S2 192315Z AUTO 35011G18KT 320V020 8SM CLR 10/07 A3037 RMK AO2,K6S2,2023-02-19T23:15:00Z,43.98,-124.12,10.0,7.0,350,11,18,8.0,30.369095,,,TRUE,TRUE,,,,,,,CLR,,,,,,,,VFR,,,,,,,,,,,,SPECI,16.0
K6S2 192255Z AUTO 35011G17KT 8SM CLR 10/07 A3035 RMK AO2,K6S2,2023-02-19T22:55:00Z,43.98,-124.12,10.0,7.0,350,11,17,8.0,30.351377,,,TRUE,TRUE,,,,,,,CLR,,,,,,,,VFR,,,,,,,,,,,,METAR,16.0
K6S2 192235Z AUTO 33012KT 8SM CLR 10/08 A3035 RMK AO2,K6S2,2023-02-19T22:35:00Z,43.98,-124.12,10.0,8.0,330,12,,8.0,30.351377,,,TRUE,TRUE,,,,,,,CLR,,,,,,,,VFR,,,,,,,,,,,,METAR,16.0
K6S2 192215Z AUTO 35013G18KT 8SM CLR 11/08 A3036 RMK AO2,K6S2,2023-02-19T22:15:00Z,43.98,-124.12,11.0,8.0,350,13,18,8.0,30.360237,,,TRUE,TRUE,,,,,,,CLR,,,,,,,,VFR,,,,,,,,,,,,SPECI,16.0
K6S2 192135Z AUTO 34010KT 8SM CLR 10/07 A3035 RMK AO2,K6S2,2023-02-19T21:35:00Z,43.98,-124.12,10.0,7.0,340,10,,8.0,30.351377,,,TRUE,TRUE,,,,,,,CLR,,,,,,,,VFR,,,,,,,,,,,,METAR,16.0
K6S2 192115Z AUTO 33010KT 7SM CLR 10/07 A3037 RMK AO2,K6S2,2023-02-19T21:15:00Z,43.98,-124.12,10.0,7.0,330,10,,7.0,30.369095,,,TRUE,TRUE,,,,,,,CLR,,,,,,,,VFR,,,,,,,,,,,,METAR,16.0
K6S2 192055Z AUTO 32008KT 6SM BR CLR 10/08 A3038 RMK AO2,K6S2,2023-02-19T20:55:00Z,43.98,-124.12,10.0,8.0,320,8,,6.0,30.380905,,,TRUE,TRUE,,,,,,BR,CLR,,,,,,,,VFR,,,,,,,,,,,,METAR,16.0
K6S2 192035Z AUTO 32009KT 6SM HZ CLR 10/08 A3039 RMK AO2,K6S2,2023-02-19T20:35:00Z,43.98,-124.12,10.0,8.0,320,9,,6.0,30.389763,,,TRUE,TRUE,,,,,,HZ,CLR,,,,,,,,VFR,,,,,,,,,,,,METAR,16.0
K6S2 192015Z AUTO 33009KT 6SM HZ FEW026 10/07 A3039 RMK AO2,K6S2,2023-02-19T20:15:00Z,43.98,-124.12,10.0,7.0,330,9,,6.0,30.389763,,,TRUE,TRUE,,,,,,HZ,FEW,2600,,,,,,,VFR,,,,,,,,,,,,METAR,16.0
K6S2 191955Z AUTO 32008KT 6SM HZ SCT026 BKN031 10/07 A3040 RMK AO2,K6S2,2023-02-19T19:55:00Z,43.98,-124.12,10.0,7.0,320,8,,6.0,30.398623,,,TRUE,TRUE,,,,,,HZ,SCT,2600,BKN,3100,,,,,VFR,,,,,,,,,,,,METAR,16.0
K6S2 191935Z AUTO 30007KT 6SM HZ SCT025 10/07 A3039 RMK AO2,K6S2,2023-02-19T19:35:00Z,43.98,-124.12,10.0,7.0,300,7,,6.0,30.389763,,,TRUE,TRUE,,,,,,HZ,SCT,2500,,,,,,,VFR,,,,,,,,,,,,SPECI,16.0
K6S2 191915Z AUTO 33004KT 9SM SCT024 10/07 A3039 RMK AO2,K6S2,2023-02-19T19:15:00Z,43.98,-124.12,10.0,7.0,330,4,,9.0,30.389763,,,TRUE,TRUE,,,,,,,SCT,2400,,,,,,,VFR,,,,,,,,,,,,METAR,16.0
K6S2 191855Z AUTO VRB03KT 9SM CLR 10/06 A3038 RMK AO2,K6S2,2023-02-19T18:55:00Z,43.98,-124.12,10.0,6.0,0,3,,9.0,30.380905,,,TRUE,TRUE,,,,,,,CLR,,,,,,,,VFR,,,,,,,,,,,,SPECI,16.0
K6S2 191835Z AUTO 00000KT 10SM CLR 09/07 A3039 RMK AO2,K6S2,2023-02-19T18:35:00Z,43.98,-124.12,9.0,7.0,0,0,,10.0,30.389763,,,TRUE,TRUE,,,,,,,CLR,,,,,,,,VFR,,,,,,,,,,,,SPECI,16.0
K6S2 191815Z AUTO 00000KT 10SM CLR 08/07 A3038 RMK AO2,K6S2,2023-02-19T18:15:00Z,43.98,-124.12,8.0,7.0,0,0,,10.0,30.380905,,,TRUE,TRUE,,,,,,,CLR,,,,,,,,VFR,,,,,,,,,,,,SPECI,16.0
K6S2 191755Z AUTO 00000KT 10SM CLR 07/07 A3039 RMK AO2,K6S2,2023-02-19T17:55:00Z,43.98,-124.12,7.0,7.0,0,0,,10.0,30.389763,,,TRUE,TRUE,,,,,,,CLR,,,,,,,,VFR,,,,,,,,,,,,METAR,16.0
K6S2 191735Z AUTO 00000KT 10SM CLR 06/06 A3039 RMK AO2,K6S2,2023-02-19T17:35:00Z,43.98,-124.12,6.0,6.0,0,0,,10.0,30.389763,,,TRUE,TRUE,,,,,,,CLR,,,,,,,,VFR,,,,,,,,,,,,METAR,16.0
K6S2 191715Z AUTO 00000KT 10SM CLR 05/05 A3039 RMK AO2,K6S2,2023-02-19T17:15:00Z,43.98,-124.12,5.0,5.0,0,0,,10.0,30.389763,,,TRUE,TRUE,,,,,,,CLR,,,,,,,,VFR,,,,,,,,,,,,METAR,16.0
K6S2 191655Z AUTO 00000KT 10SM CLR 04/04 A3039 RMK AO2,K6S2,2023-02-19T16:55:00Z,43.98,-124.12,4.0,4.0,0,0,,10.0,30.389763,,,TRUE,TRUE,,,,,,,CLR,,,,,,,,VFR,,,,,,,,,,,,METAR,16.0
K6S2 191635Z AUTO 00000KT 10SM CLR 03/03 A3038 RMK AO2,K6S2,2023-02-19T16:35:00Z,43.98,-124.12,3.0,3.0,0,0,,10.0,30.380905,,,TRUE,TRUE,,,,,,,CLR,,,,,,,,VFR,,,,,,,,,,,,SPECI,16.0
K6S2 191615Z AUTO 00000KT 10SM FEW037 02/02 A3039 RMK AO2,K6S2,2023-02-19T16:15:00Z,43.98,-124.12,2.0,2.0,0,0,,10.0,30.389763,,,TRUE,TRUE,,,,,,,FEW,3700,,,,,,,VFR,,,,,,,,,,,,SPECI,16.0
K6S2 191555Z AUTO 10003KT 10SM SCT039 02/02 A3039 RMK AO2,K6S2,2023-02-19T15:55:00Z,43.98,-124.12,2.0,2.0,100,3,,10.0,30.389763,,,TRUE,TRUE,,,,,,,SCT,3900,,,,,,,VFR,,,,,,,,,,,,METAR,16.0
K6S2 191535Z AUTO 00000KT 10SM SCT023 BKN038 02/02 A3038 RMK AO2,K6S2,2023-02-19T15:35:00Z,43.98,-124.12,2.0,2.0,0,0,,10.0,30.380905,,,TRUE,TRUE,,,,,,,SCT,2300,BKN,3800,,,,,VFR,,,,,,,,,,,,METAR,16.0
K6S2 191515Z AUTO 00000KT 10SM BKN023 02/02 A3038 RMK AO2,K6S2,2023-02-19T15:15:00Z,43.98,-124.12,2.0,2.0,0,0,,10.0,30.380905,,,TRUE,TRUE,,,,,,,BKN,2300,,,,,,,MVFR,,,,,,,,,,,,METAR,16.0
K6S2 191455Z AUTO 00000KT 10SM BKN021 02/02 A3038 RMK AO2,K6S2,2023-02-19T14:55:00Z,43.98,-124.12,2.0,2.0,0,0,,10.0,30.380905,,,TRUE,TRUE,,,,,,,BKN,2100,,,,,,,MVFR,,,,,,,,,,,,SPECI,16.0
K6S2 191435Z AUTO 00000KT 10SM OVC023 03/03 A3038 RMK AO2,K6S2,2023-02-19T14:35:00Z,43.98,-124.12,3.0,3.0,0,0,,10.0,30.380905,,,TRUE,TRUE,,,,,,,OVC,2300,,,,,,,MVFR,,,,,,,,,,,,METAR,16.0
K6S2 191415Z AUTO VRB03KT 10SM BKN024 OVC038 02/02 A3037 RMK AO2,K6S2,2023-02-19T14:15:00Z,43.98,-124.12,2.0,2.0,0,3,,10.0,30.369095,,,TRUE,TRUE,,,,,,,BKN,2400,OVC,3800,,,,,MVFR,,,,,,,,,,,,SPECI,16.0
K6S2 191355Z AUTO 00000KT 10SM SCT024 BKN031 OVC038 03/03 A3037 RMK AO2,K6S2,2023-02-19T13:55:00Z,43.98,-124.12,3.0,3.0,0,0,,10.0,30.369095,,,TRUE,TRUE,,,,,,,SCT,2400,BKN,3100,OVC,3800,,,VFR,,,,,,,,,,,,METAR,16.0
K6S2 191335Z AUTO 00000KT 10SM SCT021 OVC036 03/03 A3037 RMK AO2,K6S2,2023-02-19T13:35:00Z,43.98,-124.12,3.0,3.0,0,0,,10.0,30.369095,,,TRUE,TRUE,,,,,,,SCT,2100,OVC,3600,,,,,VFR,,,,,,,,,,,,METAR,16.0
K6S2 191315Z AUTO 00000KT 10SM SCT021 OVC031 03/03 A3036 RMK AO2,K6S2,2023-02-19T13:15:00Z,43.98,-124.12,3.0,3.0,0,0,,10.0,30.360237,,,TRUE,TRUE,,,,,,,SCT,2100,OVC,3100,,,,,VFR,,,,,,,,,,,,METAR,16.0
K6S2 191255Z AUTO 00000KT 10SM SCT025 OVC030 03/03 A3036 RMK AO2,K6S2,2023-02-19T12:55:00Z,43.98,-124.12,3.0,3.0,0,0,,10.0,30.360237,,,TRUE,TRUE,,,,,,,SCT,2500,OVC,3000,,,,,MVFR,,,,,,,,,,,,METAR,16.0
K6S2 191235Z AUTO 00000KT 10SM BKN029 OVC035 03/03 A3036 RMK AO2,K6S2,2023-02-19T12:35:00Z,43.98,-124.12,3.0,3.0,0,0,,10.0,30.360237,,,TRUE,TRUE,,,,,,,BKN,2900,OVC,3500,,,,,MVFR,,,,,,,,,,,,SPECI,16.0
K6S2 191215Z AUTO 00000KT 10SM FEW016 FEW029 BKN035 03/03 A3036 RMK AO2,K6S2,2023-02-19T12:15:00Z,43.98,-124.12,3.0,3.0,0,0,,10.0,30.360237,,,TRUE,TRUE,,,,,,,FEW,1600,FEW,2900,BKN,3500,,,VFR,,,,,,,,,,,,SPECI,16.0
K6S2 191155Z AUTO VRB03KT 10SM FEW016 SCT027 02/02 A3035 RMK AO2,K6S2,2023-02-19T11:55:00Z,43.98,-124.12,2.0,2.0,0,3,,10.0,30.351377,,,TRUE,TRUE,,,,,,,FEW,1600,SCT,2700,,,,,VFR,,,,,,,,,,,,METAR,16.0
K6S2 191135Z AUTO 00000KT 10SM CLR 02/02 A3035 RMK AO2,K6S2,2023-02-19T11:35:00Z,43.98,-124.12,2.0,2.0,0,0,,10.0,30.351377,,,TRUE,TRUE,,,,,,,CLR,,,,,,,,VFR,,,,,,,,,,,,METAR,16.0
K6S2 191115Z AUTO 00000KT 7SM FEW001 FEW015 02/02 A3034 RMK AO2,K6S2,2023-02-19T11:15:00Z,43.98,-124.12,2.0,2.0,0,0,,7.0,30.339567,,,TRUE,TRUE,,,,,,,FEW,100,FEW,1500,,,,,VFR,,,,,,,,,,,,SPECI,16.0
K6S2 191055Z AUTO 00000KT 10SM FEW016 03/03 A3034 RMK AO2,K6S2,2023-02-19T10:55:00Z,43.98,-124.12,3.0,3.0,0,0,,10.0,30.339567,,,TRUE,TRUE,,,,,,,FEW,1600,,,,,,,VFR,,,,,,,,,,,,METAR,16.0
K6S2 191035Z AUTO 00000KT 10SM CLR 02/02 A3035 RMK AO2,K6S2,2023-02-19T10:35:00Z,43.98,-124.12,2.0,2.0,0,0,,10.0,30.351377,,,TRUE,TRUE,,,,,,,CLR,,,,,,,,VFR,,,,,,,,,,,,SPECI,16.0
K6S2 191015Z AUTO 00000KT 9SM CLR 02/02 A3034 RMK AO2,K6S2,2023-02-19T10:15:00Z,43.98,-124.12,2.0,2.0,0,0,,9.0,30.339567,,,TRUE,TRUE,,,,,,,CLR,,,,,,,,VFR,,,,,,,,,,,,METAR,16.0
K6S2 190955Z AUTO 00000KT 9SM CLR 03/03 A3033 RMK AO2,K6S2,2023-02-19T09:55:00Z,43.98,-124.12,3.0,3.0,0,0,,9.0,30.33071,,,TRUE,TRUE,,,,,,,CLR,,,,,,,,VFR,,,,,,,,,,,,METAR,16.0
K6S2 190935Z AUTO 00000KT 6SM BR CLR 02/02 A3033 RMK AO2,K6S2,2023-02-19T09:35:00Z,43.98,-124.12,2.0,2.0,0,0,,6.0,30.33071,,,TRUE,TRUE,,,,,,BR,CLR,,,,,,,,VFR,,,,,,,,,,,,SPECI,16.0
K6S2 190915Z AUTO 00000KT 6SM BR CLR 03/03 A3033 RMK AO2,K6S2,2023-02-19T09:15:00Z,43.98,-124.12,3.0,3.0,0,0,,6.0,30.33071,,,TRUE,TRUE,,,,,,BR,CLR,,,,,,,,VFR,,,,,,,,,,,,SPECI,16.0
K6S2 190855Z AUTO 00000KT 8SM CLR 03/03 A3032 RMK AO2,K6S2,2023-02-19T08:55:00Z,43.98,-124.12,3.0,3.0,0,0,,8.0,30.318897,,,TRUE,TRUE,,,,,,,CLR,,,,,,,,VFR,,,,,,,,,,,,METAR,16.0
K6S2 190835Z AUTO 00000KT 9SM CLR 03/03 A3033 RMK AO2,K6S2,2023-02-19T08:35:00Z,43.98,-124.12,3.0,3.0,0,0,,9.0,30.33071,,,TRUE,TRUE,,,,,,,CLR,,,,,,,,VFR,,,,,,,,,,,,SPECI,16.0
K6S2 190815Z AUTO 00000KT 9SM CLR 04/04 A3032 RMK AO2,K6S2,2023-02-19T08:15:00Z,43.98,-124.12,4.0,4.0,0,0,,9.0,30.318897,,,TRUE,TRUE,,,,,,,CLR,,,,,,,,VFR,,,,,,,,,,,,METAR,16.0
K6S2 190755Z AUTO 00000KT 9SM CLR 04/04 A3032 RMK AO2,K6S2,2023-02-19T07:55:00Z,43.98,-124.12,4.0,4.0,0,0,,9.0,30.318897,,,TRUE,TRUE,,,,,,,CLR,,,,,,,,VFR,,,,,,,,,,,,METAR,16.0
K6S2 190735Z AUTO 00000KT 4SM BR SCT036 03/03 A3032 RMK AO2,K6S2,2023-02-19T07:35:00Z,43.98,-124.12,3.0,3.0,0,0,,4.0,30.318897,,,TRUE,TRUE,,,,,,BR,SCT,3600,,,,,,,MVFR,,,,,,,,,,,,METAR,16.0
K6S2 190715Z AUTO 00000KT 6SM BR BKN036 04/04 A3032 RMK AO2,K6S2,2023-02-19T07:15:00Z,43.98,-124.12,4.0,4.0,0,0,,6.0,30.318897,,,TRUE,TRUE,,,,,,BR,BKN,3600,,,,,,,VFR,,,,,,,,,,,,SPECI,16.0
K6S2 190655Z AUTO 00000KT 6SM BR OVC038 04/04 A3032 RMK AO2,K6S2,2023-02-19T06:55:00Z,43.98,-124.12,4.0,4.0,0,0,,6.0,30.318897,,,TRUE,TRUE,,,,,,BR,OVC,3800,,,,,,,VFR,,,,,,,,,,,,METAR,16.0
K6S2 190635Z AUTO 00000KT 8SM OVC036 05/05 A3032 RMK AO2,K6S2,2023-02-19T06:35:00Z,43.98,-124.12,5.0,5.0,0,0,,8.0,30.318897,,,TRUE,TRUE,,,,,,,OVC,3600,,,,,,,VFR,,,,,,,,,,,,SPECI,16.0
K6S2 190615Z AUTO 00000KT 9SM OVC035 05/05 A3032 RMK AO2,K6S2,2023-02-19T06:15:00Z,43.98,-124.12,5.0,5.0,0,0,,9.0,30.318897,,,TRUE,TRUE,,,,,,,OVC,3500,,,,,,,VFR,,,,,,,,,,,,METAR,16.0
K6S2 190555Z AUTO 00000KT 8SM OVC037 04/04 A3031 RMK AO2,K6S2,2023-02-19T05:55:00Z,43.98,-124.12,4.0,4.0,0,0,,8.0,30.31004,,,TRUE,TRUE,,,,,,,OVC,3700,,,,,,,VFR,,,,,,,,,,,,METAR,16.0
K6S2 190535Z AUTO 00000KT 8SM OVC038 04/04 A3030 RMK AO2,K6S2,2023-02-19T05:35:00Z,43.98,-124.12,4.0,4.0,0,0,,8.0,30.301182,,,TRUE,TRUE,,,,,,,OVC,3800,,,,,,,VFR,,,,,,,,,,,,METAR,16.0
K6S2 190515Z AUTO 00000KT 8SM OVC035 04/04 A3030 RMK AO2,K6S2,2023-02-19T05:15:00Z,43.98,-124.12,4.0,4.0,0,0,,8.0,30.301182,,,TRUE,TRUE,,,,,,,OVC,3500,,,,,,,VFR,,,,,,,,,,,,METAR,16.0
K6S2 190455Z AUTO 00000KT 8SM BKN033 05/05 A3029 RMK AO2,K6S2,2023-02-19T04:55:00Z,43.98,-124.12,5.0,5.0,0,0,,8.0,30.28937,,,TRUE,TRUE,,,,,,,BKN,3300,,,,,,,VFR,,,,,,,,,,,,METAR,16.0
K6S2 190435Z AUTO 00000KT 9SM OVC029 05/05 A3028 RMK AO2,K6S2,2023-02-19T04:35:00Z,43.98,-124.12,5.0,5.0,0,0,,9.0,30.280512,,,TRUE,TRUE,,,,,,,OVC,2900,,,,,,,MVFR,,,,,,,,,,,,SPECI,16.0
K6S2 190415Z AUTO 00000KT 10SM BKN027 OVC036 06/06 A3028 RMK AO2,K6S2,2023-02-19T04:15:00Z,43.98,-124.12,6.0,6.0,0,0,,10.0,30.280512,,,TRUE,TRUE,,,,,,,BKN,2700,OVC,3600,,,,,MVFR,,,,,,,,,,,,METAR,16.0
K6S2 190355Z AUTO 00000KT 10SM FEW023 BKN032 07/07 A3027 RMK AO2,K6S2,2023-02-19T03:55:00Z,43.98,-124.12,7.0,7.0,0,0,,10.0,30.268702,,,TRUE,TRUE,,,,,,,FEW,2300,BKN,3200,,,,,VFR,,,,,,,,,,,,METAR,16.0
K6S2 190335Z AUTO 00000KT 10SM BKN030 07/07 A3026 RMK AO2,K6S2,2023-02-19T03:35:00Z,43.98,-124.12,7.0,7.0,0,0,,10.0,30.259842,,,TRUE,TRUE,,,,,,,BKN,3000,,,,,,,MVFR,,,,,,,,,,,,METAR,16.0
K6S2 190315Z AUTO 34006KT 10SM FEW018 FEW028 07/07 A3026 RMK AO2,K6S2,2023-02-19T03:15:00Z,43.98,-124.12,7.0,7.0,340,6,,10.0,30.259842,,,TRUE,TRUE,,,,,,,FEW,1800,FEW,2800,,,,,VFR,,,,,,,,,,,,METAR,16.0
K6S2 190255Z AUTO 35006KT 10SM SCT018 BKN025 BKN030 07/07 A3025 RMK AO2 P0001,K6S2,2023-02-19T02:55:00Z,43.98,-124.12,7.0,7.0,350,6,,10.0,30.250984,,,TRUE,TRUE,,,,,,,SCT,1800,BKN,2500,BKN,3000,,,MVFR,,,,,,0.01,,,,,,METAR,16.0
K6S2 190235Z AUTO 35008G15KT 320V030 5SM BR BKN005 BKN013 OVC024 08/08 A3026 RMK AO2,K6S2,2023-02-19T02:35:00Z,43.98,-124.12,8.0,8.0,350,8,15,5.0,30.259842,,,TRUE,TRUE,,,,,,BR,BKN,500,BKN,1300,OVC,2400,,,IFR,,,,,,,,,,,,SPECI,16.0
K6S2 190215Z AUTO 35008G14KT 1 3/4SM -RA BR BKN003 OVC006 08/08 A3025 RMK AO2,K6S2,2023-02-19T02:15:00Z,43.98,-124.12,8.0,8.0,350,8,14,1.75,30.250984,,,TRUE,TRUE,,,,,,-RA BR,BKN,300,OVC,600,,,,,LIFR,,,,,,,,,,,,METAR,16.0
K6S2 190155Z AUTO 30004KT 1 1/2SM UP BR BKN003 OVC006 08/08 A3024 RMK AO2,K6S2,2023-02-19T01:55:00Z,43.98,-124.12,8.0,8.0,300,4,,1.5,30.239174,,,TRUE,TRUE,,,,,,BR UP,BKN,300,OVC,600,,,,,LIFR,,,,,,,,,,,,METAR,16.0
K6S2 190135Z AUTO 00000KT 5SM BR OVC005 08/08 A3024 RMK AO2,K6S2,2023-02-19T01:35:00Z,43.98,-124.12,8.0,8.0,0,0,,5.0,30.239174,,,TRUE,TRUE,,,,,,BR,OVC,500,,,,,,,IFR,,,,,,,,,,,,SPECI,16.0
K6S2 190115Z AUTO 00000KT 1 3/4SM BR OVC005 08/08 A3023 RMK AO2,K6S2,2023-02-19T01:15:00Z,43.98,-124.12,8.0,8.0,0,0,,1.75,30.230314,,,TRUE,TRUE,,,,,,BR,OVC,500,,,,,,,IFR,,,,,,,,,,,,METAR,16.0
K6S2 190055Z AUTO 32004KT 2 1/2SM BR BKN005 BKN008 OVC013 08/08 A3024 RMK AO2,K6S2,2023-02-19T00:55:00Z,43.98,-124.12,8.0,8.0,320,4,,2.5,30.239174,,,TRUE,TRUE,,,,,,BR,BKN,500,BKN,800,OVC,1300,,,IFR,,,,,,,,,,,,METAR,16.0
K6S2 190035Z AUTO 34003KT 4SM BR SCT005 BKN016 08/08 A3023 RMK AO2,K6S2,2023-02-19T00:35:00Z,43.98,-124.12,8.0,8.0,340,3,,4.0,30.230314,,,TRUE,TRUE,,,,,,BR,SCT,500,BKN,1600,,,,,MVFR,,,,,,,,,,,,METAR,16.0
K6S2 190015Z AUTO 31003KT 4SM BR BKN016 08/08 A3023 RMK AO2,K6S2,2023-02-19T00:15:00Z,43.98,-124.12,8.0,8.0,310,3,,4.0,30.230314,,,TRUE,TRUE,,,,,,BR,BKN,1600,,,,,,,MVFR,,,,,,,,,,,,METAR,16.0
K6S2 182355Z AUTO 30004KT 2SM UP BR BKN013 BKN019 09/09 A3022 RMK AO2,K6S2,2023-02-18T23:55:00Z,43.98,-124.12,9.0,9.0,300,4,,2.0,30.221457,,,TRUE,TRUE,,,,,,BR UP,BKN,1300,BKN,1900,,,,,IFR,,,,,,,,,,,,METAR,16.0
K6S2 182335Z AUTO VRB05KT 10SM OVC018 10/07 A3022 RMK AO2,K6S2,2023-02-18T23:35:00Z,43.98,-124.12,10.0,7.0,0,5,,10.0,30.221457,,,TRUE,TRUE,,,,,,,OVC,1800,,,,,,,MVFR,,,,,,,,,,,,METAR,16.0
K6S2 182315Z AUTO 31003KT 10SM OVC021 10/07 A3022 RMK AO2,K6S2,2023-02-18T23:15:00Z,43.98,-124.12,10.0,7.0,310,3,,10.0,30.221457,,,TRUE,TRUE,,,,,,,OVC,2100,,,,,,,MVFR,,,,,,,,,,,,METAR,16.0
K6S2 182255Z AUTO VRB03KT 10SM BKN025 OVC031 10/06 A3022 RMK AO2,K6S2,2023-02-18T22:55:00Z,43.98,-124.12,10.0,6.0,0,3,,10.0,30.221457,,,TRUE,TRUE,,,,,,,BKN,2500,OVC,3100,,,,,MVFR,,,,,,,,,,,,METAR,16.0
K6S2 182235Z AUTO 27004KT 10SM SCT023 OVC030 10/06 A3022 RMK AO2,K6S2,2023-02-18T22:35:00Z,43.98,-124.12,10.0,6.0,270,4,,10.0,30.221457,,,TRUE,TRUE,,,,,,,SCT,2300,OVC,3000,,,,,MVFR,,,,,,,,,,,,SPECI,16.0
K6S2 182215Z AUTO VRB05KT 10SM BKN024 OVC029 10/06 A3022 RMK AO2,K6S2,2023-02-18T22:15:00Z,43.98,-124.12,10.0,6.0,0,5,,10.0,30.221457,,,TRUE,TRUE,,,,,,,BKN,2400,OVC,2900,,,,,MVFR,,,,,,,,,,,,METAR,16.0
K6S2 182155Z AUTO 29005KT 10SM BKN029 BKN035 BKN041 10/06 A3021 RMK AO2,K6S2,2023-02-18T21:55:00Z,43.98,-124.12,10.0,6.0,290,5,,10.0,30.209646,,,TRUE,TRUE,,,,,,,BKN,2900,BKN,3500,BKN,4100,,,MVFR,,,,,,,,,,,,METAR,16.0
K6S2 182135Z AUTO VRB04KT 10SM SCT030 SCT036 BKN041 10/05 A3022 RMK AO2,K6S2,2023-02-18T21:35:00Z,43.98,-124.12,10.0,5.0,0,4,,10.0,30.221457,,,TRUE,TRUE,,,,,,,SCT,3000,SCT,3600,BKN,4100,,,VFR,,,,,,,,,,,,SPECI,16.0
K6S2 182115Z AUTO 30005KT 10SM FEW024 BKN029 BKN037 10/06 A3023 RMK AO2,K6S2,2023-02-18T21:15:00Z,43.98,-124.12,10.0,6.0,300,5,,10.0,30.230314,,,TRUE,TRUE,,,,,,,FEW,2400,BKN,2900,BKN,3700,,,MVFR,,,,,,,,,,,,METAR,16.0
K6S2 182055Z AUTO 00000KT 10SM SCT035 SCT041 10/05 A3023 RMK AO2,K6S2,2023-02-18T20:55:00Z,43.98,-124.12,10.0,5.0,0,0,,10.0,30.230314,,,TRUE,TRUE,,,,,,,SCT,3500,SCT,4100,,,,,VFR,,,,,,,,,,,,METAR,16.0
K6S2 182035Z AUTO VRB05KT 10SM CLR 10/07 A3022 RMK AO2,K6S2,2023-02-18T20:35:00Z,43.98,-124.12,10.0,7.0,0,5,,10.0,30.221457,,,TRUE,TRUE,,,,,,,CLR,,,,,,,,VFR,,,,,,,,,,,,METAR,16.0
K6S2 182015Z AUTO 27005KT 10SM SCT049 10/07 A3023 RMK AO2,K6S2,2023-02-18T20:15:00Z,43.98,-124.12,10.0,7.0,270,5,,10.0,30.230314,,,TRUE,TRUE,,,,,,,SCT,4900,,,,,,,VFR,,,,,,,,,,,,METAR,16.0
K6S2 181955Z AUTO 00000KT 9SM OVC049 09/07 A3023 RMK AO2,K6S2,2023-02-18T19:55:00Z,43.98,-124.12,9.0,7.0,0,0,,9.0,30.230314,,,TRUE,TRUE,,,,,,,OVC,4900,,,,,,,VFR,,,,,,,,,,,,METAR,16.0
K6S2 181935Z AUTO VRB03KT 10SM OVC049 09/07 A3024 RMK AO2,K6S2,2023-02-18T19:35:00Z,43.98,-124.12,9.0,7.0,0,3,,10.0,30.239174,,,TRUE,TRUE,,,,,,,OVC,4900,,,,,,,VFR,,,,,,,,,,,,METAR,16.0
K6S2 181915Z AUTO 00000KT 10SM OVC050 09/07 A3024 RMK AO2,K6S2,2023-02-18T19:15:00Z,43.98,-124.12,9.0,7.0,0,0,,10.0,30.239174,,,TRUE,TRUE,,,,,,,OVC,5000,,,,,,,VFR,,,,,,,,,,,,SPECI,16.0
K6S2 181855Z AUTO 00000KT 10SM BKN049 OVC055 09/07 A3023 RMK AO2,K6S2,2023-02-18T18:55:00Z,43.98,-124.12,9.0,7.0,0,0,,10.0,30.230314,,,TRUE,TRUE,,,,,,,BKN,4900,OVC,5500,,,,,VFR,,,,,,,,,,,,METAR,16.0
K6S2 181835Z AUTO 00000KT 10SM OVC055 08/07 A3023 RMK AO2,K6S2,2023-02-18T18:35:00Z,43.98,-124.12,8.0,7.0,0,0,,10.0,30.230314,,,TRUE,TRUE,,,,,,,OVC,5500,,,,,,,VFR,,,,,,,,,,,,METAR,16.0
K6S2 181815Z AUTO 00000KT 10SM FEW023 OVC055 08/07 A3024 RMK AO2,K6S2,2023-02-18T18:15:00Z,43.98,-124.12,8.0,7.0,0,0,,10.0,30.239174,,,TRUE,TRUE,,,,,,,FEW,2300,OVC,5500,,,,,VFR,,,,,,,,,,,,METAR,16.0
K6S2 181755Z AUTO 00000KT 10SM SCT060 07/07 A3024 RMK AO2,K6S2,2023-02-18T17:55:00Z,43.98,-124.12,7.0,7.0,0,0,,10.0,30.239174,,,TRUE,TRUE,,,,,,,SCT,6000,,,,,,,VFR,,,,,,,,,,,,METAR,16.0
K6S2 181735Z AUTO 00000KT 10SM FEW055 06/06 A3023 RMK AO2,K6S2,2023-02-18T17:35:00Z,43.98,-124.12,6.0,6.0,0,0,,10.0,30.230314,,,TRUE,TRUE,,,,,,,FEW,5500,,,,,,,VFR,,,,,,,,,,,,SPECI,16.0
K6S2 181715Z AUTO 00000KT 10SM CLR 05/05 A3022 RMK AO2,K6S2,2023-02-18T17:15:00Z,43.98,-124.12,5.0,5.0,0,0,,10.0,30.221457,,,TRUE,TRUE,,,,,,,CLR,,,,,,,,VFR,,,,,,,,,,,,SPECI,16.0
K6S2 181655Z AUTO 00000KT 10SM CLR 05/05 A3023 RMK AO2,K6S2,2023-02-18T16:55:00Z,43.98,-124.12,5.0,5.0,0,0,,10.0,30.230314,,,TRUE,TRUE,,,,,,,CLR,,,,,,,,VFR,,,,,,,,,,,,METAR,16.0
K6S2 181635Z AUTO 00000KT 10SM FEW070 FEW090 04/04 A3023 RMK AO2,K6S2,2023-02-18T16:35:00Z,43.98,-124.12,4.0,4.0,0,0,,10.0,30.230314,,,TRUE,TRUE,,,,,,,FEW,7000,FEW,9000,,,,,VFR,,,,,,,,,,,,METAR,16.0
K6S2 181615Z AUTO 00000KT 10SM FEW029 BKN070 BKN090 04/04 A3022 RMK AO2,K6S2,2023-02-18T16:15:00Z,43.98,-124.12,4.0,4.0,0,0,,10.0,30.221457,,,TRUE,TRUE,,,,,,,FEW,2900,BKN,7000,BKN,9000,,,VFR,,,,,,,,,,,,METAR,16.0
K6S2 181555Z AUTO 00000KT 10SM BKN070 OVC090 04/04 A3023 RMK AO2,K6S2,2023-02-18T15:55:00Z,43.98,-124.12,4.0,4.0,0,0,,10.0,30.230314,,,TRUE,TRUE,,,,,,,BKN,7000,OVC,9000,,,,,VFR,,,,,,,,,,,,METAR,16.0
K6S2 181535Z AUTO 00000KT 10SM BKN075 OVC085 03/03 A3023 RMK AO2,K6S2,2023-02-18T15:35:00Z,43.98,-124.12,3.0,3.0,0,0,,10.0,30.230314,,,TRUE,TRUE,,,,,,,BKN,7500,OVC,8500,,,,,VFR,,,,,,,,,,,,METAR,16.0
K6S2 181515Z AUTO 00000KT 10SM SCT070 OVC080 03/03 A3022 RMK AO2,K6S2,2023-02-18T15:15:00Z,43.98,-124.12,3.0,3.0,0,0,,10.0,30.221457,,,TRUE,TRUE,,,,,,,SCT,7000,OVC,8000,,,,,VFR,,,,,,,,,,,,SPECI,16.0
K6S2 181455Z AUTO 00000KT 10SM FEW042 SCT060 OVC075 03/03 A3023 RMK AO2,K6S2,2023-02-18T14:55:00Z,43.98,-124.12,3.0,3.0,0,0,,10.0,30.230314,,,TRUE,TRUE,,,,,,,FEW,4200,SCT,6000,OVC,7500,,,VFR,,,,,,,,,,,,METAR,16.0
K6S2 181435Z AUTO 00000KT 10SM SCT048 BKN065 OVC090 03/03 A3021 RMK AO2,K6S2,2023-02-18T14:35:00Z,43.98,-124.12,3.0,3.0,0,0,,10.0,30.209646,,,TRUE,TRUE,,,,,,,SCT,4800,BKN,6500,OVC,9000,,,VFR,,,,,,,,,,,,METAR,16.0
K6S2 181415Z AUTO 00000KT 10SM BKN050 BKN065 OVC095 03/03 A3022 RMK AO2,K6S2,2023-02-18T14:15:00Z,43.98,-124.12,3.0,3.0,0,0,,10.0,30.221457,,,TRUE,TRUE,,,,,,,BKN,5000,BKN,6500,OVC,9500,,,VFR,,,,,,,,,,,,METAR,16.0
K6S2 181355Z AUTO 00000KT 10SM BKN050 OVC065 04/04 A3022 RMK AO2,K6S2,2023-02-18T13:55:00Z,43.98,-124.12,4.0,4.0,0,0,,10.0,30.221457,,,TRUE,TRUE,,,,,,,BKN,5000,OVC,6500,,,,,VFR,,,,,,,,,,,,METAR,16.0
K6S2 181335Z AUTO 00000KT 10SM FEW055 BKN065 OVC110 04/04 A3022 RMK AO2,K6S2,2023-02-18T13:35:00Z,43.98,-124.12,4.0,4.0,0,0,,10.0,30.221457,,,TRUE,TRUE,,,,,,,FEW,5500,BKN,6500,OVC,11000,,,VFR,,,,,,,,,,,,SPECI,16.0
K6S2 181315Z AUTO 00000KT 10SM BKN055 OVC100 03/03 A3022 RMK AO2,K6S2,2023-02-18T13:15:00Z,43.98,-124.12,3.0,3.0,0,0,,10.0,30.221457,,,TRUE,TRUE,,,,,,,BKN,5500,OVC,10000,,,,,VFR,,,,,,,,,,,,SPECI,16.0
K6S2 181255Z AUTO 00000KT 10SM OVC055 03/03 A3023 RMK AO2,K6S2,2023-02-18T12:55:00Z,43.98,-124.12,3.0,3.0,0,0,,10.0,30.230314,,,TRUE,TRUE,,,,,,,OVC,5500,,,,,,,VFR,,,,,,,,,,,,METAR,16.0
K6S2 181235Z AUTO 00000KT 10SM BKN060 OVC110 03/03 A3021 RMK AO2,K6S2,2023-02-18T12:35:00Z,43.98,-124.12,3.0,3.0,0,0,,10.0,30.209646,,,TRUE,TRUE,,,,,,,BKN,6000,OVC,11000,,,,,VFR,,,,,,,,,,,,METAR,16.0
K6S2 181215Z AUTO 00000KT 10SM BKN060 OVC100 03/03 A3021 RMK AO2,K6S2,2023-02-18T12:15:00Z,43.98,-124.12,3.0,3.0,0,0,,10.0,30.209646,,,TRUE,TRUE,,,,,,,BKN,6000,OVC,10000,,,,,VFR,,,,,,,,,,,,SPECI,16.0
K6S2 181155Z AUTO 00000KT 10SM FEW010 BKN100 OVC120 03/03 A3022 RMK AO2,K6S2,2023-02-18T11:55:00Z,43.98,-124.12,3.0,3.0,0,0,,10.0,30.221457,,,TRUE,TRUE,,,,,,,FEW,1000,BKN,10000,OVC,12000,,,VFR,,,,,,,,,,,,METAR,16.0
K6S2 181135Z AUTO VRB03KT 10SM FEW010 BKN019 OVC100 03/03 A3022 RMK AO2,K6S2,2023-02-18T11:35:00Z,43.98,-124.12,3.0,3.0,0,3,,10.0,30.221457,,,TRUE,TRUE,,,,,,,FEW,1000,BKN,1900,OVC,10000,,,MVFR,,,,,,,,,,,,METAR,16.0
K6S2 181115Z AUTO 00000KT 10SM OVC018 03/03 A3023 RMK AO2,K6S2,2023-02-18T11:15:00Z,43.98,-124.12,3.0,3.0,0,0,,10.0,30.230314,,,TRUE,TRUE,,,,,,,OVC,1800,,,,,,,MVFR,,,,,,,,,,,,SPECI,16.0
K6S2 181055Z AUTO 00000KT 10SM OVC015 04/04 A3024 RMK AO2,K6S2,2023-02-18T10:55:00Z,43.98,-124.12,4.0,4.0,0,0,,10.0,30.239174,,,TRUE,TRUE,,,,,,,OVC,1500,,,,,,,MVFR,,,,,,,,,,,,METAR,16.0
K6S2 181035Z AUTO 00000KT 10SM OVC014 04/04 A3024 RMK AO2,K6S2,2023-02-18T10:35:00Z,43.98,-124.12,4.0,4.0,0,0,,10.0,30.239174,,,TRUE,TRUE,,,,,,,OVC,1400,,,,,,,MVFR,,,,,,,,,,,,METAR,16.0
K6S2 181015Z AUTO 00000KT 10SM SCT009 OVC015 03/03 A3023 RMK AO2,K6S2,2023-02-18T10:15:00Z,43.98,-124.12,3.0,3.0,0,0,,10.0,30.230314,,,TRUE,TRUE,,,,,,,SCT,900,OVC,1500,,,,,MVFR,,,,,,,,,,,,SPECI,16.0
K6S2 180955Z AUTO 00000KT 10SM BKN010 OVC016 03/03 A3024 RMK AO2,K6S2,2023-02-18T09:55:00Z,43.98,-124.12,3.0,3.0,0,0,,10.0,30.239174,,,TRUE,TRUE,,,,,,,BKN,1000,OVC,1600,,,,,MVFR,,,,,,,,,,,,METAR,16.0
K6S2 180935Z AUTO 00000KT 10SM OVC015 04/04 A3024 RMK AO2,K6S2,2023-02-18T09:35:00Z,43.98,-124.12,4.0,4.0,0,0,,10.0,30.239174,,,TRUE,TRUE,,,,,,,OVC,1500,,,,,,,MVFR,,,,,,,,,,,,SPECI,16.0
K6S2 180915Z AUTO 00000KT 10SM OVC014 04/04 A3024 RMK AO2,K6S2,2023-02-18T09:15:00Z,43.98,-124.12,4.0,4.0,0,0,,10.0,30.239174,,,TRUE,TRUE,,,,,,,OVC,1400,,,,,,,MVFR,,,,,,,,,,,,SPECI,16.0
K6S2 180855Z AUTO 00000KT 10SM OVC016 04/04 A3025 RMK AO2,K6S2,2023-02-18T08:55:00Z,43.98,-124.12,4.0,4.0,0,0,,10.0,30.250984,,,TRUE,TRUE,,,,,,,OVC,1600,,,,,,,MVFR,,,,,,,,,,,,METAR,16.0
K6S2 180835Z AUTO 00000KT 10SM FEW009 OVC018 04/04 A3024 RMK AO2,K6S2,2023-02-18T08:35:00Z,43.98,-124.12,4.0,4.0,0,0,,10.0,30.239174,,,TRUE,TRUE,,,,,,,FEW,900,OVC,1800,,,,,MVFR,,,,,,,,,,,,SPECI,16.0
K6S2 180815Z AUTO 00000KT 10SM SCT011 OVC018 04/04 A3025 RMK AO2,K6S2,2023-02-18T08:15:00Z,43.98,-124.12,4.0,4.0,0,0,,10.0,30.250984,,,TRUE,TRUE,,,,,,,SCT,1100,OVC,1800,,,,,MVFR,,,,,,,,,,,,METAR,16.0
K6S2 180755Z AUTO 00000KT 10SM FEW011 OVC017 04/04 A3025 RMK AO2,K6S2,2023-02-18T07:55:00Z,43.98,-124.12,4.0,4.0,0,0,,10.0,30.250984,,,TRUE,TRUE,,,,,,,FEW,1100,OVC,1700,,,,,MVFR,,,,,,,,,,,,METAR,16.0
K6S2 180735Z AUTO 00000KT 10SM BKN012 OVC018 04/04 A3026 RMK AO2,K6S2,2023-02-18T07:35:00Z,43.98,-124.12,4.0,4.0,0,0,,10.0,30.259842,,,TRUE,TRUE,,,,,,,BKN,1200,OVC,1800,,,,,MVFR,,,,,,,,,,,,METAR,16.0
K6S2 180715Z AUTO 00000KT 10SM SCT011 OVC018 04/04 A3026 RMK AO2,K6S2,2023-02-18T07:15:00Z,43.98,-124.12,4.0,4.0,0,0,,10.0,30.259842,,,TRUE,TRUE,,,,,,,SCT,1100,OVC,1800,,,,,MVFR,,,,,,,,,,,,SPECI,16.0
K6S2 180655Z AUTO 00000KT 10SM OVC015 04/04 A3025 RMK AO2,K6S2,2023-02-18T06:55:00Z,43.98,-124.12,4.0,4.0,0,0,,10.0,30.250984,,,TRUE,TRUE,,,,,,,OVC,1500,,,,,,,MVFR,,,,,,,,,,,,METAR,16.0
K6S2 180635Z AUTO 00000KT 10SM BKN014 03/03 A3026 RMK AO2,K6S2,2023-02-18T06:35:00Z,43.98,-124.12,3.0,3.0,0,0,,10.0,30.259842,,,TRUE,TRUE,,,,,,,BKN,1400,,,,,,,MVFR,,,,,,,,,,,,METAR,16.0
K6S2 180615Z AUTO 00000KT 10SM BKN014 03/03 A3025 RMK AO2,K6S2,2023-02-18T06:15:00Z,43.98,-124.12,3.0,3.0,0,0,,10.0,30.250984,,,TRUE,TRUE,,,,,,,BKN,1400,,,,,,,MVFR,,,,,,,,,,,,METAR,16.0
K6S2 180555Z AUTO 00000KT 10SM SCT015 03/03 A3026 RMK AO2,K6S2,2023-02-18T05:55:00Z,43.98,-124.12,3.0,3.0,0,0,,10.0,30.259842,,,TRUE,TRUE,,,,,,,SCT,1500,,,,,,,VFR,,,,,,,,,,,,METAR,16.0
K6S2 180535Z AUTO 00000KT 10SM FEW004 04/04 A3026 RMK AO2,K6S2,2023-02-18T05:35:00Z,43.98,-124.12,4.0,4.0,0,0,,10.0,30.259842,,,TRUE,TRUE,,,,,,,FEW,400,,,,,,,VFR,,,,,,,,,,,,METAR,16.0
K6S2 180515Z AUTO 00000KT 10SM BKN004 04/04 A3025 RMK AO2,K6S2,2023-02-18T05:15:00Z,43.98,-124.12,4.0,4.0,0,0,,10.0,30.250984,,,TRUE,TRUE,,,,,,,BKN,400,,,,,,,LIFR,,,,,,,,,,,,METAR,16.0
K6S2 180455Z AUTO 00000KT 10SM OVC004 04/04 A3025 RMK AO2,K6S2,2023-02-18T04:55:00Z,43.98,-124.12,4.0,4.0,0,0,,10.0,30.250984,,,TRUE,TRUE,,,,,,,OVC,400,,,,,,,LIFR,,,,,,,,,,,,METAR,16.0
K6S2 180435Z AUTO 00000KT 10SM OVC003 05/05 A3025 RMK AO2,K6S2,2023-02-18T04:35:00Z,43.98,-124.12,5.0,5.0,0,0,,10.0,30.250984,,,TRUE,TRUE,,,,,,,OVC,300,,,,,,,LIFR,,,,,,,,,,,,METAR,16.0
K6S2 180415Z AUTO 00000KT 8SM OVC003 06/06 A3024 RMK AO2,K6S2,2023-02-18T04:15:00Z,43.98,-124.12,6.0,6.0,0,0,,8.0,30.239174,,,TRUE,TRUE,,,,,,,OVC,300,,,,,,,LIFR,,,,,,,,,,,,METAR,16.0
K6S2 180355Z AUTO 00000KT 6SM BR OVC002 07/07 A3024 RMK AO2,K6S2,2023-02-18T03:55:00Z,43.98,-124.12,7.0,7.0,0,0,,6.0,30.239174,,,TRUE,TRUE,,,,,,BR,OVC,200,,,,,,,LIFR,,,,,,,,,,,,METAR,16.0
K6S2 180335Z AUTO 00000KT 6SM BR OVC002 08/08 A3025 RMK AO2,K6S2,2023-02-18T03:35:00Z,43.98,-124.12,8.0,8.0,0,0,,6.0,30.250984,,,TRUE,TRUE,,,,,,BR,OVC,200,,,,,,,LIFR,,,,,,,,,,,,METAR,16.0
K6S2 180315Z AUTO 34005KT 7SM OVC002 08/08 A3025 RMK AO2,K6S2,2023-02-18T03:15:00Z,43.98,-124.12,8.0,8.0,340,5,,7.0,30.250984,,,TRUE,TRUE,,,,,,,OVC,200,,,,,,,LIFR,,,,,,,,,,,,METAR,16.0
K6S2 180255Z AUTO 34006KT 9SM BKN002 08/08 A3025 RMK AO2,K6S2,2023-02-18T02:55:00Z,43.98,-124.12,8.0,8.0,340,6,,9.0,30.250984,,,TRUE,TRUE,,,,,,,BKN,200,,,,,,,LIFR,,,,,,,,,,,,METAR,16.0
K6S2 180235Z AUTO 34009KT 10SM SCT003 09/09 A3025 RMK AO2,K6S2,2023-02-18T02:35:00Z,43.98,-124.12,9.0,9.0,340,9,,10.0,30.250984,,,TRUE,TRUE,,,,,,,SCT,300,,,,,,,VFR,,,,,,,,,,,,SPECI,16.0
K6S2 180215Z AUTO 34009G15KT 10SM BKN002 09/09 A3025 RMK AO2,K6S2,2023-02-18T02:15:00Z,43.98,-124.12,9.0,9.0,340,9,15,10.0,30.250984,,,TRUE,TRUE,,,,,,,BKN,200,,,,,,,LIFR,,,,,,,,,,,,METAR,16.0
K6S2 180155Z AUTO 34008KT 8SM BKN002 09/09 A3024 RMK AO2,K6S2,2023-02-18T01:55:00Z,43.98,-124.12,9.0,9.0,340,8,,8.0,30.239174,,,TRUE,TRUE,,,,,,,BKN,200,,,,,,,LIFR,,,,,,,,,,,,METAR,16.0
K6S2 180135Z AUTO 34007KT 9SM CLR 09/08 A3023 RMK AO2,K6S2,2023-02-18T01:35:00Z,43.98,-124.12,9.0,8.0,340,7,,9.0,30.230314,,,TRUE,TRUE,,,,,,,CLR,,,,,,,,VFR,,,,,,,,,,,,METAR,16.0
K6S2 180115Z AUTO VRB06G12KT 320V020 10SM CLR 10/08 A3023 RMK AO2,K6S2,2023-02-18T01:15:00Z,43.98,-124.12,10.0,8.0,0,6,12,10.0,30.230314,,,TRUE,TRUE,,,,,,,CLR,,,,,,,,VFR,,,,,,,,,,,,METAR,16.0
K6S2 180055Z AUTO 34008KT 10SM CLR 10/07 A3023 RMK AO2,K6S2,2023-02-18T00:55:00Z,43.98,-124.12,10.0,7.0,340,8,,10.0,30.230314,,,TRUE,TRUE,,,,,,,CLR,,,,,,,,VFR,,,,,,,,,,,,METAR,16.0
K6S2 180035Z AUTO 35007G13KT 10SM CLR 10/06 A3024 RMK AO2,K6S2,2023-02-18T00:35:00Z,43.98,-124.12,10.0,6.0,350,7,13,10.0,30.239174,,,TRUE,TRUE,,,,,,,CLR,,,,,,,,VFR,,,,,,,,,,,,SPECI,16.0
K6S2 180015Z AUTO 35009KT 10SM CLR 11/07 A3025 RMK AO2,K6S2,2023-02-18T00:15:00Z,43.98,-124.12,11.0,7.0,350,9,,10.0,30.250984,,,TRUE,TRUE,,,,,,,CLR,,,,,,,,VFR,,,,,,,,,,,,METAR,16.0
K6S2 172355Z AUTO 35009G16KT 10SM CLR 11/07 A3026 RMK AO2,K6S2,2023-02-17T23:55:00Z,43.98,-124.12,11.0,7.0,350,9,16,10.0,30.259842,,,TRUE,TRUE,,,,,,,CLR,,,,,,,,VFR,,,,,,,,,,,,SPECI,16.0
K6S2 172335Z AUTO 34010KT 10SM CLR 11/06 A3027 RMK AO2,K6S2,2023-02-17T23:35:00Z,43.98,-124.12,11.0,6.0,340,10,,10.0,30.268702,,,TRUE,TRUE,,,,,,,CLR,,,,,,,,VFR,,,,,,,,,,,,METAR,16.0
K6S2 172315Z AUTO 34010KT 10SM CLR 11/06 A3025 RMK AO2,K6S2,2023-02-17T23:15:00Z,43.98,-124.12,11.0,6.0,340,10,,10.0,30.250984,,,TRUE,TRUE,,,,,,,CLR,,,,,,,,VFR,,,,,,,,,,,,METAR,16.0
K6S2 172255Z AUTO 34010KT 10SM CLR 11/04 A3025 RMK AO2,K6S2,2023-02-17T22:55:00Z,43.98,-124.12,11.0,4.0,340,10,,10.0,30.250984,,,TRUE,TRUE,,,,,,,CLR,,,,,,,,VFR,,,,,,,,,,,,METAR,16.0
K6S2 172235Z AUTO 33010G17KT 10SM CLR 11/04 A3026 RMK AO2,K6S2,2023-02-17T22:35:00Z,43.98,-124.12,11.0,4.0,330,10,17,10.0,30.259842,,,TRUE,TRUE,,,,,,,CLR,,,,,,,,VFR,,,,,,,,,,,,SPECI,16.0
K6S2 172215Z AUTO 34012G17KT 10SM CLR 11/03 A3027 RMK AO2,K6S2,2023-02-17T22:15:00Z,43.98,-124.12,11.0,3.0,340,12,17,10.0,30.268702,,,TRUE,TRUE,,,,,,,CLR,,,,,,,,VFR,,,,,,,,,,,,SPECI,16.0
K6S2 172155Z AUTO 33010KT 10SM CLR 11/03 A3026 RMK AO2,K6S2,2023-02-17T21:55:00Z,43.98,-124.12,11.0,3.0,330,10,,10.0,30.259842,,,TRUE,TRUE,,,,,,,CLR,,,,,,,,VFR,,,,,,,,,,,,METAR,16.0
K6S2 172135Z AUTO 34008KT 10SM CLR 11/03 A3026 RMK AO2,K6S2,2023-02-17T21:35:00Z,43.98,-124.12,11.0,3.0,340,8,,10.0,30.259842,,,TRUE,TRUE,,,,,,,CLR,,,,,,,,VFR,,,,,,,,,,,,METAR,16.0
K6S2 172115Z AUTO 32008KT 9SM CLR 11/04 A3026 RMK AO2,K6S2,2023-02-17T21:15:00Z,43.98,-124.12,11.0,4.0,320,8,,9.0,30.259842,,,TRUE,TRUE,,,,,,,CLR,,,,,,,,VFR,,,,,,,,,,,,SPECI,16.0
K6S2 172055Z AUTO 33009KT 8SM CLR 12/03 A3027 RMK AO2,K6S2,2023-02-17T20:55:00Z,43.98,-124.12,12.0,3.0,330,9,,8.0,30.268702,,,TRUE,TRUE,,,,,,,CLR,,,,,,,,VFR,,,,,,,,,,,,METAR,16.0
K6S2 172035Z AUTO 31006KT 9SM CLR 11/02 A3027 RMK AO2,K6S2,2023-02-17T20:35:00Z,43.98,-124.12,11.0,2.0,310,6,,9.0,30.268702,,,TRUE,TRUE,,,,,,,CLR,,,,,,,,VFR,,,,,,,,,,,,SPECI,16.0
K6S2 172015Z AUTO 32007KT 10SM CLR 11/01 A3028 RMK AO2,K6S2,2023-02-17T20:15:00Z,43.98,-124.12,11.0,1.0,320,7,,10.0,30.280512,,,TRUE,TRUE,,,,,,,CLR,,,,,,,,VFR,,,,,,,,,,,,METAR,16.0
K6S2 171955Z AUTO 32006KT 7SM CLR 12/03 A3029 RMK AO2,K6S2,2023-02-17T19:55:00Z,43.98,-124.12,12.0,3.0,320,6,,7.0,30.28937,,,TRUE,TRUE,,,,,,,CLR,,,,,,,,VFR,,,,,,,,,,,,SPECI,16.0
K6S2 171935Z AUTO 00000KT 10SM CLR 11/01 A3030 RMK AO2,K6S2,2023-02-17T19:35:00Z,43.98,-124.12,11.0,1.0,0,0,,10.0,30.301182,,,TRUE,TRUE,,,,,,,CLR,,,,,,,,VFR,,,,,,,,,,,,METAR,16.0
K6S2 171915Z AUTO 00000KT 10SM CLR 10/01 A3030 RMK AO2,K6S2,2023-02-17T19:15:00Z,43.98,-124.12,10.0,1.0,0,0,,10.0,30.301182,,,TRUE,TRUE,,,,,,,CLR,,,,,,,,VFR,,,,,,,,,,,,METAR,16.0
K6S2 171855Z AUTO 00000KT 10SM CLR 10/02 A3029 RMK AO2,K6S2,2023-02-17T18:55:00Z,43.98,-124.12,10.0,2.0,0,0,,10.0,30.28937,,,TRUE,TRUE,,,,,,,CLR,,,,,,,,VFR,,,,,,,,,,,,SPECI,16.0
K6S2 171835Z AUTO 00000KT 10SM CLR 09/02 A3030 RMK AO2,K6S2,2023-02-17T18:35:00Z,43.98,-124.12,9.0,2.0,0,0,,10.0,30.301182,,,TRUE,TRUE,,,,,,,CLR,,,,,,,,VFR,,,,,,,,,,,,METAR,16.0
K6S2 171815Z AUTO 00000KT 10SM CLR 08/02 A3031 RMK AO2,K6S2,2023-02-17T18:15:00Z,43.98,-124.12,8.0,2.0,0,0,,10.0,30.31004,,,TRUE,TRUE,,,,,,,CLR,,,,,,,,VFR,,,,,,,,,,,,METAR,16.0
K6S2 171755Z AUTO VRB04KT 10SM CLR 07/02 A3030 RMK AO2,K6S2,2023-02-17T17:55:00Z,43.98,-124.12,7.0,2.0,0,4,,10.0,30.301182,,,TRUE,TRUE,,,,,,,CLR,,,,,,,,VFR,,,,,,,,,,,,METAR,16.0
K6S2 171735Z AUTO VRB05G10KT 10SM CLR 06/02 A3030 RMK AO2,K6S2,2023-02-17T17:35:00Z,43.98,-124.12,6.0,2.0,0,5,10,10.0,30.301182,,,TRUE,TRUE,,,,,,,CLR,,,,,,,,VFR,,,,,,,,,,,,METAR,16.0
K6S2 171715Z AUTO VRB04KT 10SM CLR 06/03 A3030 RMK AO2,K6S2,2023-02-17T17:15:00Z,43.98,-124.12,6.0,3.0,0,4,,10.0,30.301182,,,TRUE,TRUE,,,,,,,CLR,,,,,,,,VFR,,,,,,,,,,,,METAR,16.0
K6S2 171655Z AUTO VRB04KT 10SM CLR 05/02 A3030 RMK AO2,K6S2,2023-02-17T16:55:00Z,43.98,-124.12,5.0,2.0,0,4,,10.0,30.301182,,,TRUE,TRUE,,,,,,,CLR,,,,,,,,VFR,,,,,,,,,,,,METAR,16.0
K6S2 171635Z AUTO VRB04KT 10SM CLR 04/02 A3030 RMK AO2,K6S2,2023-02-17T16:35:00Z,43.98,-124.12,4.0,2.0,0,4,,10.0,30.301182,,,TRUE,TRUE,,,,,,,CLR,,,,,,,,VFR,,,,,,,,,,,,SPECI,16.0
K6S2 171615Z AUTO VRB03KT 10SM CLR 03/02 A3029 RMK AO2,K6S2,2023-02-17T16:15:00Z,43.98,-124.12,3.0,2.0,0,3,,10.0,30.28937,,,TRUE,TRUE,,,,,,,CLR,,,,,,,,VFR,,,,,,,,,,,,METAR,16.0
K6S2 171555Z AUTO VRB03KT 10SM CLR 02/02 A3028 RMK AO2,K6S2,2023-02-17T15:55:00Z,43.98,-124.12,2.0,2.0,0,3,,10.0,30.280512,,,TRUE,TRUE,,,,,,,CLR,,,,,,,,VFR,,,,,,,,,,,,METAR,16.0
K6S2 171535Z AUTO VRB03KT 10SM CLR 02/02 A3027 RMK AO2,K6S2,2023-02-17T15:35:00Z,43.98,-124.12,2.0,2.0,0,3,,10.0,30.268702,,,TRUE,TRUE,,,,,,,CLR,,,,,,,,VFR,,,,,,,,,,,,METAR,16.0
K6S2 171515Z AUTO 10003KT 10SM CLR 01/01 A3026 RMK AO2,K6S2,2023-02-17T15:15:00Z,43.98,-124.12,1.0,1.0,100,3,,10.0,30.259842,,,TRUE,TRUE,,,,,,,CLR,,,,,,,,VFR,,,,,,,,,,,,METAR,16.0
K6S2 171455Z AUTO VRB03KT 10SM CLR 02/02 A3026 RMK AO2,K6S2,2023-02-17T14:55:00Z,43.98,-124.12,2.0,2.0,0,3,,10.0,30.259842,,,TRUE,TRUE,,,,,,,CLR,,,,,,,,VFR,,,,,,,,,,,,METAR,16.0
K6S2 171435Z AUTO VRB03KT 10SM CLR 02/02 A3026 RMK AO2,K6S2,2023-02-17T14:35:00Z,43.98,-124.12,2.0,2.0,0,3,,10.0,30.259842,,,TRUE,TRUE,,,,,,,CLR,,,,,,,,VFR,,,,,,,,,,,,METAR,16.0
K6S2 171415Z AUTO 00000KT 10SM CLR 02/02 A3025 RMK AO2,K6S2,2023-02-17T14:15:00Z,43.98,-124.12,2.0,2.0,0,0,,10.0,30.250984,,,TRUE,TRUE,,,,,,,CLR,,,,,,,,VFR,,,,,,,,,,,,METAR,16.0
K6S2 171355Z AUTO 00000KT 10SM CLR 02/02 A3025 RMK AO2,K6S2,2023-02-17T13:55:00Z,43.98,-124.12,2.0,2.0,0,0,,10.0,30.250984,,,TRUE,TRUE,,,,,,,CLR,,,,,,,,VFR,,,,,,,,,,,,SPECI,16.0
K6S2 171335Z AUTO 00000KT 10SM CLR 01/01 A3025 RMK AO2,K6S2,2023-02-17T13:35:00Z,43.98,-124.12,1.0,1.0,0,0,,10.0,30.250984,,,TRUE,TRUE,,,,,,,CLR,,,,,,,,VFR,,,,,,,,,,,,SPECI,16.0
K6S2 171315Z AUTO 00000KT 10SM CLR 02/02 A3025 RMK AO2,K6S2,2023-02-17T13:15:00Z,43.98,-124.12,2.0,2.0,0,0,,10.0,30.250984,,,TRUE,TRUE,,,,,,,CLR,,,,,,,,VFR,,,,,,,,,,,,SPECI,16.0
K6S2 171255Z AUTO 00000KT 10SM CLR 02/02 A3025 RMK AO2,K6S2,2023-02-17T12:55:00Z,43.98,-124.12,2.0,2.0,0,0,,10.0,30.250984,,,TRUE,TRUE,,,,,,,CLR,,,,,,,,VFR,,,,,,,,,,,,METAR,16.0
K6S2 171235Z AUTO 14003KT 10SM CLR 02/02 A3024 RMK AO2,K6S2,2023-02-17T12:35:00Z,43.98,-124.12,2.0,2.0,140,3,,10.0,30.239174,,,TRUE,TRUE,,,,,,,CLR,,,,,,,,VFR,,,,,,,,,,,,METAR,16.0
K6S2 171215Z AUTO 00000KT 10SM CLR 03/03 A3025 RMK AO2,K6S2,2023-02-17T12:15:00Z,43.98,-124.12,3.0,3.0,0,0,,10.0,30.250984,,,TRUE,TRUE,,,,,,,CLR,,,,,,,,VFR,,,,,,,,,,,,SPECI,16.0
K6S2 171155Z AUTO 00000KT 10SM CLR 03/03 A3025 RMK AO2,K6S2,2023-02-17T11:55:00Z,43.98,-124.12,3.0,3.0,0,0,,10.0,30.250984,,,TRUE,TRUE,,,,,,,CLR,,,,,,,,VFR,,,,,,,,,,,,METAR,16.0
K6S2 171135Z AUTO VRB03KT 10SM CLR 02/02 A3025 RMK AO2,K6S2,2023-02-17T11:35:00Z,43.98,-124.12,2.0,2.0,0,3,,10.0,30.250984,,,TRUE,TRUE,,,,,,,CLR,,,,,,,,VFR,,,,,,,,,,,,SPECI,16.0
K6S2 171115Z AUTO 00000KT 10SM CLR 03/03 A3026 RMK AO2,K6S2,2023-02-17T11:15:00Z,43.98,-124.12,3.0,3.0,0,0,,10.0,30.259842,,,TRUE,TRUE,,,,,,,CLR,,,,,,,,VFR,,,,,,,,,,,,SPECI,16.0
K6S2 171055Z AUTO 00000KT 10SM CLR 03/03 A3026 RMK AO2,K6S2,2023-02-17T10:55:00Z,43.98,-124.12,3.0,3.0,0,0,,10.0,30.259842,,,TRUE,TRUE,,,,,,,CLR,,,,,,,,VFR,,,,,,,,,,,,METAR,16.0
K6S2 171035Z AUTO 00000KT 10SM CLR 03/03 A3025 RMK AO2,K6S2,2023-02-17T10:35:00Z,43.98,-124.12,3.0,3.0,0,0,,10.0,30.250984,,,TRUE,TRUE,,,,,,,CLR,,,,,,,,VFR,,,,,,,,,,,,METAR,16.0
K6S2 171015Z AUTO 16003KT 10SM CLR 04/03 A3026 RMK AO2,K6S2,2023-02-17T10:15:00Z,43.98,-124.12,4.0,3.0,160,3,,10.0,30.259842,,,TRUE,TRUE,,,,,,,CLR,,,,,,,,VFR,,,,,,,,,,,,METAR,16.0
K6S2 170955Z AUTO 12003KT 10SM CLR 04/04 A3025 RMK AO2,K6S2,2023-02-17T09:55:00Z,43.98,-124.12,4.0,4.0,120,3,,10.0,30.250984,,,TRUE,TRUE,,,,,,,CLR,,,,,,,,VFR,,,,,,,,,,,,SPECI,16.0
K6S2 170935Z AUTO 00000KT 10SM CLR 05/04 A3025 RMK AO2,K6S2,2023-02-17T09:35:00Z,43.98,-124.12,5.0,4.0,0,0,,10.0,30.250984,,,TRUE,TRUE,,,,,,,CLR,,,,,,,,VFR,,,,,,,,,,,,SPECI,16.0
K6S2 170915Z AUTO 00000KT 10SM SCT110 04/04 A3025 RMK AO2,K6S2,2023-02-17T09:15:00Z,43.98,-124.12,4.0,4.0,0,0,,10.0,30.250984,,,TRUE,TRUE,,,,,,,SCT,11000,,,,,,,VFR,,,,,,,,,,,,METAR,16.0
K6S2 170855Z AUTO 00000KT 10SM OVC100 05/04 A3025 RMK AO2,K6S2,2023-02-17T08:55:00Z,43.98,-124.12,5.0,4.0,0,0,,10.0,30.250984,,,TRUE,TRUE,,,,,,,OVC,10000,,,,,,,VFR,,,,,,,,,,,,SPECI,16.0
K6S2 170835Z AUTO 00000KT 10SM OVC100 05/04 A3025 RMK AO2,K6S2,2023-02-17T08:35:00Z,43.98,-124.12,5.0,4.0,0,0,,10.0,30.250984,,,TRUE,TRUE,,,,,,,OVC,10000,,,,,,,VFR,,,,,,,,,,,,SPECI,16.0
K6S2 170815Z AUTO 00000KT 10SM OVC100 06/04 A3024 RMK AO2,K6S2,2023-02-17T08:15:00Z,43.98,-124.12,6.0,4.0,0,0,,10.0,30.239174,,,TRUE,TRUE,,,,,,,OVC,10000,,,,,,,VFR,,,,,,,,,,,,SPECI,16.0
K6S2 170755Z AUTO 00000KT 10SM OVC100 06/04 A3024 RMK AO2,K6S2,2023-02-17T07:55:00Z,43.98,-124.12,6.0,4.0,0,0,,10.0,30.239174,,,TRUE,TRUE,,,,,,,OVC,10000,,,,,,,VFR,,,,,,,,,,,,METAR,16.0
K6S2 170735Z AUTO 00000KT 10SM OVC100 06/04 A3024 RMK AO2,K6S2,2023-02-17T07:35:00Z,43.98,-124.12,6.0,4.0,0,0,,10.0,30.239174,,,TRUE,TRUE,,,,,,,OVC,10000,,,,,,,VFR,,,,,,,,,,,,SPECI,16.0
K6S2 170715Z AUTO 00000KT 10SM OVC095 06/05 A3023 RMK AO2,K6S2,2023-02-17T07:15:00Z,43.98,-124.12,6.0,5.0,0,0,,10.0,30.230314,,,TRUE,TRUE,,,,,,,OVC,9500,,,,,,,VFR,,,,,,,,,,,,SPECI,16.0
K6S2 170655Z AUTO 00000KT 10SM OVC090 06/05 A3023 RMK AO2,K6S2,2023-02-17T06:55:00Z,43.98,-124.12,6.0,5.0,0,0,,10.0,30.230314,,,TRUE,TRUE,,,,,,,OVC,9000,,,,,,,VFR,,,,,,,,,,,,METAR,16.0
K6S2 170635Z AUTO 00000KT 10SM OVC090 06/05 A3023 RMK AO2,K6S2,2023-02-17T06:35:00Z,43.98,-124.12,6.0,5.0,0,0,,10.0,30.230314,,,TRUE,TRUE,,,,,,,OVC,9000,,,,,,,VFR,,,,,,,,,,,,METAR,16.0
K6S2 170615Z AUTO 00000KT 10SM OVC090 06/05 A3022 RMK AO2,K6S2,2023-02-17T06:15:00Z,43.98,-124.12,6.0,5.0,0,0,,10.0,30.221457,,,TRUE,TRUE,,,,,,,OVC,9000,,,,,,,VFR,,,,,,,,,,,,METAR,16.0
K6S2 170555Z AUTO 00000KT 10SM OVC080 06/05 A3022 RMK AO2,K6S2,2023-02-17T05:55:00Z,43.98,-124.12,6.0,5.0,0,0,,10.0,30.221457,,,TRUE,TRUE,,,,,,,OVC,8000,,,,,,,VFR,,,,,,,,,,,,SPECI,16.0
K6S2 170535Z AUTO 00000KT 10SM BKN075 OVC085 06/05 A3021 RMK AO2,K6S2,2023-02-17T05:35:00Z,43.98,-124.12,6.0,5.0,0,0,,10.0,30.209646,,,TRUE,TRUE,,,,,,,BKN,7500,OVC,8500,,,,,VFR,,,,,,,,,,,,SPECI,16.0
K6S2 170515Z AUTO 00000KT 10SM FEW019 OVC080 06/05 A3021 RMK AO2,K6S2,2023-02-17T05:15:00Z,43.98,-124.12,6.0,5.0,0,0,,10.0,30.209646,,,TRUE,TRUE,,,,,,,FEW,1900,OVC,8000,,,,,VFR,,,,,,,,,,,,SPECI,16.0
K6S2 170455Z AUTO 00000KT 10SM OVC080 06/05 A3020 RMK AO2,K6S2,2023-02-17T04:55:00Z,43.98,-124.12,6.0,5.0,0,0,,10.0,30.200787,,,TRUE,TRUE,,,,,,,OVC,8000,,,,,,,VFR,,,,,,,,,,,,METAR,16.0
K6S2 170435Z AUTO 00000KT 10SM OVC080 07/05 A3020 RMK AO2,K6S2,2023-02-17T04:35:00Z,43.98,-124.12,7.0,5.0,0,0,,10.0,30.200787,,,TRUE,TRUE,,,,,,,OVC,8000,,,,,,,VFR,,,,,,,,,,,,METAR,16.0
K6S2 170415Z AUTO 00000KT 10SM OVC080 07/05 A3019 RMK AO2,K6S2,2023-02-17T04:15:00Z,43.98,-124.12,7.0,5.0,0,0,,10.0,30.188976,,,TRUE,TRUE,,,,,,,OVC,8000,,,,,,,VFR,,,,,,,,,,,,SPECI,16.0
K6S2 170355Z AUTO 00000KT 10SM OVC080 07/04 A3019 RMK AO2,K6S2,2023-02-17T03:55:00Z,43.98,-124.12,7.0,4.0,0,0,,10.0,30.188976,,,TRUE,TRUE,,,,,,,OVC,8000,,,,,,,VFR,,,,,,,,,,,,METAR,16.0
K6S2 170335Z AUTO 00000KT 8SM OVC080 07/04 A3018 RMK AO2,K6S2,2023-02-17T03:35:00Z,43.98,-124.12,7.0,4.0,0,0,,8.0,30.180119,,,TRUE,TRUE,,,,,,,OVC,8000,,,,,,,VFR,,,,,,,,,,,,SPECI,16.0
K6S2 170315Z AUTO 00000KT 10SM BKN060 OVC080 08/03 A3018 RMK AO2,K6S2,2023-02-17T03:15:00Z,43.98,-124.12,8.0,3.0,0,0,,10.0,30.180119,,,TRUE,TRUE,,,,,,,BKN,6000,OVC,8000,,,,,VFR,,,,,,,,,,,,SPECI,16.0
K6S2 170255Z AUTO 00000KT 10SM OVC060 08/03 A3018 RMK AO2,K6S2,2023-02-17T02:55:00Z,43.98,-124.12,8.0,3.0,0,0,,10.0,30.180119,,,TRUE,TRUE,,,,,,,OVC,6000,,,,,,,VFR,,,,,,,,,,,,METAR,16.0
K6S2 170235Z AUTO 00000KT 10SM BKN055 OVC065 08/02 A3017 RMK AO2,K6S2,2023-02-17T02:35:00Z,43.98,-124.12,8.0,2.0,0,0,,10.0,30.171259,,,TRUE,TRUE,,,,,,,BKN,5500,OVC,6500,,,,,VFR,,,,,,,,,,,,SPECI,16.0
K6S2 170215Z AUTO 00000KT 10SM SCT060 OVC070 08/02 A3017 RMK AO2,K6S2,2023-02-17T02:15:00Z,43.98,-124.12,8.0,2.0,0,0,,10.0,30.171259,,,TRUE,TRUE,,,,,,,SCT,6000,OVC,7000,,,,,VFR,,,,,,,,,,,,METAR,16.0
K6S2 170155Z AUTO 00000KT 10SM OVC070 09/01 A3016 RMK AO2,K6S2,2023-02-17T01:55:00Z,43.98,-124.12,9.0,1.0,0,0,,10.0,30.159449,,,TRUE,TRUE,,,,,,,OVC,7000,,,,,,,VFR,,,,,,,,,,,,METAR,16.0
K6S2 170135Z AUTO VRB04KT 10SM OVC070 09/01 A3016 RMK AO2,K6S2,2023-02-17T01:35:00Z,43.98,-124.12,9.0,1.0,0,4,,10.0,30.159449,,,TRUE,TRUE,,,,,,,OVC,7000,,,,,,,VFR,,,,,,,,,,,,METAR,16.0
K6S2 170115Z AUTO VRB03KT 10SM BKN070 10/00 A3016 RMK AO2,K6S2,2023-02-17T01:15:00Z,43.98,-124.12,10.0,0.0,0,3,,10.0,30.159449,,,TRUE,TRUE,,,,,,,BKN,7000,,,,,,,VFR,,,,,,,,,,,,SPECI,16.0
K6S2 170055Z AUTO 00000KT 10SM SCT070 SCT080 09/00 A3017 RMK AO2,K6S2,2023-02-17T00:55:00Z,43.98,-124.12,9.0,0.0,0,0,,10.0,30.171259,,,TRUE,TRUE,,,,,,,SCT,7000,SCT,8000,,,,,VFR,,,,,,,,,,,,METAR,16.0
K6S2 170035Z AUTO VRB03KT 10SM FEW070 09/02 A3016 RMK AO2,K6S2,2023-02-17T00:35:00Z,43.98,-124.12,9.0,2.0,0,3,,10.0,30.159449,,,TRUE,TRUE,,,,,,,FEW,7000,,,,,,,VFR,,,,,,,,,,,,SPECI,16.0
K6S2 170015Z AUTO VRB03KT 10SM CLR 09/03 A3017 RMK AO2,K6S2,2023-02-17T00:15:00Z,43.98,-124.12,9.0,3.0,0,3,,10.0,30.171259,,,TRUE,TRUE,,,,,,,CLR,,,,,,,,VFR,,,,,,,,,,,,SPECI,16.0
K6S2 162355Z AUTO 00000KT 10SM FEW055 FEW070 09/02 A3018 RMK AO2,K6S2,2023-02-16T23:55:00Z,43.98,-124.12,9.0,2.0,0,0,,10.0,30.180119,,,TRUE,TRUE,,,,,,,FEW,5500,FEW,7000,,,,,VFR,,,,,,,,,,,,METAR,16.0
K6S2 162315Z AUTO 22004KT 10SM BKN070 10/01 A3018 RMK AO2,K6S2,2023-02-16T23:15:00Z,43.98,-124.12,10.0,1.0,220,4,,10.0,30.180119,,,TRUE,TRUE,,,,,,,BKN,7000,,,,,,,VFR,,,,,,,,,,,,SPECI,16.0
K6S2 162255Z AUTO 00000KT 7SM BKN065 BKN085 10/03 A3018 RMK AO2,K6S2,2023-02-16T22:55:00Z,43.98,-124.12,10.0,3.0,0,0,,7.0,30.180119,,,TRUE,TRUE,,,,,,,BKN,6500,BKN,8500,,,,,VFR,,,,,,,,,,,,METAR,16.0
K6S2 162215Z AUTO 00000KT 8SM BKN075 09/03 A3017 RMK AO2,K6S2,2023-02-16T22:15:00Z,43.98,-124.12,9.0,3.0,0,0,,8.0,30.171259,,,TRUE,TRUE,,,,,,,BKN,7500,,,,,,,VFR,,,,,,,,,,,,SPECI,16.0
K6S2 162155Z AUTO 26003KT 9SM FEW080 09/03 A3018 RMK AO2,K6S2,2023-02-16T21:55:00Z,43.98,-124.12,9.0,3.0,260,3,,9.0,30.180119,,,TRUE,TRUE,,,,,,,FEW,8000,,,,,,,VFR,,,,,,,,,,,,METAR,16.0
K6S2 162135Z AUTO 22003KT 10SM FEW110 10/02 A3018 RMK AO2,K6S2,2023-02-16T21:35:00Z,43.98,-124.12,10.0,2.0,220,3,,10.0,30.180119,,,TRUE,TRUE,,,,,,,FEW,11000,,,,,,,VFR,,,,,,,,,,,,SPECI,16.0
K6S2 162115Z AUTO 21005KT 10SM FEW110 09/03 A3018 RMK AO2,K6S2,2023-02-16T21:15:00Z,43.98,-124.12,9.0,3.0,210,5,,10.0,30.180119,,,TRUE,TRUE,,,,,,,FEW,11000,,,,,,,VFR,,,,,,,,,,,,METAR,16.0
K6S2 162055Z AUTO VRB03KT 10SM FEW110 09/04 A3019 RMK AO2,K6S2,2023-02-16T20:55:00Z,43.98,-124.12,9.0,4.0,0,3,,10.0,30.188976,,,TRUE,TRUE,,,,,,,FEW,11000,,,,,,,VFR,,,,,,,,,,,,METAR,16.0
K6S2 162035Z AUTO VRB04KT 10SM CLR 09/04 A3019 RMK AO2,K6S2,2023-02-16T20:35:00Z,43.98,-124.12,9.0,4.0,0,4,,10.0,30.188976,,,TRUE,TRUE,,,,,,,CLR,,,,,,,,VFR,,,,,,,,,,,,METAR,16.0
K6S2 162015Z AUTO 18004KT 10SM CLR 09/03 A3020 RMK AO2,K6S2,2023-02-16T20:15:00Z,43.98,-124.12,9.0,3.0,180,4,,10.0,30.200787,,,TRUE,TRUE,,,,,,,CLR,,,,,,,,VFR,,,,,,,,,,,,METAR,16.0
K6S2 161955Z AUTO 00000KT 10SM FEW110 09/04 A3020 RMK AO2,K6S2,2023-02-16T19:55:00Z,43.98,-124.12,9.0,4.0,0,0,,10.0,30.200787,,,TRUE,TRUE,,,,,,,FEW,11000,,,,,,,VFR,,,,,,,,,,,,METAR,16.0
K6S2 161855Z AUTO 00000KT 10SM SCT120 07/03 A3021 RMK AO2,K6S2,2023-02-16T18:55:00Z,43.98,-124.12,7.0,3.0,0,0,,10.0,30.209646,,,TRUE,TRUE,,,,,,,SCT,12000,,,,,,,VFR,,,,,,,,,,,,METAR,16.0
K6S2 161835Z AUTO 00000KT 10SM CLR 07/03 A3020 RMK AO2,K6S2,2023-02-16T18:35:00Z,43.98,-124.12,7.0,3.0,0,0,,10.0,30.200787,,,TRUE,TRUE,,,,,,,CLR,,,,,,,,VFR,,,,,,,,,,,,SPECI,16.0
K6S2 161815Z AUTO 00000KT 10SM CLR 06/03 A3020 RMK AO2,K6S2,2023-02-16T18:15:00Z,43.98,-124.12,6.0,3.0,0,0,,10.0,30.200787,,,TRUE,TRUE,,,,,,,CLR,,,,,,,,VFR,,,,,,,,,,,,METAR,16.0
K6S2 161755Z AUTO 00000KT 10SM CLR 05/03 A3020 RMK AO2,K6S2,2023-02-16T17:55:00Z,43.98,-124.12,5.0,3.0,0,0,,10.0,30.200787,,,TRUE,TRUE,,,,,,,CLR,,,,,,,,VFR,,,,,,,,,,,,METAR,16.0
K6S2 161735Z AUTO 00000KT 10SM CLR 04/03 A3020 RMK AO2,K6S2,2023-02-16T17:35:00Z,43.98,-124.12,4.0,3.0,0,0,,10.0,30.200787,,,TRUE,TRUE,,,,,,,CLR,,,,,,,,VFR,,,,,,,,,,,,SPECI,16.0
K6S2 161715Z AUTO VRB03KT 10SM CLR 04/03 A3020 RMK AO2,K6S2,2023-02-16T17:15:00Z,43.98,-124.12,4.0,3.0,0,3,,10.0,30.200787,,,TRUE,TRUE,,,,,,,CLR,,,,,,,,VFR,,,,,,,,,,,,METAR,16.0
K6S2 161655Z AUTO 00000KT 10SM CLR 03/03 A3020 RMK AO2,K6S2,2023-02-16T16:55:00Z,43.98,-124.12,3.0,3.0,0,0,,10.0,30.200787,,,TRUE,TRUE,,,,,,,CLR,,,,,,,,VFR,,,,,,,,,,,,METAR,16.0
K6S2 161635Z AUTO 00000KT 10SM CLR 03/02 A3020 RMK AO2,K6S2,2023-02-16T16:35:00Z,43.98,-124.12,3.0,2.0,0,0,,10.0,30.200787,,,TRUE,TRUE,,,,,,,CLR,,,,,,,,VFR,,,,,,,,,,,,METAR,16.0
K6S2 161615Z AUTO VRB03KT 10SM CLR 03/02 A3019 RMK AO2,K6S2,2023-02-16T16:15:00Z,43.98,-124.12,3.0,2.0,0,3,,10.0,30.188976,,,TRUE,TRUE,,,,,,,CLR,,,,,,,,VFR,,,,,,,,,,,,METAR,16.0
K6S2 161555Z AUTO 00000KT 10SM CLR 03/02 A3019 RMK AO2,K6S2,2023-02-16T15:55:00Z,43.98,-124.12,3.0,2.0,0,0,,10.0,30.188976,,,TRUE,TRUE,,,,,,,CLR,,,,,,,,VFR,,,,,,,,,,,,METAR,16.0
