No errors
Max results hit (1000): not all possible results returned; 
38 ms
data source=metars
1000 results
raw_text,station_id,observation_time,latitude,longitude,temp_c,dewpoint_c,wind_dir_degrees,wind_speed_kt,wind_gust_kt,visibility_statute_mi,altim_in_hg,sea_level_pressure_mb,corrected,auto,auto_station,maintenance_indicator_on,no_signal,lightning_sensor_off,freezing_rain_sensor_off,present_weather_sensor_off,wx_string,sky_cover,cloud_base_ft_agl,sky_cover,cloud_base_ft_agl,sky_cover,cloud_base_ft_agl,sky_cover,cloud_base_ft_agl,flight_category,three_hr_pressure_tendency_mb,maxT_c,minT_c,maxT24hr_c,minT24hr_c,precip_in,pcp3hr_in,pcp6hr_in,pcp24hr_in,snow_in,vert_vis_ft,metar_type,elevation_m
K6S2 311615Z AUTO VRB06G11KT 2SM -RA BR FEW011 BKN018 BKN023 07/07 A3006 RMK AO2 VIS 1V5,K6S2,2023-03-31T16:15:00Z,43.98,-124.12,7.0,7.0,0,6,11,2.0,30.059055,,,TRUE,TRUE,,,,,,-RA BR,FEW,1100,BKN,1800,BKN,2300,,,IFR,,,,,,,,,,,,SPECI,16.0
K6S2 311555Z AUTO 16007KT 130V190 10SM UP BKN020 BKN025 OVC031 07/07 A3006 RMK AO2 P0003,K6S2,2023-03-31T15:55:00Z,43.98,-124.12,7.0,7.0,160,7,,10.0,30.059055,,,TRUE,TRUE,,,,,,UP,BKN,2000,BKN,2500,OVC,3100,,,MVFR,,,,,,0.03,,,,,,METAR,16.0
K6S2 311535Z AUTO VRB06KT 3SM RA BR BKN019 BKN024 OVC050 06/06 A3006 RMK AO2,K6S2,2023-03-31T15:35:00Z,43.98,-124.12,6.0,6.0,0,6,,3.0,30.059055,,,TRUE,TRUE,,,,,,RA BR,BKN,1900,BKN,2400,OVC,5000,,,MVFR,,,,,,,,,,,,SPECI,16.0
K6S2 311515Z AUTO VRB05G11KT 4SM -RA BR BKN021 BKN026 OVC050 07/07 A3005 RMK AO2,K6S2,2023-03-31T15:15:00Z,43.98,-124.12,7.0,7.0,0,5,11,4.0,30.050198,,,TRUE,TRUE,,,,,,-RA BR,BKN,2100,BKN,2600,OVC,5000,,,MVFR,,,,,,,,,,,,SPECI,16.0
K6S2 311455Z AUTO 18006KT 3SM -RA BR FEW014 BKN022 OVC032 06/06 A3005 RMK AO2 P0001,K6S2,2023-03-31T14:55:00Z,43.98,-124.12,6.0,6.0,180,6,,3.0,30.050198,,,TRUE,TRUE,,,,,,-RA BR,FEW,1400,BKN,2200,OVC,3200,,,MVFR,,,,,,0.01,,,,,,METAR,16.0
K6S2 311435Z AUTO VRB05KT 5SM -RA BR FEW015 SCT025 BKN033 06/06 A3005 RMK AO2,K6S2,2023-03-31T14:35:00Z,43.98,-124.12,6.0,6.0,0,5,,5.0,30.050198,,,TRUE,TRUE,,,,,,-RA BR,FEW,1500,SCT,2500,BKN,3300,,,MVFR,,,,,,,,,,,,SPECI,16.0
K6S2 311415Z AUTO 16006KT 10SM FEW017 SCT023 BKN033 06/06 A3005 RMK AO2,K6S2,2023-03-31T14:15:00Z,43.98,-124.12,6.0,6.0,160,6,,10.0,30.050198,,,TRUE,TRUE,,,,,,,FEW,1700,SCT,2300,BKN,3300,,,VFR,,,,,,,,,,,,SPECI,16.0
K6S2 311355Z AUTO 17007G12KT 130V220 6SM -RA BR SCT015 BKN024 OVC030 06/06 A3004 RMK AO2 P0003,K6S2,2023-03-31T13:55:00Z,43.98,-124.12,6.0,6.0,170,7,12,6.0,30.041338,,,TRUE,TRUE,,,,,,-RA BR,SCT,1500,BKN,2400,OVC,3000,,,MVFR,,,,,,0.03,,,,,,METAR,16.0
K6S2 311335Z AUTO VRB06G11KT 7SM -RA BKN024 OVC029 06/06 A3004 RMK AO2,K6S2,2023-03-31T13:35:00Z,43.98,-124.12,6.0,6.0,0,6,11,7.0,30.041338,,,TRUE,TRUE,,,,,,-RA,BKN,2400,OVC,2900,,,,,MVFR,,,,,,,,,,,,METAR,16.0
K6S2 311315Z AUTO 15005KT 4SM -RA BR FEW021 BKN028 OVC034 06/06 A3003 RMK AO2,K6S2,2023-03-31T13:15:00Z,43.98,-124.12,6.0,6.0,150,5,,4.0,30.029528,,,TRUE,TRUE,,,,,,-RA BR,FEW,2100,BKN,2800,OVC,3400,,,MVFR,,,,,,,,,,,,METAR,16.0
K6S2 311255Z AUTO VRB06G11KT 6SM -RA BR FEW021 BKN027 OVC034 06/06 A3003 RMK AO2,K6S2,2023-03-31T12:55:00Z,43.98,-124.12,6.0,6.0,0,6,11,6.0,30.029528,,,TRUE,TRUE,,,,,,-RA BR,FEW,2100,BKN,2700,OVC,3400,,,MVFR,,,,,,,,,,,,METAR,16.0
K6S2 311235Z AUTO VRB03KT 10SM SCT027 BKN035 OVC060 06/06 A3003 RMK AO2,K6S2,2023-03-31T12:35:00Z,43.98,-124.12,6.0,6.0,0,3,,10.0,30.029528,,,TRUE,TRUE,,,,,,,SCT,2700,BKN,3500,OVC,6000,,,VFR,,,,,,,,,,,,METAR,16.0
K6S2 311215Z AUTO VRB06G11KT 9SM UP FEW019 BKN026 OVC065 06/06 A3003 RMK AO2,K6S2,2023-03-31T12:15:00Z,43.98,-124.12,6.0,6.0,0,6,11,9.0,30.029528,,,TRUE,TRUE,,,,,,UP,FEW,1900,BKN,2600,OVC,6500,,,MVFR,,,,,,,,,,,,METAR,16.0
K6S2 311155Z AUTO 19007KT 9SM -RA FEW009 FEW019 OVC027 06/06 A3003 RMK AO2 P0002,K6S2,2023-03-31T11:55:00Z,43.98,-124.12,6.0,6.0,190,7,,9.0,30.029528,,,TRUE,TRUE,,,,,,-RA,FEW,900,FEW,1900,OVC,2700,,,MVFR,,,,,,0.02,,,,,,SPECI,16.0
K6S2 311135Z AUTO VRB03KT 10SM SCT023 BKN029 OVC035 06/06 A3003 RMK AO2,K6S2,2023-03-31T11:35:00Z,43.98,-124.12,6.0,6.0,0,3,,10.0,30.029528,,,TRUE,TRUE,,,,,,,SCT,2300,BKN,2900,OVC,3500,,,MVFR,,,,,,,,,,,,METAR,16.0
K6S2 311115Z AUTO VRB03KT 9SM -RA FEW025 SCT031 OVC040 06/06 A3003 RMK AO2,K6S2,2023-03-31T11:15:00Z,43.98,-124.12,6.0,6.0,0,3,,9.0,30.029528,,,TRUE,TRUE,,,,,,-RA,FEW,2500,SCT,3100,OVC,4000,,,VFR,,,,,,,,,,,,METAR,16.0
K6S2 311055Z AUTO VRB03KT 10SM FEW014 SCT025 BKN031 06/06 A3004 RMK AO2 P0001,K6S2,2023-03-31T10:55:00Z,43.98,-124.12,6.0,6.0,0,3,,10.0,30.041338,,,TRUE,TRUE,,,,,,,FEW,1400,SCT,2500,BKN,3100,,,VFR,,,,,,0.01,,,,,,METAR,16.0
K6S2 311035Z AUTO VRB04KT 3SM -RA BR FEW016 BKN023 OVC032 06/06 A3004 RMK AO2,K6S2,2023-03-31T10:35:00Z,43.98,-124.12,6.0,6.0,0,4,,3.0,30.041338,,,TRUE,TRUE,,,,,,-RA BR,FEW,1600,BKN,2300,OVC,3200,,,MVFR,,,,,,,,,,,,METAR,16.0
K6S2 311015Z AUTO VRB03KT 10SM SCT015 BKN021 OVC055 07/07 A3003 RMK AO2,K6S2,2023-03-31T10:15:00Z,43.98,-124.12,7.0,7.0,0,3,,10.0,30.029528,,,TRUE,TRUE,,,,,,,SCT,1500,BKN,2100,OVC,5500,,,MVFR,,,,,,,,,,,,SPECI,16.0
K6S2 310955Z AUTO 18006KT 10SM BKN012 BKN019 OVC055 07/07 A3003 RMK AO2 P0002,K6S2,2023-03-31T09:55:00Z,43.98,-124.12,7.0,7.0,180,6,,10.0,30.029528,,,TRUE,TRUE,,,,,,,BKN,1200,BKN,1900,OVC,5500,,,MVFR,,,,,,0.02,,,,,,METAR,16.0
K6S2 310935Z AUTO 00000KT 5SM -RA BR SCT010 BKN016 OVC021 06/06 A3003 RMK AO2,K6S2,2023-03-31T09:35:00Z,43.98,-124.12,6.0,6.0,0,0,,5.0,30.029528,,,TRUE,TRUE,,,,,,-RA BR,SCT,1000,BKN,1600,OVC,2100,,,MVFR,,,,,,,,,,,,METAR,16.0
K6S2 310915Z AUTO 18003KT 7SM -RA SCT018 BKN025 OVC031 06/06 A3003 RMK AO2,K6S2,2023-03-31T09:15:00Z,43.98,-124.12,6.0,6.0,180,3,,7.0,30.029528,,,TRUE,TRUE,,,,,,-RA,SCT,1800,BKN,2500,OVC,3100,,,MVFR,,,,,,,,,,,,METAR,16.0
K6S2 310855Z AUTO 00000KT 9SM BKN025 BKN033 OVC039 07/07 A3003 RMK AO2,K6S2,2023-03-31T08:55:00Z,43.98,-124.12,7.0,7.0,0,0,,9.0,30.029528,,,TRUE,TRUE,,,,,,,BKN,2500,BKN,3300,OVC,3900,,,MVFR,,,,,,,,,,,,METAR,16.0
K6S2 310835Z AUTO 20008G13KT 7SM -RA SCT025 BKN032 OVC042 07/07 A3003 RMK AO2,K6S2,2023-03-31T08:35:00Z,43.98,-124.12,7.0,7.0,200,8,13,7.0,30.029528,,,TRUE,TRUE,,,,,,-RA,SCT,2500,BKN,3200,OVC,4200,,,VFR,,,,,,,,,,,,SPECI,16.0
K6S2 310815Z AUTO 18007KT 9SM -RA SCT034 BKN042 OVC055 07/06 A3003 RMK AO2,K6S2,2023-03-31T08:15:00Z,43.98,-124.12,7.0,6.0,180,7,,9.0,30.029528,,,TRUE,TRUE,,,,,,-RA,SCT,3400,BKN,4200,OVC,5500,,,VFR,,,,,,,,,,,,SPECI,16.0
K6S2 310755Z AUTO VRB03KT 10SM SCT050 OVC055 07/06 A3002 RMK AO2,K6S2,2023-03-31T07:55:00Z,43.98,-124.12,7.0,6.0,0,3,,10.0,30.02067,,,TRUE,TRUE,,,,,,,SCT,5000,OVC,5500,,,,,VFR,,,,,,,,,,,,METAR,16.0
K6S2 310735Z AUTO VRB04KT 10SM BKN050 07/06 A3002 RMK AO2,K6S2,2023-03-31T07:35:00Z,43.98,-124.12,7.0,6.0,0,4,,10.0,30.02067,,,TRUE,TRUE,,,,,,,BKN,5000,,,,,,,VFR,,,,,,,,,,,,METAR,16.0
K6S2 310715Z AUTO 00000KT 10SM FEW036 OVC048 07/06 A3002 RMK AO2,K6S2,2023-03-31T07:15:00Z,43.98,-124.12,7.0,6.0,0,0,,10.0,30.02067,,,TRUE,TRUE,,,,,,,FEW,3600,OVC,4800,,,,,VFR,,,,,,,,,,,,METAR,16.0
K6S2 310655Z AUTO VRB05G12KT 10SM -RA SCT034 BKN040 OVC045 07/05 A3003 RMK AO2,K6S2,2023-03-31T06:55:00Z,43.98,-124.12,7.0,5.0,0,5,12,10.0,30.029528,,,TRUE,TRUE,,,,,,-RA,SCT,3400,BKN,4000,OVC,4500,,,VFR,,,,,,,,,,,,METAR,16.0
K6S2 310635Z AUTO 16004KT 10SM SCT042 OVC050 07/06 A3003 RMK AO2,K6S2,2023-03-31T06:35:00Z,43.98,-124.12,7.0,6.0,160,4,,10.0,30.029528,,,TRUE,TRUE,,,,,,,SCT,4200,OVC,5000,,,,,VFR,,,,,,,,,,,,METAR,16.0
K6S2 310615Z AUTO VRB04KT 10SM SCT042 OVC050 08/06 A3002 RMK AO2,K6S2,2023-03-31T06:15:00Z,43.98,-124.12,8.0,6.0,0,4,,10.0,30.02067,,,TRUE,TRUE,,,,,,,SCT,4200,OVC,5000,,,,,VFR,,,,,,,,,,,,METAR,16.0
K6S2 310555Z AUTO 00000KT 10SM BKN042 OVC050 08/06 A3003 RMK AO2,K6S2,2023-03-31T05:55:00Z,43.98,-124.12,8.0,6.0,0,0,,10.0,30.029528,,,TRUE,TRUE,,,,,,,BKN,4200,OVC,5000,,,,,VFR,,,,,,,,,,,,METAR,16.0
K6S2 310535Z AUTO 17004KT 10SM SCT042 OVC050 08/06 A3003 RMK AO2,K6S2,2023-03-31T05:35:00Z,43.98,-124.12,8.0,6.0,170,4,,10.0,30.029528,,,TRUE,TRUE,,,,,,,SCT,4200,OVC,5000,,,,,VFR,,,,,,,,,,,,SPECI,16.0
K6S2 310515Z AUTO 16003KT 10SM FEW026 BKN041 OVC050 08/06 A3003 RMK AO2,K6S2,2023-03-31T05:15:00Z,43.98,-124.12,8.0,6.0,160,3,,10.0,30.029528,,,TRUE,TRUE,,,,,,,FEW,2600,BKN,4100,OVC,5000,,,VFR,,,,,,,,,,,,METAR,16.0
K6S2 310455Z AUTO VRB04KT 10SM FEW023 SCT042 BKN047 08/06 A3002 RMK AO2,K6S2,2023-03-31T04:55:00Z,43.98,-124.12,8.0,6.0,0,4,,10.0,30.02067,,,TRUE,TRUE,,,,,,,FEW,2300,SCT,4200,BKN,4700,,,VFR,,,,,,,,,,,,METAR,16.0
K6S2 310435Z AUTO 18005KT 10SM FEW023 FEW028 OVC050 08/06 A3002 RMK AO2,K6S2,2023-03-31T04:35:00Z,43.98,-124.12,8.0,6.0,180,5,,10.0,30.02067,,,TRUE,TRUE,,,,,,,FEW,2300,FEW,2800,OVC,5000,,,VFR,,,,,,,,,,,,METAR,16.0
K6S2 310415Z AUTO 21005KT 10SM FEW023 SCT028 OVC050 09/06 A3002 RMK AO2,K6S2,2023-03-31T04:15:00Z,43.98,-124.12,9.0,6.0,210,5,,10.0,30.02067,,,TRUE,TRUE,,,,,,,FEW,2300,SCT,2800,OVC,5000,,,VFR,,,,,,,,,,,,METAR,16.0
K6S2 310355Z AUTO VRB04KT 10SM SCT023 SCT028 OVC047 09/06 A3002 RMK AO2,K6S2,2023-03-31T03:55:00Z,43.98,-124.12,9.0,6.0,0,4,,10.0,30.02067,,,TRUE,TRUE,,,,,,,SCT,2300,SCT,2800,OVC,4700,,,VFR,,,,,,,,,,,,METAR,16.0
K6S2 310335Z AUTO 21005KT 10SM FEW021 FEW028 OVC045 08/06 A3001 RMK AO2,K6S2,2023-03-31T03:35:00Z,43.98,-124.12,8.0,6.0,210,5,,10.0,30.008858,,,TRUE,TRUE,,,,,,,FEW,2100,FEW,2800,OVC,4500,,,VFR,,,,,,,,,,,,SPECI,16.0
K6S2 310315Z AUTO 20005KT 10SM FEW021 SCT027 OVC044 09/06 A3001 RMK AO2,K6S2,2023-03-31T03:15:00Z,43.98,-124.12,9.0,6.0,200,5,,10.0,30.008858,,,TRUE,TRUE,,,,,,,FEW,2100,SCT,2700,OVC,4400,,,VFR,,,,,,,,,,,,METAR,16.0
K6S2 310255Z AUTO VRB06G11KT 10SM SCT033 OVC042 08/06 A3001 RMK AO2,K6S2,2023-03-31T02:55:00Z,43.98,-124.12,8.0,6.0,0,6,11,10.0,30.008858,,,TRUE,TRUE,,,,,,,SCT,3300,OVC,4200,,,,,VFR,,,,,,,,,,,,SPECI,16.0
K6S2 310235Z AUTO 22006KT 10SM FEW021 BKN033 OVC040 09/06 A3000 RMK AO2,K6S2,2023-03-31T02:35:00Z,43.98,-124.12,9.0,6.0,220,6,,10.0,30.0,,,TRUE,TRUE,,,,,,,FEW,2100,BKN,3300,OVC,4000,,,VFR,,,,,,,,,,,,SPECI,16.0
K6S2 310215Z AUTO 22006KT 10SM BKN021 BKN033 OVC040 09/06 A3000 RMK AO2,K6S2,2023-03-31T02:15:00Z,43.98,-124.12,9.0,6.0,220,6,,10.0,30.0,,,TRUE,TRUE,,,,,,,BKN,2100,BKN,3300,OVC,4000,,,MVFR,,,,,,,,,,,,SPECI,16.0
K6S2 310155Z AUTO 22005KT 10SM SCT021 BKN029 OVC046 09/06 A3000 RMK AO2,K6S2,2023-03-31T01:55:00Z,43.98,-124.12,9.0,6.0,220,5,,10.0,30.0,,,TRUE,TRUE,,,,,,,SCT,2100,BKN,2900,OVC,4600,,,MVFR,,,,,,,,,,,,METAR,16.0
K6S2 310135Z AUTO VRB05KT 10SM FEW021 BKN028 OVC046 09/06 A3000 RMK AO2,K6S2,2023-03-31T01:35:00Z,43.98,-124.12,9.0,6.0,0,5,,10.0,30.0,,,TRUE,TRUE,,,,,,,FEW,2100,BKN,2800,OVC,4600,,,MVFR,,,,,,,,,,,,SPECI,16.0
K6S2 310115Z AUTO 22007KT 170V230 10SM FEW021 SCT027 BKN034 09/06 A2999 RMK AO2,K6S2,2023-03-31T01:15:00Z,43.98,-124.12,9.0,6.0,220,7,,10.0,29.991142,,,TRUE,TRUE,,,,,,,FEW,2100,SCT,2700,BKN,3400,,,VFR,,,,,,,,,,,,METAR,16.0
K6S2 310055Z AUTO VRB05G11KT 10SM FEW021 BKN026 OVC050 09/06 A2999 RMK AO2,K6S2,2023-03-31T00:55:00Z,43.98,-124.12,9.0,6.0,0,5,11,10.0,29.991142,,,TRUE,TRUE,,,,,,,FEW,2100,BKN,2600,OVC,5000,,,MVFR,,,,,,,,,,,,METAR,16.0
K6S2 310035Z AUTO 22008KT 190V260 10SM SCT021 BKN032 OVC049 09/06 A2999 RMK AO2,K6S2,2023-03-31T00:35:00Z,43.98,-124.12,9.0,6.0,220,8,,10.0,29.991142,,,TRUE,TRUE,,,,,,,SCT,2100,BKN,3200,OVC,4900,,,VFR,,,,,,,,,,,,SPECI,16.0
K6S2 310015Z AUTO 25007KT 10SM BKN022 OVC030 09/06 A2999 RMK AO2,K6S2,2023-03-31T00:15:00Z,43.98,-124.12,9.0,6.0,250,7,,10.0,29.991142,,,TRUE,TRUE,,,,,,,BKN,2200,OVC,3000,,,,,MVFR,,,,,,,,,,,,METAR,16.0
K6S2 302355Z AUTO VRB06KT 10SM SCT022 BKN027 OVC049 09/06 A2999 RMK AO2,K6S2,2023-03-30T23:55:00Z,43.98,-124.12,9.0,6.0,0,6,,10.0,29.991142,,,TRUE,TRUE,,,,,,,SCT,2200,BKN,2700,OVC,4900,,,MVFR,,,,,,,,,,,,METAR,16.0
K6S2 302335Z AUTO 26007G12KT 10SM SCT021 BKN026 OVC050 09/06 A2999 RMK AO2,K6S2,2023-03-30T23:35:00Z,43.98,-124.12,9.0,6.0,260,7,12,10.0,29.991142,,,TRUE,TRUE,,,,,,,SCT,2100,BKN,2600,OVC,5000,,,MVFR,,,,,,,,,,,,METAR,16.0
K6S2 302315Z AUTO 25007KT 10SM SCT021 BKN029 OVC050 09/06 A2999 RMK AO2,K6S2,2023-03-30T23:15:00Z,43.98,-124.12,9.0,6.0,250,7,,10.0,29.991142,,,TRUE,TRUE,,,,,,,SCT,2100,BKN,2900,OVC,5000,,,MVFR,,,,,,,,,,,,METAR,16.0
K6S2 302255Z AUTO 25007KT 10SM BKN021 BKN029 OVC050 09/06 A2999 RMK AO2,K6S2,2023-03-30T22:55:00Z,43.98,-124.12,9.0,6.0,250,7,,10.0,29.991142,,,TRUE,TRUE,,,,,,,BKN,2100,BKN,2900,OVC,5000,,,MVFR,,,,,,,,,,,,METAR,16.0
K6S2 302235Z AUTO 25008KT 10SM SCT021 BKN029 OVC049 10/06 A2999 RMK AO2,K6S2,2023-03-30T22:35:00Z,43.98,-124.12,10.0,6.0,250,8,,10.0,29.991142,,,TRUE,TRUE,,,,,,,SCT,2100,BKN,2900,OVC,4900,,,MVFR,,,,,,,,,,,,METAR,16.0
K6S2 302215Z AUTO VRB07KT 10SM SCT022 BKN030 OVC048 10/06 A2999 RMK AO2,K6S2,2023-03-30T22:15:00Z,43.98,-124.12,10.0,6.0,0,7,,10.0,29.991142,,,TRUE,TRUE,,,,,,,SCT,2200,BKN,3000,OVC,4800,,,MVFR,,,,,,,,,,,,SPECI,16.0
K6S2 302155Z AUTO 25007KT 210V280 10SM BKN021 OVC028 09/06 A2999 RMK AO2,K6S2,2023-03-30T21:55:00Z,43.98,-124.12,9.0,6.0,250,7,,10.0,29.991142,,,TRUE,TRUE,,,,,,,BKN,2100,OVC,2800,,,,,MVFR,,,,,,,,,,,,METAR,16.0
K6S2 302135Z AUTO VRB06G12KT 10SM OVC024 09/06 A2999 RMK AO2,K6S2,2023-03-30T21:35:00Z,43.98,-124.12,9.0,6.0,0,6,12,10.0,29.991142,,,TRUE,TRUE,,,,,,,OVC,2400,,,,,,,MVFR,,,,,,,,,,,,METAR,16.0
K6S2 302115Z AUTO VRB05G11KT 10SM BKN021 OVC025 09/06 A2999 RMK AO2,K6S2,2023-03-30T21:15:00Z,43.98,-124.12,9.0,6.0,0,5,11,10.0,29.991142,,,TRUE,TRUE,,,,,,,BKN,2100,OVC,2500,,,,,MVFR,,,,,,,,,,,,METAR,16.0
K6S2 302055Z AUTO 24007KT 180V270 10SM OVC022 09/06 A2998 RMK AO2,K6S2,2023-03-30T20:55:00Z,43.98,-124.12,9.0,6.0,240,7,,10.0,29.97933,,,TRUE,TRUE,,,,,,,OVC,2200,,,,,,,MVFR,,,,,,,,,,,,METAR,16.0
K6S2 302035Z AUTO VRB06KT 10SM OVC023 09/06 A2998 RMK AO2,K6S2,2023-03-30T20:35:00Z,43.98,-124.12,9.0,6.0,0,6,,10.0,29.97933,,,TRUE,TRUE,,,,,,,OVC,2300,,,,,,,MVFR,,,,,,,,,,,,METAR,16.0
K6S2 302015Z AUTO 23007KT 200V280 10SM BKN025 OVC029 09/06 A2997 RMK AO2,K6S2,2023-03-30T20:15:00Z,43.98,-124.12,9.0,6.0,230,7,,10.0,29.970472,,,TRUE,TRUE,,,,,,,BKN,2500,OVC,2900,,,,,MVFR,,,,,,,,,,,,METAR,16.0
K6S2 301955Z AUTO 27007KT 10SM BKN027 BKN032 OVC037 09/06 A2997 RMK AO2,K6S2,2023-03-30T19:55:00Z,43.98,-124.12,9.0,6.0,270,7,,10.0,29.970472,,,TRUE,TRUE,,,,,,,BKN,2700,BKN,3200,OVC,3700,,,MVFR,,,,,,,,,,,,METAR,16.0
K6S2 301935Z AUTO VRB06KT 10SM FEW026 OVC038 10/07 A2997 RMK AO2,K6S2,2023-03-30T19:35:00Z,43.98,-124.12,10.0,7.0,0,6,,10.0,29.970472,,,TRUE,TRUE,,,,,,,FEW,2600,OVC,3800,,,,,VFR,,,,,,,,,,,,SPECI,16.0
K6S2 301915Z AUTO 24007KT 10SM OVC038 10/07 A2996 RMK AO2,K6S2,2023-03-30T19:15:00Z,43.98,-124.12,10.0,7.0,240,7,,10.0,29.958662,,,TRUE,TRUE,,,,,,,OVC,3800,,,,,,,VFR,,,,,,,,,,,,SPECI,16.0
K6S2 301855Z AUTO VRB06KT 10SM OVC038 10/06 A2996 RMK AO2,K6S2,2023-03-30T18:55:00Z,43.98,-124.12,10.0,6.0,0,6,,10.0,29.958662,,,TRUE,TRUE,,,,,,,OVC,3800,,,,,,,VFR,,,,,,,,,,,,METAR,16.0
K6S2 301835Z AUTO VRB05KT 10SM SCT027 OVC037 10/06 A2996 RMK AO2,K6S2,2023-03-30T18:35:00Z,43.98,-124.12,10.0,6.0,0,5,,10.0,29.958662,,,TRUE,TRUE,,,,,,,SCT,2700,OVC,3700,,,,,VFR,,,,,,,,,,,,METAR,16.0
K6S2 301815Z AUTO VRB06KT 10SM FEW028 OVC037 10/06 A2995 RMK AO2,K6S2,2023-03-30T18:15:00Z,43.98,-124.12,10.0,6.0,0,6,,10.0,29.949802,,,TRUE,TRUE,,,,,,,FEW,2800,OVC,3700,,,,,VFR,,,,,,,,,,,,METAR,16.0
K6S2 301755Z AUTO 22007KT 190V260 10SM FEW020 OVC035 10/08 A2994 RMK AO2,K6S2,2023-03-30T17:55:00Z,43.98,-124.12,10.0,8.0,220,7,,10.0,29.940945,,,TRUE,TRUE,,,,,,,FEW,2000,OVC,3500,,,,,VFR,,,,,,,,,,,,METAR,16.0
K6S2 301735Z AUTO VRB05KT 10SM FEW026 OVC033 09/08 A2994 RMK AO2,K6S2,2023-03-30T17:35:00Z,43.98,-124.12,9.0,8.0,0,5,,10.0,29.940945,,,TRUE,TRUE,,,,,,,FEW,2600,OVC,3300,,,,,VFR,,,,,,,,,,,,METAR,16.0
K6S2 301715Z AUTO 19005KT 10SM FEW025 OVC033 09/08 A2994 RMK AO2,K6S2,2023-03-30T17:15:00Z,43.98,-124.12,9.0,8.0,190,5,,10.0,29.940945,,,TRUE,TRUE,,,,,,,FEW,2500,OVC,3300,,,,,VFR,,,,,,,,,,,,METAR,16.0
K6S2 301655Z AUTO 18004KT 10SM OVC031 08/08 A2993 RMK AO2,K6S2,2023-03-30T16:55:00Z,43.98,-124.12,8.0,8.0,180,4,,10.0,29.929134,,,TRUE,TRUE,,,,,,,OVC,3100,,,,,,,VFR,,,,,,,,,,,,METAR,16.0
K6S2 301635Z AUTO VRB04KT 10SM OVC030 08/08 A2993 RMK AO2,K6S2,2023-03-30T16:35:00Z,43.98,-124.12,8.0,8.0,0,4,,10.0,29.929134,,,TRUE,TRUE,,,,,,,OVC,3000,,,,,,,MVFR,,,,,,,,,,,,METAR,16.0
K6S2 301615Z AUTO 18005KT 10SM OVC030 08/08 A2992 RMK AO2,K6S2,2023-03-30T16:15:00Z,43.98,-124.12,8.0,8.0,180,5,,10.0,29.920275,,,TRUE,TRUE,,,,,,,OVC,3000,,,,,,,MVFR,,,,,,,,,,,,METAR,16.0
K6S2 301555Z AUTO 18004KT 10SM OVC030 08/08 A2992 RMK AO2,K6S2,2023-03-30T15:55:00Z,43.98,-124.12,8.0,8.0,180,4,,10.0,29.920275,,,TRUE,TRUE,,,,,,,OVC,3000,,,,,,,MVFR,,,,,,,,,,,,METAR,16.0
K6S2 301535Z AUTO VRB03KT 10SM OVC030 08/08 A2992 RMK AO2,K6S2,2023-03-30T15:35:00Z,43.98,-124.12,8.0,8.0,0,3,,10.0,29.920275,,,TRUE,TRUE,,,,,,,OVC,3000,,,,,,,MVFR,,,,,,,,,,,,SPECI,16.0
K6S2 301515Z AUTO 17004KT 10SM OVC029 08/08 A2992 RMK AO2,K6S2,2023-03-30T15:15:00Z,43.98,-124.12,8.0,8.0,170,4,,10.0,29.920275,,,TRUE,TRUE,,,,,,,OVC,2900,,,,,,,MVFR,,,,,,,,,,,,SPECI,16.0
K6S2 301455Z AUTO 00000KT 10SM OVC026 08/08 A2992 RMK AO2,K6S2,2023-03-30T14:55:00Z,43.98,-124.12,8.0,8.0,0,0,,10.0,29.920275,,,TRUE,TRUE,,,,,,,OVC,2600,,,,,,,MVFR,,,,,,,,,,,,SPECI,16.0
K6S2 301435Z AUTO 00000KT 10SM BKN025 OVC031 07/07 A2991 RMK AO2,K6S2,2023-03-30T14:35:00Z,43.98,-124.12,7.0,7.0,0,0,,10.0,29.911417,,,TRUE,TRUE,,,,,,,BKN,2500,OVC,3100,,,,,MVFR,,,,,,,,,,,,SPECI,16.0
K6S2 301415Z AUTO 00000KT 10SM FEW016 BKN021 OVC032 07/07 A2991 RMK AO2,K6S2,2023-03-30T14:15:00Z,43.98,-124.12,7.0,7.0,0,0,,10.0,29.911417,,,TRUE,TRUE,,,,,,,FEW,1600,BKN,2100,OVC,3200,,,MVFR,,,,,,,,,,,,METAR,16.0
K6S2 301355Z AUTO 00000KT 10SM BKN016 BKN021 BKN028 07/07 A2990 RMK AO2,K6S2,2023-03-30T13:55:00Z,43.98,-124.12,7.0,7.0,0,0,,10.0,29.899607,,,TRUE,TRUE,,,,,,,BKN,1600,BKN,2100,BKN,2800,,,MVFR,,,,,,,,,,,,SPECI,16.0
K6S2 301335Z AUTO 15003KT 10SM FEW013 FEW020 BKN035 07/07 A2990 RMK AO2,K6S2,2023-03-30T13:35:00Z,43.98,-124.12,7.0,7.0,150,3,,10.0,29.899607,,,TRUE,TRUE,,,,,,,FEW,1300,FEW,2000,BKN,3500,,,VFR,,,,,,,,,,,,METAR,16.0
K6S2 301315Z AUTO 00000KT 10SM FEW028 OVC034 07/07 A2990 RMK AO2,K6S2,2023-03-30T13:15:00Z,43.98,-124.12,7.0,7.0,0,0,,10.0,29.899607,,,TRUE,TRUE,,,,,,,FEW,2800,OVC,3400,,,,,VFR,,,,,,,,,,,,METAR,16.0
K6S2 301255Z AUTO 00000KT 10SM FEW011 SCT019 BKN027 07/07 A2990 RMK AO2,K6S2,2023-03-30T12:55:00Z,43.98,-124.12,7.0,7.0,0,0,,10.0,29.899607,,,TRUE,TRUE,,,,,,,FEW,1100,SCT,1900,BKN,2700,,,MVFR,,,,,,,,,,,,METAR,16.0
K6S2 301235Z AUTO 00000KT 10SM BKN011 OVC018 07/07 A2990 RMK AO2,K6S2,2023-03-30T12:35:00Z,43.98,-124.12,7.0,7.0,0,0,,10.0,29.899607,,,TRUE,TRUE,,,,,,,BKN,1100,OVC,1800,,,,,MVFR,,,,,,,,,,,,METAR,16.0
K6S2 301215Z AUTO 00000KT 10SM BKN011 BKN016 OVC024 07/07 A2989 RMK AO2,K6S2,2023-03-30T12:15:00Z,43.98,-124.12,7.0,7.0,0,0,,10.0,29.890747,,,TRUE,TRUE,,,,,,,BKN,1100,BKN,1600,OVC,2400,,,MVFR,,,,,,,,,,,,SPECI,16.0
K6S2 301155Z AUTO 00000KT 10SM BKN011 BKN016 OVC021 07/07 A2989 RMK AO2,K6S2,2023-03-30T11:55:00Z,43.98,-124.12,7.0,7.0,0,0,,10.0,29.890747,,,TRUE,TRUE,,,,,,,BKN,1100,BKN,1600,OVC,2100,,,MVFR,,,,,,,,,,,,METAR,16.0
K6S2 301135Z AUTO 00000KT 10SM BKN010 BKN032 06/06 A2989 RMK AO2,K6S2,2023-03-30T11:35:00Z,43.98,-124.12,6.0,6.0,0,0,,10.0,29.890747,,,TRUE,TRUE,,,,,,,BKN,1000,BKN,3200,,,,,MVFR,,,,,,,,,,,,METAR,16.0
K6S2 301115Z AUTO 00000KT 10SM BKN010 BKN014 06/06 A2989 RMK AO2,K6S2,2023-03-30T11:15:00Z,43.98,-124.12,6.0,6.0,0,0,,10.0,29.890747,,,TRUE,TRUE,,,,,,,BKN,1000,BKN,1400,,,,,MVFR,,,,,,,,,,,,SPECI,16.0
K6S2 301055Z AUTO 00000KT 10SM BKN012 07/07 A2989 RMK AO2,K6S2,2023-03-30T10:55:00Z,43.98,-124.12,7.0,7.0,0,0,,10.0,29.890747,,,TRUE,TRUE,,,,,,,BKN,1200,,,,,,,MVFR,,,,,,,,,,,,METAR,16.0
K6S2 301035Z AUTO 14003KT 10SM BKN013 BKN036 07/07 A2989 RMK AO2,K6S2,2023-03-30T10:35:00Z,43.98,-124.12,7.0,7.0,140,3,,10.0,29.890747,,,TRUE,TRUE,,,,,,,BKN,1300,BKN,3600,,,,,MVFR,,,,,,,,,,,,METAR,16.0
K6S2 301015Z AUTO 14003KT 10SM SCT011 SCT016 OVC035 07/07 A2989 RMK AO2,K6S2,2023-03-30T10:15:00Z,43.98,-124.12,7.0,7.0,140,3,,10.0,29.890747,,,TRUE,TRUE,,,,,,,SCT,1100,SCT,1600,OVC,3500,,,VFR,,,,,,,,,,,,SPECI,16.0
K6S2 300955Z AUTO 00000KT 10SM FEW011 BKN017 OVC041 07/07 A2989 RMK AO2,K6S2,2023-03-30T09:55:00Z,43.98,-124.12,7.0,7.0,0,0,,10.0,29.890747,,,TRUE,TRUE,,,,,,,FEW,1100,BKN,1700,OVC,4100,,,MVFR,,,,,,,,,,,,METAR,16.0
K6S2 300935Z AUTO 00000KT 10SM FEW012 SCT016 BKN040 07/07 A2990 RMK AO2,K6S2,2023-03-30T09:35:00Z,43.98,-124.12,7.0,7.0,0,0,,10.0,29.899607,,,TRUE,TRUE,,,,,,,FEW,1200,SCT,1600,BKN,4000,,,VFR,,,,,,,,,,,,SPECI,16.0
K6S2 300915Z AUTO 00000KT 10SM FEW022 SCT027 OVC038 07/07 A2990 RMK AO2,K6S2,2023-03-30T09:15:00Z,43.98,-124.12,7.0,7.0,0,0,,10.0,29.899607,,,TRUE,TRUE,,,,,,,FEW,2200,SCT,2700,OVC,3800,,,VFR,,,,,,,,,,,,SPECI,16.0
K6S2 300855Z AUTO 00000KT 10SM FEW021 OVC036 07/07 A2990 RMK AO2,K6S2,2023-03-30T08:55:00Z,43.98,-124.12,7.0,7.0,0,0,,10.0,29.899607,,,TRUE,TRUE,,,,,,,FEW,2100,OVC,3600,,,,,VFR,,,,,,,,,,,,METAR,16.0
K6S2 300835Z AUTO 00000KT 10SM OVC036 06/06 A2990 RMK AO2,K6S2,2023-03-30T08:35:00Z,43.98,-124.12,6.0,6.0,0,0,,10.0,29.899607,,,TRUE,TRUE,,,,,,,OVC,3600,,,,,,,VFR,,,,,,,,,,,,SPECI,16.0
K6S2 300815Z AUTO 00000KT 10SM OVC034 06/06 A2990 RMK AO2,K6S2,2023-03-30T08:15:00Z,43.98,-124.12,6.0,6.0,0,0,,10.0,29.899607,,,TRUE,TRUE,,,,,,,OVC,3400,,,,,,,VFR,,,,,,,,,,,,SPECI,16.0
K6S2 300755Z AUTO 00000KT 10SM FEW019 SCT025 BKN030 06/06 A2990 RMK AO2,K6S2,2023-03-30T07:55:00Z,43.98,-124.12,6.0,6.0,0,0,,10.0,29.899607,,,TRUE,TRUE,,,,,,,FEW,1900,SCT,2500,BKN,3000,,,MVFR,,,,,,,,,,,,SPECI,16.0
K6S2 300735Z AUTO 00000KT 10SM FEW019 BKN029 06/06 A2990 RMK AO2,K6S2,2023-03-30T07:35:00Z,43.98,-124.12,6.0,6.0,0,0,,10.0,29.899607,,,TRUE,TRUE,,,,,,,FEW,1900,BKN,2900,,,,,MVFR,,,,,,,,,,,,METAR,16.0
K6S2 300715Z AUTO 00000KT 10SM FEW014 FEW026 SCT031 06/06 A2990 RMK AO2,K6S2,2023-03-30T07:15:00Z,43.98,-124.12,6.0,6.0,0,0,,10.0,29.899607,,,TRUE,TRUE,,,,,,,FEW,1400,FEW,2600,SCT,3100,,,VFR,,,,,,,,,,,,METAR,16.0
K6S2 300655Z AUTO 00000KT 10SM BKN013 BKN026 BKN031 06/06 A2990 RMK AO2,K6S2,2023-03-30T06:55:00Z,43.98,-124.12,6.0,6.0,0,0,,10.0,29.899607,,,TRUE,TRUE,,,,,,,BKN,1300,BKN,2600,BKN,3100,,,MVFR,,,,,,,,,,,,METAR,16.0
K6S2 300635Z AUTO 00000KT 10SM FEW011 SCT021 BKN027 06/06 A2989 RMK AO2,K6S2,2023-03-30T06:35:00Z,43.98,-124.12,6.0,6.0,0,0,,10.0,29.890747,,,TRUE,TRUE,,,,,,,FEW,1100,SCT,2100,BKN,2700,,,MVFR,,,,,,,,,,,,METAR,16.0
K6S2 300615Z AUTO 00000KT 10SM FEW013 SCT020 BKN025 07/07 A2989 RMK AO2,K6S2,2023-03-30T06:15:00Z,43.98,-124.12,7.0,7.0,0,0,,10.0,29.890747,,,TRUE,TRUE,,,,,,,FEW,1300,SCT,2000,BKN,2500,,,MVFR,,,,,,,,,,,,SPECI,16.0
K6S2 300555Z AUTO 00000KT 10SM FEW012 SCT017 OVC023 07/07 A2989 RMK AO2,K6S2,2023-03-30T05:55:00Z,43.98,-124.12,7.0,7.0,0,0,,10.0,29.890747,,,TRUE,TRUE,,,,,,,FEW,1200,SCT,1700,OVC,2300,,,MVFR,,,,,,,,,,,,METAR,16.0
K6S2 300535Z AUTO 00000KT 10SM FEW013 BKN018 BKN024 07/07 A2989 RMK AO2,K6S2,2023-03-30T05:35:00Z,43.98,-124.12,7.0,7.0,0,0,,10.0,29.890747,,,TRUE,TRUE,,,,,,,FEW,1300,BKN,1800,BKN,2400,,,MVFR,,,,,,,,,,,,SPECI,16.0
K6S2 300515Z AUTO 00000KT 10SM SCT014 BKN019 BKN025 07/07 A2988 RMK AO2,K6S2,2023-03-30T05:15:00Z,43.98,-124.12,7.0,7.0,0,0,,10.0,29.878937,,,TRUE,TRUE,,,,,,,SCT,1400,BKN,1900,BKN,2500,,,MVFR,,,,,,,,,,,,SPECI,16.0
K6S2 300455Z AUTO 00000KT 10SM FEW013 FEW020 08/08 A2989 RMK AO2,K6S2,2023-03-30T04:55:00Z,43.98,-124.12,8.0,8.0,0,0,,10.0,29.890747,,,TRUE,TRUE,,,,,,,FEW,1300,FEW,2000,,,,,VFR,,,,,,,,,,,,METAR,16.0
K6S2 300435Z AUTO 00000KT 10SM FEW012 FEW018 SCT029 08/08 A2988 RMK AO2,K6S2,2023-03-30T04:35:00Z,43.98,-124.12,8.0,8.0,0,0,,10.0,29.878937,,,TRUE,TRUE,,,,,,,FEW,1200,FEW,1800,SCT,2900,,,VFR,,,,,,,,,,,,METAR,16.0
K6S2 300415Z AUTO 00000KT 10SM BKN012 BKN018 OVC025 09/09 A2988 RMK AO2,K6S2,2023-03-30T04:15:00Z,43.98,-124.12,9.0,9.0,0,0,,10.0,29.878937,,,TRUE,TRUE,,,,,,,BKN,1200,BKN,1800,OVC,2500,,,MVFR,,,,,,,,,,,,METAR,16.0
K6S2 300355Z AUTO 00000KT 10SM BKN012 OVC019 09/09 A2988 RMK AO2,K6S2,2023-03-30T03:55:00Z,43.98,-124.12,9.0,9.0,0,0,,10.0,29.878937,,,TRUE,TRUE,,,,,,,BKN,1200,OVC,1900,,,,,MVFR,,,,,,,,,,,,METAR,16.0
K6S2 300335Z AUTO 00000KT 10SM BKN013 BKN019 OVC032 09/09 A2987 RMK AO2,K6S2,2023-03-30T03:35:00Z,43.98,-124.12,9.0,9.0,0,0,,10.0,29.870079,,,TRUE,TRUE,,,,,,,BKN,1300,BKN,1900,OVC,3200,,,MVFR,,,,,,,,,,,,SPECI,16.0
K6S2 300315Z AUTO 00000KT 10SM FEW013 BKN032 08/08 A2987 RMK AO2,K6S2,2023-03-30T03:15:00Z,43.98,-124.12,8.0,8.0,0,0,,10.0,29.870079,,,TRUE,TRUE,,,,,,,FEW,1300,BKN,3200,,,,,VFR,,,,,,,,,,,,METAR,16.0
K6S2 300255Z AUTO 00000KT 10SM BKN012 BKN032 09/09 A2986 RMK AO2,K6S2,2023-03-30T02:55:00Z,43.98,-124.12,9.0,9.0,0,0,,10.0,29.861221,,,TRUE,TRUE,,,,,,,BKN,1200,BKN,3200,,,,,MVFR,,,,,,,,,,,,METAR,16.0
K6S2 300235Z AUTO 00000KT 10SM BKN012 BKN030 09/08 A2986 RMK AO2,K6S2,2023-03-30T02:35:00Z,43.98,-124.12,9.0,8.0,0,0,,10.0,29.861221,,,TRUE,TRUE,,,,,,,BKN,1200,BKN,3000,,,,,MVFR,,,,,,,,,,,,METAR,16.0
K6S2 300215Z AUTO 24003KT 10SM FEW013 FEW018 OVC029 10/08 A2986 RMK AO2,K6S2,2023-03-30T02:15:00Z,43.98,-124.12,10.0,8.0,240,3,,10.0,29.861221,,,TRUE,TRUE,,,,,,,FEW,1300,FEW,1800,OVC,2900,,,MVFR,,,,,,,,,,,,METAR,16.0
K6S2 300155Z AUTO 23004KT 10SM SCT020 BKN026 10/08 A2986 RMK AO2,K6S2,2023-03-30T01:55:00Z,43.98,-124.12,10.0,8.0,230,4,,10.0,29.861221,,,TRUE,TRUE,,,,,,,SCT,2000,BKN,2600,,,,,MVFR,,,,,,,,,,,,METAR,16.0
K6S2 300135Z AUTO 00000KT 10SM CLR 10/08 A2986 RMK AO2,K6S2,2023-03-30T01:35:00Z,43.98,-124.12,10.0,8.0,0,0,,10.0,29.861221,,,TRUE,TRUE,,,,,,,CLR,,,,,,,,VFR,,,,,,,,,,,,SPECI,16.0
K6S2 300115Z AUTO VRB03KT 10SM FEW014 FEW019 10/08 A2985 RMK AO2,K6S2,2023-03-30T01:15:00Z,43.98,-124.12,10.0,8.0,0,3,,10.0,29.84941,,,TRUE,TRUE,,,,,,,FEW,1400,FEW,1900,,,,,VFR,,,,,,,,,,,,METAR,16.0
K6S2 300055Z AUTO 31005KT 10SM BKN014 BKN019 10/08 A2985 RMK AO2,K6S2,2023-03-30T00:55:00Z,43.98,-124.12,10.0,8.0,310,5,,10.0,29.84941,,,TRUE,TRUE,,,,,,,BKN,1400,BKN,1900,,,,,MVFR,,,,,,,,,,,,METAR,16.0
K6S2 300035Z AUTO 27005KT 10SM BKN014 10/08 A2985 RMK AO2,K6S2,2023-03-30T00:35:00Z,43.98,-124.12,10.0,8.0,270,5,,10.0,29.84941,,,TRUE,TRUE,,,,,,,BKN,1400,,,,,,,MVFR,,,,,,,,,,,,METAR,16.0
K6S2 300015Z AUTO 00000KT 10SM FEW015 10/07 A2985 RMK AO2,K6S2,2023-03-30T00:15:00Z,43.98,-124.12,10.0,7.0,0,0,,10.0,29.84941,,,TRUE,TRUE,,,,,,,FEW,1500,,,,,,,VFR,,,,,,,,,,,,SPECI,16.0
K6S2 292355Z AUTO VRB04KT 10SM CLR 10/07 A2985 RMK AO2 LTG DSNT S,K6S2,2023-03-29T23:55:00Z,43.98,-124.12,10.0,7.0,0,4,,10.0,29.84941,,,TRUE,TRUE,,,,,,,CLR,,,,,,,,VFR,,,,,,,,,,,,METAR,16.0
K6S2 292335Z AUTO 28007KT 240V320 10SM CLR 11/08 A2985 RMK AO2,K6S2,2023-03-29T23:35:00Z,43.98,-124.12,11.0,8.0,280,7,,10.0,29.84941,,,TRUE,TRUE,,,,,,,CLR,,,,,,,,VFR,,,,,,,,,,,,METAR,16.0
K6S2 292315Z AUTO 31008KT 10SM CLR 10/07 A2985 RMK AO2,K6S2,2023-03-29T23:15:00Z,43.98,-124.12,10.0,7.0,310,8,,10.0,29.84941,,,TRUE,TRUE,,,,,,,CLR,,,,,,,,VFR,,,,,,,,,,,,SPECI,16.0
K6S2 292255Z AUTO 29007KT 10SM CLR 10/07 A2985 RMK AO2,K6S2,2023-03-29T22:55:00Z,43.98,-124.12,10.0,7.0,290,7,,10.0,29.84941,,,TRUE,TRUE,,,,,,,CLR,,,,,,,,VFR,,,,,,,,,,,,METAR,16.0
K6S2 292235Z AUTO 29008KT 10SM CLR 10/07 A2985 RMK AO2,K6S2,2023-03-29T22:35:00Z,43.98,-124.12,10.0,7.0,290,8,,10.0,29.84941,,,TRUE,TRUE,,,,,,,CLR,,,,,,,,VFR,,,,,,,,,,,,SPECI,16.0
K6S2 292215Z AUTO 30006KT 10SM CLR 10/06 A2985 RMK AO2,K6S2,2023-03-29T22:15:00Z,43.98,-124.12,10.0,6.0,300,6,,10.0,29.84941,,,TRUE,TRUE,,,,,,,CLR,,,,,,,,VFR,,,,,,,,,,,,METAR,16.0
K6S2 292155Z AUTO 30007KT 10SM CLR 10/06 A2985 RMK AO2,K6S2,2023-03-29T21:55:00Z,43.98,-124.12,10.0,6.0,300,7,,10.0,29.84941,,,TRUE,TRUE,,,,,,,CLR,,,,,,,,VFR,,,,,,,,,,,,METAR,16.0
K6S2 292115Z AUTO 30006KT 10SM CLR 10/06 A2986 RMK AO2,K6S2,2023-03-29T21:15:00Z,43.98,-124.12,10.0,6.0,300,6,,10.0,29.861221,,,TRUE,TRUE,,,,,,,CLR,,,,,,,,VFR,,,,,,,,,,,,METAR,16.0
K6S2 292055Z AUTO 29006KT 10SM CLR 10/06 A2986 RMK AO2,K6S2,2023-03-29T20:55:00Z,43.98,-124.12,10.0,6.0,290,6,,10.0,29.861221,,,TRUE,TRUE,,,,,,,CLR,,,,,,,,VFR,,,,,,,,,,,,SPECI,16.0
K6S2 292035Z AUTO 30007KT 260V330 10SM CLR 10/06 A2986 RMK AO2,K6S2,2023-03-29T20:35:00Z,43.98,-124.12,10.0,6.0,300,7,,10.0,29.861221,,,TRUE,TRUE,,,,,,,CLR,,,,,,,,VFR,,,,,,,,,,,,METAR,16.0
K6S2 292015Z AUTO 31008KT 10SM CLR 10/06 A2987 RMK AO2,K6S2,2023-03-29T20:15:00Z,43.98,-124.12,10.0,6.0,310,8,,10.0,29.870079,,,TRUE,TRUE,,,,,,,CLR,,,,,,,,VFR,,,,,,,,,,,,METAR,16.0
K6S2 291955Z AUTO 29008KT 10SM CLR 09/07 A2986 RMK AO2,K6S2,2023-03-29T19:55:00Z,43.98,-124.12,9.0,7.0,290,8,,10.0,29.861221,,,TRUE,TRUE,,,,,,,CLR,,,,,,,,VFR,,,,,,,,,,,,METAR,16.0
K6S2 291935Z AUTO 31009KT 10SM CLR 10/06 A2986 RMK AO2,K6S2,2023-03-29T19:35:00Z,43.98,-124.12,10.0,6.0,310,9,,10.0,29.861221,,,TRUE,TRUE,,,,,,,CLR,,,,,,,,VFR,,,,,,,,,,,,METAR,16.0
K6S2 291915Z AUTO 29009KT 10SM CLR 10/06 A2986 RMK AO2,K6S2,2023-03-29T19:15:00Z,43.98,-124.12,10.0,6.0,290,9,,10.0,29.861221,,,TRUE,TRUE,,,,,,,CLR,,,,,,,,VFR,,,,,,,,,,,,METAR,16.0
K6S2 291855Z AUTO 29007KT 260V320 10SM CLR 11/06 A2985 RMK AO2,K6S2,2023-03-29T18:55:00Z,43.98,-124.12,11.0,6.0,290,7,,10.0,29.84941,,,TRUE,TRUE,,,,,,,CLR,,,,,,,,VFR,,,,,,,,,,,,METAR,16.0
K6S2 291835Z AUTO 00000KT 10SM CLR 11/05 A2984 RMK AO2,K6S2,2023-03-29T18:35:00Z,43.98,-124.12,11.0,5.0,0,0,,10.0,29.840551,,,TRUE,TRUE,,,,,,,CLR,,,,,,,,VFR,,,,,,,,,,,,METAR,16.0
K6S2 291815Z AUTO VRB04KT 10SM FEW120 11/06 A2984 RMK AO2,K6S2,2023-03-29T18:15:00Z,43.98,-124.12,11.0,6.0,0,4,,10.0,29.840551,,,TRUE,TRUE,,,,,,,FEW,12000,,,,,,,VFR,,,,,,,,,,,,SPECI,16.0
K6S2 291755Z AUTO VRB03KT 10SM CLR 10/06 A2984 RMK AO2,K6S2,2023-03-29T17:55:00Z,43.98,-124.12,10.0,6.0,0,3,,10.0,29.840551,,,TRUE,TRUE,,,,,,,CLR,,,,,,,,VFR,,,,,,,,,,,,METAR,16.0
K6S2 291735Z AUTO 11006KT 10SM CLR 09/06 A2984 RMK AO2,K6S2,2023-03-29T17:35:00Z,43.98,-124.12,9.0,6.0,110,6,,10.0,29.840551,,,TRUE,TRUE,,,,,,,CLR,,,,,,,,VFR,,,,,,,,,,,,METAR,16.0
K6S2 291715Z AUTO VRB04KT 10SM CLR 08/06 A2983 RMK AO2,K6S2,2023-03-29T17:15:00Z,43.98,-124.12,8.0,6.0,0,4,,10.0,29.828741,,,TRUE,TRUE,,,,,,,CLR,,,,,,,,VFR,,,,,,,,,,,,METAR,16.0
K6S2 291655Z AUTO VRB04KT 10SM CLR 08/05 A2984 RMK AO2,K6S2,2023-03-29T16:55:00Z,43.98,-124.12,8.0,5.0,0,4,,10.0,29.840551,,,TRUE,TRUE,,,,,,,CLR,,,,,,,,VFR,,,,,,,,,,,,METAR,16.0
K6S2 291635Z AUTO VRB04KT 10SM CLR 07/05 A2983 RMK AO2,K6S2,2023-03-29T16:35:00Z,43.98,-124.12,7.0,5.0,0,4,,10.0,29.828741,,,TRUE,TRUE,,,,,,,CLR,,,,,,,,VFR,,,,,,,,,,,,METAR,16.0
K6S2 291615Z AUTO VRB05KT 10SM SCT085 06/05 A2983 RMK AO2,K6S2,2023-03-29T16:15:00Z,43.98,-124.12,6.0,5.0,0,5,,10.0,29.828741,,,TRUE,TRUE,,,,,,,SCT,8500,,,,,,,VFR,,,,,,,,,,,,SPECI,16.0
K6S2 291555Z AUTO VRB05KT 10SM OVC085 06/05 A2982 RMK AO2,K6S2,2023-03-29T15:55:00Z,43.98,-124.12,6.0,5.0,0,5,,10.0,29.819881,,,TRUE,TRUE,,,,,,,OVC,8500,,,,,,,VFR,,,,,,,,,,,,METAR,16.0
K6S2 291535Z AUTO VRB05KT 10SM OVC080 05/05 A2982 RMK AO2,K6S2,2023-03-29T15:35:00Z,43.98,-124.12,5.0,5.0,0,5,,10.0,29.819881,,,TRUE,TRUE,,,,,,,OVC,8000,,,,,,,VFR,,,,,,,,,,,,METAR,16.0
K6S2 291515Z AUTO VRB06KT 10SM BKN080 05/04 A2982 RMK AO2,K6S2,2023-03-29T15:15:00Z,43.98,-124.12,5.0,4.0,0,6,,10.0,29.819881,,,TRUE,TRUE,,,,,,,BKN,8000,,,,,,,VFR,,,,,,,,,,,,SPECI,16.0
K6S2 291455Z AUTO 00000KT 10SM CLR 04/04 A2981 RMK AO2,K6S2,2023-03-29T14:55:00Z,43.98,-124.12,4.0,4.0,0,0,,10.0,29.811024,,,TRUE,TRUE,,,,,,,CLR,,,,,,,,VFR,,,,,,,,,,,,METAR,16.0
K6S2 291435Z AUTO VRB04G12KT 10SM CLR 04/04 A2980 RMK AO2,K6S2,2023-03-29T14:35:00Z,43.98,-124.12,4.0,4.0,0,4,12,10.0,29.799213,,,TRUE,TRUE,,,,,,,CLR,,,,,,,,VFR,,,,,,,,,,,,METAR,16.0
K6S2 291415Z AUTO 00000KT 10SM CLR 04/04 A2979 RMK AO2,K6S2,2023-03-29T14:15:00Z,43.98,-124.12,4.0,4.0,0,0,,10.0,29.790354,,,TRUE,TRUE,,,,,,,CLR,,,,,,,,VFR,,,,,,,,,,,,METAR,16.0
K6S2 291355Z AUTO VRB03KT 10SM FEW017 04/04 A2979 RMK AO2,K6S2,2023-03-29T13:55:00Z,43.98,-124.12,4.0,4.0,0,3,,10.0,29.790354,,,TRUE,TRUE,,,,,,,FEW,1700,,,,,,,VFR,,,,,,,,,,,,METAR,16.0
K6S2 291335Z AUTO 00000KT 10SM FEW017 04/04 A2978 RMK AO2,K6S2,2023-03-29T13:35:00Z,43.98,-124.12,4.0,4.0,0,0,,10.0,29.778543,,,TRUE,TRUE,,,,,,,FEW,1700,,,,,,,VFR,,,,,,,,,,,,METAR,16.0
K6S2 291315Z AUTO 00000KT 10SM SCT110 04/04 A2977 RMK AO2,K6S2,2023-03-29T13:15:00Z,43.98,-124.12,4.0,4.0,0,0,,10.0,29.769686,,,TRUE,TRUE,,,,,,,SCT,11000,,,,,,,VFR,,,,,,,,,,,,METAR,16.0
K6S2 291255Z AUTO 00000KT 10SM FEW110 05/04 A2977 RMK AO2,K6S2,2023-03-29T12:55:00Z,43.98,-124.12,5.0,4.0,0,0,,10.0,29.769686,,,TRUE,TRUE,,,,,,,FEW,11000,,,,,,,VFR,,,,,,,,,,,,METAR,16.0
K6S2 291235Z AUTO 34005KT 10SM FEW110 05/04 A2976 RMK AO2,K6S2,2023-03-29T12:35:00Z,43.98,-124.12,5.0,4.0,340,5,,10.0,29.760826,,,TRUE,TRUE,,,,,,,FEW,11000,,,,,,,VFR,,,,,,,,,,,,METAR,16.0
K6S2 291215Z AUTO VRB05G12KT 10SM CLR 05/04 A2975 RMK AO2,K6S2,2023-03-29T12:15:00Z,43.98,-124.12,5.0,4.0,0,5,12,10.0,29.749016,,,TRUE,TRUE,,,,,,,CLR,,,,,,,,VFR,,,,,,,,,,,,METAR,16.0
K6S2 291155Z AUTO VRB06G14KT 10SM CLR 05/04 A2974 RMK AO2,K6S2,2023-03-29T11:55:00Z,43.98,-124.12,5.0,4.0,0,6,14,10.0,29.740158,,,TRUE,TRUE,,,,,,,CLR,,,,,,,,VFR,,,,,,,,,,,,METAR,16.0
K6S2 291135Z AUTO VRB05G15KT 10SM FEW080 05/04 A2974 RMK AO2,K6S2,2023-03-29T11:35:00Z,43.98,-124.12,5.0,4.0,0,5,15,10.0,29.740158,,,TRUE,TRUE,,,,,,,FEW,8000,,,,,,,VFR,,,,,,,,,,,,METAR,16.0
K6S2 291115Z AUTO 10007G14KT 060V150 10SM BKN080 BKN095 05/04 A2974 RMK AO2,K6S2,2023-03-29T11:15:00Z,43.98,-124.12,5.0,4.0,100,7,14,10.0,29.740158,,,TRUE,TRUE,,,,,,,BKN,8000,BKN,9500,,,,,VFR,,,,,,,,,,,,SPECI,16.0
K6S2 291055Z AUTO VRB05G12KT 10SM BKN085 BKN110 05/04 A2974 RMK AO2,K6S2,2023-03-29T10:55:00Z,43.98,-124.12,5.0,4.0,0,5,12,10.0,29.740158,,,TRUE,TRUE,,,,,,,BKN,8500,BKN,11000,,,,,VFR,,,,,,,,,,,,SPECI,16.0
K6S2 291035Z AUTO VRB05G11KT 10SM FEW090 05/04 A2974 RMK AO2,K6S2,2023-03-29T10:35:00Z,43.98,-124.12,5.0,4.0,0,5,11,10.0,29.740158,,,TRUE,TRUE,,,,,,,FEW,9000,,,,,,,VFR,,,,,,,,,,,,SPECI,16.0
K6S2 291015Z AUTO VRB06G13KT 10SM SCT095 05/04 A2973 RMK AO2,K6S2,2023-03-29T10:15:00Z,43.98,-124.12,5.0,4.0,0,6,13,10.0,29.731298,,,TRUE,TRUE,,,,,,,SCT,9500,,,,,,,VFR,,,,,,,,,,,,METAR,16.0
K6S2 290955Z AUTO 11007G13KT 080V160 10SM BKN075 OVC095 05/04 A2973 RMK AO2,K6S2,2023-03-29T09:55:00Z,43.98,-124.12,5.0,4.0,110,7,13,10.0,29.731298,,,TRUE,TRUE,,,,,,,BKN,7500,OVC,9500,,,,,VFR,,,,,,,,,,,,METAR,16.0
K6S2 290935Z AUTO VRB06G14KT 10SM OVC075 05/04 A2973 RMK AO2,K6S2,2023-03-29T09:35:00Z,43.98,-124.12,5.0,4.0,0,6,14,10.0,29.731298,,,TRUE,TRUE,,,,,,,OVC,7500,,,,,,,VFR,,,,,,,,,,,,SPECI,16.0
K6S2 290915Z AUTO 09008G13KT 040V130 10SM BKN075 OVC085 05/04 A2973 RMK AO2,K6S2,2023-03-29T09:15:00Z,43.98,-124.12,5.0,4.0,90,8,13,10.0,29.731298,,,TRUE,TRUE,,,,,,,BKN,7500,OVC,8500,,,,,VFR,,,,,,,,,,,,SPECI,16.0
K6S2 290855Z AUTO 10010G17KT 10SM BKN075 OVC090 05/04 A2973 RMK AO2,K6S2,2023-03-29T08:55:00Z,43.98,-124.12,5.0,4.0,100,10,17,10.0,29.731298,,,TRUE,TRUE,,,,,,,BKN,7500,OVC,9000,,,,,VFR,,,,,,,,,,,,METAR,16.0
K6S2 290835Z AUTO 11007G16KT 060V140 10SM SCT080 OVC090 06/05 A2973 RMK AO2,K6S2,2023-03-29T08:35:00Z,43.98,-124.12,6.0,5.0,110,7,16,10.0,29.731298,,,TRUE,TRUE,,,,,,,SCT,8000,OVC,9000,,,,,VFR,,,,,,,,,,,,SPECI,16.0
K6S2 290815Z AUTO 10008G14KT 070V140 10SM OVC090 06/05 A2973 RMK AO2,K6S2,2023-03-29T08:15:00Z,43.98,-124.12,6.0,5.0,100,8,14,10.0,29.731298,,,TRUE,TRUE,,,,,,,OVC,9000,,,,,,,VFR,,,,,,,,,,,,METAR,16.0
K6S2 290755Z AUTO VRB05G12KT 10SM SCT090 05/04 A2973 RMK AO2,K6S2,2023-03-29T07:55:00Z,43.98,-124.12,5.0,4.0,0,5,12,10.0,29.731298,,,TRUE,TRUE,,,,,,,SCT,9000,,,,,,,VFR,,,,,,,,,,,,METAR,16.0
K6S2 290735Z AUTO VRB06G11KT 10SM CLR 06/05 A2973 RMK AO2,K6S2,2023-03-29T07:35:00Z,43.98,-124.12,6.0,5.0,0,6,11,10.0,29.731298,,,TRUE,TRUE,,,,,,,CLR,,,,,,,,VFR,,,,,,,,,,,,METAR,16.0
K6S2 290715Z AUTO VRB06G12KT 10SM SCT090 06/05 A2973 RMK AO2,K6S2,2023-03-29T07:15:00Z,43.98,-124.12,6.0,5.0,0,6,12,10.0,29.731298,,,TRUE,TRUE,,,,,,,SCT,9000,,,,,,,VFR,,,,,,,,,,,,SPECI,16.0
K6S2 290655Z AUTO 10008G15KT 070V150 10SM SCT090 06/05 A2973 RMK AO2,K6S2,2023-03-29T06:55:00Z,43.98,-124.12,6.0,5.0,100,8,15,10.0,29.731298,,,TRUE,TRUE,,,,,,,SCT,9000,,,,,,,VFR,,,,,,,,,,,,METAR,16.0
K6S2 290635Z AUTO VRB05G12KT 10SM CLR 06/05 A2972 RMK AO2,K6S2,2023-03-29T06:35:00Z,43.98,-124.12,6.0,5.0,0,5,12,10.0,29.719488,,,TRUE,TRUE,,,,,,,CLR,,,,,,,,VFR,,,,,,,,,,,,SPECI,16.0
K6S2 290615Z AUTO VRB05G14KT 10SM CLR 06/05 A2971 RMK AO2,K6S2,2023-03-29T06:15:00Z,43.98,-124.12,6.0,5.0,0,5,14,10.0,29.71063,,,TRUE,TRUE,,,,,,,CLR,,,,,,,,VFR,,,,,,,,,,,,SPECI,16.0
K6S2 290555Z AUTO VRB05G11KT 10SM CLR 06/05 A2972 RMK AO2,K6S2,2023-03-29T05:55:00Z,43.98,-124.12,6.0,5.0,0,5,11,10.0,29.719488,,,TRUE,TRUE,,,,,,,CLR,,,,,,,,VFR,,,,,,,,,,,,METAR,16.0
K6S2 290535Z AUTO VRB04G10KT 10SM CLR 06/05 A2972 RMK AO2,K6S2,2023-03-29T05:35:00Z,43.98,-124.12,6.0,5.0,0,4,10,10.0,29.719488,,,TRUE,TRUE,,,,,,,CLR,,,,,,,,VFR,,,,,,,,,,,,SPECI,16.0
K6S2 290515Z AUTO 00000G11KT 10SM CLR 06/06 A2971 RMK AO2,K6S2,2023-03-29T05:15:00Z,43.98,-124.12,6.0,6.0,0,0,11,10.0,29.71063,,,TRUE,TRUE,,,,,,,CLR,,,,,,,,VFR,,,,,,,,,,,,SPECI,16.0
K6S2 290455Z AUTO VRB03G14KT 10SM CLR 06/05 A2971 RMK AO2,K6S2,2023-03-29T04:55:00Z,43.98,-124.12,6.0,5.0,0,3,14,10.0,29.71063,,,TRUE,TRUE,,,,,,,CLR,,,,,,,,VFR,,,,,,,,,,,,METAR,16.0
K6S2 290435Z AUTO VRB06G17KT 10SM CLR 06/06 A2971 RMK AO2,K6S2,2023-03-29T04:35:00Z,43.98,-124.12,6.0,6.0,0,6,17,10.0,29.71063,,,TRUE,TRUE,,,,,,,CLR,,,,,,,,VFR,,,,,,,,,,,,METAR,16.0
K6S2 290415Z AUTO VRB05G11KT 10SM CLR 06/06 A2971 RMK AO2,K6S2,2023-03-29T04:15:00Z,43.98,-124.12,6.0,6.0,0,5,11,10.0,29.71063,,,TRUE,TRUE,,,,,,,CLR,,,,,,,,VFR,,,,,,,,,,,,SPECI,16.0
K6S2 290355Z AUTO 00000KT 10SM CLR 05/05 A2970 RMK AO2,K6S2,2023-03-29T03:55:00Z,43.98,-124.12,5.0,5.0,0,0,,10.0,29.698818,,,TRUE,TRUE,,,,,,,CLR,,,,,,,,VFR,,,,,,,,,,,,METAR,16.0
K6S2 290335Z AUTO 00000KT 10SM FEW003 05/05 A2970 RMK AO2,K6S2,2023-03-29T03:35:00Z,43.98,-124.12,5.0,5.0,0,0,,10.0,29.698818,,,TRUE,TRUE,,,,,,,FEW,300,,,,,,,VFR,,,,,,,,,,,,SPECI,16.0
K6S2 290315Z AUTO 00000KT 10SM FEW003 06/06 A2970 RMK AO2,K6S2,2023-03-29T03:15:00Z,43.98,-124.12,6.0,6.0,0,0,,10.0,29.698818,,,TRUE,TRUE,,,,,,,FEW,300,,,,,,,VFR,,,,,,,,,,,,METAR,16.0
K6S2 290255Z AUTO 00000KT 10SM CLR 06/06 A2970 RMK AO2,K6S2,2023-03-29T02:55:00Z,43.98,-124.12,6.0,6.0,0,0,,10.0,29.698818,,,TRUE,TRUE,,,,,,,CLR,,,,,,,,VFR,,,,,,,,,,,,METAR,16.0
K6S2 290235Z AUTO VRB03G11KT 10SM CLR 06/06 A2970 RMK AO2,K6S2,2023-03-29T02:35:00Z,43.98,-124.12,6.0,6.0,0,3,11,10.0,29.698818,,,TRUE,TRUE,,,,,,,CLR,,,,,,,,VFR,,,,,,,,,,,,METAR,16.0
K6S2 290215Z AUTO 01007KT 330V030 10SM CLR 07/07 A2970 RMK AO2,K6S2,2023-03-29T02:15:00Z,43.98,-124.12,7.0,7.0,10,7,,10.0,29.698818,,,TRUE,TRUE,,,,,,,CLR,,,,,,,,VFR,,,,,,,,,,,,SPECI,16.0
K6S2 290155Z AUTO VRB06G11KT 10SM CLR 07/07 A2970 RMK AO2 P0007,K6S2,2023-03-29T01:55:00Z,43.98,-124.12,7.0,7.0,0,6,11,10.0,29.698818,,,TRUE,TRUE,,,,,,,CLR,,,,,,,,VFR,,,,,,0.07,,,,,,METAR,16.0
K6S2 290135Z AUTO VRB04G12KT 4SM -RA BR FEW080 07/07 A2970 RMK AO2,K6S2,2023-03-29T01:35:00Z,43.98,-124.12,7.0,7.0,0,4,12,4.0,29.698818,,,TRUE,TRUE,,,,,,-RA BR,FEW,8000,,,,,,,MVFR,,,,,,,,,,,,SPECI,16.0
K6S2 290115Z AUTO 34009KT 2SM RA BR FEW029 07/07 A2971 RMK AO2,K6S2,2023-03-29T01:15:00Z,43.98,-124.12,7.0,7.0,340,9,,2.0,29.71063,,,TRUE,TRUE,,,,,,RA BR,FEW,2900,,,,,,,IFR,,,,,,,,,,,,METAR,16.0
K6S2 290055Z AUTO 35008G14KT 4SM -RA BR BKN029 BKN036 08/07 A2971 RMK AO2 P0002,K6S2,2023-03-29T00:55:00Z,43.98,-124.12,8.0,7.0,350,8,14,4.0,29.71063,,,TRUE,TRUE,,,,,,-RA BR,BKN,2900,BKN,3600,,,,,MVFR,,,,,,0.02,,,,,,METAR,16.0
K6S2 290035Z AUTO 32009KT 4SM -RA BR OVC035 09/06 A2969 RMK AO2,K6S2,2023-03-29T00:35:00Z,43.98,-124.12,9.0,6.0,320,9,,4.0,29.68996,,,TRUE,TRUE,,,,,,-RA BR,OVC,3500,,,,,,,MVFR,,,,,,,,,,,,SPECI,16.0
K6S2 290015Z AUTO 31010KT 9SM BKN034 BKN049 OVC080 09/06 A2968 RMK AO2,K6S2,2023-03-29T00:15:00Z,43.98,-124.12,9.0,6.0,310,10,,9.0,29.681103,,,TRUE,TRUE,,,,,,,BKN,3400,BKN,4900,OVC,8000,,,VFR,,,,,,,,,,,,METAR,16.0
K6S2 282355Z AUTO 32008KT 10SM FEW048 SCT060 BKN080 10/06 A2967 RMK AO2,K6S2,2023-03-28T23:55:00Z,43.98,-124.12,10.0,6.0,320,8,,10.0,29.66929,,,TRUE,TRUE,,,,,,,FEW,4800,SCT,6000,BKN,8000,,,VFR,,,,,,,,,,,,METAR,16.0
K6S2 282335Z AUTO 33008KT 10SM SCT055 SCT070 SCT080 10/06 A2967 RMK AO2,K6S2,2023-03-28T23:35:00Z,43.98,-124.12,10.0,6.0,330,8,,10.0,29.66929,,,TRUE,TRUE,,,,,,,SCT,5500,SCT,7000,SCT,8000,,,VFR,,,,,,,,,,,,SPECI,16.0
K6S2 282315Z AUTO 33008KT 9SM -RA FEW039 FEW050 SCT060 10/08 A2966 RMK AO2,K6S2,2023-03-28T23:15:00Z,43.98,-124.12,10.0,8.0,330,8,,9.0,29.660433,,,TRUE,TRUE,,,,,,-RA,FEW,3900,FEW,5000,SCT,6000,,,VFR,,,,,,,,,,,,SPECI,16.0
K6S2 282255Z AUTO VRB05KT 10SM -RA BKN055 BKN065 10/07 A2966 RMK AO2,K6S2,2023-03-28T22:55:00Z,43.98,-124.12,10.0,7.0,0,5,,10.0,29.660433,,,TRUE,TRUE,,,,,,-RA,BKN,5500,BKN,6500,,,,,VFR,,,,,,,,,,,,METAR,16.0
K6S2 282235Z AUTO VRB06KT 9SM -RA SCT060 BKN070 10/08 A2966 RMK AO2,K6S2,2023-03-28T22:35:00Z,43.98,-124.12,10.0,8.0,0,6,,9.0,29.660433,,,TRUE,TRUE,,,,,,-RA,SCT,6000,BKN,7000,,,,,VFR,,,,,,,,,,,,SPECI,16.0
K6S2 282215Z AUTO 34007KT 10SM BKN060 BKN070 10/06 A2967 RMK AO2,K6S2,2023-03-28T22:15:00Z,43.98,-124.12,10.0,6.0,340,7,,10.0,29.66929,,,TRUE,TRUE,,,,,,,BKN,6000,BKN,7000,,,,,VFR,,,,,,,,,,,,METAR,16.0
K6S2 282155Z AUTO 32008KT 10SM FEW034 SCT044 BKN065 09/06 A2967 RMK AO2 LTG DSNT SW,K6S2,2023-03-28T21:55:00Z,43.98,-124.12,9.0,6.0,320,8,,10.0,29.66929,,,TRUE,TRUE,,,,,,,FEW,3400,SCT,4400,BKN,6500,,,VFR,,,,,,,,,,,,METAR,16.0
K6S2 282135Z AUTO 31008KT 10SM SCT034 BKN042 OVC055 09/05 A2967 RMK AO2,K6S2,2023-03-28T21:35:00Z,43.98,-124.12,9.0,5.0,310,8,,10.0,29.66929,,,TRUE,TRUE,,,,,,,SCT,3400,BKN,4200,OVC,5500,,,VFR,,,,,,,,,,,,METAR,16.0
K6S2 282115Z AUTO VRB05KT 10SM SCT036 BKN042 BKN055 11/05 A2967 RMK AO2,K6S2,2023-03-28T21:15:00Z,43.98,-124.12,11.0,5.0,0,5,,10.0,29.66929,,,TRUE,TRUE,,,,,,,SCT,3600,BKN,4200,BKN,5500,,,VFR,,,,,,,,,,,,METAR,16.0
K6S2 282055Z AUTO VRB04KT 10SM SCT029 BKN036 BKN045 11/06 A2966 RMK AO2,K6S2,2023-03-28T20:55:00Z,43.98,-124.12,11.0,6.0,0,4,,10.0,29.660433,,,TRUE,TRUE,,,,,,,SCT,2900,BKN,3600,BKN,4500,,,VFR,,,,,,,,,,,,METAR,16.0
K6S2 282035Z AUTO VRB05KT 10SM BKN029 BKN037 OVC065 10/06 A2967 RMK AO2,K6S2,2023-03-28T20:35:00Z,43.98,-124.12,10.0,6.0,0,5,,10.0,29.66929,,,TRUE,TRUE,,,,,,,BKN,2900,BKN,3700,OVC,6500,,,MVFR,,,,,,,,,,,,SPECI,16.0
K6S2 282015Z AUTO VRB05G11KT 10SM BKN029 BKN040 10/05 A2966 RMK AO2,K6S2,2023-03-28T20:15:00Z,43.98,-124.12,10.0,5.0,0,5,11,10.0,29.660433,,,TRUE,TRUE,,,,,,,BKN,2900,BKN,4000,,,,,MVFR,,,,,,,,,,,,SPECI,16.0
K6S2 281935Z AUTO VRB05KT 10SM CLR 09/06 A2966 RMK AO2,K6S2,2023-03-28T19:35:00Z,43.98,-124.12,9.0,6.0,0,5,,10.0,29.660433,,,TRUE,TRUE,,,,,,,CLR,,,,,,,,VFR,,,,,,,,,,,,METAR,16.0
K6S2 281915Z AUTO VRB04KT 10SM FEW100 FEW120 09/06 A2966 RMK AO2,K6S2,2023-03-28T19:15:00Z,43.98,-124.12,9.0,6.0,0,4,,10.0,29.660433,,,TRUE,TRUE,,,,,,,FEW,10000,FEW,12000,,,,,VFR,,,,,,,,,,,,METAR,16.0
K6S2 281855Z AUTO VRB03G12KT 10SM FEW110 08/05 A2966 RMK AO2 P0001,K6S2,2023-03-28T18:55:00Z,43.98,-124.12,8.0,5.0,0,3,12,10.0,29.660433,,,TRUE,TRUE,,,,,,,FEW,11000,,,,,,,VFR,,,,,,0.01,,,,,,METAR,16.0
K6S2 281835Z AUTO VRB04G10KT 10SM CLR 09/06 A2966 RMK AO2,K6S2,2023-03-28T18:35:00Z,43.98,-124.12,9.0,6.0,0,4,10,10.0,29.660433,,,TRUE,TRUE,,,,,,,CLR,,,,,,,,VFR,,,,,,,,,,,,METAR,16.0
K6S2 281815Z AUTO VRB05KT 10SM CLR 09/07 A2966 RMK AO2 LTG DSNT SW,K6S2,2023-03-28T18:15:00Z,43.98,-124.12,9.0,7.0,0,5,,10.0,29.660433,,,TRUE,TRUE,,,,,,,CLR,,,,,,,,VFR,,,,,,,,,,,,SPECI,16.0
K6S2 281755Z AUTO VRB05KT 10SM CLR 08/07 A2967 RMK AO2,K6S2,2023-03-28T17:55:00Z,43.98,-124.12,8.0,7.0,0,5,,10.0,29.66929,,,TRUE,TRUE,,,,,,,CLR,,,,,,,,VFR,,,,,,,,,,,,METAR,16.0
K6S2 281735Z AUTO 00000KT 10SM FEW095 06/06 A2966 RMK AO2,K6S2,2023-03-28T17:35:00Z,43.98,-124.12,6.0,6.0,0,0,,10.0,29.660433,,,TRUE,TRUE,,,,,,,FEW,9500,,,,,,,VFR,,,,,,,,,,,,SPECI,16.0
K6S2 281715Z AUTO VRB03KT 10SM FEW044 FEW050 BKN100 06/06 A2967 RMK AO2,K6S2,2023-03-28T17:15:00Z,43.98,-124.12,6.0,6.0,0,3,,10.0,29.66929,,,TRUE,TRUE,,,,,,,FEW,4400,FEW,5000,BKN,10000,,,VFR,,,,,,,,,,,,SPECI,16.0
K6S2 281655Z AUTO 00000KT 10SM SCT043 BKN050 06/06 A2967 RMK AO2 LTG DSNT SW,K6S2,2023-03-28T16:55:00Z,43.98,-124.12,6.0,6.0,0,0,,10.0,29.66929,,,TRUE,TRUE,,,,,,,SCT,4300,BKN,5000,,,,,VFR,,,,,,,,,,,,SPECI,16.0
K6S2 281635Z AUTO 00000KT 10SM FEW039 FEW049 FEW060 06/06 A2966 RMK AO2,K6S2,2023-03-28T16:35:00Z,43.98,-124.12,6.0,6.0,0,0,,10.0,29.660433,,,TRUE,TRUE,,,,,,,FEW,3900,FEW,4900,FEW,6000,,,VFR,,,,,,,,,,,,SPECI,16.0
K6S2 281615Z AUTO 16004KT 10SM FEW039 SCT055 06/06 A2966 RMK AO2,K6S2,2023-03-28T16:15:00Z,43.98,-124.12,6.0,6.0,160,4,,10.0,29.660433,,,TRUE,TRUE,,,,,,,FEW,3900,SCT,5500,,,,,VFR,,,,,,,,,,,,SPECI,16.0
K6S2 281555Z AUTO VRB04G10KT 10SM -RA FEW044 FEW050 06/06 A2966 RMK AO2,K6S2,2023-03-28T15:55:00Z,43.98,-124.12,6.0,6.0,0,4,10,10.0,29.660433,,,TRUE,TRUE,,,,,,-RA,FEW,4400,FEW,5000,,,,,VFR,,,,,,,,,,,,METAR,16.0
K6S2 281535Z AUTO VRB06KT 10SM FEW040 SCT046 BKN055 05/05 A2966 RMK AO2,K6S2,2023-03-28T15:35:00Z,43.98,-124.12,5.0,5.0,0,6,,10.0,29.660433,,,TRUE,TRUE,,,,,,,FEW,4000,SCT,4600,BKN,5500,,,VFR,,,,,,,,,,,,SPECI,16.0
K6S2 281515Z AUTO VRB06G11KT 10SM FEW044 SCT055 OVC065 05/05 A2965 RMK AO2,K6S2,2023-03-28T15:15:00Z,43.98,-124.12,5.0,5.0,0,6,11,10.0,29.648623,,,TRUE,TRUE,,,,,,,FEW,4400,SCT,5500,OVC,6500,,,VFR,,,,,,,,,,,,SPECI,16.0
K6S2 281455Z AUTO VRB05G11KT 7SM -RA FEW042 SCT050 SCT055 04/04 A2965 RMK AO2 P0006,K6S2,2023-03-28T14:55:00Z,43.98,-124.12,4.0,4.0,0,5,11,7.0,29.648623,,,TRUE,TRUE,,,,,,-RA,FEW,4200,SCT,5000,SCT,5500,,,VFR,,,,,,0.06,,,,,,METAR,16.0
K6S2 281435Z AUTO VRB04KT 2 1/2SM -RA BR FEW020 FEW029 04/04 A2968 RMK AO2,K6S2,2023-03-28T14:35:00Z,43.98,-124.12,4.0,4.0,0,4,,2.5,29.681103,,,TRUE,TRUE,,,,,,-RA BR,FEW,2000,FEW,2900,,,,,IFR,,,,,,,,,,,,SPECI,16.0
K6S2 281415Z AUTO 00000KT 5SM -RA BR FEW011 BKN022 04/04 A2968 RMK AO2,K6S2,2023-03-28T14:15:00Z,43.98,-124.12,4.0,4.0,0,0,,5.0,29.681103,,,TRUE,TRUE,,,,,,-RA BR,FEW,1100,BKN,2200,,,,,MVFR,,,,,,,,,,,,METAR,16.0
K6S2 281355Z AUTO 00000KT 4SM -RA BR SCT011 BKN019 OVC024 04/04 A2969 RMK AO2 P0003,K6S2,2023-03-28T13:55:00Z,43.98,-124.12,4.0,4.0,0,0,,4.0,29.68996,,,TRUE,TRUE,,,,,,-RA BR,SCT,1100,BKN,1900,OVC,2400,,,MVFR,,,,,,0.03,,,,,,METAR,16.0
K6S2 281335Z AUTO 00000KT 5SM -RA BR BKN011 OVC020 04/04 A2968 RMK AO2,K6S2,2023-03-28T13:35:00Z,43.98,-124.12,4.0,4.0,0,0,,5.0,29.681103,,,TRUE,TRUE,,,,,,-RA BR,BKN,1100,OVC,2000,,,,,MVFR,,,,,,,,,,,,SPECI,16.0
K6S2 281315Z AUTO 00000KT 5SM -RA BR BKN011 OVC019 04/04 A2968 RMK AO2,K6S2,2023-03-28T13:15:00Z,43.98,-124.12,4.0,4.0,0,0,,5.0,29.681103,,,TRUE,TRUE,,,,,,-RA BR,BKN,1100,OVC,1900,,,,,MVFR,,,,,,,,,,,,METAR,16.0
K6S2 281255Z AUTO 00000KT 3SM -RA BR BKN012 OVC018 04/04 A2969 RMK AO2 P0005,K6S2,2023-03-28T12:55:00Z,43.98,-124.12,4.0,4.0,0,0,,3.0,29.68996,,,TRUE,TRUE,,,,,,-RA BR,BKN,1200,OVC,1800,,,,,MVFR,,,,,,0.05,,,,,,METAR,16.0
K6S2 281235Z AUTO 32006KT 5SM -RA BR FEW006 BKN011 OVC019 05/05 A2969 RMK AO2,K6S2,2023-03-28T12:35:00Z,43.98,-124.12,5.0,5.0,320,6,,5.0,29.68996,,,TRUE,TRUE,,,,,,-RA BR,FEW,600,BKN,1100,OVC,1900,,,MVFR,,,,,,,,,,,,METAR,16.0
K6S2 281215Z AUTO 00000KT 3SM -RA BR BKN010 OVC013 05/05 A2969 RMK AO2,K6S2,2023-03-28T12:15:00Z,43.98,-124.12,5.0,5.0,0,0,,3.0,29.68996,,,TRUE,TRUE,,,,,,-RA BR,BKN,1000,OVC,1300,,,,,MVFR,,,,,,,,,,,,METAR,16.0
K6S2 281155Z AUTO 00000KT 5SM -RA BR OVC013 05/05 A2970 RMK AO2 P0002,K6S2,2023-03-28T11:55:00Z,43.98,-124.12,5.0,5.0,0,0,,5.0,29.698818,,,TRUE,TRUE,,,,,,-RA BR,OVC,1300,,,,,,,MVFR,,,,,,0.02,,,,,,METAR,16.0
K6S2 281135Z AUTO 00000KT 5SM -RA BR FEW007 FEW010 OVC014 05/05 A2971 RMK AO2,K6S2,2023-03-28T11:35:00Z,43.98,-124.12,5.0,5.0,0,0,,5.0,29.71063,,,TRUE,TRUE,,,,,,-RA BR,FEW,700,FEW,1000,OVC,1400,,,MVFR,,,,,,,,,,,,METAR,16.0
K6S2 281115Z AUTO 00000KT 7SM UP FEW007 BKN015 OVC022 05/05 A2971 RMK AO2,K6S2,2023-03-28T11:15:00Z,43.98,-124.12,5.0,5.0,0,0,,7.0,29.71063,,,TRUE,TRUE,,,,,,UP,FEW,700,BKN,1500,OVC,2200,,,MVFR,,,,,,,,,,,,METAR,16.0
K6S2 281055Z AUTO 00000KT 4SM -RA BR BKN017 OVC023 05/05 A2972 RMK AO2 P0002,K6S2,2023-03-28T10:55:00Z,43.98,-124.12,5.0,5.0,0,0,,4.0,29.719488,,,TRUE,TRUE,,,,,,-RA BR,BKN,1700,OVC,2300,,,,,MVFR,,,,,,0.02,,,,,,METAR,16.0
K6S2 281035Z AUTO 00000KT 3SM -RA BR SCT016 OVC022 05/05 A2973 RMK AO2,K6S2,2023-03-28T10:35:00Z,43.98,-124.12,5.0,5.0,0,0,,3.0,29.731298,,,TRUE,TRUE,,,,,,-RA BR,SCT,1600,OVC,2200,,,,,MVFR,,,,,,,,,,,,SPECI,16.0
K6S2 281015Z AUTO 00000KT 5SM -RA BR SCT017 BKN022 OVC026 05/05 A2974 RMK AO2,K6S2,2023-03-28T10:15:00Z,43.98,-124.12,5.0,5.0,0,0,,5.0,29.740158,,,TRUE,TRUE,,,,,,-RA BR,SCT,1700,BKN,2200,OVC,2600,,,MVFR,,,,,,,,,,,,METAR,16.0
K6S2 280955Z AUTO 00000KT 5SM -RA BR FEW012 OVC017 05/05 A2974 RMK AO2 P0007,K6S2,2023-03-28T09:55:00Z,43.98,-124.12,5.0,5.0,0,0,,5.0,29.740158,,,TRUE,TRUE,,,,,,-RA BR,FEW,1200,OVC,1700,,,,,MVFR,,,,,,0.07,,,,,,METAR,16.0
K6S2 280935Z AUTO VRB03KT 5SM -RA BR BKN012 BKN016 OVC028 06/06 A2975 RMK AO2,K6S2,2023-03-28T09:35:00Z,43.98,-124.12,6.0,6.0,0,3,,5.0,29.749016,,,TRUE,TRUE,,,,,,-RA BR,BKN,1200,BKN,1600,OVC,2800,,,MVFR,,,,,,,,,,,,SPECI,16.0
K6S2 280915Z AUTO 00000KT 7SM -RA OVC029 06/06 A2975 RMK AO2,K6S2,2023-03-28T09:15:00Z,43.98,-124.12,6.0,6.0,0,0,,7.0,29.749016,,,TRUE,TRUE,,,,,,-RA,OVC,2900,,,,,,,MVFR,,,,,,,,,,,,SPECI,16.0
K6S2 280855Z AUTO VRB03KT 5SM -RA BR FEW023 OVC030 06/06 A2975 RMK AO2 P0006,K6S2,2023-03-28T08:55:00Z,43.98,-124.12,6.0,6.0,0,3,,5.0,29.749016,,,TRUE,TRUE,,,,,,-RA BR,FEW,2300,OVC,3000,,,,,MVFR,,,,,,0.06,,,,,,METAR,16.0
K6S2 280835Z AUTO VRB04G12KT 5SM -RA BR BKN030 OVC035 07/07 A2974 RMK AO2,K6S2,2023-03-28T08:35:00Z,43.98,-124.12,7.0,7.0,0,4,12,5.0,29.740158,,,TRUE,TRUE,,,,,,-RA BR,BKN,3000,OVC,3500,,,,,MVFR,,,,,,,,,,,,METAR,16.0
K6S2 280815Z AUTO VRB07G14KT 060V180 8SM -RA OVC033 07/07 A2974 RMK AO2,K6S2,2023-03-28T08:15:00Z,43.98,-124.12,7.0,7.0,0,7,14,8.0,29.740158,,,TRUE,TRUE,,,,,,-RA,OVC,3300,,,,,,,VFR,,,,,,,,,,,,METAR,16.0
K6S2 280755Z AUTO VRB04G12KT 6SM -RA BR OVC033 06/06 A2974 RMK AO2 P0003,K6S2,2023-03-28T07:55:00Z,43.98,-124.12,6.0,6.0,0,4,12,6.0,29.740158,,,TRUE,TRUE,,,,,,-RA BR,OVC,3300,,,,,,,VFR,,,,,,0.03,,,,,,SPECI,16.0
K6S2 280735Z AUTO VRB04G13KT 5SM -RA BR OVC030 06/06 A2974 RMK AO2,K6S2,2023-03-28T07:35:00Z,43.98,-124.12,6.0,6.0,0,4,13,5.0,29.740158,,,TRUE,TRUE,,,,,,-RA BR,OVC,3000,,,,,,,MVFR,,,,,,,,,,,,METAR,16.0
K6S2 280715Z AUTO 00000G14KT 4SM -RA BR BKN027 OVC032 06/06 A2974 RMK AO2,K6S2,2023-03-28T07:15:00Z,43.98,-124.12,6.0,6.0,0,0,14,4.0,29.740158,,,TRUE,TRUE,,,,,,-RA BR,BKN,2700,OVC,3200,,,,,MVFR,,,,,,,,,,,,SPECI,16.0
K6S2 280655Z AUTO 13008G15KT 080V170 3SM -RA BR FEW017 OVC027 06/06 A2975 RMK AO2 P0001,K6S2,2023-03-28T06:55:00Z,43.98,-124.12,6.0,6.0,130,8,15,3.0,29.749016,,,TRUE,TRUE,,,,,,-RA BR,FEW,1700,OVC,2700,,,,,MVFR,,,,,,0.01,,,,,,METAR,16.0
K6S2 280635Z AUTO VRB06G14KT 010V170 6SM UP BR OVC031 07/06 A2975 RMK AO2,K6S2,2023-03-28T06:35:00Z,43.98,-124.12,7.0,6.0,0,6,14,6.0,29.749016,,,TRUE,TRUE,,,,,,BR UP,OVC,3100,,,,,,,VFR,,,,,,,,,,,,SPECI,16.0
K6S2 280615Z AUTO VRB04G16KT 8SM -RA OVC033 06/06 A2975 RMK AO2,K6S2,2023-03-28T06:15:00Z,43.98,-124.12,6.0,6.0,0,4,16,8.0,29.749016,,,TRUE,TRUE,,,,,,-RA,OVC,3300,,,,,,,VFR,,,,,,,,,,,,METAR,16.0
K6S2 280555Z AUTO VRB06G17KT 9SM -RA OVC036 06/06 A2975 RMK AO2,K6S2,2023-03-28T05:55:00Z,43.98,-124.12,6.0,6.0,0,6,17,9.0,29.749016,,,TRUE,TRUE,,,,,,-RA,OVC,3600,,,,,,,VFR,,,,,,,,,,,,METAR,16.0
K6S2 280535Z AUTO 10009G16KT 060V140 9SM -RA OVC038 06/06 A2974 RMK AO2,K6S2,2023-03-28T05:35:00Z,43.98,-124.12,6.0,6.0,100,9,16,9.0,29.740158,,,TRUE,TRUE,,,,,,-RA,OVC,3800,,,,,,,VFR,,,,,,,,,,,,METAR,16.0
K6S2 280515Z AUTO VRB06G17KT 020V150 10SM -RA BKN040 OVC045 06/05 A2974 RMK AO2,K6S2,2023-03-28T05:15:00Z,43.98,-124.12,6.0,5.0,0,6,17,10.0,29.740158,,,TRUE,TRUE,,,,,,-RA,BKN,4000,OVC,4500,,,,,VFR,,,,,,,,,,,,SPECI,16.0
K6S2 280455Z AUTO VRB07G16KT 030V130 10SM -RA BKN037 OVC043 06/05 A2975 RMK AO2,K6S2,2023-03-28T04:55:00Z,43.98,-124.12,6.0,5.0,0,7,16,10.0,29.749016,,,TRUE,TRUE,,,,,,-RA,BKN,3700,OVC,4300,,,,,VFR,,,,,,,,,,,,SPECI,16.0
K6S2 280435Z AUTO VRB06G16KT 10SM -RA BKN036 OVC044 05/05 A2976 RMK AO2,K6S2,2023-03-28T04:35:00Z,43.98,-124.12,5.0,5.0,0,6,16,10.0,29.760826,,,TRUE,TRUE,,,,,,-RA,BKN,3600,OVC,4400,,,,,VFR,,,,,,,,,,,,METAR,16.0
K6S2 280415Z AUTO VRB06G17KT 040V170 10SM -RA OVC035 05/05 A2977 RMK AO2,K6S2,2023-03-28T04:15:00Z,43.98,-124.12,5.0,5.0,0,6,17,10.0,29.769686,,,TRUE,TRUE,,,,,,-RA,OVC,3500,,,,,,,VFR,,,,,,,,,,,,METAR,16.0
K6S2 280355Z AUTO 10008G16KT 070V130 10SM -RA OVC039 05/05 A2977 RMK AO2,K6S2,2023-03-28T03:55:00Z,43.98,-124.12,5.0,5.0,100,8,16,10.0,29.769686,,,TRUE,TRUE,,,,,,-RA,OVC,3900,,,,,,,VFR,,,,,,,,,,,,METAR,16.0
K6S2 280335Z AUTO 10009G16KT 050V140 10SM OVC040 05/05 A2977 RMK AO2,K6S2,2023-03-28T03:35:00Z,43.98,-124.12,5.0,5.0,100,9,16,10.0,29.769686,,,TRUE,TRUE,,,,,,,OVC,4000,,,,,,,VFR,,,,,,,,,,,,METAR,16.0
K6S2 280315Z AUTO 10009G17KT 060V140 10SM OVC043 05/05 A2978 RMK AO2,K6S2,2023-03-28T03:15:00Z,43.98,-124.12,5.0,5.0,100,9,17,10.0,29.778543,,,TRUE,TRUE,,,,,,,OVC,4300,,,,,,,VFR,,,,,,,,,,,,SPECI,16.0
K6S2 280255Z AUTO 10010G18KT 060V120 10SM BKN046 OVC055 05/05 A2979 RMK AO2,K6S2,2023-03-28T02:55:00Z,43.98,-124.12,5.0,5.0,100,10,18,10.0,29.790354,,,TRUE,TRUE,,,,,,,BKN,4600,OVC,5500,,,,,VFR,,,,,,,,,,,,METAR,16.0
K6S2 280235Z AUTO 10009G20KT 050V160 10SM BKN048 BKN055 05/05 A2980 RMK AO2,K6S2,2023-03-28T02:35:00Z,43.98,-124.12,5.0,5.0,100,9,20,10.0,29.799213,,,TRUE,TRUE,,,,,,,BKN,4800,BKN,5500,,,,,VFR,,,,,,,,,,,,METAR,16.0
K6S2 280215Z AUTO 09009G19KT 060V130 10SM FEW036 SCT050 05/05 A2982 RMK AO2,K6S2,2023-03-28T02:15:00Z,43.98,-124.12,5.0,5.0,90,9,19,10.0,29.819881,,,TRUE,TRUE,,,,,,,FEW,3600,SCT,5000,,,,,VFR,,,,,,,,,,,,METAR,16.0
K6S2 280155Z AUTO 10010G18KT 060V130 10SM -RA FEW050 SCT055 05/05 A2983 RMK AO2,K6S2,2023-03-28T01:55:00Z,43.98,-124.12,5.0,5.0,100,10,18,10.0,29.828741,,,TRUE,TRUE,,,,,,-RA,FEW,5000,SCT,5500,,,,,VFR,,,,,,,,,,,,METAR,16.0
K6S2 280135Z AUTO 09008G18KT 050V150 10SM -RA FEW055 05/05 A2985 RMK AO2,K6S2,2023-03-28T01:35:00Z,43.98,-124.12,5.0,5.0,90,8,18,10.0,29.84941,,,TRUE,TRUE,,,,,,-RA,FEW,5500,,,,,,,VFR,,,,,,,,,,,,METAR,16.0
K6S2 280115Z AUTO 09009G19KT 050V150 10SM -RA CLR 05/05 A2987 RMK AO2,K6S2,2023-03-28T01:15:00Z,43.98,-124.12,5.0,5.0,90,9,19,10.0,29.870079,,,TRUE,TRUE,,,,,,-RA,CLR,,,,,,,,VFR,,,,,,,,,,,,METAR,16.0
K6S2 280055Z AUTO VRB06G12KT 3SM -RA BR CLR 05/05 A2989 RMK AO2 P0008,K6S2,2023-03-28T00:55:00Z,43.98,-124.12,5.0,5.0,0,6,12,3.0,29.890747,,,TRUE,TRUE,,,,,,-RA BR,CLR,,,,,,,,MVFR,,,,,,0.08,,,,,,METAR,16.0
K6S2 280035Z AUTO VRB06KT 6SM -RA BR FEW022 05/05 A2992 RMK AO2,K6S2,2023-03-28T00:35:00Z,43.98,-124.12,5.0,5.0,0,6,,6.0,29.920275,,,TRUE,TRUE,,,,,,-RA BR,FEW,2200,,,,,,,VFR,,,,,,,,,,,,SPECI,16.0
K6S2 280015Z AUTO VRB04KT 4SM -RA BR SCT021 05/05 A2994 RMK AO2,K6S2,2023-03-28T00:15:00Z,43.98,-124.12,5.0,5.0,0,4,,4.0,29.940945,,,TRUE,TRUE,,,,,,-RA BR,SCT,2100,,,,,,,MVFR,,,,,,,,,,,,METAR,16.0
K6S2 272355Z AUTO VRB05KT 5SM -RA BR FEW022 06/06 A2995 RMK AO2,K6S2,2023-03-27T23:55:00Z,43.98,-124.12,6.0,6.0,0,5,,5.0,29.949802,,,TRUE,TRUE,,,,,,-RA BR,FEW,2200,,,,,,,MVFR,,,,,,,,,,,,METAR,16.0
K6S2 272335Z AUTO VRB05G10KT 9SM -RA FEW021 FEW026 06/06 A2996 RMK AO2,K6S2,2023-03-27T23:35:00Z,43.98,-124.12,6.0,6.0,0,5,10,9.0,29.958662,,,TRUE,TRUE,,,,,,-RA,FEW,2100,FEW,2600,,,,,VFR,,,,,,,,,,,,METAR,16.0
K6S2 272315Z AUTO 09005KT 9SM -RA SCT024 SCT029 06/05 A2998 RMK AO2,K6S2,2023-03-27T23:15:00Z,43.98,-124.12,6.0,5.0,90,5,,9.0,29.97933,,,TRUE,TRUE,,,,,,-RA,SCT,2400,SCT,2900,,,,,VFR,,,,,,,,,,,,METAR,16.0
K6S2 272255Z AUTO 11007KT 080V140 10SM -RA FEW024 07/05 A2999 RMK AO2,K6S2,2023-03-27T22:55:00Z,43.98,-124.12,7.0,5.0,110,7,,10.0,29.991142,,,TRUE,TRUE,,,,,,-RA,FEW,2400,,,,,,,VFR,,,,,,,,,,,,METAR,16.0
K6S2 272235Z AUTO VRB05G11KT 10SM -RA FEW025 07/04 A3001 RMK AO2,K6S2,2023-03-27T22:35:00Z,43.98,-124.12,7.0,4.0,0,5,11,10.0,30.008858,,,TRUE,TRUE,,,,,,-RA,FEW,2500,,,,,,,VFR,,,,,,,,,,,,METAR,16.0
K6S2 272215Z AUTO VRB05KT 10SM -RA CLR 07/03 A3002 RMK AO2,K6S2,2023-03-27T22:15:00Z,43.98,-124.12,7.0,3.0,0,5,,10.0,30.02067,,,TRUE,TRUE,,,,,,-RA,CLR,,,,,,,,VFR,,,,,,,,,,,,SPECI,16.0
K6S2 272155Z AUTO VRB04G14KT 10SM -RA CLR 07/03 A3003 RMK AO2,K6S2,2023-03-27T21:55:00Z,43.98,-124.12,7.0,3.0,0,4,14,10.0,30.029528,,,TRUE,TRUE,,,,,,-RA,CLR,,,,,,,,VFR,,,,,,,,,,,,METAR,16.0
K6S2 272135Z AUTO VRB04G11KT 10SM -RA FEW028 07/03 A3004 RMK AO2,K6S2,2023-03-27T21:35:00Z,43.98,-124.12,7.0,3.0,0,4,11,10.0,30.041338,,,TRUE,TRUE,,,,,,-RA,FEW,2800,,,,,,,VFR,,,,,,,,,,,,METAR,16.0
K6S2 272115Z AUTO VRB03G15KT 10SM -RA FEW029 07/03 A3006 RMK AO2,K6S2,2023-03-27T21:15:00Z,43.98,-124.12,7.0,3.0,0,3,15,10.0,30.059055,,,TRUE,TRUE,,,,,,-RA,FEW,2900,,,,,,,VFR,,,,,,,,,,,,SPECI,16.0
K6S2 272055Z AUTO VRB04G10KT 10SM UP FEW030 08/03 A3007 RMK AO2,K6S2,2023-03-27T20:55:00Z,43.98,-124.12,8.0,3.0,0,4,10,10.0,30.070866,,,TRUE,TRUE,,,,,,UP,FEW,3000,,,,,,,VFR,,,,,,,,,,,,METAR,16.0
K6S2 272035Z AUTO VRB03G11KT 10SM -RA FEW030 08/03 A3008 RMK AO2,K6S2,2023-03-27T20:35:00Z,43.98,-124.12,8.0,3.0,0,3,11,10.0,30.079725,,,TRUE,TRUE,,,,,,-RA,FEW,3000,,,,,,,VFR,,,,,,,,,,,,SPECI,16.0
K6S2 272015Z AUTO VRB04KT 10SM CLR 08/04 A3008 RMK AO2,K6S2,2023-03-27T20:15:00Z,43.98,-124.12,8.0,4.0,0,4,,10.0,30.079725,,,TRUE,TRUE,,,,,,,CLR,,,,,,,,VFR,,,,,,,,,,,,SPECI,16.0
K6S2 271955Z AUTO VRB03KT 10SM FEW060 07/03 A3010 RMK AO2,K6S2,2023-03-27T19:55:00Z,43.98,-124.12,7.0,3.0,0,3,,10.0,30.100393,,,TRUE,TRUE,,,,,,,FEW,6000,,,,,,,VFR,,,,,,,,,,,,METAR,16.0
K6S2 271935Z AUTO VRB04KT 10SM FEW060 07/03 A3010 RMK AO2,K6S2,2023-03-27T19:35:00Z,43.98,-124.12,7.0,3.0,0,4,,10.0,30.100393,,,TRUE,TRUE,,,,,,,FEW,6000,,,,,,,VFR,,,,,,,,,,,,METAR,16.0
K6S2 271915Z AUTO 00000KT 10SM CLR 07/03 A3012 RMK AO2,K6S2,2023-03-27T19:15:00Z,43.98,-124.12,7.0,3.0,0,0,,10.0,30.121063,,,TRUE,TRUE,,,,,,,CLR,,,,,,,,VFR,,,,,,,,,,,,SPECI,16.0
K6S2 271855Z AUTO VRB03KT 10SM CLR 06/03 A3013 RMK AO2,K6S2,2023-03-27T18:55:00Z,43.98,-124.12,6.0,3.0,0,3,,10.0,30.129921,,,TRUE,TRUE,,,,,,,CLR,,,,,,,,VFR,,,,,,,,,,,,METAR,16.0
K6S2 271835Z AUTO VRB04KT 10SM CLR 06/03 A3014 RMK AO2,K6S2,2023-03-27T18:35:00Z,43.98,-124.12,6.0,3.0,0,4,,10.0,30.138779,,,TRUE,TRUE,,,,,,,CLR,,,,,,,,VFR,,,,,,,,,,,,METAR,16.0
K6S2 271815Z AUTO VRB05G10KT 10SM CLR 06/03 A3013 RMK AO2,K6S2,2023-03-27T18:15:00Z,43.98,-124.12,6.0,3.0,0,5,10,10.0,30.129921,,,TRUE,TRUE,,,,,,,CLR,,,,,,,,VFR,,,,,,,,,,,,METAR,16.0
K6S2 271755Z AUTO VRB06KT 10SM CLR 06/03 A3014 RMK AO2,K6S2,2023-03-27T17:55:00Z,43.98,-124.12,6.0,3.0,0,6,,10.0,30.138779,,,TRUE,TRUE,,,,,,,CLR,,,,,,,,VFR,,,,,,,,,,,,METAR,16.0
K6S2 271735Z AUTO VRB04KT 10SM CLR 05/02 A3014 RMK AO2,K6S2,2023-03-27T17:35:00Z,43.98,-124.12,5.0,2.0,0,4,,10.0,30.138779,,,TRUE,TRUE,,,,,,,CLR,,,,,,,,VFR,,,,,,,,,,,,SPECI,16.0
K6S2 271715Z AUTO VRB03G10KT 10SM CLR 05/02 A3014 RMK AO2,K6S2,2023-03-27T17:15:00Z,43.98,-124.12,5.0,2.0,0,3,10,10.0,30.138779,,,TRUE,TRUE,,,,,,,CLR,,,,,,,,VFR,,,,,,,,,,,,METAR,16.0
K6S2 271655Z AUTO VRB05G10KT 10SM CLR 05/02 A3014 RMK AO2,K6S2,2023-03-27T16:55:00Z,43.98,-124.12,5.0,2.0,0,5,10,10.0,30.138779,,,TRUE,TRUE,,,,,,,CLR,,,,,,,,VFR,,,,,,,,,,,,METAR,16.0
K6S2 271635Z AUTO VRB06G13KT 10SM CLR 04/02 A3015 RMK AO2,K6S2,2023-03-27T16:35:00Z,43.98,-124.12,4.0,2.0,0,6,13,10.0,30.15059,,,TRUE,TRUE,,,,,,,CLR,,,,,,,,VFR,,,,,,,,,,,,SPECI,16.0
K6S2 271615Z AUTO VRB05G13KT 10SM CLR 04/02 A3014 RMK AO2,K6S2,2023-03-27T16:15:00Z,43.98,-124.12,4.0,2.0,0,5,13,10.0,30.138779,,,TRUE,TRUE,,,,,,,CLR,,,,,,,,VFR,,,,,,,,,,,,SPECI,16.0
K6S2 271555Z AUTO VRB05KT 10SM CLR 04/02 A3015 RMK AO2,K6S2,2023-03-27T15:55:00Z,43.98,-124.12,4.0,2.0,0,5,,10.0,30.15059,,,TRUE,TRUE,,,,,,,CLR,,,,,,,,VFR,,,,,,,,,,,,SPECI,16.0
K6S2 271535Z AUTO VRB05G10KT 10SM CLR 04/02 A3015 RMK AO2,K6S2,2023-03-27T15:35:00Z,43.98,-124.12,4.0,2.0,0,5,10,10.0,30.15059,,,TRUE,TRUE,,,,,,,CLR,,,,,,,,VFR,,,,,,,,,,,,METAR,16.0
K6S2 271515Z AUTO VRB06KT 10SM CLR 03/02 A3016 RMK AO2,K6S2,2023-03-27T15:15:00Z,43.98,-124.12,3.0,2.0,0,6,,10.0,30.159449,,,TRUE,TRUE,,,,,,,CLR,,,,,,,,VFR,,,,,,,,,,,,SPECI,16.0
K6S2 271455Z AUTO VRB04G11KT 10SM CLR 03/02 A3016 RMK AO2,K6S2,2023-03-27T14:55:00Z,43.98,-124.12,3.0,2.0,0,4,11,10.0,30.159449,,,TRUE,TRUE,,,,,,,CLR,,,,,,,,VFR,,,,,,,,,,,,METAR,16.0
K6S2 271435Z AUTO VRB03KT 10SM CLR 03/02 A3016 RMK AO2,K6S2,2023-03-27T14:35:00Z,43.98,-124.12,3.0,2.0,0,3,,10.0,30.159449,,,TRUE,TRUE,,,,,,,CLR,,,,,,,,VFR,,,,,,,,,,,,SPECI,16.0
K6S2 271415Z AUTO VRB05G11KT 10SM CLR 03/03 A3017 RMK AO2,K6S2,2023-03-27T14:15:00Z,43.98,-124.12,3.0,3.0,0,5,11,10.0,30.171259,,,TRUE,TRUE,,,,,,,CLR,,,,,,,,VFR,,,,,,,,,,,,METAR,16.0
K6S2 271355Z AUTO VRB06G12KT 10SM CLR 03/03 A3017 RMK AO2,K6S2,2023-03-27T13:55:00Z,43.98,-124.12,3.0,3.0,0,6,12,10.0,30.171259,,,TRUE,TRUE,,,,,,,CLR,,,,,,,,VFR,,,,,,,,,,,,METAR,16.0
K6S2 271335Z AUTO VRB04G12KT 10SM CLR 03/03 A3017 RMK AO2,K6S2,2023-03-27T13:35:00Z,43.98,-124.12,3.0,3.0,0,4,12,10.0,30.171259,,,TRUE,TRUE,,,,,,,CLR,,,,,,,,VFR,,,,,,,,,,,,METAR,16.0
K6S2 271315Z AUTO VRB06G13KT 070V130 10SM CLR 03/03 A3018 RMK AO2,K6S2,2023-03-27T13:15:00Z,43.98,-124.12,3.0,3.0,0,6,13,10.0,30.180119,,,TRUE,TRUE,,,,,,,CLR,,,,,,,,VFR,,,,,,,,,,,,SPECI,16.0
K6S2 271255Z AUTO 11007G12KT 080V140 10SM CLR 03/03 A3020 RMK AO2,K6S2,2023-03-27T12:55:00Z,43.98,-124.12,3.0,3.0,110,7,12,10.0,30.200787,,,TRUE,TRUE,,,,,,,CLR,,,,,,,,VFR,,,,,,,,,,,,METAR,16.0
K6S2 271235Z AUTO VRB04G15KT 10SM CLR 03/03 A3020 RMK AO2,K6S2,2023-03-27T12:35:00Z,43.98,-124.12,3.0,3.0,0,4,15,10.0,30.200787,,,TRUE,TRUE,,,,,,,CLR,,,,,,,,VFR,,,,,,,,,,,,METAR,16.0
K6S2 271215Z AUTO VRB06G11KT 10SM CLR 03/03 A3020 RMK AO2,K6S2,2023-03-27T12:15:00Z,43.98,-124.12,3.0,3.0,0,6,11,10.0,30.200787,,,TRUE,TRUE,,,,,,,CLR,,,,,,,,VFR,,,,,,,,,,,,SPECI,16.0
K6S2 271155Z AUTO VRB04KT 10SM CLR 03/03 A3021 RMK AO2,K6S2,2023-03-27T11:55:00Z,43.98,-124.12,3.0,3.0,0,4,,10.0,30.209646,,,TRUE,TRUE,,,,,,,CLR,,,,,,,,VFR,,,,,,,,,,,,METAR,16.0
K6S2 271135Z AUTO VRB03KT 10SM FEW120 03/03 A3022 RMK AO2,K6S2,2023-03-27T11:35:00Z,43.98,-124.12,3.0,3.0,0,3,,10.0,30.221457,,,TRUE,TRUE,,,,,,,FEW,12000,,,,,,,VFR,,,,,,,,,,,,METAR,16.0
K6S2 271115Z AUTO VRB04G11KT 10SM BKN120 03/03 A3022 RMK AO2,K6S2,2023-03-27T11:15:00Z,43.98,-124.12,3.0,3.0,0,4,11,10.0,30.221457,,,TRUE,TRUE,,,,,,,BKN,12000,,,,,,,VFR,,,,,,,,,,,,SPECI,16.0
K6S2 271055Z AUTO VRB04KT 10SM BKN110 03/03 A3023 RMK AO2,K6S2,2023-03-27T10:55:00Z,43.98,-124.12,3.0,3.0,0,4,,10.0,30.230314,,,TRUE,TRUE,,,,,,,BKN,11000,,,,,,,VFR,,,,,,,,,,,,SPECI,16.0
K6S2 271035Z AUTO 10005KT 10SM BKN110 03/03 A3023 RMK AO2,K6S2,2023-03-27T10:35:00Z,43.98,-124.12,3.0,3.0,100,5,,10.0,30.230314,,,TRUE,TRUE,,,,,,,BKN,11000,,,,,,,VFR,,,,,,,,,,,,SPECI,16.0
K6S2 271015Z AUTO VRB05KT 10SM OVC110 03/03 A3024 RMK AO2,K6S2,2023-03-27T10:15:00Z,43.98,-124.12,3.0,3.0,0,5,,10.0,30.239174,,,TRUE,TRUE,,,,,,,OVC,11000,,,,,,,VFR,,,,,,,,,,,,SPECI,16.0
K6S2 270955Z AUTO VRB03KT 10SM BKN120 03/03 A3025 RMK AO2,K6S2,2023-03-27T09:55:00Z,43.98,-124.12,3.0,3.0,0,3,,10.0,30.250984,,,TRUE,TRUE,,,,,,,BKN,12000,,,,,,,VFR,,,,,,,,,,,,METAR,16.0
K6S2 270935Z AUTO 00000KT 10SM CLR 02/02 A3026 RMK AO2,K6S2,2023-03-27T09:35:00Z,43.98,-124.12,2.0,2.0,0,0,,10.0,30.259842,,,TRUE,TRUE,,,,,,,CLR,,,,,,,,VFR,,,,,,,,,,,,METAR,16.0
K6S2 270915Z AUTO 00000KT 10SM CLR 02/02 A3028 RMK AO2,K6S2,2023-03-27T09:15:00Z,43.98,-124.12,2.0,2.0,0,0,,10.0,30.280512,,,TRUE,TRUE,,,,,,,CLR,,,,,,,,VFR,,,,,,,,,,,,SPECI,16.0
K6S2 270855Z AUTO 00000KT 10SM SCT110 03/03 A3028 RMK AO2,K6S2,2023-03-27T08:55:00Z,43.98,-124.12,3.0,3.0,0,0,,10.0,30.280512,,,TRUE,TRUE,,,,,,,SCT,11000,,,,,,,VFR,,,,,,,,,,,,METAR,16.0
K6S2 270835Z AUTO 00000KT 10SM BKN110 02/02 A3029 RMK AO2,K6S2,2023-03-27T08:35:00Z,43.98,-124.12,2.0,2.0,0,0,,10.0,30.28937,,,TRUE,TRUE,,,,,,,BKN,11000,,,,,,,VFR,,,,,,,,,,,,SPECI,16.0
K6S2 270815Z AUTO 00000KT 10SM FEW120 02/02 A3029 RMK AO2,K6S2,2023-03-27T08:15:00Z,43.98,-124.12,2.0,2.0,0,0,,10.0,30.28937,,,TRUE,TRUE,,,,,,,FEW,12000,,,,,,,VFR,,,,,,,,,,,,SPECI,16.0
K6S2 270755Z AUTO 10003KT 10SM CLR 02/02 A3030 RMK AO2,K6S2,2023-03-27T07:55:00Z,43.98,-124.12,2.0,2.0,100,3,,10.0,30.301182,,,TRUE,TRUE,,,,,,,CLR,,,,,,,,VFR,,,,,,,,,,,,SPECI,16.0
K6S2 270735Z AUTO 00000KT 10SM CLR 02/02 A3030 RMK AO2,K6S2,2023-03-27T07:35:00Z,43.98,-124.12,2.0,2.0,0,0,,10.0,30.301182,,,TRUE,TRUE,,,,,,,CLR,,,,,,,,VFR,,,,,,,,,,,,SPECI,16.0
K6S2 270715Z AUTO 00000KT 10SM CLR 02/02 A3031 RMK AO2,K6S2,2023-03-27T07:15:00Z,43.98,-124.12,2.0,2.0,0,0,,10.0,30.31004,,,TRUE,TRUE,,,,,,,CLR,,,,,,,,VFR,,,,,,,,,,,,SPECI,16.0
K6S2 270655Z AUTO 00000KT 10SM FEW043 03/03 A3031 RMK AO2,K6S2,2023-03-27T06:55:00Z,43.98,-124.12,3.0,3.0,0,0,,10.0,30.31004,,,TRUE,TRUE,,,,,,,FEW,4300,,,,,,,VFR,,,,,,,,,,,,METAR,16.0
K6S2 270635Z AUTO VRB04KT 10SM FEW044 03/03 A3031 RMK AO2,K6S2,2023-03-27T06:35:00Z,43.98,-124.12,3.0,3.0,0,4,,10.0,30.31004,,,TRUE,TRUE,,,,,,,FEW,4400,,,,,,,VFR,,,,,,,,,,,,SPECI,16.0
K6S2 270615Z AUTO 00000KT 10SM CLR 03/03 A3032 RMK AO2,K6S2,2023-03-27T06:15:00Z,43.98,-124.12,3.0,3.0,0,0,,10.0,30.318897,,,TRUE,TRUE,,,,,,,CLR,,,,,,,,VFR,,,,,,,,,,,,SPECI,16.0
K6S2 270555Z AUTO 00000KT 10SM CLR 03/03 A3033 RMK AO2,K6S2,2023-03-27T05:55:00Z,43.98,-124.12,3.0,3.0,0,0,,10.0,30.33071,,,TRUE,TRUE,,,,,,,CLR,,,,,,,,VFR,,,,,,,,,,,,METAR,16.0
K6S2 270535Z AUTO 00000KT 10SM CLR 03/03 A3034 RMK AO2,K6S2,2023-03-27T05:35:00Z,43.98,-124.12,3.0,3.0,0,0,,10.0,30.339567,,,TRUE,TRUE,,,,,,,CLR,,,,,,,,VFR,,,,,,,,,,,,METAR,16.0
K6S2 270515Z AUTO 00000KT 10SM CLR 03/03 A3034 RMK AO2,K6S2,2023-03-27T05:15:00Z,43.98,-124.12,3.0,3.0,0,0,,10.0,30.339567,,,TRUE,TRUE,,,,,,,CLR,,,,,,,,VFR,,,,,,,,,,,,METAR,16.0
K6S2 270455Z AUTO 00000KT 10SM CLR 03/03 A3034 RMK AO2,K6S2,2023-03-27T04:55:00Z,43.98,-124.12,3.0,3.0,0,0,,10.0,30.339567,,,TRUE,TRUE,,,,,,,CLR,,,,,,,,VFR,,,,,,,,,,,,METAR,16.0
K6S2 270435Z AUTO 00000KT 10SM CLR 03/03 A3034 RMK AO2,K6S2,2023-03-27T04:35:00Z,43.98,-124.12,3.0,3.0,0,0,,10.0,30.339567,,,TRUE,TRUE,,,,,,,CLR,,,,,,,,VFR,,,,,,,,,,,,SPECI,16.0
K6S2 270415Z AUTO 00000KT 10SM CLR 04/04 A3033 RMK AO2,K6S2,2023-03-27T04:15:00Z,43.98,-124.12,4.0,4.0,0,0,,10.0,30.33071,,,TRUE,TRUE,,,,,,,CLR,,,,,,,,VFR,,,,,,,,,,,,METAR,16.0
K6S2 270355Z AUTO 00000KT 10SM CLR 04/04 A3033 RMK AO2,K6S2,2023-03-27T03:55:00Z,43.98,-124.12,4.0,4.0,0,0,,10.0,30.33071,,,TRUE,TRUE,,,,,,,CLR,,,,,,,,VFR,,,,,,,,,,,,METAR,16.0
K6S2 270335Z AUTO 00000KT 10SM CLR 04/03 A3033 RMK AO2,K6S2,2023-03-27T03:35:00Z,43.98,-124.12,4.0,3.0,0,0,,10.0,30.33071,,,TRUE,TRUE,,,,,,,CLR,,,,,,,,VFR,,,,,,,,,,,,SPECI,16.0
K6S2 270315Z AUTO 00000KT 10SM CLR 05/03 A3033 RMK AO2,K6S2,2023-03-27T03:15:00Z,43.98,-124.12,5.0,3.0,0,0,,10.0,30.33071,,,TRUE,TRUE,,,,,,,CLR,,,,,,,,VFR,,,,,,,,,,,,METAR,16.0
K6S2 270255Z AUTO 00000KT 10SM CLR 05/04 A3033 RMK AO2,K6S2,2023-03-27T02:55:00Z,43.98,-124.12,5.0,4.0,0,0,,10.0,30.33071,,,TRUE,TRUE,,,,,,,CLR,,,,,,,,VFR,,,,,,,,,,,,METAR,16.0
K6S2 270235Z AUTO 00000KT 10SM CLR 06/03 A3033 RMK AO2,K6S2,2023-03-27T02:35:00Z,43.98,-124.12,6.0,3.0,0,0,,10.0,30.33071,,,TRUE,TRUE,,,,,,,CLR,,,,,,,,VFR,,,,,,,,,,,,SPECI,16.0
K6S2 270215Z AUTO 00000KT 10SM CLR 07/02 A3034 RMK AO2,K6S2,2023-03-27T02:15:00Z,43.98,-124.12,7.0,2.0,0,0,,10.0,30.339567,,,TRUE,TRUE,,,,,,,CLR,,,,,,,,VFR,,,,,,,,,,,,SPECI,16.0
K6S2 270155Z AUTO 00000KT 10SM CLR 07/02 A3034 RMK AO2,K6S2,2023-03-27T01:55:00Z,43.98,-124.12,7.0,2.0,0,0,,10.0,30.339567,,,TRUE,TRUE,,,,,,,CLR,,,,,,,,VFR,,,,,,,,,,,,METAR,16.0
K6S2 270135Z AUTO 31003KT 10SM CLR 07/03 A3034 RMK AO2,K6S2,2023-03-27T01:35:00Z,43.98,-124.12,7.0,3.0,310,3,,10.0,30.339567,,,TRUE,TRUE,,,,,,,CLR,,,,,,,,VFR,,,,,,,,,,,,METAR,16.0
K6S2 270115Z AUTO 31003KT 10SM CLR 08/02 A3034 RMK AO2,K6S2,2023-03-27T01:15:00Z,43.98,-124.12,8.0,2.0,310,3,,10.0,30.339567,,,TRUE,TRUE,,,,,,,CLR,,,,,,,,VFR,,,,,,,,,,,,METAR,16.0
K6S2 270055Z AUTO 00000KT 10SM CLR 08/03 A3035 RMK AO2,K6S2,2023-03-27T00:55:00Z,43.98,-124.12,8.0,3.0,0,0,,10.0,30.351377,,,TRUE,TRUE,,,,,,,CLR,,,,,,,,VFR,,,,,,,,,,,,METAR,16.0
K6S2 270035Z AUTO 33005KT 10SM CLR 08/03 A3035 RMK AO2,K6S2,2023-03-27T00:35:00Z,43.98,-124.12,8.0,3.0,330,5,,10.0,30.351377,,,TRUE,TRUE,,,,,,,CLR,,,,,,,,VFR,,,,,,,,,,,,SPECI,16.0
K6S2 270015Z AUTO VRB04KT 10SM FEW020 08/03 A3036 RMK AO2,K6S2,2023-03-27T00:15:00Z,43.98,-124.12,8.0,3.0,0,4,,10.0,30.360237,,,TRUE,TRUE,,,,,,,FEW,2000,,,,,,,VFR,,,,,,,,,,,,METAR,16.0
K6S2 262355Z AUTO 30006KT 10SM SCT021 BKN026 08/04 A3037 RMK AO2,K6S2,2023-03-26T23:55:00Z,43.98,-124.12,8.0,4.0,300,6,,10.0,30.369095,,,TRUE,TRUE,,,,,,,SCT,2100,BKN,2600,,,,,MVFR,,,,,,,,,,,,METAR,16.0
K6S2 262335Z AUTO VRB06KT 10SM SCT024 09/04 A3037 RMK AO2,K6S2,2023-03-26T23:35:00Z,43.98,-124.12,9.0,4.0,0,6,,10.0,30.369095,,,TRUE,TRUE,,,,,,,SCT,2400,,,,,,,VFR,,,,,,,,,,,,METAR,16.0
K6S2 262315Z AUTO VRB06KT 10SM CLR 08/03 A3038 RMK AO2,K6S2,2023-03-26T23:15:00Z,43.98,-124.12,8.0,3.0,0,6,,10.0,30.380905,,,TRUE,TRUE,,,,,,,CLR,,,,,,,,VFR,,,,,,,,,,,,SPECI,16.0
K6S2 262255Z AUTO VRB06KT 10SM CLR 08/03 A3038 RMK AO2,K6S2,2023-03-26T22:55:00Z,43.98,-124.12,8.0,3.0,0,6,,10.0,30.380905,,,TRUE,TRUE,,,,,,,CLR,,,,,,,,VFR,,,,,,,,,,,,METAR,16.0
K6S2 262235Z AUTO 29007KT 10SM CLR 09/03 A3038 RMK AO2,K6S2,2023-03-26T22:35:00Z,43.98,-124.12,9.0,3.0,290,7,,10.0,30.380905,,,TRUE,TRUE,,,,,,,CLR,,,,,,,,VFR,,,,,,,,,,,,METAR,16.0
K6S2 262215Z AUTO VRB05G11KT 10SM CLR 08/03 A3038 RMK AO2,K6S2,2023-03-26T22:15:00Z,43.98,-124.12,8.0,3.0,0,5,11,10.0,30.380905,,,TRUE,TRUE,,,,,,,CLR,,,,,,,,VFR,,,,,,,,,,,,SPECI,16.0
K6S2 262155Z AUTO 25007KT 10SM CLR 08/03 A3038 RMK AO2,K6S2,2023-03-26T21:55:00Z,43.98,-124.12,8.0,3.0,250,7,,10.0,30.380905,,,TRUE,TRUE,,,,,,,CLR,,,,,,,,VFR,,,,,,,,,,,,METAR,16.0
K6S2 262135Z AUTO VRB06KT 10SM CLR 08/03 A3038 RMK AO2,K6S2,2023-03-26T21:35:00Z,43.98,-124.12,8.0,3.0,0,6,,10.0,30.380905,,,TRUE,TRUE,,,,,,,CLR,,,,,,,,VFR,,,,,,,,,,,,SPECI,16.0
K6S2 262115Z AUTO 24007KT 10SM CLR 08/03 A3038 RMK AO2,K6S2,2023-03-26T21:15:00Z,43.98,-124.12,8.0,3.0,240,7,,10.0,30.380905,,,TRUE,TRUE,,,,,,,CLR,,,,,,,,VFR,,,,,,,,,,,,SPECI,16.0
K6S2 262055Z AUTO 26010KT 210V270 10SM CLR 08/03 A3039 RMK AO2,K6S2,2023-03-26T20:55:00Z,43.98,-124.12,8.0,3.0,260,10,,10.0,30.389763,,,TRUE,TRUE,,,,,,,CLR,,,,,,,,VFR,,,,,,,,,,,,METAR,16.0
K6S2 262035Z AUTO 26009KT 230V290 10SM CLR 08/04 A3039 RMK AO2,K6S2,2023-03-26T20:35:00Z,43.98,-124.12,8.0,4.0,260,9,,10.0,30.389763,,,TRUE,TRUE,,,,,,,CLR,,,,,,,,VFR,,,,,,,,,,,,SPECI,16.0
K6S2 262015Z AUTO 23008G13KT 200V270 10SM CLR 08/04 A3039 RMK AO2,K6S2,2023-03-26T20:15:00Z,43.98,-124.12,8.0,4.0,230,8,13,10.0,30.389763,,,TRUE,TRUE,,,,,,,CLR,,,,,,,,VFR,,,,,,,,,,,,SPECI,16.0
K6S2 261935Z AUTO 23008G14KT 200V270 10SM FEW017 FEW044 07/05 A3039 RMK AO2,K6S2,2023-03-26T19:35:00Z,43.98,-124.12,7.0,5.0,230,8,14,10.0,30.389763,,,TRUE,TRUE,,,,,,,FEW,1700,FEW,4400,,,,,VFR,,,,,,,,,,,,SPECI,16.0
K6S2 261915Z AUTO 24007KT 170V280 10SM FEW018 SCT029 BKN044 07/05 A3040 RMK AO2,K6S2,2023-03-26T19:15:00Z,43.98,-124.12,7.0,5.0,240,7,,10.0,30.398623,,,TRUE,TRUE,,,,,,,FEW,1800,SCT,2900,BKN,4400,,,VFR,,,,,,,,,,,,METAR,16.0
K6S2 261855Z AUTO VRB05KT 10SM FEW018 SCT026 SCT038 07/05 A3040 RMK AO2,K6S2,2023-03-26T18:55:00Z,43.98,-124.12,7.0,5.0,0,5,,10.0,30.398623,,,TRUE,TRUE,,,,,,,FEW,1800,SCT,2600,SCT,3800,,,VFR,,,,,,,,,,,,METAR,16.0
K6S2 261835Z AUTO 18005KT 10SM BKN017 BKN022 BKN027 07/05 A3040 RMK AO2,K6S2,2023-03-26T18:35:00Z,43.98,-124.12,7.0,5.0,180,5,,10.0,30.398623,,,TRUE,TRUE,,,,,,,BKN,1700,BKN,2200,BKN,2700,,,MVFR,,,,,,,,,,,,METAR,16.0
K6S2 261815Z AUTO 18006KT 10SM BKN016 BKN021 BKN080 07/05 A3040 RMK AO2,K6S2,2023-03-26T18:15:00Z,43.98,-124.12,7.0,5.0,180,6,,10.0,30.398623,,,TRUE,TRUE,,,,,,,BKN,1600,BKN,2100,BKN,8000,,,MVFR,,,,,,,,,,,,METAR,16.0
K6S2 261755Z AUTO VRB04KT 10SM FEW013 FEW017 BKN080 06/05 A3040 RMK AO2,K6S2,2023-03-26T17:55:00Z,43.98,-124.12,6.0,5.0,0,4,,10.0,30.398623,,,TRUE,TRUE,,,,,,,FEW,1300,FEW,1700,BKN,8000,,,VFR,,,,,,,,,,,,METAR,16.0
K6S2 261735Z AUTO 19005KT 10SM BKN013 BKN080 06/05 A3040 RMK AO2,K6S2,2023-03-26T17:35:00Z,43.98,-124.12,6.0,5.0,190,5,,10.0,30.398623,,,TRUE,TRUE,,,,,,,BKN,1300,BKN,8000,,,,,MVFR,,,,,,,,,,,,SPECI,16.0
K6S2 261715Z AUTO 18005KT 10SM SCT012 06/05 A3039 RMK AO2,K6S2,2023-03-26T17:15:00Z,43.98,-124.12,6.0,5.0,180,5,,10.0,30.389763,,,TRUE,TRUE,,,,,,,SCT,1200,,,,,,,VFR,,,,,,,,,,,,SPECI,16.0
K6S2 261655Z AUTO VRB04KT 10SM FEW011 FEW095 05/05 A3039 RMK AO2,K6S2,2023-03-26T16:55:00Z,43.98,-124.12,5.0,5.0,0,4,,10.0,30.389763,,,TRUE,TRUE,,,,,,,FEW,1100,FEW,9500,,,,,VFR,,,,,,,,,,,,METAR,16.0
K6S2 261635Z AUTO 00000KT 10SM SCT095 04/04 A3039 RMK AO2,K6S2,2023-03-26T16:35:00Z,43.98,-124.12,4.0,4.0,0,0,,10.0,30.389763,,,TRUE,TRUE,,,,,,,SCT,9500,,,,,,,VFR,,,,,,,,,,,,METAR,16.0
K6S2 261615Z AUTO 00000KT 10SM CLR 04/04 A3039 RMK AO2,K6S2,2023-03-26T16:15:00Z,43.98,-124.12,4.0,4.0,0,0,,10.0,30.389763,,,TRUE,TRUE,,,,,,,CLR,,,,,,,,VFR,,,,,,,,,,,,SPECI,16.0
K6S2 261555Z AUTO 00000KT 10SM FEW003 BKN029 03/03 A3039 RMK AO2,K6S2,2023-03-26T15:55:00Z,43.98,-124.12,3.0,3.0,0,0,,10.0,30.389763,,,TRUE,TRUE,,,,,,,FEW,300,BKN,2900,,,,,MVFR,,,,,,,,,,,,METAR,16.0
K6S2 261535Z AUTO 00000KT 10SM OVC029 03/03 A3039 RMK AO2,K6S2,2023-03-26T15:35:00Z,43.98,-124.12,3.0,3.0,0,0,,10.0,30.389763,,,TRUE,TRUE,,,,,,,OVC,2900,,,,,,,MVFR,,,,,,,,,,,,METAR,16.0
K6S2 261515Z AUTO 00000KT 10SM BKN030 BKN042 OVC060 02/02 A3039 RMK AO2,K6S2,2023-03-26T15:15:00Z,43.98,-124.12,2.0,2.0,0,0,,10.0,30.389763,,,TRUE,TRUE,,,,,,,BKN,3000,BKN,4200,OVC,6000,,,MVFR,,,,,,,,,,,,METAR,16.0
K6S2 261455Z AUTO 00000KT 10SM FEW027 BKN048 OVC055 02/02 A3039 RMK AO2 P0001,K6S2,2023-03-26T14:55:00Z,43.98,-124.12,2.0,2.0,0,0,,10.0,30.389763,,,TRUE,TRUE,,,,,,,FEW,2700,BKN,4800,OVC,5500,,,VFR,,,,,,0.01,,,,,,METAR,16.0
K6S2 261435Z AUTO VRB05KT 7SM UP FEW027 SCT033 BKN042 02/02 A3038 RMK AO2,K6S2,2023-03-26T14:35:00Z,43.98,-124.12,2.0,2.0,0,5,,7.0,30.380905,,,TRUE,TRUE,,,,,,UP,FEW,2700,SCT,3300,BKN,4200,,,VFR,,,,,,,,,,,,METAR,16.0
K6S2 261415Z AUTO 00000KT 7SM -RA FEW021 SCT028 BKN070 02/02 A3038 RMK AO2,K6S2,2023-03-26T14:15:00Z,43.98,-124.12,2.0,2.0,0,0,,7.0,30.380905,,,TRUE,TRUE,,,,,,-RA,FEW,2100,SCT,2800,BKN,7000,,,VFR,,,,,,,,,,,,METAR,16.0
K6S2 261355Z AUTO 00000KT 10SM SCT008 BKN027 OVC070 02/02 A3038 RMK AO2,K6S2,2023-03-26T13:55:00Z,43.98,-124.12,2.0,2.0,0,0,,10.0,30.380905,,,TRUE,TRUE,,,,,,,SCT,800,BKN,2700,OVC,7000,,,MVFR,,,,,,,,,,,,METAR,16.0
K6S2 261335Z AUTO 00000KT 10SM BKN008 BKN012 OVC025 01/01 A3039 RMK AO2,K6S2,2023-03-26T13:35:00Z,43.98,-124.12,1.0,1.0,0,0,,10.0,30.389763,,,TRUE,TRUE,,,,,,,BKN,800,BKN,1200,OVC,2500,,,IFR,,,,,,,,,,,,SPECI,16.0
K6S2 261315Z AUTO 00000KT 10SM OVC025 01/01 A3038 RMK AO2,K6S2,2023-03-26T13:15:00Z,43.98,-124.12,1.0,1.0,0,0,,10.0,30.380905,,,TRUE,TRUE,,,,,,,OVC,2500,,,,,,,MVFR,,,,,,,,,,,,METAR,16.0
K6S2 261255Z AUTO 00000KT 10SM BKN025 BKN036 OVC047 01/01 A3038 RMK AO2,K6S2,2023-03-26T12:55:00Z,43.98,-124.12,1.0,1.0,0,0,,10.0,30.380905,,,TRUE,TRUE,,,,,,,BKN,2500,BKN,3600,OVC,4700,,,MVFR,,,,,,,,,,,,METAR,16.0
K6S2 261235Z AUTO 00000KT 10SM FEW026 SCT037 OVC047 01/01 A3038 RMK AO2,K6S2,2023-03-26T12:35:00Z,43.98,-124.12,1.0,1.0,0,0,,10.0,30.380905,,,TRUE,TRUE,,,,,,,FEW,2600,SCT,3700,OVC,4700,,,VFR,,,,,,,,,,,,METAR,16.0
K6S2 261215Z AUTO 00000KT 10SM OVC033 01/01 A3038 RMK AO2,K6S2,2023-03-26T12:15:00Z,43.98,-124.12,1.0,1.0,0,0,,10.0,30.380905,,,TRUE,TRUE,,,,,,,OVC,3300,,,,,,,VFR,,,,,,,,,,,,METAR,16.0
K6S2 261155Z AUTO 00000KT 10SM BKN032 OVC055 01/01 A3038 RMK AO2,K6S2,2023-03-26T11:55:00Z,43.98,-124.12,1.0,1.0,0,0,,10.0,30.380905,,,TRUE,TRUE,,,,,,,BKN,3200,OVC,5500,,,,,VFR,,,,,,,,,,,,METAR,16.0
K6S2 261135Z AUTO 00000KT 10SM OVC050 01/01 A3037 RMK AO2,K6S2,2023-03-26T11:35:00Z,43.98,-124.12,1.0,1.0,0,0,,10.0,30.369095,,,TRUE,TRUE,,,,,,,OVC,5000,,,,,,,VFR,,,,,,,,,,,,METAR,16.0
K6S2 261115Z AUTO VRB04KT 10SM SCT002 SCT043 OVC050 01/01 A3037 RMK AO2,K6S2,2023-03-26T11:15:00Z,43.98,-124.12,1.0,1.0,0,4,,10.0,30.369095,,,TRUE,TRUE,,,,,,,SCT,200,SCT,4300,OVC,5000,,,VFR,,,,,,,,,,,,METAR,16.0
K6S2 261055Z AUTO 00000KT 10SM BKN002 BKN018 OVC070 01/01 A3037 RMK AO2,K6S2,2023-03-26T10:55:00Z,43.98,-124.12,1.0,1.0,0,0,,10.0,30.369095,,,TRUE,TRUE,,,,,,,BKN,200,BKN,1800,OVC,7000,,,LIFR,,,,,,,,,,,,METAR,16.0
K6S2 261035Z AUTO 00000KT 10SM FEW002 BKN017 OVC070 02/02 A3038 RMK AO2,K6S2,2023-03-26T10:35:00Z,43.98,-124.12,2.0,2.0,0,0,,10.0,30.380905,,,TRUE,TRUE,,,,,,,FEW,200,BKN,1700,OVC,7000,,,MVFR,,,,,,,,,,,,SPECI,16.0
K6S2 261015Z AUTO 00000KT 10SM SCT016 OVC022 01/01 A3038 RMK AO2,K6S2,2023-03-26T10:15:00Z,43.98,-124.12,1.0,1.0,0,0,,10.0,30.380905,,,TRUE,TRUE,,,,,,,SCT,1600,OVC,2200,,,,,MVFR,,,,,,,,,,,,METAR,16.0
K6S2 260955Z AUTO 00000KT 10SM BKN023 OVC030 01/01 A3038 RMK AO2,K6S2,2023-03-26T09:55:00Z,43.98,-124.12,1.0,1.0,0,0,,10.0,30.380905,,,TRUE,TRUE,,,,,,,BKN,2300,OVC,3000,,,,,MVFR,,,,,,,,,,,,METAR,16.0
K6S2 260935Z AUTO VRB03KT 7SM FEW002 BKN031 OVC075 01/01 A3038 RMK AO2,K6S2,2023-03-26T09:35:00Z,43.98,-124.12,1.0,1.0,0,3,,7.0,30.380905,,,TRUE,TRUE,,,,,,,FEW,200,BKN,3100,OVC,7500,,,VFR,,,,,,,,,,,,METAR,16.0
K6S2 260915Z AUTO 00000KT 10SM FEW018 OVC075 01/01 A3038 RMK AO2,K6S2,2023-03-26T09:15:00Z,43.98,-124.12,1.0,1.0,0,0,,10.0,30.380905,,,TRUE,TRUE,,,,,,,FEW,1800,OVC,7500,,,,,VFR,,,,,,,,,,,,METAR,16.0
K6S2 260855Z AUTO 00000KT 10SM SCT018 BKN035 OVC075 01/01 A3038 RMK AO2,K6S2,2023-03-26T08:55:00Z,43.98,-124.12,1.0,1.0,0,0,,10.0,30.380905,,,TRUE,TRUE,,,,,,,SCT,1800,BKN,3500,OVC,7500,,,VFR,,,,,,,,,,,,SPECI,16.0
K6S2 260835Z AUTO 00000KT 10SM SCT001 SCT036 OVC044 01/01 A3038 RMK AO2,K6S2,2023-03-26T08:35:00Z,43.98,-124.12,1.0,1.0,0,0,,10.0,30.380905,,,TRUE,TRUE,,,,,,,SCT,100,SCT,3600,OVC,4400,,,VFR,,,,,,,,,,,,METAR,16.0
K6S2 260815Z AUTO 00000KT 1 3/4SM BR OVC001 02/02 A3038 RMK AO2 VIS 1V3,K6S2,2023-03-26T08:15:00Z,43.98,-124.12,2.0,2.0,0,0,,1.75,30.380905,,,TRUE,TRUE,,,,,,BR,OVC,100,,,,,,,LIFR,,,,,,,,,,,,SPECI,16.0
K6S2 260755Z AUTO 00000KT 8SM BKN001 BKN019 BKN033 01/01 A3038 RMK AO2,K6S2,2023-03-26T07:55:00Z,43.98,-124.12,1.0,1.0,0,0,,8.0,30.380905,,,TRUE,TRUE,,,,,,,BKN,100,BKN,1900,BKN,3300,,,LIFR,,,,,,,,,,,,METAR,16.0
K6S2 260735Z AUTO 10004KT 10SM SCT002 SCT019 01/01 A3038 RMK AO2,K6S2,2023-03-26T07:35:00Z,43.98,-124.12,1.0,1.0,100,4,,10.0,30.380905,,,TRUE,TRUE,,,,,,,SCT,200,SCT,1900,,,,,VFR,,,,,,,,,,,,SPECI,16.0
K6S2 260715Z AUTO 00000KT 10SM FEW002 SCT020 BKN032 02/02 A3038 RMK AO2,K6S2,2023-03-26T07:15:00Z,43.98,-124.12,2.0,2.0,0,0,,10.0,30.380905,,,TRUE,TRUE,,,,,,,FEW,200,SCT,2000,BKN,3200,,,VFR,,,,,,,,,,,,METAR,16.0
K6S2 260655Z AUTO 00000KT 7SM -RA FEW015 SCT021 BKN027 02/02 A3038 RMK AO2,K6S2,2023-03-26T06:55:00Z,43.98,-124.12,2.0,2.0,0,0,,7.0,30.380905,,,TRUE,TRUE,,,,,,-RA,FEW,1500,SCT,2100,BKN,2700,,,MVFR,,,,,,,,,,,,METAR,16.0
K6S2 260635Z AUTO 00000KT 6SM BR SCT001 BKN029 BKN037 02/02 A3038 RMK AO2,K6S2,2023-03-26T06:35:00Z,43.98,-124.12,2.0,2.0,0,0,,6.0,30.380905,,,TRUE,TRUE,,,,,,BR,SCT,100,BKN,2900,BKN,3700,,,MVFR,,,,,,,,,,,,SPECI,16.0
K6S2 260615Z AUTO 00000KT 8SM FEW002 SCT021 BKN046 02/02 A3038 RMK AO2,K6S2,2023-03-26T06:15:00Z,43.98,-124.12,2.0,2.0,0,0,,8.0,30.380905,,,TRUE,TRUE,,,,,,,FEW,200,SCT,2100,BKN,4600,,,VFR,,,,,,,,,,,,METAR,16.0
K6S2 260555Z AUTO 16003KT 5SM -RA BR BKN022 BKN029 OVC055 02/02 A3038 RMK AO2,K6S2,2023-03-26T05:55:00Z,43.98,-124.12,2.0,2.0,160,3,,5.0,30.380905,,,TRUE,TRUE,,,,,,-RA BR,BKN,2200,BKN,2900,OVC,5500,,,MVFR,,,,,,,,,,,,METAR,16.0
K6S2 260535Z AUTO 00000KT 10SM SCT028 BKN034 02/02 A3037 RMK AO2,K6S2,2023-03-26T05:35:00Z,43.98,-124.12,2.0,2.0,0,0,,10.0,30.369095,,,TRUE,TRUE,,,,,,,SCT,2800,BKN,3400,,,,,VFR,,,,,,,,,,,,SPECI,16.0
K6S2 260515Z AUTO 00000KT 10SM FEW036 02/02 A3037 RMK AO2,K6S2,2023-03-26T05:15:00Z,43.98,-124.12,2.0,2.0,0,0,,10.0,30.369095,,,TRUE,TRUE,,,,,,,FEW,3600,,,,,,,VFR,,,,,,,,,,,,SPECI,16.0
K6S2 260455Z AUTO 00000KT 10SM SCT080 02/02 A3037 RMK AO2,K6S2,2023-03-26T04:55:00Z,43.98,-124.12,2.0,2.0,0,0,,10.0,30.369095,,,TRUE,TRUE,,,,,,,SCT,8000,,,,,,,VFR,,,,,,,,,,,,METAR,16.0
K6S2 260435Z AUTO 00000KT 10SM BKN080 OVC100 02/02 A3036 RMK AO2,K6S2,2023-03-26T04:35:00Z,43.98,-124.12,2.0,2.0,0,0,,10.0,30.360237,,,TRUE,TRUE,,,,,,,BKN,8000,OVC,10000,,,,,VFR,,,,,,,,,,,,SPECI,16.0
K6S2 260415Z AUTO 00000KT 10SM BKN080 OVC095 02/02 A3036 RMK AO2,K6S2,2023-03-26T04:15:00Z,43.98,-124.12,2.0,2.0,0,0,,10.0,30.360237,,,TRUE,TRUE,,,,,,,BKN,8000,OVC,9500,,,,,VFR,,,,,,,,,,,,SPECI,16.0
K6S2 260355Z AUTO 00000KT 10SM FEW070 OVC080 03/03 A3035 RMK AO2 P0001,K6S2,2023-03-26T03:55:00Z,43.98,-124.12,3.0,3.0,0,0,,10.0,30.351377,,,TRUE,TRUE,,,,,,,FEW,7000,OVC,8000,,,,,VFR,,,,,,0.01,,,,,,METAR,16.0
K6S2 260315Z AUTO 00000KT 7SM -RA BKN011 BKN018 BKN027 03/03 A3035 RMK AO2,K6S2,2023-03-26T03:15:00Z,43.98,-124.12,3.0,3.0,0,0,,7.0,30.351377,,,TRUE,TRUE,,,,,,-RA,BKN,1100,BKN,1800,BKN,2700,,,MVFR,,,,,,,,,,,,METAR,16.0
K6S2 260255Z AUTO VRB03KT 4SM UP BR FEW003 SCT012 BKN019 03/03 A3036 RMK AO2 P0003,K6S2,2023-03-26T02:55:00Z,43.98,-124.12,3.0,3.0,0,3,,4.0,30.360237,,,TRUE,TRUE,,,,,,BR UP,FEW,300,SCT,1200,BKN,1900,,,MVFR,,,,,,0.03,,,,,,METAR,16.0
K6S2 260235Z AUTO 34009G14KT 300V010 10SM SCT019 SCT033 BKN043 05/04 A3036 RMK AO2,K6S2,2023-03-26T02:35:00Z,43.98,-124.12,5.0,4.0,340,9,14,10.0,30.360237,,,TRUE,TRUE,,,,,,,SCT,1900,SCT,3300,BKN,4300,,,VFR,,,,,,,,,,,,METAR,16.0
K6S2 260215Z AUTO 00000KT 10SM SCT018 05/04 A3034 RMK AO2,K6S2,2023-03-26T02:15:00Z,43.98,-124.12,5.0,4.0,0,0,,10.0,30.339567,,,TRUE,TRUE,,,,,,,SCT,1800,,,,,,,VFR,,,,,,,,,,,,SPECI,16.0
K6S2 260155Z AUTO 00000KT 10SM CLR 06/04 A3034 RMK AO2,K6S2,2023-03-26T01:55:00Z,43.98,-124.12,6.0,4.0,0,0,,10.0,30.339567,,,TRUE,TRUE,,,,,,,CLR,,,,,,,,VFR,,,,,,,,,,,,SPECI,16.0
K6S2 260135Z AUTO 26004KT 10SM FEW034 06/03 A3034 RMK AO2,K6S2,2023-03-26T01:35:00Z,43.98,-124.12,6.0,3.0,260,4,,10.0,30.339567,,,TRUE,TRUE,,,,,,,FEW,3400,,,,,,,VFR,,,,,,,,,,,,SPECI,16.0
K6S2 260115Z AUTO 31005KT 10SM FEW022 BKN034 BKN085 06/03 A3034 RMK AO2,K6S2,2023-03-26T01:15:00Z,43.98,-124.12,6.0,3.0,310,5,,10.0,30.339567,,,TRUE,TRUE,,,,,,,FEW,2200,BKN,3400,BKN,8500,,,VFR,,,,,,,,,,,,METAR,16.0
K6S2 260055Z AUTO 24005G10KT 10SM SCT022 BKN029 BKN046 06/04 A3034 RMK AO2,K6S2,2023-03-26T00:55:00Z,43.98,-124.12,6.0,4.0,240,5,10,10.0,30.339567,,,TRUE,TRUE,,,,,,,SCT,2200,BKN,2900,BKN,4600,,,MVFR,,,,,,,,,,,,METAR,16.0
K6S2 260035Z AUTO 26006KT 10SM FEW029 06/04 A3034 RMK AO2,K6S2,2023-03-26T00:35:00Z,43.98,-124.12,6.0,4.0,260,6,,10.0,30.339567,,,TRUE,TRUE,,,,,,,FEW,2900,,,,,,,VFR,,,,,,,,,,,,SPECI,16.0
K6S2 260015Z AUTO VRB06KT 10SM CLR 07/04 A3034 RMK AO2,K6S2,2023-03-26T00:15:00Z,43.98,-124.12,7.0,4.0,0,6,,10.0,30.339567,,,TRUE,TRUE,,,,,,,CLR,,,,,,,,VFR,,,,,,,,,,,,SPECI,16.0
K6S2 252355Z AUTO VRB05KT 10SM CLR 07/04 A3035 RMK AO2,K6S2,2023-03-25T23:55:00Z,43.98,-124.12,7.0,4.0,0,5,,10.0,30.351377,,,TRUE,TRUE,,,,,,,CLR,,,,,,,,VFR,,,,,,,,,,,,METAR,16.0
K6S2 252335Z AUTO 25005KT 10SM CLR 06/04 A3035 RMK AO2,K6S2,2023-03-25T23:35:00Z,43.98,-124.12,6.0,4.0,250,5,,10.0,30.351377,,,TRUE,TRUE,,,,,,,CLR,,,,,,,,VFR,,,,,,,,,,,,METAR,16.0
K6S2 252315Z AUTO VRB04KT 10SM CLR 06/04 A3035 RMK AO2,K6S2,2023-03-25T23:15:00Z,43.98,-124.12,6.0,4.0,0,4,,10.0,30.351377,,,TRUE,TRUE,,,,,,,CLR,,,,,,,,VFR,,,,,,,,,,,,SPECI,16.0
K6S2 252255Z AUTO VRB05KT 10SM FEW018 FEW070 FEW080 06/04 A3036 RMK AO2,K6S2,2023-03-25T22:55:00Z,43.98,-124.12,6.0,4.0,0,5,,10.0,30.360237,,,TRUE,TRUE,,,,,,,FEW,1800,FEW,7000,FEW,8000,,,VFR,,,,,,,,,,,,SPECI,16.0
K6S2 252235Z AUTO 21005KT 10SM FEW070 FEW085 06/05 A3036 RMK AO2,K6S2,2023-03-25T22:35:00Z,43.98,-124.12,6.0,5.0,210,5,,10.0,30.360237,,,TRUE,TRUE,,,,,,,FEW,7000,FEW,8500,,,,,VFR,,,,,,,,,,,,METAR,16.0
K6S2 252215Z AUTO VRB05KT 9SM FEW010 FEW047 SCT075 05/05 A3037 RMK AO2,K6S2,2023-03-25T22:15:00Z,43.98,-124.12,5.0,5.0,0,5,,9.0,30.369095,,,TRUE,TRUE,,,,,,,FEW,1000,FEW,4700,SCT,7500,,,VFR,,,,,,,,,,,,METAR,16.0
K6S2 252155Z AUTO 00000KT 10SM FEW007 FEW048 SCT095 05/05 A3037 RMK AO2 P0004,K6S2,2023-03-25T21:55:00Z,43.98,-124.12,5.0,5.0,0,0,,10.0,30.369095,,,TRUE,TRUE,,,,,,,FEW,700,FEW,4800,SCT,9500,,,VFR,,,,,,0.04,,,,,,METAR,16.0
K6S2 252135Z AUTO 00000KT 10SM CLR 04/04 A3038 RMK AO2,K6S2,2023-03-25T21:35:00Z,43.98,-124.12,4.0,4.0,0,0,,10.0,30.380905,,,TRUE,TRUE,,,,,,,CLR,,,,,,,,VFR,,,,,,,,,,,,SPECI,16.0
K6S2 252115Z AUTO VRB03KT 4SM -RA BR FEW015 FEW020 FEW033 03/03 A3039 RMK AO2,K6S2,2023-03-25T21:15:00Z,43.98,-124.12,3.0,3.0,0,3,,4.0,30.389763,,,TRUE,TRUE,,,,,,-RA BR,FEW,1500,FEW,2000,FEW,3300,,,MVFR,,,,,,,,,,,,METAR,16.0
K6S2 252055Z AUTO 34008KT 4SM -RA BR FEW016 SCT020 BKN032 05/05 A3040 RMK AO2 P0001,K6S2,2023-03-25T20:55:00Z,43.98,-124.12,5.0,5.0,340,8,,4.0,30.398623,,,TRUE,TRUE,,,,,,-RA BR,FEW,1600,SCT,2000,BKN,3200,,,MVFR,,,,,,0.01,,,,,,SPECI,16.0
K6S2 252035Z AUTO 31004G11KT 2 1/2SM -RA BR SCT017 SCT026 BKN031 04/04 A3039 RMK AO2 VIS 1 1/4V5,K6S2,2023-03-25T20:35:00Z,43.98,-124.12,4.0,4.0,310,4,11,2.5,30.389763,,,TRUE,TRUE,,,,,,-RA BR,SCT,1700,SCT,2600,BKN,3100,,,IFR,,,,,,,,,,,,METAR,16.0
K6S2 252015Z AUTO 32004KT 9SM -RA FEW024 SCT030 06/03 A3038 RMK AO2,K6S2,2023-03-25T20:15:00Z,43.98,-124.12,6.0,3.0,320,4,,9.0,30.380905,,,TRUE,TRUE,,,,,,-RA,FEW,2400,SCT,3000,,,,,VFR,,,,,,,,,,,,METAR,16.0
K6S2 251955Z AUTO VRB03KT 10SM FEW085 06/04 A3038 RMK AO2 P0001,K6S2,2023-03-25T19:55:00Z,43.98,-124.12,6.0,4.0,0,3,,10.0,30.380905,,,TRUE,TRUE,,,,,,,FEW,8500,,,,,,,VFR,,,,,,0.01,,,,,,METAR,16.0
K6S2 251935Z AUTO 00000G10KT 9SM -RA FEW020 FEW045 SCT065 05/04 A3039 RMK AO2,K6S2,2023-03-25T19:35:00Z,43.98,-124.12,5.0,4.0,0,0,10,9.0,30.389763,,,TRUE,TRUE,,,,,,-RA,FEW,2000,FEW,4500,SCT,6500,,,VFR,,,,,,,,,,,,METAR,16.0
K6S2 251915Z AUTO 00000G13KT 4SM -RA BR FEW017 FEW021 SCT026 05/04 A3040 RMK AO2,K6S2,2023-03-25T19:15:00Z,43.98,-124.12,5.0,4.0,0,0,13,4.0,30.398623,,,TRUE,TRUE,,,,,,-RA BR,FEW,1700,FEW,2100,SCT,2600,,,MVFR,,,,,,,,,,,,SPECI,16.0
K6S2 251855Z AUTO 01013G22KT 340V040 10SM FEW020 SCT026 BKN055 07/04 A3040 RMK AO2,K6S2,2023-03-25T18:55:00Z,43.98,-124.12,7.0,4.0,10,13,22,10.0,30.398623,,,TRUE,TRUE,,,,,,,FEW,2000,SCT,2600,BKN,5500,,,VFR,,,,,,,,,,,,METAR,16.0
K6S2 251835Z AUTO 34008G14KT 10SM FEW019 SCT040 BKN049 07/04 A3039 RMK AO2,K6S2,2023-03-25T18:35:00Z,43.98,-124.12,7.0,4.0,340,8,14,10.0,30.389763,,,TRUE,TRUE,,,,,,,FEW,1900,SCT,4000,BKN,4900,,,VFR,,,,,,,,,,,,SPECI,16.0
K6S2 251815Z AUTO 34009G17KT 10SM SCT021 BKN032 BKN039 07/04 A3038 RMK AO2,K6S2,2023-03-25T18:15:00Z,43.98,-124.12,7.0,4.0,340,9,17,10.0,30.380905,,,TRUE,TRUE,,,,,,,SCT,2100,BKN,3200,BKN,3900,,,VFR,,,,,,,,,,,,SPECI,16.0
K6S2 251755Z AUTO 27008KT 240V300 8SM -RA FEW018 FEW027 BKN033 06/04 A3038 RMK AO2,K6S2,2023-03-25T17:55:00Z,43.98,-124.12,6.0,4.0,270,8,,8.0,30.380905,,,TRUE,TRUE,,,,,,-RA,FEW,1800,FEW,2700,BKN,3300,,,VFR,,,,,,,,,,,,METAR,16.0
K6S2 251735Z AUTO 28007KT 240V350 10SM FEW019 SCT029 BKN044 06/04 A3038 RMK AO2,K6S2,2023-03-25T17:35:00Z,43.98,-124.12,6.0,4.0,280,7,,10.0,30.380905,,,TRUE,TRUE,,,,,,,FEW,1900,SCT,2900,BKN,4400,,,VFR,,,,,,,,,,,,SPECI,16.0
K6S2 251715Z AUTO 26007KT 10SM FEW031 FEW044 SCT050 06/04 A3038 RMK AO2,K6S2,2023-03-25T17:15:00Z,43.98,-124.12,6.0,4.0,260,7,,10.0,30.380905,,,TRUE,TRUE,,,,,,,FEW,3100,FEW,4400,SCT,5000,,,VFR,,,,,,,,,,,,METAR,16.0
K6S2 251655Z AUTO VRB05KT 10SM CLR 06/04 A3038 RMK AO2,K6S2,2023-03-25T16:55:00Z,43.98,-124.12,6.0,4.0,0,5,,10.0,30.380905,,,TRUE,TRUE,,,,,,,CLR,,,,,,,,VFR,,,,,,,,,,,,SPECI,16.0
K6S2 251635Z AUTO 28004KT 10SM FEW021 FEW025 SCT040 05/04 A3038 RMK AO2,K6S2,2023-03-25T16:35:00Z,43.98,-124.12,5.0,4.0,280,4,,10.0,30.380905,,,TRUE,TRUE,,,,,,,FEW,2100,FEW,2500,SCT,4000,,,VFR,,,,,,,,,,,,SPECI,16.0
K6S2 251615Z AUTO 00000KT 10SM FEW025 FEW032 BKN039 05/04 A3038 RMK AO2,K6S2,2023-03-25T16:15:00Z,43.98,-124.12,5.0,4.0,0,0,,10.0,30.380905,,,TRUE,TRUE,,,,,,,FEW,2500,FEW,3200,BKN,3900,,,VFR,,,,,,,,,,,,SPECI,16.0
K6S2 251555Z AUTO 00000KT 10SM FEW033 BKN039 OVC065 05/04 A3038 RMK AO2 P0001,K6S2,2023-03-25T15:55:00Z,43.98,-124.12,5.0,4.0,0,0,,10.0,30.380905,,,TRUE,TRUE,,,,,,,FEW,3300,BKN,3900,OVC,6500,,,VFR,,,,,,0.01,,,,,,METAR,16.0
K6S2 251535Z AUTO 00000KT 10SM FEW020 SCT036 BKN048 04/04 A3038 RMK AO2,K6S2,2023-03-25T15:35:00Z,43.98,-124.12,4.0,4.0,0,0,,10.0,30.380905,,,TRUE,TRUE,,,,,,,FEW,2000,SCT,3600,BKN,4800,,,VFR,,,,,,,,,,,,SPECI,16.0
K6S2 251515Z AUTO 36007G15KT 3SM -RA BR FEW003 SCT019 BKN027 04/04 A3038 RMK AO2,K6S2,2023-03-25T15:15:00Z,43.98,-124.12,4.0,4.0,360,7,15,3.0,30.380905,,,TRUE,TRUE,,,,,,-RA BR,FEW,300,SCT,1900,BKN,2700,,,MVFR,,,,,,,,,,,,SPECI,16.0
K6S2 251455Z AUTO 00000KT 10SM BKN034 BKN045 BKN060 05/03 A3037 RMK AO2,K6S2,2023-03-25T14:55:00Z,43.98,-124.12,5.0,3.0,0,0,,10.0,30.369095,,,TRUE,TRUE,,,,,,,BKN,3400,BKN,4500,BKN,6000,,,VFR,,,,,,,,,,,,METAR,16.0
K6S2 251435Z AUTO VRB04KT 10SM FEW024 SCT034 BKN060 04/03 A3037 RMK AO2,K6S2,2023-03-25T14:35:00Z,43.98,-124.12,4.0,3.0,0,4,,10.0,30.369095,,,TRUE,TRUE,,,,,,,FEW,2400,SCT,3400,BKN,6000,,,VFR,,,,,,,,,,,,SPECI,16.0
K6S2 251415Z AUTO VRB04G17KT 9SM -RA FEW016 SCT025 BKN032 04/03 A3037 RMK AO2,K6S2,2023-03-25T14:15:00Z,43.98,-124.12,4.0,3.0,0,4,17,9.0,30.369095,,,TRUE,TRUE,,,,,,-RA,FEW,1600,SCT,2500,BKN,3200,,,VFR,,,,,,,,,,,,METAR,16.0
K6S2 251355Z AUTO 35009KT 10SM BKN031 BKN060 OVC075 06/03 A3037 RMK AO2,K6S2,2023-03-25T13:55:00Z,43.98,-124.12,6.0,3.0,350,9,,10.0,30.369095,,,TRUE,TRUE,,,,,,,BKN,3100,BKN,6000,OVC,7500,,,VFR,,,,,,,,,,,,METAR,16.0
K6S2 251335Z AUTO 31009KT 10SM SCT027 BKN034 OVC100 06/03 A3036 RMK AO2,K6S2,2023-03-25T13:35:00Z,43.98,-124.12,6.0,3.0,310,9,,10.0,30.360237,,,TRUE,TRUE,,,,,,,SCT,2700,BKN,3400,OVC,10000,,,VFR,,,,,,,,,,,,METAR,16.0
K6S2 251315Z AUTO 30009G14KT 10SM BKN031 BKN055 OVC095 06/02 A3036 RMK AO2,K6S2,2023-03-25T13:15:00Z,43.98,-124.12,6.0,2.0,300,9,14,10.0,30.360237,,,TRUE,TRUE,,,,,,,BKN,3100,BKN,5500,OVC,9500,,,VFR,,,,,,,,,,,,METAR,16.0
K6S2 251255Z AUTO 32008G14KT 10SM SCT031 BKN055 OVC095 06/02 A3036 RMK AO2,K6S2,2023-03-25T12:55:00Z,43.98,-124.12,6.0,2.0,320,8,14,10.0,30.360237,,,TRUE,TRUE,,,,,,,SCT,3100,BKN,5500,OVC,9500,,,VFR,,,,,,,,,,,,METAR,16.0
K6S2 251235Z AUTO 32011G18KT 10SM FEW003 BKN031 SCT042 06/02 A3036 RMK AO2,K6S2,2023-03-25T12:35:00Z,43.98,-124.12,6.0,2.0,320,11,18,10.0,30.360237,,,TRUE,TRUE,,,,,,,FEW,300,BKN,3100,SCT,4200,,,VFR,,,,,,,,,,,,SPECI,16.0
K6S2 251215Z AUTO 31010G19KT 10SM SCT030 SCT036 BKN041 06/02 A3036 RMK AO2,K6S2,2023-03-25T12:15:00Z,43.98,-124.12,6.0,2.0,310,10,19,10.0,30.360237,,,TRUE,TRUE,,,,,,,SCT,3000,SCT,3600,BKN,4100,,,VFR,,,,,,,,,,,,SPECI,16.0
K6S2 251155Z AUTO 32010G16KT 10SM SCT029 SCT043 BKN055 06/03 A3036 RMK AO2,K6S2,2023-03-25T11:55:00Z,43.98,-124.12,6.0,3.0,320,10,16,10.0,30.360237,,,TRUE,TRUE,,,,,,,SCT,2900,SCT,4300,BKN,5500,,,VFR,,,,,,,,,,,,METAR,16.0
K6S2 251135Z AUTO 32011KT 10SM FEW003 SCT031 BKN043 06/03 A3036 RMK AO2,K6S2,2023-03-25T11:35:00Z,43.98,-124.12,6.0,3.0,320,11,,10.0,30.360237,,,TRUE,TRUE,,,,,,,FEW,300,SCT,3100,BKN,4300,,,VFR,,,,,,,,,,,,SPECI,16.0
K6S2 251115Z AUTO 33016G23KT 10SM FEW003 SCT029 BKN036 06/03 A3035 RMK AO2,K6S2,2023-03-25T11:15:00Z,43.98,-124.12,6.0,3.0,330,16,23,10.0,30.351377,,,TRUE,TRUE,,,,,,,FEW,300,SCT,2900,BKN,3600,,,VFR,,,,,,,,,,,,METAR,16.0
K6S2 251055Z AUTO 29009G15KT 10SM FEW028 BKN055 06/03 A3035 RMK AO2,K6S2,2023-03-25T10:55:00Z,43.98,-124.12,6.0,3.0,290,9,15,10.0,30.351377,,,TRUE,TRUE,,,,,,,FEW,2800,BKN,5500,,,,,VFR,,,,,,,,,,,,METAR,16.0
K6S2 251035Z AUTO 32011G18KT 10SM SCT028 SCT035 BKN043 06/03 A3036 RMK AO2,K6S2,2023-03-25T10:35:00Z,43.98,-124.12,6.0,3.0,320,11,18,10.0,30.360237,,,TRUE,TRUE,,,,,,,SCT,2800,SCT,3500,BKN,4300,,,VFR,,,,,,,,,,,,METAR,16.0
K6S2 251015Z AUTO VRB05G10KT 10SM FEW014 SCT029 BKN034 05/04 A3036 RMK AO2,K6S2,2023-03-25T10:15:00Z,43.98,-124.12,5.0,4.0,0,5,10,10.0,30.360237,,,TRUE,TRUE,,,,,,,FEW,1400,SCT,2900,BKN,3400,,,VFR,,,,,,,,,,,,SPECI,16.0
K6S2 250955Z AUTO 30008G18KT 5SM -RA BR FEW004 SCT017 BKN026 05/04 A3036 RMK AO2,K6S2,2023-03-25T09:55:00Z,43.98,-124.12,5.0,4.0,300,8,18,5.0,30.360237,,,TRUE,TRUE,,,,,,-RA BR,FEW,400,SCT,1700,BKN,2600,,,MVFR,,,,,,,,,,,,METAR,16.0
K6S2 250935Z AUTO 32010G22KT 8SM -RA FEW010 BKN023 OVC039 05/05 A3036 RMK AO2,K6S2,2023-03-25T09:35:00Z,43.98,-124.12,5.0,5.0,320,10,22,8.0,30.360237,,,TRUE,TRUE,,,,,,-RA,FEW,1000,BKN,2300,OVC,3900,,,MVFR,,,,,,,,,,,,METAR,16.0
K6S2 250915Z AUTO 29009KT 10SM FEW003 BKN036 OVC043 06/04 A3036 RMK AO2,K6S2,2023-03-25T09:15:00Z,43.98,-124.12,6.0,4.0,290,9,,10.0,30.360237,,,TRUE,TRUE,,,,,,,FEW,300,BKN,3600,OVC,4300,,,VFR,,,,,,,,,,,,METAR,16.0
K6S2 250855Z AUTO 30009G14KT 240V330 10SM FEW003 SCT027 BKN037 06/04 A3036 RMK AO2,K6S2,2023-03-25T08:55:00Z,43.98,-124.12,6.0,4.0,300,9,14,10.0,30.360237,,,TRUE,TRUE,,,,,,,FEW,300,SCT,2700,BKN,3700,,,VFR,,,,,,,,,,,,METAR,16.0
K6S2 250835Z AUTO 32008G14KT 290V350 9SM -RA FEW002 SCT017 BKN023 05/04 A3037 RMK AO2,K6S2,2023-03-25T08:35:00Z,43.98,-124.12,5.0,4.0,320,8,14,9.0,30.369095,,,TRUE,TRUE,,,,,,-RA,FEW,200,SCT,1700,BKN,2300,,,MVFR,,,,,,,,,,,,METAR,16.0
K6S2 250815Z AUTO 33010G15KT 5SM -RA BR FEW013 BKN021 OVC034 05/05 A3037 RMK AO2,K6S2,2023-03-25T08:15:00Z,43.98,-124.12,5.0,5.0,330,10,15,5.0,30.369095,,,TRUE,TRUE,,,,,,-RA BR,FEW,1300,BKN,2100,OVC,3400,,,MVFR,,,,,,,,,,,,SPECI,16.0
K6S2 250755Z AUTO 28013G20KT 240V320 9SM FEW006 SCT022 BKN034 06/05 A3037 RMK AO2,K6S2,2023-03-25T07:55:00Z,43.98,-124.12,6.0,5.0,280,13,20,9.0,30.369095,,,TRUE,TRUE,,,,,,,FEW,600,SCT,2200,BKN,3400,,,VFR,,,,,,,,,,,,METAR,16.0
K6S2 250735Z AUTO 30004KT 10SM FEW003 SCT023 BKN041 06/05 A3036 RMK AO2,K6S2,2023-03-25T07:35:00Z,43.98,-124.12,6.0,5.0,300,4,,10.0,30.360237,,,TRUE,TRUE,,,,,,,FEW,300,SCT,2300,BKN,4100,,,VFR,,,,,,,,,,,,SPECI,16.0
K6S2 250715Z AUTO 33010G17KT 9SM -RA FEW017 BKN022 OVC039 05/04 A3038 RMK AO2,K6S2,2023-03-25T07:15:00Z,43.98,-124.12,5.0,4.0,330,10,17,9.0,30.380905,,,TRUE,TRUE,,,,,,-RA,FEW,1700,BKN,2200,OVC,3900,,,MVFR,,,,,,,,,,,,METAR,16.0
K6S2 250655Z AUTO VRB06G17KT 250V310 10SM BKN024 BKN031 OVC050 07/05 A3038 RMK AO2,K6S2,2023-03-25T06:55:00Z,43.98,-124.12,7.0,5.0,0,6,17,10.0,30.380905,,,TRUE,TRUE,,,,,,,BKN,2400,BKN,3100,OVC,5000,,,MVFR,,,,,,,,,,,,METAR,16.0
K6S2 250635Z AUTO VRB06G12KT 10SM FEW003 SCT021 BKN031 06/05 A3038 RMK AO2,K6S2,2023-03-25T06:35:00Z,43.98,-124.12,6.0,5.0,0,6,12,10.0,30.380905,,,TRUE,TRUE,,,,,,,FEW,300,SCT,2100,BKN,3100,,,VFR,,,,,,,,,,,,SPECI,16.0
K6S2 250615Z AUTO 24010G19KT 200V270 9SM -RA FEW015 BKN022 OVC049 06/05 A3039 RMK AO2,K6S2,2023-03-25T06:15:00Z,43.98,-124.12,6.0,5.0,240,10,19,9.0,30.389763,,,TRUE,TRUE,,,,,,-RA,FEW,1500,BKN,2200,OVC,4900,,,MVFR,,,,,,,,,,,,METAR,16.0
K6S2 250555Z AUTO VRB03KT 10SM FEW006 SCT025 BKN032 05/05 A3040 RMK AO2 P0002,K6S2,2023-03-25T05:55:00Z,43.98,-124.12,5.0,5.0,0,3,,10.0,30.398623,,,TRUE,TRUE,,,,,,,FEW,600,SCT,2500,BKN,3200,,,VFR,,,,,,0.02,,,,,,METAR,16.0
K6S2 250535Z AUTO 25010G17KT 220V280 9SM FEW019 BKN026 OVC060 06/04 A3040 RMK AO2,K6S2,2023-03-25T05:35:00Z,43.98,-124.12,6.0,4.0,250,10,17,9.0,30.398623,,,TRUE,TRUE,,,,,,,FEW,1900,BKN,2600,OVC,6000,,,MVFR,,,,,,,,,,,,SPECI,16.0
K6S2 250515Z AUTO 25006G11KT 9SM SCT030 BKN038 OVC060 06/03 A3040 RMK AO2,K6S2,2023-03-25T05:15:00Z,43.98,-124.12,6.0,3.0,250,6,11,9.0,30.398623,,,TRUE,TRUE,,,,,,,SCT,3000,BKN,3800,OVC,6000,,,VFR,,,,,,,,,,,,SPECI,16.0
K6S2 250455Z AUTO VRB06KT 9SM -RA FEW002 BKN033 OVC043 06/04 A3041 RMK AO2,K6S2,2023-03-25T04:55:00Z,43.98,-124.12,6.0,4.0,0,6,,9.0,30.410433,,,TRUE,TRUE,,,,,,-RA,FEW,200,BKN,3300,OVC,4300,,,VFR,,,,,,,,,,,,METAR,16.0
K6S2 250435Z AUTO VRB04KT 10SM FEW003 SCT024 BKN044 06/03 A3041 RMK AO2,K6S2,2023-03-25T04:35:00Z,43.98,-124.12,6.0,3.0,0,4,,10.0,30.410433,,,TRUE,TRUE,,,,,,,FEW,300,SCT,2400,BKN,4400,,,VFR,,,,,,,,,,,,SPECI,16.0
K6S2 250415Z AUTO VRB06KT 8SM FEW003 BKN026 OVC060 06/04 A3041 RMK AO2,K6S2,2023-03-25T04:15:00Z,43.98,-124.12,6.0,4.0,0,6,,8.0,30.410433,,,TRUE,TRUE,,,,,,,FEW,300,BKN,2600,OVC,6000,,,MVFR,,,,,,,,,,,,SPECI,16.0
K6S2 250355Z AUTO 20005KT 10SM SCT003 BKN033 BKN080 05/04 A3041 RMK AO2,K6S2,2023-03-25T03:55:00Z,43.98,-124.12,5.0,4.0,200,5,,10.0,30.410433,,,TRUE,TRUE,,,,,,,SCT,300,BKN,3300,BKN,8000,,,VFR,,,,,,,,,,,,METAR,16.0
K6S2 250335Z AUTO VRB04KT 10SM SCT033 BKN055 BKN085 06/03 A3041 RMK AO2,K6S2,2023-03-25T03:35:00Z,43.98,-124.12,6.0,3.0,0,4,,10.0,30.410433,,,TRUE,TRUE,,,,,,,SCT,3300,BKN,5500,BKN,8500,,,VFR,,,,,,,,,,,,SPECI,16.0
K6S2 250315Z AUTO 25009KT 10SM FEW003 OVC050 06/04 A3040 RMK AO2,K6S2,2023-03-25T03:15:00Z,43.98,-124.12,6.0,4.0,250,9,,10.0,30.398623,,,TRUE,TRUE,,,,,,,FEW,300,OVC,5000,,,,,VFR,,,,,,,,,,,,METAR,16.0
K6S2 250255Z AUTO 29009G15KT 10SM FEW006 BKN049 OVC060 07/03 A3040 RMK AO2,K6S2,2023-03-25T02:55:00Z,43.98,-124.12,7.0,3.0,290,9,15,10.0,30.398623,,,TRUE,TRUE,,,,,,,FEW,600,BKN,4900,OVC,6000,,,VFR,,,,,,,,,,,,METAR,16.0
K6S2 250235Z AUTO 31010G19KT 9SM FEW016 SCT024 BKN028 06/05 A3040 RMK AO2,K6S2,2023-03-25T02:35:00Z,43.98,-124.12,6.0,5.0,310,10,19,9.0,30.398623,,,TRUE,TRUE,,,,,,,FEW,1600,SCT,2400,BKN,2800,,,MVFR,,,,,,,,,,,,SPECI,16.0
K6S2 250215Z AUTO 00000KT 5SM -RA BR SCT024 SCT029 BKN037 06/04 A3040 RMK AO2,K6S2,2023-03-25T02:15:00Z,43.98,-124.12,6.0,4.0,0,0,,5.0,30.398623,,,TRUE,TRUE,,,,,,-RA BR,SCT,2400,SCT,2900,BKN,3700,,,MVFR,,,,,,,,,,,,SPECI,16.0
K6S2 250155Z AUTO 28007G17KT 7SM -RA FEW029 SCT050 BKN110 06/03 A3040 RMK AO2,K6S2,2023-03-25T01:55:00Z,43.98,-124.12,6.0,3.0,280,7,17,7.0,30.398623,,,TRUE,TRUE,,,,,,-RA,FEW,2900,SCT,5000,BKN,11000,,,VFR,,,,,,,,,,,,METAR,16.0
K6S2 250135Z AUTO 28008KT 250V310 10SM SCT050 SCT060 BKN110 07/03 A3039 RMK AO2,K6S2,2023-03-25T01:35:00Z,43.98,-124.12,7.0,3.0,280,8,,10.0,30.389763,,,TRUE,TRUE,,,,,,,SCT,5000,SCT,6000,BKN,11000,,,VFR,,,,,,,,,,,,METAR,16.0
K6S2 250115Z AUTO 28009G17KT 10SM SCT075 08/02 A3040 RMK AO2,K6S2,2023-03-25T01:15:00Z,43.98,-124.12,8.0,2.0,280,9,17,10.0,30.398623,,,TRUE,TRUE,,,,,,,SCT,7500,,,,,,,VFR,,,,,,,,,,,,METAR,16.0
K6S2 250055Z AUTO VRB06G12KT 10SM BKN070 BKN080 08/02 A3040 RMK AO2,K6S2,2023-03-25T00:55:00Z,43.98,-124.12,8.0,2.0,0,6,12,10.0,30.398623,,,TRUE,TRUE,,,,,,,BKN,7000,BKN,8000,,,,,VFR,,,,,,,,,,,,METAR,16.0
K6S2 250035Z AUTO 30008G15KT 260V330 10SM FEW026 FEW036 SCT070 08/03 A3040 RMK AO2,K6S2,2023-03-25T00:35:00Z,43.98,-124.12,8.0,3.0,300,8,15,10.0,30.398623,,,TRUE,TRUE,,,,,,,FEW,2600,FEW,3600,SCT,7000,,,VFR,,,,,,,,,,,,SPECI,16.0
K6S2 250015Z AUTO 27009G15KT 240V300 9SM -RA FEW025 FEW035 SCT040 07/03 A3040 RMK AO2,K6S2,2023-03-25T00:15:00Z,43.98,-124.12,7.0,3.0,270,9,15,9.0,30.398623,,,TRUE,TRUE,,,,,,-RA,FEW,2500,FEW,3500,SCT,4000,,,VFR,,,,,,,,,,,,METAR,16.0
K6S2 242355Z AUTO 26007G17KT 240V300 9SM FEW031 SCT055 BKN070 07/02 A3040 RMK AO2,K6S2,2023-03-24T23:55:00Z,43.98,-124.12,7.0,2.0,260,7,17,9.0,30.398623,,,TRUE,TRUE,,,,,,,FEW,3100,SCT,5500,BKN,7000,,,VFR,,,,,,,,,,,,METAR,16.0
K6S2 242335Z AUTO 28012G18KT 250V310 10SM BKN055 BKN065 BKN090 08/04 A3041 RMK AO2,K6S2,2023-03-24T23:35:00Z,43.98,-124.12,8.0,4.0,280,12,18,10.0,30.410433,,,TRUE,TRUE,,,,,,,BKN,5500,BKN,6500,BKN,9000,,,VFR,,,,,,,,,,,,SPECI,16.0
K6S2 242315Z AUTO 29008G15KT 240V320 10SM BKN060 BKN065 OVC080 08/03 A3041 RMK AO2,K6S2,2023-03-24T23:15:00Z,43.98,-124.12,8.0,3.0,290,8,15,10.0,30.410433,,,TRUE,TRUE,,,,,,,BKN,6000,BKN,6500,OVC,8000,,,VFR,,,,,,,,,,,,SPECI,16.0
K6S2 242255Z AUTO 30006G15KT 10SM FEW038 BKN060 BKN080 08/04 A3041 RMK AO2 P0001,K6S2,2023-03-24T22:55:00Z,43.98,-124.12,8.0,4.0,300,6,15,10.0,30.410433,,,TRUE,TRUE,,,,,,,FEW,3800,BKN,6000,BKN,8000,,,VFR,,,,,,0.01,,,,,,SPECI,16.0
K6S2 242235Z AUTO 30007KT 10SM FEW032 SCT040 SCT065 07/05 A3041 RMK AO2,K6S2,2023-03-24T22:35:00Z,43.98,-124.12,7.0,5.0,300,7,,10.0,30.410433,,,TRUE,TRUE,,,,,,,FEW,3200,SCT,4000,SCT,6500,,,VFR,,,,,,,,,,,,SPECI,16.0
K6S2 242215Z AUTO 32012G19KT 4SM -RA BR FEW019 FEW030 SCT090 06/05 A3041 RMK AO2,K6S2,2023-03-24T22:15:00Z,43.98,-124.12,6.0,5.0,320,12,19,4.0,30.410433,,,TRUE,TRUE,,,,,,-RA BR,FEW,1900,FEW,3000,SCT,9000,,,MVFR,,,,,,,,,,,,METAR,16.0
K6S2 242155Z AUTO 28006KT 10SM CLR 08/05 A3040 RMK AO2,K6S2,2023-03-24T21:55:00Z,43.98,-124.12,8.0,5.0,280,6,,10.0,30.398623,,,TRUE,TRUE,,,,,,,CLR,,,,,,,,VFR,,,,,,,,,,,,SPECI,16.0
K6S2 242135Z AUTO 31009KT 10SM FEW045 FEW060 07/05 A3040 RMK AO2,K6S2,2023-03-24T21:35:00Z,43.98,-124.12,7.0,5.0,310,9,,10.0,30.398623,,,TRUE,TRUE,,,,,,,FEW,4500,FEW,6000,,,,,VFR,,,,,,,,,,,,METAR,16.0
K6S2 242115Z AUTO VRB03G10KT 8SM -RA FEW020 SCT040 BKN048 06/05 A3040 RMK AO2,K6S2,2023-03-24T21:15:00Z,43.98,-124.12,6.0,5.0,0,3,10,8.0,30.398623,,,TRUE,TRUE,,,,,,-RA,FEW,2000,SCT,4000,BKN,4800,,,VFR,,,,,,,,,,,,SPECI,16.0
K6S2 242055Z AUTO 33013G18KT 10SM FEW024 SCT039 BKN049 08/04 A3040 RMK AO2,K6S2,2023-03-24T20:55:00Z,43.98,-124.12,8.0,4.0,330,13,18,10.0,30.398623,,,TRUE,TRUE,,,,,,,FEW,2400,SCT,3900,BKN,4900,,,VFR,,,,,,,,,,,,METAR,16.0
K6S2 242035Z AUTO 25007KT 10SM FEW050 07/04 A3039 RMK AO2,K6S2,2023-03-24T20:35:00Z,43.98,-124.12,7.0,4.0,250,7,,10.0,30.389763,,,TRUE,TRUE,,,,,,,FEW,5000,,,,,,,VFR,,,,,,,,,,,,SPECI,16.0
K6S2 242015Z AUTO 00000KT 6SM -RA BR FEW044 FEW060 FEW075 06/03 A3039 RMK AO2,K6S2,2023-03-24T20:15:00Z,43.98,-124.12,6.0,3.0,0,0,,6.0,30.389763,,,TRUE,TRUE,,,,,,-RA BR,FEW,4400,FEW,6000,FEW,7500,,,VFR,,,,,,,,,,,,METAR,16.0
K6S2 241955Z AUTO 31009KT 10SM FEW060 FEW075 09/03 A3039 RMK AO2,K6S2,2023-03-24T19:55:00Z,43.98,-124.12,9.0,3.0,310,9,,10.0,30.389763,,,TRUE,TRUE,,,,,,,FEW,6000,FEW,7500,,,,,VFR,,,,,,,,,,,,SPECI,16.0
K6S2 241935Z AUTO 30010KT 10SM FEW046 FEW060 08/03 A3039 RMK AO2,K6S2,2023-03-24T19:35:00Z,43.98,-124.12,8.0,3.0,300,10,,10.0,30.389763,,,TRUE,TRUE,,,,,,,FEW,4600,FEW,6000,,,,,VFR,,,,,,,,,,,,SPECI,16.0
K6S2 241915Z AUTO 31010G21KT 10SM FEW029 FEW044 BKN060 07/03 A3039 RMK AO2,K6S2,2023-03-24T19:15:00Z,43.98,-124.12,7.0,3.0,310,10,21,10.0,30.389763,,,TRUE,TRUE,,,,,,,FEW,2900,FEW,4400,BKN,6000,,,VFR,,,,,,,,,,,,METAR,16.0
K6S2 241855Z AUTO 33008G16KT 10SM FEW065 07/05 A3039 RMK AO2,K6S2,2023-03-24T18:55:00Z,43.98,-124.12,7.0,5.0,330,8,16,10.0,30.389763,,,TRUE,TRUE,,,,,,,FEW,6500,,,,,,,VFR,,,,,,,,,,,,METAR,16.0
K6S2 241835Z AUTO 34012G19KT 10SM FEW024 SCT035 SCT055 07/05 A3038 RMK AO2,K6S2,2023-03-24T18:35:00Z,43.98,-124.12,7.0,5.0,340,12,19,10.0,30.380905,,,TRUE,TRUE,,,,,,,FEW,2400,SCT,3500,SCT,5500,,,VFR,,,,,,,,,,,,METAR,16.0
K6S2 241815Z AUTO 34010G16KT 310V010 10SM FEW023 FEW028 SCT035 08/05 A3037 RMK AO2,K6S2,2023-03-24T18:15:00Z,43.98,-124.12,8.0,5.0,340,10,16,10.0,30.369095,,,TRUE,TRUE,,,,,,,FEW,2300,FEW,2800,SCT,3500,,,VFR,,,,,,,,,,,,SPECI,16.0
K6S2 241755Z AUTO 33010KT 6SM -RA BR FEW028 BKN034 BKN045 06/04 A3036 RMK AO2 P0001,K6S2,2023-03-24T17:55:00Z,43.98,-124.12,6.0,4.0,330,10,,6.0,30.360237,,,TRUE,TRUE,,,,,,-RA BR,FEW,2800,BKN,3400,BKN,4500,,,VFR,,,,,,0.01,,,,,,METAR,16.0
K6S2 241735Z AUTO 29003KT 9SM FEW029 SCT035 BKN047 06/04 A3036 RMK AO2,K6S2,2023-03-24T17:35:00Z,43.98,-124.12,6.0,4.0,290,3,,9.0,30.360237,,,TRUE,TRUE,,,,,,,FEW,2900,SCT,3500,BKN,4700,,,VFR,,,,,,,,,,,,METAR,16.0
K6S2 241715Z AUTO 29003KT 9SM FEW060 SCT080 OVC090 06/04 A3035 RMK AO2,K6S2,2023-03-24T17:15:00Z,43.98,-124.12,6.0,4.0,290,3,,9.0,30.351377,,,TRUE,TRUE,,,,,,,FEW,6000,SCT,8000,OVC,9000,,,VFR,,,,,,,,,,,,SPECI,16.0
K6S2 241655Z AUTO 34005G19KT 5SM UP BR FEW023 SCT031 BKN060 04/03 A3035 RMK AO2 P0001,K6S2,2023-03-24T16:55:00Z,43.98,-124.12,4.0,3.0,340,5,19,5.0,30.351377,,,TRUE,TRUE,,,,,,BR UP,FEW,2300,SCT,3100,BKN,6000,,,MVFR,,,,,,0.01,,,,,,METAR,16.0
K6S2 241635Z AUTO 31010G15KT 280V360 10SM FEW031 SCT060 BKN090 07/03 A3034 RMK AO2,K6S2,2023-03-24T16:35:00Z,43.98,-124.12,7.0,3.0,310,10,15,10.0,30.339567,,,TRUE,TRUE,,,,,,,FEW,3100,SCT,6000,BKN,9000,,,VFR,,,,,,,,,,,,SPECI,16.0
K6S2 241615Z AUTO 31008G15KT 10SM SCT055 OVC080 07/04 A3033 RMK AO2,K6S2,2023-03-24T16:15:00Z,43.98,-124.12,7.0,4.0,310,8,15,10.0,30.33071,,,TRUE,TRUE,,,,,,,SCT,5500,OVC,8000,,,,,VFR,,,,,,,,,,,,SPECI,16.0
K6S2 241555Z AUTO 29011G17KT 260V320 10SM FEW027 BKN055 OVC090 07/04 A3032 RMK AO2,K6S2,2023-03-24T15:55:00Z,43.98,-124.12,7.0,4.0,290,11,17,10.0,30.318897,,,TRUE,TRUE,,,,,,,FEW,2700,BKN,5500,OVC,9000,,,VFR,,,,,,,,,,,,METAR,16.0
K6S2 241535Z AUTO 29012G18KT 250V330 10SM FEW024 SCT030 BKN055 07/03 A3032 RMK AO2,K6S2,2023-03-24T15:35:00Z,43.98,-124.12,7.0,3.0,290,12,18,10.0,30.318897,,,TRUE,TRUE,,,,,,,FEW,2400,SCT,3000,BKN,5500,,,VFR,,,,,,,,,,,,METAR,16.0
K6S2 241515Z AUTO 31011G19KT 10SM SCT028 BKN055 OVC100 06/03 A3031 RMK AO2,K6S2,2023-03-24T15:15:00Z,43.98,-124.12,6.0,3.0,310,11,19,10.0,30.31004,,,TRUE,TRUE,,,,,,,SCT,2800,BKN,5500,OVC,10000,,,VFR,,,,,,,,,,,,SPECI,16.0
K6S2 241455Z AUTO 31008G17KT 9SM SCT024 BKN029 BKN047 06/04 A3030 RMK AO2,K6S2,2023-03-24T14:55:00Z,43.98,-124.12,6.0,4.0,310,8,17,9.0,30.301182,,,TRUE,TRUE,,,,,,,SCT,2400,BKN,2900,BKN,4700,,,MVFR,,,,,,,,,,,,SPECI,16.0
K6S2 241435Z AUTO 29008G17KT 260V320 10SM SCT027 BKN080 OVC100 06/04 A3029 RMK AO2,K6S2,2023-03-24T14:35:00Z,43.98,-124.12,6.0,4.0,290,8,17,10.0,30.28937,,,TRUE,TRUE,,,,,,,SCT,2700,BKN,8000,OVC,10000,,,VFR,,,,,,,,,,,,SPECI,16.0
K6S2 241415Z AUTO 30010G23KT 260V320 4SM -RA BR FEW004 SCT022 BKN028 05/04 A3028 RMK AO2,K6S2,2023-03-24T14:15:00Z,43.98,-124.12,5.0,4.0,300,10,23,4.0,30.280512,,,TRUE,TRUE,,,,,,-RA BR,FEW,400,SCT,2200,BKN,2800,,,MVFR,,,,,,,,,,,,SPECI,16.0
K6S2 241355Z AUTO 29008G20KT 260V330 9SM -RA BKN026 BKN034 OVC065 06/04 A3027 RMK AO2,K6S2,2023-03-24T13:55:00Z,43.98,-124.12,6.0,4.0,290,8,20,9.0,30.268702,,,TRUE,TRUE,,,,,,-RA,BKN,2600,BKN,3400,OVC,6500,,,MVFR,,,,,,,,,,,,METAR,16.0
K6S2 241335Z AUTO 30010G21KT 10SM SCT025 BKN032 OVC110 06/05 A3027 RMK AO2,K6S2,2023-03-24T13:35:00Z,43.98,-124.12,6.0,5.0,300,10,21,10.0,30.268702,,,TRUE,TRUE,,,,,,,SCT,2500,BKN,3200,OVC,11000,,,VFR,,,,,,,,,,,,SPECI,16.0
K6S2 241315Z AUTO 27011G17KT 240V300 10SM FEW003 BKN029 OVC120 06/04 A3026 RMK AO2,K6S2,2023-03-24T13:15:00Z,43.98,-124.12,6.0,4.0,270,11,17,10.0,30.259842,,,TRUE,TRUE,,,,,,,FEW,300,BKN,2900,OVC,12000,,,MVFR,,,,,,,,,,,,METAR,16.0
K6S2 241255Z AUTO VRB06G11KT 4SM -RA BR FEW003 BKN028 OVC080 05/04 A3027 RMK AO2 P0002,K6S2,2023-03-24T12:55:00Z,43.98,-124.12,5.0,4.0,0,6,11,4.0,30.268702,,,TRUE,TRUE,,,,,,-RA BR,FEW,300,BKN,2800,OVC,8000,,,MVFR,,,,,,0.02,,,,,,SPECI,16.0
K6S2 241235Z AUTO VRB04KT 10SM FEW007 SCT033 BKN060 05/05 A3027 RMK AO2,K6S2,2023-03-24T12:35:00Z,43.98,-124.12,5.0,5.0,0,4,,10.0,30.268702,,,TRUE,TRUE,,,,,,,FEW,700,SCT,3300,BKN,6000,,,VFR,,,,,,,,,,,,SPECI,16.0
K6S2 241215Z AUTO VRB04G12KT 6SM -RA BR SCT011 BKN025 OVC080 04/04 A3027 RMK AO2,K6S2,2023-03-24T12:15:00Z,43.98,-124.12,4.0,4.0,0,4,12,6.0,30.268702,,,TRUE,TRUE,,,,,,-RA BR,SCT,1100,BKN,2500,OVC,8000,,,MVFR,,,,,,,,,,,,SPECI,16.0
K6S2 241155Z AUTO 24011G20KT 210V270 10SM SCT022 BKN034 OVC045 07/04 A3026 RMK AO2,K6S2,2023-03-24T11:55:00Z,43.98,-124.12,7.0,4.0,240,11,20,10.0,30.259842,,,TRUE,TRUE,,,,,,,SCT,2200,BKN,3400,OVC,4500,,,VFR,,,,,,,,,,,,METAR,16.0
K6S2 241135Z AUTO 25010G15KT 220V310 10SM SCT024 BKN030 OVC037 07/04 A3027 RMK AO2,K6S2,2023-03-24T11:35:00Z,43.98,-124.12,7.0,4.0,250,10,15,10.0,30.268702,,,TRUE,TRUE,,,,,,,SCT,2400,BKN,3000,OVC,3700,,,MVFR,,,,,,,,,,,,METAR,16.0
K6S2 241115Z AUTO VRB06G13KT 10SM FEW022 SCT027 BKN033 06/05 A3027 RMK AO2,K6S2,2023-03-24T11:15:00Z,43.98,-124.12,6.0,5.0,0,6,13,10.0,30.268702,,,TRUE,TRUE,,,,,,,FEW,2200,SCT,2700,BKN,3300,,,VFR,,,,,,,,,,,,SPECI,16.0
K6S2 241055Z AUTO 24008G14KT 200V310 10SM FEW035 BKN040 OVC049 06/05 A3027 RMK AO2,K6S2,2023-03-24T10:55:00Z,43.98,-124.12,6.0,5.0,240,8,14,10.0,30.268702,,,TRUE,TRUE,,,,,,,FEW,3500,BKN,4000,OVC,4900,,,VFR,,,,,,,,,,,,METAR,16.0
K6S2 241035Z AUTO 22008G16KT 180V260 10SM FEW023 BKN037 OVC060 05/04 A3027 RMK AO2,K6S2,2023-03-24T10:35:00Z,43.98,-124.12,5.0,4.0,220,8,16,10.0,30.268702,,,TRUE,TRUE,,,,,,,FEW,2300,BKN,3700,OVC,6000,,,VFR,,,,,,,,,,,,SPECI,16.0
K6S2 241015Z AUTO 20009KT 8SM -RA FEW023 BKN031 OVC050 06/05 A3027 RMK AO2,K6S2,2023-03-24T10:15:00Z,43.98,-124.12,6.0,5.0,200,9,,8.0,30.268702,,,TRUE,TRUE,,,,,,-RA,FEW,2300,BKN,3100,OVC,5000,,,VFR,,,,,,,,,,,,METAR,16.0
K6S2 240955Z AUTO 20007KT 10SM BKN029 BKN049 OVC110 06/05 A3028 RMK AO2,K6S2,2023-03-24T09:55:00Z,43.98,-124.12,6.0,5.0,200,7,,10.0,30.280512,,,TRUE,TRUE,,,,,,,BKN,2900,BKN,4900,OVC,11000,,,MVFR,,,,,,,,,,,,SPECI,16.0
K6S2 240935Z AUTO 21005KT 10SM SCT060 BKN075 OVC110 06/04 A3028 RMK AO2,K6S2,2023-03-24T09:35:00Z,43.98,-124.12,6.0,4.0,210,5,,10.0,30.280512,,,TRUE,TRUE,,,,,,,SCT,6000,BKN,7500,OVC,11000,,,VFR,,,,,,,,,,,,SPECI,16.0
K6S2 240915Z AUTO VRB05G11KT 10SM FEW039 BKN060 OVC075 06/04 A3029 RMK AO2,K6S2,2023-03-24T09:15:00Z,43.98,-124.12,6.0,4.0,0,5,11,10.0,30.28937,,,TRUE,TRUE,,,,,,,FEW,3900,BKN,6000,OVC,7500,,,VFR,,,,,,,,,,,,SPECI,16.0
K6S2 240855Z AUTO 25009G14KT 180V290 10SM SCT022 BKN034 OVC060 06/04 A3029 RMK AO2,K6S2,2023-03-24T08:55:00Z,43.98,-124.12,6.0,4.0,250,9,14,10.0,30.28937,,,TRUE,TRUE,,,,,,,SCT,2200,BKN,3400,OVC,6000,,,VFR,,,,,,,,,,,,METAR,16.0
K6S2 240835Z AUTO VRB05KT 10SM SCT022 BKN029 BKN038 06/04 A3028 RMK AO2,K6S2,2023-03-24T08:35:00Z,43.98,-124.12,6.0,4.0,0,5,,10.0,30.280512,,,TRUE,TRUE,,,,,,,SCT,2200,BKN,2900,BKN,3800,,,MVFR,,,,,,,,,,,,METAR,16.0
K6S2 240815Z AUTO VRB04KT 10SM FEW025 FEW037 SCT045 06/04 A3028 RMK AO2,K6S2,2023-03-24T08:15:00Z,43.98,-124.12,6.0,4.0,0,4,,10.0,30.280512,,,TRUE,TRUE,,,,,,,FEW,2500,FEW,3700,SCT,4500,,,VFR,,,,,,,,,,,,METAR,16.0
K6S2 240755Z AUTO VRB04G11KT 10SM FEW040 SCT055 BKN075 06/03 A3027 RMK AO2,K6S2,2023-03-24T07:55:00Z,43.98,-124.12,6.0,3.0,0,4,11,10.0,30.268702,,,TRUE,TRUE,,,,,,,FEW,4000,SCT,5500,BKN,7500,,,VFR,,,,,,,,,,,,METAR,16.0
K6S2 240735Z AUTO 27007KT 240V300 10SM SCT019 BKN055 OVC075 06/04 A3027 RMK AO2,K6S2,2023-03-24T07:35:00Z,43.98,-124.12,6.0,4.0,270,7,,10.0,30.268702,,,TRUE,TRUE,,,,,,,SCT,1900,BKN,5500,OVC,7500,,,VFR,,,,,,,,,,,,METAR,16.0
K6S2 240715Z AUTO 24007KT 210V290 10SM SCT017 BKN023 OVC050 05/05 A3027 RMK AO2,K6S2,2023-03-24T07:15:00Z,43.98,-124.12,5.0,5.0,240,7,,10.0,30.268702,,,TRUE,TRUE,,,,,,,SCT,1700,BKN,2300,OVC,5000,,,MVFR,,,,,,,,,,,,METAR,16.0
K6S2 240655Z AUTO 00000KT 10SM FEW020 BKN040 OVC050 05/04 A3026 RMK AO2 P0001,K6S2,2023-03-24T06:55:00Z,43.98,-124.12,5.0,4.0,0,0,,10.0,30.259842,,,TRUE,TRUE,,,,,,,FEW,2000,BKN,4000,OVC,5000,,,VFR,,,,,,0.01,,,,,,METAR,16.0
K6S2 240635Z AUTO VRB05G11KT 5SM -RA BR SCT016 BKN023 BKN032 05/04 A3027 RMK AO2,K6S2,2023-03-24T06:35:00Z,43.98,-124.12,5.0,4.0,0,5,11,5.0,30.268702,,,TRUE,TRUE,,,,,,-RA BR,SCT,1600,BKN,2300,BKN,3200,,,MVFR,,,,,,,,,,,,METAR,16.0
K6S2 240615Z AUTO 30011G20KT 7SM -RA FEW016 SCT021 BKN032 06/04 A3028 RMK AO2,K6S2,2023-03-24T06:15:00Z,43.98,-124.12,6.0,4.0,300,11,20,7.0,30.280512,,,TRUE,TRUE,,,,,,-RA,FEW,1600,SCT,2100,BKN,3200,,,VFR,,,,,,,,,,,,METAR,16.0
K6S2 240555Z AUTO 28009G18KT 250V310 5SM -RA BR FEW019 BKN028 OVC037 06/04 A3027 RMK AO2 P0003,K6S2,2023-03-24T05:55:00Z,43.98,-124.12,6.0,4.0,280,9,18,5.0,30.268702,,,TRUE,TRUE,,,,,,-RA BR,FEW,1900,BKN,2800,OVC,3700,,,MVFR,,,,,,0.03,,,,,,METAR,16.0
K6S2 240535Z AUTO 21005G10KT 7SM -RA SCT027 BKN033 OVC049 05/04 A3026 RMK AO2,K6S2,2023-03-24T05:35:00Z,43.98,-124.12,5.0,4.0,210,5,10,7.0,30.259842,,,TRUE,TRUE,,,,,,-RA,SCT,2700,BKN,3300,OVC,4900,,,VFR,,,,,,,,,,,,METAR,16.0
K6S2 240515Z AUTO 26008G17KT 230V300 5SM -RA HZ BKN027 BKN033 BKN045 06/04 A3026 RMK AO2,K6S2,2023-03-24T05:15:00Z,43.98,-124.12,6.0,4.0,260,8,17,5.0,30.259842,,,TRUE,TRUE,,,,,,-RA HZ,BKN,2700,BKN,3300,BKN,4500,,,MVFR,,,,,,,,,,,,METAR,16.0
K6S2 240455Z AUTO VRB04KT 10SM SCT031 SCT044 BKN080 07/04 A3024 RMK AO2,K6S2,2023-03-24T04:55:00Z,43.98,-124.12,7.0,4.0,0,4,,10.0,30.239174,,,TRUE,TRUE,,,,,,,SCT,3100,SCT,4400,BKN,8000,,,VFR,,,,,,,,,,,,METAR,16.0
K6S2 240435Z AUTO VRB06G15KT 10SM FEW033 SCT046 BKN055 07/02 A3024 RMK AO2,K6S2,2023-03-24T04:35:00Z,43.98,-124.12,7.0,2.0,0,6,15,10.0,30.239174,,,TRUE,TRUE,,,,,,,FEW,3300,SCT,4600,BKN,5500,,,VFR,,,,,,,,,,,,METAR,16.0
K6S2 240415Z AUTO 27008G15KT 240V300 10SM SCT049 BKN060 OVC085 07/03 A3023 RMK AO2,K6S2,2023-03-24T04:15:00Z,43.98,-124.12,7.0,3.0,270,8,15,10.0,30.230314,,,TRUE,TRUE,,,,,,,SCT,4900,BKN,6000,OVC,8500,,,VFR,,,,,,,,,,,,SPECI,16.0
K6S2 240355Z AUTO 27007KT 10SM FEW027 SCT047 BKN085 07/04 A3022 RMK AO2,K6S2,2023-03-24T03:55:00Z,43.98,-124.12,7.0,4.0,270,7,,10.0,30.221457,,,TRUE,TRUE,,,,,,,FEW,2700,SCT,4700,BKN,8500,,,VFR,,,,,,,,,,,,METAR,16.0
K6S2 240335Z AUTO 27010G17KT 240V300 10SM FEW028 SCT043 BKN075 07/04 A3021 RMK AO2,K6S2,2023-03-24T03:35:00Z,43.98,-124.12,7.0,4.0,270,10,17,10.0,30.209646,,,TRUE,TRUE,,,,,,,FEW,2800,SCT,4300,BKN,7500,,,VFR,,,,,,,,,,,,METAR,16.0
K6S2 240315Z AUTO 27008G15KT 250V310 10SM SCT032 SCT047 BKN060 07/04 A3021 RMK AO2,K6S2,2023-03-24T03:15:00Z,43.98,-124.12,7.0,4.0,270,8,15,10.0,30.209646,,,TRUE,TRUE,,,,,,,SCT,3200,SCT,4700,BKN,6000,,,VFR,,,,,,,,,,,,METAR,16.0
K6S2 240255Z AUTO VRB03KT 10SM FEW032 SCT043 SCT060 07/04 A3021 RMK AO2 LTG DSNT N,K6S2,2023-03-24T02:55:00Z,43.98,-124.12,7.0,4.0,0,3,,10.0,30.209646,,,TRUE,TRUE,,,,,,,FEW,3200,SCT,4300,SCT,6000,,,VFR,,,,,,,,,,,,METAR,16.0
K6S2 240235Z AUTO VRB05G13KT 6SM -RA HZ FEW033 FEW043 SCT060 06/03 A3020 RMK AO2,K6S2,2023-03-24T02:35:00Z,43.98,-124.12,6.0,3.0,0,5,13,6.0,30.200787,,,TRUE,TRUE,,,,,,-RA HZ,FEW,3300,FEW,4300,SCT,6000,,,VFR,,,,,,,,,,,,METAR,16.0
K6S2 240215Z AUTO 27007KT 240V300 10SM FEW033 SCT060 SCT100 08/04 A3020 RMK AO2,K6S2,2023-03-24T02:15:00Z,43.98,-124.12,8.0,4.0,270,7,,10.0,30.200787,,,TRUE,TRUE,,,,,,,FEW,3300,SCT,6000,SCT,10000,,,VFR,,,,,,,,,,,,METAR,16.0
K6S2 240155Z AUTO VRB05G14KT 10SM FEW032 FEW045 SCT070 08/04 A3021 RMK AO2 P0001,K6S2,2023-03-24T01:55:00Z,43.98,-124.12,8.0,4.0,0,5,14,10.0,30.209646,,,TRUE,TRUE,,,,,,,FEW,3200,FEW,4500,SCT,7000,,,VFR,,,,,,0.01,,,,,,METAR,16.0
K6S2 240135Z AUTO 29008KT 260V320 10SM FEW033 FEW046 SCT055 08/04 A3020 RMK AO2,K6S2,2023-03-24T01:35:00Z,43.98,-124.12,8.0,4.0,290,8,,10.0,30.200787,,,TRUE,TRUE,,,,,,,FEW,3300,FEW,4600,SCT,5500,,,VFR,,,,,,,,,,,,METAR,16.0
K6S2 240115Z AUTO 30010KT 9SM FEW028 SCT033 BKN075 08/04 A3020 RMK AO2,K6S2,2023-03-24T01:15:00Z,43.98,-124.12,8.0,4.0,300,10,,9.0,30.200787,,,TRUE,TRUE,,,,,,,FEW,2800,SCT,3300,BKN,7500,,,VFR,,,,,,,,,,,,SPECI,16.0
K6S2 240055Z AUTO 27007KT 10SM SCT029 BKN035 OVC075 08/05 A3020 RMK AO2,K6S2,2023-03-24T00:55:00Z,43.98,-124.12,8.0,5.0,270,7,,10.0,30.200787,,,TRUE,TRUE,,,,,,,SCT,2900,BKN,3500,OVC,7500,,,VFR,,,,,,,,,,,,SPECI,16.0
K6S2 240035Z AUTO 26006KT 230V300 10SM FEW036 SCT049 BKN060 09/05 A3020 RMK AO2,K6S2,2023-03-24T00:35:00Z,43.98,-124.12,9.0,5.0,260,6,,10.0,30.200787,,,TRUE,TRUE,,,,,,,FEW,3600,SCT,4900,BKN,6000,,,VFR,,,,,,,,,,,,SPECI,16.0
K6S2 240015Z AUTO 31007KT 280V340 10SM FEW027 BKN035 BKN043 08/05 A3019 RMK AO2,K6S2,2023-03-24T00:15:00Z,43.98,-124.12,8.0,5.0,310,7,,10.0,30.188976,,,TRUE,TRUE,,,,,,,FEW,2700,BKN,3500,BKN,4300,,,VFR,,,,,,,,,,,,SPECI,16.0
K6S2 232355Z AUTO 22007G13KT 180V240 10SM SCT036 BKN043 BKN065 08/05 A3018 RMK AO2,K6S2,2023-03-23T23:55:00Z,43.98,-124.12,8.0,5.0,220,7,13,10.0,30.180119,,,TRUE,TRUE,,,,,,,SCT,3600,BKN,4300,BKN,6500,,,VFR,,,,,,,,,,,,METAR,16.0
K6S2 232335Z AUTO VRB04G10KT 10SM SCT038 SCT055 BKN070 09/05 A3018 RMK AO2,K6S2,2023-03-23T23:35:00Z,43.98,-124.12,9.0,5.0,0,4,10,10.0,30.180119,,,TRUE,TRUE,,,,,,,SCT,3800,SCT,5500,BKN,7000,,,VFR,,,,,,,,,,,,SPECI,16.0
K6S2 232315Z AUTO 23006G13KT 10SM FEW055 SCT070 SCT085 08/05 A3018 RMK AO2,K6S2,2023-03-23T23:15:00Z,43.98,-124.12,8.0,5.0,230,6,13,10.0,30.180119,,,TRUE,TRUE,,,,,,,FEW,5500,SCT,7000,SCT,8500,,,VFR,,,,,,,,,,,,METAR,16.0
K6S2 232255Z AUTO 25005KT 10SM SCT055 BKN070 BKN085 07/04 A3018 RMK AO2,K6S2,2023-03-23T22:55:00Z,43.98,-124.12,7.0,4.0,250,5,,10.0,30.180119,,,TRUE,TRUE,,,,,,,SCT,5500,BKN,7000,BKN,8500,,,VFR,,,,,,,,,,,,METAR,16.0
K6S2 232235Z AUTO VRB05KT 7SM -RA FEW036 FEW050 SCT060 07/04 A3017 RMK AO2,K6S2,2023-03-23T22:35:00Z,43.98,-124.12,7.0,4.0,0,5,,7.0,30.171259,,,TRUE,TRUE,,,,,,-RA,FEW,3600,FEW,5000,SCT,6000,,,VFR,,,,,,,,,,,,SPECI,16.0
K6S2 232215Z AUTO 24006KT 10SM FEW036 08/06 A3017 RMK AO2,K6S2,2023-03-23T22:15:00Z,43.98,-124.12,8.0,6.0,240,6,,10.0,30.171259,,,TRUE,TRUE,,,,,,,FEW,3600,,,,,,,VFR,,,,,,,,,,,,SPECI,16.0
K6S2 232155Z AUTO VRB04KT 10SM FEW025 FEW036 FEW043 06/06 A3016 RMK AO2 P0001,K6S2,2023-03-23T21:55:00Z,43.98,-124.12,6.0,6.0,0,4,,10.0,30.159449,,,TRUE,TRUE,,,,,,,FEW,2500,FEW,3600,FEW,4300,,,VFR,,,,,,0.01,,,,,,METAR,16.0
K6S2 232135Z AUTO 32012G25KT 3SM -RA BR FEW025 SCT037 BKN070 06/04 A3017 RMK AO2,K6S2,2023-03-23T21:35:00Z,43.98,-124.12,6.0,4.0,320,12,25,3.0,30.171259,,,TRUE,TRUE,,,,,,-RA BR,FEW,2500,SCT,3700,BKN,7000,,,MVFR,,,,,,,,,,,,METAR,16.0
K6S2 232115Z AUTO VRB05KT 10SM FEW075 08/06 A3015 RMK AO2,K6S2,2023-03-23T21:15:00Z,43.98,-124.12,8.0,6.0,0,5,,10.0,30.15059,,,TRUE,TRUE,,,,,,,FEW,7500,,,,,,,VFR,,,,,,,,,,,,METAR,16.0
K6S2 232055Z AUTO 00000KT 10SM CLR 07/06 A3014 RMK AO2 P0004,K6S2,2023-03-23T20:55:00Z,43.98,-124.12,7.0,6.0,0,0,,10.0,30.138779,,,TRUE,TRUE,,,,,,,CLR,,,,,,,,VFR,,,,,,0.04,,,,,,METAR,16.0
K6S2 232035Z AUTO 29003KT 10SM FEW020 FEW034 FEW040 06/05 A3015 RMK AO2,K6S2,2023-03-23T20:35:00Z,43.98,-124.12,6.0,5.0,290,3,,10.0,30.15059,,,TRUE,TRUE,,,,,,,FEW,2000,FEW,3400,FEW,4000,,,VFR,,,,,,,,,,,,SPECI,16.0
K6S2 232015Z AUTO 32011G17KT 3SM -RA BR FEW014 FEW020 BKN032 05/05 A3015 RMK AO2,K6S2,2023-03-23T20:15:00Z,43.98,-124.12,5.0,5.0,320,11,17,3.0,30.15059,,,TRUE,TRUE,,,,,,-RA BR,FEW,1400,FEW,2000,BKN,3200,,,MVFR,,,,,,,,,,,,SPECI,16.0
K6S2 231955Z AUTO 00000KT 10SM BKN032 BKN041 06/06 A3013 RMK AO2,K6S2,2023-03-23T19:55:00Z,43.98,-124.12,6.0,6.0,0,0,,10.0,30.129921,,,TRUE,TRUE,,,,,,,BKN,3200,BKN,4100,,,,,VFR,,,,,,,,,,,,METAR,16.0
K6S2 231935Z AUTO VRB05KT 9SM -RA FEW023 SCT033 BKN038 06/06 A3013 RMK AO2,K6S2,2023-03-23T19:35:00Z,43.98,-124.12,6.0,6.0,0,5,,9.0,30.129921,,,TRUE,TRUE,,,,,,-RA,FEW,2300,SCT,3300,BKN,3800,,,VFR,,,,,,,,,,,,SPECI,16.0
K6S2 231915Z AUTO 00000KT 7SM -RA FEW023 FEW030 SCT040 05/05 A3014 RMK AO2,K6S2,2023-03-23T19:15:00Z,43.98,-124.12,5.0,5.0,0,0,,7.0,30.138779,,,TRUE,TRUE,,,,,,-RA,FEW,2300,FEW,3000,SCT,4000,,,VFR,,,,,,,,,,,,METAR,16.0
K6S2 231855Z AUTO VRB03KT 10SM FEW017 FEW041 05/05 A3012 RMK AO2 P0006,K6S2,2023-03-23T18:55:00Z,43.98,-124.12,5.0,5.0,0,3,,10.0,30.121063,,,TRUE,TRUE,,,,,,,FEW,1700,FEW,4100,,,,,VFR,,,,,,0.06,,,,,,METAR,16.0
K6S2 231835Z AUTO VRB04G14KT 4SM -RA BR BKN017 05/05 A3013 RMK AO2,K6S2,2023-03-23T18:35:00Z,43.98,-124.12,5.0,5.0,0,4,14,4.0,30.129921,,,TRUE,TRUE,,,,,,-RA BR,BKN,1700,,,,,,,MVFR,,,,,,,,,,,,SPECI,16.0
K6S2 231815Z AUTO 31009G16KT 3SM -RA BR BKN017 05/05 A3012 RMK AO2,K6S2,2023-03-23T18:15:00Z,43.98,-124.12,5.0,5.0,310,9,16,3.0,30.121063,,,TRUE,TRUE,,,,,,-RA BR,BKN,1700,,,,,,,MVFR,,,,,,,,,,,,SPECI,16.0
K6S2 231755Z AUTO 29010G18KT 3SM -RA BR BKN015 BKN019 05/05 A3011 RMK AO2 P0023,K6S2,2023-03-23T17:55:00Z,43.98,-124.12,5.0,5.0,290,10,18,3.0,30.109253,,,TRUE,TRUE,,,,,,-RA BR,BKN,1500,BKN,1900,,,,,MVFR,,,,,,0.23,,,,,,METAR,16.0
K6S2 231735Z AUTO 27007G15KT 240V300 4SM -RA BR SCT013 BKN018 BKN022 05/05 A3010 RMK AO2,K6S2,2023-03-23T17:35:00Z,43.98,-124.12,5.0,5.0,270,7,15,4.0,30.100393,,,TRUE,TRUE,,,,,,-RA BR,SCT,1300,BKN,1800,BKN,2200,,,MVFR,,,,,,,,,,,,METAR,16.0
K6S2 231715Z AUTO 25015G27KT 210V280 2SM +RA BR BKN014 BKN020 OVC026 07/07 A3009 RMK AO2,K6S2,2023-03-23T17:15:00Z,43.98,-124.12,7.0,7.0,250,15,27,2.0,30.088583,,,TRUE,TRUE,,,,,,+RA BR,BKN,1400,BKN,2000,OVC,2600,,,IFR,,,,,,,,,,,,SPECI,16.0
K6S2 231655Z AUTO 17009G17KT 120V220 10SM SCT011 BKN016 OVC024 07/07 A3005 RMK AO2,K6S2,2023-03-23T16:55:00Z,43.98,-124.12,7.0,7.0,170,9,17,10.0,30.050198,,,TRUE,TRUE,,,,,,,SCT,1100,BKN,1600,OVC,2400,,,MVFR,,,,,,,,,,,,METAR,16.0
K6S2 231635Z AUTO 17011G16KT 120V220 8SM BKN011 BKN019 BKN029 07/07 A3005 RMK AO2,K6S2,2023-03-23T16:35:00Z,43.98,-124.12,7.0,7.0,170,11,16,8.0,30.050198,,,TRUE,TRUE,,,,,,,BKN,1100,BKN,1900,BKN,2900,,,MVFR,,,,,,,,,,,,METAR,16.0
K6S2 231615Z AUTO 18008G17KT 150V210 3SM UP BR BKN013 OVC019 06/06 A3005 RMK AO2,K6S2,2023-03-23T16:15:00Z,43.98,-124.12,6.0,6.0,180,8,17,3.0,30.050198,,,TRUE,TRUE,,,,,,BR UP,BKN,1300,OVC,1900,,,,,MVFR,,,,,,,,,,,,METAR,16.0
K6S2 231555Z AUTO 17008G15KT 140V200 5SM -RA BR SCT016 OVC023 07/06 A3006 RMK AO2,K6S2,2023-03-23T15:55:00Z,43.98,-124.12,7.0,6.0,170,8,15,5.0,30.059055,,,TRUE,TRUE,,,,,,-RA BR,SCT,1600,OVC,2300,,,,,MVFR,,,,,,,,,,,,METAR,16.0
K6S2 231535Z AUTO 17007KT 130V210 8SM UP BKN026 BKN033 07/07 A3006 RMK AO2,K6S2,2023-03-23T15:35:00Z,43.98,-124.12,7.0,7.0,170,7,,8.0,30.059055,,,TRUE,TRUE,,,,,,UP,BKN,2600,BKN,3300,,,,,MVFR,,,,,,,,,,,,METAR,16.0
K6S2 231515Z AUTO 17007G17KT 130V200 10SM FEW019 FEW023 BKN030 07/07 A3006 RMK AO2,K6S2,2023-03-23T15:15:00Z,43.98,-124.12,7.0,7.0,170,7,17,10.0,30.059055,,,TRUE,TRUE,,,,,,,FEW,1900,FEW,2300,BKN,3000,,,MVFR,,,,,,,,,,,,SPECI,16.0
K6S2 231455Z AUTO 21011KT 9SM -RA SCT019 BKN024 OVC038 07/07 A3007 RMK AO2 P0003,K6S2,2023-03-23T14:55:00Z,43.98,-124.12,7.0,7.0,210,11,,9.0,30.070866,,,TRUE,TRUE,,,,,,-RA,SCT,1900,BKN,2400,OVC,3800,,,MVFR,,,,,,0.03,,,,,,SPECI,16.0
K6S2 231435Z AUTO 21010G19KT 6SM -RA BR FEW019 BKN026 07/07 A3007 RMK AO2,K6S2,2023-03-23T14:35:00Z,43.98,-124.12,7.0,7.0,210,10,19,6.0,30.070866,,,TRUE,TRUE,,,,,,-RA BR,FEW,1900,BKN,2600,,,,,MVFR,,,,,,,,,,,,SPECI,16.0
K6S2 231415Z AUTO 20009G16KT 6SM -RA BR FEW018 BKN025 BKN029 07/07 A3007 RMK AO2,K6S2,2023-03-23T14:15:00Z,43.98,-124.12,7.0,7.0,200,9,16,6.0,30.070866,,,TRUE,TRUE,,,,,,-RA BR,FEW,1800,BKN,2500,BKN,2900,,,MVFR,,,,,,,,,,,,SPECI,16.0
K6S2 231355Z AUTO VRB06G15KT 5SM -RA BR SCT020 OVC028 07/06 A3007 RMK AO2 P0001,K6S2,2023-03-23T13:55:00Z,43.98,-124.12,7.0,6.0,0,6,15,5.0,30.070866,,,TRUE,TRUE,,,,,,-RA BR,SCT,2000,OVC,2800,,,,,MVFR,,,,,,0.01,,,,,,METAR,16.0
K6S2 231335Z AUTO 19006G12KT 10SM SCT018 BKN022 OVC044 08/07 A3006 RMK AO2,K6S2,2023-03-23T13:35:00Z,43.98,-124.12,8.0,7.0,190,6,12,10.0,30.059055,,,TRUE,TRUE,,,,,,,SCT,1800,BKN,2200,OVC,4400,,,MVFR,,,,,,,,,,,,METAR,16.0
K6S2 231315Z AUTO 19008G17KT 10SM FEW020 SCT028 OVC044 08/07 A3007 RMK AO2,K6S2,2023-03-23T13:15:00Z,43.98,-124.12,8.0,7.0,190,8,17,10.0,30.070866,,,TRUE,TRUE,,,,,,,FEW,2000,SCT,2800,OVC,4400,,,VFR,,,,,,,,,,,,METAR,16.0
K6S2 231255Z AUTO 19006G14KT 10SM FEW027 FEW038 OVC043 08/07 A3007 RMK AO2,K6S2,2023-03-23T12:55:00Z,43.98,-124.12,8.0,7.0,190,6,14,10.0,30.070866,,,TRUE,TRUE,,,,,,,FEW,2700,FEW,3800,OVC,4300,,,VFR,,,,,,,,,,,,METAR,16.0
K6S2 231235Z AUTO 20006KT 10SM SCT018 BKN038 OVC045 08/07 A3007 RMK AO2,K6S2,2023-03-23T12:35:00Z,43.98,-124.12,8.0,7.0,200,6,,10.0,30.070866,,,TRUE,TRUE,,,,,,,SCT,1800,BKN,3800,OVC,4500,,,VFR,,,,,,,,,,,,METAR,16.0
K6S2 231215Z AUTO 21005KT 10SM FEW020 OVC033 08/07 A3007 RMK AO2,K6S2,2023-03-23T12:15:00Z,43.98,-124.12,8.0,7.0,210,5,,10.0,30.070866,,,TRUE,TRUE,,,,,,,FEW,2000,OVC,3300,,,,,VFR,,,,,,,,,,,,SPECI,16.0
K6S2 231155Z AUTO 20004KT 10SM BKN035 OVC043 08/07 A3007 RMK AO2,K6S2,2023-03-23T11:55:00Z,43.98,-124.12,8.0,7.0,200,4,,10.0,30.070866,,,TRUE,TRUE,,,,,,,BKN,3500,OVC,4300,,,,,VFR,,,,,,,,,,,,METAR,16.0
K6S2 231135Z AUTO VRB05KT 10SM BKN031 OVC039 08/07 A3007 RMK AO2,K6S2,2023-03-23T11:35:00Z,43.98,-124.12,8.0,7.0,0,5,,10.0,30.070866,,,TRUE,TRUE,,,,,,,BKN,3100,OVC,3900,,,,,VFR,,,,,,,,,,,,METAR,16.0
K6S2 231115Z AUTO VRB04KT 10SM FEW020 BKN030 OVC042 07/07 A3007 RMK AO2,K6S2,2023-03-23T11:15:00Z,43.98,-124.12,7.0,7.0,0,4,,10.0,30.070866,,,TRUE,TRUE,,,,,,,FEW,2000,BKN,3000,OVC,4200,,,MVFR,,,,,,,,,,,,METAR,16.0
K6S2 231055Z AUTO 20005KT 10SM FEW017 SCT022 BKN035 07/07 A3007 RMK AO2,K6S2,2023-03-23T10:55:00Z,43.98,-124.12,7.0,7.0,200,5,,10.0,30.070866,,,TRUE,TRUE,,,,,,,FEW,1700,SCT,2200,BKN,3500,,,VFR,,,,,,,,,,,,METAR,16.0
K6S2 231035Z AUTO VRB05KT 9SM FEW021 BKN036 OVC060 08/06 A3007 RMK AO2,K6S2,2023-03-23T10:35:00Z,43.98,-124.12,8.0,6.0,0,5,,9.0,30.070866,,,TRUE,TRUE,,,,,,,FEW,2100,BKN,3600,OVC,6000,,,VFR,,,,,,,,,,,,METAR,16.0
K6S2 231015Z AUTO VRB05KT 10SM FEW017 SCT039 BKN055 08/07 A3007 RMK AO2,K6S2,2023-03-23T10:15:00Z,43.98,-124.12,8.0,7.0,0,5,,10.0,30.070866,,,TRUE,TRUE,,,,,,,FEW,1700,SCT,3900,BKN,5500,,,VFR,,,,,,,,,,,,METAR,16.0
K6S2 230955Z AUTO 21006KT 10SM SCT019 BKN031 OVC050 08/07 A3007 RMK AO2,K6S2,2023-03-23T09:55:00Z,43.98,-124.12,8.0,7.0,210,6,,10.0,30.070866,,,TRUE,TRUE,,,,,,,SCT,1900,BKN,3100,OVC,5000,,,VFR,,,,,,,,,,,,METAR,16.0
K6S2 230935Z AUTO 21005KT 10SM SCT018 BKN032 OVC055 08/07 A3007 RMK AO2,K6S2,2023-03-23T09:35:00Z,43.98,-124.12,8.0,7.0,210,5,,10.0,30.070866,,,TRUE,TRUE,,,,,,,SCT,1800,BKN,3200,OVC,5500,,,VFR,,,,,,,,,,,,METAR,16.0
K6S2 230915Z AUTO VRB03KT 10SM OVC055 08/07 A3007 RMK AO2,K6S2,2023-03-23T09:15:00Z,43.98,-124.12,8.0,7.0,0,3,,10.0,30.070866,,,TRUE,TRUE,,,,,,,OVC,5500,,,,,,,VFR,,,,,,,,,,,,METAR,16.0
K6S2 230855Z AUTO VRB04KT 10SM SCT037 BKN046 BKN060 08/07 A3007 RMK AO2,K6S2,2023-03-23T08:55:00Z,43.98,-124.12,8.0,7.0,0,4,,10.0,30.070866,,,TRUE,TRUE,,,,,,,SCT,3700,BKN,4600,BKN,6000,,,VFR,,,,,,,,,,,,METAR,16.0
K6S2 230835Z AUTO 21004KT 10SM FEW028 OVC035 08/07 A3006 RMK AO2,K6S2,2023-03-23T08:35:00Z,43.98,-124.12,8.0,7.0,210,4,,10.0,30.059055,,,TRUE,TRUE,,,,,,,FEW,2800,OVC,3500,,,,,VFR,,,,,,,,,,,,METAR,16.0
K6S2 230815Z AUTO VRB03KT 10SM SCT028 BKN035 OVC065 08/07 A3006 RMK AO2,K6S2,2023-03-23T08:15:00Z,43.98,-124.12,8.0,7.0,0,3,,10.0,30.059055,,,TRUE,TRUE,,,,,,,SCT,2800,BKN,3500,OVC,6500,,,VFR,,,,,,,,,,,,SPECI,16.0
K6S2 230755Z AUTO 00000KT 10SM FEW018 BKN035 OVC065 08/08 A3006 RMK AO2,K6S2,2023-03-23T07:55:00Z,43.98,-124.12,8.0,8.0,0,0,,10.0,30.059055,,,TRUE,TRUE,,,,,,,FEW,1800,BKN,3500,OVC,6500,,,VFR,,,,,,,,,,,,METAR,16.0
K6S2 230735Z AUTO 00000KT 10SM FEW035 BKN055 OVC065 08/07 A3006 RMK AO2,K6S2,2023-03-23T07:35:00Z,43.98,-124.12,8.0,7.0,0,0,,10.0,30.059055,,,TRUE,TRUE,,,,,,,FEW,3500,BKN,5500,OVC,6500,,,VFR,,,,,,,,,,,,SPECI,16.0
K6S2 230715Z AUTO 21003KT 10SM FEW019 FEW030 OVC055 08/08 A3006 RMK AO2,K6S2,2023-03-23T07:15:00Z,43.98,-124.12,8.0,8.0,210,3,,10.0,30.059055,,,TRUE,TRUE,,,,,,,FEW,1900,FEW,3000,OVC,5500,,,VFR,,,,,,,,,,,,SPECI,16.0
K6S2 230655Z AUTO 00000KT 10SM SCT019 BKN028 OVC045 09/08 A3006 RMK AO2,K6S2,2023-03-23T06:55:00Z,43.98,-124.12,9.0,8.0,0,0,,10.0,30.059055,,,TRUE,TRUE,,,,,,,SCT,1900,BKN,2800,OVC,4500,,,MVFR,,,,,,,,,,,,METAR,16.0
K6S2 230635Z AUTO VRB03KT 10SM SCT017 BKN022 OVC044 09/07 A3006 RMK AO2,K6S2,2023-03-23T06:35:00Z,43.98,-124.12,9.0,7.0,0,3,,10.0,30.059055,,,TRUE,TRUE,,,,,,,SCT,1700,BKN,2200,OVC,4400,,,MVFR,,,,,,,,,,,,METAR,16.0
K6S2 230615Z AUTO 00000KT 10SM SCT017 BKN022 OVC050 09/08 A3006 RMK AO2,K6S2,2023-03-23T06:15:00Z,43.98,-124.12,9.0,8.0,0,0,,10.0,30.059055,,,TRUE,TRUE,,,,,,,SCT,1700,BKN,2200,OVC,5000,,,MVFR,,,,,,,,,,,,SPECI,16.0
K6S2 230555Z AUTO 00000KT 10SM SCT017 BKN028 OVC050 09/08 A3006 RMK AO2,K6S2,2023-03-23T05:55:00Z,43.98,-124.12,9.0,8.0,0,0,,10.0,30.059055,,,TRUE,TRUE,,,,,,,SCT,1700,BKN,2800,OVC,5000,,,MVFR,,,,,,,,,,,,METAR,16.0
K6S2 230535Z AUTO 00000KT 10SM FEW018 SCT032 BKN038 09/08 A3005 RMK AO2,K6S2,2023-03-23T05:35:00Z,43.98,-124.12,9.0,8.0,0,0,,10.0,30.050198,,,TRUE,TRUE,,,,,,,FEW,1800,SCT,3200,BKN,3800,,,VFR,,,,,,,,,,,,METAR,16.0
K6S2 230515Z AUTO 00000KT 10SM SCT019 BKN038 OVC045 09/08 A3005 RMK AO2,K6S2,2023-03-23T05:15:00Z,43.98,-124.12,9.0,8.0,0,0,,10.0,30.050198,,,TRUE,TRUE,,,,,,,SCT,1900,BKN,3800,OVC,4500,,,VFR,,,,,,,,,,,,SPECI,16.0
K6S2 230455Z AUTO 28003KT 10SM SCT019 OVC043 09/08 A3005 RMK AO2,K6S2,2023-03-23T04:55:00Z,43.98,-124.12,9.0,8.0,280,3,,10.0,30.050198,,,TRUE,TRUE,,,,,,,SCT,1900,OVC,4300,,,,,VFR,,,,,,,,,,,,METAR,16.0
K6S2 230435Z AUTO 00000KT 10SM FEW020 BKN035 OVC041 09/07 A3004 RMK AO2,K6S2,2023-03-23T04:35:00Z,43.98,-124.12,9.0,7.0,0,0,,10.0,30.041338,,,TRUE,TRUE,,,,,,,FEW,2000,BKN,3500,OVC,4100,,,VFR,,,,,,,,,,,,SPECI,16.0
K6S2 230415Z AUTO 00000KT 10SM SCT029 OVC035 09/07 A3003 RMK AO2,K6S2,2023-03-23T04:15:00Z,43.98,-124.12,9.0,7.0,0,0,,10.0,30.029528,,,TRUE,TRUE,,,,,,,SCT,2900,OVC,3500,,,,,VFR,,,,,,,,,,,,SPECI,16.0
K6S2 230355Z AUTO VRB04KT 10SM SCT028 OVC040 09/07 A3002 RMK AO2,K6S2,2023-03-23T03:55:00Z,43.98,-124.12,9.0,7.0,0,4,,10.0,30.02067,,,TRUE,TRUE,,,,,,,SCT,2800,OVC,4000,,,,,VFR,,,,,,,,,,,,METAR,16.0
K6S2 230335Z AUTO 30003KT 10SM FEW034 BKN044 OVC050 09/07 A3002 RMK AO2,K6S2,2023-03-23T03:35:00Z,43.98,-124.12,9.0,7.0,300,3,,10.0,30.02067,,,TRUE,TRUE,,,,,,,FEW,3400,BKN,4400,OVC,5000,,,VFR,,,,,,,,,,,,METAR,16.0
K6S2 230315Z AUTO 31003KT 10SM FEW016 SCT026 OVC034 09/07 A3001 RMK AO2,K6S2,2023-03-23T03:15:00Z,43.98,-124.12,9.0,7.0,310,3,,10.0,30.008858,,,TRUE,TRUE,,,,,,,FEW,1600,SCT,2600,OVC,3400,,,VFR,,,,,,,,,,,,SPECI,16.0
K6S2 230255Z AUTO 30007KT 10SM BKN016 OVC024 09/08 A3001 RMK AO2,K6S2,2023-03-23T02:55:00Z,43.98,-124.12,9.0,8.0,300,7,,10.0,30.008858,,,TRUE,TRUE,,,,,,,BKN,1600,OVC,2400,,,,,MVFR,,,,,,,,,,,,METAR,16.0
K6S2 230235Z AUTO 29006KT 10SM BKN017 OVC022 09/08 A3000 RMK AO2,K6S2,2023-03-23T02:35:00Z,43.98,-124.12,9.0,8.0,290,6,,10.0,30.0,,,TRUE,TRUE,,,,,,,BKN,1700,OVC,2200,,,,,MVFR,,,,,,,,,,,,SPECI,16.0
K6S2 230215Z AUTO 30005KT 6SM BR BKN015 OVC019 08/08 A3000 RMK AO2,K6S2,2023-03-23T02:15:00Z,43.98,-124.12,8.0,8.0,300,5,,6.0,30.0,,,TRUE,TRUE,,,,,,BR,BKN,1500,OVC,1900,,,,,MVFR,,,,,,,,,,,,SPECI,16.0
K6S2 230155Z AUTO VRB04KT 7SM OVC014 08/08 A3000 RMK AO2,K6S2,2023-03-23T01:55:00Z,43.98,-124.12,8.0,8.0,0,4,,7.0,30.0,,,TRUE,TRUE,,,,,,,OVC,1400,,,,,,,MVFR,,,,,,,,,,,,METAR,16.0
K6S2 230135Z AUTO 29004KT 6SM BR SCT005 OVC013 08/08 A2999 RMK AO2,K6S2,2023-03-23T01:35:00Z,43.98,-124.12,8.0,8.0,290,4,,6.0,29.991142,,,TRUE,TRUE,,,,,,BR,SCT,500,OVC,1300,,,,,MVFR,,,,,,,,,,,,SPECI,16.0
K6S2 230115Z AUTO 30005KT 2 1/2SM UP BR SCT004 BKN008 OVC012 08/08 A2998 RMK AO2 LTG DSNT E,K6S2,2023-03-23T01:15:00Z,43.98,-124.12,8.0,8.0,300,5,,2.5,29.97933,,,TRUE,TRUE,,,,,,BR UP,SCT,400,BKN,800,OVC,1200,,,IFR,,,,,,,,,,,,SPECI,16.0
K6S2 230055Z AUTO 31007KT 4SM UP BR BKN008 OVC013 09/09 A2998 RMK AO2,K6S2,2023-03-23T00:55:00Z,43.98,-124.12,9.0,9.0,310,7,,4.0,29.97933,,,TRUE,TRUE,,,,,,BR UP,BKN,800,OVC,1300,,,,,IFR,,,,,,,,,,,,METAR,16.0
K6S2 230035Z AUTO 30006KT 5SM BR BKN006 OVC011 09/09 A2997 RMK AO2 LTG DSNT NE,K6S2,2023-03-23T00:35:00Z,43.98,-124.12,9.0,9.0,300,6,,5.0,29.970472,,,TRUE,TRUE,,,,,,BR,BKN,600,OVC,1100,,,,,IFR,,,,,,,,,,,,METAR,16.0
K6S2 230015Z AUTO 30007KT 3SM UP BR BKN004 BKN007 OVC018 09/09 A2996 RMK AO2,K6S2,2023-03-23T00:15:00Z,43.98,-124.12,9.0,9.0,300,7,,3.0,29.958662,,,TRUE,TRUE,,,,,,BR UP,BKN,400,BKN,700,OVC,1800,,,LIFR,,,,,,,,,,,,METAR,16.0
K6S2 222355Z AUTO 31007KT 2 1/2SM UP BR OVC003 09/09 A2996 RMK AO2 LTG DSNT NE,K6S2,2023-03-22T23:55:00Z,43.98,-124.12,9.0,9.0,310,7,,2.5,29.958662,,,TRUE,TRUE,,,,,,BR UP,OVC,300,,,,,,,LIFR,,,,,,,,,,,,METAR,16.0
K6S2 222335Z AUTO 31008KT 2 1/2SM UP BR BKN003 OVC009 09/09 A2996 RMK AO2 LTG DSNT SE,K6S2,2023-03-22T23:35:00Z,43.98,-124.12,9.0,9.0,310,8,,2.5,29.958662,,,TRUE,TRUE,,,,,,BR UP,BKN,300,OVC,900,,,,,LIFR,,,,,,,,,,,,SPECI,16.0
K6S2 222315Z AUTO 32005G11KT 2SM UP BR BKN003 OVC010 09/09 A2995 RMK AO2,K6S2,2023-03-22T23:15:00Z,43.98,-124.12,9.0,9.0,320,5,11,2.0,29.949802,,,TRUE,TRUE,,,,,,BR UP,BKN,300,OVC,1000,,,,,LIFR,,,,,,,,,,,,SPECI,16.0
K6S2 222255Z AUTO 31006KT 2 1/2SM UP BR SCT005 BKN012 09/09 A2995 RMK AO2 LTG DSNT NE VIS 1 1/2V4,K6S2,2023-03-22T22:55:00Z,43.98,-124.12,9.0,9.0,310,6,,2.5,29.949802,,,TRUE,TRUE,,,,,,BR UP,SCT,500,BKN,1200,,,,,IFR,,,,,,,,,,,,METAR,16.0
K6S2 222235Z AUTO 30006KT 10SM OVC012 10/09 A2994 RMK AO2,K6S2,2023-03-22T22:35:00Z,43.98,-124.12,10.0,9.0,300,6,,10.0,29.940945,,,TRUE,TRUE,,,,,,,OVC,1200,,,,,,,MVFR,,,,,,,,,,,,METAR,16.0
K6S2 222215Z AUTO 31006KT 10SM FEW010 BKN014 OVC022 10/10 A2994 RMK AO2,K6S2,2023-03-22T22:15:00Z,43.98,-124.12,10.0,10.0,310,6,,10.0,29.940945,,,TRUE,TRUE,,,,,,,FEW,1000,BKN,1400,OVC,2200,,,MVFR,,,,,,,,,,,,SPECI,16.0
K6S2 222155Z AUTO 30006KT 10SM FEW009 FEW013 OVC022 10/10 A2993 RMK AO2,K6S2,2023-03-22T21:55:00Z,43.98,-124.12,10.0,10.0,300,6,,10.0,29.929134,,,TRUE,TRUE,,,,,,,FEW,900,FEW,1300,OVC,2200,,,MVFR,,,,,,,,,,,,METAR,16.0
K6S2 222135Z AUTO 30005KT 10SM FEW008 FEW012 OVC022 10/10 A2992 RMK AO2,K6S2,2023-03-22T21:35:00Z,43.98,-124.12,10.0,10.0,300,5,,10.0,29.920275,,,TRUE,TRUE,,,,,,,FEW,800,FEW,1200,OVC,2200,,,MVFR,,,,,,,,,,,,METAR,16.0
K6S2 222115Z AUTO VRB06KT 10SM FEW009 FEW014 OVC022 10/10 A2992 RMK AO2,K6S2,2023-03-22T21:15:00Z,43.98,-124.12,10.0,10.0,0,6,,10.0,29.920275,,,TRUE,TRUE,,,,,,,FEW,900,FEW,1400,OVC,2200,,,MVFR,,,,,,,,,,,,METAR,16.0
K6S2 222055Z AUTO 30006KT 10SM FEW009 FEW014 OVC022 10/10 A2991 RMK AO2,K6S2,2023-03-22T20:55:00Z,43.98,-124.12,10.0,10.0,300,6,,10.0,29.911417,,,TRUE,TRUE,,,,,,,FEW,900,FEW,1400,OVC,2200,,,MVFR,,,,,,,,,,,,METAR,16.0
K6S2 222035Z AUTO 30006KT 10SM FEW010 OVC023 10/10 A2991 RMK AO2,K6S2,2023-03-22T20:35:00Z,43.98,-124.12,10.0,10.0,300,6,,10.0,29.911417,,,TRUE,TRUE,,,,,,,FEW,1000,OVC,2300,,,,,MVFR,,,,,,,,,,,,METAR,16.0
K6S2 222015Z AUTO 28006KT 10SM FEW011 OVC022 10/10 A2990 RMK AO2,K6S2,2023-03-22T20:15:00Z,43.98,-124.12,10.0,10.0,280,6,,10.0,29.899607,,,TRUE,TRUE,,,,,,,FEW,1100,OVC,2200,,,,,MVFR,,,,,,,,,,,,METAR,16.0
K6S2 221955Z AUTO VRB04KT 10SM OVC021 10/10 A2989 RMK AO2,K6S2,2023-03-22T19:55:00Z,43.98,-124.12,10.0,10.0,0,4,,10.0,29.890747,,,TRUE,TRUE,,,,,,,OVC,2100,,,,,,,MVFR,,,,,,,,,,,,METAR,16.0
K6S2 221935Z AUTO VRB04KT 10SM OVC020 10/10 A2988 RMK AO2,K6S2,2023-03-22T19:35:00Z,43.98,-124.12,10.0,10.0,0,4,,10.0,29.878937,,,TRUE,TRUE,,,,,,,OVC,2000,,,,,,,MVFR,,,,,,,,,,,,SPECI,16.0
K6S2 221915Z AUTO 22005KT 10SM FEW012 OVC018 10/09 A2988 RMK AO2,K6S2,2023-03-22T19:15:00Z,43.98,-124.12,10.0,9.0,220,5,,10.0,29.878937,,,TRUE,TRUE,,,,,,,FEW,1200,OVC,1800,,,,,MVFR,,,,,,,,,,,,METAR,16.0
K6S2 221855Z AUTO 24004KT 10SM OVC018 10/09 A2987 RMK AO2,K6S2,2023-03-22T18:55:00Z,43.98,-124.12,10.0,9.0,240,4,,10.0,29.870079,,,TRUE,TRUE,,,,,,,OVC,1800,,,,,,,MVFR,,,,,,,,,,,,METAR,16.0
K6S2 221835Z AUTO VRB03KT 10SM FEW011 OVC018 10/09 A2986 RMK AO2,K6S2,2023-03-22T18:35:00Z,43.98,-124.12,10.0,9.0,0,3,,10.0,29.861221,,,TRUE,TRUE,,,,,,,FEW,1100,OVC,1800,,,,,MVFR,,,,,,,,,,,,METAR,16.0
K6S2 221815Z AUTO 26004KT 10SM BKN013 OVC017 10/09 A2985 RMK AO2,K6S2,2023-03-22T18:15:00Z,43.98,-124.12,10.0,9.0,260,4,,10.0,29.84941,,,TRUE,TRUE,,,,,,,BKN,1300,OVC,1700,,,,,MVFR,,,,,,,,,,,,METAR,16.0
K6S2 221755Z AUTO VRB04KT 10SM BKN009 BKN014 BKN019 09/09 A2984 RMK AO2,K6S2,2023-03-22T17:55:00Z,43.98,-124.12,9.0,9.0,0,4,,10.0,29.840551,,,TRUE,TRUE,,,,,,,BKN,900,BKN,1400,BKN,1900,,,IFR,,,,,,,,,,,,METAR,16.0
K6S2 221655Z AUTO 19007KT 8SM SCT009 08/08 A2982 RMK AO2,K6S2,2023-03-22T16:55:00Z,43.98,-124.12,8.0,8.0,190,7,,8.0,29.819881,,,TRUE,TRUE,,,,,,,SCT,900,,,,,,,VFR,,,,,,,,,,,,METAR,16.0
K6S2 221635Z AUTO 17003KT 10SM CLR 07/07 A2981 RMK AO2,K6S2,2023-03-22T16:35:00Z,43.98,-124.12,7.0,7.0,170,3,,10.0,29.811024,,,TRUE,TRUE,,,,,,,CLR,,,,,,,,VFR,,,,,,,,,,,,SPECI,16.0
K6S2 221615Z AUTO 00000KT 10SM CLR 06/06 A2980 RMK AO2,K6S2,2023-03-22T16:15:00Z,43.98,-124.12,6.0,6.0,0,0,,10.0,29.799213,,,TRUE,TRUE,,,,,,,CLR,,,,,,,,VFR,,,,,,,,,,,,METAR,16.0
K6S2 221555Z AUTO 00000KT 10SM CLR 05/05 A2979 RMK AO2,K6S2,2023-03-22T15:55:00Z,43.98,-124.12,5.0,5.0,0,0,,10.0,29.790354,,,TRUE,TRUE,,,,,,,CLR,,,,,,,,VFR,,,,,,,,,,,,METAR,16.0
K6S2 221535Z AUTO 14003KT 10SM CLR 04/04 A2978 RMK AO2,K6S2,2023-03-22T15:35:00Z,43.98,-124.12,4.0,4.0,140,3,,10.0,29.778543,,,TRUE,TRUE,,,,,,,CLR,,,,,,,,VFR,,,,,,,,,,,,SPECI,16.0
K6S2 221515Z AUTO 00000KT 10SM CLR 04/04 A2977 RMK AO2,K6S2,2023-03-22T15:15:00Z,43.98,-124.12,4.0,4.0,0,0,,10.0,29.769686,,,TRUE,TRUE,,,,,,,CLR,,,,,,,,VFR,,,,,,,,,,,,SPECI,16.0
K6S2 221455Z AUTO 00000KT 10SM CLR 04/04 A2976 RMK AO2,K6S2,2023-03-22T14:55:00Z,43.98,-124.12,4.0,4.0,0,0,,10.0,29.760826,,,TRUE,TRUE,,,,,,,CLR,,,,,,,,VFR,,,,,,,,,,,,METAR,16.0
K6S2 221435Z AUTO 00000KT 10SM CLR 02/02 A2975 RMK AO2,K6S2,2023-03-22T14:35:00Z,43.98,-124.12,2.0,2.0,0,0,,10.0,29.749016,,,TRUE,TRUE,,,,,,,CLR,,,,,,,,VFR,,,,,,,,,,,,SPECI,16.0
K6S2 221415Z AUTO 00000KT 10SM CLR 02/02 A2975 RMK AO2,K6S2,2023-03-22T14:15:00Z,43.98,-124.12,2.0,2.0,0,0,,10.0,29.749016,,,TRUE,TRUE,,,,,,,CLR,,,,,,,,VFR,,,,,,,,,,,,METAR,16.0
K6S2 221355Z AUTO 00000KT 10SM CLR 02/02 A2973 RMK AO2,K6S2,2023-03-22T13:55:00Z,43.98,-124.12,2.0,2.0,0,0,,10.0,29.731298,,,TRUE,TRUE,,,,,,,CLR,,,,,,,,VFR,,,,,,,,,,,,METAR,16.0
K6S2 221335Z AUTO 00000KT 10SM CLR 03/03 A2973 RMK AO2,K6S2,2023-03-22T13:35:00Z,43.98,-124.12,3.0,3.0,0,0,,10.0,29.731298,,,TRUE,TRUE,,,,,,,CLR,,,,,,,,VFR,,,,,,,,,,,,METAR,16.0
K6S2 221315Z AUTO 00000KT 10SM CLR 03/03 A2972 RMK AO2,K6S2,2023-03-22T13:15:00Z,43.98,-124.12,3.0,3.0,0,0,,10.0,29.719488,,,TRUE,TRUE,,,,,,,CLR,,,,,,,,VFR,,,,,,,,,,,,METAR,16.0
K6S2 221255Z AUTO 00000KT 10SM CLR 04/04 A2971 RMK AO2,K6S2,2023-03-22T12:55:00Z,43.98,-124.12,4.0,4.0,0,0,,10.0,29.71063,,,TRUE,TRUE,,,,,,,CLR,,,,,,,,VFR,,,,,,,,,,,,METAR,16.0
K6S2 221235Z AUTO 00000KT 10SM CLR 04/04 A2970 RMK AO2,K6S2,2023-03-22T12:35:00Z,43.98,-124.12,4.0,4.0,0,0,,10.0,29.698818,,,TRUE,TRUE,,,,,,,CLR,,,,,,,,VFR,,,,,,,,,,,,METAR,16.0
K6S2 221215Z AUTO 00000KT 10SM CLR 03/03 A2970 RMK AO2,K6S2,2023-03-22T12:15:00Z,43.98,-124.12,3.0,3.0,0,0,,10.0,29.698818,,,TRUE,TRUE,,,,,,,CLR,,,,,,,,VFR,,,,,,,,,,,,METAR,16.0
K6S2 221155Z AUTO 00000KT 10SM CLR 02/02 A2969 RMK AO2,K6S2,2023-03-22T11:55:00Z,43.98,-124.12,2.0,2.0,0,0,,10.0,29.68996,,,TRUE,TRUE,,,,,,,CLR,,,,,,,,VFR,,,,,,,,,,,,METAR,16.0
K6S2 221135Z AUTO 00000KT 10SM CLR 03/03 A2969 RMK AO2,K6S2,2023-03-22T11:35:00Z,43.98,-124.12,3.0,3.0,0,0,,10.0,29.68996,,,TRUE,TRUE,,,,,,,CLR,,,,,,,,VFR,,,,,,,,,,,,SPECI,16.0
K6S2 221115Z AUTO 00000KT 10SM CLR 03/03 A2968 RMK AO2,K6S2,2023-03-22T11:15:00Z,43.98,-124.12,3.0,3.0,0,0,,10.0,29.681103,,,TRUE,TRUE,,,,,,,CLR,,,,,,,,VFR,,,,,,,,,,,,SPECI,16.0
K6S2 221055Z AUTO 00000KT 10SM CLR 03/03 A2968 RMK AO2,K6S2,2023-03-22T10:55:00Z,43.98,-124.12,3.0,3.0,0,0,,10.0,29.681103,,,TRUE,TRUE,,,,,,,CLR,,,,,,,,VFR,,,,,,,,,,,,METAR,16.0
K6S2 221035Z AUTO 00000KT 10SM CLR 03/03 A2967 RMK AO2,K6S2,2023-03-22T10:35:00Z,43.98,-124.12,3.0,3.0,0,0,,10.0,29.66929,,,TRUE,TRUE,,,,,,,CLR,,,,,,,,VFR,,,,,,,,,,,,METAR,16.0
K6S2 221015Z AUTO 00000KT 10SM CLR 04/04 A2967 RMK AO2,K6S2,2023-03-22T10:15:00Z,43.98,-124.12,4.0,4.0,0,0,,10.0,29.66929,,,TRUE,TRUE,,,,,,,CLR,,,,,,,,VFR,,,,,,,,,,,,SPECI,16.0
K6S2 220955Z AUTO 00000KT 10SM CLR 03/03 A2967 RMK AO2,K6S2,2023-03-22T09:55:00Z,43.98,-124.12,3.0,3.0,0,0,,10.0,29.66929,,,TRUE,TRUE,,,,,,,CLR,,,,,,,,VFR,,,,,,,,,,,,METAR,16.0
K6S2 220935Z AUTO 00000KT 10SM CLR 04/04 A2966 RMK AO2,K6S2,2023-03-22T09:35:00Z,43.98,-124.12,4.0,4.0,0,0,,10.0,29.660433,,,TRUE,TRUE,,,,,,,CLR,,,,,,,,VFR,,,,,,,,,,,,METAR,16.0
K6S2 220915Z AUTO 00000KT 10SM CLR 03/03 A2965 RMK AO2,K6S2,2023-03-22T09:15:00Z,43.98,-124.12,3.0,3.0,0,0,,10.0,29.648623,,,TRUE,TRUE,,,,,,,CLR,,,,,,,,VFR,,,,,,,,,,,,METAR,16.0
K6S2 220855Z AUTO 00000KT 10SM CLR 04/04 A2965 RMK AO2,K6S2,2023-03-22T08:55:00Z,43.98,-124.12,4.0,4.0,0,0,,10.0,29.648623,,,TRUE,TRUE,,,,,,,CLR,,,,,,,,VFR,,,,,,,,,,,,METAR,16.0
K6S2 220835Z AUTO 00000KT 10SM CLR 04/04 A2964 RMK AO2,K6S2,2023-03-22T08:35:00Z,43.98,-124.12,4.0,4.0,0,0,,10.0,29.639763,,,TRUE,TRUE,,,,,,,CLR,,,,,,,,VFR,,,,,,,,,,,,SPECI,16.0
K6S2 220815Z AUTO 00000KT 10SM CLR 04/04 A2963 RMK AO2,K6S2,2023-03-22T08:15:00Z,43.98,-124.12,4.0,4.0,0,0,,10.0,29.630905,,,TRUE,TRUE,,,,,,,CLR,,,,,,,,VFR,,,,,,,,,,,,METAR,16.0
K6S2 220755Z AUTO 00000KT 10SM CLR 05/05 A2963 RMK AO2,K6S2,2023-03-22T07:55:00Z,43.98,-124.12,5.0,5.0,0,0,,10.0,29.630905,,,TRUE,TRUE,,,,,,,CLR,,,,,,,,VFR,,,,,,,,,,,,METAR,16.0
K6S2 220735Z AUTO 00000KT 10SM FEW002 05/05 A2962 RMK AO2,K6S2,2023-03-22T07:35:00Z,43.98,-124.12,5.0,5.0,0,0,,10.0,29.619095,,,TRUE,TRUE,,,,,,,FEW,200,,,,,,,VFR,,,,,,,,,,,,METAR,16.0
K6S2 220715Z AUTO 00000KT 10SM SCT002 06/06 A2962 RMK AO2,K6S2,2023-03-22T07:15:00Z,43.98,-124.12,6.0,6.0,0,0,,10.0,29.619095,,,TRUE,TRUE,,,,,,,SCT,200,,,,,,,VFR,,,,,,,,,,,,METAR,16.0
K6S2 220655Z AUTO 00000KT 10SM SCT002 06/06 A2962 RMK AO2,K6S2,2023-03-22T06:55:00Z,43.98,-124.12,6.0,6.0,0,0,,10.0,29.619095,,,TRUE,TRUE,,,,,,,SCT,200,,,,,,,VFR,,,,,,,,,,,,METAR,16.0
K6S2 220635Z AUTO 00000KT 10SM CLR 08/08 A2961 RMK AO2,K6S2,2023-03-22T06:35:00Z,43.98,-124.12,8.0,8.0,0,0,,10.0,29.610237,,,TRUE,TRUE,,,,,,,CLR,,,,,,,,VFR,,,,,,,,,,,,SPECI,16.0
K6S2 220615Z AUTO VRB04KT 9SM SCT002 06/06 A2961 RMK AO2,K6S2,2023-03-22T06:15:00Z,43.98,-124.12,6.0,6.0,0,4,,9.0,29.610237,,,TRUE,TRUE,,,,,,,SCT,200,,,,,,,VFR,,,,,,,,,,,,SPECI,16.0
K6S2 220555Z AUTO 00000KT 9SM OVC002 06/06 A2961 RMK AO2,K6S2,2023-03-22T05:55:00Z,43.98,-124.12,6.0,6.0,0,0,,9.0,29.610237,,,TRUE,TRUE,,,,,,,OVC,200,,,,,,,LIFR,,,,,,,,,,,,METAR,16.0
K6S2 220535Z AUTO 00000KT 9SM OVC002 06/06 A2960 RMK AO2,K6S2,2023-03-22T05:35:00Z,43.98,-124.12,6.0,6.0,0,0,,9.0,29.601377,,,TRUE,TRUE,,,,,,,OVC,200,,,,,,,LIFR,,,,,,,,,,,,SPECI,16.0
K6S2 220515Z AUTO 00000KT 9SM OVC002 06/06 A2960 RMK AO2,K6S2,2023-03-22T05:15:00Z,43.98,-124.12,6.0,6.0,0,0,,9.0,29.601377,,,TRUE,TRUE,,,,,,,OVC,200,,,,,,,LIFR,,,,,,,,,,,,SPECI,16.0
K6S2 220455Z AUTO 00000KT 9SM OVC002 07/07 A2959 RMK AO2,K6S2,2023-03-22T04:55:00Z,43.98,-124.12,7.0,7.0,0,0,,9.0,29.589567,,,TRUE,TRUE,,,,,,,OVC,200,,,,,,,LIFR,,,,,,,,,,,,METAR,16.0
K6S2 220435Z AUTO 00000KT 9SM OVC002 08/08 A2959 RMK AO2,K6S2,2023-03-22T04:35:00Z,43.98,-124.12,8.0,8.0,0,0,,9.0,29.589567,,,TRUE,TRUE,,,,,,,OVC,200,,,,,,,LIFR,,,,,,,,,,,,METAR,16.0
K6S2 220415Z AUTO 00000KT 10SM OVC002 08/08 A2958 RMK AO2,K6S2,2023-03-22T04:15:00Z,43.98,-124.12,8.0,8.0,0,0,,10.0,29.58071,,,TRUE,TRUE,,,,,,,OVC,200,,,,,,,LIFR,,,,,,,,,,,,SPECI,16.0
K6S2 220355Z AUTO 00000KT 10SM OVC002 09/09 A2958 RMK AO2,K6S2,2023-03-22T03:55:00Z,43.98,-124.12,9.0,9.0,0,0,,10.0,29.58071,,,TRUE,TRUE,,,,,,,OVC,200,,,,,,,LIFR,,,,,,,,,,,,METAR,16.0
K6S2 220335Z AUTO 00000KT 10SM OVC002 09/09 A2958 RMK AO2,K6S2,2023-03-22T03:35:00Z,43.98,-124.12,9.0,9.0,0,0,,10.0,29.58071,,,TRUE,TRUE,,,,,,,OVC,200,,,,,,,LIFR,,,,,,,,,,,,METAR,16.0
K6S2 220315Z AUTO 00000KT 10SM BKN002 10/09 A2957 RMK AO2,K6S2,2023-03-22T03:15:00Z,43.98,-124.12,10.0,9.0,0,0,,10.0,29.568897,,,TRUE,TRUE,,,,,,,BKN,200,,,,,,,LIFR,,,,,,,,,,,,METAR,16.0
K6S2 220255Z AUTO VRB04KT 10SM SCT002 10/09 A2957 RMK AO2,K6S2,2023-03-22T02:55:00Z,43.98,-124.12,10.0,9.0,0,4,,10.0,29.568897,,,TRUE,TRUE,,,,,,,SCT,200,,,,,,,VFR,,,,,,,,,,,,METAR,16.0
K6S2 220235Z AUTO 35005KT 10SM CLR 10/09 A2956 RMK AO2,K6S2,2023-03-22T02:35:00Z,43.98,-124.12,10.0,9.0,350,5,,10.0,29.56004,,,TRUE,TRUE,,,,,,,CLR,,,,,,,,VFR,,,,,,,,,,,,METAR,16.0
K6S2 220215Z AUTO 35006KT 10SM CLR 11/10 A2957 RMK AO2,K6S2,2023-03-22T02:15:00Z,43.98,-124.12,11.0,10.0,350,6,,10.0,29.568897,,,TRUE,TRUE,,,,,,,CLR,,,,,,,,VFR,,,,,,,,,,,,METAR,16.0
K6S2 220155Z AUTO 35007KT 10SM CLR 11/09 A2956 RMK AO2,K6S2,2023-03-22T01:55:00Z,43.98,-124.12,11.0,9.0,350,7,,10.0,29.56004,,,TRUE,TRUE,,,,,,,CLR,,,,,,,,VFR,,,,,,,,,,,,METAR,16.0
K6S2 220135Z AUTO VRB06G13KT 10SM CLR 11/10 A2956 RMK AO2,K6S2,2023-03-22T01:35:00Z,43.98,-124.12,11.0,10.0,0,6,13,10.0,29.56004,,,TRUE,TRUE,,,,,,,CLR,,,,,,,,VFR,,,,,,,,,,,,SPECI,16.0
K6S2 220115Z AUTO 35011G17KT 10SM CLR 11/09 A2956 RMK AO2,K6S2,2023-03-22T01:15:00Z,43.98,-124.12,11.0,9.0,350,11,17,10.0,29.56004,,,TRUE,TRUE,,,,,,,CLR,,,,,,,,VFR,,,,,,,,,,,,METAR,16.0
K6S2 220055Z AUTO 34014G20KT 10SM CLR 12/09 A2956 RMK AO2,K6S2,2023-03-22T00:55:00Z,43.98,-124.12,12.0,9.0,340,14,20,10.0,29.56004,,,TRUE,TRUE,,,,,,,CLR,,,,,,,,VFR,,,,,,,,,,,,METAR,16.0
K6S2 220035Z AUTO 34013G22KT 10SM CLR 12/09 A2956 RMK AO2,K6S2,2023-03-22T00:35:00Z,43.98,-124.12,12.0,9.0,340,13,22,10.0,29.56004,,,TRUE,TRUE,,,,,,,CLR,,,,,,,,VFR,,,,,,,,,,,,METAR,16.0
K6S2 220015Z AUTO 35013G18KT 10SM CLR 13/09 A2957 RMK AO2,K6S2,2023-03-22T00:15:00Z,43.98,-124.12,13.0,9.0,350,13,18,10.0,29.568897,,,TRUE,TRUE,,,,,,,CLR,,,,,,,,VFR,,,,,,,,,,,,METAR,16.0
K6S2 212355Z AUTO 34013G18KT 10SM CLR 14/08 A2957 RMK AO2,K6S2,2023-03-21T23:55:00Z,43.98,-124.12,14.0,8.0,340,13,18,10.0,29.568897,,,TRUE,TRUE,,,,,,,CLR,,,,,,,,VFR,,,,,,,,,,,,METAR,16.0
K6S2 212335Z AUTO 34013KT 10SM CLR 14/08 A2957 RMK AO2,K6S2,2023-03-21T23:35:00Z,43.98,-124.12,14.0,8.0,340,13,,10.0,29.568897,,,TRUE,TRUE,,,,,,,CLR,,,,,,,,VFR,,,,,,,,,,,,SPECI,16.0
K6S2 212315Z AUTO 34014G20KT 10SM CLR 13/08 A2957 RMK AO2,K6S2,2023-03-21T23:15:00Z,43.98,-124.12,13.0,8.0,340,14,20,10.0,29.568897,,,TRUE,TRUE,,,,,,,CLR,,,,,,,,VFR,,,,,,,,,,,,SPECI,16.0
K6S2 212255Z AUTO 34012G18KT 10SM CLR 13/08 A2957 RMK AO2,K6S2,2023-03-21T22:55:00Z,43.98,-124.12,13.0,8.0,340,12,18,10.0,29.568897,,,TRUE,TRUE,,,,,,,CLR,,,,,,,,VFR,,,,,,,,,,,,METAR,16.0
K6S2 212235Z AUTO 34014KT 10SM CLR 13/08 A2958 RMK AO2,K6S2,2023-03-21T22:35:00Z,43.98,-124.12,13.0,8.0,340,14,,10.0,29.58071,,,TRUE,TRUE,,,,,,,CLR,,,,,,,,VFR,,,,,,,,,,,,METAR,16.0
K6S2 212215Z AUTO 34012G20KT 10SM CLR 13/08 A2958 RMK AO2,K6S2,2023-03-21T22:15:00Z,43.98,-124.12,13.0,8.0,340,12,20,10.0,29.58071,,,TRUE,TRUE,,,,,,,CLR,,,,,,,,VFR,,,,,,,,,,,,SPECI,16.0
K6S2 212155Z AUTO 33011G18KT 10SM CLR 13/09 A2959 RMK AO2,K6S2,2023-03-21T21:55:00Z,43.98,-124.12,13.0,9.0,330,11,18,10.0,29.589567,,,TRUE,TRUE,,,,,,,CLR,,,,,,,,VFR,,,,,,,,,,,,METAR,16.0
K6S2 212135Z AUTO 34013G19KT 10SM CLR 12/08 A2960 RMK AO2,K6S2,2023-03-21T21:35:00Z,43.98,-124.12,12.0,8.0,340,13,19,10.0,29.601377,,,TRUE,TRUE,,,,,,,CLR,,,,,,,,VFR,,,,,,,,,,,,METAR,16.0
K6S2 212115Z AUTO 34013KT 10SM CLR 13/08 A2961 RMK AO2,K6S2,2023-03-21T21:15:00Z,43.98,-124.12,13.0,8.0,340,13,,10.0,29.610237,,,TRUE,TRUE,,,,,,,CLR,,,,,,,,VFR,,,,,,,,,,,,METAR,16.0
K6S2 212055Z AUTO 33013KT 10SM CLR 13/08 A2963 RMK AO2,K6S2,2023-03-21T20:55:00Z,43.98,-124.12,13.0,8.0,330,13,,10.0,29.630905,,,TRUE,TRUE,,,,,,,CLR,,,,,,,,VFR,,,,,,,,,,,,METAR,16.0
K6S2 212035Z AUTO 33011KT 10SM CLR 13/08 A2963 RMK AO2,K6S2,2023-03-21T20:35:00Z,43.98,-124.12,13.0,8.0,330,11,,10.0,29.630905,,,TRUE,TRUE,,,,,,,CLR,,,,,,,,VFR,,,,,,,,,,,,METAR,16.0
K6S2 212015Z AUTO VRB06G13KT 290V050 10SM CLR 14/04 A2964 RMK AO2,K6S2,2023-03-21T20:15:00Z,43.98,-124.12,14.0,4.0,0,6,13,10.0,29.639763,,,TRUE,TRUE,,,,,,,CLR,,,,,,,,VFR,,,,,,,,,,,,METAR,16.0
K6S2 211955Z AUTO 00000KT 10SM CLR 13/05 A2965 RMK AO2,K6S2,2023-03-21T19:55:00Z,43.98,-124.12,13.0,5.0,0,0,,10.0,29.648623,,,TRUE,TRUE,,,,,,,CLR,,,,,,,,VFR,,,,,,,,,,,,METAR,16.0
K6S2 211935Z AUTO VRB06KT 10SM CLR 13/05 A2965 RMK AO2,K6S2,2023-03-21T19:35:00Z,43.98,-124.12,13.0,5.0,0,6,,10.0,29.648623,,,TRUE,TRUE,,,,,,,CLR,,,,,,,,VFR,,,,,,,,,,,,SPECI,16.0
K6S2 211915Z AUTO 00000KT 10SM CLR 12/06 A2966 RMK AO2,K6S2,2023-03-21T19:15:00Z,43.98,-124.12,12.0,6.0,0,0,,10.0,29.660433,,,TRUE,TRUE,,,,,,,CLR,,,,,,,,VFR,,,,,,,,,,,,METAR,16.0
K6S2 211855Z AUTO VRB04KT 10SM CLR 11/06 A2966 RMK AO2,K6S2,2023-03-21T18:55:00Z,43.98,-124.12,11.0,6.0,0,4,,10.0,29.660433,,,TRUE,TRUE,,,,,,,CLR,,,,,,,,VFR,,,,,,,,,,,,METAR,16.0
K6S2 211835Z AUTO VRB04G10KT 10SM CLR 11/06 A2967 RMK AO2,K6S2,2023-03-21T18:35:00Z,43.98,-124.12,11.0,6.0,0,4,10,10.0,29.66929,,,TRUE,TRUE,,,,,,,CLR,,,,,,,,VFR,,,,,,,,,,,,SPECI,16.0
K6S2 211815Z AUTO 10008KT 070V130 10SM CLR 10/06 A2967 RMK AO2,K6S2,2023-03-21T18:15:00Z,43.98,-124.12,10.0,6.0,100,8,,10.0,29.66929,,,TRUE,TRUE,,,,,,,CLR,,,,,,,,VFR,,,,,,,,,,,,SPECI,16.0
K6S2 211755Z AUTO VRB03G11KT 10SM CLR 09/06 A2968 RMK AO2,K6S2,2023-03-21T17:55:00Z,43.98,-124.12,9.0,6.0,0,3,11,10.0,29.681103,,,TRUE,TRUE,,,,,,,CLR,,,,,,,,VFR,,,,,,,,,,,,METAR,16.0
K6S2 211735Z AUTO 07007G14KT 010V120 10SM CLR 09/06 A2968 RMK AO2,K6S2,2023-03-21T17:35:00Z,43.98,-124.12,9.0,6.0,70,7,14,10.0,29.681103,,,TRUE,TRUE,,,,,,,CLR,,,,,,,,VFR,,,,,,,,,,,,METAR,16.0
K6S2 211715Z AUTO 09009KT 050V120 10SM CLR 08/05 A2968 RMK AO2,K6S2,2023-03-21T17:15:00Z,43.98,-124.12,8.0,5.0,90,9,,10.0,29.681103,,,TRUE,TRUE,,,,,,,CLR,,,,,,,,VFR,,,,,,,,,,,,SPECI,16.0
K6S2 211655Z AUTO VRB06KT 10SM CLR 08/05 A2969 RMK AO2,K6S2,2023-03-21T16:55:00Z,43.98,-124.12,8.0,5.0,0,6,,10.0,29.68996,,,TRUE,TRUE,,,,,,,CLR,,,,,,,,VFR,,,,,,,,,,,,METAR,16.0
K6S2 211635Z AUTO VRB04G14KT 10SM CLR 07/05 A2969 RMK AO2,K6S2,2023-03-21T16:35:00Z,43.98,-124.12,7.0,5.0,0,4,14,10.0,29.68996,,,TRUE,TRUE,,,,,,,CLR,,,,,,,,VFR,,,,,,,,,,,,METAR,16.0
K6S2 211615Z AUTO VRB06G12KT 10SM CLR 06/05 A2969 RMK AO2,K6S2,2023-03-21T16:15:00Z,43.98,-124.12,6.0,5.0,0,6,12,10.0,29.68996,,,TRUE,TRUE,,,,,,,CLR,,,,,,,,VFR,,,,,,,,,,,,SPECI,16.0
K6S2 211555Z AUTO 09007G12KT 040V150 10SM CLR 05/05 A2970 RMK AO2,K6S2,2023-03-21T15:55:00Z,43.98,-124.12,5.0,5.0,90,7,12,10.0,29.698818,,,TRUE,TRUE,,,,,,,CLR,,,,,,,,VFR,,,,,,,,,,,,METAR,16.0
K6S2 211535Z AUTO VRB05G12KT 10SM CLR 05/04 A2971 RMK AO2,K6S2,2023-03-21T15:35:00Z,43.98,-124.12,5.0,4.0,0,5,12,10.0,29.71063,,,TRUE,TRUE,,,,,,,CLR,,,,,,,,VFR,,,,,,,,,,,,SPECI,16.0
K6S2 211515Z AUTO VRB06G13KT 10SM CLR 04/04 A2971 RMK AO2,K6S2,2023-03-21T15:15:00Z,43.98,-124.12,4.0,4.0,0,6,13,10.0,29.71063,,,TRUE,TRUE,,,,,,,CLR,,,,,,,,VFR,,,,,,,,,,,,SPECI,16.0
K6S2 211455Z AUTO VRB04KT 10SM CLR 04/04 A2972 RMK AO2,K6S2,2023-03-21T14:55:00Z,43.98,-124.12,4.0,4.0,0,4,,10.0,29.719488,,,TRUE,TRUE,,,,,,,CLR,,,,,,,,VFR,,,,,,,,,,,,SPECI,16.0
K6S2 211435Z AUTO 00000KT 10SM CLR 02/02 A2973 RMK AO2,K6S2,2023-03-21T14:35:00Z,43.98,-124.12,2.0,2.0,0,0,,10.0,29.731298,,,TRUE,TRUE,,,,,,,CLR,,,,,,,,VFR,,,,,,,,,,,,METAR,16.0
K6S2 211415Z AUTO 00000KT 10SM CLR 02/02 A2973 RMK AO2,K6S2,2023-03-21T14:15:00Z,43.98,-124.12,2.0,2.0,0,0,,10.0,29.731298,,,TRUE,TRUE,,,,,,,CLR,,,,,,,,VFR,,,,,,,,,,,,SPECI,16.0
K6S2 211355Z AUTO VRB03KT 10SM CLR 02/02 A2974 RMK AO2,K6S2,2023-03-21T13:55:00Z,43.98,-124.12,2.0,2.0,0,3,,10.0,29.740158,,,TRUE,TRUE,,,,,,,CLR,,,,,,,,VFR,,,,,,,,,,,,METAR,16.0
K6S2 211335Z AUTO 00000KT 10SM CLR 01/01 A2974 RMK AO2,K6S2,2023-03-21T13:35:00Z,43.98,-124.12,1.0,1.0,0,0,,10.0,29.740158,,,TRUE,TRUE,,,,,,,CLR,,,,,,,,VFR,,,,,,,,,,,,SPECI,16.0
K6S2 211315Z AUTO 00000KT 10SM CLR 02/02 A2975 RMK AO2,K6S2,2023-03-21T13:15:00Z,43.98,-124.12,2.0,2.0,0,0,,10.0,29.749016,,,TRUE,TRUE,,,,,,,CLR,,,,,,,,VFR,,,,,,,,,,,,SPECI,16.0
K6S2 211255Z AUTO 00000KT 10SM CLR 01/01 A2976 RMK AO2,K6S2,2023-03-21T12:55:00Z,43.98,-124.12,1.0,1.0,0,0,,10.0,29.760826,,,TRUE,TRUE,,,,,,,CLR,,,,,,,,VFR,,,,,,,,,,,,METAR,16.0
K6S2 211235Z AUTO 00000KT 10SM CLR 01/01 A2976 RMK AO2,K6S2,2023-03-21T12:35:00Z,43.98,-124.12,1.0,1.0,0,0,,10.0,29.760826,,,TRUE,TRUE,,,,,,,CLR,,,,,,,,VFR,,,,,,,,,,,,SPECI,16.0
K6S2 211215Z AUTO 00000KT 10SM CLR 01/01 A2976 RMK AO2,K6S2,2023-03-21T12:15:00Z,43.98,-124.12,1.0,1.0,0,0,,10.0,29.760826,,,TRUE,TRUE,,,,,,,CLR,,,,,,,,VFR,,,,,,,,,,,,METAR,16.0
K6S2 211155Z AUTO 00000KT 10SM CLR 01/01 A2976 RMK AO2,K6S2,2023-03-21T11:55:00Z,43.98,-124.12,1.0,1.0,0,0,,10.0,29.760826,,,TRUE,TRUE,,,,,,,CLR,,,,,,,,VFR,,,,,,,,,,,,METAR,16.0
K6S2 211135Z AUTO 00000KT 10SM CLR 01/01 A2976 RMK AO2,K6S2,2023-03-21T11:35:00Z,43.98,-124.12,1.0,1.0,0,0,,10.0,29.760826,,,TRUE,TRUE,,,,,,,CLR,,,,,,,,VFR,,,,,,,,,,,,SPECI,16.0
K6S2 211115Z AUTO 00000KT 10SM CLR 02/02 A2976 RMK AO2,K6S2,2023-03-21T11:15:00Z,43.98,-124.12,2.0,2.0,0,0,,10.0,29.760826,,,TRUE,TRUE,,,,,,,CLR,,,,,,,,VFR,,,,,,,,,,,,METAR,16.0
K6S2 211055Z AUTO 00000KT 10SM CLR 02/02 A2976 RMK AO2,K6S2,2023-03-21T10:55:00Z,43.98,-124.12,2.0,2.0,0,0,,10.0,29.760826,,,TRUE,TRUE,,,,,,,CLR,,,,,,,,VFR,,,,,,,,,,,,METAR,16.0
K6S2 211035Z AUTO 00000KT 10SM CLR 02/02 A2977 RMK AO2,K6S2,2023-03-21T10:35:00Z,43.98,-124.12,2.0,2.0,0,0,,10.0,29.769686,,,TRUE,TRUE,,,,,,,CLR,,,,,,,,VFR,,,,,,,,,,,,SPECI,16.0
K6S2 211015Z AUTO 00000KT 10SM CLR 02/02 A2978 RMK AO2,K6S2,2023-03-21T10:15:00Z,43.98,-124.12,2.0,2.0,0,0,,10.0,29.778543,,,TRUE,TRUE,,,,,,,CLR,,,,,,,,VFR,,,,,,,,,,,,METAR,16.0
K6S2 210955Z AUTO 00000KT 10SM CLR 03/03 A2978 RMK AO2,K6S2,2023-03-21T09:55:00Z,43.98,-124.12,3.0,3.0,0,0,,10.0,29.778543,,,TRUE,TRUE,,,,,,,CLR,,,,,,,,VFR,,,,,,,,,,,,METAR,16.0
K6S2 210935Z AUTO 00000KT 10SM FEW006 03/03 A2979 RMK AO2,K6S2,2023-03-21T09:35:00Z,43.98,-124.12,3.0,3.0,0,0,,10.0,29.790354,,,TRUE,TRUE,,,,,,,FEW,600,,,,,,,VFR,,,,,,,,,,,,METAR,16.0
K6S2 210915Z AUTO 00000KT 10SM FEW006 03/03 A2981 RMK AO2,K6S2,2023-03-21T09:15:00Z,43.98,-124.12,3.0,3.0,0,0,,10.0,29.811024,,,TRUE,TRUE,,,,,,,FEW,600,,,,,,,VFR,,,,,,,,,,,,SPECI,16.0
K6S2 210855Z AUTO 00000KT 10SM CLR 03/03 A2981 RMK AO2,K6S2,2023-03-21T08:55:00Z,43.98,-124.12,3.0,3.0,0,0,,10.0,29.811024,,,TRUE,TRUE,,,,,,,CLR,,,,,,,,VFR,,,,,,,,,,,,METAR,16.0
K6S2 210835Z AUTO 00000KT 10SM CLR 03/03 A2982 RMK AO2,K6S2,2023-03-21T08:35:00Z,43.98,-124.12,3.0,3.0,0,0,,10.0,29.819881,,,TRUE,TRUE,,,,,,,CLR,,,,,,,,VFR,,,,,,,,,,,,SPECI,16.0
K6S2 210815Z AUTO 00000KT 10SM CLR 02/02 A2982 RMK AO2,K6S2,2023-03-21T08:15:00Z,43.98,-124.12,2.0,2.0,0,0,,10.0,29.819881,,,TRUE,TRUE,,,,,,,CLR,,,,,,,,VFR,,,,,,,,,,,,METAR,16.0
K6S2 210755Z AUTO 00000KT 10SM CLR 02/02 A2983 RMK AO2,K6S2,2023-03-21T07:55:00Z,43.98,-124.12,2.0,2.0,0,0,,10.0,29.828741,,,TRUE,TRUE,,,,,,,CLR,,,,,,,,VFR,,,,,,,,,,,,METAR,16.0
K6S2 210735Z AUTO 00000KT 10SM CLR 02/02 A2983 RMK AO2,K6S2,2023-03-21T07:35:00Z,43.98,-124.12,2.0,2.0,0,0,,10.0,29.828741,,,TRUE,TRUE,,,,,,,CLR,,,,,,,,VFR,,,,,,,,,,,,SPECI,16.0
K6S2 210715Z AUTO 00000KT 10SM CLR 03/03 A2984 RMK AO2,K6S2,2023-03-21T07:15:00Z,43.98,-124.12,3.0,3.0,0,0,,10.0,29.840551,,,TRUE,TRUE,,,,,,,CLR,,,,,,,,VFR,,,,,,,,,,,,METAR,16.0
K6S2 210655Z AUTO 00000KT 10SM CLR 03/03 A2984 RMK AO2,K6S2,2023-03-21T06:55:00Z,43.98,-124.12,3.0,3.0,0,0,,10.0,29.840551,,,TRUE,TRUE,,,,,,,CLR,,,,,,,,VFR,,,,,,,,,,,,METAR,16.0
K6S2 210635Z AUTO 00000KT 10SM CLR 03/03 A2985 RMK AO2,K6S2,2023-03-21T06:35:00Z,43.98,-124.12,3.0,3.0,0,0,,10.0,29.84941,,,TRUE,TRUE,,,,,,,CLR,,,,,,,,VFR,,,,,,,,,,,,SPECI,16.0
K6S2 210615Z AUTO 00000KT 10SM CLR 03/03 A2984 RMK AO2,K6S2,2023-03-21T06:15:00Z,43.98,-124.12,3.0,3.0,0,0,,10.0,29.840551,,,TRUE,TRUE,,,,,,,CLR,,,,,,,,VFR,,,,,,,,,,,,METAR,16.0
K6S2 210555Z AUTO 00000KT 9SM CLR 03/03 A2985 RMK AO2,K6S2,2023-03-21T05:55:00Z,43.98,-124.12,3.0,3.0,0,0,,9.0,29.84941,,,TRUE,TRUE,,,,,,,CLR,,,,,,,,VFR,,,,,,,,,,,,METAR,16.0
K6S2 210535Z AUTO 00000KT 10SM CLR 03/03 A2984 RMK AO2,K6S2,2023-03-21T05:35:00Z,43.98,-124.12,3.0,3.0,0,0,,10.0,29.840551,,,TRUE,TRUE,,,,,,,CLR,,,,,,,,VFR,,,,,,,,,,,,METAR,16.0
K6S2 210515Z AUTO 00000KT 10SM CLR 04/04 A2985 RMK AO2,K6S2,2023-03-21T05:15:00Z,43.98,-124.12,4.0,4.0,0,0,,10.0,29.84941,,,TRUE,TRUE,,,,,,,CLR,,,,,,,,VFR,,,,,,,,,,,,SPECI,16.0
K6S2 210455Z AUTO 00000KT 10SM CLR 04/04 A2985 RMK AO2,K6S2,2023-03-21T04:55:00Z,43.98,-124.12,4.0,4.0,0,0,,10.0,29.84941,,,TRUE,TRUE,,,,,,,CLR,,,,,,,,VFR,,,,,,,,,,,,METAR,16.0
K6S2 210435Z AUTO 00000KT 10SM CLR 04/04 A2985 RMK AO2,K6S2,2023-03-21T04:35:00Z,43.98,-124.12,4.0,4.0,0,0,,10.0,29.84941,,,TRUE,TRUE,,,,,,,CLR,,,,,,,,VFR,,,,,,,,,,,,METAR,16.0
K6S2 210415Z AUTO 00000KT 10SM CLR 04/04 A2985 RMK AO2,K6S2,2023-03-21T04:15:00Z,43.98,-124.12,4.0,4.0,0,0,,10.0,29.84941,,,TRUE,TRUE,,,,,,,CLR,,,,,,,,VFR,,,,,,,,,,,,METAR,16.0
K6S2 210355Z AUTO 00000KT 10SM CLR 05/05 A2985 RMK AO2,K6S2,2023-03-21T03:55:00Z,43.98,-124.12,5.0,5.0,0,0,,10.0,29.84941,,,TRUE,TRUE,,,,,,,CLR,,,,,,,,VFR,,,,,,,,,,,,METAR,16.0
K6S2 210335Z AUTO 00000KT 10SM SCT023 05/05 A2985 RMK AO2,K6S2,2023-03-21T03:35:00Z,43.98,-124.12,5.0,5.0,0,0,,10.0,29.84941,,,TRUE,TRUE,,,,,,,SCT,2300,,,,,,,VFR,,,,,,,,,,,,SPECI,16.0
K6S2 210315Z AUTO 00000KT 10SM BKN025 05/05 A2986 RMK AO2,K6S2,2023-03-21T03:15:00Z,43.98,-124.12,5.0,5.0,0,0,,10.0,29.861221,,,TRUE,TRUE,,,,,,,BKN,2500,,,,,,,MVFR,,,,,,,,,,,,METAR,16.0
K6S2 210255Z AUTO 00000KT 10SM BKN026 05/05 A2986 RMK AO2,K6S2,2023-03-21T02:55:00Z,43.98,-124.12,5.0,5.0,0,0,,10.0,29.861221,,,TRUE,TRUE,,,,,,,BKN,2600,,,,,,,MVFR,,,,,,,,,,,,METAR,16.0
K6S2 210235Z AUTO 00000KT 10SM FEW027 06/06 A2986 RMK AO2,K6S2,2023-03-21T02:35:00Z,43.98,-124.12,6.0,6.0,0,0,,10.0,29.861221,,,TRUE,TRUE,,,,,,,FEW,2700,,,,,,,VFR,,,,,,,,,,,,METAR,16.0
K6S2 210215Z AUTO 00000KT 10SM FEW046 07/06 A2986 RMK AO2,K6S2,2023-03-21T02:15:00Z,43.98,-124.12,7.0,6.0,0,0,,10.0,29.861221,,,TRUE,TRUE,,,,,,,FEW,4600,,,,,,,VFR,,,,,,,,,,,,SPECI,16.0
K6S2 210155Z AUTO 00000KT 10SM BKN046 08/05 A2987 RMK AO2,K6S2,2023-03-21T01:55:00Z,43.98,-124.12,8.0,5.0,0,0,,10.0,29.870079,,,TRUE,TRUE,,,,,,,BKN,4600,,,,,,,VFR,,,,,,,,,,,,METAR,16.0
K6S2 210135Z AUTO VRB04KT 10SM FEW028 BKN047 08/05 A2987 RMK AO2,K6S2,2023-03-21T01:35:00Z,43.98,-124.12,8.0,5.0,0,4,,10.0,29.870079,,,TRUE,TRUE,,,,,,,FEW,2800,BKN,4700,,,,,VFR,,,,,,,,,,,,METAR,16.0
K6S2 210115Z AUTO 20004KT 10SM SCT047 09/04 A2987 RMK AO2,K6S2,2023-03-21T01:15:00Z,43.98,-124.12,9.0,4.0,200,4,,10.0,29.870079,,,TRUE,TRUE,,,,,,,SCT,4700,,,,,,,VFR,,,,,,,,,,,,SPECI,16.0
K6S2 210055Z AUTO 20006KT 10SM CLR 09/04 A2987 RMK AO2,K6S2,2023-03-21T00:55:00Z,43.98,-124.12,9.0,4.0,200,6,,10.0,29.870079,,,TRUE,TRUE,,,,,,,CLR,,,,,,,,VFR,,,,,,,,,,,,METAR,16.0
K6S2 210035Z AUTO VRB05KT 10SM FEW031 FEW037 09/05 A2987 RMK AO2,K6S2,2023-03-21T00:35:00Z,43.98,-124.12,9.0,5.0,0,5,,10.0,29.870079,,,TRUE,TRUE,,,,,,,FEW,3100,FEW,3700,,,,,VFR,,,,,,,,,,,,METAR,16.0
K6S2 210015Z AUTO 21006G13KT 10SM SCT029 SCT034 09/05 A2988 RMK AO2,K6S2,2023-03-21T00:15:00Z,43.98,-124.12,9.0,5.0,210,6,13,10.0,29.878937,,,TRUE,TRUE,,,,,,,SCT,2900,SCT,3400,,,,,VFR,,,,,,,,,,,,SPECI,16.0
K6S2 202355Z AUTO 21006KT 10SM SCT029 SCT039 BKN060 09/05 A2988 RMK AO2,K6S2,2023-03-20T23:55:00Z,43.98,-124.12,9.0,5.0,210,6,,10.0,29.878937,,,TRUE,TRUE,,,,,,,SCT,2900,SCT,3900,BKN,6000,,,VFR,,,,,,,,,,,,METAR,16.0
K6S2 202335Z AUTO 22007KT 10SM SCT050 BKN060 10/06 A2988 RMK AO2,K6S2,2023-03-20T23:35:00Z,43.98,-124.12,10.0,6.0,220,7,,10.0,29.878937,,,TRUE,TRUE,,,,,,,SCT,5000,BKN,6000,,,,,VFR,,,,,,,,,,,,METAR,16.0
K6S2 202315Z AUTO 23008KT 10SM FEW037 SCT043 BKN049 09/05 A2988 RMK AO2,K6S2,2023-03-20T23:15:00Z,43.98,-124.12,9.0,5.0,230,8,,10.0,29.878937,,,TRUE,TRUE,,,,,,,FEW,3700,SCT,4300,BKN,4900,,,VFR,,,,,,,,,,,,METAR,16.0
K6S2 202255Z AUTO 21008G18KT 190V260 9SM UP FEW024 BKN038 OVC044 08/06 A2989 RMK AO2,K6S2,2023-03-20T22:55:00Z,43.98,-124.12,8.0,6.0,210,8,18,9.0,29.890747,,,TRUE,TRUE,,,,,,UP,FEW,2400,BKN,3800,OVC,4400,,,VFR,,,,,,,,,,,,METAR,16.0
K6S2 202235Z AUTO VRB06KT 10SM FEW024 SCT030 OVC041 09/07 A2988 RMK AO2,K6S2,2023-03-20T22:35:00Z,43.98,-124.12,9.0,7.0,0,6,,10.0,29.878937,,,TRUE,TRUE,,,,,,,FEW,2400,SCT,3000,OVC,4100,,,VFR,,,,,,,,,,,,METAR,16.0
K6S2 202215Z AUTO 22008G14KT 10SM FEW025 BKN043 OVC055 09/06 A2988 RMK AO2,K6S2,2023-03-20T22:15:00Z,43.98,-124.12,9.0,6.0,220,8,14,10.0,29.878937,,,TRUE,TRUE,,,,,,,FEW,2500,BKN,4300,OVC,5500,,,VFR,,,,,,,,,,,,METAR,16.0
K6S2 202155Z AUTO 22008G15KT 10SM FEW033 SCT049 OVC055 10/07 A2988 RMK AO2 P0001,K6S2,2023-03-20T21:55:00Z,43.98,-124.12,10.0,7.0,220,8,15,10.0,29.878937,,,TRUE,TRUE,,,,,,,FEW,3300,SCT,4900,OVC,5500,,,VFR,,,,,,0.01,,,,,,SPECI,16.0
K6S2 202135Z AUTO VRB05G11KT 10SM UP FEW015 FEW025 BKN041 09/08 A2989 RMK AO2,K6S2,2023-03-20T21:35:00Z,43.98,-124.12,9.0,8.0,0,5,11,10.0,29.890747,,,TRUE,TRUE,,,,,,UP,FEW,1500,FEW,2500,BKN,4100,,,VFR,,,,,,,,,,,,METAR,16.0
K6S2 202115Z AUTO 21009KT 190V250 9SM FEW019 FEW026 SCT043 08/08 A2989 RMK AO2,K6S2,2023-03-20T21:15:00Z,43.98,-124.12,8.0,8.0,210,9,,9.0,29.890747,,,TRUE,TRUE,,,,,,,FEW,1900,FEW,2600,SCT,4300,,,VFR,,,,,,,,,,,,METAR,16.0
K6S2 202055Z AUTO VRB07KT 5SM -RA BR SCT027 07/07 A2989 RMK AO2 P0001,K6S2,2023-03-20T20:55:00Z,43.98,-124.12,7.0,7.0,0,7,,5.0,29.890747,,,TRUE,TRUE,,,,,,-RA BR,SCT,2700,,,,,,,MVFR,,,,,,0.01,,,,,,METAR,16.0
K6S2 202035Z AUTO 22008G13KT 190V260 3SM -RA BR FEW016 FEW022 BKN027 07/07 A2989 RMK AO2,K6S2,2023-03-20T20:35:00Z,43.98,-124.12,7.0,7.0,220,8,13,3.0,29.890747,,,TRUE,TRUE,,,,,,-RA BR,FEW,1600,FEW,2200,BKN,2700,,,MVFR,,,,,,,,,,,,METAR,16.0
K6S2 202015Z AUTO 21008G16KT 6SM -RA BR FEW009 SCT015 BKN026 07/07 A2989 RMK AO2,K6S2,2023-03-20T20:15:00Z,43.98,-124.12,7.0,7.0,210,8,16,6.0,29.890747,,,TRUE,TRUE,,,,,,-RA BR,FEW,900,SCT,1500,BKN,2600,,,MVFR,,,,,,,,,,,,SPECI,16.0
K6S2 201955Z AUTO 20011G19KT 3SM -RA BR BKN013 BKN018 07/07 A2989 RMK AO2 P0003,K6S2,2023-03-20T19:55:00Z,43.98,-124.12,7.0,7.0,200,11,19,3.0,29.890747,,,TRUE,TRUE,,,,,,-RA BR,BKN,1300,BKN,1800,,,,,MVFR,,,,,,0.03,,,,,,METAR,16.0
K6S2 201935Z AUTO 20013G20KT 2SM -RA BR SCT013 BKN020 07/07 A2988 RMK AO2 VIS 1 1/4V5,K6S2,2023-03-20T19:35:00Z,43.98,-124.12,7.0,7.0,200,13,20,2.0,29.878937,,,TRUE,TRUE,,,,,,-RA BR,SCT,1300,BKN,2000,,,,,IFR,,,,,,,,,,,,METAR,16.0
K6S2 201915Z AUTO 20013G19KT 8SM UP FEW012 BKN021 07/07 A2988 RMK AO2,K6S2,2023-03-20T19:15:00Z,43.98,-124.12,7.0,7.0,200,13,19,8.0,29.878937,,,TRUE,TRUE,,,,,,UP,FEW,1200,BKN,2100,,,,,MVFR,,,,,,,,,,,,METAR,16.0
K6S2 201855Z AUTO 20012G21KT 10SM FEW007 SCT012 BKN020 07/07 A2987 RMK AO2,K6S2,2023-03-20T18:55:00Z,43.98,-124.12,7.0,7.0,200,12,21,10.0,29.870079,,,TRUE,TRUE,,,,,,,FEW,700,SCT,1200,BKN,2000,,,MVFR,,,,,,,,,,,,METAR,16.0
K6S2 201835Z AUTO 20012G21KT 9SM SCT010 BKN013 BKN019 07/07 A2987 RMK AO2,K6S2,2023-03-20T18:35:00Z,43.98,-124.12,7.0,7.0,200,12,21,9.0,29.870079,,,TRUE,TRUE,,,,,,,SCT,1000,BKN,1300,BKN,1900,,,MVFR,,,,,,,,,,,,METAR,16.0
K6S2 201815Z AUTO 20012G23KT 8SM -RA OVC012 07/07 A2986 RMK AO2,K6S2,2023-03-20T18:15:00Z,43.98,-124.12,7.0,7.0,200,12,23,8.0,29.861221,,,TRUE,TRUE,,,,,,-RA,OVC,1200,,,,,,,MVFR,,,,,,,,,,,,METAR,16.0
K6S2 201755Z AUTO 20014G21KT 8SM BKN012 OVC017 07/07 A2986 RMK AO2 P0003,K6S2,2023-03-20T17:55:00Z,43.98,-124.12,7.0,7.0,200,14,21,8.0,29.861221,,,TRUE,TRUE,,,,,,,BKN,1200,OVC,1700,,,,,MVFR,,,,,,0.03,,,,,,METAR,16.0
K6S2 201735Z AUTO 20014G23KT 3SM -RA BR SCT013 SCT020 BKN025 07/07 A2985 RMK AO2,K6S2,2023-03-20T17:35:00Z,43.98,-124.12,7.0,7.0,200,14,23,3.0,29.84941,,,TRUE,TRUE,,,,,,-RA BR,SCT,1300,SCT,2000,BKN,2500,,,MVFR,,,,,,,,,,,,METAR,16.0
K6S2 201715Z AUTO 21013G20KT 2 1/2SM -RA BR BKN013 BKN021 08/08 A2984 RMK AO2,K6S2,2023-03-20T17:15:00Z,43.98,-124.12,8.0,8.0,210,13,20,2.5,29.840551,,,TRUE,TRUE,,,,,,-RA BR,BKN,1300,BKN,2100,,,,,IFR,,,,,,,,,,,,METAR,16.0
K6S2 201655Z AUTO 21013G24KT 180V240 9SM -RA BKN012 BKN020 BKN025 08/08 A2983 RMK AO2,K6S2,2023-03-20T16:55:00Z,43.98,-124.12,8.0,8.0,210,13,24,9.0,29.828741,,,TRUE,TRUE,,,,,,-RA,BKN,1200,BKN,2000,BKN,2500,,,MVFR,,,,,,,,,,,,SPECI,16.0
K6S2 201635Z AUTO 21012G26KT 180V240 7SM -RA SCT010 SCT014 BKN020 07/07 A2983 RMK AO2,K6S2,2023-03-20T16:35:00Z,43.98,-124.12,7.0,7.0,210,12,26,7.0,29.828741,,,TRUE,TRUE,,,,,,-RA,SCT,1000,SCT,1400,BKN,2000,,,MVFR,,,,,,,,,,,,METAR,16.0
K6S2 201615Z AUTO 21014G21KT 5SM UP BR BKN010 OVC015 08/08 A2982 RMK AO2,K6S2,2023-03-20T16:15:00Z,43.98,-124.12,8.0,8.0,210,14,21,5.0,29.819881,,,TRUE,TRUE,,,,,,BR UP,BKN,1000,OVC,1500,,,,,MVFR,,,,,,,,,,,,SPECI,16.0
K6S2 201555Z AUTO 21012G25KT 180V250 5SM UP BR BKN007 OVC012 08/08 A2981 RMK AO2,K6S2,2023-03-20T15:55:00Z,43.98,-124.12,8.0,8.0,210,12,25,5.0,29.811024,,,TRUE,TRUE,,,,,,BR UP,BKN,700,OVC,1200,,,,,IFR,,,,,,,,,,,,METAR,16.0
K6S2 201535Z AUTO 21012G23KT 190V250 9SM BKN007 OVC015 08/08 A2980 RMK AO2,K6S2,2023-03-20T15:35:00Z,43.98,-124.12,8.0,8.0,210,12,23,9.0,29.799213,,,TRUE,TRUE,,,,,,,BKN,700,OVC,1500,,,,,IFR,,,,,,,,,,,,METAR,16.0
K6S2 201515Z AUTO 22011G19KT 190V250 3SM UP BR BKN007 OVC016 08/08 A2979 RMK AO2,K6S2,2023-03-20T15:15:00Z,43.98,-124.12,8.0,8.0,220,11,19,3.0,29.790354,,,TRUE,TRUE,,,,,,BR UP,BKN,700,OVC,1600,,,,,IFR,,,,,,,,,,,,METAR,16.0
K6S2 201455Z AUTO 22009G19KT 6SM UP BR SCT004 BKN009 OVC015 08/08 A2978 RMK AO2 P0004,K6S2,2023-03-20T14:55:00Z,43.98,-124.12,8.0,8.0,220,9,19,6.0,29.778543,,,TRUE,TRUE,,,,,,BR UP,SCT,400,BKN,900,OVC,1500,,,IFR,,,,,,0.04,,,,,,METAR,16.0
K6S2 201435Z AUTO 22009G17KT 1 1/2SM -RA BR OVC004 08/08 A2977 RMK AO2 VIS 1/2V2 1/2,K6S2,2023-03-20T14:35:00Z,43.98,-124.12,8.0,8.0,220,9,17,1.5,29.769686,,,TRUE,TRUE,,,,,,-RA BR,OVC,400,,,,,,,LIFR,,,,,,,,,,,,METAR,16.0
K6S2 201415Z AUTO 22010G19KT 5SM UP BR BKN005 OVC010 08/08 A2977 RMK AO2,K6S2,2023-03-20T14:15:00Z,43.98,-124.12,8.0,8.0,220,10,19,5.0,29.769686,,,TRUE,TRUE,,,,,,BR UP,BKN,500,OVC,1000,,,,,IFR,,,,,,,,,,,,METAR,16.0
K6S2 201355Z AUTO 22008G15KT 180V260 4SM -RA BR BKN008 OVC013 08/08 A2976 RMK AO2 P0003,K6S2,2023-03-20T13:55:00Z,43.98,-124.12,8.0,8.0,220,8,15,4.0,29.760826,,,TRUE,TRUE,,,,,,-RA BR,BKN,800,OVC,1300,,,,,IFR,,,,,,0.03,,,,,,METAR,16.0
K6S2 201335Z AUTO 23010G16KT 200V270 9SM SCT007 BKN010 OVC013 08/08 A2975 RMK AO2,K6S2,2023-03-20T13:35:00Z,43.98,-124.12,8.0,8.0,230,10,16,9.0,29.749016,,,TRUE,TRUE,,,,,,,SCT,700,BKN,1000,OVC,1300,,,MVFR,,,,,,,,,,,,METAR,16.0
K6S2 201315Z AUTO 24007G13KT 200V280 3SM -RA BR BKN004 BKN008 OVC037 08/08 A2975 RMK AO2,K6S2,2023-03-20T13:15:00Z,43.98,-124.12,8.0,8.0,240,7,13,3.0,29.749016,,,TRUE,TRUE,,,,,,-RA BR,BKN,400,BKN,800,OVC,3700,,,LIFR,,,,,,,,,,,,SPECI,16.0
K6S2 201255Z AUTO VRB06G13KT 200V260 3SM RA BR SCT007 BKN020 OVC036 08/08 A2974 RMK AO2 P0003,K6S2,2023-03-20T12:55:00Z,43.98,-124.12,8.0,8.0,0,6,13,3.0,29.740158,,,TRUE,TRUE,,,,,,RA BR,SCT,700,BKN,2000,OVC,3600,,,MVFR,,,,,,0.03,,,,,,SPECI,16.0
K6S2 201235Z AUTO 22009KT 9SM FEW012 BKN019 OVC025 08/08 A2973 RMK AO2,K6S2,2023-03-20T12:35:00Z,43.98,-124.12,8.0,8.0,220,9,,9.0,29.731298,,,TRUE,TRUE,,,,,,,FEW,1200,BKN,1900,OVC,2500,,,MVFR,,,,,,,,,,,,METAR,16.0
K6S2 201215Z AUTO 21009G14KT 8SM UP SCT009 BKN013 OVC022 08/08 A2972 RMK AO2,K6S2,2023-03-20T12:15:00Z,43.98,-124.12,8.0,8.0,210,9,14,8.0,29.719488,,,TRUE,TRUE,,,,,,UP,SCT,900,BKN,1300,OVC,2200,,,MVFR,,,,,,,,,,,,METAR,16.0
K6S2 201155Z AUTO 20011G17KT 10SM BKN004 BKN011 OVC036 08/08 A2971 RMK AO2 P0001,K6S2,2023-03-20T11:55:00Z,43.98,-124.12,8.0,8.0,200,11,17,10.0,29.71063,,,TRUE,TRUE,,,,,,,BKN,400,BKN,1100,OVC,3600,,,LIFR,,,,,,0.01,,,,,,METAR,16.0
K6S2 201135Z AUTO 20013G19KT 4SM -RA BR OVC004 08/08 A2970 RMK AO2,K6S2,2023-03-20T11:35:00Z,43.98,-124.12,8.0,8.0,200,13,19,4.0,29.698818,,,TRUE,TRUE,,,,,,-RA BR,OVC,400,,,,,,,LIFR,,,,,,,,,,,,METAR,16.0
K6S2 201115Z AUTO 19012G21KT 5SM -RA BR BKN006 OVC009 08/08 A2970 RMK AO2,K6S2,2023-03-20T11:15:00Z,43.98,-124.12,8.0,8.0,190,12,21,5.0,29.698818,,,TRUE,TRUE,,,,,,-RA BR,BKN,600,OVC,900,,,,,IFR,,,,,,,,,,,,SPECI,16.0
K6S2 201055Z AUTO 20012G20KT 7SM OVC007 08/08 A2970 RMK AO2 P0001,K6S2,2023-03-20T10:55:00Z,43.98,-124.12,8.0,8.0,200,12,20,7.0,29.698818,,,TRUE,TRUE,,,,,,,OVC,700,,,,,,,IFR,,,,,,0.01,,,,,,METAR,16.0
K6S2 201035Z AUTO 20011G18KT 9SM BKN008 OVC012 08/08 A2970 RMK AO2 LTG DSNT SE,K6S2,2023-03-20T10:35:00Z,43.98,-124.12,8.0,8.0,200,11,18,9.0,29.698818,,,TRUE,TRUE,,,,,,,BKN,800,OVC,1200,,,,,IFR,,,,,,,,,,,,SPECI,16.0
K6S2 201015Z AUTO 19007G14KT 10SM FEW009 BKN013 OVC020 08/08 A2970 RMK AO2,K6S2,2023-03-20T10:15:00Z,43.98,-124.12,8.0,8.0,190,7,14,10.0,29.698818,,,TRUE,TRUE,,,,,,,FEW,900,BKN,1300,OVC,2000,,,MVFR,,,,,,,,,,,,SPECI,16.0
K6S2 200955Z AUTO 19008G15KT 10SM BKN014 BKN020 OVC024 08/08 A2971 RMK AO2,K6S2,2023-03-20T09:55:00Z,43.98,-124.12,8.0,8.0,190,8,15,10.0,29.71063,,,TRUE,TRUE,,,,,,,BKN,1400,BKN,2000,OVC,2400,,,MVFR,,,,,,,,,,,,METAR,16.0
K6S2 200935Z AUTO 20008KT 10SM FEW010 BKN014 OVC027 08/08 A2971 RMK AO2,K6S2,2023-03-20T09:35:00Z,43.98,-124.12,8.0,8.0,200,8,,10.0,29.71063,,,TRUE,TRUE,,,,,,,FEW,1000,BKN,1400,OVC,2700,,,MVFR,,,,,,,,,,,,SPECI,16.0
K6S2 200915Z AUTO 21007G15KT 160V240 5SM UP BR BKN012 BKN016 OVC022 08/08 A2970 RMK AO2,K6S2,2023-03-20T09:15:00Z,43.98,-124.12,8.0,8.0,210,7,15,5.0,29.698818,,,TRUE,TRUE,,,,,,BR UP,BKN,1200,BKN,1600,OVC,2200,,,MVFR,,,,,,,,,,,,METAR,16.0
K6S2 200855Z AUTO 21007KT 190V250 10SM SCT012 BKN018 OVC028 08/08 A2970 RMK AO2,K6S2,2023-03-20T08:55:00Z,43.98,-124.12,8.0,8.0,210,7,,10.0,29.698818,,,TRUE,TRUE,,,,,,,SCT,1200,BKN,1800,OVC,2800,,,MVFR,,,,,,,,,,,,METAR,16.0
K6S2 200835Z AUTO 20009KT 10SM BKN011 OVC020 08/08 A2969 RMK AO2,K6S2,2023-03-20T08:35:00Z,43.98,-124.12,8.0,8.0,200,9,,10.0,29.68996,,,TRUE,TRUE,,,,,,,BKN,1100,OVC,2000,,,,,MVFR,,,,,,,,,,,,SPECI,16.0
K6S2 200815Z AUTO 20008KT 10SM BKN010 BKN020 OVC055 08/08 A2969 RMK AO2,K6S2,2023-03-20T08:15:00Z,43.98,-124.12,8.0,8.0,200,8,,10.0,29.68996,,,TRUE,TRUE,,,,,,,BKN,1000,BKN,2000,OVC,5500,,,MVFR,,,,,,,,,,,,METAR,16.0
K6S2 200755Z AUTO 23007G15KT 8SM -RA BKN009 OVC013 08/08 A2969 RMK AO2,K6S2,2023-03-20T07:55:00Z,43.98,-124.12,8.0,8.0,230,7,15,8.0,29.68996,,,TRUE,TRUE,,,,,,-RA,BKN,900,OVC,1300,,,,,IFR,,,,,,,,,,,,METAR,16.0
K6S2 200735Z AUTO 21008G13KT 180V250 6SM UP BR BKN008 OVC013 08/08 A2969 RMK AO2,K6S2,2023-03-20T07:35:00Z,43.98,-124.12,8.0,8.0,210,8,13,6.0,29.68996,,,TRUE,TRUE,,,,,,BR UP,BKN,800,OVC,1300,,,,,IFR,,,,,,,,,,,,METAR,16.0
K6S2 200715Z AUTO 21006KT 10SM BKN006 OVC009 08/08 A2968 RMK AO2,K6S2,2023-03-20T07:15:00Z,43.98,-124.12,8.0,8.0,210,6,,10.0,29.681103,,,TRUE,TRUE,,,,,,,BKN,600,OVC,900,,,,,IFR,,,,,,,,,,,,SPECI,16.0
K6S2 200655Z AUTO 21005KT 10SM OVC004 09/09 A2968 RMK AO2 P0006,K6S2,2023-03-20T06:55:00Z,43.98,-124.12,9.0,9.0,210,5,,10.0,29.681103,,,TRUE,TRUE,,,,,,,OVC,400,,,,,,,LIFR,,,,,,0.06,,,,,,METAR,16.0
K6S2 200635Z AUTO 24007G13KT 180V260 9SM -RA BKN004 OVC010 09/09 A2967 RMK AO2,K6S2,2023-03-20T06:35:00Z,43.98,-124.12,9.0,9.0,240,7,13,9.0,29.66929,,,TRUE,TRUE,,,,,,-RA,BKN,400,OVC,1000,,,,,LIFR,,,,,,,,,,,,METAR,16.0
K6S2 200615Z AUTO 18008G14KT 2SM +RA BR OVC005 09/09 A2967 RMK AO2 VIS 1 1/4V3,K6S2,2023-03-20T06:15:00Z,43.98,-124.12,9.0,9.0,180,8,14,2.0,29.66929,,,TRUE,TRUE,,,,,,+RA BR,OVC,500,,,,,,,IFR,,,,,,,,,,,,SPECI,16.0
K6S2 200555Z AUTO 19007KT 10SM BKN005 OVC012 09/09 A2966 RMK AO2,K6S2,2023-03-20T05:55:00Z,43.98,-124.12,9.0,9.0,190,7,,10.0,29.660433,,,TRUE,TRUE,,,,,,,BKN,500,OVC,1200,,,,,IFR,,,,,,,,,,,,METAR,16.0
K6S2 200535Z AUTO 19006G12KT 10SM FEW006 OVC013 09/09 A2966 RMK AO2,K6S2,2023-03-20T05:35:00Z,43.98,-124.12,9.0,9.0,190,6,12,10.0,29.660433,,,TRUE,TRUE,,,,,,,FEW,600,OVC,1300,,,,,MVFR,,,,,,,,,,,,SPECI,16.0
K6S2 200515Z AUTO 20007KT 10SM SCT004 BKN008 OVC013 09/09 A2967 RMK AO2,K6S2,2023-03-20T05:15:00Z,43.98,-124.12,9.0,9.0,200,7,,10.0,29.66929,,,TRUE,TRUE,,,,,,,SCT,400,BKN,800,OVC,1300,,,IFR,,,,,,,,,,,,METAR,16.0
K6S2 200455Z AUTO VRB06KT 6SM UP BR OVC003 09/09 A2966 RMK AO2 P0001,K6S2,2023-03-20T04:55:00Z,43.98,-124.12,9.0,9.0,0,6,,6.0,29.660433,,,TRUE,TRUE,,,,,,BR UP,OVC,300,,,,,,,LIFR,,,,,,0.01,,,,,,METAR,16.0
K6S2 200435Z AUTO 21006G12KT 2 1/2SM UP BR BKN004 OVC009 09/09 A2967 RMK AO2 VIS 1 3/4V3,K6S2,2023-03-20T04:35:00Z,43.98,-124.12,9.0,9.0,210,6,12,2.5,29.66929,,,TRUE,TRUE,,,,,,BR UP,BKN,400,OVC,900,,,,,LIFR,,,,,,,,,,,,METAR,16.0
K6S2 200415Z AUTO 19007G13KT 10SM BKN005 OVC009 09/09 A2967 RMK AO2,K6S2,2023-03-20T04:15:00Z,43.98,-124.12,9.0,9.0,190,7,13,10.0,29.66929,,,TRUE,TRUE,,,,,,,BKN,500,OVC,900,,,,,IFR,,,,,,,,,,,,SPECI,16.0
K6S2 200355Z AUTO 20007KT 4SM UP BR OVC004 09/09 A2967 RMK AO2 P0001,K6S2,2023-03-20T03:55:00Z,43.98,-124.12,9.0,9.0,200,7,,4.0,29.66929,,,TRUE,TRUE,,,,,,BR UP,OVC,400,,,,,,,LIFR,,,,,,0.01,,,,,,METAR,16.0
K6S2 200335Z AUTO 19009KT 4SM -RA BR OVC005 09/09 A2967 RMK AO2,K6S2,2023-03-20T03:35:00Z,43.98,-124.12,9.0,9.0,190,9,,4.0,29.66929,,,TRUE,TRUE,,,,,,-RA BR,OVC,500,,,,,,,IFR,,,,,,,,,,,,METAR,16.0
K6S2 200315Z AUTO 20011G16KT 6SM -RA BR BKN006 OVC010 09/09 A2967 RMK AO2,K6S2,2023-03-20T03:15:00Z,43.98,-124.12,9.0,9.0,200,11,16,6.0,29.66929,,,TRUE,TRUE,,,,,,-RA BR,BKN,600,OVC,1000,,,,,IFR,,,,,,,,,,,,METAR,16.0
K6S2 200255Z AUTO 20009KT 9SM OVC008 09/09 A2966 RMK AO2,K6S2,2023-03-20T02:55:00Z,43.98,-124.12,9.0,9.0,200,9,,9.0,29.660433,,,TRUE,TRUE,,,,,,,OVC,800,,,,,,,IFR,,,,,,,,,,,,METAR,16.0
K6S2 200235Z AUTO 21007KT 170V230 9SM BKN004 OVC008 09/09 A2966 RMK AO2,K6S2,2023-03-20T02:35:00Z,43.98,-124.12,9.0,9.0,210,7,,9.0,29.660433,,,TRUE,TRUE,,,,,,,BKN,400,OVC,800,,,,,LIFR,,,,,,,,,,,,SPECI,16.0
K6S2 200215Z AUTO 21006G12KT 2SM -RA BR BKN004 OVC009 10/10 A2965 RMK AO2,K6S2,2023-03-20T02:15:00Z,43.98,-124.12,10.0,10.0,210,6,12,2.0,29.648623,,,TRUE,TRUE,,,,,,-RA BR,BKN,400,OVC,900,,,,,LIFR,,,,,,,,,,,,SPECI,16.0
K6S2 200155Z AUTO 20008KT 10SM BKN007 OVC010 10/10 A2965 RMK AO2,K6S2,2023-03-20T01:55:00Z,43.98,-124.12,10.0,10.0,200,8,,10.0,29.648623,,,TRUE,TRUE,,,,,,,BKN,700,OVC,1000,,,,,IFR,,,,,,,,,,,,METAR,16.0
K6S2 200135Z AUTO 20008G15KT 160V230 10SM BKN004 OVC009 10/10 A2965 RMK AO2,K6S2,2023-03-20T01:35:00Z,43.98,-124.12,10.0,10.0,200,8,15,10.0,29.648623,,,TRUE,TRUE,,,,,,,BKN,400,OVC,900,,,,,LIFR,,,,,,,,,,,,METAR,16.0
K6S2 200115Z AUTO 21011G17KT 2 1/2SM UP BR OVC004 10/10 A2965 RMK AO2,K6S2,2023-03-20T01:15:00Z,43.98,-124.12,10.0,10.0,210,11,17,2.5,29.648623,,,TRUE,TRUE,,,,,,BR UP,OVC,400,,,,,,,LIFR,,,,,,,,,,,,METAR,16.0
K6S2 200055Z AUTO 19012G19KT 6SM BR BKN005 OVC009 10/10 A2965 RMK AO2 P0001,K6S2,2023-03-20T00:55:00Z,43.98,-124.12,10.0,10.0,190,12,19,6.0,29.648623,,,TRUE,TRUE,,,,,,BR,BKN,500,OVC,900,,,,,IFR,,,,,,0.01,,,,,,METAR,16.0
K6S2 200035Z AUTO 20011G18KT 2SM UP BR BKN007 BKN012 10/10 A2965 RMK AO2 VIS 1 3/4V3,K6S2,2023-03-20T00:35:00Z,43.98,-124.12,10.0,10.0,200,11,18,2.0,29.648623,,,TRUE,TRUE,,,,,,BR UP,BKN,700,BKN,1200,,,,,IFR,,,,,,,,,,,,SPECI,16.0
K6S2 200015Z AUTO 19006G12KT 2SM UP BR SCT006 SCT012 SCT017 10/10 A2966 RMK AO2 VIS 1 1/2V3,K6S2,2023-03-20T00:15:00Z,43.98,-124.12,10.0,10.0,190,6,12,2.0,29.660433,,,TRUE,TRUE,,,,,,BR UP,SCT,600,SCT,1200,SCT,1700,,,IFR,,,,,,,,,,,,METAR,16.0
K6S2 192355Z AUTO VRB05KT 1 3/4SM UP BR SCT005 SCT021 10/10 A2966 RMK AO2,K6S2,2023-03-19T23:55:00Z,43.98,-124.12,10.0,10.0,0,5,,1.75,29.660433,,,TRUE,TRUE,,,,,,BR UP,SCT,500,SCT,2100,,,,,IFR,,,,,,,,,,,,METAR,16.0
K6S2 192335Z AUTO VRB04KT 2 1/2SM UP BR FEW021 FEW029 SCT034 10/10 A2967 RMK AO2,K6S2,2023-03-19T23:35:00Z,43.98,-124.12,10.0,10.0,0,4,,2.5,29.66929,,,TRUE,TRUE,,,,,,BR UP,FEW,2100,FEW,2900,SCT,3400,,,IFR,,,,,,,,,,,,METAR,16.0
K6S2 192315Z AUTO 24004KT 7SM UP FEW036 SCT044 10/10 A2967 RMK AO2,K6S2,2023-03-19T23:15:00Z,43.98,-124.12,10.0,10.0,240,4,,7.0,29.66929,,,TRUE,TRUE,,,,,,UP,FEW,3600,SCT,4400,,,,,VFR,,,,,,,,,,,,SPECI,16.0
K6S2 192255Z AUTO VRB03KT 9SM UP FEW012 FEW022 BKN042 10/10 A2968 RMK AO2,K6S2,2023-03-19T22:55:00Z,43.98,-124.12,10.0,10.0,0,3,,9.0,29.681103,,,TRUE,TRUE,,,,,,UP,FEW,1200,FEW,2200,BKN,4200,,,VFR,,,,,,,,,,,,METAR,16.0
K6S2 192235Z AUTO 00000KT 10SM SCT012 BKN048 BKN060 10/10 A2968 RMK AO2,K6S2,2023-03-19T22:35:00Z,43.98,-124.12,10.0,10.0,0,0,,10.0,29.681103,,,TRUE,TRUE,,,,,,,SCT,1200,BKN,4800,BKN,6000,,,VFR,,,,,,,,,,,,METAR,16.0
K6S2 192215Z AUTO 27004KT 10SM FEW007 BKN012 OVC060 10/10 A2968 RMK AO2,K6S2,2023-03-19T22:15:00Z,43.98,-124.12,10.0,10.0,270,4,,10.0,29.681103,,,TRUE,TRUE,,,,,,,FEW,700,BKN,1200,OVC,6000,,,MVFR,,,,,,,,,,,,SPECI,16.0
K6S2 192155Z AUTO 28005KT 10SM BKN007 BKN012 OVC060 10/10 A2969 RMK AO2,K6S2,2023-03-19T21:55:00Z,43.98,-124.12,10.0,10.0,280,5,,10.0,29.68996,,,TRUE,TRUE,,,,,,,BKN,700,BKN,1200,OVC,6000,,,IFR,,,,,,,,,,,,METAR,16.0
K6S2 192135Z AUTO VRB03KT 10SM BKN006 BKN012 OVC065 10/10 A2969 RMK AO2,K6S2,2023-03-19T21:35:00Z,43.98,-124.12,10.0,10.0,0,3,,10.0,29.68996,,,TRUE,TRUE,,,,,,,BKN,600,BKN,1200,OVC,6500,,,IFR,,,,,,,,,,,,METAR,16.0
K6S2 192115Z AUTO VRB04KT 10SM BKN006 BKN018 OVC030 10/10 A2970 RMK AO2,K6S2,2023-03-19T21:15:00Z,43.98,-124.12,10.0,10.0,0,4,,10.0,29.698818,,,TRUE,TRUE,,,,,,,BKN,600,BKN,1800,OVC,3000,,,IFR,,,,,,,,,,,,SPECI,16.0
K6S2 192055Z AUTO 27003KT 10SM BKN005 BKN010 OVC032 09/09 A2971 RMK AO2,K6S2,2023-03-19T20:55:00Z,43.98,-124.12,9.0,9.0,270,3,,10.0,29.71063,,,TRUE,TRUE,,,,,,,BKN,500,BKN,1000,OVC,3200,,,IFR,,,,,,,,,,,,METAR,16.0
K6S2 192035Z AUTO 25005KT 10SM SCT005 BKN011 OVC015 10/10 A2971 RMK AO2,K6S2,2023-03-19T20:35:00Z,43.98,-124.12,10.0,10.0,250,5,,10.0,29.71063,,,TRUE,TRUE,,,,,,,SCT,500,BKN,1100,OVC,1500,,,MVFR,,,,,,,,,,,,SPECI,16.0
K6S2 192015Z AUTO 00000KT 10SM BKN005 BKN009 OVC042 09/09 A2971 RMK AO2,K6S2,2023-03-19T20:15:00Z,43.98,-124.12,9.0,9.0,0,0,,10.0,29.71063,,,TRUE,TRUE,,,,,,,BKN,500,BKN,900,OVC,4200,,,IFR,,,,,,,,,,,,METAR,16.0
K6S2 191955Z AUTO 30005KT 10SM BKN004 OVC008 09/09 A2972 RMK AO2 P0001,K6S2,2023-03-19T19:55:00Z,43.98,-124.12,9.0,9.0,300,5,,10.0,29.719488,,,TRUE,TRUE,,,,,,,BKN,400,OVC,800,,,,,LIFR,,,,,,0.01,,,,,,METAR,16.0
K6S2 191935Z AUTO 00000KT 10SM SCT005 BKN009 BKN055 10/10 A2972 RMK AO2,K6S2,2023-03-19T19:35:00Z,43.98,-124.12,10.0,10.0,0,0,,10.0,29.719488,,,TRUE,TRUE,,,,,,,SCT,500,BKN,900,BKN,5500,,,IFR,,,,,,,,,,,,METAR,16.0
K6S2 191915Z AUTO 00000KT 9SM -RA BKN005 BKN009 BKN012 09/09 A2973 RMK AO2,K6S2,2023-03-19T19:15:00Z,43.98,-124.12,9.0,9.0,0,0,,9.0,29.731298,,,TRUE,TRUE,,,,,,-RA,BKN,500,BKN,900,BKN,1200,,,IFR,,,,,,,,,,,,SPECI,16.0
K6S2 191855Z AUTO 00000KT 7SM -RA BKN005 BKN012 OVC046 09/09 A2974 RMK AO2 P0001,K6S2,2023-03-19T18:55:00Z,43.98,-124.12,9.0,9.0,0,0,,7.0,29.740158,,,TRUE,TRUE,,,,,,-RA,BKN,500,BKN,1200,OVC,4600,,,IFR,,,,,,0.01,,,,,,METAR,16.0
K6S2 191835Z AUTO 00000KT 7SM -RA OVC046 09/09 A2974 RMK AO2,K6S2,2023-03-19T18:35:00Z,43.98,-124.12,9.0,9.0,0,0,,7.0,29.740158,,,TRUE,TRUE,,,,,,-RA,OVC,4600,,,,,,,VFR,,,,,,,,,,,,SPECI,16.0
K6S2 191815Z AUTO 00000KT 7SM -RA OVC045 09/09 A2975 RMK AO2,K6S2,2023-03-19T18:15:00Z,43.98,-124.12,9.0,9.0,0,0,,7.0,29.749016,,,TRUE,TRUE,,,,,,-RA,OVC,4500,,,,,,,VFR,,,,,,,,,,,,METAR,16.0
K6S2 191755Z AUTO 00000KT 9SM -RA FEW003 SCT010 OVC047 09/09 A2976 RMK AO2 P0001,K6S2,2023-03-19T17:55:00Z,43.98,-124.12,9.0,9.0,0,0,,9.0,29.760826,,,TRUE,TRUE,,,,,,-RA,FEW,300,SCT,1000,OVC,4700,,,VFR,,,,,,0.01,,,,,,METAR,16.0
K6S2 191735Z AUTO 00000KT 9SM UP BKN003 OVC050 09/09 A2976 RMK AO2,K6S2,2023-03-19T17:35:00Z,43.98,-124.12,9.0,9.0,0,0,,9.0,29.760826,,,TRUE,TRUE,,,,,,UP,BKN,300,OVC,5000,,,,,LIFR,,,,,,,,,,,,METAR,16.0
K6S2 191715Z AUTO 00000KT 7SM -RA BKN003 BKN049 09/09 A2976 RMK AO2,K6S2,2023-03-19T17:15:00Z,43.98,-124.12,9.0,9.0,0,0,,7.0,29.760826,,,TRUE,TRUE,,,,,,-RA,BKN,300,BKN,4900,,,,,LIFR,,,,,,,,,,,,METAR,16.0
K6S2 191655Z AUTO 00000KT 7SM -RA FEW047 09/09 A2975 RMK AO2 P0003,K6S2,2023-03-19T16:55:00Z,43.98,-124.12,9.0,9.0,0,0,,7.0,29.749016,,,TRUE,TRUE,,,,,,-RA,FEW,4700,,,,,,,VFR,,,,,,0.03,,,,,,METAR,16.0
K6S2 191635Z AUTO 00000KT 4SM -RA BR BKN047 09/09 A2976 RMK AO2,K6S2,2023-03-19T16:35:00Z,43.98,-124.12,9.0,9.0,0,0,,4.0,29.760826,,,TRUE,TRUE,,,,,,-RA BR,BKN,4700,,,,,,,MVFR,,,,,,,,,,,,METAR,16.0
K6S2 191615Z AUTO 00000KT 5SM -RA BR OVC048 08/08 A2977 RMK AO2,K6S2,2023-03-19T16:15:00Z,43.98,-124.12,8.0,8.0,0,0,,5.0,29.769686,,,TRUE,TRUE,,,,,,-RA BR,OVC,4800,,,,,,,MVFR,,,,,,,,,,,,SPECI,16.0
K6S2 191555Z AUTO 00000KT 6SM -RA BR OVC048 08/08 A2977 RMK AO2 P0002,K6S2,2023-03-19T15:55:00Z,43.98,-124.12,8.0,8.0,0,0,,6.0,29.769686,,,TRUE,TRUE,,,,,,-RA BR,OVC,4800,,,,,,,VFR,,,,,,0.02,,,,,,METAR,16.0
K6S2 191535Z AUTO 00000KT 6SM -RA BR BKN049 BKN055 08/08 A2978 RMK AO2,K6S2,2023-03-19T15:35:00Z,43.98,-124.12,8.0,8.0,0,0,,6.0,29.778543,,,TRUE,TRUE,,,,,,-RA BR,BKN,4900,BKN,5500,,,,,VFR,,,,,,,,,,,,METAR,16.0
K6S2 191515Z AUTO 00000KT 5SM -RA BR SCT050 08/08 A2978 RMK AO2,K6S2,2023-03-19T15:15:00Z,43.98,-124.12,8.0,8.0,0,0,,5.0,29.778543,,,TRUE,TRUE,,,,,,-RA BR,SCT,5000,,,,,,,MVFR,,,,,,,,,,,,METAR,16.0
K6S2 191455Z AUTO 00000KT 4SM -RA BR FEW039 BKN050 SCT060 08/08 A2978 RMK AO2 P0002,K6S2,2023-03-19T14:55:00Z,43.98,-124.12,8.0,8.0,0,0,,4.0,29.778543,,,TRUE,TRUE,,,,,,-RA BR,FEW,3900,BKN,5000,SCT,6000,,,MVFR,,,,,,0.02,,,,,,METAR,16.0
K6S2 191435Z AUTO 00000KT 5SM -RA BR SCT038 OVC050 08/08 A2979 RMK AO2,K6S2,2023-03-19T14:35:00Z,43.98,-124.12,8.0,8.0,0,0,,5.0,29.790354,,,TRUE,TRUE,,,,,,-RA BR,SCT,3800,OVC,5000,,,,,MVFR,,,,,,,,,,,,METAR,16.0
K6S2 191415Z AUTO 00000KT 5SM -RA BR SCT038 OVC050 08/08 A2979 RMK AO2,K6S2,2023-03-19T14:15:00Z,43.98,-124.12,8.0,8.0,0,0,,5.0,29.790354,,,TRUE,TRUE,,,,,,-RA BR,SCT,3800,OVC,5000,,,,,MVFR,,,,,,,,,,,,METAR,16.0
K6S2 191355Z AUTO 00000KT 8SM -RA BKN050 OVC055 08/08 A2980 RMK AO2,K6S2,2023-03-19T13:55:00Z,43.98,-124.12,8.0,8.0,0,0,,8.0,29.799213,,,TRUE,TRUE,,,,,,-RA,BKN,5000,OVC,5500,,,,,VFR,,,,,,,,,,,,METAR,16.0
K6S2 191335Z AUTO 00000KT 10SM -RA FEW035 SCT041 OVC055 08/08 A2980 RMK AO2,K6S2,2023-03-19T13:35:00Z,43.98,-124.12,8.0,8.0,0,0,,10.0,29.799213,,,TRUE,TRUE,,,,,,-RA,FEW,3500,SCT,4100,OVC,5500,,,VFR,,,,,,,,,,,,SPECI,16.0
K6S2 191315Z AUTO 00000KT 10SM -RA FEW031 SCT038 OVC050 08/08 A2980 RMK AO2,K6S2,2023-03-19T13:15:00Z,43.98,-124.12,8.0,8.0,0,0,,10.0,29.799213,,,TRUE,TRUE,,,,,,-RA,FEW,3100,SCT,3800,OVC,5000,,,VFR,,,,,,,,,,,,METAR,16.0
K6S2 191255Z AUTO VRB03KT 10SM FEW038 BKN055 OVC070 08/08 A2980 RMK AO2,K6S2,2023-03-19T12:55:00Z,43.98,-124.12,8.0,8.0,0,3,,10.0,29.799213,,,TRUE,TRUE,,,,,,,FEW,3800,BKN,5500,OVC,7000,,,VFR,,,,,,,,,,,,SPECI,16.0
K6S2 191235Z AUTO 00000KT 10SM FEW060 OVC070 08/08 A2979 RMK AO2,K6S2,2023-03-19T12:35:00Z,43.98,-124.12,8.0,8.0,0,0,,10.0,29.790354,,,TRUE,TRUE,,,,,,,FEW,6000,OVC,7000,,,,,VFR,,,,,,,,,,,,METAR,16.0
K6S2 191215Z AUTO 00000KT 10SM OVC070 08/08 A2979 RMK AO2,K6S2,2023-03-19T12:15:00Z,43.98,-124.12,8.0,8.0,0,0,,10.0,29.790354,,,TRUE,TRUE,,,,,,,OVC,7000,,,,,,,VFR,,,,,,,,,,,,METAR,16.0
K6S2 191155Z AUTO VRB04KT 10SM OVC075 08/08 A2979 RMK AO2,K6S2,2023-03-19T11:55:00Z,43.98,-124.12,8.0,8.0,0,4,,10.0,29.790354,,,TRUE,TRUE,,,,,,,OVC,7500,,,,,,,VFR,,,,,,,,,,,,METAR,16.0
K6S2 191135Z AUTO 00000KT 10SM SCT080 BKN090 BKN110 08/08 A2979 RMK AO2,K6S2,2023-03-19T11:35:00Z,43.98,-124.12,8.0,8.0,0,0,,10.0,29.790354,,,TRUE,TRUE,,,,,,,SCT,8000,BKN,9000,BKN,11000,,,VFR,,,,,,,,,,,,SPECI,16.0
K6S2 191115Z AUTO 00000KT 10SM SCT090 BKN110 07/07 A2980 RMK AO2,K6S2,2023-03-19T11:15:00Z,43.98,-124.12,7.0,7.0,0,0,,10.0,29.799213,,,TRUE,TRUE,,,,,,,SCT,9000,BKN,11000,,,,,VFR,,,,,,,,,,,,METAR,16.0
K6S2 191055Z AUTO 00000KT 10SM BKN100 BKN120 07/07 A2981 RMK AO2,K6S2,2023-03-19T10:55:00Z,43.98,-124.12,7.0,7.0,0,0,,10.0,29.811024,,,TRUE,TRUE,,,,,,,BKN,10000,BKN,12000,,,,,VFR,,,,,,,,,,,,METAR,16.0
K6S2 191035Z AUTO 00000KT 10SM OVC100 07/07 A2982 RMK AO2,K6S2,2023-03-19T10:35:00Z,43.98,-124.12,7.0,7.0,0,0,,10.0,29.819881,,,TRUE,TRUE,,,,,,,OVC,10000,,,,,,,VFR,,,,,,,,,,,,METAR,16.0
K6S2 191015Z AUTO 00000KT 10SM BKN110 07/07 A2982 RMK AO2,K6S2,2023-03-19T10:15:00Z,43.98,-124.12,7.0,7.0,0,0,,10.0,29.819881,,,TRUE,TRUE,,,,,,,BKN,11000,,,,,,,VFR,,,,,,,,,,,,METAR,16.0
K6S2 190955Z AUTO 00000KT 10SM SCT120 08/08 A2983 RMK AO2,K6S2,2023-03-19T09:55:00Z,43.98,-124.12,8.0,8.0,0,0,,10.0,29.828741,,,TRUE,TRUE,,,,,,,SCT,12000,,,,,,,VFR,,,,,,,,,,,,METAR,16.0
K6S2 190935Z AUTO 00000KT 10SM SCT120 07/07 A2982 RMK AO2,K6S2,2023-03-19T09:35:00Z,43.98,-124.12,7.0,7.0,0,0,,10.0,29.819881,,,TRUE,TRUE,,,,,,,SCT,12000,,,,,,,VFR,,,,,,,,,,,,METAR,16.0
K6S2 190915Z AUTO 00000KT 10SM FEW120 08/08 A2982 RMK AO2,K6S2,2023-03-19T09:15:00Z,43.98,-124.12,8.0,8.0,0,0,,10.0,29.819881,,,TRUE,TRUE,,,,,,,FEW,12000,,,,,,,VFR,,,,,,,,,,,,METAR,16.0
K6S2 190855Z AUTO 00000KT 10SM FEW120 08/08 A2982 RMK AO2,K6S2,2023-03-19T08:55:00Z,43.98,-124.12,8.0,8.0,0,0,,10.0,29.819881,,,TRUE,TRUE,,,,,,,FEW,12000,,,,,,,VFR,,,,,,,,,,,,METAR,16.0
K6S2 190835Z AUTO 00000KT 10SM CLR 08/08 A2982 RMK AO2,K6S2,2023-03-19T08:35:00Z,43.98,-124.12,8.0,8.0,0,0,,10.0,29.819881,,,TRUE,TRUE,,,,,,,CLR,,,,,,,,VFR,,,,,,,,,,,,METAR,16.0
K6S2 190815Z AUTO 00000KT 10SM FEW120 08/08 A2982 RMK AO2,K6S2,2023-03-19T08:15:00Z,43.98,-124.12,8.0,8.0,0,0,,10.0,29.819881,,,TRUE,TRUE,,,,,,,FEW,12000,,,,,,,VFR,,,,,,,,,,,,METAR,16.0
K6S2 190755Z AUTO 00000KT 10SM FEW120 08/08 A2983 RMK AO2,K6S2,2023-03-19T07:55:00Z,43.98,-124.12,8.0,8.0,0,0,,10.0,29.828741,,,TRUE,TRUE,,,,,,,FEW,12000,,,,,,,VFR,,,,,,,,,,,,METAR,16.0
K6S2 190735Z AUTO 00000KT 10SM CLR 08/08 A2983 RMK AO2,K6S2,2023-03-19T07:35:00Z,43.98,-124.12,8.0,8.0,0,0,,10.0,29.828741,,,TRUE,TRUE,,,,,,,CLR,,,,,,,,VFR,,,,,,,,,,,,METAR,16.0
K6S2 190715Z AUTO 00000KT 10SM CLR 09/09 A2984 RMK AO2,K6S2,2023-03-19T07:15:00Z,43.98,-124.12,9.0,9.0,0,0,,10.0,29.840551,,,TRUE,TRUE,,,,,,,CLR,,,,,,,,VFR,,,,,,,,,,,,METAR,16.0
K6S2 190655Z AUTO 00000KT 10SM CLR 09/09 A2984 RMK AO2,K6S2,2023-03-19T06:55:00Z,43.98,-124.12,9.0,9.0,0,0,,10.0,29.840551,,,TRUE,TRUE,,,,,,,CLR,,,,,,,,VFR,,,,,,,,,,,,METAR,16.0
K6S2 190635Z AUTO 10004KT 10SM CLR 09/09 A2985 RMK AO2,K6S2,2023-03-19T06:35:00Z,43.98,-124.12,9.0,9.0,100,4,,10.0,29.84941,,,TRUE,TRUE,,,,,,,CLR,,,,,,,,VFR,,,,,,,,,,,,SPECI,16.0
K6S2 190615Z AUTO 00000KT 10SM CLR 09/09 A2986 RMK AO2,K6S2,2023-03-19T06:15:00Z,43.98,-124.12,9.0,9.0,0,0,,10.0,29.861221,,,TRUE,TRUE,,,,,,,CLR,,,,,,,,VFR,,,,,,,,,,,,METAR,16.0
K6S2 190555Z AUTO 00000KT 10SM CLR 09/09 A2987 RMK AO2,K6S2,2023-03-19T05:55:00Z,43.98,-124.12,9.0,9.0,0,0,,10.0,29.870079,,,TRUE,TRUE,,,,,,,CLR,,,,,,,,VFR,,,,,,,,,,,,METAR,16.0
K6S2 190535Z AUTO 00000KT 10SM CLR 09/09 A2988 RMK AO2,K6S2,2023-03-19T05:35:00Z,43.98,-124.12,9.0,9.0,0,0,,10.0,29.878937,,,TRUE,TRUE,,,,,,,CLR,,,,,,,,VFR,,,,,,,,,,,,METAR,16.0
K6S2 190515Z AUTO 00000KT 10SM CLR 09/09 A2988 RMK AO2,K6S2,2023-03-19T05:15:00Z,43.98,-124.12,9.0,9.0,0,0,,10.0,29.878937,,,TRUE,TRUE,,,,,,,CLR,,,,,,,,VFR,,,,,,,,,,,,METAR,16.0
K6S2 190455Z AUTO 00000KT 10SM CLR 10/09 A2988 RMK AO2,K6S2,2023-03-19T04:55:00Z,43.98,-124.12,10.0,9.0,0,0,,10.0,29.878937,,,TRUE,TRUE,,,,,,,CLR,,,,,,,,VFR,,,,,,,,,,,,METAR,16.0
K6S2 190435Z AUTO 00000KT 10SM CLR 09/09 A2988 RMK AO2,K6S2,2023-03-19T04:35:00Z,43.98,-124.12,9.0,9.0,0,0,,10.0,29.878937,,,TRUE,TRUE,,,,,,,CLR,,,,,,,,VFR,,,,,,,,,,,,SPECI,16.0
K6S2 190415Z AUTO 00000KT 10SM CLR 10/09 A2988 RMK AO2,K6S2,2023-03-19T04:15:00Z,43.98,-124.12,10.0,9.0,0,0,,10.0,29.878937,,,TRUE,TRUE,,,,,,,CLR,,,,,,,,VFR,,,,,,,,,,,,SPECI,16.0
K6S2 190355Z AUTO 00000KT 10SM CLR 09/09 A2988 RMK AO2,K6S2,2023-03-19T03:55:00Z,43.98,-124.12,9.0,9.0,0,0,,10.0,29.878937,,,TRUE,TRUE,,,,,,,CLR,,,,,,,,VFR,,,,,,,,,,,,METAR,16.0
K6S2 190335Z AUTO 00000KT 10SM CLR 10/09 A2989 RMK AO2,K6S2,2023-03-19T03:35:00Z,43.98,-124.12,10.0,9.0,0,0,,10.0,29.890747,,,TRUE,TRUE,,,,,,,CLR,,,,,,,,VFR,,,,,,,,,,,,METAR,16.0
K6S2 190315Z AUTO 00000KT 10SM CLR 10/09 A2989 RMK AO2,K6S2,2023-03-19T03:15:00Z,43.98,-124.12,10.0,9.0,0,0,,10.0,29.890747,,,TRUE,TRUE,,,,,,,CLR,,,,,,,,VFR,,,,,,,,,,,,SPECI,16.0
K6S2 190255Z AUTO 00000KT 10SM CLR 10/09 A2989 RMK AO2,K6S2,2023-03-19T02:55:00Z,43.98,-124.12,10.0,9.0,0,0,,10.0,29.890747,,,TRUE,TRUE,,,,,,,CLR,,,,,,,,VFR,,,,,,,,,,,,METAR,16.0
K6S2 190235Z AUTO 00000KT 10SM FEW120 10/08 A2988 RMK AO2,K6S2,2023-03-19T02:35:00Z,43.98,-124.12,10.0,8.0,0,0,,10.0,29.878937,,,TRUE,TRUE,,,,,,,FEW,12000,,,,,,,VFR,,,,,,,,,,,,METAR,16.0
K6S2 190215Z AUTO 00000KT 10SM CLR 11/08 A2988 RMK AO2,K6S2,2023-03-19T02:15:00Z,43.98,-124.12,11.0,8.0,0,0,,10.0,29.878937,,,TRUE,TRUE,,,,,,,CLR,,,,,,,,VFR,,,,,,,,,,,,SPECI,16.0
K6S2 190155Z AUTO 32004KT 10SM CLR 11/09 A2988 RMK AO2,K6S2,2023-03-19T01:55:00Z,43.98,-124.12,11.0,9.0,320,4,,10.0,29.878937,,,TRUE,TRUE,,,,,,,CLR,,,,,,,,VFR,,,,,,,,,,,,SPECI,16.0
K6S2 190135Z AUTO 32004KT 10SM CLR 12/08 A2988 RMK AO2,K6S2,2023-03-19T01:35:00Z,43.98,-124.12,12.0,8.0,320,4,,10.0,29.878937,,,TRUE,TRUE,,,,,,,CLR,,,,,,,,VFR,,,,,,,,,,,,METAR,16.0
K6S2 190115Z AUTO 32005KT 10SM CLR 12/09 A2988 RMK AO2,K6S2,2023-03-19T01:15:00Z,43.98,-124.12,12.0,9.0,320,5,,10.0,29.878937,,,TRUE,TRUE,,,,,,,CLR,,,,,,,,VFR,,,,,,,,,,,,METAR,16.0
K6S2 190055Z AUTO 00000KT 10SM CLR 12/10 A2989 RMK AO2,K6S2,2023-03-19T00:55:00Z,43.98,-124.12,12.0,10.0,0,0,,10.0,29.890747,,,TRUE,TRUE,,,,,,,CLR,,,,,,,,VFR,,,,,,,,,,,,METAR,16.0
K6S2 190035Z AUTO 30004KT 10SM CLR 12/09 A2989 RMK AO2,K6S2,2023-03-19T00:35:00Z,43.98,-124.12,12.0,9.0,300,4,,10.0,29.890747,,,TRUE,TRUE,,,,,,,CLR,,,,,,,,VFR,,,,,,,,,,,,SPECI,16.0
K6S2 190015Z AUTO 00000KT 10SM CLR 12/09 A2990 RMK AO2,K6S2,2023-03-19T00:15:00Z,43.98,-124.12,12.0,9.0,0,0,,10.0,29.899607,,,TRUE,TRUE,,,,,,,CLR,,,,,,,,VFR,,,,,,,,,,,,SPECI,16.0
K6S2 182355Z AUTO 00000KT 10SM CLR 11/10 A2991 RMK AO2,K6S2,2023-03-18T23:55:00Z,43.98,-124.12,11.0,10.0,0,0,,10.0,29.911417,,,TRUE,TRUE,,,,,,,CLR,,,,,,,,VFR,,,,,,,,,,,,METAR,16.0
K6S2 182335Z AUTO 00000KT 10SM CLR 11/10 A2991 RMK AO2,K6S2,2023-03-18T23:35:00Z,43.98,-124.12,11.0,10.0,0,0,,10.0,29.911417,,,TRUE,TRUE,,,,,,,CLR,,,,,,,,VFR,,,,,,,,,,,,METAR,16.0
K6S2 182315Z AUTO 28005KT 10SM CLR 11/10 A2991 RMK AO2,K6S2,2023-03-18T23:15:00Z,43.98,-124.12,11.0,10.0,280,5,,10.0,29.911417,,,TRUE,TRUE,,,,,,,CLR,,,,,,,,VFR,,,,,,,,,,,,METAR,16.0
K6S2 182255Z AUTO 26007KT 10SM CLR 12/10 A2991 RMK AO2,K6S2,2023-03-18T22:55:00Z,43.98,-124.12,12.0,10.0,260,7,,10.0,29.911417,,,TRUE,TRUE,,,,,,,CLR,,,,,,,,VFR,,,,,,,,,,,,SPECI,16.0
K6S2 182235Z AUTO 26007KT 230V290 10SM CLR 13/10 A2991 RMK AO2,K6S2,2023-03-18T22:35:00Z,43.98,-124.12,13.0,10.0,260,7,,10.0,29.911417,,,TRUE,TRUE,,,,,,,CLR,,,,,,,,VFR,,,,,,,,,,,,METAR,16.0
K6S2 182215Z AUTO VRB03KT 10SM CLR 17/09 A2991 RMK AO2,K6S2,2023-03-18T22:15:00Z,43.98,-124.12,17.0,9.0,0,3,,10.0,29.911417,,,TRUE,TRUE,,,,,,,CLR,,,,,,,,VFR,,,,,,,,,,,,METAR,16.0
K6S2 182155Z AUTO 00000KT 10SM CLR 18/06 A2991 RMK AO2,K6S2,2023-03-18T21:55:00Z,43.98,-124.12,18.0,6.0,0,0,,10.0,29.911417,,,TRUE,TRUE,,,,,,,CLR,,,,,,,,VFR,,,,,,,,,,,,METAR,16.0
K6S2 182135Z AUTO VRB04KT 10SM CLR 18/06 A2992 RMK AO2,K6S2,2023-03-18T21:35:00Z,43.98,-124.12,18.0,6.0,0,4,,10.0,29.920275,,,TRUE,TRUE,,,,,,,CLR,,,,,,,,VFR,,,,,,,,,,,,METAR,16.0
K6S2 182115Z AUTO VRB04KT 10SM CLR 18/06 A2992 RMK AO2,K6S2,2023-03-18T21:15:00Z,43.98,-124.12,18.0,6.0,0,4,,10.0,29.920275,,,TRUE,TRUE,,,,,,,CLR,,,,,,,,VFR,,,,,,,,,,,,SPECI,16.0
K6S2 182055Z AUTO VRB03KT 10SM CLR 17/08 A2993 RMK AO2,K6S2,2023-03-18T20:55:00Z,43.98,-124.12,17.0,8.0,0,3,,10.0,29.929134,,,TRUE,TRUE,,,,,,,CLR,,,,,,,,VFR,,,,,,,,,,,,METAR,16.0
K6S2 182035Z AUTO VRB04KT 10SM CLR 16/08 A2994 RMK AO2,K6S2,2023-03-18T20:35:00Z,43.98,-124.12,16.0,8.0,0,4,,10.0,29.940945,,,TRUE,TRUE,,,,,,,CLR,,,,,,,,VFR,,,,,,,,,,,,METAR,16.0
K6S2 182015Z AUTO VRB05KT 10SM CLR 15/08 A2996 RMK AO2,K6S2,2023-03-18T20:15:00Z,43.98,-124.12,15.0,8.0,0,5,,10.0,29.958662,,,TRUE,TRUE,,,,,,,CLR,,,,,,,,VFR,,,,,,,,,,,,SPECI,16.0
K6S2 181955Z AUTO 00000KT 10SM CLR 15/08 A2997 RMK AO2,K6S2,2023-03-18T19:55:00Z,43.98,-124.12,15.0,8.0,0,0,,10.0,29.970472,,,TRUE,TRUE,,,,,,,CLR,,,,,,,,VFR,,,,,,,,,,,,METAR,16.0
K6S2 181935Z AUTO 00000KT 10SM CLR 14/09 A2997 RMK AO2,K6S2,2023-03-18T19:35:00Z,43.98,-124.12,14.0,9.0,0,0,,10.0,29.970472,,,TRUE,TRUE,,,,,,,CLR,,,,,,,,VFR,,,,,,,,,,,,METAR,16.0
K6S2 181915Z AUTO VRB04KT 10SM CLR 14/09 A2999 RMK AO2,K6S2,2023-03-18T19:15:00Z,43.98,-124.12,14.0,9.0,0,4,,10.0,29.991142,,,TRUE,TRUE,,,,,,,CLR,,,,,,,,VFR,,,,,,,,,,,,METAR,16.0
K6S2 181855Z AUTO VRB04KT 10SM CLR 13/09 A2999 RMK AO2,K6S2,2023-03-18T18:55:00Z,43.98,-124.12,13.0,9.0,0,4,,10.0,29.991142,,,TRUE,TRUE,,,,,,,CLR,,,,,,,,VFR,,,,,,,,,,,,SPECI,16.0
K6S2 181835Z AUTO VRB03KT 10SM CLR 13/09 A2999 RMK AO2,K6S2,2023-03-18T18:35:00Z,43.98,-124.12,13.0,9.0,0,3,,10.0,29.991142,,,TRUE,TRUE,,,,,,,CLR,,,,,,,,VFR,,,,,,,,,,,,METAR,16.0
K6S2 181815Z AUTO VRB05KT 10SM CLR 12/08 A2999 RMK AO2,K6S2,2023-03-18T18:15:00Z,43.98,-124.12,12.0,8.0,0,5,,10.0,29.991142,,,TRUE,TRUE,,,,,,,CLR,,,,,,,,VFR,,,,,,,,,,,,SPECI,16.0
K6S2 181755Z AUTO VRB03KT 10SM CLR 11/08 A3000 RMK AO2,K6S2,2023-03-18T17:55:00Z,43.98,-124.12,11.0,8.0,0,3,,10.0,30.0,,,TRUE,TRUE,,,,,,,CLR,,,,,,,,VFR,,,,,,,,,,,,METAR,16.0
K6S2 181735Z AUTO VRB04KT 10SM CLR 10/08 A3001 RMK AO2,K6S2,2023-03-18T17:35:00Z,43.98,-124.12,10.0,8.0,0,4,,10.0,30.008858,,,TRUE,TRUE,,,,,,,CLR,,,,,,,,VFR,,,,,,,,,,,,METAR,16.0
K6S2 181715Z AUTO VRB05G10KT 10SM CLR 10/08 A3001 RMK AO2,K6S2,2023-03-18T17:15:00Z,43.98,-124.12,10.0,8.0,0,5,10,10.0,30.008858,,,TRUE,TRUE,,,,,,,CLR,,,,,,,,VFR,,,,,,,,,,,,SPECI,16.0
K6S2 181655Z AUTO VRB05KT 10SM CLR 09/08 A3002 RMK AO2,K6S2,2023-03-18T16:55:00Z,43.98,-124.12,9.0,8.0,0,5,,10.0,30.02067,,,TRUE,TRUE,,,,,,,CLR,,,,,,,,VFR,,,,,,,,,,,,SPECI,16.0
K6S2 181635Z AUTO VRB04KT 10SM CLR 08/08 A3002 RMK AO2,K6S2,2023-03-18T16:35:00Z,43.98,-124.12,8.0,8.0,0,4,,10.0,30.02067,,,TRUE,TRUE,,,,,,,CLR,,,,,,,,VFR,,,,,,,,,,,,SPECI,16.0
K6S2 181615Z AUTO VRB04KT 10SM CLR 07/07 A3002 RMK AO2,K6S2,2023-03-18T16:15:00Z,43.98,-124.12,7.0,7.0,0,4,,10.0,30.02067,,,TRUE,TRUE,,,,,,,CLR,,,,,,,,VFR,,,,,,,,,,,,METAR,16.0
K6S2 181555Z AUTO VRB03KT 10SM CLR 06/06 A3003 RMK AO2,K6S2,2023-03-18T15:55:00Z,43.98,-124.12,6.0,6.0,0,3,,10.0,30.029528,,,TRUE,TRUE,,,,,,,CLR,,,,,,,,VFR,,,,,,,,,,,,METAR,16.0
K6S2 181535Z AUTO 00000KT 10SM CLR 05/05 A3003 RMK AO2,K6S2,2023-03-18T15:35:00Z,43.98,-124.12,5.0,5.0,0,0,,10.0,30.029528,,,TRUE,TRUE,,,,,,,CLR,,,,,,,,VFR,,,,,,,,,,,,SPECI,16.0
K6S2 181515Z AUTO 00000KT 10SM CLR 04/04 A3004 RMK AO2,K6S2,2023-03-18T15:15:00Z,43.98,-124.12,4.0,4.0,0,0,,10.0,30.041338,,,TRUE,TRUE,,,,,,,CLR,,,,,,,,VFR,,,,,,,,,,,,SPECI,16.0
K6S2 181455Z AUTO 00000KT 10SM CLR 04/04 A3003 RMK AO2,K6S2,2023-03-18T14:55:00Z,43.98,-124.12,4.0,4.0,0,0,,10.0,30.029528,,,TRUE,TRUE,,,,,,,CLR,,,,,,,,VFR,,,,,,,,,,,,METAR,16.0
K6S2 181435Z AUTO 11004KT 10SM CLR 04/04 A3004 RMK AO2,K6S2,2023-03-18T14:35:00Z,43.98,-124.12,4.0,4.0,110,4,,10.0,30.041338,,,TRUE,TRUE,,,,,,,CLR,,,,,,,,VFR,,,,,,,,,,,,SPECI,16.0
K6S2 181415Z AUTO VRB04KT 10SM BKN043 04/04 A3004 RMK AO2,K6S2,2023-03-18T14:15:00Z,43.98,-124.12,4.0,4.0,0,4,,10.0,30.041338,,,TRUE,TRUE,,,,,,,BKN,4300,,,,,,,VFR,,,,,,,,,,,,SPECI,16.0
K6S2 181355Z AUTO VRB03KT 10SM SCT003 OVC044 04/04 A3005 RMK AO2,K6S2,2023-03-18T13:55:00Z,43.98,-124.12,4.0,4.0,0,3,,10.0,30.050198,,,TRUE,TRUE,,,,,,,SCT,300,OVC,4400,,,,,VFR,,,,,,,,,,,,METAR,16.0
K6S2 181335Z AUTO VRB04KT 10SM OVC003 04/04 A3006 RMK AO2,K6S2,2023-03-18T13:35:00Z,43.98,-124.12,4.0,4.0,0,4,,10.0,30.059055,,,TRUE,TRUE,,,,,,,OVC,300,,,,,,,LIFR,,,,,,,,,,,,SPECI,16.0
K6S2 181315Z AUTO VRB03KT 10SM OVC003 03/03 A3006 RMK AO2,K6S2,2023-03-18T13:15:00Z,43.98,-124.12,3.0,3.0,0,3,,10.0,30.059055,,,TRUE,TRUE,,,,,,,OVC,300,,,,,,,LIFR,,,,,,,,,,,,METAR,16.0
K6S2 181255Z AUTO VRB04KT 7SM OVC003 04/04 A3007 RMK AO2,K6S2,2023-03-18T12:55:00Z,43.98,-124.12,4.0,4.0,0,4,,7.0,30.070866,,,TRUE,TRUE,,,,,,,OVC,300,,,,,,,LIFR,,,,,,,,,,,,METAR,16.0
K6S2 181235Z AUTO 00000KT 8SM OVC002 04/04 A3008 RMK AO2,K6S2,2023-03-18T12:35:00Z,43.98,-124.12,4.0,4.0,0,0,,8.0,30.079725,,,TRUE,TRUE,,,,,,,OVC,200,,,,,,,LIFR,,,,,,,,,,,,METAR,16.0
K6S2 181215Z AUTO VRB03KT 1 3/4SM BR OVC002 04/04 A3007 RMK AO2,K6S2,2023-03-18T12:15:00Z,43.98,-124.12,4.0,4.0,0,3,,1.75,30.070866,,,TRUE,TRUE,,,,,,BR,OVC,200,,,,,,,LIFR,,,,,,,,,,,,METAR,16.0
K6S2 181155Z AUTO 00000KT 1/4SM FG OVC002 04/04 A3007 RMK AO2,K6S2,2023-03-18T11:55:00Z,43.98,-124.12,4.0,4.0,0,0,,0.25,30.070866,,,TRUE,TRUE,,,,,,FG,OVC,200,,,,,,,LIFR,,,,,,,,,,,,METAR,16.0
K6S2 181135Z AUTO 00000KT 1/4SM FG OVC002 04/04 A3008 RMK AO2,K6S2,2023-03-18T11:35:00Z,43.98,-124.12,4.0,4.0,0,0,,0.25,30.079725,,,TRUE,TRUE,,,,,,FG,OVC,200,,,,,,,LIFR,,,,,,,,,,,,METAR,16.0
K6S2 181115Z AUTO 00000KT 1/2SM FG OVC002 04/04 A3009 RMK AO2,K6S2,2023-03-18T11:15:00Z,43.98,-124.12,4.0,4.0,0,0,,0.5,30.088583,,,TRUE,TRUE,,,,,,FG,OVC,200,,,,,,,LIFR,,,,,,,,,,,,METAR,16.0
K6S2 181055Z AUTO 00000KT 1/4SM FG OVC001 04/04 A3010 RMK AO2,K6S2,2023-03-18T10:55:00Z,43.98,-124.12,4.0,4.0,0,0,,0.25,30.100393,,,TRUE,TRUE,,,,,,FG,OVC,100,,,,,,,LIFR,,,,,,,,,,,,METAR,16.0
K6S2 181035Z AUTO 00000KT 1/2SM BR OVC001 04/04 A3010 RMK AO2,K6S2,2023-03-18T10:35:00Z,43.98,-124.12,4.0,4.0,0,0,,0.5,30.100393,,,TRUE,TRUE,,,,,,BR,OVC,100,,,,,,,LIFR,,,,,,,,,,,,METAR,16.0
K6S2 181015Z AUTO VRB03KT 5SM BR BKN001 BKN012 04/04 A3009 RMK AO2,K6S2,2023-03-18T10:15:00Z,43.98,-124.12,4.0,4.0,0,3,,5.0,30.088583,,,TRUE,TRUE,,,,,,BR,BKN,100,BKN,1200,,,,,LIFR,,,,,,,,,,,,METAR,16.0
K6S2 180955Z AUTO 00000KT 10SM BKN012 04/04 A3009 RMK AO2,K6S2,2023-03-18T09:55:00Z,43.98,-124.12,4.0,4.0,0,0,,10.0,30.088583,,,TRUE,TRUE,,,,,,,BKN,1200,,,,,,,MVFR,,,,,,,,,,,,METAR,16.0
K6S2 180935Z AUTO VRB03KT 10SM OVC013 05/05 A3009 RMK AO2,K6S2,2023-03-18T09:35:00Z,43.98,-124.12,5.0,5.0,0,3,,10.0,30.088583,,,TRUE,TRUE,,,,,,,OVC,1300,,,,,,,MVFR,,,,,,,,,,,,METAR,16.0
K6S2 180915Z AUTO 00000KT 10SM OVC014 05/05 A3010 RMK AO2,K6S2,2023-03-18T09:15:00Z,43.98,-124.12,5.0,5.0,0,0,,10.0,30.100393,,,TRUE,TRUE,,,,,,,OVC,1400,,,,,,,MVFR,,,,,,,,,,,,SPECI,16.0
K6S2 180855Z AUTO VRB03KT 10SM OVC015 05/05 A3010 RMK AO2,K6S2,2023-03-18T08:55:00Z,43.98,-124.12,5.0,5.0,0,3,,10.0,30.100393,,,TRUE,TRUE,,,,,,,OVC,1500,,,,,,,MVFR,,,,,,,,,,,,METAR,16.0
K6S2 180835Z AUTO 00000KT 10SM OVC016 05/05 A3011 RMK AO2,K6S2,2023-03-18T08:35:00Z,43.98,-124.12,5.0,5.0,0,0,,10.0,30.109253,,,TRUE,TRUE,,,,,,,OVC,1600,,,,,,,MVFR,,,,,,,,,,,,METAR,16.0
K6S2 180815Z AUTO 00000KT 10SM OVC018 05/05 A3011 RMK AO2,K6S2,2023-03-18T08:15:00Z,43.98,-124.12,5.0,5.0,0,0,,10.0,30.109253,,,TRUE,TRUE,,,,,,,OVC,1800,,,,,,,MVFR,,,,,,,,,,,,METAR,16.0
K6S2 180755Z AUTO 00000KT 10SM OVC018 04/04 A3012 RMK AO2,K6S2,2023-03-18T07:55:00Z,43.98,-124.12,4.0,4.0,0,0,,10.0,30.121063,,,TRUE,TRUE,,,,,,,OVC,1800,,,,,,,MVFR,,,,,,,,,,,,METAR,16.0
K6S2 180735Z AUTO 00000KT 10SM OVC018 05/05 A3013 RMK AO2,K6S2,2023-03-18T07:35:00Z,43.98,-124.12,5.0,5.0,0,0,,10.0,30.129921,,,TRUE,TRUE,,,,,,,OVC,1800,,,,,,,MVFR,,,,,,,,,,,,SPECI,16.0
K6S2 180715Z AUTO 00000KT 10SM OVC020 04/04 A3012 RMK AO2,K6S2,2023-03-18T07:15:00Z,43.98,-124.12,4.0,4.0,0,0,,10.0,30.121063,,,TRUE,TRUE,,,,,,,OVC,2000,,,,,,,MVFR,,,,,,,,,,,,METAR,16.0
K6S2 180655Z AUTO 00000KT 9SM SCT020 OVC060 04/04 A3013 RMK AO2,K6S2,2023-03-18T06:55:00Z,43.98,-124.12,4.0,4.0,0,0,,9.0,30.129921,,,TRUE,TRUE,,,,,,,SCT,2000,OVC,6000,,,,,VFR,,,,,,,,,,,,METAR,16.0
K6S2 180635Z AUTO 00000KT 10SM FEW022 OVC060 04/04 A3015 RMK AO2,K6S2,2023-03-18T06:35:00Z,43.98,-124.12,4.0,4.0,0,0,,10.0,30.15059,,,TRUE,TRUE,,,,,,,FEW,2200,OVC,6000,,,,,VFR,,,,,,,,,,,,METAR,16.0
K6S2 180615Z AUTO 00000KT 10SM OVC060 05/05 A3014 RMK AO2,K6S2,2023-03-18T06:15:00Z,43.98,-124.12,5.0,5.0,0,0,,10.0,30.138779,,,TRUE,TRUE,,,,,,,OVC,6000,,,,,,,VFR,,,,,,,,,,,,METAR,16.0
K6S2 180555Z AUTO 00000KT 10SM SCT055 OVC065 05/05 A3014 RMK AO2,K6S2,2023-03-18T05:55:00Z,43.98,-124.12,5.0,5.0,0,0,,10.0,30.138779,,,TRUE,TRUE,,,,,,,SCT,5500,OVC,6500,,,,,VFR,,,,,,,,,,,,METAR,16.0
K6S2 180535Z AUTO 00000KT 10SM OVC055 06/06 A3014 RMK AO2,K6S2,2023-03-18T05:35:00Z,43.98,-124.12,6.0,6.0,0,0,,10.0,30.138779,,,TRUE,TRUE,,,,,,,OVC,5500,,,,,,,VFR,,,,,,,,,,,,METAR,16.0
K6S2 180515Z AUTO 00000KT 9SM FEW021 BKN060 OVC100 06/06 A3014 RMK AO2,K6S2,2023-03-18T05:15:00Z,43.98,-124.12,6.0,6.0,0,0,,9.0,30.138779,,,TRUE,TRUE,,,,,,,FEW,2100,BKN,6000,OVC,10000,,,VFR,,,,,,,,,,,,SPECI,16.0
K6S2 180455Z AUTO 00000KT 9SM FEW021 BKN060 OVC100 06/06 A3014 RMK AO2,K6S2,2023-03-18T04:55:00Z,43.98,-124.12,6.0,6.0,0,0,,9.0,30.138779,,,TRUE,TRUE,,,,,,,FEW,2100,BKN,6000,OVC,10000,,,VFR,,,,,,,,,,,,SPECI,16.0
K6S2 180435Z AUTO 00000KT 10SM FEW019 OVC065 07/07 A3014 RMK AO2,K6S2,2023-03-18T04:35:00Z,43.98,-124.12,7.0,7.0,0,0,,10.0,30.138779,,,TRUE,TRUE,,,,,,,FEW,1900,OVC,6500,,,,,VFR,,,,,,,,,,,,SPECI,16.0
K6S2 180415Z AUTO 00000KT 10SM SCT019 OVC065 07/07 A3013 RMK AO2,K6S2,2023-03-18T04:15:00Z,43.98,-124.12,7.0,7.0,0,0,,10.0,30.129921,,,TRUE,TRUE,,,,,,,SCT,1900,OVC,6500,,,,,VFR,,,,,,,,,,,,METAR,16.0
K6S2 180355Z AUTO 00000KT 10SM SCT020 OVC065 07/07 A3012 RMK AO2,K6S2,2023-03-18T03:55:00Z,43.98,-124.12,7.0,7.0,0,0,,10.0,30.121063,,,TRUE,TRUE,,,,,,,SCT,2000,OVC,6500,,,,,VFR,,,,,,,,,,,,METAR,16.0
K6S2 180335Z AUTO 00000KT 10SM FEW021 OVC065 07/07 A3012 RMK AO2,K6S2,2023-03-18T03:35:00Z,43.98,-124.12,7.0,7.0,0,0,,10.0,30.121063,,,TRUE,TRUE,,,,,,,FEW,2100,OVC,6500,,,,,VFR,,,,,,,,,,,,METAR,16.0
K6S2 180315Z AUTO 00000KT 10SM BKN065 OVC110 08/08 A3012 RMK AO2,K6S2,2023-03-18T03:15:00Z,43.98,-124.12,8.0,8.0,0,0,,10.0,30.121063,,,TRUE,TRUE,,,,,,,BKN,6500,OVC,11000,,,,,VFR,,,,,,,,,,,,SPECI,16.0
K6S2 180255Z AUTO 00000KT 10SM SCT110 08/08 A3011 RMK AO2,K6S2,2023-03-18T02:55:00Z,43.98,-124.12,8.0,8.0,0,0,,10.0,30.109253,,,TRUE,TRUE,,,,,,,SCT,11000,,,,,,,VFR,,,,,,,,,,,,METAR,16.0
K6S2 180235Z AUTO 00000KT 10SM SCT022 08/08 A3011 RMK AO2,K6S2,2023-03-18T02:35:00Z,43.98,-124.12,8.0,8.0,0,0,,10.0,30.109253,,,TRUE,TRUE,,,,,,,SCT,2200,,,,,,,VFR,,,,,,,,,,,,METAR,16.0
K6S2 180215Z AUTO 00000KT 10SM BKN022 09/08 A3012 RMK AO2,K6S2,2023-03-18T02:15:00Z,43.98,-124.12,9.0,8.0,0,0,,10.0,30.121063,,,TRUE,TRUE,,,,,,,BKN,2200,,,,,,,MVFR,,,,,,,,,,,,SPECI,16.0
K6S2 180155Z AUTO 00000KT 10SM CLR 09/08 A3011 RMK AO2,K6S2,2023-03-18T01:55:00Z,43.98,-124.12,9.0,8.0,0,0,,10.0,30.109253,,,TRUE,TRUE,,,,,,,CLR,,,,,,,,VFR,,,,,,,,,,,,SPECI,16.0
K6S2 180135Z AUTO 00000KT 10SM CLR 09/08 A3012 RMK AO2,K6S2,2023-03-18T01:35:00Z,43.98,-124.12,9.0,8.0,0,0,,10.0,30.121063,,,TRUE,TRUE,,,,,,,CLR,,,,,,,,VFR,,,,,,,,,,,,SPECI,16.0
K6S2 180115Z AUTO 00000KT 10SM CLR 09/08 A3011 RMK AO2,K6S2,2023-03-18T01:15:00Z,43.98,-124.12,9.0,8.0,0,0,,10.0,30.109253,,,TRUE,TRUE,,,,,,,CLR,,,,,,,,VFR,,,,,,,,,,,,METAR,16.0
K6S2 180055Z AUTO 28003KT 10SM CLR 09/08 A3011 RMK AO2,K6S2,2023-03-18T00:55:00Z,43.98,-124.12,9.0,8.0,280,3,,10.0,30.109253,,,TRUE,TRUE,,,,,,,CLR,,,,,,,,VFR,,,,,,,,,,,,METAR,16.0
K6S2 180035Z AUTO 00000KT 10SM CLR 09/08 A3011 RMK AO2,K6S2,2023-03-18T00:35:00Z,43.98,-124.12,9.0,8.0,0,0,,10.0,30.109253,,,TRUE,TRUE,,,,,,,CLR,,,,,,,,VFR,,,,,,,,,,,,METAR,16.0
K6S2 180015Z AUTO 26004KT 10SM CLR 10/07 A3011 RMK AO2,K6S2,2023-03-18T00:15:00Z,43.98,-124.12,10.0,7.0,260,4,,10.0,30.109253,,,TRUE,TRUE,,,,,,,CLR,,,,,,,,VFR,,,,,,,,,,,,METAR,16.0
K6S2 172355Z AUTO 00000KT 10SM CLR 09/07 A3011 RMK AO2,K6S2,2023-03-17T23:55:00Z,43.98,-124.12,9.0,7.0,0,0,,10.0,30.109253,,,TRUE,TRUE,,,,,,,CLR,,,,,,,,VFR,,,,,,,,,,,,METAR,16.0
K6S2 172335Z AUTO 00000KT 10SM CLR 10/07 A3011 RMK AO2,K6S2,2023-03-17T23:35:00Z,43.98,-124.12,10.0,7.0,0,0,,10.0,30.109253,,,TRUE,TRUE,,,,,,,CLR,,,,,,,,VFR,,,,,,,,,,,,METAR,16.0
K6S2 172315Z AUTO 00000KT 10SM CLR 10/07 A3012 RMK AO2,K6S2,2023-03-17T23:15:00Z,43.98,-124.12,10.0,7.0,0,0,,10.0,30.121063,,,TRUE,TRUE,,,,,,,CLR,,,,,,,,VFR,,,,,,,,,,,,METAR,16.0
K6S2 172255Z AUTO VRB03KT 10SM CLR 10/07 A3012 RMK AO2,K6S2,2023-03-17T22:55:00Z,43.98,-124.12,10.0,7.0,0,3,,10.0,30.121063,,,TRUE,TRUE,,,,,,,CLR,,,,,,,,VFR,,,,,,,,,,,,METAR,16.0
K6S2 172235Z AUTO VRB03KT 10SM CLR 10/07 A3012 RMK AO2,K6S2,2023-03-17T22:35:00Z,43.98,-124.12,10.0,7.0,0,3,,10.0,30.121063,,,TRUE,TRUE,,,,,,,CLR,,,,,,,,VFR,,,,,,,,,,,,SPECI,16.0
K6S2 172215Z AUTO VRB03KT 10SM FEW020 10/07 A3013 RMK AO2,K6S2,2023-03-17T22:15:00Z,43.98,-124.12,10.0,7.0,0,3,,10.0,30.129921,,,TRUE,TRUE,,,,,,,FEW,2000,,,,,,,VFR,,,,,,,,,,,,METAR,16.0
K6S2 172155Z AUTO 00000KT 10SM SCT020 10/07 A3013 RMK AO2,K6S2,2023-03-17T21:55:00Z,43.98,-124.12,10.0,7.0,0,0,,10.0,30.129921,,,TRUE,TRUE,,,,,,,SCT,2000,,,,,,,VFR,,,,,,,,,,,,METAR,16.0
K6S2 172135Z AUTO 24004G10KT 10SM CLR 10/07 A3013 RMK AO2,K6S2,2023-03-17T21:35:00Z,43.98,-124.12,10.0,7.0,240,4,10,10.0,30.129921,,,TRUE,TRUE,,,,,,,CLR,,,,,,,,VFR,,,,,,,,,,,,METAR,16.0
K6S2 172115Z AUTO VRB05KT 10SM CLR 10/07 A3013 RMK AO2,K6S2,2023-03-17T21:15:00Z,43.98,-124.12,10.0,7.0,0,5,,10.0,30.129921,,,TRUE,TRUE,,,,,,,CLR,,,,,,,,VFR,,,,,,,,,,,,SPECI,16.0
K6S2 172055Z AUTO VRB05KT 10SM CLR 10/07 A3014 RMK AO2,K6S2,2023-03-17T20:55:00Z,43.98,-124.12,10.0,7.0,0,5,,10.0,30.138779,,,TRUE,TRUE,,,,,,,CLR,,,,,,,,VFR,,,,,,,,,,,,METAR,16.0
K6S2 172035Z AUTO VRB06KT 10SM CLR 09/07 A3014 RMK AO2,K6S2,2023-03-17T20:35:00Z,43.98,-124.12,9.0,7.0,0,6,,10.0,30.138779,,,TRUE,TRUE,,,,,,,CLR,,,,,,,,VFR,,,,,,,,,,,,METAR,16.0
K6S2 172015Z AUTO 26008KT 10SM CLR 10/07 A3015 RMK AO2,K6S2,2023-03-17T20:15:00Z,43.98,-124.12,10.0,7.0,260,8,,10.0,30.15059,,,TRUE,TRUE,,,,,,,CLR,,,,,,,,VFR,,,,,,,,,,,,METAR,16.0
K6S2 171955Z AUTO 22008G13KT 10SM CLR 10/07 A3015 RMK AO2,K6S2,2023-03-17T19:55:00Z,43.98,-124.12,10.0,7.0,220,8,13,10.0,30.15059,,,TRUE,TRUE,,,,,,,CLR,,,,,,,,VFR,,,,,,,,,,,,METAR,16.0
K6S2 171935Z AUTO VRB06KT 10SM FEW020 10/07 A3015 RMK AO2,K6S2,2023-03-17T19:35:00Z,43.98,-124.12,10.0,7.0,0,6,,10.0,30.15059,,,TRUE,TRUE,,,,,,,FEW,2000,,,,,,,VFR,,,,,,,,,,,,METAR,16.0
K6S2 171915Z AUTO 22009KT 180V250 7SM SCT020 10/07 A3016 RMK AO2,K6S2,2023-03-17T19:15:00Z,43.98,-124.12,10.0,7.0,220,9,,7.0,30.159449,,,TRUE,TRUE,,,,,,,SCT,2000,,,,,,,VFR,,,,,,,,,,,,METAR,16.0
K6S2 171855Z AUTO 00000KT 10SM SCT015 10/07 A3015 RMK AO2,K6S2,2023-03-17T18:55:00Z,43.98,-124.12,10.0,7.0,0,0,,10.0,30.15059,,,TRUE,TRUE,,,,,,,SCT,1500,,,,,,,VFR,,,,,,,,,,,,METAR,16.0
K6S2 171835Z AUTO 00000G10KT 10SM BKN015 09/07 A3016 RMK AO2,K6S2,2023-03-17T18:35:00Z,43.98,-124.12,9.0,7.0,0,0,10,10.0,30.159449,,,TRUE,TRUE,,,,,,,BKN,1500,,,,,,,MVFR,,,,,,,,,,,,SPECI,16.0
K6S2 171815Z AUTO VRB05KT 10SM OVC014 09/07 A3016 RMK AO2,K6S2,2023-03-17T18:15:00Z,43.98,-124.12,9.0,7.0,0,5,,10.0,30.159449,,,TRUE,TRUE,,,,,,,OVC,1400,,,,,,,MVFR,,,,,,,,,,,,SPECI,16.0
K6S2 171755Z AUTO VRB05G11KT 10SM OVC014 09/07 A3016 RMK AO2,K6S2,2023-03-17T17:55:00Z,43.98,-124.12,9.0,7.0,0,5,11,10.0,30.159449,,,TRUE,TRUE,,,,,,,OVC,1400,,,,,,,MVFR,,,,,,,,,,,,METAR,16.0
K6S2 171735Z AUTO 18005KT 10SM OVC013 09/07 A3016 RMK AO2,K6S2,2023-03-17T17:35:00Z,43.98,-124.12,9.0,7.0,180,5,,10.0,30.159449,,,TRUE,TRUE,,,,,,,OVC,1300,,,,,,,MVFR,,,,,,,,,,,,METAR,16.0
K6S2 171715Z AUTO 00000KT 10SM OVC013 08/08 A3015 RMK AO2,K6S2,2023-03-17T17:15:00Z,43.98,-124.12,8.0,8.0,0,0,,10.0,30.15059,,,TRUE,TRUE,,,,,,,OVC,1300,,,,,,,MVFR,,,,,,,,,,,,METAR,16.0
