No errors
Max results hit (1000): not all possible results returned; 
77 ms
data source=metars
1000 results
raw_text,station_id,observation_time,latitude,longitude,temp_c,dewpoint_c,wind_dir_degrees,wind_speed_kt,wind_gust_kt,visibility_statute_mi,altim_in_hg,sea_level_pressure_mb,corrected,auto,auto_station,maintenance_indicator_on,no_signal,lightning_sensor_off,freezing_rain_sensor_off,present_weather_sensor_off,wx_string,sky_cover,cloud_base_ft_agl,sky_cover,cloud_base_ft_agl,sky_cover,cloud_base_ft_agl,sky_cover,cloud_base_ft_agl,flight_category,three_hr_pressure_tendency_mb,maxT_c,minT_c,maxT24hr_c,minT24hr_c,precip_in,pcp3hr_in,pcp6hr_in,pcp24hr_in,snow_in,vert_vis_ft,metar_type,elevation_m
K6S2 141755Z AUTO 35009KT 330V030 10SM FEW045 BKN085 06/04 A3009 RMK AO2,K6S2,2023-02-14T17:55:00Z,43.98,-124.12,6.0,4.0,350,9,,10.0,30.088583,,,TRUE,TRUE,,,,,,,FEW,4500,BKN,8500,,,,,VFR,,,,,,,,,,,,METAR,16.0
K6S2 141735Z AUTO VRB05G13KT 10SM BKN085 05/04 A3009 RMK AO2,K6S2,2023-02-14T17:35:00Z,43.98,-124.12,5.0,4.0,0,5,13,10.0,30.088583,,,TRUE,TRUE,,,,,,,BKN,8500,,,,,,,VFR,,,,,,,,,,,,METAR,16.0
K6S2 141715Z AUTO 36007G17KT 330V060 9SM CLR 05/04 A3007 RMK AO2,K6S2,2023-02-14T17:15:00Z,43.98,-124.12,5.0,4.0,360,7,17,9.0,30.070866,,,TRUE,TRUE,,,,,,,CLR,,,,,,,,VFR,,,,,,,,,,,,METAR,16.0
K6S2 141655Z AUTO 33012G20KT 5SM -RA BR FEW014 SCT019 BKN090 04/04 A3006 RMK AO2 P0002,K6S2,2023-02-14T16:55:00Z,43.98,-124.12,4.0,4.0,330,12,20,5.0,30.059055,,,TRUE,TRUE,,,,,,-RA BR,FEW,1400,SCT,1900,BKN,9000,,,MVFR,,,,,,0.02,,,,,,METAR,16.0
K6S2 141635Z AUTO 36009G23KT 330V040 9SM SCT018 BKN028 BKN040 05/04 A3004 RMK AO2,K6S2,2023-02-14T16:35:00Z,43.98,-124.12,5.0,4.0,360,9,23,9.0,30.041338,,,TRUE,TRUE,,,,,,,SCT,1800,BKN,2800,BKN,4000,,,MVFR,,,,,,,,,,,,SPECI,16.0
K6S2 141615Z AUTO 34012G19KT 6SM -RA BR FEW008 BKN024 BKN038 04/04 A3004 RMK AO2,K6S2,2023-02-14T16:15:00Z,43.98,-124.12,4.0,4.0,340,12,19,6.0,30.041338,,,TRUE,TRUE,,,,,,-RA BR,FEW,800,BKN,2400,BKN,3800,,,MVFR,,,,,,,,,,,,METAR,16.0
K6S2 141555Z AUTO 34012G28KT 2 1/2SM -RA BR FEW008 SCT021 BKN042 03/03 A3003 RMK AO2,K6S2,2023-02-14T15:55:00Z,43.98,-124.12,3.0,3.0,340,12,28,2.5,30.029528,,,TRUE,TRUE,,,,,,-RA BR,FEW,800,SCT,2100,BKN,4200,,,IFR,,,,,,,,,,,,METAR,16.0
K6S2 141535Z AUTO 33008G17KT 10SM SCT020 BKN039 OVC075 04/03 A3003 RMK AO2,K6S2,2023-02-14T15:35:00Z,43.98,-124.12,4.0,3.0,330,8,17,10.0,30.029528,,,TRUE,TRUE,,,,,,,SCT,2000,BKN,3900,OVC,7500,,,VFR,,,,,,,,,,,,SPECI,16.0
K6S2 141515Z AUTO 34013G25KT 9SM FEW017 BKN024 OVC055 05/04 A3004 RMK AO2,K6S2,2023-02-14T15:15:00Z,43.98,-124.12,5.0,4.0,340,13,25,9.0,30.041338,,,TRUE,TRUE,,,,,,,FEW,1700,BKN,2400,OVC,5500,,,MVFR,,,,,,,,,,,,METAR,16.0
K6S2 141455Z AUTO 35007G12KT 320V040 6SM -RA BR SCT021 BKN032 BKN044 03/03 A3004 RMK AO2 P0003,K6S2,2023-02-14T14:55:00Z,43.98,-124.12,3.0,3.0,350,7,12,6.0,30.041338,,,TRUE,TRUE,,,,,,-RA BR,SCT,2100,BKN,3200,BKN,4400,,,VFR,,,,,,0.03,,,,,,METAR,16.0
K6S2 141435Z AUTO 00000KT 7SM -RA FEW005 SCT028 BKN047 03/03 A3003 RMK AO2,K6S2,2023-02-14T14:35:00Z,43.98,-124.12,3.0,3.0,0,0,,7.0,30.029528,,,TRUE,TRUE,,,,,,-RA,FEW,500,SCT,2800,BKN,4700,,,VFR,,,,,,,,,,,,METAR,16.0
K6S2 141415Z AUTO 00000KT 9SM FEW017 SCT030 BKN037 03/03 A3002 RMK AO2,K6S2,2023-02-14T14:15:00Z,43.98,-124.12,3.0,3.0,0,0,,9.0,30.02067,,,TRUE,TRUE,,,,,,,FEW,1700,SCT,3000,BKN,3700,,,VFR,,,,,,,,,,,,SPECI,16.0
K6S2 141355Z AUTO 00000KT 9SM FEW015 SCT028 BKN036 03/03 A3003 RMK AO2,K6S2,2023-02-14T13:55:00Z,43.98,-124.12,3.0,3.0,0,0,,9.0,30.029528,,,TRUE,TRUE,,,,,,,FEW,1500,SCT,2800,BKN,3600,,,VFR,,,,,,,,,,,,METAR,16.0
K6S2 141335Z AUTO 02004KT 10SM SCT011 BKN029 OVC060 03/03 A3002 RMK AO2,K6S2,2023-02-14T13:35:00Z,43.98,-124.12,3.0,3.0,20,4,,10.0,30.02067,,,TRUE,TRUE,,,,,,,SCT,1100,BKN,2900,OVC,6000,,,MVFR,,,,,,,,,,,,METAR,16.0
K6S2 141315Z AUTO 34009G19KT 5SM -RA BR FEW004 SCT011 BKN018 04/04 A3002 RMK AO2,K6S2,2023-02-14T13:15:00Z,43.98,-124.12,4.0,4.0,340,9,19,5.0,30.02067,,,TRUE,TRUE,,,,,,-RA BR,FEW,400,SCT,1100,BKN,1800,,,MVFR,,,,,,,,,,,,SPECI,16.0
K6S2 141255Z AUTO VRB04G10KT 7SM BKN016 BKN022 OVC038 04/04 A3001 RMK AO2 P0002,K6S2,2023-02-14T12:55:00Z,43.98,-124.12,4.0,4.0,0,4,10,7.0,30.008858,,,TRUE,TRUE,,,,,,,BKN,1600,BKN,2200,OVC,3800,,,MVFR,,,,,,0.02,,,,,,METAR,16.0
K6S2 141235Z AUTO 35007G12KT 320V020 9SM FEW003 SCT012 BKN026 04/04 A3001 RMK AO2,K6S2,2023-02-14T12:35:00Z,43.98,-124.12,4.0,4.0,350,7,12,9.0,30.008858,,,TRUE,TRUE,,,,,,,FEW,300,SCT,1200,BKN,2600,,,MVFR,,,,,,,,,,,,SPECI,16.0
K6S2 141215Z AUTO 33014G23KT 10SM FEW003 SCT023 BKN029 06/04 A3000 RMK AO2,K6S2,2023-02-14T12:15:00Z,43.98,-124.12,6.0,4.0,330,14,23,10.0,30.0,,,TRUE,TRUE,,,,,,,FEW,300,SCT,2300,BKN,2900,,,MVFR,,,,,,,,,,,,SPECI,16.0
K6S2 141155Z AUTO 32009G19KT 10SM FEW002 BKN021 OVC075 06/04 A3000 RMK AO2 P0002,K6S2,2023-02-14T11:55:00Z,43.98,-124.12,6.0,4.0,320,9,19,10.0,30.0,,,TRUE,TRUE,,,,,,,FEW,200,BKN,2100,OVC,7500,,,MVFR,,,,,,0.02,,,,,,METAR,16.0
K6S2 141135Z AUTO 32012G19KT 9SM FEW002 BKN016 OVC080 06/04 A3001 RMK AO2,K6S2,2023-02-14T11:35:00Z,43.98,-124.12,6.0,4.0,320,12,19,9.0,30.008858,,,TRUE,TRUE,,,,,,,FEW,200,BKN,1600,OVC,8000,,,MVFR,,,,,,,,,,,,SPECI,16.0
K6S2 141115Z AUTO 30009G15KT 9SM FEW004 BKN015 OVC022 06/05 A3001 RMK AO2,K6S2,2023-02-14T11:15:00Z,43.98,-124.12,6.0,5.0,300,9,15,9.0,30.008858,,,TRUE,TRUE,,,,,,,FEW,400,BKN,1500,OVC,2200,,,MVFR,,,,,,,,,,,,METAR,16.0
K6S2 141055Z AUTO 27010G22KT 230V290 9SM -RA SCT015 BKN020 OVC027 05/05 A3002 RMK AO2 P0002,K6S2,2023-02-14T10:55:00Z,43.98,-124.12,5.0,5.0,270,10,22,9.0,30.02067,,,TRUE,TRUE,,,,,,-RA,SCT,1500,BKN,2000,OVC,2700,,,MVFR,,,,,,0.02,,,,,,SPECI,16.0
K6S2 141035Z AUTO 28012G20KT 250V310 8SM -RA FEW015 BKN020 OVC049 05/04 A3004 RMK AO2,K6S2,2023-02-14T10:35:00Z,43.98,-124.12,5.0,4.0,280,12,20,8.0,30.041338,,,TRUE,TRUE,,,,,,-RA,FEW,1500,BKN,2000,OVC,4900,,,MVFR,,,,,,,,,,,,METAR,16.0
K6S2 141015Z AUTO 26010G20KT 5SM -RA BR SCT013 BKN018 OVC023 04/04 A3005 RMK AO2,K6S2,2023-02-14T10:15:00Z,43.98,-124.12,4.0,4.0,260,10,20,5.0,30.050198,,,TRUE,TRUE,,,,,,-RA BR,SCT,1300,BKN,1800,OVC,2300,,,MVFR,,,,,,,,,,,,SPECI,16.0
K6S2 140955Z AUTO 28014G28KT 2 1/2SM -RA BR FEW009 BKN017 OVC070 05/04 A3007 RMK AO2 P0002,K6S2,2023-02-14T09:55:00Z,43.98,-124.12,5.0,4.0,280,14,28,2.5,30.070866,,,TRUE,TRUE,,,,,,-RA BR,FEW,900,BKN,1700,OVC,7000,,,IFR,,,,,,0.02,,,,,,METAR,16.0
K6S2 140935Z AUTO 27009G14KT 230V290 10SM FEW034 SCT045 OVC070 07/02 A3006 RMK AO2,K6S2,2023-02-14T09:35:00Z,43.98,-124.12,7.0,2.0,270,9,14,10.0,30.059055,,,TRUE,TRUE,,,,,,,FEW,3400,SCT,4500,OVC,7000,,,VFR,,,,,,,,,,,,METAR,16.0
K6S2 140915Z AUTO 29011G17KT 9SM FEW003 SCT037 BKN049 07/02 A3007 RMK AO2,K6S2,2023-02-14T09:15:00Z,43.98,-124.12,7.0,2.0,290,11,17,9.0,30.070866,,,TRUE,TRUE,,,,,,,FEW,300,SCT,3700,BKN,4900,,,VFR,,,,,,,,,,,,SPECI,16.0
K6S2 140855Z AUTO 26007G14KT 220V280 8SM -RA SCT039 BKN050 BKN065 06/03 A3009 RMK AO2,K6S2,2023-02-14T08:55:00Z,43.98,-124.12,6.0,3.0,260,7,14,8.0,30.088583,,,TRUE,TRUE,,,,,,-RA,SCT,3900,BKN,5000,BKN,6500,,,VFR,,,,,,,,,,,,METAR,16.0
K6S2 140835Z AUTO 29008G19KT 10SM FEW040 SCT047 BKN070 07/01 A3010 RMK AO2,K6S2,2023-02-14T08:35:00Z,43.98,-124.12,7.0,1.0,290,8,19,10.0,30.100393,,,TRUE,TRUE,,,,,,,FEW,4000,SCT,4700,BKN,7000,,,VFR,,,,,,,,,,,,METAR,16.0
K6S2 140815Z AUTO 29008KT 9SM FEW012 SCT047 BKN060 05/03 A3011 RMK AO2,K6S2,2023-02-14T08:15:00Z,43.98,-124.12,5.0,3.0,290,8,,9.0,30.109253,,,TRUE,TRUE,,,,,,,FEW,1200,SCT,4700,BKN,6000,,,VFR,,,,,,,,,,,,METAR,16.0
K6S2 140755Z AUTO 30008G22KT 3SM -RA HZ SCT013 BKN035 BKN055 05/02 A3012 RMK AO2 P0001,K6S2,2023-02-14T07:55:00Z,43.98,-124.12,5.0,2.0,300,8,22,3.0,30.121063,,,TRUE,TRUE,,,,,,-RA HZ,SCT,1300,BKN,3500,BKN,5500,,,MVFR,,,,,,0.01,,,,,,METAR,16.0
K6S2 140735Z AUTO 30008G14KT 10SM BKN065 BKN075 OVC120 07/M01 A3012 RMK AO2,K6S2,2023-02-14T07:35:00Z,43.98,-124.12,7.0,-1.0,300,8,14,10.0,30.121063,,,TRUE,TRUE,,,,,,,BKN,6500,BKN,7500,OVC,12000,,,VFR,,,,,,,,,,,,SPECI,16.0
K6S2 140715Z AUTO 31010G18KT 9SM FEW043 FEW055 OVC065 07/M01 A3013 RMK AO2,K6S2,2023-02-14T07:15:00Z,43.98,-124.12,7.0,-1.0,310,10,18,9.0,30.129921,,,TRUE,TRUE,,,,,,,FEW,4300,FEW,5500,OVC,6500,,,VFR,,,,,,,,,,,,METAR,16.0
K6S2 140655Z AUTO 33007KT 9SM FEW047 SCT055 BKN070 07/M00 A3013 RMK AO2,K6S2,2023-02-14T06:55:00Z,43.98,-124.12,7.0,0.0,330,7,,9.0,30.129921,,,TRUE,TRUE,,,,,,,FEW,4700,SCT,5500,BKN,7000,,,VFR,,,,,,,,,,,,METAR,16.0
K6S2 140635Z AUTO 33008G18KT 9SM FEW037 BKN047 BKN055 06/M02 A3015 RMK AO2,K6S2,2023-02-14T06:35:00Z,43.98,-124.12,6.0,-2.0,330,8,18,9.0,30.15059,,,TRUE,TRUE,,,,,,,FEW,3700,BKN,4700,BKN,5500,,,VFR,,,,,,,,,,,,SPECI,16.0
K6S2 140615Z AUTO 33006KT 9SM SCT040 BKN055 BKN095 06/02 A3015 RMK AO2,K6S2,2023-02-14T06:15:00Z,43.98,-124.12,6.0,2.0,330,6,,9.0,30.15059,,,TRUE,TRUE,,,,,,,SCT,4000,BKN,5500,BKN,9500,,,VFR,,,,,,,,,,,,METAR,16.0
K6S2 140555Z AUTO 33010KT 300V360 10SM FEW003 BKN042 OVC050 06/01 A3016 RMK AO2 P0001,K6S2,2023-02-14T05:55:00Z,43.98,-124.12,6.0,1.0,330,10,,10.0,30.159449,,,TRUE,TRUE,,,,,,,FEW,300,BKN,4200,OVC,5000,,,VFR,,,,,,0.01,,,,,,METAR,16.0
K6S2 140535Z AUTO 33009KT 9SM VCTS FEW024 BKN047 OVC070 05/02 A3017 RMK AO2 LTG DSNT N,K6S2,2023-02-14T05:35:00Z,43.98,-124.12,5.0,2.0,330,9,,9.0,30.171259,,,TRUE,TRUE,,,,,,VCTS,FEW,2400,BKN,4700,OVC,7000,,,VFR,,,,,,,,,,,,METAR,16.0
K6S2 140515Z AUTO VRB05G10KT 9SM -RA FEW025 SCT042 BKN055 04/02 A3017 RMK AO2 LTG DSNT N,K6S2,2023-02-14T05:15:00Z,43.98,-124.12,4.0,2.0,0,5,10,9.0,30.171259,,,TRUE,TRUE,,,,,,-RA,FEW,2500,SCT,4200,BKN,5500,,,VFR,,,,,,,,,,,,SPECI,16.0
K6S2 140455Z AUTO 35004KT 10SM VCTS FEW030 SCT060 OVC070 05/01 A3016 RMK AO2 LTG DSNT N,K6S2,2023-02-14T04:55:00Z,43.98,-124.12,5.0,1.0,350,4,,10.0,30.159449,,,TRUE,TRUE,,,,,,VCTS,FEW,3000,SCT,6000,OVC,7000,,,VFR,,,,,,,,,,,,METAR,16.0
K6S2 140435Z AUTO 34011KT 10SM SCT033 BKN060 OVC080 05/02 A3017 RMK AO2,K6S2,2023-02-14T04:35:00Z,43.98,-124.12,5.0,2.0,340,11,,10.0,30.171259,,,TRUE,TRUE,,,,,,,SCT,3300,BKN,6000,OVC,8000,,,VFR,,,,,,,,,,,,METAR,16.0
K6S2 140415Z AUTO 35013G29KT 330V030 9SM FEW034 SCT046 BKN055 07/01 A3016 RMK AO2,K6S2,2023-02-14T04:15:00Z,43.98,-124.12,7.0,1.0,350,13,29,9.0,30.159449,,,TRUE,TRUE,,,,,,,FEW,3400,SCT,4600,BKN,5500,,,VFR,,,,,,,,,,,,METAR,16.0
K6S2 140355Z AUTO 33016G27KT 10SM FEW038 SCT046 SCT060 07/M01 A3015 RMK AO2,K6S2,2023-02-14T03:55:00Z,43.98,-124.12,7.0,-1.0,330,16,27,10.0,30.15059,,,TRUE,TRUE,,,,,,,FEW,3800,SCT,4600,SCT,6000,,,VFR,,,,,,,,,,,,METAR,16.0
K6S2 140335Z AUTO 34017G27KT 9SM FEW038 SCT050 BKN060 07/M01 A3014 RMK AO2,K6S2,2023-02-14T03:35:00Z,43.98,-124.12,7.0,-1.0,340,17,27,9.0,30.138779,,,TRUE,TRUE,,,,,,,FEW,3800,SCT,5000,BKN,6000,,,VFR,,,,,,,,,,,,METAR,16.0
K6S2 140315Z AUTO 34009G24KT 10SM SCT055 BKN065 BKN070 06/M03 A3013 RMK AO2,K6S2,2023-02-14T03:15:00Z,43.98,-124.12,6.0,-3.0,340,9,24,10.0,30.129921,,,TRUE,TRUE,,,,,,,SCT,5500,BKN,6500,BKN,7000,,,VFR,,,,,,,,,,,,METAR,16.0
K6S2 140255Z AUTO 33016G25KT 10SM FEW055 SCT070 07/M02 A3012 RMK AO2,K6S2,2023-02-14T02:55:00Z,43.98,-124.12,7.0,-2.0,330,16,25,10.0,30.121063,,,TRUE,TRUE,,,,,,,FEW,5500,SCT,7000,,,,,VFR,,,,,,,,,,,,SPECI,16.0
K6S2 140235Z AUTO 34018G26KT 10SM FEW037 SCT046 BKN060 07/M00 A3012 RMK AO2,K6S2,2023-02-14T02:35:00Z,43.98,-124.12,7.0,0.0,340,18,26,10.0,30.121063,,,TRUE,TRUE,,,,,,,FEW,3700,SCT,4600,BKN,6000,,,VFR,,,,,,,,,,,,SPECI,16.0
K6S2 140215Z AUTO 33017G25KT 9SM SCT036 BKN060 OVC110 07/02 A3011 RMK AO2,K6S2,2023-02-14T02:15:00Z,43.98,-124.12,7.0,2.0,330,17,25,9.0,30.109253,,,TRUE,TRUE,,,,,,,SCT,3600,BKN,6000,OVC,11000,,,VFR,,,,,,,,,,,,SPECI,16.0
K6S2 140155Z AUTO 33018G30KT 8SM SCT035 SCT044 OVC110 07/02 A3011 RMK AO2,K6S2,2023-02-14T01:55:00Z,43.98,-124.12,7.0,2.0,330,18,30,8.0,30.109253,,,TRUE,TRUE,,,,,,,SCT,3500,SCT,4400,OVC,11000,,,VFR,,,,,,,,,,,,METAR,16.0
K6S2 140135Z AUTO 34015G25KT 7SM SCT034 BKN042 OVC100 07/04 A3010 RMK AO2,K6S2,2023-02-14T01:35:00Z,43.98,-124.12,7.0,4.0,340,15,25,7.0,30.100393,,,TRUE,TRUE,,,,,,,SCT,3400,BKN,4200,OVC,10000,,,VFR,,,,,,,,,,,,METAR,16.0
K6S2 140115Z AUTO 33019G25KT 8SM FEW033 SCT042 BKN070 07/04 A3010 RMK AO2,K6S2,2023-02-14T01:15:00Z,43.98,-124.12,7.0,4.0,330,19,25,8.0,30.100393,,,TRUE,TRUE,,,,,,,FEW,3300,SCT,4200,BKN,7000,,,VFR,,,,,,,,,,,,SPECI,16.0
K6S2 140055Z AUTO 33014G23KT 310V010 4SM -RA BR FEW025 FEW041 SCT048 06/04 A3010 RMK AO2 P0001,K6S2,2023-02-14T00:55:00Z,43.98,-124.12,6.0,4.0,330,14,23,4.0,30.100393,,,TRUE,TRUE,,,,,,-RA BR,FEW,2500,FEW,4100,SCT,4800,,,MVFR,,,,,,0.01,,,,,,METAR,16.0
K6S2 140035Z AUTO 34013G26KT 3SM -RA BR FEW021 SCT028 BKN055 06/04 A3010 RMK AO2,K6S2,2023-02-14T00:35:00Z,43.98,-124.12,6.0,4.0,340,13,26,3.0,30.100393,,,TRUE,TRUE,,,,,,-RA BR,FEW,2100,SCT,2800,BKN,5500,,,MVFR,,,,,,,,,,,,SPECI,16.0
K6S2 140015Z AUTO 33013G18KT 9SM SCT022 BKN032 OVC065 07/04 A3009 RMK AO2,K6S2,2023-02-14T00:15:00Z,43.98,-124.12,7.0,4.0,330,13,18,9.0,30.088583,,,TRUE,TRUE,,,,,,,SCT,2200,BKN,3200,OVC,6500,,,VFR,,,,,,,,,,,,SPECI,16.0
K6S2 132355Z AUTO 34011G18KT 10SM BKN020 BKN025 BKN033 07/06 A3010 RMK AO2 P0002,K6S2,2023-02-13T23:55:00Z,43.98,-124.12,7.0,6.0,340,11,18,10.0,30.100393,,,TRUE,TRUE,,,,,,,BKN,2000,BKN,2500,BKN,3300,,,MVFR,,,,,,0.02,,,,,,METAR,16.0
K6S2 132335Z AUTO 34015G25KT 5SM -RA BR FEW015 SCT023 BKN035 06/06 A3010 RMK AO2,K6S2,2023-02-13T23:35:00Z,43.98,-124.12,6.0,6.0,340,15,25,5.0,30.100393,,,TRUE,TRUE,,,,,,-RA BR,FEW,1500,SCT,2300,BKN,3500,,,MVFR,,,,,,,,,,,,METAR,16.0
K6S2 132315Z AUTO 32021G26KT 9SM SCT022 BKN038 OVC048 07/06 A3009 RMK AO2,K6S2,2023-02-13T23:15:00Z,43.98,-124.12,7.0,6.0,320,21,26,9.0,30.088583,,,TRUE,TRUE,,,,,,,SCT,2200,BKN,3800,OVC,4800,,,VFR,,,,,,,,,,,,METAR,16.0
K6S2 132255Z AUTO 30009G20KT 1 1/2SM -RA BR SCT020 BKN027 BKN032 06/06 A3008 RMK AO2 P0002 VIS 1/4V5,K6S2,2023-02-13T22:55:00Z,43.98,-124.12,6.0,6.0,300,9,20,1.5,30.079725,,,TRUE,TRUE,,,,,,-RA BR,SCT,2000,BKN,2700,BKN,3200,,,IFR,,,,,,0.02,,,,,,SPECI,16.0
K6S2 132235Z AUTO 31011KT 10SM FEW027 SCT046 BKN070 08/05 A3008 RMK AO2,K6S2,2023-02-13T22:35:00Z,43.98,-124.12,8.0,5.0,310,11,,10.0,30.079725,,,TRUE,TRUE,,,,,,,FEW,2700,SCT,4600,BKN,7000,,,VFR,,,,,,,,,,,,METAR,16.0
K6S2 132215Z AUTO 32011G19KT 10SM FEW026 FEW037 BKN055 08/05 A3009 RMK AO2,K6S2,2023-02-13T22:15:00Z,43.98,-124.12,8.0,5.0,320,11,19,10.0,30.088583,,,TRUE,TRUE,,,,,,,FEW,2600,FEW,3700,BKN,5500,,,VFR,,,,,,,,,,,,METAR,16.0
K6S2 132155Z AUTO 33011G25KT 10SM FEW028 BKN036 BKN049 08/06 A3009 RMK AO2 P0002,K6S2,2023-02-13T21:55:00Z,43.98,-124.12,8.0,6.0,330,11,25,10.0,30.088583,,,TRUE,TRUE,,,,,,,FEW,2800,BKN,3600,BKN,4900,,,VFR,,,,,,0.02,,,,,,METAR,16.0
K6S2 132135Z AUTO 32014G19KT 10SM FEW022 SCT029 BKN049 09/06 A3009 RMK AO2,K6S2,2023-02-13T21:35:00Z,43.98,-124.12,9.0,6.0,320,14,19,10.0,30.088583,,,TRUE,TRUE,,,,,,,FEW,2200,SCT,2900,BKN,4900,,,VFR,,,,,,,,,,,,METAR,16.0
K6S2 132115Z AUTO 33011G23KT 3SM -RA HZ SCT025 SCT032 BKN039 07/05 A3010 RMK AO2,K6S2,2023-02-13T21:15:00Z,43.98,-124.12,7.0,5.0,330,11,23,3.0,30.100393,,,TRUE,TRUE,,,,,,-RA HZ,SCT,2500,SCT,3200,BKN,3900,,,MVFR,,,,,,,,,,,,SPECI,16.0
K6S2 132055Z AUTO 32013G22KT 9SM SCT027 SCT032 BKN037 09/05 A3010 RMK AO2,K6S2,2023-02-13T20:55:00Z,43.98,-124.12,9.0,5.0,320,13,22,9.0,30.100393,,,TRUE,TRUE,,,,,,,SCT,2700,SCT,3200,BKN,3700,,,VFR,,,,,,,,,,,,METAR,16.0
K6S2 132035Z AUTO 32017G22KT 10SM SCT023 BKN029 OVC043 08/05 A3010 RMK AO2,K6S2,2023-02-13T20:35:00Z,43.98,-124.12,8.0,5.0,320,17,22,10.0,30.100393,,,TRUE,TRUE,,,,,,,SCT,2300,BKN,2900,OVC,4300,,,MVFR,,,,,,,,,,,,SPECI,16.0
K6S2 132015Z AUTO 31009G17KT 9SM SCT020 BKN025 OVC043 09/07 A3010 RMK AO2,K6S2,2023-02-13T20:15:00Z,43.98,-124.12,9.0,7.0,310,9,17,9.0,30.100393,,,TRUE,TRUE,,,,,,,SCT,2000,BKN,2500,OVC,4300,,,MVFR,,,,,,,,,,,,METAR,16.0
K6S2 131955Z AUTO 32009KT 8SM FEW020 BKN026 OVC055 08/07 A3011 RMK AO2,K6S2,2023-02-13T19:55:00Z,43.98,-124.12,8.0,7.0,320,9,,8.0,30.109253,,,TRUE,TRUE,,,,,,,FEW,2000,BKN,2600,OVC,5500,,,MVFR,,,,,,,,,,,,METAR,16.0
K6S2 131935Z AUTO 33012KT 10SM FEW027 SCT034 BKN048 09/06 A3012 RMK AO2,K6S2,2023-02-13T19:35:00Z,43.98,-124.12,9.0,6.0,330,12,,10.0,30.121063,,,TRUE,TRUE,,,,,,,FEW,2700,SCT,3400,BKN,4800,,,VFR,,,,,,,,,,,,METAR,16.0
K6S2 131915Z AUTO 28008G14KT 250V310 10SM FEW027 SCT035 BKN043 07/05 A3012 RMK AO2,K6S2,2023-02-13T19:15:00Z,43.98,-124.12,7.0,5.0,280,8,14,10.0,30.121063,,,TRUE,TRUE,,,,,,,FEW,2700,SCT,3500,BKN,4300,,,VFR,,,,,,,,,,,,METAR,16.0
K6S2 131855Z AUTO 30011KT 280V340 9SM SCT027 BKN034 OVC055 08/06 A3012 RMK AO2 P0003,K6S2,2023-02-13T18:55:00Z,43.98,-124.12,8.0,6.0,300,11,,9.0,30.121063,,,TRUE,TRUE,,,,,,,SCT,2700,BKN,3400,OVC,5500,,,VFR,,,,,,0.03,,,,,,METAR,16.0
K6S2 131835Z AUTO 32005KT 9SM FEW047 SCT055 SCT065 07/06 A3012 RMK AO2,K6S2,2023-02-13T18:35:00Z,43.98,-124.12,7.0,6.0,320,5,,9.0,30.121063,,,TRUE,TRUE,,,,,,,FEW,4700,SCT,5500,SCT,6500,,,VFR,,,,,,,,,,,,METAR,16.0
K6S2 131815Z AUTO 29007G22KT 2SM -RA BR FEW030 FEW047 SCT075 06/05 A3012 RMK AO2,K6S2,2023-02-13T18:15:00Z,43.98,-124.12,6.0,5.0,290,7,22,2.0,30.121063,,,TRUE,TRUE,,,,,,-RA BR,FEW,3000,FEW,4700,SCT,7500,,,IFR,,,,,,,,,,,,SPECI,16.0
K6S2 131755Z AUTO 29008G18KT 10SM FEW095 09/05 A3011 RMK AO2,K6S2,2023-02-13T17:55:00Z,43.98,-124.12,9.0,5.0,290,8,18,10.0,30.109253,,,TRUE,TRUE,,,,,,,FEW,9500,,,,,,,VFR,,,,,,,,,,,,METAR,16.0
K6S2 131735Z AUTO 30009G14KT 260V330 10SM FEW055 SCT100 08/05 A3011 RMK AO2,K6S2,2023-02-13T17:35:00Z,43.98,-124.12,8.0,5.0,300,9,14,10.0,30.109253,,,TRUE,TRUE,,,,,,,FEW,5500,SCT,10000,,,,,VFR,,,,,,,,,,,,METAR,16.0
K6S2 131715Z AUTO 30009G14KT 10SM FEW055 BKN100 08/05 A3011 RMK AO2 LTG DSNT N,K6S2,2023-02-13T17:15:00Z,43.98,-124.12,8.0,5.0,300,9,14,10.0,30.109253,,,TRUE,TRUE,,,,,,,FEW,5500,BKN,10000,,,,,VFR,,,,,,,,,,,,SPECI,16.0
K6S2 131655Z AUTO 32011G22KT 4SM -RA BR SCT026 SCT035 BKN065 07/05 A3011 RMK AO2,K6S2,2023-02-13T16:55:00Z,43.98,-124.12,7.0,5.0,320,11,22,4.0,30.109253,,,TRUE,TRUE,,,,,,-RA BR,SCT,2600,SCT,3500,BKN,6500,,,MVFR,,,,,,,,,,,,METAR,16.0
K6S2 131635Z AUTO 30017G26KT 9SM SCT029 SCT065 BKN090 09/06 A3011 RMK AO2,K6S2,2023-02-13T16:35:00Z,43.98,-124.12,9.0,6.0,300,17,26,9.0,30.109253,,,TRUE,TRUE,,,,,,,SCT,2900,SCT,6500,BKN,9000,,,VFR,,,,,,,,,,,,METAR,16.0
K6S2 131615Z AUTO 30012G20KT 10SM SCT075 BKN085 09/05 A3011 RMK AO2,K6S2,2023-02-13T16:15:00Z,43.98,-124.12,9.0,5.0,300,12,20,10.0,30.109253,,,TRUE,TRUE,,,,,,,SCT,7500,BKN,8500,,,,,VFR,,,,,,,,,,,,SPECI,16.0
K6S2 131555Z AUTO 31010G17KT 10SM FEW036 SCT060 BKN090 08/05 A3011 RMK AO2,K6S2,2023-02-13T15:55:00Z,43.98,-124.12,8.0,5.0,310,10,17,10.0,30.109253,,,TRUE,TRUE,,,,,,,FEW,3600,SCT,6000,BKN,9000,,,VFR,,,,,,,,,,,,METAR,16.0
K6S2 131535Z AUTO 31011G21KT 9SM FEW029 SCT060 BKN100 09/06 A3011 RMK AO2,K6S2,2023-02-13T15:35:00Z,43.98,-124.12,9.0,6.0,310,11,21,9.0,30.109253,,,TRUE,TRUE,,,,,,,FEW,2900,SCT,6000,BKN,10000,,,VFR,,,,,,,,,,,,SPECI,16.0
K6S2 131515Z AUTO 29006G12KT 9SM FEW026 SCT039 BKN055 08/07 A3011 RMK AO2,K6S2,2023-02-13T15:15:00Z,43.98,-124.12,8.0,7.0,290,6,12,9.0,30.109253,,,TRUE,TRUE,,,,,,,FEW,2600,SCT,3900,BKN,5500,,,VFR,,,,,,,,,,,,METAR,16.0
K6S2 131455Z AUTO 31007KT 8SM UP FEW028 SCT033 BKN041 08/07 A3010 RMK AO2 P0001,K6S2,2023-02-13T14:55:00Z,43.98,-124.12,8.0,7.0,310,7,,8.0,30.100393,,,TRUE,TRUE,,,,,,UP,FEW,2800,SCT,3300,BKN,4100,,,VFR,,,,,,0.01,,,,,,METAR,16.0
K6S2 131435Z AUTO 32013G19KT 9SM FEW019 SCT028 OVC033 08/06 A3010 RMK AO2,K6S2,2023-02-13T14:35:00Z,43.98,-124.12,8.0,6.0,320,13,19,9.0,30.100393,,,TRUE,TRUE,,,,,,,FEW,1900,SCT,2800,OVC,3300,,,VFR,,,,,,,,,,,,METAR,16.0
K6S2 131415Z AUTO 32012G25KT 10SM FEW018 SCT028 BKN036 08/07 A3010 RMK AO2,K6S2,2023-02-13T14:15:00Z,43.98,-124.12,8.0,7.0,320,12,25,10.0,30.100393,,,TRUE,TRUE,,,,,,,FEW,1800,SCT,2800,BKN,3600,,,VFR,,,,,,,,,,,,METAR,16.0
K6S2 131355Z AUTO 30008G16KT 9SM SCT024 09/07 A3009 RMK AO2,K6S2,2023-02-13T13:55:00Z,43.98,-124.12,9.0,7.0,300,8,16,9.0,30.088583,,,TRUE,TRUE,,,,,,,SCT,2400,,,,,,,VFR,,,,,,,,,,,,METAR,16.0
K6S2 131335Z AUTO 31006G12KT 8SM BKN023 BKN028 09/07 A3010 RMK AO2,K6S2,2023-02-13T13:35:00Z,43.98,-124.12,9.0,7.0,310,6,12,8.0,30.100393,,,TRUE,TRUE,,,,,,,BKN,2300,BKN,2800,,,,,MVFR,,,,,,,,,,,,METAR,16.0
K6S2 131315Z AUTO VRB05KT 8SM BKN025 BKN030 09/07 A3010 RMK AO2,K6S2,2023-02-13T13:15:00Z,43.98,-124.12,9.0,7.0,0,5,,8.0,30.100393,,,TRUE,TRUE,,,,,,,BKN,2500,BKN,3000,,,,,MVFR,,,,,,,,,,,,SPECI,16.0
K6S2 131255Z AUTO 31007KT 290V350 7SM BKN026 09/07 A3011 RMK AO2,K6S2,2023-02-13T12:55:00Z,43.98,-124.12,9.0,7.0,310,7,,7.0,30.109253,,,TRUE,TRUE,,,,,,,BKN,2600,,,,,,,MVFR,,,,,,,,,,,,METAR,16.0
K6S2 131235Z AUTO 31008KT 7SM BKN023 BKN028 BKN055 08/07 A3011 RMK AO2,K6S2,2023-02-13T12:35:00Z,43.98,-124.12,8.0,7.0,310,8,,7.0,30.109253,,,TRUE,TRUE,,,,,,,BKN,2300,BKN,2800,BKN,5500,,,MVFR,,,,,,,,,,,,SPECI,16.0
K6S2 131215Z AUTO 32006G12KT 8SM FEW020 SCT025 BKN050 09/07 A3011 RMK AO2,K6S2,2023-02-13T12:15:00Z,43.98,-124.12,9.0,7.0,320,6,12,8.0,30.109253,,,TRUE,TRUE,,,,,,,FEW,2000,SCT,2500,BKN,5000,,,VFR,,,,,,,,,,,,METAR,16.0
K6S2 131155Z AUTO 32008G13KT 8SM SCT025 OVC046 09/07 A3011 RMK AO2,K6S2,2023-02-13T11:55:00Z,43.98,-124.12,9.0,7.0,320,8,13,8.0,30.109253,,,TRUE,TRUE,,,,,,,SCT,2500,OVC,4600,,,,,VFR,,,,,,,,,,,,METAR,16.0
K6S2 131135Z AUTO 33009KT 8SM FEW003 SCT022 OVC044 09/07 A3012 RMK AO2,K6S2,2023-02-13T11:35:00Z,43.98,-124.12,9.0,7.0,330,9,,8.0,30.121063,,,TRUE,TRUE,,,,,,,FEW,300,SCT,2200,OVC,4400,,,VFR,,,,,,,,,,,,METAR,16.0
K6S2 131115Z AUTO 33006G12KT 6SM BR FEW002 BKN022 OVC043 09/08 A3012 RMK AO2,K6S2,2023-02-13T11:15:00Z,43.98,-124.12,9.0,8.0,330,6,12,6.0,30.121063,,,TRUE,TRUE,,,,,,BR,FEW,200,BKN,2200,OVC,4300,,,MVFR,,,,,,,,,,,,METAR,16.0
K6S2 131055Z AUTO 33011G16KT 8SM FEW014 SCT018 BKN024 09/08 A3012 RMK AO2 P0001,K6S2,2023-02-13T10:55:00Z,43.98,-124.12,9.0,8.0,330,11,16,8.0,30.121063,,,TRUE,TRUE,,,,,,,FEW,1400,SCT,1800,BKN,2400,,,MVFR,,,,,,0.01,,,,,,METAR,16.0
K6S2 131035Z AUTO 33013KT 7SM FEW005 BKN014 OVC018 09/09 A3012 RMK AO2,K6S2,2023-02-13T10:35:00Z,43.98,-124.12,9.0,9.0,330,13,,7.0,30.121063,,,TRUE,TRUE,,,,,,,FEW,500,BKN,1400,OVC,1800,,,MVFR,,,,,,,,,,,,METAR,16.0
K6S2 131015Z AUTO 34009G17KT 2 1/2SM -RA BR BKN004 BKN009 OVC016 09/09 A3013 RMK AO2,K6S2,2023-02-13T10:15:00Z,43.98,-124.12,9.0,9.0,340,9,17,2.5,30.129921,,,TRUE,TRUE,,,,,,-RA BR,BKN,400,BKN,900,OVC,1600,,,LIFR,,,,,,,,,,,,METAR,16.0
K6S2 130955Z AUTO 32006G12KT 2SM UP BR OVC003 09/09 A3013 RMK AO2 P0006,K6S2,2023-02-13T09:55:00Z,43.98,-124.12,9.0,9.0,320,6,12,2.0,30.129921,,,TRUE,TRUE,,,,,,BR UP,OVC,300,,,,,,,LIFR,,,,,,0.06,,,,,,METAR,16.0
K6S2 130935Z AUTO 00000KT 1 1/2SM UP BR OVC002 08/08 A3013 RMK AO2,K6S2,2023-02-13T09:35:00Z,43.98,-124.12,8.0,8.0,0,0,,1.5,30.129921,,,TRUE,TRUE,,,,,,BR UP,OVC,200,,,,,,,LIFR,,,,,,,,,,,,SPECI,16.0
K6S2 130915Z AUTO 00000KT 1 1/2SM UP BR OVC002 08/08 A3013 RMK AO2,K6S2,2023-02-13T09:15:00Z,43.98,-124.12,8.0,8.0,0,0,,1.5,30.129921,,,TRUE,TRUE,,,,,,BR UP,OVC,200,,,,,,,LIFR,,,,,,,,,,,,METAR,16.0
K6S2 130855Z AUTO 19005KT 1 3/4SM UP BR OVC003 08/08 A3013 RMK AO2 P0001,K6S2,2023-02-13T08:55:00Z,43.98,-124.12,8.0,8.0,190,5,,1.75,30.129921,,,TRUE,TRUE,,,,,,BR UP,OVC,300,,,,,,,LIFR,,,,,,0.01,,,,,,METAR,16.0
K6S2 130835Z AUTO 00000KT 1SM UP BR OVC002 08/08 A3013 RMK AO2,K6S2,2023-02-13T08:35:00Z,43.98,-124.12,8.0,8.0,0,0,,1.0,30.129921,,,TRUE,TRUE,,,,,,BR UP,OVC,200,,,,,,,LIFR,,,,,,,,,,,,SPECI,16.0
K6S2 130815Z AUTO 00000KT 2SM BR OVC003 08/08 A3014 RMK AO2,K6S2,2023-02-13T08:15:00Z,43.98,-124.12,8.0,8.0,0,0,,2.0,30.138779,,,TRUE,TRUE,,,,,,BR,OVC,300,,,,,,,LIFR,,,,,,,,,,,,SPECI,16.0
K6S2 130755Z AUTO 00000KT 3SM BR OVC005 08/08 A3014 RMK AO2 P0001,K6S2,2023-02-13T07:55:00Z,43.98,-124.12,8.0,8.0,0,0,,3.0,30.138779,,,TRUE,TRUE,,,,,,BR,OVC,500,,,,,,,IFR,,,,,,0.01,,,,,,METAR,16.0
K6S2 130735Z AUTO 00000KT 1 3/4SM UP BR OVC004 08/08 A3014 RMK AO2,K6S2,2023-02-13T07:35:00Z,43.98,-124.12,8.0,8.0,0,0,,1.75,30.138779,,,TRUE,TRUE,,,,,,BR UP,OVC,400,,,,,,,LIFR,,,,,,,,,,,,SPECI,16.0
K6S2 130715Z AUTO 00000KT 2SM UP BR OVC003 08/08 A3015 RMK AO2,K6S2,2023-02-13T07:15:00Z,43.98,-124.12,8.0,8.0,0,0,,2.0,30.15059,,,TRUE,TRUE,,,,,,BR UP,OVC,300,,,,,,,LIFR,,,,,,,,,,,,SPECI,16.0
K6S2 130655Z AUTO 00000KT 1 1/4SM UP BR OVC004 08/08 A3015 RMK AO2,K6S2,2023-02-13T06:55:00Z,43.98,-124.12,8.0,8.0,0,0,,1.25,30.15059,,,TRUE,TRUE,,,,,,BR UP,OVC,400,,,,,,,LIFR,,,,,,,,,,,,METAR,16.0
K6S2 130635Z AUTO 00000KT 5SM BR OVC004 08/08 A3015 RMK AO2,K6S2,2023-02-13T06:35:00Z,43.98,-124.12,8.0,8.0,0,0,,5.0,30.15059,,,TRUE,TRUE,,,,,,BR,OVC,400,,,,,,,LIFR,,,,,,,,,,,,METAR,16.0
K6S2 130615Z AUTO 00000KT 3SM BR BKN005 OVC010 08/08 A3015 RMK AO2,K6S2,2023-02-13T06:15:00Z,43.98,-124.12,8.0,8.0,0,0,,3.0,30.15059,,,TRUE,TRUE,,,,,,BR,BKN,500,OVC,1000,,,,,IFR,,,,,,,,,,,,SPECI,16.0
K6S2 130555Z AUTO 00000KT 3SM BR OVC008 08/08 A3015 RMK AO2,K6S2,2023-02-13T05:55:00Z,43.98,-124.12,8.0,8.0,0,0,,3.0,30.15059,,,TRUE,TRUE,,,,,,BR,OVC,800,,,,,,,IFR,,,,,,,,,,,,METAR,16.0
K6S2 130535Z AUTO 00000KT 2 1/2SM UP BR OVC012 08/08 A3015 RMK AO2,K6S2,2023-02-13T05:35:00Z,43.98,-124.12,8.0,8.0,0,0,,2.5,30.15059,,,TRUE,TRUE,,,,,,BR UP,OVC,1200,,,,,,,IFR,,,,,,,,,,,,SPECI,16.0
K6S2 130515Z AUTO 00000KT 9SM FEW002 OVC015 08/08 A3017 RMK AO2,K6S2,2023-02-13T05:15:00Z,43.98,-124.12,8.0,8.0,0,0,,9.0,30.171259,,,TRUE,TRUE,,,,,,,FEW,200,OVC,1500,,,,,MVFR,,,,,,,,,,,,SPECI,16.0
K6S2 130455Z AUTO 00000KT 9SM BKN003 BKN009 OVC040 07/07 A3016 RMK AO2,K6S2,2023-02-13T04:55:00Z,43.98,-124.12,7.0,7.0,0,0,,9.0,30.159449,,,TRUE,TRUE,,,,,,,BKN,300,BKN,900,OVC,4000,,,LIFR,,,,,,,,,,,,METAR,16.0
K6S2 130435Z AUTO 00000KT 9SM FEW003 FEW007 SCT039 08/08 A3016 RMK AO2,K6S2,2023-02-13T04:35:00Z,43.98,-124.12,8.0,8.0,0,0,,9.0,30.159449,,,TRUE,TRUE,,,,,,,FEW,300,FEW,700,SCT,3900,,,VFR,,,,,,,,,,,,SPECI,16.0
K6S2 130415Z AUTO 00000KT 10SM FEW003 SCT010 BKN013 09/09 A3016 RMK AO2,K6S2,2023-02-13T04:15:00Z,43.98,-124.12,9.0,9.0,0,0,,10.0,30.159449,,,TRUE,TRUE,,,,,,,FEW,300,SCT,1000,BKN,1300,,,MVFR,,,,,,,,,,,,METAR,16.0
K6S2 130355Z AUTO 33005G13KT 10SM BKN012 OVC044 09/09 A3017 RMK AO2,K6S2,2023-02-13T03:55:00Z,43.98,-124.12,9.0,9.0,330,5,13,10.0,30.171259,,,TRUE,TRUE,,,,,,,BKN,1200,OVC,4400,,,,,MVFR,,,,,,,,,,,,METAR,16.0
K6S2 130335Z AUTO 33007KT 8SM OVC011 09/09 A3017 RMK AO2,K6S2,2023-02-13T03:35:00Z,43.98,-124.12,9.0,9.0,330,7,,8.0,30.171259,,,TRUE,TRUE,,,,,,,OVC,1100,,,,,,,MVFR,,,,,,,,,,,,SPECI,16.0
K6S2 130315Z AUTO 35004KT 8SM FEW002 BKN011 08/08 A3016 RMK AO2,K6S2,2023-02-13T03:15:00Z,43.98,-124.12,8.0,8.0,350,4,,8.0,30.159449,,,TRUE,TRUE,,,,,,,FEW,200,BKN,1100,,,,,MVFR,,,,,,,,,,,,METAR,16.0
K6S2 130255Z AUTO 33005KT 6SM BR BKN002 OVC006 08/08 A3017 RMK AO2,K6S2,2023-02-13T02:55:00Z,43.98,-124.12,8.0,8.0,330,5,,6.0,30.171259,,,TRUE,TRUE,,,,,,BR,BKN,200,OVC,600,,,,,LIFR,,,,,,,,,,,,METAR,16.0
K6S2 130235Z AUTO 00000KT 8SM BKN003 08/08 A3015 RMK AO2,K6S2,2023-02-13T02:35:00Z,43.98,-124.12,8.0,8.0,0,0,,8.0,30.15059,,,TRUE,TRUE,,,,,,,BKN,300,,,,,,,LIFR,,,,,,,,,,,,SPECI,16.0
K6S2 130215Z AUTO 34004KT 7SM BKN002 09/09 A3015 RMK AO2,K6S2,2023-02-13T02:15:00Z,43.98,-124.12,9.0,9.0,340,4,,7.0,30.15059,,,TRUE,TRUE,,,,,,,BKN,200,,,,,,,LIFR,,,,,,,,,,,,SPECI,16.0
K6S2 130155Z AUTO 33006KT 5SM BR BKN002 09/09 A3015 RMK AO2,K6S2,2023-02-13T01:55:00Z,43.98,-124.12,9.0,9.0,330,6,,5.0,30.15059,,,TRUE,TRUE,,,,,,BR,BKN,200,,,,,,,LIFR,,,,,,,,,,,,METAR,16.0
K6S2 130135Z AUTO 31004KT 3SM BR BKN003 09/08 A3015 RMK AO2,K6S2,2023-02-13T01:35:00Z,43.98,-124.12,9.0,8.0,310,4,,3.0,30.15059,,,TRUE,TRUE,,,,,,BR,BKN,300,,,,,,,LIFR,,,,,,,,,,,,METAR,16.0
K6S2 130115Z AUTO 32004KT 4SM HZ OVC002 10/08 A3015 RMK AO2,K6S2,2023-02-13T01:15:00Z,43.98,-124.12,10.0,8.0,320,4,,4.0,30.15059,,,TRUE,TRUE,,,,,,HZ,OVC,200,,,,,,,LIFR,,,,,,,,,,,,METAR,16.0
K6S2 130055Z AUTO 00000KT 3SM HZ BKN002 10/07 A3014 RMK AO2,K6S2,2023-02-13T00:55:00Z,43.98,-124.12,10.0,7.0,0,0,,3.0,30.138779,,,TRUE,TRUE,,,,,,HZ,BKN,200,,,,,,,LIFR,,,,,,,,,,,,METAR,16.0
K6S2 130035Z AUTO 30004KT 5SM HZ SCT003 11/07 A3015 RMK AO2,K6S2,2023-02-13T00:35:00Z,43.98,-124.12,11.0,7.0,300,4,,5.0,30.15059,,,TRUE,TRUE,,,,,,HZ,SCT,300,,,,,,,MVFR,,,,,,,,,,,,METAR,16.0
K6S2 130015Z AUTO 00000KT 5SM HZ BKN003 10/07 A3016 RMK AO2,K6S2,2023-02-13T00:15:00Z,43.98,-124.12,10.0,7.0,0,0,,5.0,30.159449,,,TRUE,TRUE,,,,,,HZ,BKN,300,,,,,,,LIFR,,,,,,,,,,,,SPECI,16.0
K6S2 122355Z AUTO 30003KT 3SM HZ SCT002 10/07 A3016 RMK AO2,K6S2,2023-02-12T23:55:00Z,43.98,-124.12,10.0,7.0,300,3,,3.0,30.159449,,,TRUE,TRUE,,,,,,HZ,SCT,200,,,,,,,MVFR,,,,,,,,,,,,METAR,16.0
K6S2 122335Z AUTO 00000KT 10SM CLR 12/06 A3016 RMK AO2,K6S2,2023-02-12T23:35:00Z,43.98,-124.12,12.0,6.0,0,0,,10.0,30.159449,,,TRUE,TRUE,,,,,,,CLR,,,,,,,,VFR,,,,,,,,,,,,SPECI,16.0
K6S2 122315Z AUTO 00000KT 10SM CLR 10/06 A3017 RMK AO2,K6S2,2023-02-12T23:15:00Z,43.98,-124.12,10.0,6.0,0,0,,10.0,30.171259,,,TRUE,TRUE,,,,,,,CLR,,,,,,,,VFR,,,,,,,,,,,,METAR,16.0
K6S2 122255Z AUTO 33006KT 10SM CLR 10/07 A3019 RMK AO2,K6S2,2023-02-12T22:55:00Z,43.98,-124.12,10.0,7.0,330,6,,10.0,30.188976,,,TRUE,TRUE,,,,,,,CLR,,,,,,,,VFR,,,,,,,,,,,,METAR,16.0
K6S2 122235Z AUTO 32008KT 10SM CLR 10/07 A3020 RMK AO2,K6S2,2023-02-12T22:35:00Z,43.98,-124.12,10.0,7.0,320,8,,10.0,30.200787,,,TRUE,TRUE,,,,,,,CLR,,,,,,,,VFR,,,,,,,,,,,,METAR,16.0
K6S2 122215Z AUTO 32008KT 10SM CLR 10/07 A3020 RMK AO2,K6S2,2023-02-12T22:15:00Z,43.98,-124.12,10.0,7.0,320,8,,10.0,30.200787,,,TRUE,TRUE,,,,,,,CLR,,,,,,,,VFR,,,,,,,,,,,,METAR,16.0
K6S2 122155Z AUTO 31009KT 10SM CLR 10/06 A3021 RMK AO2,K6S2,2023-02-12T21:55:00Z,43.98,-124.12,10.0,6.0,310,9,,10.0,30.209646,,,TRUE,TRUE,,,,,,,CLR,,,,,,,,VFR,,,,,,,,,,,,METAR,16.0
K6S2 122135Z AUTO 32006KT 10SM CLR 10/07 A3022 RMK AO2,K6S2,2023-02-12T21:35:00Z,43.98,-124.12,10.0,7.0,320,6,,10.0,30.221457,,,TRUE,TRUE,,,,,,,CLR,,,,,,,,VFR,,,,,,,,,,,,METAR,16.0
K6S2 122115Z AUTO 32008KT 10SM CLR 10/08 A3023 RMK AO2,K6S2,2023-02-12T21:15:00Z,43.98,-124.12,10.0,8.0,320,8,,10.0,30.230314,,,TRUE,TRUE,,,,,,,CLR,,,,,,,,VFR,,,,,,,,,,,,METAR,16.0
K6S2 122055Z AUTO 32009KT 10SM CLR 09/07 A3024 RMK AO2,K6S2,2023-02-12T20:55:00Z,43.98,-124.12,9.0,7.0,320,9,,10.0,30.239174,,,TRUE,TRUE,,,,,,,CLR,,,,,,,,VFR,,,,,,,,,,,,METAR,16.0
K6S2 122035Z AUTO 32012KT 10SM CLR 09/07 A3024 RMK AO2,K6S2,2023-02-12T20:35:00Z,43.98,-124.12,9.0,7.0,320,12,,10.0,30.239174,,,TRUE,TRUE,,,,,,,CLR,,,,,,,,VFR,,,,,,,,,,,,SPECI,16.0
K6S2 122015Z AUTO VRB04KT 10SM CLR 11/06 A3024 RMK AO2,K6S2,2023-02-12T20:15:00Z,43.98,-124.12,11.0,6.0,0,4,,10.0,30.239174,,,TRUE,TRUE,,,,,,,CLR,,,,,,,,VFR,,,,,,,,,,,,METAR,16.0
K6S2 121955Z AUTO 35005KT 10SM CLR 10/06 A3024 RMK AO2,K6S2,2023-02-12T19:55:00Z,43.98,-124.12,10.0,6.0,350,5,,10.0,30.239174,,,TRUE,TRUE,,,,,,,CLR,,,,,,,,VFR,,,,,,,,,,,,METAR,16.0
K6S2 121935Z AUTO 00000KT 10SM CLR 09/06 A3025 RMK AO2,K6S2,2023-02-12T19:35:00Z,43.98,-124.12,9.0,6.0,0,0,,10.0,30.250984,,,TRUE,TRUE,,,,,,,CLR,,,,,,,,VFR,,,,,,,,,,,,SPECI,16.0
K6S2 121915Z AUTO 36006KT 10SM CLR 08/06 A3025 RMK AO2,K6S2,2023-02-12T19:15:00Z,43.98,-124.12,8.0,6.0,360,6,,10.0,30.250984,,,TRUE,TRUE,,,,,,,CLR,,,,,,,,VFR,,,,,,,,,,,,METAR,16.0
K6S2 121855Z AUTO VRB03KT 10SM CLR 08/06 A3025 RMK AO2,K6S2,2023-02-12T18:55:00Z,43.98,-124.12,8.0,6.0,0,3,,10.0,30.250984,,,TRUE,TRUE,,,,,,,CLR,,,,,,,,VFR,,,,,,,,,,,,SPECI,16.0
K6S2 121835Z AUTO 00000KT 10SM CLR 07/06 A3024 RMK AO2,K6S2,2023-02-12T18:35:00Z,43.98,-124.12,7.0,6.0,0,0,,10.0,30.239174,,,TRUE,TRUE,,,,,,,CLR,,,,,,,,VFR,,,,,,,,,,,,METAR,16.0
K6S2 121815Z AUTO VRB03KT 10SM CLR 07/06 A3025 RMK AO2,K6S2,2023-02-12T18:15:00Z,43.98,-124.12,7.0,6.0,0,3,,10.0,30.250984,,,TRUE,TRUE,,,,,,,CLR,,,,,,,,VFR,,,,,,,,,,,,SPECI,16.0
K6S2 121755Z AUTO 10007G12KT 050V120 10SM CLR 06/05 A3024 RMK AO2,K6S2,2023-02-12T17:55:00Z,43.98,-124.12,6.0,5.0,100,7,12,10.0,30.239174,,,TRUE,TRUE,,,,,,,CLR,,,,,,,,VFR,,,,,,,,,,,,SPECI,16.0
K6S2 121735Z AUTO 11006G12KT 10SM CLR 05/05 A3025 RMK AO2,K6S2,2023-02-12T17:35:00Z,43.98,-124.12,5.0,5.0,110,6,12,10.0,30.250984,,,TRUE,TRUE,,,,,,,CLR,,,,,,,,VFR,,,,,,,,,,,,METAR,16.0
K6S2 121715Z AUTO VRB05G12KT 10SM CLR 05/05 A3025 RMK AO2,K6S2,2023-02-12T17:15:00Z,43.98,-124.12,5.0,5.0,0,5,12,10.0,30.250984,,,TRUE,TRUE,,,,,,,CLR,,,,,,,,VFR,,,,,,,,,,,,METAR,16.0
K6S2 121655Z AUTO VRB05KT 10SM CLR 05/05 A3025 RMK AO2,K6S2,2023-02-12T16:55:00Z,43.98,-124.12,5.0,5.0,0,5,,10.0,30.250984,,,TRUE,TRUE,,,,,,,CLR,,,,,,,,VFR,,,,,,,,,,,,SPECI,16.0
K6S2 121635Z AUTO VRB04KT 9SM CLR 04/04 A3026 RMK AO2,K6S2,2023-02-12T16:35:00Z,43.98,-124.12,4.0,4.0,0,4,,9.0,30.259842,,,TRUE,TRUE,,,,,,,CLR,,,,,,,,VFR,,,,,,,,,,,,SPECI,16.0
K6S2 121615Z AUTO 00000KT 10SM CLR 04/04 A3026 RMK AO2,K6S2,2023-02-12T16:15:00Z,43.98,-124.12,4.0,4.0,0,0,,10.0,30.259842,,,TRUE,TRUE,,,,,,,CLR,,,,,,,,VFR,,,,,,,,,,,,SPECI,16.0
K6S2 121555Z AUTO 00000KT 9SM CLR 03/03 A3026 RMK AO2,K6S2,2023-02-12T15:55:00Z,43.98,-124.12,3.0,3.0,0,0,,9.0,30.259842,,,TRUE,TRUE,,,,,,,CLR,,,,,,,,VFR,,,,,,,,,,,,METAR,16.0
K6S2 121535Z AUTO 00000KT 10SM CLR 03/03 A3026 RMK AO2,K6S2,2023-02-12T15:35:00Z,43.98,-124.12,3.0,3.0,0,0,,10.0,30.259842,,,TRUE,TRUE,,,,,,,CLR,,,,,,,,VFR,,,,,,,,,,,,SPECI,16.0
K6S2 121515Z AUTO 00000KT 9SM CLR 03/03 A3026 RMK AO2,K6S2,2023-02-12T15:15:00Z,43.98,-124.12,3.0,3.0,0,0,,9.0,30.259842,,,TRUE,TRUE,,,,,,,CLR,,,,,,,,VFR,,,,,,,,,,,,SPECI,16.0
K6S2 121455Z AUTO 00000KT 9SM CLR 03/03 A3026 RMK AO2,K6S2,2023-02-12T14:55:00Z,43.98,-124.12,3.0,3.0,0,0,,9.0,30.259842,,,TRUE,TRUE,,,,,,,CLR,,,,,,,,VFR,,,,,,,,,,,,METAR,16.0
K6S2 121435Z AUTO VRB03KT 9SM CLR 03/03 A3025 RMK AO2,K6S2,2023-02-12T14:35:00Z,43.98,-124.12,3.0,3.0,0,3,,9.0,30.250984,,,TRUE,TRUE,,,,,,,CLR,,,,,,,,VFR,,,,,,,,,,,,METAR,16.0
K6S2 121415Z AUTO 00000KT 10SM CLR 03/03 A3025 RMK AO2,K6S2,2023-02-12T14:15:00Z,43.98,-124.12,3.0,3.0,0,0,,10.0,30.250984,,,TRUE,TRUE,,,,,,,CLR,,,,,,,,VFR,,,,,,,,,,,,METAR,16.0
K6S2 121355Z AUTO 00000KT 9SM CLR 02/02 A3024 RMK AO2,K6S2,2023-02-12T13:55:00Z,43.98,-124.12,2.0,2.0,0,0,,9.0,30.239174,,,TRUE,TRUE,,,,,,,CLR,,,,,,,,VFR,,,,,,,,,,,,METAR,16.0
K6S2 121335Z AUTO 00000KT 9SM CLR 02/02 A3025 RMK AO2,K6S2,2023-02-12T13:35:00Z,43.98,-124.12,2.0,2.0,0,0,,9.0,30.250984,,,TRUE,TRUE,,,,,,,CLR,,,,,,,,VFR,,,,,,,,,,,,SPECI,16.0
K6S2 121315Z AUTO 00000KT 7SM CLR 02/02 A3024 RMK AO2,K6S2,2023-02-12T13:15:00Z,43.98,-124.12,2.0,2.0,0,0,,7.0,30.239174,,,TRUE,TRUE,,,,,,,CLR,,,,,,,,VFR,,,,,,,,,,,,SPECI,16.0
K6S2 121255Z AUTO 00000KT 9SM CLR 02/02 A3025 RMK AO2,K6S2,2023-02-12T12:55:00Z,43.98,-124.12,2.0,2.0,0,0,,9.0,30.250984,,,TRUE,TRUE,,,,,,,CLR,,,,,,,,VFR,,,,,,,,,,,,METAR,16.0
K6S2 121235Z AUTO 00000KT 8SM CLR 02/02 A3025 RMK AO2,K6S2,2023-02-12T12:35:00Z,43.98,-124.12,2.0,2.0,0,0,,8.0,30.250984,,,TRUE,TRUE,,,,,,,CLR,,,,,,,,VFR,,,,,,,,,,,,SPECI,16.0
K6S2 121215Z AUTO 00000KT 6SM BR CLR 02/02 A3026 RMK AO2,K6S2,2023-02-12T12:15:00Z,43.98,-124.12,2.0,2.0,0,0,,6.0,30.259842,,,TRUE,TRUE,,,,,,BR,CLR,,,,,,,,VFR,,,,,,,,,,,,METAR,16.0
K6S2 121155Z AUTO 00000KT 10SM CLR 02/02 A3026 RMK AO2,K6S2,2023-02-12T11:55:00Z,43.98,-124.12,2.0,2.0,0,0,,10.0,30.259842,,,TRUE,TRUE,,,,,,,CLR,,,,,,,,VFR,,,,,,,,,,,,METAR,16.0
K6S2 121135Z AUTO 00000KT 10SM CLR 02/02 A3027 RMK AO2,K6S2,2023-02-12T11:35:00Z,43.98,-124.12,2.0,2.0,0,0,,10.0,30.268702,,,TRUE,TRUE,,,,,,,CLR,,,,,,,,VFR,,,,,,,,,,,,METAR,16.0
K6S2 121115Z AUTO 00000KT 9SM CLR 01/01 A3027 RMK AO2,K6S2,2023-02-12T11:15:00Z,43.98,-124.12,1.0,1.0,0,0,,9.0,30.268702,,,TRUE,TRUE,,,,,,,CLR,,,,,,,,VFR,,,,,,,,,,,,SPECI,16.0
K6S2 121055Z AUTO 00000KT 10SM CLR 02/02 A3026 RMK AO2,K6S2,2023-02-12T10:55:00Z,43.98,-124.12,2.0,2.0,0,0,,10.0,30.259842,,,TRUE,TRUE,,,,,,,CLR,,,,,,,,VFR,,,,,,,,,,,,SPECI,16.0
K6S2 121035Z AUTO 00000KT 10SM CLR 03/03 A3026 RMK AO2,K6S2,2023-02-12T10:35:00Z,43.98,-124.12,3.0,3.0,0,0,,10.0,30.259842,,,TRUE,TRUE,,,,,,,CLR,,,,,,,,VFR,,,,,,,,,,,,METAR,16.0
K6S2 121015Z AUTO 00000KT 9SM FEW001 03/03 A3025 RMK AO2,K6S2,2023-02-12T10:15:00Z,43.98,-124.12,3.0,3.0,0,0,,9.0,30.250984,,,TRUE,TRUE,,,,,,,FEW,100,,,,,,,VFR,,,,,,,,,,,,SPECI,16.0
K6S2 120955Z AUTO 00000KT 10SM FEW001 02/02 A3025 RMK AO2,K6S2,2023-02-12T09:55:00Z,43.98,-124.12,2.0,2.0,0,0,,10.0,30.250984,,,TRUE,TRUE,,,,,,,FEW,100,,,,,,,VFR,,,,,,,,,,,,METAR,16.0
K6S2 120935Z AUTO 00000KT 10SM SCT001 03/03 A3026 RMK AO2,K6S2,2023-02-12T09:35:00Z,43.98,-124.12,3.0,3.0,0,0,,10.0,30.259842,,,TRUE,TRUE,,,,,,,SCT,100,,,,,,,VFR,,,,,,,,,,,,SPECI,16.0
K6S2 120915Z AUTO 11003KT 4SM BR BKN001 02/02 A3025 RMK AO2,K6S2,2023-02-12T09:15:00Z,43.98,-124.12,2.0,2.0,110,3,,4.0,30.250984,,,TRUE,TRUE,,,,,,BR,BKN,100,,,,,,,LIFR,,,,,,,,,,,,SPECI,16.0
K6S2 120855Z AUTO 00000KT 7SM FEW001 01/01 A3026 RMK AO2,K6S2,2023-02-12T08:55:00Z,43.98,-124.12,1.0,1.0,0,0,,7.0,30.259842,,,TRUE,TRUE,,,,,,,FEW,100,,,,,,,VFR,,,,,,,,,,,,METAR,16.0
K6S2 120835Z AUTO 00000KT 9SM CLR 02/02 A3027 RMK AO2,K6S2,2023-02-12T08:35:00Z,43.98,-124.12,2.0,2.0,0,0,,9.0,30.268702,,,TRUE,TRUE,,,,,,,CLR,,,,,,,,VFR,,,,,,,,,,,,SPECI,16.0
K6S2 120815Z AUTO 00000KT 3/4SM BR SCT001 02/02 A3026 RMK AO2,K6S2,2023-02-12T08:15:00Z,43.98,-124.12,2.0,2.0,0,0,,0.75,30.259842,,,TRUE,TRUE,,,,,,BR,SCT,100,,,,,,,LIFR,,,,,,,,,,,,METAR,16.0
K6S2 120755Z AUTO 00000KT 3SM BR FEW001 03/03 A3025 RMK AO2,K6S2,2023-02-12T07:55:00Z,43.98,-124.12,3.0,3.0,0,0,,3.0,30.250984,,,TRUE,TRUE,,,,,,BR,FEW,100,,,,,,,MVFR,,,,,,,,,,,,METAR,16.0
K6S2 120735Z AUTO 00000KT 3SM BR SCT001 03/03 A3025 RMK AO2,K6S2,2023-02-12T07:35:00Z,43.98,-124.12,3.0,3.0,0,0,,3.0,30.250984,,,TRUE,TRUE,,,,,,BR,SCT,100,,,,,,,MVFR,,,,,,,,,,,,SPECI,16.0
K6S2 120715Z AUTO 00000KT 9SM CLR 02/02 A3025 RMK AO2,K6S2,2023-02-12T07:15:00Z,43.98,-124.12,2.0,2.0,0,0,,9.0,30.250984,,,TRUE,TRUE,,,,,,,CLR,,,,,,,,VFR,,,,,,,,,,,,METAR,16.0
K6S2 120655Z AUTO 00000KT 8SM CLR 03/03 A3025 RMK AO2,K6S2,2023-02-12T06:55:00Z,43.98,-124.12,3.0,3.0,0,0,,8.0,30.250984,,,TRUE,TRUE,,,,,,,CLR,,,,,,,,VFR,,,,,,,,,,,,METAR,16.0
K6S2 120635Z AUTO 00000KT 8SM CLR 02/02 A3025 RMK AO2,K6S2,2023-02-12T06:35:00Z,43.98,-124.12,2.0,2.0,0,0,,8.0,30.250984,,,TRUE,TRUE,,,,,,,CLR,,,,,,,,VFR,,,,,,,,,,,,METAR,16.0
K6S2 120615Z AUTO 00000KT 8SM CLR 02/02 A3025 RMK AO2,K6S2,2023-02-12T06:15:00Z,43.98,-124.12,2.0,2.0,0,0,,8.0,30.250984,,,TRUE,TRUE,,,,,,,CLR,,,,,,,,VFR,,,,,,,,,,,,SPECI,16.0
K6S2 120555Z AUTO 00000KT 8SM CLR 03/03 A3025 RMK AO2,K6S2,2023-02-12T05:55:00Z,43.98,-124.12,3.0,3.0,0,0,,8.0,30.250984,,,TRUE,TRUE,,,,,,,CLR,,,,,,,,VFR,,,,,,,,,,,,METAR,16.0
K6S2 120535Z AUTO 00000KT 8SM CLR 03/03 A3025 RMK AO2,K6S2,2023-02-12T05:35:00Z,43.98,-124.12,3.0,3.0,0,0,,8.0,30.250984,,,TRUE,TRUE,,,,,,,CLR,,,,,,,,VFR,,,,,,,,,,,,SPECI,16.0
K6S2 120515Z AUTO 00000KT 8SM CLR 03/03 A3024 RMK AO2,K6S2,2023-02-12T05:15:00Z,43.98,-124.12,3.0,3.0,0,0,,8.0,30.239174,,,TRUE,TRUE,,,,,,,CLR,,,,,,,,VFR,,,,,,,,,,,,METAR,16.0
K6S2 120455Z AUTO 00000KT 9SM FEW003 03/03 A3024 RMK AO2,K6S2,2023-02-12T04:55:00Z,43.98,-124.12,3.0,3.0,0,0,,9.0,30.239174,,,TRUE,TRUE,,,,,,,FEW,300,,,,,,,VFR,,,,,,,,,,,,METAR,16.0
K6S2 120435Z AUTO 00000KT 9SM BKN003 04/04 A3023 RMK AO2,K6S2,2023-02-12T04:35:00Z,43.98,-124.12,4.0,4.0,0,0,,9.0,30.230314,,,TRUE,TRUE,,,,,,,BKN,300,,,,,,,LIFR,,,,,,,,,,,,SPECI,16.0
K6S2 120415Z AUTO 00000KT 9SM OVC002 04/04 A3023 RMK AO2,K6S2,2023-02-12T04:15:00Z,43.98,-124.12,4.0,4.0,0,0,,9.0,30.230314,,,TRUE,TRUE,,,,,,,OVC,200,,,,,,,LIFR,,,,,,,,,,,,SPECI,16.0
K6S2 120355Z AUTO 00000KT 9SM OVC002 04/04 A3022 RMK AO2,K6S2,2023-02-12T03:55:00Z,43.98,-124.12,4.0,4.0,0,0,,9.0,30.221457,,,TRUE,TRUE,,,,,,,OVC,200,,,,,,,LIFR,,,,,,,,,,,,METAR,16.0
K6S2 120335Z AUTO 00000KT 9SM BKN003 05/05 A3022 RMK AO2,K6S2,2023-02-12T03:35:00Z,43.98,-124.12,5.0,5.0,0,0,,9.0,30.221457,,,TRUE,TRUE,,,,,,,BKN,300,,,,,,,LIFR,,,,,,,,,,,,SPECI,16.0
K6S2 120315Z AUTO 00000KT 8SM CLR 05/05 A3022 RMK AO2,K6S2,2023-02-12T03:15:00Z,43.98,-124.12,5.0,5.0,0,0,,8.0,30.221457,,,TRUE,TRUE,,,,,,,CLR,,,,,,,,VFR,,,,,,,,,,,,METAR,16.0
K6S2 120255Z AUTO 00000KT 9SM SCT003 07/06 A3022 RMK AO2,K6S2,2023-02-12T02:55:00Z,43.98,-124.12,7.0,6.0,0,0,,9.0,30.221457,,,TRUE,TRUE,,,,,,,SCT,300,,,,,,,VFR,,,,,,,,,,,,METAR,16.0
K6S2 120235Z AUTO 00000KT 8SM OVC003 08/07 A3022 RMK AO2,K6S2,2023-02-12T02:35:00Z,43.98,-124.12,8.0,7.0,0,0,,8.0,30.221457,,,TRUE,TRUE,,,,,,,OVC,300,,,,,,,LIFR,,,,,,,,,,,,SPECI,16.0
K6S2 120215Z AUTO 00000G11KT 8SM BKN003 08/07 A3021 RMK AO2,K6S2,2023-02-12T02:15:00Z,43.98,-124.12,8.0,7.0,0,0,11,8.0,30.209646,,,TRUE,TRUE,,,,,,,BKN,300,,,,,,,LIFR,,,,,,,,,,,,METAR,16.0
K6S2 120155Z AUTO 34011G16KT 10SM FEW003 08/07 A3020 RMK AO2,K6S2,2023-02-12T01:55:00Z,43.98,-124.12,8.0,7.0,340,11,16,10.0,30.200787,,,TRUE,TRUE,,,,,,,FEW,300,,,,,,,VFR,,,,,,,,,,,,METAR,16.0
K6S2 120135Z AUTO 35013G22KT 10SM CLR 09/07 A3021 RMK AO2,K6S2,2023-02-12T01:35:00Z,43.98,-124.12,9.0,7.0,350,13,22,10.0,30.209646,,,TRUE,TRUE,,,,,,,CLR,,,,,,,,VFR,,,,,,,,,,,,SPECI,16.0
K6S2 120115Z AUTO 35013G20KT 10SM CLR 09/07 A3021 RMK AO2,K6S2,2023-02-12T01:15:00Z,43.98,-124.12,9.0,7.0,350,13,20,10.0,30.209646,,,TRUE,TRUE,,,,,,,CLR,,,,,,,,VFR,,,,,,,,,,,,SPECI,16.0
K6S2 120055Z AUTO 35015KT 10SM CLR 09/07 A3020 RMK AO2,K6S2,2023-02-12T00:55:00Z,43.98,-124.12,9.0,7.0,350,15,,10.0,30.200787,,,TRUE,TRUE,,,,,,,CLR,,,,,,,,VFR,,,,,,,,,,,,METAR,16.0
K6S2 120035Z AUTO 34010G15KT 300V360 10SM CLR 09/07 A3020 RMK AO2,K6S2,2023-02-12T00:35:00Z,43.98,-124.12,9.0,7.0,340,10,15,10.0,30.200787,,,TRUE,TRUE,,,,,,,CLR,,,,,,,,VFR,,,,,,,,,,,,METAR,16.0
K6S2 120015Z AUTO 35009G17KT 10SM CLR 10/07 A3020 RMK AO2,K6S2,2023-02-12T00:15:00Z,43.98,-124.12,10.0,7.0,350,9,17,10.0,30.200787,,,TRUE,TRUE,,,,,,,CLR,,,,,,,,VFR,,,,,,,,,,,,METAR,16.0
K6S2 112355Z AUTO 34014G19KT 10SM CLR 10/07 A3021 RMK AO2,K6S2,2023-02-11T23:55:00Z,43.98,-124.12,10.0,7.0,340,14,19,10.0,30.209646,,,TRUE,TRUE,,,,,,,CLR,,,,,,,,VFR,,,,,,,,,,,,METAR,16.0
K6S2 112335Z AUTO 34012G19KT 10SM CLR 10/07 A3022 RMK AO2,K6S2,2023-02-11T23:35:00Z,43.98,-124.12,10.0,7.0,340,12,19,10.0,30.221457,,,TRUE,TRUE,,,,,,,CLR,,,,,,,,VFR,,,,,,,,,,,,METAR,16.0
K6S2 112315Z AUTO 35013KT 10SM CLR 10/07 A3022 RMK AO2,K6S2,2023-02-11T23:15:00Z,43.98,-124.12,10.0,7.0,350,13,,10.0,30.221457,,,TRUE,TRUE,,,,,,,CLR,,,,,,,,VFR,,,,,,,,,,,,METAR,16.0
K6S2 112255Z AUTO 35016G23KT 10SM CLR 10/07 A3022 RMK AO2,K6S2,2023-02-11T22:55:00Z,43.98,-124.12,10.0,7.0,350,16,23,10.0,30.221457,,,TRUE,TRUE,,,,,,,CLR,,,,,,,,VFR,,,,,,,,,,,,METAR,16.0
K6S2 112215Z AUTO 34012G18KT 10SM CLR 10/07 A3022 RMK AO2,K6S2,2023-02-11T22:15:00Z,43.98,-124.12,10.0,7.0,340,12,18,10.0,30.221457,,,TRUE,TRUE,,,,,,,CLR,,,,,,,,VFR,,,,,,,,,,,,SPECI,16.0
K6S2 112155Z AUTO 34011KT 9SM CLR 10/07 A3022 RMK AO2,K6S2,2023-02-11T21:55:00Z,43.98,-124.12,10.0,7.0,340,11,,9.0,30.221457,,,TRUE,TRUE,,,,,,,CLR,,,,,,,,VFR,,,,,,,,,,,,METAR,16.0
K6S2 112135Z AUTO 34014G19KT 10SM CLR 10/07 A3023 RMK AO2,K6S2,2023-02-11T21:35:00Z,43.98,-124.12,10.0,7.0,340,14,19,10.0,30.230314,,,TRUE,TRUE,,,,,,,CLR,,,,,,,,VFR,,,,,,,,,,,,METAR,16.0
K6S2 112115Z AUTO 34014KT 9SM CLR 10/07 A3023 RMK AO2,K6S2,2023-02-11T21:15:00Z,43.98,-124.12,10.0,7.0,340,14,,9.0,30.230314,,,TRUE,TRUE,,,,,,,CLR,,,,,,,,VFR,,,,,,,,,,,,METAR,16.0
K6S2 112055Z AUTO 34007KT 9SM CLR 11/05 A3023 RMK AO2,K6S2,2023-02-11T20:55:00Z,43.98,-124.12,11.0,5.0,340,7,,9.0,30.230314,,,TRUE,TRUE,,,,,,,CLR,,,,,,,,VFR,,,,,,,,,,,,METAR,16.0
K6S2 112035Z AUTO 33008KT 9SM CLR 11/06 A3024 RMK AO2,K6S2,2023-02-11T20:35:00Z,43.98,-124.12,11.0,6.0,330,8,,9.0,30.239174,,,TRUE,TRUE,,,,,,,CLR,,,,,,,,VFR,,,,,,,,,,,,METAR,16.0
K6S2 112015Z AUTO 34008KT 10SM CLR 10/05 A3025 RMK AO2,K6S2,2023-02-11T20:15:00Z,43.98,-124.12,10.0,5.0,340,8,,10.0,30.250984,,,TRUE,TRUE,,,,,,,CLR,,,,,,,,VFR,,,,,,,,,,,,METAR,16.0
K6S2 111955Z AUTO 34009KT 10SM CLR 10/05 A3026 RMK AO2,K6S2,2023-02-11T19:55:00Z,43.98,-124.12,10.0,5.0,340,9,,10.0,30.259842,,,TRUE,TRUE,,,,,,,CLR,,,,,,,,VFR,,,,,,,,,,,,METAR,16.0
K6S2 111935Z AUTO 00000KT 10SM CLR 10/05 A3026 RMK AO2,K6S2,2023-02-11T19:35:00Z,43.98,-124.12,10.0,5.0,0,0,,10.0,30.259842,,,TRUE,TRUE,,,,,,,CLR,,,,,,,,VFR,,,,,,,,,,,,METAR,16.0
K6S2 111915Z AUTO 00000KT 10SM CLR 10/05 A3027 RMK AO2,K6S2,2023-02-11T19:15:00Z,43.98,-124.12,10.0,5.0,0,0,,10.0,30.268702,,,TRUE,TRUE,,,,,,,CLR,,,,,,,,VFR,,,,,,,,,,,,METAR,16.0
K6S2 111835Z AUTO 00000KT 7SM CLR 09/05 A3027 RMK AO2,K6S2,2023-02-11T18:35:00Z,43.98,-124.12,9.0,5.0,0,0,,7.0,30.268702,,,TRUE,TRUE,,,,,,,CLR,,,,,,,,VFR,,,,,,,,,,,,METAR,16.0
K6S2 111815Z AUTO 00000KT 8SM CLR 08/05 A3027 RMK AO2,K6S2,2023-02-11T18:15:00Z,43.98,-124.12,8.0,5.0,0,0,,8.0,30.268702,,,TRUE,TRUE,,,,,,,CLR,,,,,,,,VFR,,,,,,,,,,,,METAR,16.0
K6S2 111755Z AUTO 00000KT 10SM CLR 07/06 A3028 RMK AO2,K6S2,2023-02-11T17:55:00Z,43.98,-124.12,7.0,6.0,0,0,,10.0,30.280512,,,TRUE,TRUE,,,,,,,CLR,,,,,,,,VFR,,,,,,,,,,,,METAR,16.0
K6S2 111735Z AUTO 00000KT 10SM SCT004 05/05 A3028 RMK AO2,K6S2,2023-02-11T17:35:00Z,43.98,-124.12,5.0,5.0,0,0,,10.0,30.280512,,,TRUE,TRUE,,,,,,,SCT,400,,,,,,,VFR,,,,,,,,,,,,METAR,16.0
K6S2 111715Z AUTO 00000KT 10SM BKN004 04/04 A3028 RMK AO2,K6S2,2023-02-11T17:15:00Z,43.98,-124.12,4.0,4.0,0,0,,10.0,30.280512,,,TRUE,TRUE,,,,,,,BKN,400,,,,,,,LIFR,,,,,,,,,,,,METAR,16.0
K6S2 111655Z AUTO 00000KT 10SM CLR 03/03 A3028 RMK AO2,K6S2,2023-02-11T16:55:00Z,43.98,-124.12,3.0,3.0,0,0,,10.0,30.280512,,,TRUE,TRUE,,,,,,,CLR,,,,,,,,VFR,,,,,,,,,,,,METAR,16.0
K6S2 111635Z AUTO 00000KT 10SM CLR 02/02 A3028 RMK AO2,K6S2,2023-02-11T16:35:00Z,43.98,-124.12,2.0,2.0,0,0,,10.0,30.280512,,,TRUE,TRUE,,,,,,,CLR,,,,,,,,VFR,,,,,,,,,,,,METAR,16.0
K6S2 111615Z AUTO 00000KT 10SM CLR 01/01 A3028 RMK AO2,K6S2,2023-02-11T16:15:00Z,43.98,-124.12,1.0,1.0,0,0,,10.0,30.280512,,,TRUE,TRUE,,,,,,,CLR,,,,,,,,VFR,,,,,,,,,,,,METAR,16.0
K6S2 111555Z AUTO 00000KT 10SM CLR 01/01 A3028 RMK AO2,K6S2,2023-02-11T15:55:00Z,43.98,-124.12,1.0,1.0,0,0,,10.0,30.280512,,,TRUE,TRUE,,,,,,,CLR,,,,,,,,VFR,,,,,,,,,,,,SPECI,16.0
K6S2 111535Z AUTO 00000KT 10SM FEW002 01/01 A3027 RMK AO2,K6S2,2023-02-11T15:35:00Z,43.98,-124.12,1.0,1.0,0,0,,10.0,30.268702,,,TRUE,TRUE,,,,,,,FEW,200,,,,,,,VFR,,,,,,,,,,,,METAR,16.0
K6S2 111515Z AUTO 00000KT 10SM FEW002 01/01 A3027 RMK AO2,K6S2,2023-02-11T15:15:00Z,43.98,-124.12,1.0,1.0,0,0,,10.0,30.268702,,,TRUE,TRUE,,,,,,,FEW,200,,,,,,,VFR,,,,,,,,,,,,METAR,16.0
K6S2 111455Z AUTO 00000KT 10SM CLR 02/02 A3027 RMK AO2,K6S2,2023-02-11T14:55:00Z,43.98,-124.12,2.0,2.0,0,0,,10.0,30.268702,,,TRUE,TRUE,,,,,,,CLR,,,,,,,,VFR,,,,,,,,,,,,METAR,16.0
K6S2 111435Z AUTO 00000KT 10SM CLR 02/02 A3025 RMK AO2,K6S2,2023-02-11T14:35:00Z,43.98,-124.12,2.0,2.0,0,0,,10.0,30.250984,,,TRUE,TRUE,,,,,,,CLR,,,,,,,,VFR,,,,,,,,,,,,METAR,16.0
K6S2 111415Z AUTO 00000KT 10SM CLR 02/02 A3025 RMK AO2,K6S2,2023-02-11T14:15:00Z,43.98,-124.12,2.0,2.0,0,0,,10.0,30.250984,,,TRUE,TRUE,,,,,,,CLR,,,,,,,,VFR,,,,,,,,,,,,SPECI,16.0
K6S2 111355Z AUTO 00000KT 10SM CLR 03/03 A3025 RMK AO2,K6S2,2023-02-11T13:55:00Z,43.98,-124.12,3.0,3.0,0,0,,10.0,30.250984,,,TRUE,TRUE,,,,,,,CLR,,,,,,,,VFR,,,,,,,,,,,,METAR,16.0
K6S2 111335Z AUTO 00000KT 10SM CLR 03/03 A3025 RMK AO2,K6S2,2023-02-11T13:35:00Z,43.98,-124.12,3.0,3.0,0,0,,10.0,30.250984,,,TRUE,TRUE,,,,,,,CLR,,,,,,,,VFR,,,,,,,,,,,,METAR,16.0
K6S2 111315Z AUTO 11004KT 10SM CLR 04/04 A3025 RMK AO2,K6S2,2023-02-11T13:15:00Z,43.98,-124.12,4.0,4.0,110,4,,10.0,30.250984,,,TRUE,TRUE,,,,,,,CLR,,,,,,,,VFR,,,,,,,,,,,,METAR,16.0
K6S2 111255Z AUTO 36005G10KT 10SM CLR 07/04 A3024 RMK AO2,K6S2,2023-02-11T12:55:00Z,43.98,-124.12,7.0,4.0,360,5,10,10.0,30.239174,,,TRUE,TRUE,,,,,,,CLR,,,,,,,,VFR,,,,,,,,,,,,METAR,16.0
K6S2 111235Z AUTO 35010KT 10SM CLR 06/04 A3025 RMK AO2,K6S2,2023-02-11T12:35:00Z,43.98,-124.12,6.0,4.0,350,10,,10.0,30.250984,,,TRUE,TRUE,,,,,,,CLR,,,,,,,,VFR,,,,,,,,,,,,SPECI,16.0
K6S2 111215Z AUTO VRB06G14KT 10SM CLR 07/04 A3024 RMK AO2,K6S2,2023-02-11T12:15:00Z,43.98,-124.12,7.0,4.0,0,6,14,10.0,30.239174,,,TRUE,TRUE,,,,,,,CLR,,,,,,,,VFR,,,,,,,,,,,,SPECI,16.0
K6S2 111155Z AUTO 36008G15KT 330V030 9SM FEW003 06/05 A3024 RMK AO2,K6S2,2023-02-11T11:55:00Z,43.98,-124.12,6.0,5.0,360,8,15,9.0,30.239174,,,TRUE,TRUE,,,,,,,FEW,300,,,,,,,VFR,,,,,,,,,,,,METAR,16.0
K6S2 111135Z AUTO 00000KT 6SM BR FEW005 FEW012 04/04 A3024 RMK AO2,K6S2,2023-02-11T11:35:00Z,43.98,-124.12,4.0,4.0,0,0,,6.0,30.239174,,,TRUE,TRUE,,,,,,BR,FEW,500,FEW,1200,,,,,VFR,,,,,,,,,,,,METAR,16.0
K6S2 111115Z AUTO 00000KT 10SM CLR 04/04 A3023 RMK AO2,K6S2,2023-02-11T11:15:00Z,43.98,-124.12,4.0,4.0,0,0,,10.0,30.230314,,,TRUE,TRUE,,,,,,,CLR,,,,,,,,VFR,,,,,,,,,,,,SPECI,16.0
K6S2 111055Z AUTO 00000KT 8SM CLR 05/05 A3024 RMK AO2,K6S2,2023-02-11T10:55:00Z,43.98,-124.12,5.0,5.0,0,0,,8.0,30.239174,,,TRUE,TRUE,,,,,,,CLR,,,,,,,,VFR,,,,,,,,,,,,METAR,16.0
K6S2 111035Z AUTO 00000KT 8SM CLR 05/05 A3024 RMK AO2,K6S2,2023-02-11T10:35:00Z,43.98,-124.12,5.0,5.0,0,0,,8.0,30.239174,,,TRUE,TRUE,,,,,,,CLR,,,,,,,,VFR,,,,,,,,,,,,METAR,16.0
K6S2 111015Z AUTO 00000KT 7SM FEW003 06/05 A3024 RMK AO2,K6S2,2023-02-11T10:15:00Z,43.98,-124.12,6.0,5.0,0,0,,7.0,30.239174,,,TRUE,TRUE,,,,,,,FEW,300,,,,,,,VFR,,,,,,,,,,,,METAR,16.0
K6S2 110955Z AUTO 35006G12KT 6SM BR SCT003 07/05 A3023 RMK AO2,K6S2,2023-02-11T09:55:00Z,43.98,-124.12,7.0,5.0,350,6,12,6.0,30.230314,,,TRUE,TRUE,,,,,,BR,SCT,300,,,,,,,VFR,,,,,,,,,,,,METAR,16.0
K6S2 110935Z AUTO 34007G13KT 310V010 6SM BR BKN003 08/06 A3022 RMK AO2,K6S2,2023-02-11T09:35:00Z,43.98,-124.12,8.0,6.0,340,7,13,6.0,30.221457,,,TRUE,TRUE,,,,,,BR,BKN,300,,,,,,,LIFR,,,,,,,,,,,,METAR,16.0
K6S2 110915Z AUTO 34009KT 6SM BR OVC003 08/06 A3022 RMK AO2,K6S2,2023-02-11T09:15:00Z,43.98,-124.12,8.0,6.0,340,9,,6.0,30.221457,,,TRUE,TRUE,,,,,,BR,OVC,300,,,,,,,LIFR,,,,,,,,,,,,SPECI,16.0
K6S2 110855Z AUTO 35005G10KT 7SM BKN003 BKN050 08/06 A3022 RMK AO2,K6S2,2023-02-11T08:55:00Z,43.98,-124.12,8.0,6.0,350,5,10,7.0,30.221457,,,TRUE,TRUE,,,,,,,BKN,300,BKN,5000,,,,,LIFR,,,,,,,,,,,,METAR,16.0
K6S2 110835Z AUTO VRB04G10KT 9SM BKN050 08/06 A3022 RMK AO2,K6S2,2023-02-11T08:35:00Z,43.98,-124.12,8.0,6.0,0,4,10,9.0,30.221457,,,TRUE,TRUE,,,,,,,BKN,5000,,,,,,,VFR,,,,,,,,,,,,METAR,16.0
K6S2 110815Z AUTO VRB06KT 6SM BR FEW004 OVC049 08/07 A3022 RMK AO2,K6S2,2023-02-11T08:15:00Z,43.98,-124.12,8.0,7.0,0,6,,6.0,30.221457,,,TRUE,TRUE,,,,,,BR,FEW,400,OVC,4900,,,,,VFR,,,,,,,,,,,,SPECI,16.0
K6S2 110755Z AUTO 35008KT 330V030 6SM BR OVC047 09/07 A3022 RMK AO2,K6S2,2023-02-11T07:55:00Z,43.98,-124.12,9.0,7.0,350,8,,6.0,30.221457,,,TRUE,TRUE,,,,,,BR,OVC,4700,,,,,,,VFR,,,,,,,,,,,,METAR,16.0
K6S2 110735Z AUTO 01004KT 6SM BR FEW003 FEW007 OVC048 08/07 A3022 RMK AO2,K6S2,2023-02-11T07:35:00Z,43.98,-124.12,8.0,7.0,10,4,,6.0,30.221457,,,TRUE,TRUE,,,,,,BR,FEW,300,FEW,700,OVC,4800,,,VFR,,,,,,,,,,,,SPECI,16.0
K6S2 110715Z AUTO 35008G14KT 330V040 5SM BR BKN003 BKN036 OVC050 09/08 A3022 RMK AO2,K6S2,2023-02-11T07:15:00Z,43.98,-124.12,9.0,8.0,350,8,14,5.0,30.221457,,,TRUE,TRUE,,,,,,BR,BKN,300,BKN,3600,OVC,5000,,,LIFR,,,,,,,,,,,,METAR,16.0
K6S2 110655Z AUTO 35008G15KT 5SM BR BKN003 OVC036 08/08 A3022 RMK AO2,K6S2,2023-02-11T06:55:00Z,43.98,-124.12,8.0,8.0,350,8,15,5.0,30.221457,,,TRUE,TRUE,,,,,,BR,BKN,300,OVC,3600,,,,,LIFR,,,,,,,,,,,,METAR,16.0
K6S2 110635Z AUTO VRB04KT 7SM BKN004 BKN050 07/07 A3021 RMK AO2,K6S2,2023-02-11T06:35:00Z,43.98,-124.12,7.0,7.0,0,4,,7.0,30.209646,,,TRUE,TRUE,,,,,,,BKN,400,BKN,5000,,,,,LIFR,,,,,,,,,,,,METAR,16.0
K6S2 110615Z AUTO 00000KT 8SM SCT004 07/07 A3021 RMK AO2,K6S2,2023-02-11T06:15:00Z,43.98,-124.12,7.0,7.0,0,0,,8.0,30.209646,,,TRUE,TRUE,,,,,,,SCT,400,,,,,,,VFR,,,,,,,,,,,,METAR,16.0
K6S2 110555Z AUTO 00000KT 7SM BKN003 BKN006 07/07 A3020 RMK AO2,K6S2,2023-02-11T05:55:00Z,43.98,-124.12,7.0,7.0,0,0,,7.0,30.200787,,,TRUE,TRUE,,,,,,,BKN,300,BKN,600,,,,,LIFR,,,,,,,,,,,,METAR,16.0
K6S2 110535Z AUTO VRB05KT 7SM OVC003 08/08 A3020 RMK AO2,K6S2,2023-02-11T05:35:00Z,43.98,-124.12,8.0,8.0,0,5,,7.0,30.200787,,,TRUE,TRUE,,,,,,,OVC,300,,,,,,,LIFR,,,,,,,,,,,,METAR,16.0
K6S2 110515Z AUTO VRB05KT 6SM BR OVC003 08/08 A3019 RMK AO2,K6S2,2023-02-11T05:15:00Z,43.98,-124.12,8.0,8.0,0,5,,6.0,30.188976,,,TRUE,TRUE,,,,,,BR,OVC,300,,,,,,,LIFR,,,,,,,,,,,,METAR,16.0
K6S2 110455Z AUTO VRB04KT 10SM BKN003 08/08 A3018 RMK AO2,K6S2,2023-02-11T04:55:00Z,43.98,-124.12,8.0,8.0,0,4,,10.0,30.180119,,,TRUE,TRUE,,,,,,,BKN,300,,,,,,,LIFR,,,,,,,,,,,,METAR,16.0
K6S2 110435Z AUTO VRB04KT 10SM FEW003 FEW090 08/07 A3018 RMK AO2,K6S2,2023-02-11T04:35:00Z,43.98,-124.12,8.0,7.0,0,4,,10.0,30.180119,,,TRUE,TRUE,,,,,,,FEW,300,FEW,9000,,,,,VFR,,,,,,,,,,,,METAR,16.0
K6S2 110415Z AUTO 35005KT 10SM SCT080 08/07 A3018 RMK AO2,K6S2,2023-02-11T04:15:00Z,43.98,-124.12,8.0,7.0,350,5,,10.0,30.180119,,,TRUE,TRUE,,,,,,,SCT,8000,,,,,,,VFR,,,,,,,,,,,,METAR,16.0
K6S2 110355Z AUTO VRB06G12KT 9SM FEW003 FEW012 OVC080 09/08 A3017 RMK AO2,K6S2,2023-02-11T03:55:00Z,43.98,-124.12,9.0,8.0,0,6,12,9.0,30.171259,,,TRUE,TRUE,,,,,,,FEW,300,FEW,1200,OVC,8000,,,VFR,,,,,,,,,,,,METAR,16.0
K6S2 110335Z AUTO 36008G14KT 330V030 7SM FEW008 SCT055 OVC080 09/08 A3017 RMK AO2,K6S2,2023-02-11T03:35:00Z,43.98,-124.12,9.0,8.0,360,8,14,7.0,30.171259,,,TRUE,TRUE,,,,,,,FEW,800,SCT,5500,OVC,8000,,,VFR,,,,,,,,,,,,METAR,16.0
K6S2 110315Z AUTO 36007G13KT 330V040 7SM FEW004 BKN050 OVC055 09/08 A3017 RMK AO2,K6S2,2023-02-11T03:15:00Z,43.98,-124.12,9.0,8.0,360,7,13,7.0,30.171259,,,TRUE,TRUE,,,,,,,FEW,400,BKN,5000,OVC,5500,,,VFR,,,,,,,,,,,,METAR,16.0
K6S2 110255Z AUTO 35011G17KT 330V050 6SM BR FEW003 BKN044 OVC050 09/08 A3016 RMK AO2,K6S2,2023-02-11T02:55:00Z,43.98,-124.12,9.0,8.0,350,11,17,6.0,30.159449,,,TRUE,TRUE,,,,,,BR,FEW,300,BKN,4400,OVC,5000,,,VFR,,,,,,,,,,,,METAR,16.0
K6S2 110235Z AUTO 36009G16KT 330V030 7SM SCT003 BKN043 OVC050 09/08 A3017 RMK AO2,K6S2,2023-02-11T02:35:00Z,43.98,-124.12,9.0,8.0,360,9,16,7.0,30.171259,,,TRUE,TRUE,,,,,,,SCT,300,BKN,4300,OVC,5000,,,VFR,,,,,,,,,,,,SPECI,16.0
K6S2 110215Z AUTO 35009G15KT 330V050 7SM BKN003 BKN038 OVC050 10/08 A3016 RMK AO2,K6S2,2023-02-11T02:15:00Z,43.98,-124.12,10.0,8.0,350,9,15,7.0,30.159449,,,TRUE,TRUE,,,,,,,BKN,300,BKN,3800,OVC,5000,,,LIFR,,,,,,,,,,,,SPECI,16.0
K6S2 110155Z AUTO 35013G19KT 5SM BR FEW003 BKN035 OVC075 10/08 A3016 RMK AO2,K6S2,2023-02-11T01:55:00Z,43.98,-124.12,10.0,8.0,350,13,19,5.0,30.159449,,,TRUE,TRUE,,,,,,BR,FEW,300,BKN,3500,OVC,7500,,,MVFR,,,,,,,,,,,,METAR,16.0
K6S2 110135Z AUTO 35012G21KT 6SM BR BKN031 BKN045 OVC075 09/09 A3015 RMK AO2,K6S2,2023-02-11T01:35:00Z,43.98,-124.12,9.0,9.0,350,12,21,6.0,30.15059,,,TRUE,TRUE,,,,,,BR,BKN,3100,BKN,4500,OVC,7500,,,VFR,,,,,,,,,,,,SPECI,16.0
K6S2 110115Z AUTO 35011G20KT 320V020 6SM BR BKN031 BKN038 OVC044 10/09 A3014 RMK AO2,K6S2,2023-02-11T01:15:00Z,43.98,-124.12,10.0,9.0,350,11,20,6.0,30.138779,,,TRUE,TRUE,,,,,,BR,BKN,3100,BKN,3800,OVC,4400,,,VFR,,,,,,,,,,,,SPECI,16.0
K6S2 110055Z AUTO 34011G19KT 6SM BR SCT032 BKN037 OVC110 10/09 A3013 RMK AO2,K6S2,2023-02-11T00:55:00Z,43.98,-124.12,10.0,9.0,340,11,19,6.0,30.129921,,,TRUE,TRUE,,,,,,BR,SCT,3200,BKN,3700,OVC,11000,,,VFR,,,,,,,,,,,,METAR,16.0
K6S2 110035Z AUTO 35009G16KT 6SM BR OVC110 10/09 A3013 RMK AO2,K6S2,2023-02-11T00:35:00Z,43.98,-124.12,10.0,9.0,350,9,16,6.0,30.129921,,,TRUE,TRUE,,,,,,BR,OVC,11000,,,,,,,VFR,,,,,,,,,,,,METAR,16.0
K6S2 110015Z AUTO 34009KT 6SM BR SCT110 10/09 A3012 RMK AO2,K6S2,2023-02-11T00:15:00Z,43.98,-124.12,10.0,9.0,340,9,,6.0,30.121063,,,TRUE,TRUE,,,,,,BR,SCT,11000,,,,,,,VFR,,,,,,,,,,,,SPECI,16.0
K6S2 102355Z AUTO 35008KT 6SM BR FEW120 10/10 A3013 RMK AO2,K6S2,2023-02-10T23:55:00Z,43.98,-124.12,10.0,10.0,350,8,,6.0,30.129921,,,TRUE,TRUE,,,,,,BR,FEW,12000,,,,,,,VFR,,,,,,,,,,,,METAR,16.0
K6S2 102335Z AUTO 35008G14KT 7SM CLR 10/10 A3013 RMK AO2,K6S2,2023-02-10T23:35:00Z,43.98,-124.12,10.0,10.0,350,8,14,7.0,30.129921,,,TRUE,TRUE,,,,,,,CLR,,,,,,,,VFR,,,,,,,,,,,,SPECI,16.0
K6S2 102315Z AUTO 34013KT 9SM CLR 10/09 A3013 RMK AO2,K6S2,2023-02-10T23:15:00Z,43.98,-124.12,10.0,9.0,340,13,,9.0,30.129921,,,TRUE,TRUE,,,,,,,CLR,,,,,,,,VFR,,,,,,,,,,,,SPECI,16.0
K6S2 102255Z AUTO 34011KT 330V030 7SM CLR 11/10 A3013 RMK AO2,K6S2,2023-02-10T22:55:00Z,43.98,-124.12,11.0,10.0,340,11,,7.0,30.129921,,,TRUE,TRUE,,,,,,,CLR,,,,,,,,VFR,,,,,,,,,,,,METAR,16.0
K6S2 102235Z AUTO 35008G15KT 9SM FEW070 12/10 A3013 RMK AO2,K6S2,2023-02-10T22:35:00Z,43.98,-124.12,12.0,10.0,350,8,15,9.0,30.129921,,,TRUE,TRUE,,,,,,,FEW,7000,,,,,,,VFR,,,,,,,,,,,,SPECI,16.0
K6S2 102215Z AUTO 33007G13KT 7SM BKN070 12/10 A3013 RMK AO2,K6S2,2023-02-10T22:15:00Z,43.98,-124.12,12.0,10.0,330,7,13,7.0,30.129921,,,TRUE,TRUE,,,,,,,BKN,7000,,,,,,,VFR,,,,,,,,,,,,SPECI,16.0
K6S2 102155Z AUTO 32009KT 5SM BR FEW060 OVC070 11/10 A3013 RMK AO2,K6S2,2023-02-10T21:55:00Z,43.98,-124.12,11.0,10.0,320,9,,5.0,30.129921,,,TRUE,TRUE,,,,,,BR,FEW,6000,OVC,7000,,,,,MVFR,,,,,,,,,,,,METAR,16.0
K6S2 102135Z AUTO 32006KT 5SM BR FEW050 OVC060 11/10 A3013 RMK AO2,K6S2,2023-02-10T21:35:00Z,43.98,-124.12,11.0,10.0,320,6,,5.0,30.129921,,,TRUE,TRUE,,,,,,BR,FEW,5000,OVC,6000,,,,,MVFR,,,,,,,,,,,,SPECI,16.0
K6S2 102115Z AUTO 34006KT 7SM FEW018 SCT041 BKN048 12/10 A3014 RMK AO2,K6S2,2023-02-10T21:15:00Z,43.98,-124.12,12.0,10.0,340,6,,7.0,30.138779,,,TRUE,TRUE,,,,,,,FEW,1800,SCT,4100,BKN,4800,,,VFR,,,,,,,,,,,,METAR,16.0
K6S2 102055Z AUTO VRB05KT 10SM BKN018 BKN023 OVC060 13/10 A3014 RMK AO2,K6S2,2023-02-10T20:55:00Z,43.98,-124.12,13.0,10.0,0,5,,10.0,30.138779,,,TRUE,TRUE,,,,,,,BKN,1800,BKN,2300,OVC,6000,,,MVFR,,,,,,,,,,,,METAR,16.0
K6S2 102035Z AUTO VRB04KT 10SM SCT046 BKN060 12/10 A3015 RMK AO2,K6S2,2023-02-10T20:35:00Z,43.98,-124.12,12.0,10.0,0,4,,10.0,30.15059,,,TRUE,TRUE,,,,,,,SCT,4600,BKN,6000,,,,,VFR,,,,,,,,,,,,METAR,16.0
K6S2 102015Z AUTO VRB04KT 10SM SCT055 SCT065 12/11 A3015 RMK AO2,K6S2,2023-02-10T20:15:00Z,43.98,-124.12,12.0,11.0,0,4,,10.0,30.15059,,,TRUE,TRUE,,,,,,,SCT,5500,SCT,6500,,,,,VFR,,,,,,,,,,,,SPECI,16.0
K6S2 101955Z AUTO VRB03KT 10SM OVC060 12/11 A3016 RMK AO2,K6S2,2023-02-10T19:55:00Z,43.98,-124.12,12.0,11.0,0,3,,10.0,30.159449,,,TRUE,TRUE,,,,,,,OVC,6000,,,,,,,VFR,,,,,,,,,,,,METAR,16.0
K6S2 101935Z AUTO 00000KT 10SM FEW046 BKN055 11/11 A3016 RMK AO2,K6S2,2023-02-10T19:35:00Z,43.98,-124.12,11.0,11.0,0,0,,10.0,30.159449,,,TRUE,TRUE,,,,,,,FEW,4600,BKN,5500,,,,,VFR,,,,,,,,,,,,METAR,16.0
K6S2 101915Z AUTO 00000KT 10SM CLR 10/10 A3017 RMK AO2,K6S2,2023-02-10T19:15:00Z,43.98,-124.12,10.0,10.0,0,0,,10.0,30.171259,,,TRUE,TRUE,,,,,,,CLR,,,,,,,,VFR,,,,,,,,,,,,METAR,16.0
K6S2 101855Z AUTO 00000KT 10SM CLR 10/10 A3017 RMK AO2,K6S2,2023-02-10T18:55:00Z,43.98,-124.12,10.0,10.0,0,0,,10.0,30.171259,,,TRUE,TRUE,,,,,,,CLR,,,,,,,,VFR,,,,,,,,,,,,METAR,16.0
K6S2 101835Z AUTO 00000KT 10SM SCT044 10/10 A3017 RMK AO2,K6S2,2023-02-10T18:35:00Z,43.98,-124.12,10.0,10.0,0,0,,10.0,30.171259,,,TRUE,TRUE,,,,,,,SCT,4400,,,,,,,VFR,,,,,,,,,,,,METAR,16.0
K6S2 101815Z AUTO VRB04KT 10SM BKN045 10/10 A3017 RMK AO2,K6S2,2023-02-10T18:15:00Z,43.98,-124.12,10.0,10.0,0,4,,10.0,30.171259,,,TRUE,TRUE,,,,,,,BKN,4500,,,,,,,VFR,,,,,,,,,,,,METAR,16.0
K6S2 101755Z AUTO 00000KT 10SM SCT039 BKN047 09/09 A3017 RMK AO2,K6S2,2023-02-10T17:55:00Z,43.98,-124.12,9.0,9.0,0,0,,10.0,30.171259,,,TRUE,TRUE,,,,,,,SCT,3900,BKN,4700,,,,,VFR,,,,,,,,,,,,METAR,16.0
K6S2 101735Z AUTO 00000KT 10SM SCT039 09/09 A3018 RMK AO2,K6S2,2023-02-10T17:35:00Z,43.98,-124.12,9.0,9.0,0,0,,10.0,30.180119,,,TRUE,TRUE,,,,,,,SCT,3900,,,,,,,VFR,,,,,,,,,,,,METAR,16.0
K6S2 101715Z AUTO 00000KT 10SM CLR 09/09 A3018 RMK AO2,K6S2,2023-02-10T17:15:00Z,43.98,-124.12,9.0,9.0,0,0,,10.0,30.180119,,,TRUE,TRUE,,,,,,,CLR,,,,,,,,VFR,,,,,,,,,,,,METAR,16.0
K6S2 101655Z AUTO 00000KT 10SM CLR 08/08 A3018 RMK AO2,K6S2,2023-02-10T16:55:00Z,43.98,-124.12,8.0,8.0,0,0,,10.0,30.180119,,,TRUE,TRUE,,,,,,,CLR,,,,,,,,VFR,,,,,,,,,,,,METAR,16.0
K6S2 101635Z AUTO 00000KT 10SM FEW025 BKN060 08/08 A3018 RMK AO2,K6S2,2023-02-10T16:35:00Z,43.98,-124.12,8.0,8.0,0,0,,10.0,30.180119,,,TRUE,TRUE,,,,,,,FEW,2500,BKN,6000,,,,,VFR,,,,,,,,,,,,METAR,16.0
K6S2 101615Z AUTO 00000KT 10SM SCT023 BKN045 OVC065 08/08 A3017 RMK AO2,K6S2,2023-02-10T16:15:00Z,43.98,-124.12,8.0,8.0,0,0,,10.0,30.171259,,,TRUE,TRUE,,,,,,,SCT,2300,BKN,4500,OVC,6500,,,VFR,,,,,,,,,,,,METAR,16.0
K6S2 101555Z AUTO 00000KT 10SM BKN023 BKN034 OVC041 08/08 A3017 RMK AO2 P0001,K6S2,2023-02-10T15:55:00Z,43.98,-124.12,8.0,8.0,0,0,,10.0,30.171259,,,TRUE,TRUE,,,,,,,BKN,2300,BKN,3400,OVC,4100,,,MVFR,,,,,,0.01,,,,,,METAR,16.0
K6S2 101515Z AUTO 00000KT 9SM OVC019 08/08 A3017 RMK AO2,K6S2,2023-02-10T15:15:00Z,43.98,-124.12,8.0,8.0,0,0,,9.0,30.171259,,,TRUE,TRUE,,,,,,,OVC,1900,,,,,,,MVFR,,,,,,,,,,,,METAR,16.0
K6S2 101455Z AUTO 00000KT 9SM BKN019 OVC025 08/08 A3017 RMK AO2 P0005,K6S2,2023-02-10T14:55:00Z,43.98,-124.12,8.0,8.0,0,0,,9.0,30.171259,,,TRUE,TRUE,,,,,,,BKN,1900,OVC,2500,,,,,MVFR,,,,,,0.05,,,,,,SPECI,16.0
K6S2 101435Z AUTO 00000KT 1 3/4SM -RA BR SCT003 BKN019 OVC025 08/08 A3017 RMK AO2,K6S2,2023-02-10T14:35:00Z,43.98,-124.12,8.0,8.0,0,0,,1.75,30.171259,,,TRUE,TRUE,,,,,,-RA BR,SCT,300,BKN,1900,OVC,2500,,,IFR,,,,,,,,,,,,SPECI,16.0
K6S2 101415Z AUTO 00000KT 2 1/2SM RA BR FEW004 SCT013 BKN019 08/08 A3017 RMK AO2 VIS 1 3/4V4,K6S2,2023-02-10T14:15:00Z,43.98,-124.12,8.0,8.0,0,0,,2.5,30.171259,,,TRUE,TRUE,,,,,,RA BR,FEW,400,SCT,1300,BKN,1900,,,IFR,,,,,,,,,,,,METAR,16.0
K6S2 101355Z AUTO 00000KT 5SM -RA BR BKN024 OVC031 08/08 A3016 RMK AO2 P0005,K6S2,2023-02-10T13:55:00Z,43.98,-124.12,8.0,8.0,0,0,,5.0,30.159449,,,TRUE,TRUE,,,,,,-RA BR,BKN,2400,OVC,3100,,,,,MVFR,,,,,,0.05,,,,,,METAR,16.0
K6S2 101335Z AUTO 00000KT 4SM -RA BR BKN029 OVC034 08/08 A3017 RMK AO2,K6S2,2023-02-10T13:35:00Z,43.98,-124.12,8.0,8.0,0,0,,4.0,30.171259,,,TRUE,TRUE,,,,,,-RA BR,BKN,2900,OVC,3400,,,,,MVFR,,,,,,,,,,,,METAR,16.0
K6S2 101315Z AUTO 00000KT 2 1/2SM -RA BR FEW007 BKN027 OVC037 08/08 A3017 RMK AO2,K6S2,2023-02-10T13:15:00Z,43.98,-124.12,8.0,8.0,0,0,,2.5,30.171259,,,TRUE,TRUE,,,,,,-RA BR,FEW,700,BKN,2700,OVC,3700,,,IFR,,,,,,,,,,,,METAR,16.0
K6S2 101255Z AUTO 00000KT 3SM -RA BR FEW003 SCT008 BKN017 09/09 A3017 RMK AO2 P0004,K6S2,2023-02-10T12:55:00Z,43.98,-124.12,9.0,9.0,0,0,,3.0,30.171259,,,TRUE,TRUE,,,,,,-RA BR,FEW,300,SCT,800,BKN,1700,,,MVFR,,,,,,0.04,,,,,,METAR,16.0
K6S2 101235Z AUTO 31005KT 4SM RA BR SCT005 BKN016 OVC026 09/09 A3018 RMK AO2,K6S2,2023-02-10T12:35:00Z,43.98,-124.12,9.0,9.0,310,5,,4.0,30.180119,,,TRUE,TRUE,,,,,,RA BR,SCT,500,BKN,1600,OVC,2600,,,MVFR,,,,,,,,,,,,METAR,16.0
K6S2 101215Z AUTO 00000KT 6SM BR SCT013 BKN021 OVC026 08/08 A3018 RMK AO2,K6S2,2023-02-10T12:15:00Z,43.98,-124.12,8.0,8.0,0,0,,6.0,30.180119,,,TRUE,TRUE,,,,,,BR,SCT,1300,BKN,2100,OVC,2600,,,MVFR,,,,,,,,,,,,METAR,16.0
K6S2 101155Z AUTO 00000KT 6SM BR BKN012 OVC021 09/09 A3018 RMK AO2,K6S2,2023-02-10T11:55:00Z,43.98,-124.12,9.0,9.0,0,0,,6.0,30.180119,,,TRUE,TRUE,,,,,,BR,BKN,1200,OVC,2100,,,,,MVFR,,,,,,,,,,,,METAR,16.0
K6S2 101135Z AUTO 00000KT 10SM BKN012 BKN025 OVC036 08/08 A3018 RMK AO2,K6S2,2023-02-10T11:35:00Z,43.98,-124.12,8.0,8.0,0,0,,10.0,30.180119,,,TRUE,TRUE,,,,,,,BKN,1200,BKN,2500,OVC,3600,,,MVFR,,,,,,,,,,,,METAR,16.0
K6S2 101115Z AUTO 00000KT 10SM BKN013 BKN021 OVC041 09/09 A3019 RMK AO2,K6S2,2023-02-10T11:15:00Z,43.98,-124.12,9.0,9.0,0,0,,10.0,30.188976,,,TRUE,TRUE,,,,,,,BKN,1300,BKN,2100,OVC,4100,,,MVFR,,,,,,,,,,,,METAR,16.0
K6S2 101055Z AUTO 00000KT 9SM OVC013 09/09 A3019 RMK AO2,K6S2,2023-02-10T10:55:00Z,43.98,-124.12,9.0,9.0,0,0,,9.0,30.188976,,,TRUE,TRUE,,,,,,,OVC,1300,,,,,,,MVFR,,,,,,,,,,,,METAR,16.0
K6S2 101035Z AUTO 00000KT 9SM UP BKN013 BKN021 OVC044 09/09 A3019 RMK AO2,K6S2,2023-02-10T10:35:00Z,43.98,-124.12,9.0,9.0,0,0,,9.0,30.188976,,,TRUE,TRUE,,,,,,UP,BKN,1300,BKN,2100,OVC,4400,,,MVFR,,,,,,,,,,,,METAR,16.0
K6S2 101015Z AUTO 15003KT 4SM -RA BR FEW009 BKN027 OVC047 09/09 A3019 RMK AO2,K6S2,2023-02-10T10:15:00Z,43.98,-124.12,9.0,9.0,150,3,,4.0,30.188976,,,TRUE,TRUE,,,,,,-RA BR,FEW,900,BKN,2700,OVC,4700,,,MVFR,,,,,,,,,,,,SPECI,16.0
K6S2 100955Z AUTO VRB04KT 10SM FEW016 BKN025 OVC048 09/09 A3019 RMK AO2,K6S2,2023-02-10T09:55:00Z,43.98,-124.12,9.0,9.0,0,4,,10.0,30.188976,,,TRUE,TRUE,,,,,,,FEW,1600,BKN,2500,OVC,4800,,,MVFR,,,,,,,,,,,,METAR,16.0
K6S2 100935Z AUTO VRB04KT 10SM FEW012 SCT017 BKN024 09/09 A3019 RMK AO2,K6S2,2023-02-10T09:35:00Z,43.98,-124.12,9.0,9.0,0,4,,10.0,30.188976,,,TRUE,TRUE,,,,,,,FEW,1200,SCT,1700,BKN,2400,,,MVFR,,,,,,,,,,,,METAR,16.0
K6S2 100915Z AUTO 00000KT 10SM FEW011 SCT020 BKN027 09/09 A3020 RMK AO2,K6S2,2023-02-10T09:15:00Z,43.98,-124.12,9.0,9.0,0,0,,10.0,30.200787,,,TRUE,TRUE,,,,,,,FEW,1100,SCT,2000,BKN,2700,,,MVFR,,,,,,,,,,,,SPECI,16.0
K6S2 100855Z AUTO 15006KT 10SM SCT015 BKN029 OVC036 09/09 A3020 RMK AO2 P0001,K6S2,2023-02-10T08:55:00Z,43.98,-124.12,9.0,9.0,150,6,,10.0,30.200787,,,TRUE,TRUE,,,,,,,SCT,1500,BKN,2900,OVC,3600,,,MVFR,,,,,,0.01,,,,,,METAR,16.0
K6S2 100835Z AUTO VRB04KT 10SM SCT011 BKN015 OVC040 09/09 A3021 RMK AO2,K6S2,2023-02-10T08:35:00Z,43.98,-124.12,9.0,9.0,0,4,,10.0,30.209646,,,TRUE,TRUE,,,,,,,SCT,1100,BKN,1500,OVC,4000,,,MVFR,,,,,,,,,,,,SPECI,16.0
K6S2 100815Z AUTO 15004KT 10SM SCT013 BKN018 OVC031 09/09 A3021 RMK AO2,K6S2,2023-02-10T08:15:00Z,43.98,-124.12,9.0,9.0,150,4,,10.0,30.209646,,,TRUE,TRUE,,,,,,,SCT,1300,BKN,1800,OVC,3100,,,MVFR,,,,,,,,,,,,METAR,16.0
K6S2 100755Z AUTO VRB04KT 8SM -RA BKN013 BKN019 OVC025 09/09 A3022 RMK AO2 P0001,K6S2,2023-02-10T07:55:00Z,43.98,-124.12,9.0,9.0,0,4,,8.0,30.221457,,,TRUE,TRUE,,,,,,-RA,BKN,1300,BKN,1900,OVC,2500,,,MVFR,,,,,,0.01,,,,,,METAR,16.0
K6S2 100735Z AUTO VRB03KT 10SM BKN014 BKN021 OVC040 09/09 A3022 RMK AO2,K6S2,2023-02-10T07:35:00Z,43.98,-124.12,9.0,9.0,0,3,,10.0,30.221457,,,TRUE,TRUE,,,,,,,BKN,1400,BKN,2100,OVC,4000,,,MVFR,,,,,,,,,,,,METAR,16.0
K6S2 100715Z AUTO 00000KT 3SM -RA BR BKN011 BKN016 OVC021 09/09 A3022 RMK AO2,K6S2,2023-02-10T07:15:00Z,43.98,-124.12,9.0,9.0,0,0,,3.0,30.221457,,,TRUE,TRUE,,,,,,-RA BR,BKN,1100,BKN,1600,OVC,2100,,,MVFR,,,,,,,,,,,,METAR,16.0
K6S2 100655Z AUTO VRB04KT 5SM -RA BR BKN013 OVC019 09/09 A3022 RMK AO2 P0002,K6S2,2023-02-10T06:55:00Z,43.98,-124.12,9.0,9.0,0,4,,5.0,30.221457,,,TRUE,TRUE,,,,,,-RA BR,BKN,1300,OVC,1900,,,,,MVFR,,,,,,0.02,,,,,,METAR,16.0
K6S2 100635Z AUTO VRB05KT 4SM -RA BR FEW003 BKN013 OVC034 09/09 A3021 RMK AO2,K6S2,2023-02-10T06:35:00Z,43.98,-124.12,9.0,9.0,0,5,,4.0,30.209646,,,TRUE,TRUE,,,,,,-RA BR,FEW,300,BKN,1300,OVC,3400,,,MVFR,,,,,,,,,,,,SPECI,16.0
K6S2 100615Z AUTO 15005G11KT 9SM UP FEW011 SCT017 BKN025 09/09 A3022 RMK AO2,K6S2,2023-02-10T06:15:00Z,43.98,-124.12,9.0,9.0,150,5,11,9.0,30.221457,,,TRUE,TRUE,,,,,,UP,FEW,1100,SCT,1700,BKN,2500,,,MVFR,,,,,,,,,,,,SPECI,16.0
K6S2 100555Z AUTO 16005KT 10SM UP FEW013 SCT019 BKN026 09/09 A3021 RMK AO2 P0001,K6S2,2023-02-10T05:55:00Z,43.98,-124.12,9.0,9.0,160,5,,10.0,30.209646,,,TRUE,TRUE,,,,,,UP,FEW,1300,SCT,1900,BKN,2600,,,MVFR,,,,,,0.01,,,,,,METAR,16.0
K6S2 100535Z AUTO VRB06G12KT 10SM FEW012 BKN018 OVC031 09/09 A3021 RMK AO2,K6S2,2023-02-10T05:35:00Z,43.98,-124.12,9.0,9.0,0,6,12,10.0,30.209646,,,TRUE,TRUE,,,,,,,FEW,1200,BKN,1800,OVC,3100,,,MVFR,,,,,,,,,,,,METAR,16.0
K6S2 100515Z AUTO 15005G11KT 9SM -RA BKN011 BKN017 OVC032 09/09 A3020 RMK AO2,K6S2,2023-02-10T05:15:00Z,43.98,-124.12,9.0,9.0,150,5,11,9.0,30.200787,,,TRUE,TRUE,,,,,,-RA,BKN,1100,BKN,1700,OVC,3200,,,MVFR,,,,,,,,,,,,METAR,16.0
K6S2 100455Z AUTO VRB05G11KT 4SM -RA BR BKN010 OVC013 09/09 A3020 RMK AO2 P0002,K6S2,2023-02-10T04:55:00Z,43.98,-124.12,9.0,9.0,0,5,11,4.0,30.200787,,,TRUE,TRUE,,,,,,-RA BR,BKN,1000,OVC,1300,,,,,MVFR,,,,,,0.02,,,,,,METAR,16.0
K6S2 100435Z AUTO VRB05G14KT 3SM -RA BR FEW003 OVC012 09/09 A3020 RMK AO2,K6S2,2023-02-10T04:35:00Z,43.98,-124.12,9.0,9.0,0,5,14,3.0,30.200787,,,TRUE,TRUE,,,,,,-RA BR,FEW,300,OVC,1200,,,,,MVFR,,,,,,,,,,,,SPECI,16.0
K6S2 100415Z AUTO 17006G15KT 7SM -RA OVC012 09/09 A3020 RMK AO2,K6S2,2023-02-10T04:15:00Z,43.98,-124.12,9.0,9.0,170,6,15,7.0,30.200787,,,TRUE,TRUE,,,,,,-RA,OVC,1200,,,,,,,MVFR,,,,,,,,,,,,METAR,16.0
K6S2 100355Z AUTO 16007G12KT 100V210 3SM UP BR OVC013 08/08 A3019 RMK AO2 P0007,K6S2,2023-02-10T03:55:00Z,43.98,-124.12,8.0,8.0,160,7,12,3.0,30.188976,,,TRUE,TRUE,,,,,,BR UP,OVC,1300,,,,,,,MVFR,,,,,,0.07,,,,,,METAR,16.0
K6S2 100335Z AUTO 15007G12KT 080V180 6SM -RA BR BKN014 BKN019 BKN024 09/09 A3018 RMK AO2,K6S2,2023-02-10T03:35:00Z,43.98,-124.12,9.0,9.0,150,7,12,6.0,30.180119,,,TRUE,TRUE,,,,,,-RA BR,BKN,1400,BKN,1900,BKN,2400,,,MVFR,,,,,,,,,,,,METAR,16.0
K6S2 100315Z AUTO 16007G12KT 110V210 4SM -RA BR BKN017 BKN023 BKN033 09/09 A3018 RMK AO2,K6S2,2023-02-10T03:15:00Z,43.98,-124.12,9.0,9.0,160,7,12,4.0,30.180119,,,TRUE,TRUE,,,,,,-RA BR,BKN,1700,BKN,2300,BKN,3300,,,MVFR,,,,,,,,,,,,METAR,16.0
K6S2 100255Z AUTO 19011G19KT 6SM -RA BR BKN019 BKN026 OVC032 09/09 A3018 RMK AO2 P0003,K6S2,2023-02-10T02:55:00Z,43.98,-124.12,9.0,9.0,190,11,19,6.0,30.180119,,,TRUE,TRUE,,,,,,-RA BR,BKN,1900,BKN,2600,OVC,3200,,,MVFR,,,,,,0.03,,,,,,METAR,16.0
K6S2 100235Z AUTO 20012G20KT 4SM -RA HZ FEW019 SCT026 OVC033 11/07 A3017 RMK AO2,K6S2,2023-02-10T02:35:00Z,43.98,-124.12,11.0,7.0,200,12,20,4.0,30.171259,,,TRUE,TRUE,,,,,,-RA HZ,FEW,1900,SCT,2600,OVC,3300,,,MVFR,,,,,,,,,,,,METAR,16.0
K6S2 100215Z AUTO 20015G21KT 10SM -RA FEW024 BKN031 OVC038 12/05 A3017 RMK AO2,K6S2,2023-02-10T02:15:00Z,43.98,-124.12,12.0,5.0,200,15,21,10.0,30.171259,,,TRUE,TRUE,,,,,,-RA,FEW,2400,BKN,3100,OVC,3800,,,VFR,,,,,,,,,,,,SPECI,16.0
K6S2 100155Z AUTO 20013G21KT 10SM BKN040 BKN050 OVC110 13/01 A3016 RMK AO2,K6S2,2023-02-10T01:55:00Z,43.98,-124.12,13.0,1.0,200,13,21,10.0,30.159449,,,TRUE,TRUE,,,,,,,BKN,4000,BKN,5000,OVC,11000,,,VFR,,,,,,,,,,,,METAR,16.0
K6S2 100135Z AUTO 19010G19KT 10SM FEW036 SCT045 BKN060 12/03 A3015 RMK AO2,K6S2,2023-02-10T01:35:00Z,43.98,-124.12,12.0,3.0,190,10,19,10.0,30.15059,,,TRUE,TRUE,,,,,,,FEW,3600,SCT,4500,BKN,6000,,,VFR,,,,,,,,,,,,SPECI,16.0
K6S2 100115Z AUTO 19010G19KT 130V210 10SM SCT036 SCT060 12/03 A3016 RMK AO2,K6S2,2023-02-10T01:15:00Z,43.98,-124.12,12.0,3.0,190,10,19,10.0,30.159449,,,TRUE,TRUE,,,,,,,SCT,3600,SCT,6000,,,,,VFR,,,,,,,,,,,,SPECI,16.0
K6S2 100055Z AUTO 20013G18KT 10SM CLR 12/02 A3016 RMK AO2,K6S2,2023-02-10T00:55:00Z,43.98,-124.12,12.0,2.0,200,13,18,10.0,30.159449,,,TRUE,TRUE,,,,,,,CLR,,,,,,,,VFR,,,,,,,,,,,,METAR,16.0
K6S2 100035Z AUTO 19013G22KT 10SM FEW048 13/01 A3016 RMK AO2,K6S2,2023-02-10T00:35:00Z,43.98,-124.12,13.0,1.0,190,13,22,10.0,30.159449,,,TRUE,TRUE,,,,,,,FEW,4800,,,,,,,VFR,,,,,,,,,,,,SPECI,16.0
K6S2 100015Z AUTO 18010G19KT 150V220 10SM CLR 13/01 A3016 RMK AO2,K6S2,2023-02-10T00:15:00Z,43.98,-124.12,13.0,1.0,180,10,19,10.0,30.159449,,,TRUE,TRUE,,,,,,,CLR,,,,,,,,VFR,,,,,,,,,,,,SPECI,16.0
K6S2 092355Z AUTO 19011G19KT 160V220 10SM FEW048 13/M00 A3016 RMK AO2,K6S2,2023-02-09T23:55:00Z,43.98,-124.12,13.0,0.0,190,11,19,10.0,30.159449,,,TRUE,TRUE,,,,,,,FEW,4800,,,,,,,VFR,,,,,,,,,,,,METAR,16.0
K6S2 092335Z AUTO 19011G20KT 160V220 10SM FEW048 13/00 A3016 RMK AO2,K6S2,2023-02-09T23:35:00Z,43.98,-124.12,13.0,0.0,190,11,20,10.0,30.159449,,,TRUE,TRUE,,,,,,,FEW,4800,,,,,,,VFR,,,,,,,,,,,,METAR,16.0
K6S2 092315Z AUTO 20011G19KT 180V240 10SM CLR 13/02 A3016 RMK AO2,K6S2,2023-02-09T23:15:00Z,43.98,-124.12,13.0,2.0,200,11,19,10.0,30.159449,,,TRUE,TRUE,,,,,,,CLR,,,,,,,,VFR,,,,,,,,,,,,SPECI,16.0
K6S2 092255Z AUTO 20015KT 10SM CLR 13/02 A3016 RMK AO2,K6S2,2023-02-09T22:55:00Z,43.98,-124.12,13.0,2.0,200,15,,10.0,30.159449,,,TRUE,TRUE,,,,,,,CLR,,,,,,,,VFR,,,,,,,,,,,,METAR,16.0
K6S2 092235Z AUTO 21013G19KT 10SM CLR 13/M00 A3016 RMK AO2,K6S2,2023-02-09T22:35:00Z,43.98,-124.12,13.0,0.0,210,13,19,10.0,30.159449,,,TRUE,TRUE,,,,,,,CLR,,,,,,,,VFR,,,,,,,,,,,,METAR,16.0
K6S2 092215Z AUTO 22008G14KT 190V260 10SM CLR 14/03 A3016 RMK AO2,K6S2,2023-02-09T22:15:00Z,43.98,-124.12,14.0,3.0,220,8,14,10.0,30.159449,,,TRUE,TRUE,,,,,,,CLR,,,,,,,,VFR,,,,,,,,,,,,METAR,16.0
K6S2 092155Z AUTO 22008KT 190V250 10SM CLR 14/05 A3015 RMK AO2,K6S2,2023-02-09T21:55:00Z,43.98,-124.12,14.0,5.0,220,8,,10.0,30.15059,,,TRUE,TRUE,,,,,,,CLR,,,,,,,,VFR,,,,,,,,,,,,METAR,16.0
K6S2 092135Z AUTO VRB04KT 10SM CLR 14/04 A3015 RMK AO2,K6S2,2023-02-09T21:35:00Z,43.98,-124.12,14.0,4.0,0,4,,10.0,30.15059,,,TRUE,TRUE,,,,,,,CLR,,,,,,,,VFR,,,,,,,,,,,,METAR,16.0
K6S2 092115Z AUTO 20008KT 10SM CLR 14/03 A3016 RMK AO2,K6S2,2023-02-09T21:15:00Z,43.98,-124.12,14.0,3.0,200,8,,10.0,30.159449,,,TRUE,TRUE,,,,,,,CLR,,,,,,,,VFR,,,,,,,,,,,,SPECI,16.0
K6S2 092055Z AUTO 19012G18KT 10SM CLR 14/02 A3017 RMK AO2,K6S2,2023-02-09T20:55:00Z,43.98,-124.12,14.0,2.0,190,12,18,10.0,30.171259,,,TRUE,TRUE,,,,,,,CLR,,,,,,,,VFR,,,,,,,,,,,,METAR,16.0
K6S2 092035Z AUTO VRB06G12KT 10SM CLR 14/05 A3018 RMK AO2,K6S2,2023-02-09T20:35:00Z,43.98,-124.12,14.0,5.0,0,6,12,10.0,30.180119,,,TRUE,TRUE,,,,,,,CLR,,,,,,,,VFR,,,,,,,,,,,,SPECI,16.0
K6S2 091935Z AUTO 18009KT 140V200 10SM CLR 13/03 A3023 RMK AO2,K6S2,2023-02-09T19:35:00Z,43.98,-124.12,13.0,3.0,180,9,,10.0,30.230314,,,TRUE,TRUE,,,,,,,CLR,,,,,,,,VFR,,,,,,,,,,,,METAR,16.0
K6S2 091915Z AUTO 19005G11KT 10SM CLR 12/05 A3023 RMK AO2,K6S2,2023-02-09T19:15:00Z,43.98,-124.12,12.0,5.0,190,5,11,10.0,30.230314,,,TRUE,TRUE,,,,,,,CLR,,,,,,,,VFR,,,,,,,,,,,,METAR,16.0
K6S2 091855Z AUTO 00000KT 10SM CLR 11/06 A3023 RMK AO2,K6S2,2023-02-09T18:55:00Z,43.98,-124.12,11.0,6.0,0,0,,10.0,30.230314,,,TRUE,TRUE,,,,,,,CLR,,,,,,,,VFR,,,,,,,,,,,,METAR,16.0
K6S2 091835Z AUTO 00000KT 10SM CLR 10/06 A3023 RMK AO2,K6S2,2023-02-09T18:35:00Z,43.98,-124.12,10.0,6.0,0,0,,10.0,30.230314,,,TRUE,TRUE,,,,,,,CLR,,,,,,,,VFR,,,,,,,,,,,,SPECI,16.0
K6S2 091815Z AUTO VRB03KT 10SM CLR 09/06 A3023 RMK AO2,K6S2,2023-02-09T18:15:00Z,43.98,-124.12,9.0,6.0,0,3,,10.0,30.230314,,,TRUE,TRUE,,,,,,,CLR,,,,,,,,VFR,,,,,,,,,,,,METAR,16.0
K6S2 091755Z AUTO 11004KT 10SM CLR 08/05 A3024 RMK AO2,K6S2,2023-02-09T17:55:00Z,43.98,-124.12,8.0,5.0,110,4,,10.0,30.239174,,,TRUE,TRUE,,,,,,,CLR,,,,,,,,VFR,,,,,,,,,,,,METAR,16.0
K6S2 091735Z AUTO 00000KT 10SM CLR 07/05 A3024 RMK AO2,K6S2,2023-02-09T17:35:00Z,43.98,-124.12,7.0,5.0,0,0,,10.0,30.239174,,,TRUE,TRUE,,,,,,,CLR,,,,,,,,VFR,,,,,,,,,,,,METAR,16.0
K6S2 091715Z AUTO VRB04KT 10SM CLR 06/05 A3024 RMK AO2,K6S2,2023-02-09T17:15:00Z,43.98,-124.12,6.0,5.0,0,4,,10.0,30.239174,,,TRUE,TRUE,,,,,,,CLR,,,,,,,,VFR,,,,,,,,,,,,SPECI,16.0
K6S2 091655Z AUTO 00000KT 10SM CLR 05/05 A3024 RMK AO2,K6S2,2023-02-09T16:55:00Z,43.98,-124.12,5.0,5.0,0,0,,10.0,30.239174,,,TRUE,TRUE,,,,,,,CLR,,,,,,,,VFR,,,,,,,,,,,,METAR,16.0
K6S2 091635Z AUTO VRB04KT 10SM CLR 05/05 A3024 RMK AO2,K6S2,2023-02-09T16:35:00Z,43.98,-124.12,5.0,5.0,0,4,,10.0,30.239174,,,TRUE,TRUE,,,,,,,CLR,,,,,,,,VFR,,,,,,,,,,,,SPECI,16.0
K6S2 091615Z AUTO VRB03KT 10SM CLR 05/05 A3025 RMK AO2,K6S2,2023-02-09T16:15:00Z,43.98,-124.12,5.0,5.0,0,3,,10.0,30.250984,,,TRUE,TRUE,,,,,,,CLR,,,,,,,,VFR,,,,,,,,,,,,METAR,16.0
K6S2 091555Z AUTO VRB03KT 10SM CLR 04/04 A3024 RMK AO2,K6S2,2023-02-09T15:55:00Z,43.98,-124.12,4.0,4.0,0,3,,10.0,30.239174,,,TRUE,TRUE,,,,,,,CLR,,,,,,,,VFR,,,,,,,,,,,,SPECI,16.0
K6S2 091535Z AUTO 12004KT 10SM CLR 04/04 A3024 RMK AO2,K6S2,2023-02-09T15:35:00Z,43.98,-124.12,4.0,4.0,120,4,,10.0,30.239174,,,TRUE,TRUE,,,,,,,CLR,,,,,,,,VFR,,,,,,,,,,,,SPECI,16.0
K6S2 091515Z AUTO VRB04KT 10SM CLR 05/05 A3025 RMK AO2,K6S2,2023-02-09T15:15:00Z,43.98,-124.12,5.0,5.0,0,4,,10.0,30.250984,,,TRUE,TRUE,,,,,,,CLR,,,,,,,,VFR,,,,,,,,,,,,METAR,16.0
K6S2 091455Z AUTO VRB03KT 10SM CLR 05/05 A3025 RMK AO2,K6S2,2023-02-09T14:55:00Z,43.98,-124.12,5.0,5.0,0,3,,10.0,30.250984,,,TRUE,TRUE,,,,,,,CLR,,,,,,,,VFR,,,,,,,,,,,,METAR,16.0
K6S2 091435Z AUTO VRB03KT 10SM CLR 05/05 A3024 RMK AO2,K6S2,2023-02-09T14:35:00Z,43.98,-124.12,5.0,5.0,0,3,,10.0,30.239174,,,TRUE,TRUE,,,,,,,CLR,,,,,,,,VFR,,,,,,,,,,,,METAR,16.0
K6S2 091415Z AUTO VRB03KT 10SM CLR 05/05 A3025 RMK AO2,K6S2,2023-02-09T14:15:00Z,43.98,-124.12,5.0,5.0,0,3,,10.0,30.250984,,,TRUE,TRUE,,,,,,,CLR,,,,,,,,VFR,,,,,,,,,,,,METAR,16.0
K6S2 091355Z AUTO 00000KT 10SM CLR 05/05 A3026 RMK AO2,K6S2,2023-02-09T13:55:00Z,43.98,-124.12,5.0,5.0,0,0,,10.0,30.259842,,,TRUE,TRUE,,,,,,,CLR,,,,,,,,VFR,,,,,,,,,,,,METAR,16.0
K6S2 091335Z AUTO 00000KT 10SM CLR 06/05 A3025 RMK AO2,K6S2,2023-02-09T13:35:00Z,43.98,-124.12,6.0,5.0,0,0,,10.0,30.250984,,,TRUE,TRUE,,,,,,,CLR,,,,,,,,VFR,,,,,,,,,,,,SPECI,16.0
K6S2 091315Z AUTO VRB03KT 10SM CLR 06/05 A3026 RMK AO2,K6S2,2023-02-09T13:15:00Z,43.98,-124.12,6.0,5.0,0,3,,10.0,30.259842,,,TRUE,TRUE,,,,,,,CLR,,,,,,,,VFR,,,,,,,,,,,,SPECI,16.0
K6S2 091255Z AUTO VRB04KT 10SM CLR 06/05 A3027 RMK AO2,K6S2,2023-02-09T12:55:00Z,43.98,-124.12,6.0,5.0,0,4,,10.0,30.268702,,,TRUE,TRUE,,,,,,,CLR,,,,,,,,VFR,,,,,,,,,,,,METAR,16.0
K6S2 091235Z AUTO 00000KT 10SM CLR 06/05 A3028 RMK AO2,K6S2,2023-02-09T12:35:00Z,43.98,-124.12,6.0,5.0,0,0,,10.0,30.280512,,,TRUE,TRUE,,,,,,,CLR,,,,,,,,VFR,,,,,,,,,,,,SPECI,16.0
K6S2 091215Z AUTO 12004KT 10SM CLR 06/05 A3028 RMK AO2,K6S2,2023-02-09T12:15:00Z,43.98,-124.12,6.0,5.0,120,4,,10.0,30.280512,,,TRUE,TRUE,,,,,,,CLR,,,,,,,,VFR,,,,,,,,,,,,METAR,16.0
K6S2 091155Z AUTO VRB03KT 10SM CLR 07/05 A3028 RMK AO2,K6S2,2023-02-09T11:55:00Z,43.98,-124.12,7.0,5.0,0,3,,10.0,30.280512,,,TRUE,TRUE,,,,,,,CLR,,,,,,,,VFR,,,,,,,,,,,,METAR,16.0
K6S2 091135Z AUTO VRB04G10KT 10SM CLR 07/05 A3028 RMK AO2,K6S2,2023-02-09T11:35:00Z,43.98,-124.12,7.0,5.0,0,4,10,10.0,30.280512,,,TRUE,TRUE,,,,,,,CLR,,,,,,,,VFR,,,,,,,,,,,,SPECI,16.0
K6S2 091115Z AUTO VRB05KT 10SM CLR 07/05 A3029 RMK AO2,K6S2,2023-02-09T11:15:00Z,43.98,-124.12,7.0,5.0,0,5,,10.0,30.28937,,,TRUE,TRUE,,,,,,,CLR,,,,,,,,VFR,,,,,,,,,,,,METAR,16.0
K6S2 091055Z AUTO VRB04KT 10SM CLR 07/05 A3030 RMK AO2,K6S2,2023-02-09T10:55:00Z,43.98,-124.12,7.0,5.0,0,4,,10.0,30.301182,,,TRUE,TRUE,,,,,,,CLR,,,,,,,,VFR,,,,,,,,,,,,METAR,16.0
K6S2 091035Z AUTO VRB04G11KT 10SM CLR 07/05 A3031 RMK AO2,K6S2,2023-02-09T10:35:00Z,43.98,-124.12,7.0,5.0,0,4,11,10.0,30.31004,,,TRUE,TRUE,,,,,,,CLR,,,,,,,,VFR,,,,,,,,,,,,METAR,16.0
K6S2 091015Z AUTO VRB05KT 10SM CLR 07/06 A3031 RMK AO2,K6S2,2023-02-09T10:15:00Z,43.98,-124.12,7.0,6.0,0,5,,10.0,30.31004,,,TRUE,TRUE,,,,,,,CLR,,,,,,,,VFR,,,,,,,,,,,,SPECI,16.0
K6S2 090955Z AUTO VRB05G11KT 10SM CLR 07/06 A3032 RMK AO2,K6S2,2023-02-09T09:55:00Z,43.98,-124.12,7.0,6.0,0,5,11,10.0,30.318897,,,TRUE,TRUE,,,,,,,CLR,,,,,,,,VFR,,,,,,,,,,,,METAR,16.0
K6S2 090935Z AUTO VRB05G11KT 10SM CLR 07/06 A3032 RMK AO2,K6S2,2023-02-09T09:35:00Z,43.98,-124.12,7.0,6.0,0,5,11,10.0,30.318897,,,TRUE,TRUE,,,,,,,CLR,,,,,,,,VFR,,,,,,,,,,,,SPECI,16.0
K6S2 090915Z AUTO VRB04G10KT 10SM CLR 07/06 A3034 RMK AO2,K6S2,2023-02-09T09:15:00Z,43.98,-124.12,7.0,6.0,0,4,10,10.0,30.339567,,,TRUE,TRUE,,,,,,,CLR,,,,,,,,VFR,,,,,,,,,,,,METAR,16.0
K6S2 090855Z AUTO VRB05G10KT 10SM CLR 07/06 A3034 RMK AO2,K6S2,2023-02-09T08:55:00Z,43.98,-124.12,7.0,6.0,0,5,10,10.0,30.339567,,,TRUE,TRUE,,,,,,,CLR,,,,,,,,VFR,,,,,,,,,,,,SPECI,16.0
K6S2 090835Z AUTO VRB05G10KT 10SM CLR 07/06 A3034 RMK AO2,K6S2,2023-02-09T08:35:00Z,43.98,-124.12,7.0,6.0,0,5,10,10.0,30.339567,,,TRUE,TRUE,,,,,,,CLR,,,,,,,,VFR,,,,,,,,,,,,SPECI,16.0
K6S2 090815Z AUTO VRB05G11KT 10SM CLR 07/06 A3035 RMK AO2,K6S2,2023-02-09T08:15:00Z,43.98,-124.12,7.0,6.0,0,5,11,10.0,30.351377,,,TRUE,TRUE,,,,,,,CLR,,,,,,,,VFR,,,,,,,,,,,,SPECI,16.0
K6S2 090755Z AUTO VRB04G13KT 10SM CLR 08/06 A3036 RMK AO2,K6S2,2023-02-09T07:55:00Z,43.98,-124.12,8.0,6.0,0,4,13,10.0,30.360237,,,TRUE,TRUE,,,,,,,CLR,,,,,,,,VFR,,,,,,,,,,,,METAR,16.0
K6S2 090735Z AUTO VRB05G11KT 10SM CLR 08/06 A3037 RMK AO2,K6S2,2023-02-09T07:35:00Z,43.98,-124.12,8.0,6.0,0,5,11,10.0,30.369095,,,TRUE,TRUE,,,,,,,CLR,,,,,,,,VFR,,,,,,,,,,,,SPECI,16.0
K6S2 090715Z AUTO VRB06G13KT 10SM CLR 08/06 A3037 RMK AO2,K6S2,2023-02-09T07:15:00Z,43.98,-124.12,8.0,6.0,0,6,13,10.0,30.369095,,,TRUE,TRUE,,,,,,,CLR,,,,,,,,VFR,,,,,,,,,,,,METAR,16.0
K6S2 090655Z AUTO VRB03KT 10SM FEW120 08/06 A3037 RMK AO2,K6S2,2023-02-09T06:55:00Z,43.98,-124.12,8.0,6.0,0,3,,10.0,30.369095,,,TRUE,TRUE,,,,,,,FEW,12000,,,,,,,VFR,,,,,,,,,,,,METAR,16.0
K6S2 090635Z AUTO VRB04G10KT 10SM FEW090 SCT120 08/06 A3037 RMK AO2,K6S2,2023-02-09T06:35:00Z,43.98,-124.12,8.0,6.0,0,4,10,10.0,30.369095,,,TRUE,TRUE,,,,,,,FEW,9000,SCT,12000,,,,,VFR,,,,,,,,,,,,METAR,16.0
K6S2 090615Z AUTO VRB05KT 10SM FEW090 OVC120 08/06 A3038 RMK AO2,K6S2,2023-02-09T06:15:00Z,43.98,-124.12,8.0,6.0,0,5,,10.0,30.380905,,,TRUE,TRUE,,,,,,,FEW,9000,OVC,12000,,,,,VFR,,,,,,,,,,,,METAR,16.0
K6S2 090555Z AUTO VRB05G11KT 10SM OVC120 08/06 A3038 RMK AO2,K6S2,2023-02-09T05:55:00Z,43.98,-124.12,8.0,6.0,0,5,11,10.0,30.380905,,,TRUE,TRUE,,,,,,,OVC,12000,,,,,,,VFR,,,,,,,,,,,,METAR,16.0
K6S2 090535Z AUTO VRB04G10KT 10SM FEW100 OVC120 08/07 A3038 RMK AO2,K6S2,2023-02-09T05:35:00Z,43.98,-124.12,8.0,7.0,0,4,10,10.0,30.380905,,,TRUE,TRUE,,,,,,,FEW,10000,OVC,12000,,,,,VFR,,,,,,,,,,,,METAR,16.0
K6S2 090515Z AUTO VRB05KT 10SM SCT100 OVC120 09/07 A3039 RMK AO2,K6S2,2023-02-09T05:15:00Z,43.98,-124.12,9.0,7.0,0,5,,10.0,30.389763,,,TRUE,TRUE,,,,,,,SCT,10000,OVC,12000,,,,,VFR,,,,,,,,,,,,METAR,16.0
K6S2 090455Z AUTO VRB04KT 10SM OVC120 09/07 A3039 RMK AO2,K6S2,2023-02-09T04:55:00Z,43.98,-124.12,9.0,7.0,0,4,,10.0,30.389763,,,TRUE,TRUE,,,,,,,OVC,12000,,,,,,,VFR,,,,,,,,,,,,METAR,16.0
K6S2 090435Z AUTO VRB04KT 10SM OVC120 08/07 A3040 RMK AO2,K6S2,2023-02-09T04:35:00Z,43.98,-124.12,8.0,7.0,0,4,,10.0,30.398623,,,TRUE,TRUE,,,,,,,OVC,12000,,,,,,,VFR,,,,,,,,,,,,METAR,16.0
K6S2 090415Z AUTO VRB04KT 10SM OVC110 08/07 A3040 RMK AO2,K6S2,2023-02-09T04:15:00Z,43.98,-124.12,8.0,7.0,0,4,,10.0,30.398623,,,TRUE,TRUE,,,,,,,OVC,11000,,,,,,,VFR,,,,,,,,,,,,SPECI,16.0
K6S2 090355Z AUTO VRB03KT 10SM BKN110 08/07 A3040 RMK AO2,K6S2,2023-02-09T03:55:00Z,43.98,-124.12,8.0,7.0,0,3,,10.0,30.398623,,,TRUE,TRUE,,,,,,,BKN,11000,,,,,,,VFR,,,,,,,,,,,,METAR,16.0
K6S2 090335Z AUTO VRB04KT 10SM SCT110 09/07 A3040 RMK AO2,K6S2,2023-02-09T03:35:00Z,43.98,-124.12,9.0,7.0,0,4,,10.0,30.398623,,,TRUE,TRUE,,,,,,,SCT,11000,,,,,,,VFR,,,,,,,,,,,,SPECI,16.0
K6S2 090315Z AUTO VRB03KT 10SM FEW075 OVC110 09/07 A3041 RMK AO2,K6S2,2023-02-09T03:15:00Z,43.98,-124.12,9.0,7.0,0,3,,10.0,30.410433,,,TRUE,TRUE,,,,,,,FEW,7500,OVC,11000,,,,,VFR,,,,,,,,,,,,METAR,16.0
K6S2 090255Z AUTO VRB04KT 10SM BKN075 OVC110 09/08 A3041 RMK AO2,K6S2,2023-02-09T02:55:00Z,43.98,-124.12,9.0,8.0,0,4,,10.0,30.410433,,,TRUE,TRUE,,,,,,,BKN,7500,OVC,11000,,,,,VFR,,,,,,,,,,,,METAR,16.0
K6S2 090235Z AUTO VRB05KT 10SM FEW095 BKN110 09/08 A3041 RMK AO2,K6S2,2023-02-09T02:35:00Z,43.98,-124.12,9.0,8.0,0,5,,10.0,30.410433,,,TRUE,TRUE,,,,,,,FEW,9500,BKN,11000,,,,,VFR,,,,,,,,,,,,METAR,16.0
K6S2 090215Z AUTO 00000KT 10SM FEW095 BKN120 09/08 A3041 RMK AO2,K6S2,2023-02-09T02:15:00Z,43.98,-124.12,9.0,8.0,0,0,,10.0,30.410433,,,TRUE,TRUE,,,,,,,FEW,9500,BKN,12000,,,,,VFR,,,,,,,,,,,,SPECI,16.0
K6S2 090155Z AUTO 00000KT 10SM FEW120 10/08 A3041 RMK AO2,K6S2,2023-02-09T01:55:00Z,43.98,-124.12,10.0,8.0,0,0,,10.0,30.410433,,,TRUE,TRUE,,,,,,,FEW,12000,,,,,,,VFR,,,,,,,,,,,,METAR,16.0
K6S2 090135Z AUTO 00000KT 10SM CLR 10/08 A3041 RMK AO2,K6S2,2023-02-09T01:35:00Z,43.98,-124.12,10.0,8.0,0,0,,10.0,30.410433,,,TRUE,TRUE,,,,,,,CLR,,,,,,,,VFR,,,,,,,,,,,,METAR,16.0
K6S2 090115Z AUTO 00000KT 10SM CLR 11/08 A3041 RMK AO2,K6S2,2023-02-09T01:15:00Z,43.98,-124.12,11.0,8.0,0,0,,10.0,30.410433,,,TRUE,TRUE,,,,,,,CLR,,,,,,,,VFR,,,,,,,,,,,,SPECI,16.0
K6S2 090055Z AUTO 00000KT 10SM CLR 11/08 A3042 RMK AO2,K6S2,2023-02-09T00:55:00Z,43.98,-124.12,11.0,8.0,0,0,,10.0,30.41929,,,TRUE,TRUE,,,,,,,CLR,,,,,,,,VFR,,,,,,,,,,,,METAR,16.0
K6S2 090035Z AUTO 00000KT 10SM CLR 12/08 A3042 RMK AO2,K6S2,2023-02-09T00:35:00Z,43.98,-124.12,12.0,8.0,0,0,,10.0,30.41929,,,TRUE,TRUE,,,,,,,CLR,,,,,,,,VFR,,,,,,,,,,,,METAR,16.0
K6S2 090015Z AUTO 00000KT 10SM CLR 12/07 A3043 RMK AO2,K6S2,2023-02-09T00:15:00Z,43.98,-124.12,12.0,7.0,0,0,,10.0,30.431103,,,TRUE,TRUE,,,,,,,CLR,,,,,,,,VFR,,,,,,,,,,,,METAR,16.0
K6S2 082355Z AUTO VRB04G10KT 10SM CLR 12/07 A3042 RMK AO2,K6S2,2023-02-08T23:55:00Z,43.98,-124.12,12.0,7.0,0,4,10,10.0,30.41929,,,TRUE,TRUE,,,,,,,CLR,,,,,,,,VFR,,,,,,,,,,,,METAR,16.0
K6S2 082335Z AUTO VRB05KT 10SM FEW070 12/07 A3043 RMK AO2,K6S2,2023-02-08T23:35:00Z,43.98,-124.12,12.0,7.0,0,5,,10.0,30.431103,,,TRUE,TRUE,,,,,,,FEW,7000,,,,,,,VFR,,,,,,,,,,,,METAR,16.0
K6S2 082315Z AUTO VRB04KT 10SM BKN070 12/06 A3044 RMK AO2,K6S2,2023-02-08T23:15:00Z,43.98,-124.12,12.0,6.0,0,4,,10.0,30.43996,,,TRUE,TRUE,,,,,,,BKN,7000,,,,,,,VFR,,,,,,,,,,,,METAR,16.0
K6S2 082255Z AUTO 00000KT 10SM OVC070 12/06 A3045 RMK AO2,K6S2,2023-02-08T22:55:00Z,43.98,-124.12,12.0,6.0,0,0,,10.0,30.448818,,,TRUE,TRUE,,,,,,,OVC,7000,,,,,,,VFR,,,,,,,,,,,,METAR,16.0
K6S2 082235Z AUTO 00000KT 10SM OVC070 11/06 A3045 RMK AO2,K6S2,2023-02-08T22:35:00Z,43.98,-124.12,11.0,6.0,0,0,,10.0,30.448818,,,TRUE,TRUE,,,,,,,OVC,7000,,,,,,,VFR,,,,,,,,,,,,METAR,16.0
K6S2 082215Z AUTO VRB03KT 10SM OVC070 12/07 A3045 RMK AO2,K6S2,2023-02-08T22:15:00Z,43.98,-124.12,12.0,7.0,0,3,,10.0,30.448818,,,TRUE,TRUE,,,,,,,OVC,7000,,,,,,,VFR,,,,,,,,,,,,SPECI,16.0
K6S2 082155Z AUTO VRB05KT 10SM OVC075 11/07 A3046 RMK AO2,K6S2,2023-02-08T21:55:00Z,43.98,-124.12,11.0,7.0,0,5,,10.0,30.46063,,,TRUE,TRUE,,,,,,,OVC,7500,,,,,,,VFR,,,,,,,,,,,,SPECI,16.0
K6S2 082135Z AUTO 00000KT 10SM BKN080 OVC090 12/07 A3046 RMK AO2,K6S2,2023-02-08T21:35:00Z,43.98,-124.12,12.0,7.0,0,0,,10.0,30.46063,,,TRUE,TRUE,,,,,,,BKN,8000,OVC,9000,,,,,VFR,,,,,,,,,,,,METAR,16.0
K6S2 082115Z AUTO VRB05KT 10SM OVC080 11/07 A3047 RMK AO2,K6S2,2023-02-08T21:15:00Z,43.98,-124.12,11.0,7.0,0,5,,10.0,30.469488,,,TRUE,TRUE,,,,,,,OVC,8000,,,,,,,VFR,,,,,,,,,,,,METAR,16.0
K6S2 082055Z AUTO VRB04KT 10SM OVC080 11/07 A3048 RMK AO2,K6S2,2023-02-08T20:55:00Z,43.98,-124.12,11.0,7.0,0,4,,10.0,30.481298,,,TRUE,TRUE,,,,,,,OVC,8000,,,,,,,VFR,,,,,,,,,,,,METAR,16.0
K6S2 082035Z AUTO VRB06KT 10SM OVC085 10/07 A3049 RMK AO2,K6S2,2023-02-08T20:35:00Z,43.98,-124.12,10.0,7.0,0,6,,10.0,30.490158,,,TRUE,TRUE,,,,,,,OVC,8500,,,,,,,VFR,,,,,,,,,,,,METAR,16.0
K6S2 082015Z AUTO 10005KT 10SM OVC085 10/08 A3050 RMK AO2,K6S2,2023-02-08T20:15:00Z,43.98,-124.12,10.0,8.0,100,5,,10.0,30.499016,,,TRUE,TRUE,,,,,,,OVC,8500,,,,,,,VFR,,,,,,,,,,,,METAR,16.0
K6S2 081955Z AUTO VRB04KT 10SM BKN090 09/08 A3050 RMK AO2,K6S2,2023-02-08T19:55:00Z,43.98,-124.12,9.0,8.0,0,4,,10.0,30.499016,,,TRUE,TRUE,,,,,,,BKN,9000,,,,,,,VFR,,,,,,,,,,,,METAR,16.0
K6S2 081935Z AUTO 00000KT 10SM SCT090 09/08 A3051 RMK AO2,K6S2,2023-02-08T19:35:00Z,43.98,-124.12,9.0,8.0,0,0,,10.0,30.510826,,,TRUE,TRUE,,,,,,,SCT,9000,,,,,,,VFR,,,,,,,,,,,,METAR,16.0
K6S2 081915Z AUTO VRB04KT 10SM BKN090 08/08 A3052 RMK AO2,K6S2,2023-02-08T19:15:00Z,43.98,-124.12,8.0,8.0,0,4,,10.0,30.519686,,,TRUE,TRUE,,,,,,,BKN,9000,,,,,,,VFR,,,,,,,,,,,,METAR,16.0
K6S2 081855Z AUTO 00000KT 10SM SCT100 BKN120 08/08 A3052 RMK AO2,K6S2,2023-02-08T18:55:00Z,43.98,-124.12,8.0,8.0,0,0,,10.0,30.519686,,,TRUE,TRUE,,,,,,,SCT,10000,BKN,12000,,,,,VFR,,,,,,,,,,,,METAR,16.0
K6S2 081835Z AUTO 00000KT 10SM OVC100 07/07 A3052 RMK AO2,K6S2,2023-02-08T18:35:00Z,43.98,-124.12,7.0,7.0,0,0,,10.0,30.519686,,,TRUE,TRUE,,,,,,,OVC,10000,,,,,,,VFR,,,,,,,,,,,,METAR,16.0
K6S2 081815Z AUTO 00000KT 10SM BKN100 06/06 A3052 RMK AO2,K6S2,2023-02-08T18:15:00Z,43.98,-124.12,6.0,6.0,0,0,,10.0,30.519686,,,TRUE,TRUE,,,,,,,BKN,10000,,,,,,,VFR,,,,,,,,,,,,METAR,16.0
K6S2 081755Z AUTO VRB03KT 10SM FEW110 06/06 A3052 RMK AO2,K6S2,2023-02-08T17:55:00Z,43.98,-124.12,6.0,6.0,0,3,,10.0,30.519686,,,TRUE,TRUE,,,,,,,FEW,11000,,,,,,,VFR,,,,,,,,,,,,SPECI,16.0
K6S2 081735Z AUTO 00000KT 10SM SCT110 05/05 A3051 RMK AO2,K6S2,2023-02-08T17:35:00Z,43.98,-124.12,5.0,5.0,0,0,,10.0,30.510826,,,TRUE,TRUE,,,,,,,SCT,11000,,,,,,,VFR,,,,,,,,,,,,METAR,16.0
K6S2 081715Z AUTO VRB04KT 10SM FEW110 05/05 A3052 RMK AO2,K6S2,2023-02-08T17:15:00Z,43.98,-124.12,5.0,5.0,0,4,,10.0,30.519686,,,TRUE,TRUE,,,,,,,FEW,11000,,,,,,,VFR,,,,,,,,,,,,SPECI,16.0
K6S2 081655Z AUTO 00000KT 10SM FEW120 05/05 A3051 RMK AO2,K6S2,2023-02-08T16:55:00Z,43.98,-124.12,5.0,5.0,0,0,,10.0,30.510826,,,TRUE,TRUE,,,,,,,FEW,12000,,,,,,,VFR,,,,,,,,,,,,METAR,16.0
K6S2 081635Z AUTO 00000KT 10SM CLR 04/04 A3051 RMK AO2,K6S2,2023-02-08T16:35:00Z,43.98,-124.12,4.0,4.0,0,0,,10.0,30.510826,,,TRUE,TRUE,,,,,,,CLR,,,,,,,,VFR,,,,,,,,,,,,METAR,16.0
K6S2 081615Z AUTO 00000KT 10SM CLR 03/03 A3051 RMK AO2,K6S2,2023-02-08T16:15:00Z,43.98,-124.12,3.0,3.0,0,0,,10.0,30.510826,,,TRUE,TRUE,,,,,,,CLR,,,,,,,,VFR,,,,,,,,,,,,SPECI,16.0
K6S2 081555Z AUTO 00000KT 10SM CLR 03/03 A3050 RMK AO2,K6S2,2023-02-08T15:55:00Z,43.98,-124.12,3.0,3.0,0,0,,10.0,30.499016,,,TRUE,TRUE,,,,,,,CLR,,,,,,,,VFR,,,,,,,,,,,,METAR,16.0
K6S2 081535Z AUTO 00000KT 10SM CLR 03/03 A3050 RMK AO2,K6S2,2023-02-08T15:35:00Z,43.98,-124.12,3.0,3.0,0,0,,10.0,30.499016,,,TRUE,TRUE,,,,,,,CLR,,,,,,,,VFR,,,,,,,,,,,,METAR,16.0
K6S2 081515Z AUTO 00000KT 10SM CLR 04/04 A3049 RMK AO2,K6S2,2023-02-08T15:15:00Z,43.98,-124.12,4.0,4.0,0,0,,10.0,30.490158,,,TRUE,TRUE,,,,,,,CLR,,,,,,,,VFR,,,,,,,,,,,,SPECI,16.0
K6S2 081455Z AUTO 00000KT 10SM SCT002 03/03 A3049 RMK AO2,K6S2,2023-02-08T14:55:00Z,43.98,-124.12,3.0,3.0,0,0,,10.0,30.490158,,,TRUE,TRUE,,,,,,,SCT,200,,,,,,,VFR,,,,,,,,,,,,METAR,16.0
K6S2 081435Z AUTO 00000KT 10SM SCT002 SCT012 03/03 A3049 RMK AO2,K6S2,2023-02-08T14:35:00Z,43.98,-124.12,3.0,3.0,0,0,,10.0,30.490158,,,TRUE,TRUE,,,,,,,SCT,200,SCT,1200,,,,,VFR,,,,,,,,,,,,SPECI,16.0
K6S2 081415Z AUTO 00000KT 10SM FEW002 03/03 A3049 RMK AO2,K6S2,2023-02-08T14:15:00Z,43.98,-124.12,3.0,3.0,0,0,,10.0,30.490158,,,TRUE,TRUE,,,,,,,FEW,200,,,,,,,VFR,,,,,,,,,,,,SPECI,16.0
K6S2 081355Z AUTO 00000KT 10SM FEW002 03/03 A3049 RMK AO2,K6S2,2023-02-08T13:55:00Z,43.98,-124.12,3.0,3.0,0,0,,10.0,30.490158,,,TRUE,TRUE,,,,,,,FEW,200,,,,,,,VFR,,,,,,,,,,,,METAR,16.0
K6S2 081335Z AUTO 00000KT 10SM OVC002 04/04 A3049 RMK AO2,K6S2,2023-02-08T13:35:00Z,43.98,-124.12,4.0,4.0,0,0,,10.0,30.490158,,,TRUE,TRUE,,,,,,,OVC,200,,,,,,,LIFR,,,,,,,,,,,,METAR,16.0
K6S2 081315Z AUTO 00000KT 1 3/4SM BR OVC002 04/04 A3050 RMK AO2,K6S2,2023-02-08T13:15:00Z,43.98,-124.12,4.0,4.0,0,0,,1.75,30.499016,,,TRUE,TRUE,,,,,,BR,OVC,200,,,,,,,LIFR,,,,,,,,,,,,SPECI,16.0
K6S2 081255Z AUTO VRB04KT 3SM BR OVC002 04/04 A3050 RMK AO2,K6S2,2023-02-08T12:55:00Z,43.98,-124.12,4.0,4.0,0,4,,3.0,30.499016,,,TRUE,TRUE,,,,,,BR,OVC,200,,,,,,,LIFR,,,,,,,,,,,,METAR,16.0
K6S2 081235Z AUTO VRB03KT 3SM BR BKN002 04/04 A3050 RMK AO2,K6S2,2023-02-08T12:35:00Z,43.98,-124.12,4.0,4.0,0,3,,3.0,30.499016,,,TRUE,TRUE,,,,,,BR,BKN,200,,,,,,,LIFR,,,,,,,,,,,,SPECI,16.0
K6S2 081215Z AUTO VRB03KT 10SM BKN002 04/04 A3050 RMK AO2,K6S2,2023-02-08T12:15:00Z,43.98,-124.12,4.0,4.0,0,3,,10.0,30.499016,,,TRUE,TRUE,,,,,,,BKN,200,,,,,,,LIFR,,,,,,,,,,,,SPECI,16.0
K6S2 081155Z AUTO 10004KT 1 1/2SM BR OVC001 05/05 A3050 RMK AO2,K6S2,2023-02-08T11:55:00Z,43.98,-124.12,5.0,5.0,100,4,,1.5,30.499016,,,TRUE,TRUE,,,,,,BR,OVC,100,,,,,,,LIFR,,,,,,,,,,,,METAR,16.0
K6S2 081135Z AUTO VRB04KT 1SM BR OVC002 05/05 A3050 RMK AO2,K6S2,2023-02-08T11:35:00Z,43.98,-124.12,5.0,5.0,0,4,,1.0,30.499016,,,TRUE,TRUE,,,,,,BR,OVC,200,,,,,,,LIFR,,,,,,,,,,,,SPECI,16.0
K6S2 081115Z AUTO VRB04KT 3/4SM BR OVC002 05/05 A3049 RMK AO2,K6S2,2023-02-08T11:15:00Z,43.98,-124.12,5.0,5.0,0,4,,0.75,30.490158,,,TRUE,TRUE,,,,,,BR,OVC,200,,,,,,,LIFR,,,,,,,,,,,,METAR,16.0
K6S2 081055Z AUTO 00000KT 3/4SM BR OVC002 05/05 A3049 RMK AO2,K6S2,2023-02-08T10:55:00Z,43.98,-124.12,5.0,5.0,0,0,,0.75,30.490158,,,TRUE,TRUE,,,,,,BR,OVC,200,,,,,,,LIFR,,,,,,,,,,,,METAR,16.0
K6S2 081035Z AUTO 00000KT 1/2SM FG OVC002 05/05 A3049 RMK AO2,K6S2,2023-02-08T10:35:00Z,43.98,-124.12,5.0,5.0,0,0,,0.5,30.490158,,,TRUE,TRUE,,,,,,FG,OVC,200,,,,,,,LIFR,,,,,,,,,,,,METAR,16.0
K6S2 081015Z AUTO VRB04KT 1/2SM FG OVC002 05/05 A3049 RMK AO2,K6S2,2023-02-08T10:15:00Z,43.98,-124.12,5.0,5.0,0,4,,0.5,30.490158,,,TRUE,TRUE,,,,,,FG,OVC,200,,,,,,,LIFR,,,,,,,,,,,,METAR,16.0
K6S2 080955Z AUTO VRB03KT 1/2SM FG OVC002 05/05 A3049 RMK AO2,K6S2,2023-02-08T09:55:00Z,43.98,-124.12,5.0,5.0,0,3,,0.5,30.490158,,,TRUE,TRUE,,,,,,FG,OVC,200,,,,,,,LIFR,,,,,,,,,,,,METAR,16.0
K6S2 080935Z AUTO 00000KT 1/4SM FG OVC002 05/05 A3049 RMK AO2,K6S2,2023-02-08T09:35:00Z,43.98,-124.12,5.0,5.0,0,0,,0.25,30.490158,,,TRUE,TRUE,,,,,,FG,OVC,200,,,,,,,LIFR,,,,,,,,,,,,SPECI,16.0
K6S2 080915Z AUTO 00000KT 1/2SM BR OVC001 05/05 A3049 RMK AO2,K6S2,2023-02-08T09:15:00Z,43.98,-124.12,5.0,5.0,0,0,,0.5,30.490158,,,TRUE,TRUE,,,,,,BR,OVC,100,,,,,,,LIFR,,,,,,,,,,,,SPECI,16.0
K6S2 080855Z AUTO 00000KT 1/2SM BR OVC001 05/05 A3049 RMK AO2,K6S2,2023-02-08T08:55:00Z,43.98,-124.12,5.0,5.0,0,0,,0.5,30.490158,,,TRUE,TRUE,,,,,,BR,OVC,100,,,,,,,LIFR,,,,,,,,,,,,METAR,16.0
K6S2 080835Z AUTO 00000KT 3/4SM BR BKN001 OVC030 05/05 A3049 RMK AO2,K6S2,2023-02-08T08:35:00Z,43.98,-124.12,5.0,5.0,0,0,,0.75,30.490158,,,TRUE,TRUE,,,,,,BR,BKN,100,OVC,3000,,,,,LIFR,,,,,,,,,,,,SPECI,16.0
K6S2 080815Z AUTO 00000KT 1SM BR SCT001 OVC028 05/05 A3049 RMK AO2,K6S2,2023-02-08T08:15:00Z,43.98,-124.12,5.0,5.0,0,0,,1.0,30.490158,,,TRUE,TRUE,,,,,,BR,SCT,100,OVC,2800,,,,,IFR,,,,,,,,,,,,METAR,16.0
K6S2 080755Z AUTO 00000KT 3/4SM BR BKN001 OVC028 04/04 A3048 RMK AO2,K6S2,2023-02-08T07:55:00Z,43.98,-124.12,4.0,4.0,0,0,,0.75,30.481298,,,TRUE,TRUE,,,,,,BR,BKN,100,OVC,2800,,,,,LIFR,,,,,,,,,,,,METAR,16.0
K6S2 080735Z AUTO 00000KT 1/2SM FG OVC001 04/04 A3047 RMK AO2,K6S2,2023-02-08T07:35:00Z,43.98,-124.12,4.0,4.0,0,0,,0.5,30.469488,,,TRUE,TRUE,,,,,,FG,OVC,100,,,,,,,LIFR,,,,,,,,,,,,METAR,16.0
K6S2 080715Z AUTO 00000KT 1/2SM FG BKN001 OVC027 04/04 A3046 RMK AO2,K6S2,2023-02-08T07:15:00Z,43.98,-124.12,4.0,4.0,0,0,,0.5,30.46063,,,TRUE,TRUE,,,,,,FG,BKN,100,OVC,2700,,,,,LIFR,,,,,,,,,,,,METAR,16.0
K6S2 080655Z AUTO 00000KT 1/2SM BR SCT001 OVC026 04/04 A3047 RMK AO2,K6S2,2023-02-08T06:55:00Z,43.98,-124.12,4.0,4.0,0,0,,0.5,30.469488,,,TRUE,TRUE,,,,,,BR,SCT,100,OVC,2600,,,,,LIFR,,,,,,,,,,,,METAR,16.0
K6S2 080635Z AUTO 00000KT 2SM BR OVC025 04/04 A3047 RMK AO2 VIS 1V3,K6S2,2023-02-08T06:35:00Z,43.98,-124.12,4.0,4.0,0,0,,2.0,30.469488,,,TRUE,TRUE,,,,,,BR,OVC,2500,,,,,,,IFR,,,,,,,,,,,,METAR,16.0
K6S2 080615Z AUTO 00000KT 1SM BR SCT003 OVC025 04/04 A3047 RMK AO2 VIS 1/2V2,K6S2,2023-02-08T06:15:00Z,43.98,-124.12,4.0,4.0,0,0,,1.0,30.469488,,,TRUE,TRUE,,,,,,BR,SCT,300,OVC,2500,,,,,IFR,,,,,,,,,,,,SPECI,16.0
K6S2 080555Z AUTO 00000KT 3/4SM BR BKN003 OVC025 04/04 A3046 RMK AO2,K6S2,2023-02-08T05:55:00Z,43.98,-124.12,4.0,4.0,0,0,,0.75,30.46063,,,TRUE,TRUE,,,,,,BR,BKN,300,OVC,2500,,,,,LIFR,,,,,,,,,,,,METAR,16.0
K6S2 080535Z AUTO 00000KT 3/4SM BR OVC025 05/05 A3045 RMK AO2,K6S2,2023-02-08T05:35:00Z,43.98,-124.12,5.0,5.0,0,0,,0.75,30.448818,,,TRUE,TRUE,,,,,,BR,OVC,2500,,,,,,,LIFR,,,,,,,,,,,,SPECI,16.0
K6S2 080515Z AUTO 00000KT 1 1/4SM BR OVC022 05/05 A3045 RMK AO2,K6S2,2023-02-08T05:15:00Z,43.98,-124.12,5.0,5.0,0,0,,1.25,30.448818,,,TRUE,TRUE,,,,,,BR,OVC,2200,,,,,,,IFR,,,,,,,,,,,,METAR,16.0
K6S2 080455Z AUTO 00000KT 3SM BR OVC021 06/06 A3044 RMK AO2,K6S2,2023-02-08T04:55:00Z,43.98,-124.12,6.0,6.0,0,0,,3.0,30.43996,,,TRUE,TRUE,,,,,,BR,OVC,2100,,,,,,,MVFR,,,,,,,,,,,,METAR,16.0
K6S2 080435Z AUTO 00000KT 1 3/4SM BR SCT002 BKN019 OVC025 05/05 A3044 RMK AO2,K6S2,2023-02-08T04:35:00Z,43.98,-124.12,5.0,5.0,0,0,,1.75,30.43996,,,TRUE,TRUE,,,,,,BR,SCT,200,BKN,1900,OVC,2500,,,IFR,,,,,,,,,,,,METAR,16.0
K6S2 080415Z AUTO 00000KT 2 1/2SM BR FEW002 BKN025 BKN032 06/06 A3043 RMK AO2,K6S2,2023-02-08T04:15:00Z,43.98,-124.12,6.0,6.0,0,0,,2.5,30.431103,,,TRUE,TRUE,,,,,,BR,FEW,200,BKN,2500,BKN,3200,,,IFR,,,,,,,,,,,,METAR,16.0
K6S2 080355Z AUTO 00000KT 6SM BR CLR 07/07 A3044 RMK AO2,K6S2,2023-02-08T03:55:00Z,43.98,-124.12,7.0,7.0,0,0,,6.0,30.43996,,,TRUE,TRUE,,,,,,BR,CLR,,,,,,,,VFR,,,,,,,,,,,,METAR,16.0
K6S2 080335Z AUTO 00000KT 5SM BR CLR 07/07 A3043 RMK AO2,K6S2,2023-02-08T03:35:00Z,43.98,-124.12,7.0,7.0,0,0,,5.0,30.431103,,,TRUE,TRUE,,,,,,BR,CLR,,,,,,,,MVFR,,,,,,,,,,,,SPECI,16.0
K6S2 080315Z AUTO 00000KT 5SM BR FEW017 08/08 A3042 RMK AO2,K6S2,2023-02-08T03:15:00Z,43.98,-124.12,8.0,8.0,0,0,,5.0,30.41929,,,TRUE,TRUE,,,,,,BR,FEW,1700,,,,,,,MVFR,,,,,,,,,,,,SPECI,16.0
K6S2 080255Z AUTO 00000KT 5SM BR FEW003 SCT016 SCT050 08/08 A3042 RMK AO2,K6S2,2023-02-08T02:55:00Z,43.98,-124.12,8.0,8.0,0,0,,5.0,30.41929,,,TRUE,TRUE,,,,,,BR,FEW,300,SCT,1600,SCT,5000,,,MVFR,,,,,,,,,,,,METAR,16.0
K6S2 080235Z AUTO 28003KT 5SM BR SCT018 BKN049 09/09 A3042 RMK AO2,K6S2,2023-02-08T02:35:00Z,43.98,-124.12,9.0,9.0,280,3,,5.0,30.41929,,,TRUE,TRUE,,,,,,BR,SCT,1800,BKN,4900,,,,,MVFR,,,,,,,,,,,,METAR,16.0
K6S2 080215Z AUTO 00000KT 6SM BR BKN019 09/09 A3042 RMK AO2,K6S2,2023-02-08T02:15:00Z,43.98,-124.12,9.0,9.0,0,0,,6.0,30.41929,,,TRUE,TRUE,,,,,,BR,BKN,1900,,,,,,,MVFR,,,,,,,,,,,,METAR,16.0
K6S2 080155Z AUTO 00000KT 4SM BR SCT020 SCT028 09/09 A3041 RMK AO2,K6S2,2023-02-08T01:55:00Z,43.98,-124.12,9.0,9.0,0,0,,4.0,30.410433,,,TRUE,TRUE,,,,,,BR,SCT,2000,SCT,2800,,,,,MVFR,,,,,,,,,,,,METAR,16.0
K6S2 080135Z AUTO VRB04KT 4SM BR BKN021 09/09 A3041 RMK AO2,K6S2,2023-02-08T01:35:00Z,43.98,-124.12,9.0,9.0,0,4,,4.0,30.410433,,,TRUE,TRUE,,,,,,BR,BKN,2100,,,,,,,MVFR,,,,,,,,,,,,SPECI,16.0
K6S2 080115Z AUTO 31006KT 4SM BR SCT022 BKN033 BKN043 10/10 A3040 RMK AO2,K6S2,2023-02-08T01:15:00Z,43.98,-124.12,10.0,10.0,310,6,,4.0,30.398623,,,TRUE,TRUE,,,,,,BR,SCT,2200,BKN,3300,BKN,4300,,,MVFR,,,,,,,,,,,,METAR,16.0
K6S2 080055Z AUTO 32006KT 4SM BR FEW018 SCT025 BKN032 10/10 A3040 RMK AO2,K6S2,2023-02-08T00:55:00Z,43.98,-124.12,10.0,10.0,320,6,,4.0,30.398623,,,TRUE,TRUE,,,,,,BR,FEW,1800,SCT,2500,BKN,3200,,,MVFR,,,,,,,,,,,,METAR,16.0
K6S2 080035Z AUTO 31004KT 4SM BR SCT018 BKN025 OVC065 10/10 A3039 RMK AO2,K6S2,2023-02-08T00:35:00Z,43.98,-124.12,10.0,10.0,310,4,,4.0,30.389763,,,TRUE,TRUE,,,,,,BR,SCT,1800,BKN,2500,OVC,6500,,,MVFR,,,,,,,,,,,,METAR,16.0
K6S2 080015Z AUTO 00000KT 4SM BR FEW013 BKN018 BKN028 10/10 A3039 RMK AO2,K6S2,2023-02-08T00:15:00Z,43.98,-124.12,10.0,10.0,0,0,,4.0,30.389763,,,TRUE,TRUE,,,,,,BR,FEW,1300,BKN,1800,BKN,2800,,,MVFR,,,,,,,,,,,,SPECI,16.0
K6S2 072355Z AUTO VRB04KT 5SM BR FEW010 SCT016 BKN028 10/10 A3038 RMK AO2,K6S2,2023-02-07T23:55:00Z,43.98,-124.12,10.0,10.0,0,4,,5.0,30.380905,,,TRUE,TRUE,,,,,,BR,FEW,1000,SCT,1600,BKN,2800,,,MVFR,,,,,,,,,,,,SPECI,16.0
K6S2 072335Z AUTO 26004KT 3SM -RA BR BKN011 BKN018 BKN040 10/10 A3037 RMK AO2,K6S2,2023-02-07T23:35:00Z,43.98,-124.12,10.0,10.0,260,4,,3.0,30.369095,,,TRUE,TRUE,,,,,,-RA BR,BKN,1100,BKN,1800,BKN,4000,,,MVFR,,,,,,,,,,,,SPECI,16.0
K6S2 072315Z AUTO 00000KT 5SM BR FEW006 SCT019 BKN036 10/10 A3036 RMK AO2 LTG DSNT N,K6S2,2023-02-07T23:15:00Z,43.98,-124.12,10.0,10.0,0,0,,5.0,30.360237,,,TRUE,TRUE,,,,,,BR,FEW,600,SCT,1900,BKN,3600,,,MVFR,,,,,,,,,,,,SPECI,16.0
K6S2 072255Z AUTO 00000KT 4SM UP BR BKN006 BKN010 OVC035 10/10 A3035 RMK AO2 P0018,K6S2,2023-02-07T22:55:00Z,43.98,-124.12,10.0,10.0,0,0,,4.0,30.351377,,,TRUE,TRUE,,,,,,BR UP,BKN,600,BKN,1000,OVC,3500,,,IFR,,,,,,0.18,,,,,,METAR,16.0
K6S2 072235Z AUTO VRB05KT 2 1/2SM -RA BR FEW002 SCT009 BKN012 10/10 A3035 RMK AO2 VIS 1 1/2V5,K6S2,2023-02-07T22:35:00Z,43.98,-124.12,10.0,10.0,0,5,,2.5,30.351377,,,TRUE,TRUE,,,,,,-RA BR,FEW,200,SCT,900,BKN,1200,,,IFR,,,,,,,,,,,,METAR,16.0
K6S2 072215Z AUTO 26009G14KT 230V290 1/2SM +RA BR OVC003 10/10 A3035 RMK AO2,K6S2,2023-02-07T22:15:00Z,43.98,-124.12,10.0,10.0,260,9,14,0.5,30.351377,,,TRUE,TRUE,,,,,,+RA BR,OVC,300,,,,,,,LIFR,,,,,,,,,,,,METAR,16.0
K6S2 072155Z AUTO 21011G18KT 1 1/4SM -RA BR OVC004 10/10 A3033 RMK AO2 P0010,K6S2,2023-02-07T21:55:00Z,43.98,-124.12,10.0,10.0,210,11,18,1.25,30.33071,,,TRUE,TRUE,,,,,,-RA BR,OVC,400,,,,,,,LIFR,,,,,,0.1,,,,,,METAR,16.0
K6S2 072135Z AUTO 21013G21KT 190V250 1 1/2SM -RA BR OVC004 10/10 A3033 RMK AO2,K6S2,2023-02-07T21:35:00Z,43.98,-124.12,10.0,10.0,210,13,21,1.5,30.33071,,,TRUE,TRUE,,,,,,-RA BR,OVC,400,,,,,,,LIFR,,,,,,,,,,,,METAR,16.0
K6S2 072115Z AUTO 22012G19KT 190V260 1SM -RA BR OVC004 10/10 A3033 RMK AO2,K6S2,2023-02-07T21:15:00Z,43.98,-124.12,10.0,10.0,220,12,19,1.0,30.33071,,,TRUE,TRUE,,,,,,-RA BR,OVC,400,,,,,,,LIFR,,,,,,,,,,,,METAR,16.0
K6S2 072055Z AUTO 20012G21KT 170V230 1 3/4SM UP BR OVC005 10/10 A3033 RMK AO2 P0002,K6S2,2023-02-07T20:55:00Z,43.98,-124.12,10.0,10.0,200,12,21,1.75,30.33071,,,TRUE,TRUE,,,,,,BR UP,OVC,500,,,,,,,IFR,,,,,,0.02,,,,,,METAR,16.0
K6S2 072035Z AUTO 20014G24KT 1 1/4SM UP BR OVC005 10/10 A3033 RMK AO2,K6S2,2023-02-07T20:35:00Z,43.98,-124.12,10.0,10.0,200,14,24,1.25,30.33071,,,TRUE,TRUE,,,,,,BR UP,OVC,500,,,,,,,IFR,,,,,,,,,,,,METAR,16.0
K6S2 072015Z AUTO 20014G23KT 1 1/2SM UP BR OVC007 10/10 A3033 RMK AO2,K6S2,2023-02-07T20:15:00Z,43.98,-124.12,10.0,10.0,200,14,23,1.5,30.33071,,,TRUE,TRUE,,,,,,BR UP,OVC,700,,,,,,,IFR,,,,,,,,,,,,SPECI,16.0
K6S2 071955Z AUTO 19015G23KT 1 1/4SM -RA BR SCT007 BKN011 OVC015 10/10 A3033 RMK AO2 P0003,K6S2,2023-02-07T19:55:00Z,43.98,-124.12,10.0,10.0,190,15,23,1.25,30.33071,,,TRUE,TRUE,,,,,,-RA BR,SCT,700,BKN,1100,OVC,1500,,,IFR,,,,,,0.03,,,,,,METAR,16.0
K6S2 071935Z AUTO 19013G21KT 2 1/2SM UP BR BKN013 BKN020 BKN029 10/10 A3034 RMK AO2 VIS 1 3/4V5,K6S2,2023-02-07T19:35:00Z,43.98,-124.12,10.0,10.0,190,13,21,2.5,30.339567,,,TRUE,TRUE,,,,,,BR UP,BKN,1300,BKN,2000,BKN,2900,,,IFR,,,,,,,,,,,,METAR,16.0
K6S2 071915Z AUTO 19009G19KT 6SM -RA BR BKN015 BKN020 BKN032 10/10 A3034 RMK AO2,K6S2,2023-02-07T19:15:00Z,43.98,-124.12,10.0,10.0,190,9,19,6.0,30.339567,,,TRUE,TRUE,,,,,,-RA BR,BKN,1500,BKN,2000,BKN,3200,,,MVFR,,,,,,,,,,,,SPECI,16.0
K6S2 071855Z AUTO 19011G18KT 3SM -RA BR BKN016 09/09 A3035 RMK AO2 P0005,K6S2,2023-02-07T18:55:00Z,43.98,-124.12,9.0,9.0,190,11,18,3.0,30.351377,,,TRUE,TRUE,,,,,,-RA BR,BKN,1600,,,,,,,MVFR,,,,,,0.05,,,,,,METAR,16.0
K6S2 071835Z AUTO 19010G15KT 4SM -RA BR BKN016 09/09 A3035 RMK AO2,K6S2,2023-02-07T18:35:00Z,43.98,-124.12,9.0,9.0,190,10,15,4.0,30.351377,,,TRUE,TRUE,,,,,,-RA BR,BKN,1600,,,,,,,MVFR,,,,,,,,,,,,METAR,16.0
K6S2 071815Z AUTO 18010KT 7SM -RA BKN016 09/09 A3035 RMK AO2,K6S2,2023-02-07T18:15:00Z,43.98,-124.12,9.0,9.0,180,10,,7.0,30.351377,,,TRUE,TRUE,,,,,,-RA,BKN,1600,,,,,,,MVFR,,,,,,,,,,,,METAR,16.0
K6S2 071755Z AUTO VRB06G11KT 8SM -RA OVC017 09/09 A3034 RMK AO2 P0002,K6S2,2023-02-07T17:55:00Z,43.98,-124.12,9.0,9.0,0,6,11,8.0,30.339567,,,TRUE,TRUE,,,,,,-RA,OVC,1700,,,,,,,MVFR,,,,,,0.02,,,,,,METAR,16.0
K6S2 071735Z AUTO VRB06G13KT 9SM -RA OVC017 09/09 A3034 RMK AO2,K6S2,2023-02-07T17:35:00Z,43.98,-124.12,9.0,9.0,0,6,13,9.0,30.339567,,,TRUE,TRUE,,,,,,-RA,OVC,1700,,,,,,,MVFR,,,,,,,,,,,,METAR,16.0
K6S2 071715Z AUTO 15005G11KT 7SM -RA OVC017 08/08 A3035 RMK AO2,K6S2,2023-02-07T17:15:00Z,43.98,-124.12,8.0,8.0,150,5,11,7.0,30.351377,,,TRUE,TRUE,,,,,,-RA,OVC,1700,,,,,,,MVFR,,,,,,,,,,,,SPECI,16.0
K6S2 071655Z AUTO VRB05G12KT 5SM -RA BR OVC017 08/08 A3034 RMK AO2 P0004,K6S2,2023-02-07T16:55:00Z,43.98,-124.12,8.0,8.0,0,5,12,5.0,30.339567,,,TRUE,TRUE,,,,,,-RA BR,OVC,1700,,,,,,,MVFR,,,,,,0.04,,,,,,METAR,16.0
K6S2 071635Z AUTO VRB04KT 5SM -RA BR OVC019 08/08 A3035 RMK AO2,K6S2,2023-02-07T16:35:00Z,43.98,-124.12,8.0,8.0,0,4,,5.0,30.351377,,,TRUE,TRUE,,,,,,-RA BR,OVC,1900,,,,,,,MVFR,,,,,,,,,,,,SPECI,16.0
K6S2 071615Z AUTO VRB04KT 4SM -RA BR BKN022 OVC031 08/08 A3034 RMK AO2,K6S2,2023-02-07T16:15:00Z,43.98,-124.12,8.0,8.0,0,4,,4.0,30.339567,,,TRUE,TRUE,,,,,,-RA BR,BKN,2200,OVC,3100,,,,,MVFR,,,,,,,,,,,,METAR,16.0
K6S2 071555Z AUTO VRB05G13KT 4SM -RA BR FEW019 SCT027 BKN032 09/08 A3034 RMK AO2 P0001,K6S2,2023-02-07T15:55:00Z,43.98,-124.12,9.0,8.0,0,5,13,4.0,30.339567,,,TRUE,TRUE,,,,,,-RA BR,FEW,1900,SCT,2700,BKN,3200,,,MVFR,,,,,,0.01,,,,,,METAR,16.0
K6S2 071535Z AUTO 18007G12KT 140V210 10SM -RA FEW019 OVC043 09/07 A3034 RMK AO2,K6S2,2023-02-07T15:35:00Z,43.98,-124.12,9.0,7.0,180,7,12,10.0,30.339567,,,TRUE,TRUE,,,,,,-RA,FEW,1900,OVC,4300,,,,,VFR,,,,,,,,,,,,METAR,16.0
K6S2 071515Z AUTO 16007KT 130V190 10SM OVC044 09/07 A3034 RMK AO2,K6S2,2023-02-07T15:15:00Z,43.98,-124.12,9.0,7.0,160,7,,10.0,30.339567,,,TRUE,TRUE,,,,,,,OVC,4400,,,,,,,VFR,,,,,,,,,,,,METAR,16.0
K6S2 071455Z AUTO VRB04G13KT 10SM FEW019 OVC044 09/07 A3034 RMK AO2,K6S2,2023-02-07T14:55:00Z,43.98,-124.12,9.0,7.0,0,4,13,10.0,30.339567,,,TRUE,TRUE,,,,,,,FEW,1900,OVC,4400,,,,,VFR,,,,,,,,,,,,METAR,16.0
K6S2 071435Z AUTO 16004KT 10SM SCT020 OVC045 09/07 A3034 RMK AO2,K6S2,2023-02-07T14:35:00Z,43.98,-124.12,9.0,7.0,160,4,,10.0,30.339567,,,TRUE,TRUE,,,,,,,SCT,2000,OVC,4500,,,,,VFR,,,,,,,,,,,,SPECI,16.0
K6S2 071415Z AUTO VRB03G10KT 10SM SCT021 OVC047 09/07 A3034 RMK AO2,K6S2,2023-02-07T14:15:00Z,43.98,-124.12,9.0,7.0,0,3,10,10.0,30.339567,,,TRUE,TRUE,,,,,,,SCT,2100,OVC,4700,,,,,VFR,,,,,,,,,,,,SPECI,16.0
K6S2 071355Z AUTO 16004G10KT 10SM SCT023 OVC046 09/07 A3035 RMK AO2,K6S2,2023-02-07T13:55:00Z,43.98,-124.12,9.0,7.0,160,4,10,10.0,30.351377,,,TRUE,TRUE,,,,,,,SCT,2300,OVC,4600,,,,,VFR,,,,,,,,,,,,METAR,16.0
K6S2 071335Z AUTO VRB04KT 10SM BKN023 BKN033 OVC038 09/07 A3035 RMK AO2,K6S2,2023-02-07T13:35:00Z,43.98,-124.12,9.0,7.0,0,4,,10.0,30.351377,,,TRUE,TRUE,,,,,,,BKN,2300,BKN,3300,OVC,3800,,,MVFR,,,,,,,,,,,,SPECI,16.0
K6S2 071315Z AUTO VRB06KT 10SM SCT024 BKN037 OVC043 09/07 A3036 RMK AO2,K6S2,2023-02-07T13:15:00Z,43.98,-124.12,9.0,7.0,0,6,,10.0,30.360237,,,TRUE,TRUE,,,,,,,SCT,2400,BKN,3700,OVC,4300,,,VFR,,,,,,,,,,,,METAR,16.0
K6S2 071255Z AUTO VRB04G10KT 10SM FEW026 SCT032 OVC041 09/07 A3036 RMK AO2,K6S2,2023-02-07T12:55:00Z,43.98,-124.12,9.0,7.0,0,4,10,10.0,30.360237,,,TRUE,TRUE,,,,,,,FEW,2600,SCT,3200,OVC,4100,,,VFR,,,,,,,,,,,,METAR,16.0
K6S2 071235Z AUTO 16004KT 10SM BKN033 OVC045 08/07 A3036 RMK AO2,K6S2,2023-02-07T12:35:00Z,43.98,-124.12,8.0,7.0,160,4,,10.0,30.360237,,,TRUE,TRUE,,,,,,,BKN,3300,OVC,4500,,,,,VFR,,,,,,,,,,,,METAR,16.0
K6S2 071215Z AUTO VRB04KT 10SM SCT036 OVC045 08/07 A3036 RMK AO2,K6S2,2023-02-07T12:15:00Z,43.98,-124.12,8.0,7.0,0,4,,10.0,30.360237,,,TRUE,TRUE,,,,,,,SCT,3600,OVC,4500,,,,,VFR,,,,,,,,,,,,METAR,16.0
K6S2 071155Z AUTO 00000KT 10SM BKN038 OVC046 07/07 A3036 RMK AO2,K6S2,2023-02-07T11:55:00Z,43.98,-124.12,7.0,7.0,0,0,,10.0,30.360237,,,TRUE,TRUE,,,,,,,BKN,3800,OVC,4600,,,,,VFR,,,,,,,,,,,,METAR,16.0
K6S2 071135Z AUTO 00000KT 10SM OVC040 07/07 A3037 RMK AO2,K6S2,2023-02-07T11:35:00Z,43.98,-124.12,7.0,7.0,0,0,,10.0,30.369095,,,TRUE,TRUE,,,,,,,OVC,4000,,,,,,,VFR,,,,,,,,,,,,SPECI,16.0
K6S2 071115Z AUTO 00000KT 10SM OVC041 07/07 A3037 RMK AO2,K6S2,2023-02-07T11:15:00Z,43.98,-124.12,7.0,7.0,0,0,,10.0,30.369095,,,TRUE,TRUE,,,,,,,OVC,4100,,,,,,,VFR,,,,,,,,,,,,METAR,16.0
K6S2 071055Z AUTO 00000KT 10SM FEW033 OVC043 07/07 A3038 RMK AO2,K6S2,2023-02-07T10:55:00Z,43.98,-124.12,7.0,7.0,0,0,,10.0,30.380905,,,TRUE,TRUE,,,,,,,FEW,3300,OVC,4300,,,,,VFR,,,,,,,,,,,,SPECI,16.0
K6S2 071035Z AUTO 00000KT 10SM BKN033 OVC041 07/07 A3039 RMK AO2,K6S2,2023-02-07T10:35:00Z,43.98,-124.12,7.0,7.0,0,0,,10.0,30.389763,,,TRUE,TRUE,,,,,,,BKN,3300,OVC,4100,,,,,VFR,,,,,,,,,,,,METAR,16.0
K6S2 071015Z AUTO 00000KT 10SM OVC037 07/07 A3039 RMK AO2,K6S2,2023-02-07T10:15:00Z,43.98,-124.12,7.0,7.0,0,0,,10.0,30.389763,,,TRUE,TRUE,,,,,,,OVC,3700,,,,,,,VFR,,,,,,,,,,,,SPECI,16.0
K6S2 070955Z AUTO 00000KT 10SM OVC039 07/07 A3039 RMK AO2,K6S2,2023-02-07T09:55:00Z,43.98,-124.12,7.0,7.0,0,0,,10.0,30.389763,,,TRUE,TRUE,,,,,,,OVC,3900,,,,,,,VFR,,,,,,,,,,,,METAR,16.0
K6S2 070935Z AUTO 00000KT 10SM OVC041 07/07 A3039 RMK AO2,K6S2,2023-02-07T09:35:00Z,43.98,-124.12,7.0,7.0,0,0,,10.0,30.389763,,,TRUE,TRUE,,,,,,,OVC,4100,,,,,,,VFR,,,,,,,,,,,,METAR,16.0
K6S2 070915Z AUTO 11003KT 10SM OVC043 07/07 A3039 RMK AO2,K6S2,2023-02-07T09:15:00Z,43.98,-124.12,7.0,7.0,110,3,,10.0,30.389763,,,TRUE,TRUE,,,,,,,OVC,4300,,,,,,,VFR,,,,,,,,,,,,METAR,16.0
K6S2 070855Z AUTO 00000KT 10SM BKN042 BKN048 OVC120 06/06 A3040 RMK AO2,K6S2,2023-02-07T08:55:00Z,43.98,-124.12,6.0,6.0,0,0,,10.0,30.398623,,,TRUE,TRUE,,,,,,,BKN,4200,BKN,4800,OVC,12000,,,VFR,,,,,,,,,,,,METAR,16.0
K6S2 070835Z AUTO 00000KT 10SM BKN038 BKN044 BKN120 06/06 A3041 RMK AO2,K6S2,2023-02-07T08:35:00Z,43.98,-124.12,6.0,6.0,0,0,,10.0,30.410433,,,TRUE,TRUE,,,,,,,BKN,3800,BKN,4400,BKN,12000,,,VFR,,,,,,,,,,,,METAR,16.0
K6S2 070815Z AUTO 00000KT 10SM BKN038 BKN045 06/06 A3042 RMK AO2,K6S2,2023-02-07T08:15:00Z,43.98,-124.12,6.0,6.0,0,0,,10.0,30.41929,,,TRUE,TRUE,,,,,,,BKN,3800,BKN,4500,,,,,VFR,,,,,,,,,,,,SPECI,16.0
K6S2 070755Z AUTO 00000KT 10SM BKN038 06/06 A3042 RMK AO2,K6S2,2023-02-07T07:55:00Z,43.98,-124.12,6.0,6.0,0,0,,10.0,30.41929,,,TRUE,TRUE,,,,,,,BKN,3800,,,,,,,VFR,,,,,,,,,,,,METAR,16.0
K6S2 070735Z AUTO 00000KT 10SM OVC036 06/06 A3043 RMK AO2,K6S2,2023-02-07T07:35:00Z,43.98,-124.12,6.0,6.0,0,0,,10.0,30.431103,,,TRUE,TRUE,,,,,,,OVC,3600,,,,,,,VFR,,,,,,,,,,,,METAR,16.0
K6S2 070715Z AUTO 00000KT 10SM OVC037 06/06 A3044 RMK AO2,K6S2,2023-02-07T07:15:00Z,43.98,-124.12,6.0,6.0,0,0,,10.0,30.43996,,,TRUE,TRUE,,,,,,,OVC,3700,,,,,,,VFR,,,,,,,,,,,,METAR,16.0
K6S2 070655Z AUTO 00000KT 10SM OVC036 05/05 A3043 RMK AO2,K6S2,2023-02-07T06:55:00Z,43.98,-124.12,5.0,5.0,0,0,,10.0,30.431103,,,TRUE,TRUE,,,,,,,OVC,3600,,,,,,,VFR,,,,,,,,,,,,METAR,16.0
K6S2 070635Z AUTO 00000KT 10SM BKN036 BKN050 05/05 A3043 RMK AO2,K6S2,2023-02-07T06:35:00Z,43.98,-124.12,5.0,5.0,0,0,,10.0,30.431103,,,TRUE,TRUE,,,,,,,BKN,3600,BKN,5000,,,,,VFR,,,,,,,,,,,,METAR,16.0
K6S2 070615Z AUTO 00000KT 10SM FEW036 BKN049 05/05 A3044 RMK AO2,K6S2,2023-02-07T06:15:00Z,43.98,-124.12,5.0,5.0,0,0,,10.0,30.43996,,,TRUE,TRUE,,,,,,,FEW,3600,BKN,4900,,,,,VFR,,,,,,,,,,,,SPECI,16.0
K6S2 070555Z AUTO 00000KT 10SM BKN047 05/05 A3044 RMK AO2,K6S2,2023-02-07T05:55:00Z,43.98,-124.12,5.0,5.0,0,0,,10.0,30.43996,,,TRUE,TRUE,,,,,,,BKN,4700,,,,,,,VFR,,,,,,,,,,,,METAR,16.0
K6S2 070535Z AUTO 00000KT 10SM BKN048 05/05 A3043 RMK AO2,K6S2,2023-02-07T05:35:00Z,43.98,-124.12,5.0,5.0,0,0,,10.0,30.431103,,,TRUE,TRUE,,,,,,,BKN,4800,,,,,,,VFR,,,,,,,,,,,,METAR,16.0
K6S2 070515Z AUTO 00000KT 10SM FEW013 BKN048 06/06 A3044 RMK AO2,K6S2,2023-02-07T05:15:00Z,43.98,-124.12,6.0,6.0,0,0,,10.0,30.43996,,,TRUE,TRUE,,,,,,,FEW,1300,BKN,4800,,,,,VFR,,,,,,,,,,,,METAR,16.0
K6S2 070455Z AUTO 00000KT 10SM SCT014 BKN045 06/06 A3044 RMK AO2,K6S2,2023-02-07T04:55:00Z,43.98,-124.12,6.0,6.0,0,0,,10.0,30.43996,,,TRUE,TRUE,,,,,,,SCT,1400,BKN,4500,,,,,VFR,,,,,,,,,,,,METAR,16.0
K6S2 070435Z AUTO 00000KT 10SM FEW015 BKN045 06/06 A3044 RMK AO2,K6S2,2023-02-07T04:35:00Z,43.98,-124.12,6.0,6.0,0,0,,10.0,30.43996,,,TRUE,TRUE,,,,,,,FEW,1500,BKN,4500,,,,,VFR,,,,,,,,,,,,SPECI,16.0
K6S2 070415Z AUTO 00000KT 10SM SCT046 06/06 A3044 RMK AO2,K6S2,2023-02-07T04:15:00Z,43.98,-124.12,6.0,6.0,0,0,,10.0,30.43996,,,TRUE,TRUE,,,,,,,SCT,4600,,,,,,,VFR,,,,,,,,,,,,METAR,16.0
K6S2 070355Z AUTO 00000KT 10SM CLR 06/06 A3045 RMK AO2,K6S2,2023-02-07T03:55:00Z,43.98,-124.12,6.0,6.0,0,0,,10.0,30.448818,,,TRUE,TRUE,,,,,,,CLR,,,,,,,,VFR,,,,,,,,,,,,METAR,16.0
K6S2 070335Z AUTO 00000KT 10SM CLR 07/07 A3046 RMK AO2,K6S2,2023-02-07T03:35:00Z,43.98,-124.12,7.0,7.0,0,0,,10.0,30.46063,,,TRUE,TRUE,,,,,,,CLR,,,,,,,,VFR,,,,,,,,,,,,SPECI,16.0
K6S2 070315Z AUTO 00000KT 10SM CLR 07/07 A3046 RMK AO2,K6S2,2023-02-07T03:15:00Z,43.98,-124.12,7.0,7.0,0,0,,10.0,30.46063,,,TRUE,TRUE,,,,,,,CLR,,,,,,,,VFR,,,,,,,,,,,,METAR,16.0
K6S2 070255Z AUTO 00000KT 10SM FEW041 08/08 A3046 RMK AO2,K6S2,2023-02-07T02:55:00Z,43.98,-124.12,8.0,8.0,0,0,,10.0,30.46063,,,TRUE,TRUE,,,,,,,FEW,4100,,,,,,,VFR,,,,,,,,,,,,METAR,16.0
K6S2 070235Z AUTO 00000KT 10SM BKN040 09/08 A3047 RMK AO2,K6S2,2023-02-07T02:35:00Z,43.98,-124.12,9.0,8.0,0,0,,10.0,30.469488,,,TRUE,TRUE,,,,,,,BKN,4000,,,,,,,VFR,,,,,,,,,,,,METAR,16.0
K6S2 070215Z AUTO 00000KT 10SM BKN041 OVC047 09/08 A3047 RMK AO2,K6S2,2023-02-07T02:15:00Z,43.98,-124.12,9.0,8.0,0,0,,10.0,30.469488,,,TRUE,TRUE,,,,,,,BKN,4100,OVC,4700,,,,,VFR,,,,,,,,,,,,METAR,16.0
K6S2 070155Z AUTO 00000KT 10SM BKN043 OVC050 09/08 A3047 RMK AO2,K6S2,2023-02-07T01:55:00Z,43.98,-124.12,9.0,8.0,0,0,,10.0,30.469488,,,TRUE,TRUE,,,,,,,BKN,4300,OVC,5000,,,,,VFR,,,,,,,,,,,,METAR,16.0
K6S2 070135Z AUTO 00000KT 10SM OVC040 10/08 A3048 RMK AO2,K6S2,2023-02-07T01:35:00Z,43.98,-124.12,10.0,8.0,0,0,,10.0,30.481298,,,TRUE,TRUE,,,,,,,OVC,4000,,,,,,,VFR,,,,,,,,,,,,SPECI,16.0
K6S2 070115Z AUTO 20003KT 10SM BKN038 OVC044 10/08 A3048 RMK AO2,K6S2,2023-02-07T01:15:00Z,43.98,-124.12,10.0,8.0,200,3,,10.0,30.481298,,,TRUE,TRUE,,,,,,,BKN,3800,OVC,4400,,,,,VFR,,,,,,,,,,,,METAR,16.0
K6S2 070055Z AUTO 18004KT 10SM SCT043 10/08 A3049 RMK AO2,K6S2,2023-02-07T00:55:00Z,43.98,-124.12,10.0,8.0,180,4,,10.0,30.490158,,,TRUE,TRUE,,,,,,,SCT,4300,,,,,,,VFR,,,,,,,,,,,,METAR,16.0
K6S2 070035Z AUTO 16006KT 10SM SCT042 10/08 A3049 RMK AO2,K6S2,2023-02-07T00:35:00Z,43.98,-124.12,10.0,8.0,160,6,,10.0,30.490158,,,TRUE,TRUE,,,,,,,SCT,4200,,,,,,,VFR,,,,,,,,,,,,METAR,16.0
K6S2 070015Z AUTO 00000KT 10SM OVC040 11/08 A3049 RMK AO2,K6S2,2023-02-07T00:15:00Z,43.98,-124.12,11.0,8.0,0,0,,10.0,30.490158,,,TRUE,TRUE,,,,,,,OVC,4000,,,,,,,VFR,,,,,,,,,,,,SPECI,16.0
K6S2 062355Z AUTO VRB05KT 10SM OVC038 11/07 A3050 RMK AO2,K6S2,2023-02-06T23:55:00Z,43.98,-124.12,11.0,7.0,0,5,,10.0,30.499016,,,TRUE,TRUE,,,,,,,OVC,3800,,,,,,,VFR,,,,,,,,,,,,METAR,16.0
K6S2 062335Z AUTO 20006KT 10SM OVC038 11/08 A3050 RMK AO2,K6S2,2023-02-06T23:35:00Z,43.98,-124.12,11.0,8.0,200,6,,10.0,30.499016,,,TRUE,TRUE,,,,,,,OVC,3800,,,,,,,VFR,,,,,,,,,,,,SPECI,16.0
K6S2 062315Z AUTO 17006KT 10SM SCT034 BKN040 OVC048 11/08 A3050 RMK AO2,K6S2,2023-02-06T23:15:00Z,43.98,-124.12,11.0,8.0,170,6,,10.0,30.499016,,,TRUE,TRUE,,,,,,,SCT,3400,BKN,4000,OVC,4800,,,VFR,,,,,,,,,,,,SPECI,16.0
K6S2 062255Z AUTO 20007KT 10SM BKN035 BKN049 11/08 A3051 RMK AO2,K6S2,2023-02-06T22:55:00Z,43.98,-124.12,11.0,8.0,200,7,,10.0,30.510826,,,TRUE,TRUE,,,,,,,BKN,3500,BKN,4900,,,,,VFR,,,,,,,,,,,,METAR,16.0
K6S2 062235Z AUTO 19007G12KT 160V230 10SM BKN034 OVC047 11/08 A3050 RMK AO2,K6S2,2023-02-06T22:35:00Z,43.98,-124.12,11.0,8.0,190,7,12,10.0,30.499016,,,TRUE,TRUE,,,,,,,BKN,3400,OVC,4700,,,,,VFR,,,,,,,,,,,,METAR,16.0
K6S2 062215Z AUTO 17008G14KT 140V210 10SM OVC047 11/08 A3050 RMK AO2,K6S2,2023-02-06T22:15:00Z,43.98,-124.12,11.0,8.0,170,8,14,10.0,30.499016,,,TRUE,TRUE,,,,,,,OVC,4700,,,,,,,VFR,,,,,,,,,,,,METAR,16.0
K6S2 062155Z AUTO 21007G13KT 10SM FEW032 OVC047 11/08 A3052 RMK AO2,K6S2,2023-02-06T21:55:00Z,43.98,-124.12,11.0,8.0,210,7,13,10.0,30.519686,,,TRUE,TRUE,,,,,,,FEW,3200,OVC,4700,,,,,VFR,,,,,,,,,,,,METAR,16.0
K6S2 062135Z AUTO 21008KT 10SM FEW032 OVC046 11/08 A3052 RMK AO2,K6S2,2023-02-06T21:35:00Z,43.98,-124.12,11.0,8.0,210,8,,10.0,30.519686,,,TRUE,TRUE,,,,,,,FEW,3200,OVC,4600,,,,,VFR,,,,,,,,,,,,SPECI,16.0
K6S2 062115Z AUTO 22006G12KT 10SM SCT020 BKN029 OVC046 11/08 A3053 RMK AO2,K6S2,2023-02-06T21:15:00Z,43.98,-124.12,11.0,8.0,220,6,12,10.0,30.528543,,,TRUE,TRUE,,,,,,,SCT,2000,BKN,2900,OVC,4600,,,MVFR,,,,,,,,,,,,METAR,16.0
K6S2 062055Z AUTO 19005KT 10SM SCT019 BKN026 OVC047 10/08 A3053 RMK AO2,K6S2,2023-02-06T20:55:00Z,43.98,-124.12,10.0,8.0,190,5,,10.0,30.528543,,,TRUE,TRUE,,,,,,,SCT,1900,BKN,2600,OVC,4700,,,MVFR,,,,,,,,,,,,METAR,16.0
K6S2 062035Z AUTO 19006KT 10SM SCT030 BKN037 OVC047 10/08 A3053 RMK AO2,K6S2,2023-02-06T20:35:00Z,43.98,-124.12,10.0,8.0,190,6,,10.0,30.528543,,,TRUE,TRUE,,,,,,,SCT,3000,BKN,3700,OVC,4700,,,VFR,,,,,,,,,,,,METAR,16.0
K6S2 062015Z AUTO VRB06G11KT 10SM FEW018 SCT028 BKN046 10/08 A3054 RMK AO2,K6S2,2023-02-06T20:15:00Z,43.98,-124.12,10.0,8.0,0,6,11,10.0,30.540354,,,TRUE,TRUE,,,,,,,FEW,1800,SCT,2800,BKN,4600,,,VFR,,,,,,,,,,,,SPECI,16.0
K6S2 061955Z AUTO VRB05KT 10SM UP BKN018 BKN028 BKN034 10/08 A3055 RMK AO2,K6S2,2023-02-06T19:55:00Z,43.98,-124.12,10.0,8.0,0,5,,10.0,30.549213,,,TRUE,TRUE,,,,,,UP,BKN,1800,BKN,2800,BKN,3400,,,MVFR,,,,,,,,,,,,METAR,16.0
K6S2 061935Z AUTO VRB05KT 10SM SCT018 BKN035 OVC050 10/08 A3056 RMK AO2,K6S2,2023-02-06T19:35:00Z,43.98,-124.12,10.0,8.0,0,5,,10.0,30.561024,,,TRUE,TRUE,,,,,,,SCT,1800,BKN,3500,OVC,5000,,,VFR,,,,,,,,,,,,METAR,16.0
K6S2 061915Z AUTO 16004G10KT 10SM SCT019 SCT038 OVC050 10/08 A3057 RMK AO2,K6S2,2023-02-06T19:15:00Z,43.98,-124.12,10.0,8.0,160,4,10,10.0,30.569881,,,TRUE,TRUE,,,,,,,SCT,1900,SCT,3800,OVC,5000,,,VFR,,,,,,,,,,,,METAR,16.0
K6S2 061855Z AUTO 15003KT 10SM SCT019 SCT031 OVC050 09/08 A3056 RMK AO2,K6S2,2023-02-06T18:55:00Z,43.98,-124.12,9.0,8.0,150,3,,10.0,30.561024,,,TRUE,TRUE,,,,,,,SCT,1900,SCT,3100,OVC,5000,,,VFR,,,,,,,,,,,,METAR,16.0
K6S2 061835Z AUTO VRB05KT 10SM OVC050 09/08 A3056 RMK AO2,K6S2,2023-02-06T18:35:00Z,43.98,-124.12,9.0,8.0,0,5,,10.0,30.561024,,,TRUE,TRUE,,,,,,,OVC,5000,,,,,,,VFR,,,,,,,,,,,,SPECI,16.0
K6S2 061815Z AUTO VRB03KT 10SM FEW025 FEW032 OVC050 09/08 A3055 RMK AO2,K6S2,2023-02-06T18:15:00Z,43.98,-124.12,9.0,8.0,0,3,,10.0,30.549213,,,TRUE,TRUE,,,,,,,FEW,2500,FEW,3200,OVC,5000,,,VFR,,,,,,,,,,,,METAR,16.0
K6S2 061755Z AUTO 00000KT 10SM SCT040 OVC050 08/08 A3055 RMK AO2,K6S2,2023-02-06T17:55:00Z,43.98,-124.12,8.0,8.0,0,0,,10.0,30.549213,,,TRUE,TRUE,,,,,,,SCT,4000,OVC,5000,,,,,VFR,,,,,,,,,,,,SPECI,16.0
K6S2 061735Z AUTO 16003KT 10SM FEW038 OVC055 08/08 A3055 RMK AO2,K6S2,2023-02-06T17:35:00Z,43.98,-124.12,8.0,8.0,160,3,,10.0,30.549213,,,TRUE,TRUE,,,,,,,FEW,3800,OVC,5500,,,,,VFR,,,,,,,,,,,,METAR,16.0
K6S2 061715Z AUTO 00000KT 9SM SCT024 BKN055 07/07 A3055 RMK AO2,K6S2,2023-02-06T17:15:00Z,43.98,-124.12,7.0,7.0,0,0,,9.0,30.549213,,,TRUE,TRUE,,,,,,,SCT,2400,BKN,5500,,,,,VFR,,,,,,,,,,,,METAR,16.0
K6S2 061655Z AUTO 00000KT 7SM BKN025 07/07 A3055 RMK AO2,K6S2,2023-02-06T16:55:00Z,43.98,-124.12,7.0,7.0,0,0,,7.0,30.549213,,,TRUE,TRUE,,,,,,,BKN,2500,,,,,,,MVFR,,,,,,,,,,,,SPECI,16.0
K6S2 061635Z AUTO 00000KT 3SM UP BR BKN025 06/06 A3055 RMK AO2,K6S2,2023-02-06T16:35:00Z,43.98,-124.12,6.0,6.0,0,0,,3.0,30.549213,,,TRUE,TRUE,,,,,,BR UP,BKN,2500,,,,,,,MVFR,,,,,,,,,,,,METAR,16.0
K6S2 061615Z AUTO 00000KT 9SM OVC025 06/06 A3055 RMK AO2,K6S2,2023-02-06T16:15:00Z,43.98,-124.12,6.0,6.0,0,0,,9.0,30.549213,,,TRUE,TRUE,,,,,,,OVC,2500,,,,,,,MVFR,,,,,,,,,,,,SPECI,16.0
K6S2 061555Z AUTO 00000KT 10SM OVC025 06/06 A3054 RMK AO2,K6S2,2023-02-06T15:55:00Z,43.98,-124.12,6.0,6.0,0,0,,10.0,30.540354,,,TRUE,TRUE,,,,,,,OVC,2500,,,,,,,MVFR,,,,,,,,,,,,METAR,16.0
K6S2 061535Z AUTO 00000KT 6SM -RA BR OVC025 06/06 A3054 RMK AO2,K6S2,2023-02-06T15:35:00Z,43.98,-124.12,6.0,6.0,0,0,,6.0,30.540354,,,TRUE,TRUE,,,,,,-RA BR,OVC,2500,,,,,,,MVFR,,,,,,,,,,,,METAR,16.0
K6S2 061515Z AUTO 00000KT 8SM -RA OVC025 06/06 A3054 RMK AO2,K6S2,2023-02-06T15:15:00Z,43.98,-124.12,6.0,6.0,0,0,,8.0,30.540354,,,TRUE,TRUE,,,,,,-RA,OVC,2500,,,,,,,MVFR,,,,,,,,,,,,METAR,16.0
K6S2 061455Z AUTO 00000KT 6SM UP BR FEW015 OVC025 06/06 A3054 RMK AO2,K6S2,2023-02-06T14:55:00Z,43.98,-124.12,6.0,6.0,0,0,,6.0,30.540354,,,TRUE,TRUE,,,,,,BR UP,FEW,1500,OVC,2500,,,,,MVFR,,,,,,,,,,,,METAR,16.0
K6S2 061435Z AUTO 00000KT 10SM OVC026 06/06 A3053 RMK AO2,K6S2,2023-02-06T14:35:00Z,43.98,-124.12,6.0,6.0,0,0,,10.0,30.528543,,,TRUE,TRUE,,,,,,,OVC,2600,,,,,,,MVFR,,,,,,,,,,,,SPECI,16.0
K6S2 061415Z AUTO 00000KT 10SM OVC026 06/06 A3052 RMK AO2,K6S2,2023-02-06T14:15:00Z,43.98,-124.12,6.0,6.0,0,0,,10.0,30.519686,,,TRUE,TRUE,,,,,,,OVC,2600,,,,,,,MVFR,,,,,,,,,,,,SPECI,16.0
K6S2 061355Z AUTO 00000KT 8SM -RA OVC030 06/06 A3052 RMK AO2,K6S2,2023-02-06T13:55:00Z,43.98,-124.12,6.0,6.0,0,0,,8.0,30.519686,,,TRUE,TRUE,,,,,,-RA,OVC,3000,,,,,,,MVFR,,,,,,,,,,,,METAR,16.0
K6S2 061335Z AUTO 00000KT 8SM -RA OVC030 06/06 A3052 RMK AO2,K6S2,2023-02-06T13:35:00Z,43.98,-124.12,6.0,6.0,0,0,,8.0,30.519686,,,TRUE,TRUE,,,,,,-RA,OVC,3000,,,,,,,MVFR,,,,,,,,,,,,SPECI,16.0
K6S2 061315Z AUTO 00000KT 6SM -RA BR BKN030 OVC035 06/06 A3052 RMK AO2,K6S2,2023-02-06T13:15:00Z,43.98,-124.12,6.0,6.0,0,0,,6.0,30.519686,,,TRUE,TRUE,,,,,,-RA BR,BKN,3000,OVC,3500,,,,,MVFR,,,,,,,,,,,,METAR,16.0
K6S2 061255Z AUTO 00000KT 10SM OVC034 06/06 A3051 RMK AO2,K6S2,2023-02-06T12:55:00Z,43.98,-124.12,6.0,6.0,0,0,,10.0,30.510826,,,TRUE,TRUE,,,,,,,OVC,3400,,,,,,,VFR,,,,,,,,,,,,METAR,16.0
K6S2 061235Z AUTO 00000KT 10SM OVC035 06/06 A3050 RMK AO2,K6S2,2023-02-06T12:35:00Z,43.98,-124.12,6.0,6.0,0,0,,10.0,30.499016,,,TRUE,TRUE,,,,,,,OVC,3500,,,,,,,VFR,,,,,,,,,,,,METAR,16.0
K6S2 061215Z AUTO 00000KT 10SM FEW025 FEW030 OVC037 06/06 A3050 RMK AO2,K6S2,2023-02-06T12:15:00Z,43.98,-124.12,6.0,6.0,0,0,,10.0,30.499016,,,TRUE,TRUE,,,,,,,FEW,2500,FEW,3000,OVC,3700,,,VFR,,,,,,,,,,,,SPECI,16.0
K6S2 061155Z AUTO 00000KT 10SM OVC039 06/06 A3050 RMK AO2,K6S2,2023-02-06T11:55:00Z,43.98,-124.12,6.0,6.0,0,0,,10.0,30.499016,,,TRUE,TRUE,,,,,,,OVC,3900,,,,,,,VFR,,,,,,,,,,,,METAR,16.0
K6S2 061135Z AUTO 00000KT 10SM OVC039 05/05 A3050 RMK AO2,K6S2,2023-02-06T11:35:00Z,43.98,-124.12,5.0,5.0,0,0,,10.0,30.499016,,,TRUE,TRUE,,,,,,,OVC,3900,,,,,,,VFR,,,,,,,,,,,,SPECI,16.0
K6S2 061115Z AUTO 00000KT 10SM OVC040 05/05 A3049 RMK AO2,K6S2,2023-02-06T11:15:00Z,43.98,-124.12,5.0,5.0,0,0,,10.0,30.490158,,,TRUE,TRUE,,,,,,,OVC,4000,,,,,,,VFR,,,,,,,,,,,,SPECI,16.0
K6S2 061055Z AUTO 00000KT 10SM OVC043 05/05 A3049 RMK AO2,K6S2,2023-02-06T10:55:00Z,43.98,-124.12,5.0,5.0,0,0,,10.0,30.490158,,,TRUE,TRUE,,,,,,,OVC,4300,,,,,,,VFR,,,,,,,,,,,,METAR,16.0
K6S2 061035Z AUTO 00000KT 10SM BKN046 BKN055 OVC075 05/05 A3049 RMK AO2,K6S2,2023-02-06T10:35:00Z,43.98,-124.12,5.0,5.0,0,0,,10.0,30.490158,,,TRUE,TRUE,,,,,,,BKN,4600,BKN,5500,OVC,7500,,,VFR,,,,,,,,,,,,METAR,16.0
K6S2 061015Z AUTO 00000KT 10SM FEW024 BKN050 OVC075 05/05 A3049 RMK AO2,K6S2,2023-02-06T10:15:00Z,43.98,-124.12,5.0,5.0,0,0,,10.0,30.490158,,,TRUE,TRUE,,,,,,,FEW,2400,BKN,5000,OVC,7500,,,VFR,,,,,,,,,,,,METAR,16.0
K6S2 060955Z AUTO 00000KT 10SM FEW024 BKN050 OVC080 05/05 A3049 RMK AO2,K6S2,2023-02-06T09:55:00Z,43.98,-124.12,5.0,5.0,0,0,,10.0,30.490158,,,TRUE,TRUE,,,,,,,FEW,2400,BKN,5000,OVC,8000,,,VFR,,,,,,,,,,,,METAR,16.0
K6S2 060935Z AUTO 00000KT 10SM SCT049 OVC080 05/05 A3048 RMK AO2,K6S2,2023-02-06T09:35:00Z,43.98,-124.12,5.0,5.0,0,0,,10.0,30.481298,,,TRUE,TRUE,,,,,,,SCT,4900,OVC,8000,,,,,VFR,,,,,,,,,,,,METAR,16.0
K6S2 060915Z AUTO 00000KT 9SM SCT048 BKN085 BKN110 05/05 A3048 RMK AO2,K6S2,2023-02-06T09:15:00Z,43.98,-124.12,5.0,5.0,0,0,,9.0,30.481298,,,TRUE,TRUE,,,,,,,SCT,4800,BKN,8500,BKN,11000,,,VFR,,,,,,,,,,,,METAR,16.0
K6S2 060855Z AUTO 00000KT 9SM SCT004 BKN120 06/06 A3046 RMK AO2,K6S2,2023-02-06T08:55:00Z,43.98,-124.12,6.0,6.0,0,0,,9.0,30.46063,,,TRUE,TRUE,,,,,,,SCT,400,BKN,12000,,,,,VFR,,,,,,,,,,,,METAR,16.0
K6S2 060835Z AUTO 00000KT 9SM OVC004 05/05 A3046 RMK AO2,K6S2,2023-02-06T08:35:00Z,43.98,-124.12,5.0,5.0,0,0,,9.0,30.46063,,,TRUE,TRUE,,,,,,,OVC,400,,,,,,,LIFR,,,,,,,,,,,,METAR,16.0
K6S2 060815Z AUTO 00000KT 10SM BKN004 OVC033 06/06 A3046 RMK AO2,K6S2,2023-02-06T08:15:00Z,43.98,-124.12,6.0,6.0,0,0,,10.0,30.46063,,,TRUE,TRUE,,,,,,,BKN,400,OVC,3300,,,,,LIFR,,,,,,,,,,,,SPECI,16.0
K6S2 060755Z AUTO 00000KT 9SM SCT028 OVC033 06/06 A3046 RMK AO2 P0001,K6S2,2023-02-06T07:55:00Z,43.98,-124.12,6.0,6.0,0,0,,9.0,30.46063,,,TRUE,TRUE,,,,,,,SCT,2800,OVC,3300,,,,,VFR,,,,,,0.01,,,,,,METAR,16.0
K6S2 060735Z AUTO 00000KT 8SM -RA BKN027 OVC033 06/06 A3046 RMK AO2,K6S2,2023-02-06T07:35:00Z,43.98,-124.12,6.0,6.0,0,0,,8.0,30.46063,,,TRUE,TRUE,,,,,,-RA,BKN,2700,OVC,3300,,,,,MVFR,,,,,,,,,,,,METAR,16.0
K6S2 060715Z AUTO 00000KT 6SM -RA BR BKN026 OVC032 06/06 A3045 RMK AO2,K6S2,2023-02-06T07:15:00Z,43.98,-124.12,6.0,6.0,0,0,,6.0,30.448818,,,TRUE,TRUE,,,,,,-RA BR,BKN,2600,OVC,3200,,,,,MVFR,,,,,,,,,,,,METAR,16.0
K6S2 060655Z AUTO 00000KT 8SM -RA FEW003 SCT027 BKN034 07/07 A3044 RMK AO2,K6S2,2023-02-06T06:55:00Z,43.98,-124.12,7.0,7.0,0,0,,8.0,30.43996,,,TRUE,TRUE,,,,,,-RA,FEW,300,SCT,2700,BKN,3400,,,VFR,,,,,,,,,,,,METAR,16.0
K6S2 060635Z AUTO 00000KT 10SM BKN002 OVC050 07/07 A3043 RMK AO2,K6S2,2023-02-06T06:35:00Z,43.98,-124.12,7.0,7.0,0,0,,10.0,30.431103,,,TRUE,TRUE,,,,,,,BKN,200,OVC,5000,,,,,LIFR,,,,,,,,,,,,METAR,16.0
K6S2 060615Z AUTO 00000KT 7SM BKN002 BKN045 OVC050 08/06 A3042 RMK AO2,K6S2,2023-02-06T06:15:00Z,43.98,-124.12,8.0,6.0,0,0,,7.0,30.41929,,,TRUE,TRUE,,,,,,,BKN,200,BKN,4500,OVC,5000,,,LIFR,,,,,,,,,,,,METAR,16.0
K6S2 060555Z AUTO 32003KT 7SM SCT002 SCT033 OVC050 09/05 A3041 RMK AO2,K6S2,2023-02-06T05:55:00Z,43.98,-124.12,9.0,5.0,320,3,,7.0,30.410433,,,TRUE,TRUE,,,,,,,SCT,200,SCT,3300,OVC,5000,,,VFR,,,,,,,,,,,,METAR,16.0
K6S2 060535Z AUTO 00000KT 9SM SCT002 OVC049 09/05 A3040 RMK AO2,K6S2,2023-02-06T05:35:00Z,43.98,-124.12,9.0,5.0,0,0,,9.0,30.398623,,,TRUE,TRUE,,,,,,,SCT,200,OVC,4900,,,,,VFR,,,,,,,,,,,,METAR,16.0
K6S2 060515Z AUTO 33003KT 7SM BKN002 OVC049 09/04 A3039 RMK AO2,K6S2,2023-02-06T05:15:00Z,43.98,-124.12,9.0,4.0,330,3,,7.0,30.389763,,,TRUE,TRUE,,,,,,,BKN,200,OVC,4900,,,,,LIFR,,,,,,,,,,,,SPECI,16.0
K6S2 060455Z AUTO 34004KT 8SM SCT003 SCT044 OVC050 09/05 A3039 RMK AO2,K6S2,2023-02-06T04:55:00Z,43.98,-124.12,9.0,5.0,340,4,,8.0,30.389763,,,TRUE,TRUE,,,,,,,SCT,300,SCT,4400,OVC,5000,,,VFR,,,,,,,,,,,,METAR,16.0
K6S2 060435Z AUTO 00000KT 10SM FEW003 SCT034 BKN043 09/05 A3038 RMK AO2,K6S2,2023-02-06T04:35:00Z,43.98,-124.12,9.0,5.0,0,0,,10.0,30.380905,,,TRUE,TRUE,,,,,,,FEW,300,SCT,3400,BKN,4300,,,VFR,,,,,,,,,,,,SPECI,16.0
K6S2 060415Z AUTO 34006G13KT 8SM -RA FEW004 BKN034 OVC048 08/05 A3037 RMK AO2,K6S2,2023-02-06T04:15:00Z,43.98,-124.12,8.0,5.0,340,6,13,8.0,30.369095,,,TRUE,TRUE,,,,,,-RA,FEW,400,BKN,3400,OVC,4800,,,VFR,,,,,,,,,,,,SPECI,16.0
K6S2 060355Z AUTO 33008KT 8SM FEW003 OVC047 09/04 A3036 RMK AO2,K6S2,2023-02-06T03:55:00Z,43.98,-124.12,9.0,4.0,330,8,,8.0,30.360237,,,TRUE,TRUE,,,,,,,FEW,300,OVC,4700,,,,,VFR,,,,,,,,,,,,METAR,16.0
K6S2 060335Z AUTO 34008KT 10SM FEW003 OVC042 09/04 A3035 RMK AO2,K6S2,2023-02-06T03:35:00Z,43.98,-124.12,9.0,4.0,340,8,,10.0,30.351377,,,TRUE,TRUE,,,,,,,FEW,300,OVC,4200,,,,,VFR,,,,,,,,,,,,SPECI,16.0
K6S2 060315Z AUTO 34009KT 10SM FEW002 OVC042 09/04 A3034 RMK AO2,K6S2,2023-02-06T03:15:00Z,43.98,-124.12,9.0,4.0,340,9,,10.0,30.339567,,,TRUE,TRUE,,,,,,,FEW,200,OVC,4200,,,,,VFR,,,,,,,,,,,,METAR,16.0
K6S2 060255Z AUTO 32008KT 10SM SCT002 OVC043 09/04 A3033 RMK AO2,K6S2,2023-02-06T02:55:00Z,43.98,-124.12,9.0,4.0,320,8,,10.0,30.33071,,,TRUE,TRUE,,,,,,,SCT,200,OVC,4300,,,,,VFR,,,,,,,,,,,,METAR,16.0
K6S2 060235Z AUTO 32011G17KT 10SM FEW002 FEW030 OVC040 09/04 A3031 RMK AO2,K6S2,2023-02-06T02:35:00Z,43.98,-124.12,9.0,4.0,320,11,17,10.0,30.31004,,,TRUE,TRUE,,,,,,,FEW,200,FEW,3000,OVC,4000,,,VFR,,,,,,,,,,,,METAR,16.0
K6S2 060215Z AUTO 33009KT 8SM -RA FEW033 OVC039 09/07 A3030 RMK AO2,K6S2,2023-02-06T02:15:00Z,43.98,-124.12,9.0,7.0,330,9,,8.0,30.301182,,,TRUE,TRUE,,,,,,-RA,FEW,3300,OVC,3900,,,,,VFR,,,,,,,,,,,,SPECI,16.0
K6S2 060155Z AUTO 31008G16KT 4SM -RA BR FEW023 SCT029 BKN036 08/08 A3029 RMK AO2 P0001,K6S2,2023-02-06T01:55:00Z,43.98,-124.12,8.0,8.0,310,8,16,4.0,30.28937,,,TRUE,TRUE,,,,,,-RA BR,FEW,2300,SCT,2900,BKN,3600,,,MVFR,,,,,,0.01,,,,,,METAR,16.0
K6S2 060135Z AUTO 33008G14KT 7SM -RA FEW008 SCT029 BKN037 08/07 A3028 RMK AO2,K6S2,2023-02-06T01:35:00Z,43.98,-124.12,8.0,7.0,330,8,14,7.0,30.280512,,,TRUE,TRUE,,,,,,-RA,FEW,800,SCT,2900,BKN,3700,,,VFR,,,,,,,,,,,,SPECI,16.0
K6S2 060115Z AUTO 33009KT 7SM FEW017 BKN037 OVC044 09/08 A3027 RMK AO2,K6S2,2023-02-06T01:15:00Z,43.98,-124.12,9.0,8.0,330,9,,7.0,30.268702,,,TRUE,TRUE,,,,,,,FEW,1700,BKN,3700,OVC,4400,,,VFR,,,,,,,,,,,,SPECI,16.0
K6S2 060055Z AUTO 32010G16KT 5SM -RA BR FEW015 SCT024 BKN033 09/08 A3026 RMK AO2,K6S2,2023-02-06T00:55:00Z,43.98,-124.12,9.0,8.0,320,10,16,5.0,30.259842,,,TRUE,TRUE,,,,,,-RA BR,FEW,1500,SCT,2400,BKN,3300,,,MVFR,,,,,,,,,,,,METAR,16.0
K6S2 060035Z AUTO 33011G18KT 8SM SCT022 BKN037 BKN043 09/08 A3024 RMK AO2,K6S2,2023-02-06T00:35:00Z,43.98,-124.12,9.0,8.0,330,11,18,8.0,30.239174,,,TRUE,TRUE,,,,,,,SCT,2200,BKN,3700,BKN,4300,,,VFR,,,,,,,,,,,,SPECI,16.0
K6S2 060015Z AUTO 31008G17KT 5SM -RA BR FEW015 SCT029 BKN038 08/08 A3023 RMK AO2,K6S2,2023-02-06T00:15:00Z,43.98,-124.12,8.0,8.0,310,8,17,5.0,30.230314,,,TRUE,TRUE,,,,,,-RA BR,FEW,1500,SCT,2900,BKN,3800,,,MVFR,,,,,,,,,,,,SPECI,16.0
K6S2 052355Z AUTO 33013G19KT 9SM FEW020 SCT027 OVC047 10/08 A3022 RMK AO2,K6S2,2023-02-05T23:55:00Z,43.98,-124.12,10.0,8.0,330,13,19,9.0,30.221457,,,TRUE,TRUE,,,,,,,FEW,2000,SCT,2700,OVC,4700,,,VFR,,,,,,,,,,,,METAR,16.0
K6S2 052335Z AUTO 32010G17KT 9SM FEW034 OVC046 10/08 A3020 RMK AO2,K6S2,2023-02-05T23:35:00Z,43.98,-124.12,10.0,8.0,320,10,17,9.0,30.200787,,,TRUE,TRUE,,,,,,,FEW,3400,OVC,4600,,,,,VFR,,,,,,,,,,,,METAR,16.0
K6S2 052315Z AUTO 33012G19KT 10SM BKN036 OVC044 10/08 A3019 RMK AO2,K6S2,2023-02-05T23:15:00Z,43.98,-124.12,10.0,8.0,330,12,19,10.0,30.188976,,,TRUE,TRUE,,,,,,,BKN,3600,OVC,4400,,,,,VFR,,,,,,,,,,,,METAR,16.0
K6S2 052255Z AUTO 33010G15KT 9SM FEW016 SCT028 BKN037 09/08 A3018 RMK AO2,K6S2,2023-02-05T22:55:00Z,43.98,-124.12,9.0,8.0,330,10,15,9.0,30.180119,,,TRUE,TRUE,,,,,,,FEW,1600,SCT,2800,BKN,3700,,,VFR,,,,,,,,,,,,METAR,16.0
K6S2 052235Z AUTO 32011G16KT 7SM FEW017 SCT023 BKN038 09/09 A3016 RMK AO2,K6S2,2023-02-05T22:35:00Z,43.98,-124.12,9.0,9.0,320,11,16,7.0,30.159449,,,TRUE,TRUE,,,,,,,FEW,1700,SCT,2300,BKN,3800,,,VFR,,,,,,,,,,,,METAR,16.0
K6S2 052215Z AUTO 31012G25KT 3SM UP BR FEW016 SCT024 BKN031 09/09 A3015 RMK AO2,K6S2,2023-02-05T22:15:00Z,43.98,-124.12,9.0,9.0,310,12,25,3.0,30.15059,,,TRUE,TRUE,,,,,,BR UP,FEW,1600,SCT,2400,BKN,3100,,,MVFR,,,,,,,,,,,,METAR,16.0
K6S2 052155Z AUTO 31010G18KT 9SM SCT016 SCT023 BKN028 10/09 A3013 RMK AO2,K6S2,2023-02-05T21:55:00Z,43.98,-124.12,10.0,9.0,310,10,18,9.0,30.129921,,,TRUE,TRUE,,,,,,,SCT,1600,SCT,2300,BKN,2800,,,MVFR,,,,,,,,,,,,METAR,16.0
K6S2 052135Z AUTO 32012G20KT 4SM UP BR FEW017 FEW022 BKN028 09/09 A3012 RMK AO2,K6S2,2023-02-05T21:35:00Z,43.98,-124.12,9.0,9.0,320,12,20,4.0,30.121063,,,TRUE,TRUE,,,,,,BR UP,FEW,1700,FEW,2200,BKN,2800,,,MVFR,,,,,,,,,,,,METAR,16.0
K6S2 052115Z AUTO 30010G15KT 9SM FEW016 SCT028 BKN037 10/09 A3012 RMK AO2,K6S2,2023-02-05T21:15:00Z,43.98,-124.12,10.0,9.0,300,10,15,9.0,30.121063,,,TRUE,TRUE,,,,,,,FEW,1600,SCT,2800,BKN,3700,,,VFR,,,,,,,,,,,,METAR,16.0
K6S2 052055Z AUTO 31008KT 6SM BR FEW014 SCT023 BKN029 09/09 A3011 RMK AO2,K6S2,2023-02-05T20:55:00Z,43.98,-124.12,9.0,9.0,310,8,,6.0,30.109253,,,TRUE,TRUE,,,,,,BR,FEW,1400,SCT,2300,BKN,2900,,,MVFR,,,,,,,,,,,,METAR,16.0
K6S2 052035Z AUTO VRB05KT 8SM -RA FEW014 SCT023 BKN033 09/09 A3009 RMK AO2,K6S2,2023-02-05T20:35:00Z,43.98,-124.12,9.0,9.0,0,5,,8.0,30.088583,,,TRUE,TRUE,,,,,,-RA,FEW,1400,SCT,2300,BKN,3300,,,VFR,,,,,,,,,,,,SPECI,16.0
K6S2 052015Z AUTO 28007KT 250V320 10SM FEW027 SCT035 BKN041 10/09 A3009 RMK AO2,K6S2,2023-02-05T20:15:00Z,43.98,-124.12,10.0,9.0,280,7,,10.0,30.088583,,,TRUE,TRUE,,,,,,,FEW,2700,SCT,3500,BKN,4100,,,VFR,,,,,,,,,,,,METAR,16.0
K6S2 051955Z AUTO 31008G15KT 270V330 6SM -RA BR FEW017 SCT024 BKN032 10/09 A3008 RMK AO2,K6S2,2023-02-05T19:55:00Z,43.98,-124.12,10.0,9.0,310,8,15,6.0,30.079725,,,TRUE,TRUE,,,,,,-RA BR,FEW,1700,SCT,2400,BKN,3200,,,VFR,,,,,,,,,,,,METAR,16.0
K6S2 051935Z AUTO 29009KT 10SM FEW017 SCT027 BKN038 11/10 A3007 RMK AO2,K6S2,2023-02-05T19:35:00Z,43.98,-124.12,11.0,10.0,290,9,,10.0,30.070866,,,TRUE,TRUE,,,,,,,FEW,1700,SCT,2700,BKN,3800,,,VFR,,,,,,,,,,,,METAR,16.0
K6S2 051915Z AUTO VRB06KT 10SM FEW035 SCT043 BKN055 10/09 A3007 RMK AO2,K6S2,2023-02-05T19:15:00Z,43.98,-124.12,10.0,9.0,0,6,,10.0,30.070866,,,TRUE,TRUE,,,,,,,FEW,3500,SCT,4300,BKN,5500,,,VFR,,,,,,,,,,,,SPECI,16.0
K6S2 051855Z AUTO 29007KT 10SM FEW022 SCT032 BKN043 09/08 A3005 RMK AO2,K6S2,2023-02-05T18:55:00Z,43.98,-124.12,9.0,8.0,290,7,,10.0,30.050198,,,TRUE,TRUE,,,,,,,FEW,2200,SCT,3200,BKN,4300,,,VFR,,,,,,,,,,,,SPECI,16.0
K6S2 051835Z AUTO 29008G14KT 260V320 10SM SCT021 SCT030 BKN038 10/09 A3004 RMK AO2,K6S2,2023-02-05T18:35:00Z,43.98,-124.12,10.0,9.0,290,8,14,10.0,30.041338,,,TRUE,TRUE,,,,,,,SCT,2100,SCT,3000,BKN,3800,,,VFR,,,,,,,,,,,,METAR,16.0
K6S2 051815Z AUTO 26006KT 10SM SCT037 BKN048 BKN060 10/09 A3003 RMK AO2,K6S2,2023-02-05T18:15:00Z,43.98,-124.12,10.0,9.0,260,6,,10.0,30.029528,,,TRUE,TRUE,,,,,,,SCT,3700,BKN,4800,BKN,6000,,,VFR,,,,,,,,,,,,SPECI,16.0
K6S2 051755Z AUTO 26007KT 230V300 9SM FEW019 SCT023 BKN047 09/09 A3002 RMK AO2 P0003,K6S2,2023-02-05T17:55:00Z,43.98,-124.12,9.0,9.0,260,7,,9.0,30.02067,,,TRUE,TRUE,,,,,,,FEW,1900,SCT,2300,BKN,4700,,,VFR,,,,,,0.03,,,,,,METAR,16.0
K6S2 051735Z AUTO 26007KT 230V290 9SM SCT020 BKN024 BKN030 10/09 A3000 RMK AO2,K6S2,2023-02-05T17:35:00Z,43.98,-124.12,10.0,9.0,260,7,,9.0,30.0,,,TRUE,TRUE,,,,,,,SCT,2000,BKN,2400,BKN,3000,,,MVFR,,,,,,,,,,,,METAR,16.0
K6S2 051715Z AUTO VRB06G11KT 10SM SCT022 SCT029 BKN046 10/09 A2999 RMK AO2,K6S2,2023-02-05T17:15:00Z,43.98,-124.12,10.0,9.0,0,6,11,10.0,29.991142,,,TRUE,TRUE,,,,,,,SCT,2200,SCT,2900,BKN,4600,,,VFR,,,,,,,,,,,,METAR,16.0
K6S2 051655Z AUTO 26006KT 10SM FEW019 SCT050 BKN080 09/09 A2998 RMK AO2,K6S2,2023-02-05T16:55:00Z,43.98,-124.12,9.0,9.0,260,6,,10.0,29.97933,,,TRUE,TRUE,,,,,,,FEW,1900,SCT,5000,BKN,8000,,,VFR,,,,,,,,,,,,METAR,16.0
K6S2 051635Z AUTO 27007KT 10SM SCT020 BKN027 OVC080 09/09 A2996 RMK AO2,K6S2,2023-02-05T16:35:00Z,43.98,-124.12,9.0,9.0,270,7,,10.0,29.958662,,,TRUE,TRUE,,,,,,,SCT,2000,BKN,2700,OVC,8000,,,MVFR,,,,,,,,,,,,METAR,16.0
K6S2 051615Z AUTO VRB04G12KT 10SM SCT021 BKN060 OVC080 09/09 A2995 RMK AO2,K6S2,2023-02-05T16:15:00Z,43.98,-124.12,9.0,9.0,0,4,12,10.0,29.949802,,,TRUE,TRUE,,,,,,,SCT,2100,BKN,6000,OVC,8000,,,VFR,,,,,,,,,,,,SPECI,16.0
K6S2 051555Z AUTO VRB04KT 9SM SCT022 BKN042 OVC075 09/09 A2993 RMK AO2 P0005,K6S2,2023-02-05T15:55:00Z,43.98,-124.12,9.0,9.0,0,4,,9.0,29.929134,,,TRUE,TRUE,,,,,,,SCT,2200,BKN,4200,OVC,7500,,,VFR,,,,,,0.05,,,,,,METAR,16.0
K6S2 051535Z AUTO 00000KT 7SM -RA FEW026 SCT034 BKN042 08/08 A2992 RMK AO2,K6S2,2023-02-05T15:35:00Z,43.98,-124.12,8.0,8.0,0,0,,7.0,29.920275,,,TRUE,TRUE,,,,,,-RA,FEW,2600,SCT,3400,BKN,4200,,,VFR,,,,,,,,,,,,METAR,16.0
K6S2 051515Z AUTO VRB05KT 5SM -RA BR FEW003 SCT022 BKN031 08/08 A2991 RMK AO2,K6S2,2023-02-05T15:15:00Z,43.98,-124.12,8.0,8.0,0,5,,5.0,29.911417,,,TRUE,TRUE,,,,,,-RA BR,FEW,300,SCT,2200,BKN,3100,,,MVFR,,,,,,,,,,,,METAR,16.0
K6S2 051455Z AUTO 21004KT 10SM FEW003 SCT039 BKN049 09/09 A2989 RMK AO2,K6S2,2023-02-05T14:55:00Z,43.98,-124.12,9.0,9.0,210,4,,10.0,29.890747,,,TRUE,TRUE,,,,,,,FEW,300,SCT,3900,BKN,4900,,,VFR,,,,,,,,,,,,SPECI,16.0
K6S2 051435Z AUTO VRB05G10KT 10SM FEW003 SCT037 BKN048 09/09 A2987 RMK AO2,K6S2,2023-02-05T14:35:00Z,43.98,-124.12,9.0,9.0,0,5,10,10.0,29.870079,,,TRUE,TRUE,,,,,,,FEW,300,SCT,3700,BKN,4800,,,VFR,,,,,,,,,,,,METAR,16.0
K6S2 051415Z AUTO 24007G13KT 200V270 9SM -RA FEW003 BKN036 OVC060 09/09 A2986 RMK AO2,K6S2,2023-02-05T14:15:00Z,43.98,-124.12,9.0,9.0,240,7,13,9.0,29.861221,,,TRUE,TRUE,,,,,,-RA,FEW,300,BKN,3600,OVC,6000,,,VFR,,,,,,,,,,,,METAR,16.0
K6S2 051355Z AUTO 27006G13KT 10SM FEW003 BKN032 OVC065 09/08 A2985 RMK AO2 P0001,K6S2,2023-02-05T13:55:00Z,43.98,-124.12,9.0,8.0,270,6,13,10.0,29.84941,,,TRUE,TRUE,,,,,,,FEW,300,BKN,3200,OVC,6500,,,VFR,,,,,,0.01,,,,,,METAR,16.0
K6S2 051335Z AUTO VRB05G12KT 10SM FEW016 SCT033 OVC065 10/10 A2984 RMK AO2,K6S2,2023-02-05T13:35:00Z,43.98,-124.12,10.0,10.0,0,5,12,10.0,29.840551,,,TRUE,TRUE,,,,,,,FEW,1600,SCT,3300,OVC,6500,,,VFR,,,,,,,,,,,,SPECI,16.0
K6S2 051315Z AUTO VRB06G17KT 9SM BKN016 BKN021 OVC028 09/09 A2983 RMK AO2,K6S2,2023-02-05T13:15:00Z,43.98,-124.12,9.0,9.0,0,6,17,9.0,29.828741,,,TRUE,TRUE,,,,,,,BKN,1600,BKN,2100,OVC,2800,,,MVFR,,,,,,,,,,,,SPECI,16.0
K6S2 051255Z AUTO VRB05G10KT 5SM -RA BR FEW003 BKN020 OVC045 09/09 A2981 RMK AO2,K6S2,2023-02-05T12:55:00Z,43.98,-124.12,9.0,9.0,0,5,10,5.0,29.811024,,,TRUE,TRUE,,,,,,-RA BR,FEW,300,BKN,2000,OVC,4500,,,MVFR,,,,,,,,,,,,METAR,16.0
K6S2 051235Z AUTO 26008KT 230V290 9SM -RA FEW028 BKN042 OVC047 09/08 A2980 RMK AO2,K6S2,2023-02-05T12:35:00Z,43.98,-124.12,9.0,8.0,260,8,,9.0,29.799213,,,TRUE,TRUE,,,,,,-RA,FEW,2800,BKN,4200,OVC,4700,,,VFR,,,,,,,,,,,,METAR,16.0
K6S2 051215Z AUTO 26010G20KT 220V280 10SM SCT010 BKN028 OVC042 09/09 A2978 RMK AO2,K6S2,2023-02-05T12:15:00Z,43.98,-124.12,9.0,9.0,260,10,20,10.0,29.778543,,,TRUE,TRUE,,,,,,,SCT,1000,BKN,2800,OVC,4200,,,MVFR,,,,,,,,,,,,SPECI,16.0
K6S2 051155Z AUTO 26010G16KT 6SM -RA BR BKN010 BKN018 OVC037 09/09 A2976 RMK AO2 P0010,K6S2,2023-02-05T11:55:00Z,43.98,-124.12,9.0,9.0,260,10,16,6.0,29.760826,,,TRUE,TRUE,,,,,,-RA BR,BKN,1000,BKN,1800,OVC,3700,,,MVFR,,,,,,0.1,,,,,,METAR,16.0
K6S2 051135Z AUTO 27012G17KT 230V300 6SM -RA BR SCT010 SCT018 BKN029 09/09 A2975 RMK AO2,K6S2,2023-02-05T11:35:00Z,43.98,-124.12,9.0,9.0,270,12,17,6.0,29.749016,,,TRUE,TRUE,,,,,,-RA BR,SCT,1000,SCT,1800,BKN,2900,,,MVFR,,,,,,,,,,,,SPECI,16.0
K6S2 051115Z AUTO 27014G22KT 240V300 4SM -RA BR SCT005 SCT012 BKN026 09/09 A2972 RMK AO2,K6S2,2023-02-05T11:15:00Z,43.98,-124.12,9.0,9.0,270,14,22,4.0,29.719488,,,TRUE,TRUE,,,,,,-RA BR,SCT,500,SCT,1200,BKN,2600,,,MVFR,,,,,,,,,,,,METAR,16.0
K6S2 051055Z AUTO 25007KT 210V280 3SM RA BR OVC005 08/08 A2967 RMK AO2 P0003,K6S2,2023-02-05T10:55:00Z,43.98,-124.12,8.0,8.0,250,7,,3.0,29.66929,,,TRUE,TRUE,,,,,,RA BR,OVC,500,,,,,,,IFR,,,,,,0.03,,,,,,METAR,16.0
K6S2 051035Z AUTO VRB04G11KT 5SM UP BR BKN005 OVC010 08/08 A2962 RMK AO2,K6S2,2023-02-05T10:35:00Z,43.98,-124.12,8.0,8.0,0,4,11,5.0,29.619095,,,TRUE,TRUE,,,,,,BR UP,BKN,500,OVC,1000,,,,,IFR,,,,,,,,,,,,METAR,16.0
K6S2 051015Z AUTO 00000KT 2SM UP BR BKN011 OVC017 08/08 A2959 RMK AO2,K6S2,2023-02-05T10:15:00Z,43.98,-124.12,8.0,8.0,0,0,,2.0,29.589567,,,TRUE,TRUE,,,,,,BR UP,BKN,1100,OVC,1700,,,,,IFR,,,,,,,,,,,,METAR,16.0
K6S2 050955Z AUTO 00000KT 6SM UP BR BKN017 OVC025 08/08 A2958 RMK AO2,K6S2,2023-02-05T09:55:00Z,43.98,-124.12,8.0,8.0,0,0,,6.0,29.58071,,,TRUE,TRUE,,,,,,BR UP,BKN,1700,OVC,2500,,,,,MVFR,,,,,,,,,,,,METAR,16.0
K6S2 050935Z AUTO 00000KT 10SM FEW021 BKN028 OVC036 08/08 A2958 RMK AO2,K6S2,2023-02-05T09:35:00Z,43.98,-124.12,8.0,8.0,0,0,,10.0,29.58071,,,TRUE,TRUE,,,,,,,FEW,2100,BKN,2800,OVC,3600,,,MVFR,,,,,,,,,,,,METAR,16.0
K6S2 050915Z AUTO 00000KT 9SM -RA FEW020 SCT033 OVC041 08/08 A2959 RMK AO2,K6S2,2023-02-05T09:15:00Z,43.98,-124.12,8.0,8.0,0,0,,9.0,29.589567,,,TRUE,TRUE,,,,,,-RA,FEW,2000,SCT,3300,OVC,4100,,,VFR,,,,,,,,,,,,METAR,16.0
K6S2 050855Z AUTO 00000KT 10SM OVC041 08/08 A2959 RMK AO2,K6S2,2023-02-05T08:55:00Z,43.98,-124.12,8.0,8.0,0,0,,10.0,29.589567,,,TRUE,TRUE,,,,,,,OVC,4100,,,,,,,VFR,,,,,,,,,,,,METAR,16.0
K6S2 050835Z AUTO 00000KT 10SM BKN042 OVC050 07/07 A2959 RMK AO2,K6S2,2023-02-05T08:35:00Z,43.98,-124.12,7.0,7.0,0,0,,10.0,29.589567,,,TRUE,TRUE,,,,,,,BKN,4200,OVC,5000,,,,,VFR,,,,,,,,,,,,METAR,16.0
K6S2 050815Z AUTO 00000KT 10SM BKN050 BKN055 OVC075 07/07 A2959 RMK AO2,K6S2,2023-02-05T08:15:00Z,43.98,-124.12,7.0,7.0,0,0,,10.0,29.589567,,,TRUE,TRUE,,,,,,,BKN,5000,BKN,5500,OVC,7500,,,VFR,,,,,,,,,,,,SPECI,16.0
K6S2 050755Z AUTO 00000KT 10SM -RA FEW042 OVC050 08/08 A2960 RMK AO2,K6S2,2023-02-05T07:55:00Z,43.98,-124.12,8.0,8.0,0,0,,10.0,29.601377,,,TRUE,TRUE,,,,,,-RA,FEW,4200,OVC,5000,,,,,VFR,,,,,,,,,,,,METAR,16.0
K6S2 050735Z AUTO 18003KT 10SM -RA OVC055 08/08 A2960 RMK AO2,K6S2,2023-02-05T07:35:00Z,43.98,-124.12,8.0,8.0,180,3,,10.0,29.601377,,,TRUE,TRUE,,,,,,-RA,OVC,5500,,,,,,,VFR,,,,,,,,,,,,METAR,16.0
K6S2 050715Z AUTO 00000KT 10SM FEW019 SCT041 BKN055 08/08 A2959 RMK AO2,K6S2,2023-02-05T07:15:00Z,43.98,-124.12,8.0,8.0,0,0,,10.0,29.589567,,,TRUE,TRUE,,,,,,,FEW,1900,SCT,4100,BKN,5500,,,VFR,,,,,,,,,,,,METAR,16.0
K6S2 050655Z AUTO 00000KT 10SM -RA FEW024 BKN038 OVC070 08/08 A2959 RMK AO2,K6S2,2023-02-05T06:55:00Z,43.98,-124.12,8.0,8.0,0,0,,10.0,29.589567,,,TRUE,TRUE,,,,,,-RA,FEW,2400,BKN,3800,OVC,7000,,,VFR,,,,,,,,,,,,METAR,16.0
K6S2 050635Z AUTO 00000KT 10SM -RA FEW025 SCT039 BKN055 08/08 A2961 RMK AO2,K6S2,2023-02-05T06:35:00Z,43.98,-124.12,8.0,8.0,0,0,,10.0,29.610237,,,TRUE,TRUE,,,,,,-RA,FEW,2500,SCT,3900,BKN,5500,,,VFR,,,,,,,,,,,,METAR,16.0
K6S2 050615Z AUTO 00000KT 10SM -RA FEW032 SCT040 BKN055 08/08 A2963 RMK AO2,K6S2,2023-02-05T06:15:00Z,43.98,-124.12,8.0,8.0,0,0,,10.0,29.630905,,,TRUE,TRUE,,,,,,-RA,FEW,3200,SCT,4000,BKN,5500,,,VFR,,,,,,,,,,,,SPECI,16.0
K6S2 050555Z AUTO 00000KT 8SM -RA SCT024 BKN047 OVC075 08/08 A2963 RMK AO2,K6S2,2023-02-05T05:55:00Z,43.98,-124.12,8.0,8.0,0,0,,8.0,29.630905,,,TRUE,TRUE,,,,,,-RA,SCT,2400,BKN,4700,OVC,7500,,,VFR,,,,,,,,,,,,METAR,16.0
K6S2 050535Z AUTO 09003KT 10SM SCT003 BKN044 OVC085 09/08 A2965 RMK AO2,K6S2,2023-02-05T05:35:00Z,43.98,-124.12,9.0,8.0,90,3,,10.0,29.648623,,,TRUE,TRUE,,,,,,,SCT,300,BKN,4400,OVC,8500,,,VFR,,,,,,,,,,,,METAR,16.0
K6S2 050515Z AUTO 00000KT 9SM -RA SCT009 BKN060 OVC085 09/08 A2966 RMK AO2,K6S2,2023-02-05T05:15:00Z,43.98,-124.12,9.0,8.0,0,0,,9.0,29.660433,,,TRUE,TRUE,,,,,,-RA,SCT,900,BKN,6000,OVC,8500,,,VFR,,,,,,,,,,,,METAR,16.0
K6S2 050455Z AUTO 00000KT 10SM FEW002 BKN055 OVC100 09/07 A2965 RMK AO2,K6S2,2023-02-05T04:55:00Z,43.98,-124.12,9.0,7.0,0,0,,10.0,29.648623,,,TRUE,TRUE,,,,,,,FEW,200,BKN,5500,OVC,10000,,,VFR,,,,,,,,,,,,METAR,16.0
K6S2 050435Z AUTO 00000KT 10SM FEW050 SCT070 OVC085 09/07 A2964 RMK AO2,K6S2,2023-02-05T04:35:00Z,43.98,-124.12,9.0,7.0,0,0,,10.0,29.639763,,,TRUE,TRUE,,,,,,,FEW,5000,SCT,7000,OVC,8500,,,VFR,,,,,,,,,,,,METAR,16.0
K6S2 050415Z AUTO 00000KT 10SM SCT070 BKN080 OVC100 10/06 A2963 RMK AO2,K6S2,2023-02-05T04:15:00Z,43.98,-124.12,10.0,6.0,0,0,,10.0,29.630905,,,TRUE,TRUE,,,,,,,SCT,7000,BKN,8000,OVC,10000,,,VFR,,,,,,,,,,,,SPECI,16.0
K6S2 050355Z AUTO 00000KT 10SM FEW055 SCT075 OVC090 10/07 A2965 RMK AO2,K6S2,2023-02-05T03:55:00Z,43.98,-124.12,10.0,7.0,0,0,,10.0,29.648623,,,TRUE,TRUE,,,,,,,FEW,5500,SCT,7500,OVC,9000,,,VFR,,,,,,,,,,,,METAR,16.0
K6S2 050335Z AUTO 00000KT 10SM FEW065 OVC095 09/07 A2966 RMK AO2,K6S2,2023-02-05T03:35:00Z,43.98,-124.12,9.0,7.0,0,0,,10.0,29.660433,,,TRUE,TRUE,,,,,,,FEW,6500,OVC,9500,,,,,VFR,,,,,,,,,,,,SPECI,16.0
K6S2 050315Z AUTO 00000KT 10SM OVC090 10/07 A2969 RMK AO2,K6S2,2023-02-05T03:15:00Z,43.98,-124.12,10.0,7.0,0,0,,10.0,29.68996,,,TRUE,TRUE,,,,,,,OVC,9000,,,,,,,VFR,,,,,,,,,,,,METAR,16.0
K6S2 050255Z AUTO 00000KT 10SM FEW075 BKN090 BKN120 10/07 A2969 RMK AO2,K6S2,2023-02-05T02:55:00Z,43.98,-124.12,10.0,7.0,0,0,,10.0,29.68996,,,TRUE,TRUE,,,,,,,FEW,7500,BKN,9000,BKN,12000,,,VFR,,,,,,,,,,,,METAR,16.0
K6S2 050235Z AUTO 00000KT 10SM FEW050 FEW065 BKN120 11/06 A2969 RMK AO2,K6S2,2023-02-05T02:35:00Z,43.98,-124.12,11.0,6.0,0,0,,10.0,29.68996,,,TRUE,TRUE,,,,,,,FEW,5000,FEW,6500,BKN,12000,,,VFR,,,,,,,,,,,,METAR,16.0
K6S2 050215Z AUTO 00000KT 10SM FEW050 FEW075 BKN120 11/06 A2970 RMK AO2,K6S2,2023-02-05T02:15:00Z,43.98,-124.12,11.0,6.0,0,0,,10.0,29.698818,,,TRUE,TRUE,,,,,,,FEW,5000,FEW,7500,BKN,12000,,,VFR,,,,,,,,,,,,METAR,16.0
K6S2 050155Z AUTO VRB04KT 10SM FEW070 FEW095 FEW120 11/06 A2971 RMK AO2,K6S2,2023-02-05T01:55:00Z,43.98,-124.12,11.0,6.0,0,4,,10.0,29.71063,,,TRUE,TRUE,,,,,,,FEW,7000,FEW,9500,FEW,12000,,,VFR,,,,,,,,,,,,SPECI,16.0
K6S2 050135Z AUTO VRB05KT 10SM BKN120 12/05 A2972 RMK AO2,K6S2,2023-02-05T01:35:00Z,43.98,-124.12,12.0,5.0,0,5,,10.0,29.719488,,,TRUE,TRUE,,,,,,,BKN,12000,,,,,,,VFR,,,,,,,,,,,,METAR,16.0
K6S2 050115Z AUTO VRB03KT 10SM BKN120 12/05 A2973 RMK AO2,K6S2,2023-02-05T01:15:00Z,43.98,-124.12,12.0,5.0,0,3,,10.0,29.731298,,,TRUE,TRUE,,,,,,,BKN,12000,,,,,,,VFR,,,,,,,,,,,,SPECI,16.0
K6S2 050055Z AUTO VRB04KT 10SM BKN120 13/05 A2974 RMK AO2,K6S2,2023-02-05T00:55:00Z,43.98,-124.12,13.0,5.0,0,4,,10.0,29.740158,,,TRUE,TRUE,,,,,,,BKN,12000,,,,,,,VFR,,,,,,,,,,,,SPECI,16.0
K6S2 050035Z AUTO VRB04KT 10SM BKN110 13/05 A2974 RMK AO2,K6S2,2023-02-05T00:35:00Z,43.98,-124.12,13.0,5.0,0,4,,10.0,29.740158,,,TRUE,TRUE,,,,,,,BKN,11000,,,,,,,VFR,,,,,,,,,,,,SPECI,16.0
K6S2 050015Z AUTO VRB03KT 10SM BKN110 13/05 A2975 RMK AO2,K6S2,2023-02-05T00:15:00Z,43.98,-124.12,13.0,5.0,0,3,,10.0,29.749016,,,TRUE,TRUE,,,,,,,BKN,11000,,,,,,,VFR,,,,,,,,,,,,SPECI,16.0
K6S2 042355Z AUTO VRB05G10KT 10SM BKN100 13/04 A2977 RMK AO2,K6S2,2023-02-04T23:55:00Z,43.98,-124.12,13.0,4.0,0,5,10,10.0,29.769686,,,TRUE,TRUE,,,,,,,BKN,10000,,,,,,,VFR,,,,,,,,,,,,METAR,16.0
K6S2 042335Z AUTO VRB05KT 10SM FEW070 SCT100 14/05 A2979 RMK AO2,K6S2,2023-02-04T23:35:00Z,43.98,-124.12,14.0,5.0,0,5,,10.0,29.790354,,,TRUE,TRUE,,,,,,,FEW,7000,SCT,10000,,,,,VFR,,,,,,,,,,,,METAR,16.0
K6S2 042315Z AUTO 15007G16KT 130V200 10SM FEW060 SCT090 14/04 A2981 RMK AO2,K6S2,2023-02-04T23:15:00Z,43.98,-124.12,14.0,4.0,150,7,16,10.0,29.811024,,,TRUE,TRUE,,,,,,,FEW,6000,SCT,9000,,,,,VFR,,,,,,,,,,,,METAR,16.0
K6S2 042255Z AUTO VRB04KT 10SM SCT100 13/04 A2981 RMK AO2,K6S2,2023-02-04T22:55:00Z,43.98,-124.12,13.0,4.0,0,4,,10.0,29.811024,,,TRUE,TRUE,,,,,,,SCT,10000,,,,,,,VFR,,,,,,,,,,,,METAR,16.0
K6S2 042235Z AUTO VRB03KT 10SM SCT100 12/06 A2981 RMK AO2,K6S2,2023-02-04T22:35:00Z,43.98,-124.12,12.0,6.0,0,3,,10.0,29.811024,,,TRUE,TRUE,,,,,,,SCT,10000,,,,,,,VFR,,,,,,,,,,,,METAR,16.0
K6S2 042215Z AUTO 00000KT 10SM CLR 11/09 A2983 RMK AO2,K6S2,2023-02-04T22:15:00Z,43.98,-124.12,11.0,9.0,0,0,,10.0,29.828741,,,TRUE,TRUE,,,,,,,CLR,,,,,,,,VFR,,,,,,,,,,,,METAR,16.0
K6S2 042155Z AUTO 00000KT 10SM BKN095 12/08 A2983 RMK AO2,K6S2,2023-02-04T21:55:00Z,43.98,-124.12,12.0,8.0,0,0,,10.0,29.828741,,,TRUE,TRUE,,,,,,,BKN,9500,,,,,,,VFR,,,,,,,,,,,,METAR,16.0
K6S2 042135Z AUTO 00000KT 10SM BKN095 BKN110 12/08 A2985 RMK AO2,K6S2,2023-02-04T21:35:00Z,43.98,-124.12,12.0,8.0,0,0,,10.0,29.84941,,,TRUE,TRUE,,,,,,,BKN,9500,BKN,11000,,,,,VFR,,,,,,,,,,,,SPECI,16.0
K6S2 042115Z AUTO 00000KT 10SM FEW060 SCT075 12/07 A2987 RMK AO2,K6S2,2023-02-04T21:15:00Z,43.98,-124.12,12.0,7.0,0,0,,10.0,29.870079,,,TRUE,TRUE,,,,,,,FEW,6000,SCT,7500,,,,,VFR,,,,,,,,,,,,METAR,16.0
K6S2 042035Z AUTO 00000KT 10SM CLR 13/06 A2989 RMK AO2,K6S2,2023-02-04T20:35:00Z,43.98,-124.12,13.0,6.0,0,0,,10.0,29.890747,,,TRUE,TRUE,,,,,,,CLR,,,,,,,,VFR,,,,,,,,,,,,SPECI,16.0
K6S2 042015Z AUTO 00000KT 10SM FEW055 FEW070 SCT090 12/07 A2990 RMK AO2,K6S2,2023-02-04T20:15:00Z,43.98,-124.12,12.0,7.0,0,0,,10.0,29.899607,,,TRUE,TRUE,,,,,,,FEW,5500,FEW,7000,SCT,9000,,,VFR,,,,,,,,,,,,METAR,16.0
K6S2 041955Z AUTO VRB03KT 10SM FEW080 FEW100 13/07 A2991 RMK AO2,K6S2,2023-02-04T19:55:00Z,43.98,-124.12,13.0,7.0,0,3,,10.0,29.911417,,,TRUE,TRUE,,,,,,,FEW,8000,FEW,10000,,,,,VFR,,,,,,,,,,,,SPECI,16.0
K6S2 041935Z AUTO VRB04KT 10SM CLR 13/07 A2993 RMK AO2,K6S2,2023-02-04T19:35:00Z,43.98,-124.12,13.0,7.0,0,4,,10.0,29.929134,,,TRUE,TRUE,,,,,,,CLR,,,,,,,,VFR,,,,,,,,,,,,METAR,16.0
K6S2 041915Z AUTO VRB03KT 10SM FEW110 13/07 A2994 RMK AO2,K6S2,2023-02-04T19:15:00Z,43.98,-124.12,13.0,7.0,0,3,,10.0,29.940945,,,TRUE,TRUE,,,,,,,FEW,11000,,,,,,,VFR,,,,,,,,,,,,SPECI,16.0
K6S2 041855Z AUTO VRB04KT 10SM BKN110 13/07 A2995 RMK AO2,K6S2,2023-02-04T18:55:00Z,43.98,-124.12,13.0,7.0,0,4,,10.0,29.949802,,,TRUE,TRUE,,,,,,,BKN,11000,,,,,,,VFR,,,,,,,,,,,,METAR,16.0
K6S2 041835Z AUTO VRB04KT 10SM OVC110 13/07 A2995 RMK AO2,K6S2,2023-02-04T18:35:00Z,43.98,-124.12,13.0,7.0,0,4,,10.0,29.949802,,,TRUE,TRUE,,,,,,,OVC,11000,,,,,,,VFR,,,,,,,,,,,,SPECI,16.0
K6S2 041815Z AUTO VRB04KT 10SM OVC110 12/08 A2996 RMK AO2,K6S2,2023-02-04T18:15:00Z,43.98,-124.12,12.0,8.0,0,4,,10.0,29.958662,,,TRUE,TRUE,,,,,,,OVC,11000,,,,,,,VFR,,,,,,,,,,,,SPECI,16.0
K6S2 041755Z AUTO VRB03KT 10SM OVC100 11/08 A2997 RMK AO2,K6S2,2023-02-04T17:55:00Z,43.98,-124.12,11.0,8.0,0,3,,10.0,29.970472,,,TRUE,TRUE,,,,,,,OVC,10000,,,,,,,VFR,,,,,,,,,,,,METAR,16.0
K6S2 041735Z AUTO 00000KT 10SM OVC100 10/08 A2998 RMK AO2,K6S2,2023-02-04T17:35:00Z,43.98,-124.12,10.0,8.0,0,0,,10.0,29.97933,,,TRUE,TRUE,,,,,,,OVC,10000,,,,,,,VFR,,,,,,,,,,,,SPECI,16.0
K6S2 041715Z AUTO 00000KT 10SM BKN100 09/09 A2998 RMK AO2,K6S2,2023-02-04T17:15:00Z,43.98,-124.12,9.0,9.0,0,0,,10.0,29.97933,,,TRUE,TRUE,,,,,,,BKN,10000,,,,,,,VFR,,,,,,,,,,,,SPECI,16.0
K6S2 041655Z AUTO 00000KT 10SM BKN100 09/09 A2998 RMK AO2,K6S2,2023-02-04T16:55:00Z,43.98,-124.12,9.0,9.0,0,0,,10.0,29.97933,,,TRUE,TRUE,,,,,,,BKN,10000,,,,,,,VFR,,,,,,,,,,,,METAR,16.0
K6S2 041635Z AUTO 00000KT 10SM OVC090 08/08 A2998 RMK AO2,K6S2,2023-02-04T16:35:00Z,43.98,-124.12,8.0,8.0,0,0,,10.0,29.97933,,,TRUE,TRUE,,,,,,,OVC,9000,,,,,,,VFR,,,,,,,,,,,,METAR,16.0
K6S2 041615Z AUTO 00000KT 10SM FEW045 SCT065 OVC085 08/08 A3000 RMK AO2,K6S2,2023-02-04T16:15:00Z,43.98,-124.12,8.0,8.0,0,0,,10.0,30.0,,,TRUE,TRUE,,,,,,,FEW,4500,SCT,6500,OVC,8500,,,VFR,,,,,,,,,,,,METAR,16.0
K6S2 041555Z AUTO 11004KT 10SM -RA FEW042 SCT060 OVC070 08/08 A2999 RMK AO2,K6S2,2023-02-04T15:55:00Z,43.98,-124.12,8.0,8.0,110,4,,10.0,29.991142,,,TRUE,TRUE,,,,,,-RA,FEW,4200,SCT,6000,OVC,7000,,,VFR,,,,,,,,,,,,METAR,16.0
K6S2 041535Z AUTO 00000KT 10SM FEW044 SCT070 BKN100 08/08 A3000 RMK AO2,K6S2,2023-02-04T15:35:00Z,43.98,-124.12,8.0,8.0,0,0,,10.0,30.0,,,TRUE,TRUE,,,,,,,FEW,4400,SCT,7000,BKN,10000,,,VFR,,,,,,,,,,,,SPECI,16.0
K6S2 041515Z AUTO 00000KT 10SM SCT075 OVC110 09/08 A3000 RMK AO2,K6S2,2023-02-04T15:15:00Z,43.98,-124.12,9.0,8.0,0,0,,10.0,30.0,,,TRUE,TRUE,,,,,,,SCT,7500,OVC,11000,,,,,VFR,,,,,,,,,,,,SPECI,16.0
K6S2 041455Z AUTO 00000KT 10SM OVC075 09/08 A3000 RMK AO2,K6S2,2023-02-04T14:55:00Z,43.98,-124.12,9.0,8.0,0,0,,10.0,30.0,,,TRUE,TRUE,,,,,,,OVC,7500,,,,,,,VFR,,,,,,,,,,,,METAR,16.0
K6S2 041435Z AUTO 00000KT 10SM FEW055 BKN075 OVC120 08/08 A3001 RMK AO2,K6S2,2023-02-04T14:35:00Z,43.98,-124.12,8.0,8.0,0,0,,10.0,30.008858,,,TRUE,TRUE,,,,,,,FEW,5500,BKN,7500,OVC,12000,,,VFR,,,,,,,,,,,,SPECI,16.0
K6S2 041415Z AUTO 00000KT 10SM FEW065 SCT100 BKN120 08/08 A3001 RMK AO2,K6S2,2023-02-04T14:15:00Z,43.98,-124.12,8.0,8.0,0,0,,10.0,30.008858,,,TRUE,TRUE,,,,,,,FEW,6500,SCT,10000,BKN,12000,,,VFR,,,,,,,,,,,,SPECI,16.0
K6S2 041355Z AUTO 00000KT 10SM SCT100 BKN120 08/08 A3002 RMK AO2,K6S2,2023-02-04T13:55:00Z,43.98,-124.12,8.0,8.0,0,0,,10.0,30.02067,,,TRUE,TRUE,,,,,,,SCT,10000,BKN,12000,,,,,VFR,,,,,,,,,,,,SPECI,16.0
K6S2 041335Z AUTO 00000KT 10SM BKN100 BKN120 08/08 A3002 RMK AO2,K6S2,2023-02-04T13:35:00Z,43.98,-124.12,8.0,8.0,0,0,,10.0,30.02067,,,TRUE,TRUE,,,,,,,BKN,10000,BKN,12000,,,,,VFR,,,,,,,,,,,,SPECI,16.0
K6S2 041315Z AUTO 00000KT 10SM FEW070 SCT095 OVC110 08/08 A3002 RMK AO2,K6S2,2023-02-04T13:15:00Z,43.98,-124.12,8.0,8.0,0,0,,10.0,30.02067,,,TRUE,TRUE,,,,,,,FEW,7000,SCT,9500,OVC,11000,,,VFR,,,,,,,,,,,,METAR,16.0
K6S2 041255Z AUTO 00000KT 10SM FEW060 OVC110 08/08 A3003 RMK AO2,K6S2,2023-02-04T12:55:00Z,43.98,-124.12,8.0,8.0,0,0,,10.0,30.029528,,,TRUE,TRUE,,,,,,,FEW,6000,OVC,11000,,,,,VFR,,,,,,,,,,,,METAR,16.0
K6S2 041235Z AUTO 00000KT 10SM SCT060 OVC120 07/07 A3003 RMK AO2,K6S2,2023-02-04T12:35:00Z,43.98,-124.12,7.0,7.0,0,0,,10.0,30.029528,,,TRUE,TRUE,,,,,,,SCT,6000,OVC,12000,,,,,VFR,,,,,,,,,,,,METAR,16.0
K6S2 041215Z AUTO 00000KT 10SM BKN060 BKN120 07/07 A3005 RMK AO2,K6S2,2023-02-04T12:15:00Z,43.98,-124.12,7.0,7.0,0,0,,10.0,30.050198,,,TRUE,TRUE,,,,,,,BKN,6000,BKN,12000,,,,,VFR,,,,,,,,,,,,METAR,16.0
K6S2 041155Z AUTO 00000KT 10SM OVC060 08/08 A3005 RMK AO2,K6S2,2023-02-04T11:55:00Z,43.98,-124.12,8.0,8.0,0,0,,10.0,30.050198,,,TRUE,TRUE,,,,,,,OVC,6000,,,,,,,VFR,,,,,,,,,,,,METAR,16.0
K6S2 041135Z AUTO 00000KT 10SM OVC060 08/08 A3006 RMK AO2,K6S2,2023-02-04T11:35:00Z,43.98,-124.12,8.0,8.0,0,0,,10.0,30.059055,,,TRUE,TRUE,,,,,,,OVC,6000,,,,,,,VFR,,,,,,,,,,,,SPECI,16.0
K6S2 041115Z AUTO 00000KT 10SM SCT048 OVC060 08/08 A3006 RMK AO2,K6S2,2023-02-04T11:15:00Z,43.98,-124.12,8.0,8.0,0,0,,10.0,30.059055,,,TRUE,TRUE,,,,,,,SCT,4800,OVC,6000,,,,,VFR,,,,,,,,,,,,METAR,16.0
K6S2 041055Z AUTO 00000KT 10SM BKN045 OVC065 08/08 A3006 RMK AO2,K6S2,2023-02-04T10:55:00Z,43.98,-124.12,8.0,8.0,0,0,,10.0,30.059055,,,TRUE,TRUE,,,,,,,BKN,4500,OVC,6500,,,,,VFR,,,,,,,,,,,,METAR,16.0
K6S2 041035Z AUTO 00000KT 10SM SCT035 BKN043 OVC065 09/09 A3007 RMK AO2,K6S2,2023-02-04T10:35:00Z,43.98,-124.12,9.0,9.0,0,0,,10.0,30.070866,,,TRUE,TRUE,,,,,,,SCT,3500,BKN,4300,OVC,6500,,,VFR,,,,,,,,,,,,SPECI,16.0
K6S2 041015Z AUTO 00000KT 10SM UP OVC034 09/09 A3007 RMK AO2,K6S2,2023-02-04T10:15:00Z,43.98,-124.12,9.0,9.0,0,0,,10.0,30.070866,,,TRUE,TRUE,,,,,,UP,OVC,3400,,,,,,,VFR,,,,,,,,,,,,METAR,16.0
K6S2 040955Z AUTO 00000KT 10SM OVC034 09/09 A3007 RMK AO2,K6S2,2023-02-04T09:55:00Z,43.98,-124.12,9.0,9.0,0,0,,10.0,30.070866,,,TRUE,TRUE,,,,,,,OVC,3400,,,,,,,VFR,,,,,,,,,,,,METAR,16.0
K6S2 040935Z AUTO 00000KT 10SM FEW018 OVC033 09/09 A3008 RMK AO2,K6S2,2023-02-04T09:35:00Z,43.98,-124.12,9.0,9.0,0,0,,10.0,30.079725,,,TRUE,TRUE,,,,,,,FEW,1800,OVC,3300,,,,,VFR,,,,,,,,,,,,SPECI,16.0
K6S2 040915Z AUTO 00000KT 10SM BKN035 BKN041 OVC055 09/09 A3008 RMK AO2,K6S2,2023-02-04T09:15:00Z,43.98,-124.12,9.0,9.0,0,0,,10.0,30.079725,,,TRUE,TRUE,,,,,,,BKN,3500,BKN,4100,OVC,5500,,,VFR,,,,,,,,,,,,METAR,16.0
K6S2 040855Z AUTO 00000KT 10SM BKN034 OVC042 09/09 A3009 RMK AO2 P0001,K6S2,2023-02-04T08:55:00Z,43.98,-124.12,9.0,9.0,0,0,,10.0,30.088583,,,TRUE,TRUE,,,,,,,BKN,3400,OVC,4200,,,,,VFR,,,,,,0.01,,,,,,METAR,16.0
K6S2 040835Z AUTO 00000KT 10SM SCT033 BKN041 OVC047 09/09 A3009 RMK AO2,K6S2,2023-02-04T08:35:00Z,43.98,-124.12,9.0,9.0,0,0,,10.0,30.088583,,,TRUE,TRUE,,,,,,,SCT,3300,BKN,4100,OVC,4700,,,VFR,,,,,,,,,,,,SPECI,16.0
K6S2 040815Z AUTO 00000KT 5SM -RA BR OVC032 09/09 A3010 RMK AO2,K6S2,2023-02-04T08:15:00Z,43.98,-124.12,9.0,9.0,0,0,,5.0,30.100393,,,TRUE,TRUE,,,,,,-RA BR,OVC,3200,,,,,,,MVFR,,,,,,,,,,,,METAR,16.0
K6S2 040755Z AUTO 00000KT 8SM -RA FEW013 SCT027 BKN033 09/09 A3009 RMK AO2,K6S2,2023-02-04T07:55:00Z,43.98,-124.12,9.0,9.0,0,0,,8.0,30.088583,,,TRUE,TRUE,,,,,,-RA,FEW,1300,SCT,2700,BKN,3300,,,VFR,,,,,,,,,,,,METAR,16.0
K6S2 040735Z AUTO 00000KT 9SM -RA FEW011 SCT024 BKN033 09/09 A3010 RMK AO2,K6S2,2023-02-04T07:35:00Z,43.98,-124.12,9.0,9.0,0,0,,9.0,30.100393,,,TRUE,TRUE,,,,,,-RA,FEW,1100,SCT,2400,BKN,3300,,,VFR,,,,,,,,,,,,METAR,16.0
K6S2 040715Z AUTO 00000KT 10SM BKN033 BKN039 OVC047 09/09 A3010 RMK AO2,K6S2,2023-02-04T07:15:00Z,43.98,-124.12,9.0,9.0,0,0,,10.0,30.100393,,,TRUE,TRUE,,,,,,,BKN,3300,BKN,3900,OVC,4700,,,VFR,,,,,,,,,,,,METAR,16.0
K6S2 040655Z AUTO 00000KT 10SM SCT027 BKN037 OVC048 09/09 A3010 RMK AO2,K6S2,2023-02-04T06:55:00Z,43.98,-124.12,9.0,9.0,0,0,,10.0,30.100393,,,TRUE,TRUE,,,,,,,SCT,2700,BKN,3700,OVC,4800,,,VFR,,,,,,,,,,,,METAR,16.0
K6S2 040635Z AUTO 00000KT 10SM BKN027 OVC035 10/10 A3010 RMK AO2,K6S2,2023-02-04T06:35:00Z,43.98,-124.12,10.0,10.0,0,0,,10.0,30.100393,,,TRUE,TRUE,,,,,,,BKN,2700,OVC,3500,,,,,MVFR,,,,,,,,,,,,SPECI,16.0
K6S2 040615Z AUTO 00000KT 10SM FEW021 BKN028 OVC035 10/10 A3010 RMK AO2,K6S2,2023-02-04T06:15:00Z,43.98,-124.12,10.0,10.0,0,0,,10.0,30.100393,,,TRUE,TRUE,,,,,,,FEW,2100,BKN,2800,OVC,3500,,,MVFR,,,,,,,,,,,,METAR,16.0
K6S2 040555Z AUTO VRB03KT 4SM -RA BR BKN021 OVC027 10/10 A3010 RMK AO2 P0003,K6S2,2023-02-04T05:55:00Z,43.98,-124.12,10.0,10.0,0,3,,4.0,30.100393,,,TRUE,TRUE,,,,,,-RA BR,BKN,2100,OVC,2700,,,,,MVFR,,,,,,0.03,,,,,,METAR,16.0
K6S2 040535Z AUTO VRB04KT 5SM -RA BR BKN022 BKN026 OVC037 11/10 A3010 RMK AO2,K6S2,2023-02-04T05:35:00Z,43.98,-124.12,11.0,10.0,0,4,,5.0,30.100393,,,TRUE,TRUE,,,,,,-RA BR,BKN,2200,BKN,2600,OVC,3700,,,MVFR,,,,,,,,,,,,METAR,16.0
K6S2 040515Z AUTO VRB06KT 9SM -RA BKN024 BKN044 OVC060 11/10 A3010 RMK AO2,K6S2,2023-02-04T05:15:00Z,43.98,-124.12,11.0,10.0,0,6,,9.0,30.100393,,,TRUE,TRUE,,,,,,-RA,BKN,2400,BKN,4400,OVC,6000,,,MVFR,,,,,,,,,,,,SPECI,16.0
K6S2 040455Z AUTO 19007G14KT 7SM -RA FEW011 BKN022 OVC060 11/11 A3010 RMK AO2,K6S2,2023-02-04T04:55:00Z,43.98,-124.12,11.0,11.0,190,7,14,7.0,30.100393,,,TRUE,TRUE,,,,,,-RA,FEW,1100,BKN,2200,OVC,6000,,,MVFR,,,,,,,,,,,,METAR,16.0
K6S2 040435Z AUTO 19009G16KT 6SM BR FEW009 BKN014 OVC060 11/11 A3010 RMK AO2,K6S2,2023-02-04T04:35:00Z,43.98,-124.12,11.0,11.0,190,9,16,6.0,30.100393,,,TRUE,TRUE,,,,,,BR,FEW,900,BKN,1400,OVC,6000,,,MVFR,,,,,,,,,,,,METAR,16.0
K6S2 040415Z AUTO 19009G18KT 140V220 7SM BKN015 BKN022 OVC045 11/11 A3010 RMK AO2,K6S2,2023-02-04T04:15:00Z,43.98,-124.12,11.0,11.0,190,9,18,7.0,30.100393,,,TRUE,TRUE,,,,,,,BKN,1500,BKN,2200,OVC,4500,,,MVFR,,,,,,,,,,,,METAR,16.0
K6S2 040355Z AUTO 19010G19KT 130V210 9SM SCT015 BKN022 OVC055 11/11 A3010 RMK AO2,K6S2,2023-02-04T03:55:00Z,43.98,-124.12,11.0,11.0,190,10,19,9.0,30.100393,,,TRUE,TRUE,,,,,,,SCT,1500,BKN,2200,OVC,5500,,,MVFR,,,,,,,,,,,,METAR,16.0
K6S2 040335Z AUTO 19010G17KT 170V240 8SM SCT015 BKN022 OVC055 11/11 A3010 RMK AO2,K6S2,2023-02-04T03:35:00Z,43.98,-124.12,11.0,11.0,190,10,17,8.0,30.100393,,,TRUE,TRUE,,,,,,,SCT,1500,BKN,2200,OVC,5500,,,MVFR,,,,,,,,,,,,SPECI,16.0
K6S2 040315Z AUTO 19011G20KT 8SM SCT017 BKN026 OVC055 11/11 A3010 RMK AO2,K6S2,2023-02-04T03:15:00Z,43.98,-124.12,11.0,11.0,190,11,20,8.0,30.100393,,,TRUE,TRUE,,,,,,,SCT,1700,BKN,2600,OVC,5500,,,MVFR,,,,,,,,,,,,METAR,16.0
K6S2 040255Z AUTO 19013G19KT 9SM FEW014 SCT019 BKN055 11/11 A3010 RMK AO2,K6S2,2023-02-04T02:55:00Z,43.98,-124.12,11.0,11.0,190,13,19,9.0,30.100393,,,TRUE,TRUE,,,,,,,FEW,1400,SCT,1900,BKN,5500,,,VFR,,,,,,,,,,,,METAR,16.0
K6S2 040235Z AUTO 18011G20KT 150V210 7SM BKN017 BKN022 OVC065 11/11 A3010 RMK AO2,K6S2,2023-02-04T02:35:00Z,43.98,-124.12,11.0,11.0,180,11,20,7.0,30.100393,,,TRUE,TRUE,,,,,,,BKN,1700,BKN,2200,OVC,6500,,,MVFR,,,,,,,,,,,,SPECI,16.0
K6S2 040215Z AUTO 20013G20KT 7SM BKN014 OVC019 11/11 A3010 RMK AO2,K6S2,2023-02-04T02:15:00Z,43.98,-124.12,11.0,11.0,200,13,20,7.0,30.100393,,,TRUE,TRUE,,,,,,,BKN,1400,OVC,1900,,,,,MVFR,,,,,,,,,,,,SPECI,16.0
K6S2 040155Z AUTO 20010G21KT 8SM BKN013 OVC018 11/11 A3010 RMK AO2,K6S2,2023-02-04T01:55:00Z,43.98,-124.12,11.0,11.0,200,10,21,8.0,30.100393,,,TRUE,TRUE,,,,,,,BKN,1300,OVC,1800,,,,,MVFR,,,,,,,,,,,,METAR,16.0
K6S2 040135Z AUTO 19011G19KT 6SM BR SCT013 BKN021 OVC110 11/11 A3009 RMK AO2,K6S2,2023-02-04T01:35:00Z,43.98,-124.12,11.0,11.0,190,11,19,6.0,30.088583,,,TRUE,TRUE,,,,,,BR,SCT,1300,BKN,2100,OVC,11000,,,MVFR,,,,,,,,,,,,METAR,16.0
K6S2 040115Z AUTO 19010G21KT 5SM BR BKN009 BKN015 OVC120 11/11 A3009 RMK AO2,K6S2,2023-02-04T01:15:00Z,43.98,-124.12,11.0,11.0,190,10,21,5.0,30.088583,,,TRUE,TRUE,,,,,,BR,BKN,900,BKN,1500,OVC,12000,,,IFR,,,,,,,,,,,,METAR,16.0
K6S2 040055Z AUTO 20012G21KT 6SM BR BKN011 BKN020 OVC049 11/11 A3009 RMK AO2 P0001,K6S2,2023-02-04T00:55:00Z,43.98,-124.12,11.0,11.0,200,12,21,6.0,30.088583,,,TRUE,TRUE,,,,,,BR,BKN,1100,BKN,2000,OVC,4900,,,MVFR,,,,,,0.01,,,,,,METAR,16.0
K6S2 040035Z AUTO 19010KT 9SM SCT010 BKN042 OVC050 10/10 A3009 RMK AO2,K6S2,2023-02-04T00:35:00Z,43.98,-124.12,10.0,10.0,190,10,,9.0,30.088583,,,TRUE,TRUE,,,,,,,SCT,1000,BKN,4200,OVC,5000,,,VFR,,,,,,,,,,,,SPECI,16.0
K6S2 040015Z AUTO 18013G25KT 4SM -RA BR FEW010 SCT042 BKN055 10/10 A3009 RMK AO2,K6S2,2023-02-04T00:15:00Z,43.98,-124.12,10.0,10.0,180,13,25,4.0,30.088583,,,TRUE,TRUE,,,,,,-RA BR,FEW,1000,SCT,4200,BKN,5500,,,MVFR,,,,,,,,,,,,SPECI,16.0
K6S2 032355Z AUTO 20014G25KT 9SM SCT014 BKN070 11/10 A3009 RMK AO2,K6S2,2023-02-03T23:55:00Z,43.98,-124.12,11.0,10.0,200,14,25,9.0,30.088583,,,TRUE,TRUE,,,,,,,SCT,1400,BKN,7000,,,,,VFR,,,,,,,,,,,,METAR,16.0
K6S2 032335Z AUTO 20013G25KT 7SM SCT013 12/11 A3008 RMK AO2,K6S2,2023-02-03T23:35:00Z,43.98,-124.12,12.0,11.0,200,13,25,7.0,30.079725,,,TRUE,TRUE,,,,,,,SCT,1300,,,,,,,VFR,,,,,,,,,,,,SPECI,16.0
K6S2 032315Z AUTO 20014G25KT 8SM FEW019 FEW048 SCT080 12/11 A3008 RMK AO2,K6S2,2023-02-03T23:15:00Z,43.98,-124.12,12.0,11.0,200,14,25,8.0,30.079725,,,TRUE,TRUE,,,,,,,FEW,1900,FEW,4800,SCT,8000,,,VFR,,,,,,,,,,,,METAR,16.0
K6S2 032255Z AUTO 20017G24KT 7SM FEW012 SCT038 BKN045 12/11 A3007 RMK AO2,K6S2,2023-02-03T22:55:00Z,43.98,-124.12,12.0,11.0,200,17,24,7.0,30.070866,,,TRUE,TRUE,,,,,,,FEW,1200,SCT,3800,BKN,4500,,,VFR,,,,,,,,,,,,METAR,16.0
K6S2 032235Z AUTO 19016G24KT 8SM SCT014 BKN045 OVC085 12/11 A3007 RMK AO2,K6S2,2023-02-03T22:35:00Z,43.98,-124.12,12.0,11.0,190,16,24,8.0,30.070866,,,TRUE,TRUE,,,,,,,SCT,1400,BKN,4500,OVC,8500,,,VFR,,,,,,,,,,,,METAR,16.0
K6S2 032215Z AUTO 20018G30KT 9SM SCT014 BKN060 BKN090 12/11 A3007 RMK AO2,K6S2,2023-02-03T22:15:00Z,43.98,-124.12,12.0,11.0,200,18,30,9.0,30.070866,,,TRUE,TRUE,,,,,,,SCT,1400,BKN,6000,BKN,9000,,,VFR,,,,,,,,,,,,METAR,16.0
K6S2 032155Z AUTO 20016G27KT 9SM FEW013 SCT050 SCT095 12/11 A3006 RMK AO2,K6S2,2023-02-03T21:55:00Z,43.98,-124.12,12.0,11.0,200,16,27,9.0,30.059055,,,TRUE,TRUE,,,,,,,FEW,1300,SCT,5000,SCT,9500,,,VFR,,,,,,,,,,,,METAR,16.0
K6S2 032135Z AUTO 20017G26KT 180V250 7SM SCT012 SCT018 SCT095 12/11 A3006 RMK AO2,K6S2,2023-02-03T21:35:00Z,43.98,-124.12,12.0,11.0,200,17,26,7.0,30.059055,,,TRUE,TRUE,,,,,,,SCT,1200,SCT,1800,SCT,9500,,,VFR,,,,,,,,,,,,SPECI,16.0
K6S2 032115Z AUTO 20014G32KT 8SM FEW015 SCT060 SCT100 12/11 A3005 RMK AO2,K6S2,2023-02-03T21:15:00Z,43.98,-124.12,12.0,11.0,200,14,32,8.0,30.050198,,,TRUE,TRUE,,,,,,,FEW,1500,SCT,6000,SCT,10000,,,VFR,,,,,,,,,,,,SPECI,16.0
K6S2 032055Z AUTO 20016G33KT 8SM SCT015 12/11 A3005 RMK AO2,K6S2,2023-02-03T20:55:00Z,43.98,-124.12,12.0,11.0,200,16,33,8.0,30.050198,,,TRUE,TRUE,,,,,,,SCT,1500,,,,,,,VFR,,,,,,,,,,,,METAR,16.0
K6S2 032035Z AUTO 19014G27KT 9SM FEW016 FEW050 SCT070 12/10 A3005 RMK AO2,K6S2,2023-02-03T20:35:00Z,43.98,-124.12,12.0,10.0,190,14,27,9.0,30.050198,,,TRUE,TRUE,,,,,,,FEW,1600,FEW,5000,SCT,7000,,,VFR,,,,,,,,,,,,METAR,16.0
K6S2 032015Z AUTO 20016G30KT 9SM SCT055 BKN070 OVC075 11/10 A3004 RMK AO2,K6S2,2023-02-03T20:15:00Z,43.98,-124.12,11.0,10.0,200,16,30,9.0,30.041338,,,TRUE,TRUE,,,,,,,SCT,5500,BKN,7000,OVC,7500,,,VFR,,,,,,,,,,,,SPECI,16.0
K6S2 031955Z AUTO 20014G27KT 9SM FEW013 FEW035 OVC050 11/10 A3004 RMK AO2,K6S2,2023-02-03T19:55:00Z,43.98,-124.12,11.0,10.0,200,14,27,9.0,30.041338,,,TRUE,TRUE,,,,,,,FEW,1300,FEW,3500,OVC,5000,,,VFR,,,,,,,,,,,,SPECI,16.0
K6S2 031935Z AUTO 20017G34KT 8SM FEW013 SCT036 BKN060 11/10 A3003 RMK AO2,K6S2,2023-02-03T19:35:00Z,43.98,-124.12,11.0,10.0,200,17,34,8.0,30.029528,,,TRUE,TRUE,,,,,,,FEW,1300,SCT,3600,BKN,6000,,,VFR,,,,,,,,,,,,METAR,16.0
K6S2 031915Z AUTO 19017G27KT 7SM FEW013 SCT026 BKN045 10/10 A3003 RMK AO2,K6S2,2023-02-03T19:15:00Z,43.98,-124.12,10.0,10.0,190,17,27,7.0,30.029528,,,TRUE,TRUE,,,,,,,FEW,1300,SCT,2600,BKN,4500,,,VFR,,,,,,,,,,,,SPECI,16.0
K6S2 031855Z AUTO 19017G29KT 5SM -RA BR SCT014 SCT027 BKN043 10/10 A3003 RMK AO2,K6S2,2023-02-03T18:55:00Z,43.98,-124.12,10.0,10.0,190,17,29,5.0,30.029528,,,TRUE,TRUE,,,,,,-RA BR,SCT,1400,SCT,2700,BKN,4300,,,MVFR,,,,,,,,,,,,METAR,16.0
K6S2 031835Z AUTO 19018G27KT 7SM SCT013 BKN026 BKN040 10/10 A3001 RMK AO2,K6S2,2023-02-03T18:35:00Z,43.98,-124.12,10.0,10.0,190,18,27,7.0,30.008858,,,TRUE,TRUE,,,,,,,SCT,1300,BKN,2600,BKN,4000,,,MVFR,,,,,,,,,,,,METAR,16.0
K6S2 031815Z AUTO 19018G32KT 7SM FEW010 BKN013 BKN020 10/10 A2999 RMK AO2,K6S2,2023-02-03T18:15:00Z,43.98,-124.12,10.0,10.0,190,18,32,7.0,29.991142,,,TRUE,TRUE,,,,,,,FEW,1000,BKN,1300,BKN,2000,,,MVFR,,,,,,,,,,,,SPECI,16.0
K6S2 031755Z AUTO 18014G29KT 150V210 10SM SCT014 BKN020 OVC042 10/10 A2998 RMK AO2 P0004,K6S2,2023-02-03T17:55:00Z,43.98,-124.12,10.0,10.0,180,14,29,10.0,29.97933,,,TRUE,TRUE,,,,,,,SCT,1400,BKN,2000,OVC,4200,,,MVFR,,,,,,0.04,,,,,,METAR,16.0
K6S2 031735Z AUTO 19013G23KT 2SM -RA BR SCT021 SCT026 BKN032 09/09 A2997 RMK AO2 VIS 1 1/2V5,K6S2,2023-02-03T17:35:00Z,43.98,-124.12,9.0,9.0,190,13,23,2.0,29.970472,,,TRUE,TRUE,,,,,,-RA BR,SCT,2100,SCT,2600,BKN,3200,,,IFR,,,,,,,,,,,,SPECI,16.0
K6S2 031715Z AUTO 17012G19KT 110V200 2SM -RA BR SCT031 BKN042 BKN047 10/09 A2995 RMK AO2,K6S2,2023-02-03T17:15:00Z,43.98,-124.12,10.0,9.0,170,12,19,2.0,29.949802,,,TRUE,TRUE,,,,,,-RA BR,SCT,3100,BKN,4200,BKN,4700,,,IFR,,,,,,,,,,,,METAR,16.0
K6S2 031655Z AUTO 16008G16KT 130V210 10SM BKN031 BKN041 BKN047 10/08 A2993 RMK AO2 P0001,K6S2,2023-02-03T16:55:00Z,43.98,-124.12,10.0,8.0,160,8,16,10.0,29.929134,,,TRUE,TRUE,,,,,,,BKN,3100,BKN,4100,BKN,4700,,,VFR,,,,,,0.01,,,,,,METAR,16.0
K6S2 031635Z AUTO 17008G23KT 110V230 4SM -RA BR SCT031 BKN037 BKN043 10/08 A2993 RMK AO2,K6S2,2023-02-03T16:35:00Z,43.98,-124.12,10.0,8.0,170,8,23,4.0,29.929134,,,TRUE,TRUE,,,,,,-RA BR,SCT,3100,BKN,3700,BKN,4300,,,MVFR,,,,,,,,,,,,SPECI,16.0
K6S2 031615Z AUTO 17013G26KT 130V220 6SM -RA HZ BKN038 11/06 A2991 RMK AO2,K6S2,2023-02-03T16:15:00Z,43.98,-124.12,11.0,6.0,170,13,26,6.0,29.911417,,,TRUE,TRUE,,,,,,-RA HZ,BKN,3800,,,,,,,VFR,,,,,,,,,,,,METAR,16.0
K6S2 031555Z AUTO 16011G21KT 130V190 9SM -RA OVC041 11/05 A2989 RMK AO2,K6S2,2023-02-03T15:55:00Z,43.98,-124.12,11.0,5.0,160,11,21,9.0,29.890747,,,TRUE,TRUE,,,,,,-RA,OVC,4100,,,,,,,VFR,,,,,,,,,,,,METAR,16.0
K6S2 031535Z AUTO 17011G26KT 100V200 10SM -RA BKN042 BKN048 OVC060 12/04 A2988 RMK AO2,K6S2,2023-02-03T15:35:00Z,43.98,-124.12,12.0,4.0,170,11,26,10.0,29.878937,,,TRUE,TRUE,,,,,,-RA,BKN,4200,BKN,4800,OVC,6000,,,VFR,,,,,,,,,,,,SPECI,16.0
K6S2 031515Z AUTO 18010G18KT 10SM -RA BKN044 OVC060 12/03 A2988 RMK AO2,K6S2,2023-02-03T15:15:00Z,43.98,-124.12,12.0,3.0,180,10,18,10.0,29.878937,,,TRUE,TRUE,,,,,,-RA,BKN,4400,OVC,6000,,,,,VFR,,,,,,,,,,,,METAR,16.0
K6S2 031455Z AUTO 16011G20KT 130V190 10SM BKN045 BKN055 OVC075 12/02 A2987 RMK AO2,K6S2,2023-02-03T14:55:00Z,43.98,-124.12,12.0,2.0,160,11,20,10.0,29.870079,,,TRUE,TRUE,,,,,,,BKN,4500,BKN,5500,OVC,7500,,,VFR,,,,,,,,,,,,METAR,16.0
K6S2 031435Z AUTO 16010G20KT 130V200 10SM SCT050 BKN060 OVC075 12/02 A2987 RMK AO2,K6S2,2023-02-03T14:35:00Z,43.98,-124.12,12.0,2.0,160,10,20,10.0,29.870079,,,TRUE,TRUE,,,,,,,SCT,5000,BKN,6000,OVC,7500,,,VFR,,,,,,,,,,,,METAR,16.0
K6S2 031415Z AUTO 16010G21KT 140V200 10SM FEW042 SCT070 OVC075 12/02 A2987 RMK AO2,K6S2,2023-02-03T14:15:00Z,43.98,-124.12,12.0,2.0,160,10,21,10.0,29.870079,,,TRUE,TRUE,,,,,,,FEW,4200,SCT,7000,OVC,7500,,,VFR,,,,,,,,,,,,METAR,16.0
K6S2 031355Z AUTO 16009G20KT 100V190 10SM BKN044 BKN075 BKN100 12/02 A2988 RMK AO2,K6S2,2023-02-03T13:55:00Z,43.98,-124.12,12.0,2.0,160,9,20,10.0,29.878937,,,TRUE,TRUE,,,,,,,BKN,4400,BKN,7500,BKN,10000,,,VFR,,,,,,,,,,,,METAR,16.0
K6S2 031335Z AUTO 16010G18KT 120V200 10SM BKN046 BKN055 OVC110 11/02 A2989 RMK AO2,K6S2,2023-02-03T13:35:00Z,43.98,-124.12,11.0,2.0,160,10,18,10.0,29.890747,,,TRUE,TRUE,,,,,,,BKN,4600,BKN,5500,OVC,11000,,,VFR,,,,,,,,,,,,METAR,16.0
K6S2 031315Z AUTO 16007G16KT 130V200 10SM SCT055 BKN075 OVC085 11/02 A2988 RMK AO2,K6S2,2023-02-03T13:15:00Z,43.98,-124.12,11.0,2.0,160,7,16,10.0,29.878937,,,TRUE,TRUE,,,,,,,SCT,5500,BKN,7500,OVC,8500,,,VFR,,,,,,,,,,,,METAR,16.0
K6S2 031255Z AUTO VRB06G12KT 10SM SCT060 BKN070 OVC085 10/03 A2987 RMK AO2,K6S2,2023-02-03T12:55:00Z,43.98,-124.12,10.0,3.0,0,6,12,10.0,29.870079,,,TRUE,TRUE,,,,,,,SCT,6000,BKN,7000,OVC,8500,,,VFR,,,,,,,,,,,,METAR,16.0
K6S2 031235Z AUTO 15007G13KT 110V180 10SM OVC065 10/04 A2989 RMK AO2,K6S2,2023-02-03T12:35:00Z,43.98,-124.12,10.0,4.0,150,7,13,10.0,29.890747,,,TRUE,TRUE,,,,,,,OVC,6500,,,,,,,VFR,,,,,,,,,,,,SPECI,16.0
K6S2 031215Z AUTO VRB05G15KT 10SM OVC070 10/04 A2989 RMK AO2,K6S2,2023-02-03T12:15:00Z,43.98,-124.12,10.0,4.0,0,5,15,10.0,29.890747,,,TRUE,TRUE,,,,,,,OVC,7000,,,,,,,VFR,,,,,,,,,,,,METAR,16.0
K6S2 031155Z AUTO VRB06KT 10SM FEW048 BKN065 OVC075 10/05 A2990 RMK AO2,K6S2,2023-02-03T11:55:00Z,43.98,-124.12,10.0,5.0,0,6,,10.0,29.899607,,,TRUE,TRUE,,,,,,,FEW,4800,BKN,6500,OVC,7500,,,VFR,,,,,,,,,,,,METAR,16.0
K6S2 031135Z AUTO 15008G17KT 120V180 10SM FEW013 SCT065 BKN075 10/06 A2990 RMK AO2,K6S2,2023-02-03T11:35:00Z,43.98,-124.12,10.0,6.0,150,8,17,10.0,29.899607,,,TRUE,TRUE,,,,,,,FEW,1300,SCT,6500,BKN,7500,,,VFR,,,,,,,,,,,,SPECI,16.0
K6S2 031115Z AUTO 19013G24KT 9SM FEW075 OVC090 10/06 A2990 RMK AO2,K6S2,2023-02-03T11:15:00Z,43.98,-124.12,10.0,6.0,190,13,24,9.0,29.899607,,,TRUE,TRUE,,,,,,,FEW,7500,OVC,9000,,,,,VFR,,,,,,,,,,,,SPECI,16.0
K6S2 031055Z AUTO 00000KT 10SM FEW075 OVC095 06/03 A2991 RMK AO2,K6S2,2023-02-03T10:55:00Z,43.98,-124.12,6.0,3.0,0,0,,10.0,29.911417,,,TRUE,TRUE,,,,,,,FEW,7500,OVC,9500,,,,,VFR,,,,,,,,,,,,METAR,16.0
K6S2 031035Z AUTO VRB03KT 10SM FEW055 SCT075 OVC090 06/03 A2990 RMK AO2,K6S2,2023-02-03T10:35:00Z,43.98,-124.12,6.0,3.0,0,3,,10.0,29.899607,,,TRUE,TRUE,,,,,,,FEW,5500,SCT,7500,OVC,9000,,,VFR,,,,,,,,,,,,METAR,16.0
K6S2 031015Z AUTO 11004KT 10SM OVC090 06/03 A2990 RMK AO2,K6S2,2023-02-03T10:15:00Z,43.98,-124.12,6.0,3.0,110,4,,10.0,29.899607,,,TRUE,TRUE,,,,,,,OVC,9000,,,,,,,VFR,,,,,,,,,,,,METAR,16.0
K6S2 030955Z AUTO VRB03KT 10SM OVC095 06/03 A2990 RMK AO2,K6S2,2023-02-03T09:55:00Z,43.98,-124.12,6.0,3.0,0,3,,10.0,29.899607,,,TRUE,TRUE,,,,,,,OVC,9500,,,,,,,VFR,,,,,,,,,,,,METAR,16.0
K6S2 030935Z AUTO VRB04G11KT 10SM OVC095 06/03 A2991 RMK AO2,K6S2,2023-02-03T09:35:00Z,43.98,-124.12,6.0,3.0,0,4,11,10.0,29.911417,,,TRUE,TRUE,,,,,,,OVC,9500,,,,,,,VFR,,,,,,,,,,,,METAR,16.0
K6S2 030915Z AUTO VRB03KT 10SM FEW050 BKN090 OVC120 06/03 A2991 RMK AO2,K6S2,2023-02-03T09:15:00Z,43.98,-124.12,6.0,3.0,0,3,,10.0,29.911417,,,TRUE,TRUE,,,,,,,FEW,5000,BKN,9000,OVC,12000,,,VFR,,,,,,,,,,,,METAR,16.0
K6S2 030855Z AUTO VRB04KT 10SM SCT095 BKN120 06/03 A2991 RMK AO2,K6S2,2023-02-03T08:55:00Z,43.98,-124.12,6.0,3.0,0,4,,10.0,29.911417,,,TRUE,TRUE,,,,,,,SCT,9500,BKN,12000,,,,,VFR,,,,,,,,,,,,METAR,16.0
K6S2 030835Z AUTO VRB03KT 10SM FEW095 06/03 A2991 RMK AO2,K6S2,2023-02-03T08:35:00Z,43.98,-124.12,6.0,3.0,0,3,,10.0,29.911417,,,TRUE,TRUE,,,,,,,FEW,9500,,,,,,,VFR,,,,,,,,,,,,SPECI,16.0
K6S2 030815Z AUTO VRB04KT 10SM CLR 06/03 A2991 RMK AO2,K6S2,2023-02-03T08:15:00Z,43.98,-124.12,6.0,3.0,0,4,,10.0,29.911417,,,TRUE,TRUE,,,,,,,CLR,,,,,,,,VFR,,,,,,,,,,,,METAR,16.0
K6S2 030755Z AUTO 00000KT 10SM FEW002 06/03 A2992 RMK AO2,K6S2,2023-02-03T07:55:00Z,43.98,-124.12,6.0,3.0,0,0,,10.0,29.920275,,,TRUE,TRUE,,,,,,,FEW,200,,,,,,,VFR,,,,,,,,,,,,SPECI,16.0
K6S2 030735Z AUTO VRB03KT 10SM OVC002 05/03 A2994 RMK AO2,K6S2,2023-02-03T07:35:00Z,43.98,-124.12,5.0,3.0,0,3,,10.0,29.940945,,,TRUE,TRUE,,,,,,,OVC,200,,,,,,,LIFR,,,,,,,,,,,,SPECI,16.0
K6S2 030715Z AUTO 00000KT 10SM BKN002 06/04 A2995 RMK AO2,K6S2,2023-02-03T07:15:00Z,43.98,-124.12,6.0,4.0,0,0,,10.0,29.949802,,,TRUE,TRUE,,,,,,,BKN,200,,,,,,,LIFR,,,,,,,,,,,,SPECI,16.0
K6S2 030655Z AUTO 00000KT 10SM FEW120 06/03 A2996 RMK AO2,K6S2,2023-02-03T06:55:00Z,43.98,-124.12,6.0,3.0,0,0,,10.0,29.958662,,,TRUE,TRUE,,,,,,,FEW,12000,,,,,,,VFR,,,,,,,,,,,,METAR,16.0
K6S2 030635Z AUTO 17003KT 10SM FEW120 07/03 A2993 RMK AO2,K6S2,2023-02-03T06:35:00Z,43.98,-124.12,7.0,3.0,170,3,,10.0,29.929134,,,TRUE,TRUE,,,,,,,FEW,12000,,,,,,,VFR,,,,,,,,,,,,SPECI,16.0
K6S2 030615Z AUTO 00000KT 10SM FEW100 08/03 A2992 RMK AO2,K6S2,2023-02-03T06:15:00Z,43.98,-124.12,8.0,3.0,0,0,,10.0,29.920275,,,TRUE,TRUE,,,,,,,FEW,10000,,,,,,,VFR,,,,,,,,,,,,SPECI,16.0
K6S2 030555Z AUTO VRB04KT 10SM BKN095 08/03 A2992 RMK AO2,K6S2,2023-02-03T05:55:00Z,43.98,-124.12,8.0,3.0,0,4,,10.0,29.920275,,,TRUE,TRUE,,,,,,,BKN,9500,,,,,,,VFR,,,,,,,,,,,,METAR,16.0
K6S2 030535Z AUTO VRB04KT 10SM OVC100 08/03 A2992 RMK AO2,K6S2,2023-02-03T05:35:00Z,43.98,-124.12,8.0,3.0,0,4,,10.0,29.920275,,,TRUE,TRUE,,,,,,,OVC,10000,,,,,,,VFR,,,,,,,,,,,,METAR,16.0
K6S2 030515Z AUTO VRB03KT 10SM BKN110 08/03 A2993 RMK AO2,K6S2,2023-02-03T05:15:00Z,43.98,-124.12,8.0,3.0,0,3,,10.0,29.929134,,,TRUE,TRUE,,,,,,,BKN,11000,,,,,,,VFR,,,,,,,,,,,,METAR,16.0
K6S2 030455Z AUTO 00000KT 10SM CLR 08/03 A2993 RMK AO2,K6S2,2023-02-03T04:55:00Z,43.98,-124.12,8.0,3.0,0,0,,10.0,29.929134,,,TRUE,TRUE,,,,,,,CLR,,,,,,,,VFR,,,,,,,,,,,,METAR,16.0
K6S2 030435Z AUTO VRB04KT 10SM CLR 08/03 A2993 RMK AO2,K6S2,2023-02-03T04:35:00Z,43.98,-124.12,8.0,3.0,0,4,,10.0,29.929134,,,TRUE,TRUE,,,,,,,CLR,,,,,,,,VFR,,,,,,,,,,,,METAR,16.0
K6S2 030415Z AUTO 00000KT 10SM CLR 08/04 A2994 RMK AO2,K6S2,2023-02-03T04:15:00Z,43.98,-124.12,8.0,4.0,0,0,,10.0,29.940945,,,TRUE,TRUE,,,,,,,CLR,,,,,,,,VFR,,,,,,,,,,,,METAR,16.0
K6S2 030355Z AUTO 00000KT 10SM CLR 09/03 A2995 RMK AO2,K6S2,2023-02-03T03:55:00Z,43.98,-124.12,9.0,3.0,0,0,,10.0,29.949802,,,TRUE,TRUE,,,,,,,CLR,,,,,,,,VFR,,,,,,,,,,,,METAR,16.0
K6S2 030335Z AUTO VRB05G13KT 10SM CLR 09/03 A2995 RMK AO2,K6S2,2023-02-03T03:35:00Z,43.98,-124.12,9.0,3.0,0,5,13,10.0,29.949802,,,TRUE,TRUE,,,,,,,CLR,,,,,,,,VFR,,,,,,,,,,,,SPECI,16.0
K6S2 030315Z AUTO VRB05KT 10SM CLR 09/03 A2996 RMK AO2,K6S2,2023-02-03T03:15:00Z,43.98,-124.12,9.0,3.0,0,5,,10.0,29.958662,,,TRUE,TRUE,,,,,,,CLR,,,,,,,,VFR,,,,,,,,,,,,METAR,16.0
K6S2 030255Z AUTO VRB03KT 10SM FEW120 09/03 A2997 RMK AO2,K6S2,2023-02-03T02:55:00Z,43.98,-124.12,9.0,3.0,0,3,,10.0,29.970472,,,TRUE,TRUE,,,,,,,FEW,12000,,,,,,,VFR,,,,,,,,,,,,METAR,16.0
K6S2 030235Z AUTO VRB04G10KT 10SM SCT120 09/03 A2997 RMK AO2,K6S2,2023-02-03T02:35:00Z,43.98,-124.12,9.0,3.0,0,4,10,10.0,29.970472,,,TRUE,TRUE,,,,,,,SCT,12000,,,,,,,VFR,,,,,,,,,,,,SPECI,16.0
K6S2 030215Z AUTO VRB05G11KT 10SM FEW120 10/03 A2998 RMK AO2,K6S2,2023-02-03T02:15:00Z,43.98,-124.12,10.0,3.0,0,5,11,10.0,29.97933,,,TRUE,TRUE,,,,,,,FEW,12000,,,,,,,VFR,,,,,,,,,,,,METAR,16.0
K6S2 030155Z AUTO 10007KT 050V140 10SM FEW120 10/02 A2998 RMK AO2,K6S2,2023-02-03T01:55:00Z,43.98,-124.12,10.0,2.0,100,7,,10.0,29.97933,,,TRUE,TRUE,,,,,,,FEW,12000,,,,,,,VFR,,,,,,,,,,,,METAR,16.0
K6S2 030135Z AUTO VRB04KT 10SM CLR 10/03 A2999 RMK AO2,K6S2,2023-02-03T01:35:00Z,43.98,-124.12,10.0,3.0,0,4,,10.0,29.991142,,,TRUE,TRUE,,,,,,,CLR,,,,,,,,VFR,,,,,,,,,,,,METAR,16.0
K6S2 030115Z AUTO VRB04KT 10SM CLR 10/03 A3000 RMK AO2,K6S2,2023-02-03T01:15:00Z,43.98,-124.12,10.0,3.0,0,4,,10.0,30.0,,,TRUE,TRUE,,,,,,,CLR,,,,,,,,VFR,,,,,,,,,,,,METAR,16.0
K6S2 030055Z AUTO VRB05KT 10SM CLR 09/03 A3001 RMK AO2,K6S2,2023-02-03T00:55:00Z,43.98,-124.12,9.0,3.0,0,5,,10.0,30.008858,,,TRUE,TRUE,,,,,,,CLR,,,,,,,,VFR,,,,,,,,,,,,METAR,16.0
K6S2 030035Z AUTO VRB04KT 10SM CLR 09/04 A3001 RMK AO2,K6S2,2023-02-03T00:35:00Z,43.98,-124.12,9.0,4.0,0,4,,10.0,30.008858,,,TRUE,TRUE,,,,,,,CLR,,,,,,,,VFR,,,,,,,,,,,,SPECI,16.0
K6S2 030015Z AUTO VRB03KT 10SM CLR 09/04 A3002 RMK AO2,K6S2,2023-02-03T00:15:00Z,43.98,-124.12,9.0,4.0,0,3,,10.0,30.02067,,,TRUE,TRUE,,,,,,,CLR,,,,,,,,VFR,,,,,,,,,,,,SPECI,16.0
K6S2 022355Z AUTO 00000KT 10SM CLR 10/04 A3004 RMK AO2,K6S2,2023-02-02T23:55:00Z,43.98,-124.12,10.0,4.0,0,0,,10.0,30.041338,,,TRUE,TRUE,,,,,,,CLR,,,,,,,,VFR,,,,,,,,,,,,METAR,16.0
K6S2 022335Z AUTO 00000KT 10SM CLR 10/04 A3005 RMK AO2,K6S2,2023-02-02T23:35:00Z,43.98,-124.12,10.0,4.0,0,0,,10.0,30.050198,,,TRUE,TRUE,,,,,,,CLR,,,,,,,,VFR,,,,,,,,,,,,SPECI,16.0
K6S2 022315Z AUTO 00000KT 10SM CLR 10/04 A3005 RMK AO2,K6S2,2023-02-02T23:15:00Z,43.98,-124.12,10.0,4.0,0,0,,10.0,30.050198,,,TRUE,TRUE,,,,,,,CLR,,,,,,,,VFR,,,,,,,,,,,,METAR,16.0
K6S2 022255Z AUTO 00000KT 10SM CLR 10/04 A3005 RMK AO2,K6S2,2023-02-02T22:55:00Z,43.98,-124.12,10.0,4.0,0,0,,10.0,30.050198,,,TRUE,TRUE,,,,,,,CLR,,,,,,,,VFR,,,,,,,,,,,,METAR,16.0
K6S2 022235Z AUTO VRB03KT 10SM CLR 10/05 A3005 RMK AO2,K6S2,2023-02-02T22:35:00Z,43.98,-124.12,10.0,5.0,0,3,,10.0,30.050198,,,TRUE,TRUE,,,,,,,CLR,,,,,,,,VFR,,,,,,,,,,,,SPECI,16.0
K6S2 022215Z AUTO VRB05KT 10SM CLR 10/05 A3006 RMK AO2,K6S2,2023-02-02T22:15:00Z,43.98,-124.12,10.0,5.0,0,5,,10.0,30.059055,,,TRUE,TRUE,,,,,,,CLR,,,,,,,,VFR,,,,,,,,,,,,METAR,16.0
K6S2 022155Z AUTO VRB04KT 10SM CLR 10/05 A3008 RMK AO2,K6S2,2023-02-02T21:55:00Z,43.98,-124.12,10.0,5.0,0,4,,10.0,30.079725,,,TRUE,TRUE,,,,,,,CLR,,,,,,,,VFR,,,,,,,,,,,,METAR,16.0
K6S2 022135Z AUTO VRB04KT 10SM CLR 10/05 A3009 RMK AO2,K6S2,2023-02-02T21:35:00Z,43.98,-124.12,10.0,5.0,0,4,,10.0,30.088583,,,TRUE,TRUE,,,,,,,CLR,,,,,,,,VFR,,,,,,,,,,,,SPECI,16.0
K6S2 022115Z AUTO 00000KT 10SM CLR 10/05 A3010 RMK AO2,K6S2,2023-02-02T21:15:00Z,43.98,-124.12,10.0,5.0,0,0,,10.0,30.100393,,,TRUE,TRUE,,,,,,,CLR,,,,,,,,VFR,,,,,,,,,,,,SPECI,16.0
K6S2 022055Z AUTO 00000KT 10SM CLR 10/05 A3011 RMK AO2,K6S2,2023-02-02T20:55:00Z,43.98,-124.12,10.0,5.0,0,0,,10.0,30.109253,,,TRUE,TRUE,,,,,,,CLR,,,,,,,,VFR,,,,,,,,,,,,METAR,16.0
K6S2 022035Z AUTO VRB03KT 10SM CLR 10/05 A3011 RMK AO2,K6S2,2023-02-02T20:35:00Z,43.98,-124.12,10.0,5.0,0,3,,10.0,30.109253,,,TRUE,TRUE,,,,,,,CLR,,,,,,,,VFR,,,,,,,,,,,,SPECI,16.0
K6S2 022015Z AUTO 00000KT 10SM CLR 09/05 A3011 RMK AO2,K6S2,2023-02-02T20:15:00Z,43.98,-124.12,9.0,5.0,0,0,,10.0,30.109253,,,TRUE,TRUE,,,,,,,CLR,,,,,,,,VFR,,,,,,,,,,,,METAR,16.0
K6S2 021955Z AUTO VRB04KT 10SM CLR 09/05 A3012 RMK AO2,K6S2,2023-02-02T19:55:00Z,43.98,-124.12,9.0,5.0,0,4,,10.0,30.121063,,,TRUE,TRUE,,,,,,,CLR,,,,,,,,VFR,,,,,,,,,,,,METAR,16.0
K6S2 021935Z AUTO VRB03KT 10SM CLR 08/06 A3013 RMK AO2,K6S2,2023-02-02T19:35:00Z,43.98,-124.12,8.0,6.0,0,3,,10.0,30.129921,,,TRUE,TRUE,,,,,,,CLR,,,,,,,,VFR,,,,,,,,,,,,SPECI,16.0
K6S2 021855Z AUTO 00000KT 10SM CLR 07/06 A3014 RMK AO2,K6S2,2023-02-02T18:55:00Z,43.98,-124.12,7.0,6.0,0,0,,10.0,30.138779,,,TRUE,TRUE,,,,,,,CLR,,,,,,,,VFR,,,,,,,,,,,,METAR,16.0
K6S2 021835Z AUTO 00000KT 10SM CLR 07/06 A3014 RMK AO2,K6S2,2023-02-02T18:35:00Z,43.98,-124.12,7.0,6.0,0,0,,10.0,30.138779,,,TRUE,TRUE,,,,,,,CLR,,,,,,,,VFR,,,,,,,,,,,,METAR,16.0
K6S2 021815Z AUTO VRB05KT 10SM CLR 06/06 A3014 RMK AO2,K6S2,2023-02-02T18:15:00Z,43.98,-124.12,6.0,6.0,0,5,,10.0,30.138779,,,TRUE,TRUE,,,,,,,CLR,,,,,,,,VFR,,,,,,,,,,,,SPECI,16.0
K6S2 021755Z AUTO VRB05KT 10SM CLR 05/05 A3014 RMK AO2,K6S2,2023-02-02T17:55:00Z,43.98,-124.12,5.0,5.0,0,5,,10.0,30.138779,,,TRUE,TRUE,,,,,,,CLR,,,,,,,,VFR,,,,,,,,,,,,METAR,16.0
K6S2 021735Z AUTO VRB05KT 10SM CLR 05/05 A3014 RMK AO2,K6S2,2023-02-02T17:35:00Z,43.98,-124.12,5.0,5.0,0,5,,10.0,30.138779,,,TRUE,TRUE,,,,,,,CLR,,,,,,,,VFR,,,,,,,,,,,,METAR,16.0
K6S2 021715Z AUTO VRB05KT 10SM CLR 04/04 A3015 RMK AO2,K6S2,2023-02-02T17:15:00Z,43.98,-124.12,4.0,4.0,0,5,,10.0,30.15059,,,TRUE,TRUE,,,,,,,CLR,,,,,,,,VFR,,,,,,,,,,,,METAR,16.0
K6S2 021655Z AUTO VRB04KT 10SM CLR 03/03 A3015 RMK AO2,K6S2,2023-02-02T16:55:00Z,43.98,-124.12,3.0,3.0,0,4,,10.0,30.15059,,,TRUE,TRUE,,,,,,,CLR,,,,,,,,VFR,,,,,,,,,,,,METAR,16.0
K6S2 021635Z AUTO VRB04KT 10SM CLR 02/02 A3015 RMK AO2,K6S2,2023-02-02T16:35:00Z,43.98,-124.12,2.0,2.0,0,4,,10.0,30.15059,,,TRUE,TRUE,,,,,,,CLR,,,,,,,,VFR,,,,,,,,,,,,SPECI,16.0
K6S2 021615Z AUTO VRB03KT 10SM CLR 01/01 A3015 RMK AO2,K6S2,2023-02-02T16:15:00Z,43.98,-124.12,1.0,1.0,0,3,,10.0,30.15059,,,TRUE,TRUE,,,,,,,CLR,,,,,,,,VFR,,,,,,,,,,,,METAR,16.0
K6S2 021555Z AUTO VRB04KT 10SM CLR 01/01 A3014 RMK AO2,K6S2,2023-02-02T15:55:00Z,43.98,-124.12,1.0,1.0,0,4,,10.0,30.138779,,,TRUE,TRUE,,,,,,,CLR,,,,,,,,VFR,,,,,,,,,,,,METAR,16.0
K6S2 021535Z AUTO VRB03KT 10SM CLR 01/01 A3014 RMK AO2,K6S2,2023-02-02T15:35:00Z,43.98,-124.12,1.0,1.0,0,3,,10.0,30.138779,,,TRUE,TRUE,,,,,,,CLR,,,,,,,,VFR,,,,,,,,,,,,METAR,16.0
K6S2 021515Z AUTO 00000KT 10SM CLR 01/01 A3013 RMK AO2,K6S2,2023-02-02T15:15:00Z,43.98,-124.12,1.0,1.0,0,0,,10.0,30.129921,,,TRUE,TRUE,,,,,,,CLR,,,,,,,,VFR,,,,,,,,,,,,METAR,16.0
K6S2 021455Z AUTO 00000KT 10SM CLR 00/00 A3013 RMK AO2,K6S2,2023-02-02T14:55:00Z,43.98,-124.12,0.0,0.0,0,0,,10.0,30.129921,,,TRUE,TRUE,,,,,,,CLR,,,,,,,,VFR,,,,,,,,,,,,METAR,16.0
K6S2 021435Z AUTO 00000KT 10SM CLR 01/01 A3013 RMK AO2,K6S2,2023-02-02T14:35:00Z,43.98,-124.12,1.0,1.0,0,0,,10.0,30.129921,,,TRUE,TRUE,,,,,,,CLR,,,,,,,,VFR,,,,,,,,,,,,METAR,16.0
K6S2 021415Z AUTO VRB03KT 10SM CLR 01/01 A3012 RMK AO2,K6S2,2023-02-02T14:15:00Z,43.98,-124.12,1.0,1.0,0,3,,10.0,30.121063,,,TRUE,TRUE,,,,,,,CLR,,,,,,,,VFR,,,,,,,,,,,,METAR,16.0
K6S2 021355Z AUTO 00000KT 10SM CLR 01/01 A3013 RMK AO2,K6S2,2023-02-02T13:55:00Z,43.98,-124.12,1.0,1.0,0,0,,10.0,30.129921,,,TRUE,TRUE,,,,,,,CLR,,,,,,,,VFR,,,,,,,,,,,,METAR,16.0
K6S2 021335Z AUTO 00000KT 10SM CLR 01/01 A3012 RMK AO2,K6S2,2023-02-02T13:35:00Z,43.98,-124.12,1.0,1.0,0,0,,10.0,30.121063,,,TRUE,TRUE,,,,,,,CLR,,,,,,,,VFR,,,,,,,,,,,,SPECI,16.0
K6S2 021315Z AUTO 00000KT 10SM CLR 01/01 A3013 RMK AO2,K6S2,2023-02-02T13:15:00Z,43.98,-124.12,1.0,1.0,0,0,,10.0,30.129921,,,TRUE,TRUE,,,,,,,CLR,,,,,,,,VFR,,,,,,,,,,,,METAR,16.0
K6S2 021255Z AUTO VRB03KT 10SM CLR 01/01 A3013 RMK AO2,K6S2,2023-02-02T12:55:00Z,43.98,-124.12,1.0,1.0,0,3,,10.0,30.129921,,,TRUE,TRUE,,,,,,,CLR,,,,,,,,VFR,,,,,,,,,,,,SPECI,16.0
K6S2 021235Z AUTO 00000KT 10SM CLR 01/01 A3013 RMK AO2,K6S2,2023-02-02T12:35:00Z,43.98,-124.12,1.0,1.0,0,0,,10.0,30.129921,,,TRUE,TRUE,,,,,,,CLR,,,,,,,,VFR,,,,,,,,,,,,SPECI,16.0
K6S2 021215Z AUTO 00000KT 10SM CLR 01/01 A3013 RMK AO2,K6S2,2023-02-02T12:15:00Z,43.98,-124.12,1.0,1.0,0,0,,10.0,30.129921,,,TRUE,TRUE,,,,,,,CLR,,,,,,,,VFR,,,,,,,,,,,,SPECI,16.0
K6S2 021155Z AUTO 00000KT 10SM CLR 01/01 A3013 RMK AO2,K6S2,2023-02-02T11:55:00Z,43.98,-124.12,1.0,1.0,0,0,,10.0,30.129921,,,TRUE,TRUE,,,,,,,CLR,,,,,,,,VFR,,,,,,,,,,,,METAR,16.0
K6S2 021135Z AUTO 00000KT 10SM CLR 01/01 A3013 RMK AO2,K6S2,2023-02-02T11:35:00Z,43.98,-124.12,1.0,1.0,0,0,,10.0,30.129921,,,TRUE,TRUE,,,,,,,CLR,,,,,,,,VFR,,,,,,,,,,,,SPECI,16.0
K6S2 021115Z AUTO 00000KT 10SM CLR 01/01 A3013 RMK AO2,K6S2,2023-02-02T11:15:00Z,43.98,-124.12,1.0,1.0,0,0,,10.0,30.129921,,,TRUE,TRUE,,,,,,,CLR,,,,,,,,VFR,,,,,,,,,,,,METAR,16.0
K6S2 021055Z AUTO 00000KT 10SM CLR 01/01 A3013 RMK AO2,K6S2,2023-02-02T10:55:00Z,43.98,-124.12,1.0,1.0,0,0,,10.0,30.129921,,,TRUE,TRUE,,,,,,,CLR,,,,,,,,VFR,,,,,,,,,,,,METAR,16.0
K6S2 021035Z AUTO 10004KT 10SM CLR 01/01 A3013 RMK AO2,K6S2,2023-02-02T10:35:00Z,43.98,-124.12,1.0,1.0,100,4,,10.0,30.129921,,,TRUE,TRUE,,,,,,,CLR,,,,,,,,VFR,,,,,,,,,,,,METAR,16.0
K6S2 021015Z AUTO 00000KT 10SM CLR 01/01 A3014 RMK AO2,K6S2,2023-02-02T10:15:00Z,43.98,-124.12,1.0,1.0,0,0,,10.0,30.138779,,,TRUE,TRUE,,,,,,,CLR,,,,,,,,VFR,,,,,,,,,,,,METAR,16.0
K6S2 020955Z AUTO 00000KT 10SM CLR 02/02 A3014 RMK AO2,K6S2,2023-02-02T09:55:00Z,43.98,-124.12,2.0,2.0,0,0,,10.0,30.138779,,,TRUE,TRUE,,,,,,,CLR,,,,,,,,VFR,,,,,,,,,,,,METAR,16.0
K6S2 020935Z AUTO 00000KT 10SM CLR 02/02 A3014 RMK AO2,K6S2,2023-02-02T09:35:00Z,43.98,-124.12,2.0,2.0,0,0,,10.0,30.138779,,,TRUE,TRUE,,,,,,,CLR,,,,,,,,VFR,,,,,,,,,,,,METAR,16.0
K6S2 020915Z AUTO 00000KT 10SM CLR 02/02 A3014 RMK AO2,K6S2,2023-02-02T09:15:00Z,43.98,-124.12,2.0,2.0,0,0,,10.0,30.138779,,,TRUE,TRUE,,,,,,,CLR,,,,,,,,VFR,,,,,,,,,,,,METAR,16.0
K6S2 020855Z AUTO 00000KT 10SM CLR 02/02 A3014 RMK AO2,K6S2,2023-02-02T08:55:00Z,43.98,-124.12,2.0,2.0,0,0,,10.0,30.138779,,,TRUE,TRUE,,,,,,,CLR,,,,,,,,VFR,,,,,,,,,,,,METAR,16.0
K6S2 020835Z AUTO 00000KT 10SM CLR 02/02 A3014 RMK AO2,K6S2,2023-02-02T08:35:00Z,43.98,-124.12,2.0,2.0,0,0,,10.0,30.138779,,,TRUE,TRUE,,,,,,,CLR,,,,,,,,VFR,,,,,,,,,,,,SPECI,16.0
K6S2 020815Z AUTO 00000KT 10SM CLR 02/02 A3014 RMK AO2,K6S2,2023-02-02T08:15:00Z,43.98,-124.12,2.0,2.0,0,0,,10.0,30.138779,,,TRUE,TRUE,,,,,,,CLR,,,,,,,,VFR,,,,,,,,,,,,METAR,16.0
K6S2 020755Z AUTO 00000KT 10SM CLR 02/02 A3015 RMK AO2,K6S2,2023-02-02T07:55:00Z,43.98,-124.12,2.0,2.0,0,0,,10.0,30.15059,,,TRUE,TRUE,,,,,,,CLR,,,,,,,,VFR,,,,,,,,,,,,METAR,16.0
K6S2 020735Z AUTO 00000KT 10SM CLR 02/02 A3015 RMK AO2,K6S2,2023-02-02T07:35:00Z,43.98,-124.12,2.0,2.0,0,0,,10.0,30.15059,,,TRUE,TRUE,,,,,,,CLR,,,,,,,,VFR,,,,,,,,,,,,METAR,16.0
K6S2 020715Z AUTO 00000KT 10SM CLR 02/02 A3015 RMK AO2,K6S2,2023-02-02T07:15:00Z,43.98,-124.12,2.0,2.0,0,0,,10.0,30.15059,,,TRUE,TRUE,,,,,,,CLR,,,,,,,,VFR,,,,,,,,,,,,SPECI,16.0
K6S2 020655Z AUTO 00000KT 10SM FEW014 02/02 A3015 RMK AO2,K6S2,2023-02-02T06:55:00Z,43.98,-124.12,2.0,2.0,0,0,,10.0,30.15059,,,TRUE,TRUE,,,,,,,FEW,1400,,,,,,,VFR,,,,,,,,,,,,METAR,16.0
K6S2 020635Z AUTO 00000KT 10SM CLR 02/02 A3015 RMK AO2,K6S2,2023-02-02T06:35:00Z,43.98,-124.12,2.0,2.0,0,0,,10.0,30.15059,,,TRUE,TRUE,,,,,,,CLR,,,,,,,,VFR,,,,,,,,,,,,METAR,16.0
K6S2 020615Z AUTO 00000KT 10SM CLR 02/02 A3015 RMK AO2,K6S2,2023-02-02T06:15:00Z,43.98,-124.12,2.0,2.0,0,0,,10.0,30.15059,,,TRUE,TRUE,,,,,,,CLR,,,,,,,,VFR,,,,,,,,,,,,METAR,16.0
K6S2 020555Z AUTO 00000KT 10SM CLR 03/03 A3015 RMK AO2,K6S2,2023-02-02T05:55:00Z,43.98,-124.12,3.0,3.0,0,0,,10.0,30.15059,,,TRUE,TRUE,,,,,,,CLR,,,,,,,,VFR,,,,,,,,,,,,SPECI,16.0
K6S2 020535Z AUTO 00000KT 10SM FEW013 03/03 A3014 RMK AO2,K6S2,2023-02-02T05:35:00Z,43.98,-124.12,3.0,3.0,0,0,,10.0,30.138779,,,TRUE,TRUE,,,,,,,FEW,1300,,,,,,,VFR,,,,,,,,,,,,SPECI,16.0
K6S2 020515Z AUTO 00000KT 10SM BKN014 03/03 A3014 RMK AO2,K6S2,2023-02-02T05:15:00Z,43.98,-124.12,3.0,3.0,0,0,,10.0,30.138779,,,TRUE,TRUE,,,,,,,BKN,1400,,,,,,,MVFR,,,,,,,,,,,,SPECI,16.0
K6S2 020455Z AUTO 00000KT 10SM BKN014 03/03 A3014 RMK AO2,K6S2,2023-02-02T04:55:00Z,43.98,-124.12,3.0,3.0,0,0,,10.0,30.138779,,,TRUE,TRUE,,,,,,,BKN,1400,,,,,,,MVFR,,,,,,,,,,,,SPECI,16.0
K6S2 020435Z AUTO 00000KT 10SM BKN015 04/04 A3014 RMK AO2,K6S2,2023-02-02T04:35:00Z,43.98,-124.12,4.0,4.0,0,0,,10.0,30.138779,,,TRUE,TRUE,,,,,,,BKN,1500,,,,,,,MVFR,,,,,,,,,,,,METAR,16.0
K6S2 020415Z AUTO 00000KT 10SM OVC015 04/04 A3013 RMK AO2,K6S2,2023-02-02T04:15:00Z,43.98,-124.12,4.0,4.0,0,0,,10.0,30.129921,,,TRUE,TRUE,,,,,,,OVC,1500,,,,,,,MVFR,,,,,,,,,,,,METAR,16.0
K6S2 020355Z AUTO 00000KT 10SM BKN014 05/05 A3013 RMK AO2,K6S2,2023-02-02T03:55:00Z,43.98,-124.12,5.0,5.0,0,0,,10.0,30.129921,,,TRUE,TRUE,,,,,,,BKN,1400,,,,,,,MVFR,,,,,,,,,,,,METAR,16.0
K6S2 020335Z AUTO 00000KT 10SM OVC013 05/05 A3012 RMK AO2,K6S2,2023-02-02T03:35:00Z,43.98,-124.12,5.0,5.0,0,0,,10.0,30.121063,,,TRUE,TRUE,,,,,,,OVC,1300,,,,,,,MVFR,,,,,,,,,,,,SPECI,16.0
K6S2 020315Z AUTO 00000KT 10SM BKN013 07/07 A3012 RMK AO2,K6S2,2023-02-02T03:15:00Z,43.98,-124.12,7.0,7.0,0,0,,10.0,30.121063,,,TRUE,TRUE,,,,,,,BKN,1300,,,,,,,MVFR,,,,,,,,,,,,SPECI,16.0
K6S2 020255Z AUTO 00000KT 10SM OVC013 07/07 A3012 RMK AO2,K6S2,2023-02-02T02:55:00Z,43.98,-124.12,7.0,7.0,0,0,,10.0,30.121063,,,TRUE,TRUE,,,,,,,OVC,1300,,,,,,,MVFR,,,,,,,,,,,,METAR,16.0
K6S2 020235Z AUTO 00000KT 10SM BKN013 08/07 A3012 RMK AO2,K6S2,2023-02-02T02:35:00Z,43.98,-124.12,8.0,7.0,0,0,,10.0,30.121063,,,TRUE,TRUE,,,,,,,BKN,1300,,,,,,,MVFR,,,,,,,,,,,,SPECI,16.0
K6S2 020215Z AUTO 00000KT 10SM FEW013 09/07 A3012 RMK AO2,K6S2,2023-02-02T02:15:00Z,43.98,-124.12,9.0,7.0,0,0,,10.0,30.121063,,,TRUE,TRUE,,,,,,,FEW,1300,,,,,,,VFR,,,,,,,,,,,,SPECI,16.0
K6S2 020155Z AUTO VRB04KT 10SM CLR 09/07 A3012 RMK AO2,K6S2,2023-02-02T01:55:00Z,43.98,-124.12,9.0,7.0,0,4,,10.0,30.121063,,,TRUE,TRUE,,,,,,,CLR,,,,,,,,VFR,,,,,,,,,,,,METAR,16.0
K6S2 020135Z AUTO VRB03KT 10SM CLR 09/07 A3012 RMK AO2,K6S2,2023-02-02T01:35:00Z,43.98,-124.12,9.0,7.0,0,3,,10.0,30.121063,,,TRUE,TRUE,,,,,,,CLR,,,,,,,,VFR,,,,,,,,,,,,METAR,16.0
K6S2 020115Z AUTO 19006KT 10SM CLR 10/06 A3012 RMK AO2,K6S2,2023-02-02T01:15:00Z,43.98,-124.12,10.0,6.0,190,6,,10.0,30.121063,,,TRUE,TRUE,,,,,,,CLR,,,,,,,,VFR,,,,,,,,,,,,METAR,16.0
K6S2 020055Z AUTO 19006KT 10SM CLR 10/06 A3011 RMK AO2,K6S2,2023-02-02T00:55:00Z,43.98,-124.12,10.0,6.0,190,6,,10.0,30.109253,,,TRUE,TRUE,,,,,,,CLR,,,,,,,,VFR,,,,,,,,,,,,METAR,16.0
K6S2 020035Z AUTO 20006G12KT 10SM CLR 11/05 A3011 RMK AO2,K6S2,2023-02-02T00:35:00Z,43.98,-124.12,11.0,5.0,200,6,12,10.0,30.109253,,,TRUE,TRUE,,,,,,,CLR,,,,,,,,VFR,,,,,,,,,,,,SPECI,16.0
K6S2 020015Z AUTO 22007KT 190V250 10SM CLR 11/03 A3011 RMK AO2,K6S2,2023-02-02T00:15:00Z,43.98,-124.12,11.0,3.0,220,7,,10.0,30.109253,,,TRUE,TRUE,,,,,,,CLR,,,,,,,,VFR,,,,,,,,,,,,SPECI,16.0
K6S2 012355Z AUTO 20008KT 10SM CLR 12/01 A3010 RMK AO2,K6S2,2023-02-01T23:55:00Z,43.98,-124.12,12.0,1.0,200,8,,10.0,30.100393,,,TRUE,TRUE,,,,,,,CLR,,,,,,,,VFR,,,,,,,,,,,,METAR,16.0
K6S2 012335Z AUTO VRB05G15KT 10SM CLR 12/M02 A3010 RMK AO2,K6S2,2023-02-01T23:35:00Z,43.98,-124.12,12.0,-2.0,0,5,15,10.0,30.100393,,,TRUE,TRUE,,,,,,,CLR,,,,,,,,VFR,,,,,,,,,,,,SPECI,16.0
K6S2 012315Z AUTO VRB06G11KT 10SM CLR 13/M06 A3010 RMK AO2,K6S2,2023-02-01T23:15:00Z,43.98,-124.12,13.0,-6.0,0,6,11,10.0,30.100393,,,TRUE,TRUE,,,,,,,CLR,,,,,,,,VFR,,,,,,,,,,,,SPECI,16.0
K6S2 012255Z AUTO 19009G16KT 150V220 10SM CLR 14/M08 A3011 RMK AO2,K6S2,2023-02-01T22:55:00Z,43.98,-124.12,14.0,-8.0,190,9,16,10.0,30.109253,,,TRUE,TRUE,,,,,,,CLR,,,,,,,,VFR,,,,,,,,,,,,METAR,16.0
K6S2 012235Z AUTO 20007G12KT 10SM CLR 14/M05 A3011 RMK AO2,K6S2,2023-02-01T22:35:00Z,43.98,-124.12,14.0,-5.0,200,7,12,10.0,30.109253,,,TRUE,TRUE,,,,,,,CLR,,,,,,,,VFR,,,,,,,,,,,,METAR,16.0
K6S2 012155Z AUTO 23004KT 10SM CLR 13/M02 A3011 RMK AO2,K6S2,2023-02-01T21:55:00Z,43.98,-124.12,13.0,-2.0,230,4,,10.0,30.109253,,,TRUE,TRUE,,,,,,,CLR,,,,,,,,VFR,,,,,,,,,,,,METAR,16.0
K6S2 012135Z AUTO VRB06KT 10SM CLR 12/M03 A3012 RMK AO2,K6S2,2023-02-01T21:35:00Z,43.98,-124.12,12.0,-3.0,0,6,,10.0,30.121063,,,TRUE,TRUE,,,,,,,CLR,,,,,,,,VFR,,,,,,,,,,,,METAR,16.0
K6S2 012115Z AUTO 21006KT 10SM CLR 13/M04 A3012 RMK AO2,K6S2,2023-02-01T21:15:00Z,43.98,-124.12,13.0,-4.0,210,6,,10.0,30.121063,,,TRUE,TRUE,,,,,,,CLR,,,,,,,,VFR,,,,,,,,,,,,METAR,16.0
K6S2 012055Z AUTO VRB03KT 10SM CLR 12/M04 A3013 RMK AO2,K6S2,2023-02-01T20:55:00Z,43.98,-124.12,12.0,-4.0,0,3,,10.0,30.129921,,,TRUE,TRUE,,,,,,,CLR,,,,,,,,VFR,,,,,,,,,,,,METAR,16.0
K6S2 012035Z AUTO VRB04KT 10SM CLR 12/M02 A3013 RMK AO2,K6S2,2023-02-01T20:35:00Z,43.98,-124.12,12.0,-2.0,0,4,,10.0,30.129921,,,TRUE,TRUE,,,,,,,CLR,,,,,,,,VFR,,,,,,,,,,,,METAR,16.0
K6S2 012015Z AUTO 00000KT 10SM CLR 12/M00 A3014 RMK AO2,K6S2,2023-02-01T20:15:00Z,43.98,-124.12,12.0,0.0,0,0,,10.0,30.138779,,,TRUE,TRUE,,,,,,,CLR,,,,,,,,VFR,,,,,,,,,,,,METAR,16.0
K6S2 011955Z AUTO 00000KT 10SM CLR 10/00 A3015 RMK AO2,K6S2,2023-02-01T19:55:00Z,43.98,-124.12,10.0,0.0,0,0,,10.0,30.15059,,,TRUE,TRUE,,,,,,,CLR,,,,,,,,VFR,,,,,,,,,,,,METAR,16.0
K6S2 011935Z AUTO VRB04KT 10SM CLR 10/M01 A3015 RMK AO2,K6S2,2023-02-01T19:35:00Z,43.98,-124.12,10.0,-1.0,0,4,,10.0,30.15059,,,TRUE,TRUE,,,,,,,CLR,,,,,,,,VFR,,,,,,,,,,,,METAR,16.0
K6S2 011915Z AUTO VRB04KT 10SM CLR 09/M01 A3015 RMK AO2,K6S2,2023-02-01T19:15:00Z,43.98,-124.12,9.0,-1.0,0,4,,10.0,30.15059,,,TRUE,TRUE,,,,,,,CLR,,,,,,,,VFR,,,,,,,,,,,,METAR,16.0
K6S2 011855Z AUTO VRB04KT 10SM CLR 08/M00 A3015 RMK AO2,K6S2,2023-02-01T18:55:00Z,43.98,-124.12,8.0,0.0,0,4,,10.0,30.15059,,,TRUE,TRUE,,,,,,,CLR,,,,,,,,VFR,,,,,,,,,,,,METAR,16.0
K6S2 011835Z AUTO 11004KT 10SM CLR 07/M00 A3015 RMK AO2,K6S2,2023-02-01T18:35:00Z,43.98,-124.12,7.0,0.0,110,4,,10.0,30.15059,,,TRUE,TRUE,,,,,,,CLR,,,,,,,,VFR,,,,,,,,,,,,METAR,16.0
K6S2 011815Z AUTO VRB05KT 10SM CLR 05/M00 A3015 RMK AO2,K6S2,2023-02-01T18:15:00Z,43.98,-124.12,5.0,0.0,0,5,,10.0,30.15059,,,TRUE,TRUE,,,,,,,CLR,,,,,,,,VFR,,,,,,,,,,,,SPECI,16.0
K6S2 011755Z AUTO VRB04KT 10SM CLR 04/00 A3014 RMK AO2,K6S2,2023-02-01T17:55:00Z,43.98,-124.12,4.0,0.0,0,4,,10.0,30.138779,,,TRUE,TRUE,,,,,,,CLR,,,,,,,,VFR,,,,,,,,,,,,METAR,16.0
K6S2 011735Z AUTO 00000KT 10SM CLR 03/01 A3014 RMK AO2,K6S2,2023-02-01T17:35:00Z,43.98,-124.12,3.0,1.0,0,0,,10.0,30.138779,,,TRUE,TRUE,,,,,,,CLR,,,,,,,,VFR,,,,,,,,,,,,METAR,16.0
K6S2 011715Z AUTO VRB04KT 10SM CLR 02/00 A3014 RMK AO2,K6S2,2023-02-01T17:15:00Z,43.98,-124.12,2.0,0.0,0,4,,10.0,30.138779,,,TRUE,TRUE,,,,,,,CLR,,,,,,,,VFR,,,,,,,,,,,,SPECI,16.0
K6S2 011655Z AUTO VRB03KT 10SM CLR 02/01 A3015 RMK AO2,K6S2,2023-02-01T16:55:00Z,43.98,-124.12,2.0,1.0,0,3,,10.0,30.15059,,,TRUE,TRUE,,,,,,,CLR,,,,,,,,VFR,,,,,,,,,,,,METAR,16.0
K6S2 011635Z AUTO 00000KT 10SM CLR 01/00 A3015 RMK AO2,K6S2,2023-02-01T16:35:00Z,43.98,-124.12,1.0,0.0,0,0,,10.0,30.15059,,,TRUE,TRUE,,,,,,,CLR,,,,,,,,VFR,,,,,,,,,,,,METAR,16.0
K6S2 011615Z AUTO 00000KT 10SM CLR 01/00 A3015 RMK AO2,K6S2,2023-02-01T16:15:00Z,43.98,-124.12,1.0,0.0,0,0,,10.0,30.15059,,,TRUE,TRUE,,,,,,,CLR,,,,,,,,VFR,,,,,,,,,,,,SPECI,16.0
K6S2 011555Z AUTO VRB03KT 10SM CLR 00/00 A3015 RMK AO2,K6S2,2023-02-01T15:55:00Z,43.98,-124.12,0.0,0.0,0,3,,10.0,30.15059,,,TRUE,TRUE,,,,,,,CLR,,,,,,,,VFR,,,,,,,,,,,,METAR,16.0
K6S2 011535Z AUTO 11003KT 10SM CLR 00/M00 A3015 RMK AO2,K6S2,2023-02-01T15:35:00Z,43.98,-124.12,0.0,0.0,110,3,,10.0,30.15059,,,TRUE,TRUE,,,,,,,CLR,,,,,,,,VFR,,,,,,,,,,,,SPECI,16.0
K6S2 011515Z AUTO VRB03KT 10SM CLR 01/M00 A3014 RMK AO2,K6S2,2023-02-01T15:15:00Z,43.98,-124.12,1.0,0.0,0,3,,10.0,30.138779,,,TRUE,TRUE,,,,,,,CLR,,,,,,,,VFR,,,,,,,,,,,,METAR,16.0
K6S2 011455Z AUTO VRB04KT 10SM CLR 00/00 A3014 RMK AO2,K6S2,2023-02-01T14:55:00Z,43.98,-124.12,0.0,0.0,0,4,,10.0,30.138779,,,TRUE,TRUE,,,,,,,CLR,,,,,,,,VFR,,,,,,,,,,,,METAR,16.0
K6S2 011435Z AUTO VRB04KT 10SM CLR M00/M00 A3015 RMK AO2,K6S2,2023-02-01T14:35:00Z,43.98,-124.12,0.0,0.0,0,4,,10.0,30.15059,,,TRUE,TRUE,,,,,,,CLR,,,,,,,,VFR,,,,,,,,,,,,SPECI,16.0
K6S2 011415Z AUTO 00000KT 10SM CLR M00/M00 A3015 RMK AO2,K6S2,2023-02-01T14:15:00Z,43.98,-124.12,0.0,0.0,0,0,,10.0,30.15059,,,TRUE,TRUE,,,,,,,CLR,,,,,,,,VFR,,,,,,,,,,,,METAR,16.0
K6S2 011355Z AUTO VRB03KT 10SM CLR M00/M00 A3015 RMK AO2,K6S2,2023-02-01T13:55:00Z,43.98,-124.12,0.0,0.0,0,3,,10.0,30.15059,,,TRUE,TRUE,,,,,,,CLR,,,,,,,,VFR,,,,,,,,,,,,METAR,16.0
K6S2 011335Z AUTO VRB03KT 10SM CLR 00/00 A3015 RMK AO2,K6S2,2023-02-01T13:35:00Z,43.98,-124.12,0.0,0.0,0,3,,10.0,30.15059,,,TRUE,TRUE,,,,,,,CLR,,,,,,,,VFR,,,,,,,,,,,,SPECI,16.0
K6S2 011315Z AUTO 00000KT 10SM CLR M00/M00 A3015 RMK AO2,K6S2,2023-02-01T13:15:00Z,43.98,-124.12,0.0,0.0,0,0,,10.0,30.15059,,,TRUE,TRUE,,,,,,,CLR,,,,,,,,VFR,,,,,,,,,,,,SPECI,16.0
K6S2 011255Z AUTO 00000KT 10SM CLR M00/M00 A3015 RMK AO2,K6S2,2023-02-01T12:55:00Z,43.98,-124.12,0.0,0.0,0,0,,10.0,30.15059,,,TRUE,TRUE,,,,,,,CLR,,,,,,,,VFR,,,,,,,,,,,,METAR,16.0
K6S2 011235Z AUTO 00000KT 10SM CLR M00/M00 A3016 RMK AO2,K6S2,2023-02-01T12:35:00Z,43.98,-124.12,0.0,0.0,0,0,,10.0,30.159449,,,TRUE,TRUE,,,,,,,CLR,,,,,,,,VFR,,,,,,,,,,,,SPECI,16.0
K6S2 011215Z AUTO 00000KT 10SM CLR 00/00 A3016 RMK AO2,K6S2,2023-02-01T12:15:00Z,43.98,-124.12,0.0,0.0,0,0,,10.0,30.159449,,,TRUE,TRUE,,,,,,,CLR,,,,,,,,VFR,,,,,,,,,,,,METAR,16.0
K6S2 011155Z AUTO 00000KT 10SM CLR 00/00 A3015 RMK AO2,K6S2,2023-02-01T11:55:00Z,43.98,-124.12,0.0,0.0,0,0,,10.0,30.15059,,,TRUE,TRUE,,,,,,,CLR,,,,,,,,VFR,,,,,,,,,,,,METAR,16.0
K6S2 011135Z AUTO 00000KT 10SM CLR 00/00 A3015 RMK AO2,K6S2,2023-02-01T11:35:00Z,43.98,-124.12,0.0,0.0,0,0,,10.0,30.15059,,,TRUE,TRUE,,,,,,,CLR,,,,,,,,VFR,,,,,,,,,,,,METAR,16.0
K6S2 011115Z AUTO 00000KT 10SM CLR 00/00 A3015 RMK AO2,K6S2,2023-02-01T11:15:00Z,43.98,-124.12,0.0,0.0,0,0,,10.0,30.15059,,,TRUE,TRUE,,,,,,,CLR,,,,,,,,VFR,,,,,,,,,,,,METAR,16.0
K6S2 011055Z AUTO 00000KT 10SM CLR 00/00 A3016 RMK AO2,K6S2,2023-02-01T10:55:00Z,43.98,-124.12,0.0,0.0,0,0,,10.0,30.159449,,,TRUE,TRUE,,,,,,,CLR,,,,,,,,VFR,,,,,,,,,,,,METAR,16.0
K6S2 011035Z AUTO 00000KT 10SM CLR 00/00 A3016 RMK AO2,K6S2,2023-02-01T10:35:00Z,43.98,-124.12,0.0,0.0,0,0,,10.0,30.159449,,,TRUE,TRUE,,,,,,,CLR,,,,,,,,VFR,,,,,,,,,,,,METAR,16.0
K6S2 011015Z AUTO 00000KT 10SM CLR 00/00 A3016 RMK AO2,K6S2,2023-02-01T10:15:00Z,43.98,-124.12,0.0,0.0,0,0,,10.0,30.159449,,,TRUE,TRUE,,,,,,,CLR,,,,,,,,VFR,,,,,,,,,,,,METAR,16.0
K6S2 010955Z AUTO 00000KT 10SM CLR 00/00 A3015 RMK AO2,K6S2,2023-02-01T09:55:00Z,43.98,-124.12,0.0,0.0,0,0,,10.0,30.15059,,,TRUE,TRUE,,,,,,,CLR,,,,,,,,VFR,,,,,,,,,,,,METAR,16.0
K6S2 010935Z AUTO 00000KT 10SM CLR 00/00 A3015 RMK AO2,K6S2,2023-02-01T09:35:00Z,43.98,-124.12,0.0,0.0,0,0,,10.0,30.15059,,,TRUE,TRUE,,,,,,,CLR,,,,,,,,VFR,,,,,,,,,,,,SPECI,16.0
K6S2 010915Z AUTO 00000KT 10SM CLR 01/01 A3015 RMK AO2,K6S2,2023-02-01T09:15:00Z,43.98,-124.12,1.0,1.0,0,0,,10.0,30.15059,,,TRUE,TRUE,,,,,,,CLR,,,,,,,,VFR,,,,,,,,,,,,METAR,16.0
K6S2 010855Z AUTO 00000KT 10SM CLR 00/00 A3015 RMK AO2,K6S2,2023-02-01T08:55:00Z,43.98,-124.12,0.0,0.0,0,0,,10.0,30.15059,,,TRUE,TRUE,,,,,,,CLR,,,,,,,,VFR,,,,,,,,,,,,METAR,16.0
K6S2 010835Z AUTO 00000KT 10SM CLR 01/01 A3016 RMK AO2,K6S2,2023-02-01T08:35:00Z,43.98,-124.12,1.0,1.0,0,0,,10.0,30.159449,,,TRUE,TRUE,,,,,,,CLR,,,,,,,,VFR,,,,,,,,,,,,SPECI,16.0
K6S2 010815Z AUTO 00000KT 10SM CLR 00/00 A3016 RMK AO2,K6S2,2023-02-01T08:15:00Z,43.98,-124.12,0.0,0.0,0,0,,10.0,30.159449,,,TRUE,TRUE,,,,,,,CLR,,,,,,,,VFR,,,,,,,,,,,,SPECI,16.0
K6S2 010755Z AUTO 00000KT 10SM CLR 00/00 A3016 RMK AO2,K6S2,2023-02-01T07:55:00Z,43.98,-124.12,0.0,0.0,0,0,,10.0,30.159449,,,TRUE,TRUE,,,,,,,CLR,,,,,,,,VFR,,,,,,,,,,,,METAR,16.0
K6S2 010735Z AUTO 00000KT 10SM CLR 01/01 A3017 RMK AO2,K6S2,2023-02-01T07:35:00Z,43.98,-124.12,1.0,1.0,0,0,,10.0,30.171259,,,TRUE,TRUE,,,,,,,CLR,,,,,,,,VFR,,,,,,,,,,,,METAR,16.0
K6S2 010715Z AUTO 00000KT 10SM CLR 01/01 A3016 RMK AO2,K6S2,2023-02-01T07:15:00Z,43.98,-124.12,1.0,1.0,0,0,,10.0,30.159449,,,TRUE,TRUE,,,,,,,CLR,,,,,,,,VFR,,,,,,,,,,,,METAR,16.0
K6S2 010655Z AUTO 00000KT 10SM CLR 01/01 A3017 RMK AO2,K6S2,2023-02-01T06:55:00Z,43.98,-124.12,1.0,1.0,0,0,,10.0,30.171259,,,TRUE,TRUE,,,,,,,CLR,,,,,,,,VFR,,,,,,,,,,,,METAR,16.0
K6S2 010635Z AUTO 00000KT 10SM CLR 02/02 A3017 RMK AO2,K6S2,2023-02-01T06:35:00Z,43.98,-124.12,2.0,2.0,0,0,,10.0,30.171259,,,TRUE,TRUE,,,,,,,CLR,,,,,,,,VFR,,,,,,,,,,,,SPECI,16.0
K6S2 010615Z AUTO 00000KT 10SM CLR 01/01 A3017 RMK AO2,K6S2,2023-02-01T06:15:00Z,43.98,-124.12,1.0,1.0,0,0,,10.0,30.171259,,,TRUE,TRUE,,,,,,,CLR,,,,,,,,VFR,,,,,,,,,,,,SPECI,16.0
K6S2 010555Z AUTO VRB03KT 10SM CLR 02/02 A3017 RMK AO2,K6S2,2023-02-01T05:55:00Z,43.98,-124.12,2.0,2.0,0,3,,10.0,30.171259,,,TRUE,TRUE,,,,,,,CLR,,,,,,,,VFR,,,,,,,,,,,,METAR,16.0
K6S2 010535Z AUTO 00000KT 10SM CLR 02/02 A3017 RMK AO2,K6S2,2023-02-01T05:35:00Z,43.98,-124.12,2.0,2.0,0,0,,10.0,30.171259,,,TRUE,TRUE,,,,,,,CLR,,,,,,,,VFR,,,,,,,,,,,,METAR,16.0
K6S2 010515Z AUTO 00000KT 10SM CLR 02/02 A3017 RMK AO2,K6S2,2023-02-01T05:15:00Z,43.98,-124.12,2.0,2.0,0,0,,10.0,30.171259,,,TRUE,TRUE,,,,,,,CLR,,,,,,,,VFR,,,,,,,,,,,,SPECI,16.0
K6S2 010455Z AUTO 00000KT 10SM CLR 02/02 A3018 RMK AO2,K6S2,2023-02-01T04:55:00Z,43.98,-124.12,2.0,2.0,0,0,,10.0,30.180119,,,TRUE,TRUE,,,,,,,CLR,,,,,,,,VFR,,,,,,,,,,,,METAR,16.0
K6S2 010435Z AUTO 00000KT 10SM FEW006 03/02 A3018 RMK AO2,K6S2,2023-02-01T04:35:00Z,43.98,-124.12,3.0,2.0,0,0,,10.0,30.180119,,,TRUE,TRUE,,,,,,,FEW,600,,,,,,,VFR,,,,,,,,,,,,METAR,16.0
K6S2 010415Z AUTO 00000KT 10SM BKN005 03/03 A3018 RMK AO2,K6S2,2023-02-01T04:15:00Z,43.98,-124.12,3.0,3.0,0,0,,10.0,30.180119,,,TRUE,TRUE,,,,,,,BKN,500,,,,,,,IFR,,,,,,,,,,,,METAR,16.0
K6S2 010355Z AUTO 00000KT 10SM BKN005 03/02 A3018 RMK AO2,K6S2,2023-02-01T03:55:00Z,43.98,-124.12,3.0,2.0,0,0,,10.0,30.180119,,,TRUE,TRUE,,,,,,,BKN,500,,,,,,,IFR,,,,,,,,,,,,METAR,16.0
K6S2 010335Z AUTO 00000KT 10SM BKN004 04/02 A3018 RMK AO2,K6S2,2023-02-01T03:35:00Z,43.98,-124.12,4.0,2.0,0,0,,10.0,30.180119,,,TRUE,TRUE,,,,,,,BKN,400,,,,,,,LIFR,,,,,,,,,,,,SPECI,16.0
K6S2 010315Z AUTO 00000KT 10SM SCT006 04/02 A3018 RMK AO2,K6S2,2023-02-01T03:15:00Z,43.98,-124.12,4.0,2.0,0,0,,10.0,30.180119,,,TRUE,TRUE,,,,,,,SCT,600,,,,,,,VFR,,,,,,,,,,,,METAR,16.0
K6S2 010255Z AUTO 00000KT 10SM CLR 05/03 A3018 RMK AO2,K6S2,2023-02-01T02:55:00Z,43.98,-124.12,5.0,3.0,0,0,,10.0,30.180119,,,TRUE,TRUE,,,,,,,CLR,,,,,,,,VFR,,,,,,,,,,,,METAR,16.0
K6S2 010235Z AUTO 00000KT 10SM FEW003 FEW120 05/01 A3019 RMK AO2,K6S2,2023-02-01T02:35:00Z,43.98,-124.12,5.0,1.0,0,0,,10.0,30.188976,,,TRUE,TRUE,,,,,,,FEW,300,FEW,12000,,,,,VFR,,,,,,,,,,,,METAR,16.0
K6S2 010215Z AUTO 00000KT 10SM BKN003 06/01 A3019 RMK AO2,K6S2,2023-02-01T02:15:00Z,43.98,-124.12,6.0,1.0,0,0,,10.0,30.188976,,,TRUE,TRUE,,,,,,,BKN,300,,,,,,,LIFR,,,,,,,,,,,,METAR,16.0
K6S2 010155Z AUTO 00000KT 10SM BKN003 06/00 A3019 RMK AO2,K6S2,2023-02-01T01:55:00Z,43.98,-124.12,6.0,0.0,0,0,,10.0,30.188976,,,TRUE,TRUE,,,,,,,BKN,300,,,,,,,LIFR,,,,,,,,,,,,METAR,16.0
K6S2 010135Z AUTO 00000KT 10SM FEW003 07/M00 A3019 RMK AO2,K6S2,2023-02-01T01:35:00Z,43.98,-124.12,7.0,0.0,0,0,,10.0,30.188976,,,TRUE,TRUE,,,,,,,FEW,300,,,,,,,VFR,,,,,,,,,,,,SPECI,16.0
K6S2 010115Z AUTO 00000KT 10SM CLR 07/00 A3019 RMK AO2,K6S2,2023-02-01T01:15:00Z,43.98,-124.12,7.0,0.0,0,0,,10.0,30.188976,,,TRUE,TRUE,,,,,,,CLR,,,,,,,,VFR,,,,,,,,,,,,METAR,16.0
K6S2 010055Z AUTO 34005KT 10SM CLR 08/00 A3019 RMK AO2,K6S2,2023-02-01T00:55:00Z,43.98,-124.12,8.0,0.0,340,5,,10.0,30.188976,,,TRUE,TRUE,,,,,,,CLR,,,,,,,,VFR,,,,,,,,,,,,METAR,16.0
K6S2 010035Z AUTO 33006KT 10SM CLR 08/01 A3019 RMK AO2,K6S2,2023-02-01T00:35:00Z,43.98,-124.12,8.0,1.0,330,6,,10.0,30.188976,,,TRUE,TRUE,,,,,,,CLR,,,,,,,,VFR,,,,,,,,,,,,METAR,16.0
K6S2 010015Z AUTO 33007KT 10SM CLR 08/01 A3019 RMK AO2,K6S2,2023-02-01T00:15:00Z,43.98,-124.12,8.0,1.0,330,7,,10.0,30.188976,,,TRUE,TRUE,,,,,,,CLR,,,,,,,,VFR,,,,,,,,,,,,SPECI,16.0
K6S2 312355Z AUTO 33007KT 10SM CLR 09/03 A3019 RMK AO2,K6S2,2023-01-31T23:55:00Z,43.98,-124.12,9.0,3.0,330,7,,10.0,30.188976,,,TRUE,TRUE,,,,,,,CLR,,,,,,,,VFR,,,,,,,,,,,,METAR,16.0
K6S2 312335Z AUTO 32005KT 10SM CLR 09/00 A3019 RMK AO2,K6S2,2023-01-31T23:35:00Z,43.98,-124.12,9.0,0.0,320,5,,10.0,30.188976,,,TRUE,TRUE,,,,,,,CLR,,,,,,,,VFR,,,,,,,,,,,,SPECI,16.0
K6S2 312315Z AUTO 32006KT 10SM CLR 09/01 A3019 RMK AO2,K6S2,2023-01-31T23:15:00Z,43.98,-124.12,9.0,1.0,320,6,,10.0,30.188976,,,TRUE,TRUE,,,,,,,CLR,,,,,,,,VFR,,,,,,,,,,,,METAR,16.0
K6S2 312255Z AUTO 30007KT 10SM CLR 10/01 A3019 RMK AO2,K6S2,2023-01-31T22:55:00Z,43.98,-124.12,10.0,1.0,300,7,,10.0,30.188976,,,TRUE,TRUE,,,,,,,CLR,,,,,,,,VFR,,,,,,,,,,,,METAR,16.0
K6S2 312235Z AUTO 30008KT 9SM CLR 11/M01 A3017 RMK AO2,K6S2,2023-01-31T22:35:00Z,43.98,-124.12,11.0,-1.0,300,8,,9.0,30.171259,,,TRUE,TRUE,,,,,,,CLR,,,,,,,,VFR,,,,,,,,,,,,METAR,16.0
K6S2 312215Z AUTO 00000KT 10SM CLR 12/M04 A3016 RMK AO2,K6S2,2023-01-31T22:15:00Z,43.98,-124.12,12.0,-4.0,0,0,,10.0,30.159449,,,TRUE,TRUE,,,,,,,CLR,,,,,,,,VFR,,,,,,,,,,,,SPECI,16.0
K6S2 312155Z AUTO 00000KT 10SM CLR 11/M03 A3017 RMK AO2,K6S2,2023-01-31T21:55:00Z,43.98,-124.12,11.0,-3.0,0,0,,10.0,30.171259,,,TRUE,TRUE,,,,,,,CLR,,,,,,,,VFR,,,,,,,,,,,,METAR,16.0
K6S2 312135Z AUTO 00000KT 10SM CLR 10/M03 A3018 RMK AO2,K6S2,2023-01-31T21:35:00Z,43.98,-124.12,10.0,-3.0,0,0,,10.0,30.180119,,,TRUE,TRUE,,,,,,,CLR,,,,,,,,VFR,,,,,,,,,,,,METAR,16.0
K6S2 312115Z AUTO 00000KT 10SM CLR 09/M01 A3019 RMK AO2,K6S2,2023-01-31T21:15:00Z,43.98,-124.12,9.0,-1.0,0,0,,10.0,30.188976,,,TRUE,TRUE,,,,,,,CLR,,,,,,,,VFR,,,,,,,,,,,,SPECI,16.0
K6S2 312055Z AUTO VRB04KT 10SM CLR 09/M01 A3021 RMK AO2,K6S2,2023-01-31T20:55:00Z,43.98,-124.12,9.0,-1.0,0,4,,10.0,30.209646,,,TRUE,TRUE,,,,,,,CLR,,,,,,,,VFR,,,,,,,,,,,,SPECI,16.0
K6S2 312035Z AUTO 31008KT 10SM CLR 09/M02 A3022 RMK AO2,K6S2,2023-01-31T20:35:00Z,43.98,-124.12,9.0,-2.0,310,8,,10.0,30.221457,,,TRUE,TRUE,,,,,,,CLR,,,,,,,,VFR,,,,,,,,,,,,SPECI,16.0
K6S2 312015Z AUTO 33007KT 10SM CLR 09/M03 A3022 RMK AO2,K6S2,2023-01-31T20:15:00Z,43.98,-124.12,9.0,-3.0,330,7,,10.0,30.221457,,,TRUE,TRUE,,,,,,,CLR,,,,,,,,VFR,,,,,,,,,,,,SPECI,16.0
K6S2 311955Z AUTO VRB03KT 10SM CLR 08/M05 A3023 RMK AO2,K6S2,2023-01-31T19:55:00Z,43.98,-124.12,8.0,-5.0,0,3,,10.0,30.230314,,,TRUE,TRUE,,,,,,,CLR,,,,,,,,VFR,,,,,,,,,,,,METAR,16.0
K6S2 311935Z AUTO VRB03KT 10SM CLR 07/M05 A3023 RMK AO2,K6S2,2023-01-31T19:35:00Z,43.98,-124.12,7.0,-5.0,0,3,,10.0,30.230314,,,TRUE,TRUE,,,,,,,CLR,,,,,,,,VFR,,,,,,,,,,,,SPECI,16.0
K6S2 311915Z AUTO VRB04KT 10SM CLR 06/M05 A3024 RMK AO2,K6S2,2023-01-31T19:15:00Z,43.98,-124.12,6.0,-5.0,0,4,,10.0,30.239174,,,TRUE,TRUE,,,,,,,CLR,,,,,,,,VFR,,,,,,,,,,,,METAR,16.0
K6S2 311855Z AUTO VRB05G12KT 10SM CLR 05/M05 A3024 RMK AO2,K6S2,2023-01-31T18:55:00Z,43.98,-124.12,5.0,-5.0,0,5,12,10.0,30.239174,,,TRUE,TRUE,,,,,,,CLR,,,,,,,,VFR,,,,,,,,,,,,METAR,16.0
K6S2 311835Z AUTO VRB03KT 10SM CLR 05/M06 A3024 RMK AO2,K6S2,2023-01-31T18:35:00Z,43.98,-124.12,5.0,-6.0,0,3,,10.0,30.239174,,,TRUE,TRUE,,,,,,,CLR,,,,,,,,VFR,,,,,,,,,,,,SPECI,16.0
K6S2 311815Z AUTO VRB04KT 10SM CLR 04/M06 A3025 RMK AO2,K6S2,2023-01-31T18:15:00Z,43.98,-124.12,4.0,-6.0,0,4,,10.0,30.250984,,,TRUE,TRUE,,,,,,,CLR,,,,,,,,VFR,,,,,,,,,,,,SPECI,16.0
