No errors
No warnings
53 ms
data source=metars
632 results
raw_text,station_id,observation_time,latitude,longitude,temp_c,dewpoint_c,wind_dir_degrees,wind_speed_kt,wind_gust_kt,visibility_statute_mi,altim_in_hg,sea_level_pressure_mb,corrected,auto,auto_station,maintenance_indicator_on,no_signal,lightning_sensor_off,freezing_rain_sensor_off,present_weather_sensor_off,wx_string,sky_cover,cloud_base_ft_agl,sky_cover,cloud_base_ft_agl,sky_cover,cloud_base_ft_agl,sky_cover,cloud_base_ft_agl,flight_category,three_hr_pressure_tendency_mb,maxT_c,minT_c,maxT24hr_c,minT24hr_c,precip_in,pcp3hr_in,pcp6hr_in,pcp24hr_in,snow_in,vert_vis_ft,metar_type,elevation_m
KAST 021655Z AUTO 28011KT 6SM BR BKN032 BKN048 OVC100 07/05 A2999 RMK AO2 RAE22 SLP156 P0001 T00720050,KAST,2023-03-02T16:55:00Z,46.15,-123.88,7.2,5.0,280,11,,6.0,29.991142,1015.6,,TRUE,TRUE,,,,,,BR,BKN,3200,BKN,4800,OVC,10000,,,VFR,,,,,,0.01,,,,,,METAR,3.0
KAST 021636Z AUTO 28010KT 5SM BR FEW009 SCT035 OVC044 07/06 A2999 RMK AO2 RAE22 P0001 T00720056,KAST,2023-03-02T16:36:00Z,46.15,-123.88,7.2,5.6,280,10,,5.0,29.991142,,,TRUE,TRUE,,,,,,BR,FEW,900,SCT,3500,OVC,4400,,,MVFR,,,,,,0.01,,,,,,SPECI,3.0
KAST 021627Z AUTO 26009KT 5SM BR SCT007 BKN022 OVC040 07/06 A2998 RMK AO2 RAE22 P0001 T00720061,KAST,2023-03-02T16:27:00Z,46.15,-123.88,7.2,6.1,260,9,,5.0,29.97933,,,TRUE,TRUE,,,,,,BR,SCT,700,BKN,2200,OVC,4000,,,MVFR,,,,,,0.01,,,,,,SPECI,3.0
KAST 021555Z AUTO 27006KT 3SM -RA BR BKN007 OVC010 07/07 A2998 RMK AO2 PK WND 23027/1501 WSHFT 1443 SLP150 P0019 T00720067,KAST,2023-03-02T15:55:00Z,46.15,-123.88,7.2,6.7,270,6,,3.0,29.97933,1015.0,,TRUE,TRUE,,,,,,-RA BR,BKN,700,OVC,1000,,,,,IFR,,,,,,0.19,,,,,,METAR,3.0
KAST 021545Z AUTO 29006KT 3SM -RA BR BKN007 OVC019 07/06 A2997 RMK AO2 PK WND 23027/1501 WSHFT 1443 P0017 T00670061,KAST,2023-03-02T15:45:00Z,46.15,-123.88,6.7,6.1,290,6,,3.0,29.970472,,,TRUE,TRUE,,,,,,-RA BR,BKN,700,OVC,1900,,,,,IFR,,,,,,0.17,,,,,,SPECI,3.0
KAST 021522Z AUTO 29013KT 3SM RA BR SCT007 OVC016 07/06 A2996 RMK AO2 PK WND 23027/1501 WSHFT 1443 P0012 T00670061,KAST,2023-03-02T15:22:00Z,46.15,-123.88,6.7,6.1,290,13,,3.0,29.958662,,,TRUE,TRUE,,,,,,RA BR,SCT,700,OVC,1600,,,,,MVFR,,,,,,0.12,,,,,,SPECI,3.0
KAST 021517Z AUTO 28013KT 3SM RA BR BKN007 OVC014 07/06 A2996 RMK AO2 PK WND 23027/1501 WSHFT 1443 P0011 T00670061,KAST,2023-03-02T15:17:00Z,46.15,-123.88,6.7,6.1,280,13,,3.0,29.958662,,,TRUE,TRUE,,,,,,RA BR,BKN,700,OVC,1400,,,,,IFR,,,,,,0.11,,,,,,METAR,3.0
KAST 021503Z AUTO 25017G27KT 2SM +RA BR BKN007 OVC012 07/06 A2996 RMK AO2 PK WND 23027/1501 WSHFT 1443 P0004 T00720061,KAST,2023-03-02T15:03:00Z,46.15,-123.88,7.2,6.1,250,17,27,2.0,29.958662,,,TRUE,TRUE,,,,,,+RA BR,BKN,700,OVC,1200,,,,,IFR,,,,,,0.04,,,,,,SPECI,3.0
KAST 021455Z AUTO 27018G27KT 2 1/2SM +RA BR SCT007 OVC014 07/06 A2995 RMK AO2 PK WND 21033/1434 CIG 008 RWY 08 SLP140 P0011 60020 T00720056 56015,KAST,2023-03-02T14:55:00Z,46.15,-123.88,7.2,5.6,270,18,27,2.5,29.949802,1014.0,,TRUE,TRUE,,,,,,+RA BR,SCT,700,OVC,1400,,,,,IFR,-1.5,,,,,0.11,0.2,,,,,METAR,3.0
KAST 021445Z AUTO 20023G31KT 3SM -RA BR FEW009 OVC012 07/06 A2993 RMK AO2 PK WND 21033/1434 CIG 008 RWY 08 P0008 T00720056,KAST,2023-03-02T14:45:00Z,46.15,-123.88,7.2,5.6,200,23,31,3.0,29.929134,,,TRUE,TRUE,,,,,,-RA BR,FEW,900,OVC,1200,,,,,MVFR,,,,,,0.08,,,,,,SPECI,3.0
KAST 021424Z AUTO 20022G31KT 4SM RA BR SCT009 OVC016 07/06 A2994 RMK AO2 PK WND 20033/1401 CIG 008 RWY 08 P0005 T00670056,KAST,2023-03-02T14:24:00Z,46.15,-123.88,6.7,5.6,200,22,31,4.0,29.940945,,,TRUE,TRUE,,,,,,RA BR,SCT,900,OVC,1600,,,,,MVFR,,,,,,0.05,,,,,,SPECI,3.0
KAST 021355Z AUTO 19018G29KT 5SM -RA BR BKN010 OVC020 07/05 A2995 RMK AO2 PK WND 19040/1320 SLP141 P0006 T00670050,KAST,2023-03-02T13:55:00Z,46.15,-123.88,6.7,5.0,190,18,29,5.0,29.949802,1014.1,,TRUE,TRUE,,,,,,-RA BR,BKN,1000,OVC,2000,,,,,MVFR,,,,,,0.06,,,,,,METAR,3.0
KAST 021348Z AUTO 20019G32KT 5SM -RA BR BKN012 OVC020 07/05 A2995 RMK AO2 PK WND 19040/1320 P0005 T00670050,KAST,2023-03-02T13:48:00Z,46.15,-123.88,6.7,5.0,200,19,32,5.0,29.949802,,,TRUE,TRUE,,,,,,-RA BR,BKN,1200,OVC,2000,,,,,MVFR,,,,,,0.05,,,,,,SPECI,3.0
KAST 021337Z AUTO 20017G35KT 4SM -RA BR SCT012 OVC020 07/05 A2996 RMK AO2 PK WND 19040/1320 CIG 009 RWY 08 P0004 T00670050,KAST,2023-03-02T13:37:00Z,46.15,-123.88,6.7,5.0,200,17,35,4.0,29.958662,,,TRUE,TRUE,,,,,,-RA BR,SCT,1200,OVC,2000,,,,,MVFR,,,,,,0.04,,,,,,METAR,3.0
KAST 021323Z AUTO 20021G40KT 4SM -RA BR BKN012 OVC017 07/05 A2996 RMK AO2 PK WND 19040/1320 P0003 T00670050,KAST,2023-03-02T13:23:00Z,46.15,-123.88,6.7,5.0,200,21,40,4.0,29.958662,,,TRUE,TRUE,,,,,,-RA BR,BKN,1200,OVC,1700,,,,,MVFR,,,,,,0.03,,,,,,SPECI,3.0
KAST 021309Z AUTO 19018G28KT 3SM -RA BR SCT010 OVC017 07/04 A2996 RMK AO2 PK WND 20028/1300 CIG 011 RWY 08 P0001 T00670044,KAST,2023-03-02T13:09:00Z,46.15,-123.88,6.7,4.4,190,18,28,3.0,29.958662,,,TRUE,TRUE,,,,,,-RA BR,SCT,1000,OVC,1700,,,,,MVFR,,,,,,0.01,,,,,,METAR,3.0
KAST 021305Z AUTO 20015G28KT 3SM -RA BR BKN013 OVC021 07/04 A2996 RMK AO2 PK WND 20028/1300 P0000 T00670044,KAST,2023-03-02T13:05:00Z,46.15,-123.88,6.7,4.4,200,15,28,3.0,29.958662,,,TRUE,TRUE,,,,,,-RA BR,BKN,1300,OVC,2100,,,,,MVFR,,,,,,0.005,,,,,,SPECI,3.0
KAST 021255Z AUTO 20016G30KT 4SM -RA BR SCT013 OVC021 06/04 A2996 RMK AO2 PK WND 20033/1157 SLP146 P0003 T00610044,KAST,2023-03-02T12:55:00Z,46.15,-123.88,6.1,4.4,200,16,30,4.0,29.958662,1014.6,,TRUE,TRUE,,,,,,-RA BR,SCT,1300,OVC,2100,,,,,MVFR,,,,,,0.03,,,,,,METAR,3.0
KAST 021155Z AUTO 20020G27KT 4SM -RA BR SCT013 BKN019 OVC026 06/04 A2999 RMK AO2 PK WND 19030/1125 SLP154 P0003 60009 70012 T00610039 10067 20044 58021,KAST,2023-03-02T11:55:00Z,46.15,-123.88,6.1,3.9,200,20,27,4.0,29.991142,1015.4,,TRUE,TRUE,,,,,,-RA BR,SCT,1300,BKN,1900,OVC,2600,,,MVFR,-2.1,6.7,4.4,,,0.03,,0.09,0.12,,,METAR,3.0
KAST 021143Z AUTO 20015G29KT 5SM -RA BR BKN013 OVC021 06/04 A3000 RMK AO2 PK WND 19030/1125 P0002 T00610039,KAST,2023-03-02T11:43:00Z,46.15,-123.88,6.1,3.9,200,15,29,5.0,30.0,,,TRUE,TRUE,,,,,,-RA BR,BKN,1300,OVC,2100,,,,,MVFR,,,,,,0.02,,,,,,SPECI,3.0
KAST 021055Z AUTO 20014G24KT 6SM -RA BR SCT012 BKN017 OVC037 06/04 A3002 RMK AO2 PK WND 21027/0956 SLP165 P0005 T00560039,KAST,2023-03-02T10:55:00Z,46.15,-123.88,5.6,3.9,200,14,24,6.0,30.02067,1016.5,,TRUE,TRUE,,,,,,-RA BR,SCT,1200,BKN,1700,OVC,3700,,,MVFR,,,,,,0.05,,,,,,METAR,3.0
KAST 021046Z AUTO 19015G22KT 5SM -RA BR BKN012 OVC022 06/04 A3003 RMK AO2 PK WND 21027/0956 P0005 T00560039,KAST,2023-03-02T10:46:00Z,46.15,-123.88,5.6,3.9,190,15,22,5.0,30.029528,,,TRUE,TRUE,,,,,,-RA BR,BKN,1200,OVC,2200,,,,,MVFR,,,,,,0.05,,,,,,SPECI,3.0
KAST 020955Z AUTO 20013G26KT 4SM -RA SCT018 OVC027 06/03 A3005 RMK AO2 PK WND 21028/0857 RAB0857 SLP174 P0000 T00560028,KAST,2023-03-02T09:55:00Z,46.15,-123.88,5.6,2.8,200,13,26,4.0,30.050198,1017.4,,TRUE,TRUE,,,,,,-RA,SCT,1800,OVC,2700,,,,,MVFR,,,,,,0.005,,,,,,METAR,3.0
KAST 020950Z AUTO 19018G26KT 4SM -RA SCT017 OVC027 06/03 A3005 RMK AO2 PK WND 21028/0857 RAB0857 P0000,KAST,2023-03-02T09:50:00Z,46.15,-123.88,6.0,3.0,190,18,26,4.0,30.050198,,,TRUE,TRUE,,,,,,-RA,SCT,1700,OVC,2700,,,,,MVFR,,,,,,0.005,,,,,,SPECI,3.0
KAST 020855Z AUTO 21018G29KT 10SM SCT034 OVC041 06/01 A3007 RMK AO2 PK WND 23029/0854 RAB04E53 SLP183 P0001 60001 T00610011 56015,KAST,2023-03-02T08:55:00Z,46.15,-123.88,6.1,1.1,210,18,29,10.0,30.070866,1018.3,,TRUE,TRUE,,,,,,,SCT,3400,OVC,4100,,,,,VFR,-1.5,,,,,0.01,0.01,,,,,METAR,3.0
KAST 020755Z AUTO 17005KT 10SM FEW042 OVC055 06/03 A3009 RMK AO2 RAE0659 SLP188 P0000 T00560033 400831033,KAST,2023-03-02T07:55:00Z,46.15,-123.88,5.6,3.3,170,5,,10.0,30.088583,1018.8,,TRUE,TRUE,,,,,,,FEW,4200,OVC,5500,,,,,VFR,,,,8.3,-3.3,0.005,,,,,,METAR,3.0
KAST 020655Z AUTO 16008KT 7SM -RA FEW025 BKN038 OVC048 04/03 A3010 RMK AO2 RAE03B42 SLP193 P0000 T00440028,KAST,2023-03-02T06:55:00Z,46.15,-123.88,4.4,2.8,160,8,,7.0,30.100393,1019.3,,TRUE,TRUE,,,,,,-RA,FEW,2500,BKN,3800,OVC,4800,,,VFR,,,,,,0.005,,,,,,SPECI,3.0
KAST 020555Z AUTO 16006KT 10SM -RA FEW029 SCT050 OVC060 05/03 A3012 RMK AO2 SLP198 P0001 60003 T00500028 10072 20044 58006,KAST,2023-03-02T05:55:00Z,46.15,-123.88,5.0,2.8,160,6,,10.0,30.121063,1019.8,,TRUE,TRUE,,,,,,-RA,FEW,2900,SCT,5000,OVC,6000,,,VFR,-0.6,7.2,4.4,,,0.01,,0.03,,,,METAR,3.0
KAST 020455Z AUTO 17004KT 10SM -RA SCT036 BKN045 OVC080 04/03 A3012 RMK AO2 RAB45 SLP199 P0000 T00440028,KAST,2023-03-02T04:55:00Z,46.15,-123.88,4.4,2.8,170,4,,10.0,30.121063,1019.9,,TRUE,TRUE,,,,,,-RA,SCT,3600,BKN,4500,OVC,8000,,,VFR,,,,,,0.005,,,,,,METAR,3.0
KAST 020355Z AUTO 18004KT 10SM BKN039 BKN050 OVC080 05/03 A3014 RMK AO2 RAE10 SLP206 P0000 T00500028,KAST,2023-03-02T03:55:00Z,46.15,-123.88,5.0,2.8,180,4,,10.0,30.138779,1020.6,,TRUE,TRUE,,,,,,,BKN,3900,BKN,5000,OVC,8000,,,VFR,,,,,,0.005,,,,,,METAR,3.0
KAST 020255Z AUTO 16005KT 10SM -RA FEW036 OVC047 05/02 A3013 RMK AO2 RAB04 SLP204 P0001 60002 T00500022 58007,KAST,2023-03-02T02:55:00Z,46.15,-123.88,5.0,2.2,160,5,,10.0,30.129921,1020.4,,TRUE,TRUE,,,,,,-RA,FEW,3600,OVC,4700,,,,,VFR,-0.7,,,,,0.01,0.02,,,,,METAR,3.0
KAST 020239Z AUTO 21004KT 10SM -RA FEW026 SCT035 OVC042 05/02 A3014 RMK AO2 RAB04 P0001 T00500022,KAST,2023-03-02T02:39:00Z,46.15,-123.88,5.0,2.2,210,4,,10.0,30.138779,,,TRUE,TRUE,,,,,,-RA,FEW,2600,SCT,3500,OVC,4200,,,VFR,,,,,,0.01,,,,,,SPECI,3.0
KAST 020230Z AUTO 22006KT 10SM -RA FEW024 BKN029 OVC035 05/02 A3015 RMK AO2 RAB04 P0001 T00500022,KAST,2023-03-02T02:30:00Z,46.15,-123.88,5.0,2.2,220,6,,10.0,30.15059,,,TRUE,TRUE,,,,,,-RA,FEW,2400,BKN,2900,OVC,3500,,,MVFR,,,,,,0.01,,,,,,METAR,3.0
KAST 020155Z AUTO 17004KT 10SM FEW034 SCT060 OVC095 06/02 A3015 RMK AO2 RAE0059 SLP209 P0000 T00560022,KAST,2023-03-02T01:55:00Z,46.15,-123.88,5.6,2.2,170,4,,10.0,30.15059,1020.9,,TRUE,TRUE,,,,,,,FEW,3400,SCT,6000,OVC,9500,,,VFR,,,,,,0.005,,,,,,METAR,3.0
KAST 020055Z AUTO 20007KT 10SM -RA FEW025 BKN040 OVC060 06/02 A3015 RMK AO2 RAB36 SLP210 P0001 T00610022,KAST,2023-03-02T00:55:00Z,46.15,-123.88,6.1,2.2,200,7,,10.0,30.15059,1021.0,,TRUE,TRUE,,,,,,-RA,FEW,2500,BKN,4000,OVC,6000,,,VFR,,,,,,0.01,,,,,,SPECI,3.0
KAST 012355Z AUTO 23005KT 10SM FEW035 BKN050 OVC085 07/01 A3015 RMK AO2 SLP210 T00720011 10083 20028 53003,KAST,2023-03-01T23:55:00Z,46.15,-123.88,7.2,1.1,230,5,,10.0,30.15059,1021.0,,TRUE,TRUE,,,,,,,FEW,3500,BKN,5000,OVC,8500,,,VFR,0.3,8.3,2.8,,,,,,,,,SPECI,3.0
KAST 012255Z AUTO 22010KT 10SM FEW085 BKN110 08/01 A3015 RMK AO2 SLP211 T00780011,KAST,2023-03-01T22:55:00Z,46.15,-123.88,7.8,1.1,220,10,,10.0,30.15059,1021.1,,TRUE,TRUE,,,,,,,FEW,8500,BKN,11000,,,,,VFR,,,,,,,,,,,,METAR,3.0
KAST 012155Z AUTO 22010KT 10SM OVC090 08/02 A3014 RMK AO2 SLP205 T00780017,KAST,2023-03-01T21:55:00Z,46.15,-123.88,7.8,1.7,220,10,,10.0,30.138779,1020.5,,TRUE,TRUE,,,,,,,OVC,9000,,,,,,,VFR,,,,,,,,,,,,METAR,3.0
KAST 012055Z AUTO 23011G16KT 10SM BKN100 08/01 A3014 RMK AO2 SLP207 T00780011 53012,KAST,2023-03-01T20:55:00Z,46.15,-123.88,7.8,1.1,230,11,16,10.0,30.138779,1020.7,,TRUE,TRUE,,,,,,,BKN,10000,,,,,,,VFR,1.2,,,,,,,,,,,METAR,3.0
KAST 011955Z AUTO 01005KT 10SM CLR 06/02 A3013 RMK AO2 SLP201 T00560017,KAST,2023-03-01T19:55:00Z,46.15,-123.88,5.6,1.7,10,5,,10.0,30.129921,1020.1,,TRUE,TRUE,,,,,,,CLR,,,,,,,,VFR,,,,,,,,,,,,METAR,3.0
KAST 011855Z AUTO 36003KT 10SM BKN110 05/02 A3011 RMK AO2 SLP196 T00500017,KAST,2023-03-01T18:55:00Z,46.15,-123.88,5.0,1.7,360,3,,10.0,30.109253,1019.6,,TRUE,TRUE,,,,,,,BKN,11000,,,,,,,VFR,,,,,,,,,,,,METAR,3.0
KAST 011755Z AUTO 00000KT 10SM SCT120 03/01 A3011 RMK AO2 SLP195 I6000 T00280006 10028 21033 53023,KAST,2023-03-01T17:55:00Z,46.15,-123.88,2.8,0.6,0,0,,10.0,30.109253,1019.5,,TRUE,TRUE,,,,,,,SCT,12000,,,,,,,VFR,2.3,2.8,-3.3,,,,,,,,,METAR,3.0
KAST 011655Z AUTO 00000KT 10SM CLR 01/M01 A3008 RMK AO2 SLP186 I1000 T00111006,KAST,2023-03-01T16:55:00Z,46.15,-123.88,1.1,-0.6,0,0,,10.0,30.079725,1018.6,,TRUE,TRUE,,,,,,,CLR,,,,,,,,VFR,,,,,,,,,,,,METAR,3.0
KAST 011555Z AUTO 00000KT 10SM CLR M02/M02 A3006 RMK AO2 SLP178 I1000 T10171022,KAST,2023-03-01T15:55:00Z,46.15,-123.88,-1.7,-2.2,0,0,,10.0,30.059055,1017.8,,TRUE,TRUE,,,,,,,CLR,,,,,,,,VFR,,,,,,,,,,,,METAR,3.0
KAST 011455Z AUTO 00000KT 10SM CLR M03/M04 A3004 RMK AO2 SLP172 I3000 T10331044 51027,KAST,2023-03-01T14:55:00Z,46.15,-123.88,-3.3,-4.4,0,0,,10.0,30.041338,1017.2,,TRUE,TRUE,,,,,,,CLR,,,,,,,,VFR,2.7,,,,,,,,,,,METAR,3.0
KAST 011355Z AUTO 00000KT 10SM CLR M03/M03 A3002 RMK AO2 SLP166 I1000 T10281033,KAST,2023-03-01T13:55:00Z,46.15,-123.88,-2.8,-3.3,0,0,,10.0,30.02067,1016.6,,TRUE,TRUE,,,,,,,CLR,,,,,,,,VFR,,,,,,,,,,,,SPECI,3.0
KAST 011255Z AUTO 14004KT 10SM CLR M02/M03 A3000 RMK AO2 SLP157 I1000 T10221033,KAST,2023-03-01T12:55:00Z,46.15,-123.88,-2.2,-3.3,140,4,,10.0,30.0,1015.7,,TRUE,TRUE,,,,,,,CLR,,,,,,,,VFR,,,,,,,,,,,,METAR,3.0
KAST 011155Z AUTO 11003KT 10SM CLR M03/M04 A2996 RMK AO2 SLP145 I6001 T10281039 10000 21028 51027,KAST,2023-03-01T11:55:00Z,46.15,-123.88,-2.8,-3.9,110,3,,10.0,29.958662,1014.5,,TRUE,TRUE,,,,,,,CLR,,,,,,,,VFR,2.7,0.0,-2.8,,,,,,,,,METAR,3.0
KAST 011055Z AUTO 17004KT 10SM CLR M02/M04 A2994 RMK AO2 SLP138 I1001 T10221039,KAST,2023-03-01T10:55:00Z,46.15,-123.88,-2.2,-3.9,170,4,,10.0,29.940945,1013.8,,TRUE,TRUE,,,,,,,CLR,,,,,,,,VFR,,,,,,,,,,,,METAR,3.0
KAST 010955Z AUTO 00000KT 10SM CLR M02/M03 A2991 RMK AO2 SLP128 I1000 T10171028,KAST,2023-03-01T09:55:00Z,46.15,-123.88,-1.7,-2.8,0,0,,10.0,29.911417,1012.8,,TRUE,TRUE,,,,,,,CLR,,,,,,,,VFR,,,,,,,,,,,,METAR,3.0
KAST 010855Z AUTO 14003KT 10SM CLR M02/M02 A2988 RMK AO2 SLP119 I1000 I3000 T10171022 51025,KAST,2023-03-01T08:55:00Z,46.15,-123.88,-1.7,-2.2,140,3,,10.0,29.878937,1011.9,,TRUE,TRUE,,,,,,,CLR,,,,,,,,VFR,2.5,,,,,,,,,,,METAR,3.0
KAST 010755Z AUTO 14003KT 10SM CLR M01/M02 A2987 RMK AO2 SLP115 I1000 T10111022 400721011,KAST,2023-03-01T07:55:00Z,46.15,-123.88,-1.1,-2.2,140,3,,10.0,29.870079,1011.5,,TRUE,TRUE,,,,,,,CLR,,,,,,,,VFR,,,,7.2,-1.1,,,,,,,METAR,3.0
KAST 010655Z AUTO 00000KT 10SM CLR M01/M02 A2984 RMK AO2 SLP105 T10111022,KAST,2023-03-01T06:55:00Z,46.15,-123.88,-1.1,-2.2,0,0,,10.0,29.840551,1010.5,,TRUE,TRUE,,,,,,,CLR,,,,,,,,VFR,,,,,,,,,,,,METAR,3.0
KAST 010555Z AUTO 00000KT 10SM CLR 00/M01 A2981 RMK AO2 SLP094 T00001011 10067 21006 53025,KAST,2023-03-01T05:55:00Z,46.15,-123.88,0.0,-1.1,0,0,,10.0,29.811024,1009.4,,TRUE,TRUE,,,,,,,CLR,,,,,,,,VFR,2.5,6.7,-0.6,,,,,,,,,METAR,3.0
KAST 010455Z AUTO 00000KT 10SM CLR 01/M01 A2978 RMK AO2 SLP083 T00061011,KAST,2023-03-01T04:55:00Z,46.15,-123.88,0.6,-1.1,0,0,,10.0,29.778543,1008.3,,TRUE,TRUE,,,,,,,CLR,,,,,,,,VFR,,,,,,,,,,,,METAR,3.0
KAST 010355Z AUTO 00000KT 10SM CLR 02/00 A2975 RMK AO2 SLP072 T00170000,KAST,2023-03-01T03:55:00Z,46.15,-123.88,1.7,0.0,0,0,,10.0,29.749016,1007.2,,TRUE,TRUE,,,,,,,CLR,,,,,,,,VFR,,,,,,,,,,,,METAR,3.0
KAST 010255Z AUTO 33006KT 10SM CLR 03/01 A2973 RMK AO2 SLP068 T00330006 53031,KAST,2023-03-01T02:55:00Z,46.15,-123.88,3.3,0.6,330,6,,10.0,29.731298,1006.8,,TRUE,TRUE,,,,,,,CLR,,,,,,,,VFR,3.1,,,,,,,,,,,SPECI,3.0
KAST 010155Z AUTO 28005KT 10SM CLR 03/00 A2970 RMK AO2 SLP056 T00330000,KAST,2023-03-01T01:55:00Z,46.15,-123.88,3.3,0.0,280,5,,10.0,29.698818,1005.6,,TRUE,TRUE,,,,,,,CLR,,,,,,,,VFR,,,,,,,,,,,,METAR,3.0
KAST 010055Z AUTO 31008KT 10SM CLR 04/01 A2967 RMK AO2 SLP046 T00440006,KAST,2023-03-01T00:55:00Z,46.15,-123.88,4.4,0.6,310,8,,10.0,29.66929,1004.6,,TRUE,TRUE,,,,,,,CLR,,,,,,,,VFR,,,,,,,,,,,,METAR,3.0
KAST 282355Z AUTO 31008KT 10SM FEW110 06/01 A2964 RMK AO2 SLP037 60000 T00610006 10072 20022 53014,KAST,2023-02-28T23:55:00Z,46.15,-123.88,6.1,0.6,310,8,,10.0,29.639763,1003.7,,TRUE,TRUE,,,,,,,FEW,11000,,,,,,,VFR,1.4,7.2,2.2,,,,,0.005,,,,METAR,3.0
KAST 282255Z AUTO 34006KT 10SM CLR 06/01 A2962 RMK AO2 SLP029 T00560011,KAST,2023-02-28T22:55:00Z,46.15,-123.88,5.6,1.1,340,6,,10.0,29.619095,1002.9,,TRUE,TRUE,,,,,,,CLR,,,,,,,,VFR,,,,,,,,,,,,METAR,3.0
KAST 282155Z AUTO 32004KT 10SM FEW016 FEW021 BKN090 07/02 A2960 RMK AO2 SLP023 T00670022,KAST,2023-02-28T21:55:00Z,46.15,-123.88,6.7,2.2,320,4,,10.0,29.601377,1002.3,,TRUE,TRUE,,,,,,,FEW,1600,FEW,2100,BKN,9000,,,VFR,,,,,,,,,,,,SPECI,3.0
KAST 282123Z AUTO 36005KT 10SM FEW008 BKN080 BKN110 06/02 A2960 RMK AO2 T00610022,KAST,2023-02-28T21:23:00Z,46.15,-123.88,6.1,2.2,360,5,,10.0,29.601377,,,TRUE,TRUE,,,,,,,FEW,800,BKN,8000,BKN,11000,,,VFR,,,,,,,,,,,,SPECI,3.0
KAST 282102Z AUTO 34003KT 10SM SCT021 BKN048 OVC085 04/03 A2960 RMK AO2 T00440028,KAST,2023-02-28T21:02:00Z,46.15,-123.88,4.4,2.8,340,3,,10.0,29.601377,,,TRUE,TRUE,,,,,,,SCT,2100,BKN,4800,OVC,8500,,,VFR,,,,,,,,,,,,SPECI,3.0
KAST 282055Z AUTO 35006KT 10SM BKN021 BKN042 OVC090 04/02 A2960 RMK AO2 RAB16E28 SLP023 P0000 60000 T00390022 51015,KAST,2023-02-28T20:55:00Z,46.15,-123.88,3.9,2.2,350,6,,10.0,29.601377,1002.3,,TRUE,TRUE,,,,,,,BKN,2100,BKN,4200,OVC,9000,,,MVFR,1.5,,,,,0.005,0.005,,,,,METAR,3.0
KAST 282016Z AUTO 33011KT 10SM -RA FEW009 SCT013 OVC019 03/01 A2960 RMK AO2 RAB16 P0000 T00280011,KAST,2023-02-28T20:16:00Z,46.15,-123.88,2.8,1.1,330,11,,10.0,29.601377,,,TRUE,TRUE,,,,,,-RA,FEW,900,SCT,1300,OVC,1900,,,MVFR,,,,,,0.005,,,,,,METAR,3.0
KAST 282004Z AUTO 33011KT 10SM BKN011 BKN019 OVC046 03/01 A2960 RMK AO2 T00280006,KAST,2023-02-28T20:04:00Z,46.15,-123.88,2.8,0.6,330,11,,10.0,29.601377,,,TRUE,TRUE,,,,,,,BKN,1100,BKN,1900,OVC,4600,,,MVFR,,,,,,,,,,,,SPECI,3.0
KAST 281955Z AUTO 33011KT 10SM SCT009 BKN019 OVC085 03/01 A2959 RMK AO2 SLP021 T00330011,KAST,2023-02-28T19:55:00Z,46.15,-123.88,3.3,1.1,330,11,,10.0,29.589567,1002.1,,TRUE,TRUE,,,,,,,SCT,900,BKN,1900,OVC,8500,,,MVFR,,,,,,,,,,,,METAR,3.0
KAST 281855Z AUTO 08003KT 10SM BKN100 03/01 A2957 RMK AO2 RAE03UPB00E02 SLP013 P0000 T00330011,KAST,2023-02-28T18:55:00Z,46.15,-123.88,3.3,1.1,80,3,,10.0,29.568897,1001.3,,TRUE,TRUE,,,,,,,BKN,10000,,,,,,,VFR,,,,,,0.005,,,,,,METAR,3.0
KAST 281813Z AUTO 00000KT 10SM FEW008 BKN060 OVC075 02/01 A2956 RMK AO2 RAE03UPB00E02 CIG 039 RWY 08 P0000 T00220011,KAST,2023-02-28T18:13:00Z,46.15,-123.88,2.2,1.1,0,0,,10.0,29.56004,,,TRUE,TRUE,,,,,,,FEW,800,BKN,6000,OVC,7500,,,VFR,,,,,,0.005,,,,,,SPECI,3.0
KAST 281755Z AUTO 00000KT 9SM -RA BKN048 OVC060 02/02 A2956 RMK AO2 RAB38 CIG 035 RWY 08 SLP008 P0000 60000 T00220017 10033 20006 52016,KAST,2023-02-28T17:55:00Z,46.15,-123.88,2.2,1.7,0,0,,9.0,29.56004,1000.8,,TRUE,TRUE,,,,,,-RA,BKN,4800,OVC,6000,,,,,VFR,1.6,3.3,0.6,,,0.005,,0.005,,,,METAR,3.0
KAST 281655Z AUTO 01004KT 10SM FEW036 BKN060 OVC075 03/01 A2954 RMK AO2 SLP003 T00280011,KAST,2023-02-28T16:55:00Z,46.15,-123.88,2.8,1.1,10,4,,10.0,29.53937,1000.3,,TRUE,TRUE,,,,,,,FEW,3600,BKN,6000,OVC,7500,,,VFR,,,,,,,,,,,,METAR,3.0
KAST 281555Z AUTO 09005KT 10SM FEW043 OVC110 01/00 A2952 RMK AO2 SLP996 T00110000,KAST,2023-02-28T15:55:00Z,46.15,-123.88,1.1,0.0,90,5,,10.0,29.518702,999.6,,TRUE,TRUE,,,,,,,FEW,4300,OVC,11000,,,,,VFR,,,,,,,,,,,,METAR,3.0
KAST 281455Z AUTO 05003KT 10SM FEW050 01/M01 A2951 RMK AO2 SLP991 60000 T00061006 53003,KAST,2023-02-28T14:55:00Z,46.15,-123.88,0.6,-0.6,50,3,,10.0,29.509842,999.1,,TRUE,TRUE,,,,,,,FEW,5000,,,,,,,VFR,0.3,,,,,,0.005,,,,,METAR,3.0
KAST 281355Z AUTO 10006KT 10SM CLR 02/00 A2950 RMK AO2 RAB00E16 SLP989 P0000 T00170000,KAST,2023-02-28T13:55:00Z,46.15,-123.88,1.7,0.0,100,6,,10.0,29.500984,998.9,,TRUE,TRUE,,,,,,,CLR,,,,,,,,VFR,,,,,,0.005,,,,,,METAR,3.0
KAST 281255Z AUTO 17004KT 10SM SCT055 BKN070 OVC090 02/00 A2950 RMK AO2 CIG 055 RWY 08 SLP988 T00170000,KAST,2023-02-28T12:55:00Z,46.15,-123.88,1.7,0.0,170,4,,10.0,29.500984,998.8,,TRUE,TRUE,,,,,,,SCT,5500,BKN,7000,OVC,9000,,,VFR,,,,,,,,,,,,METAR,3.0
KAST 281155Z AUTO 29008KT 10SM FEW028 SCT043 BKN075 03/00 A2950 RMK AO2 RAB00E32 SLP989 P0002 60010 70025 T00280000 10044 20028 51020,KAST,2023-02-28T11:55:00Z,46.15,-123.88,2.8,0.0,290,8,,10.0,29.500984,998.9,,TRUE,TRUE,,,,,,,FEW,2800,SCT,4300,BKN,7500,,,VFR,2.0,4.4,2.8,,,0.02,,,0.25,,,SPECI,3.0
KAST 281148Z AUTO 28009KT 10SM FEW028 SCT036 BKN043 03/00 A2950 RMK AO2 RAB00E32 P0002 T00280000,KAST,2023-02-28T11:48:00Z,46.15,-123.88,2.8,0.0,280,9,,10.0,29.500984,,,TRUE,TRUE,,,,,,,FEW,2800,SCT,3600,BKN,4300,,,VFR,,,,,,0.02,,,,,,SPECI,3.0
KAST 281139Z AUTO 27008KT 10SM BKN028 BKN036 OVC043 03/00 A2950 RMK AO2 RAB00E32 P0002 T00280000,KAST,2023-02-28T11:39:00Z,46.15,-123.88,2.8,0.0,270,8,,10.0,29.500984,,,TRUE,TRUE,,,,,,,BKN,2800,BKN,3600,OVC,4300,,,MVFR,,,,,,0.02,,,,,,SPECI,3.0
KAST 281055Z AUTO 25006KT 10SM FEW034 BKN060 OVC075 04/01 A2949 RMK AO2 RAE20 SLP986 P0002 T00390006,KAST,2023-02-28T10:55:00Z,46.15,-123.88,3.9,0.6,250,6,,10.0,29.489174,998.6,,TRUE,TRUE,,,,,,,FEW,3400,BKN,6000,OVC,7500,,,VFR,,,,,,0.02,,,,,,METAR,3.0
KAST 280955Z AUTO 27013G22KT 10SM -RA FEW034 SCT046 BKN065 04/02 A2947 RMK AO2 RAE26B53 SLP980 P0001 T00390017,KAST,2023-02-28T09:55:00Z,46.15,-123.88,3.9,1.7,270,13,22,10.0,29.471457,998.0,,TRUE,TRUE,,,,,,-RA,FEW,3400,SCT,4600,BKN,6500,,,VFR,,,,,,0.01,,,,,,METAR,3.0
KAST 280923Z AUTO 30014KT 10SM -RA FEW025 SCT039 BKN075 04/01 A2946 RMK AO2 P0001 T00390011,KAST,2023-02-28T09:23:00Z,46.15,-123.88,3.9,1.1,300,14,,10.0,29.459646,,,TRUE,TRUE,,,,,,-RA,FEW,2500,SCT,3900,BKN,7500,,,VFR,,,,,,0.01,,,,,,SPECI,3.0
KAST 280855Z AUTO 28015G29KT 7SM -RA FEW019 BKN027 OVC034 03/01 A2944 RMK AO2 PK WND 28029/0849 SLP969 P0003 60005 T00330011 51029,KAST,2023-02-28T08:55:00Z,46.15,-123.88,3.3,1.1,280,15,29,7.0,29.438976,996.9,,TRUE,TRUE,,,,,,-RA,FEW,1900,BKN,2700,OVC,3400,,,MVFR,2.9,,,,,0.03,0.05,,,,,METAR,3.0
KAST 280838Z AUTO 27016G23KT 10SM -RA SCT022 SCT031 BKN039 04/02 A2943 RMK AO2 P0002 T00440022,KAST,2023-02-28T08:38:00Z,46.15,-123.88,4.4,2.2,270,16,23,10.0,29.430119,,,TRUE,TRUE,,,,,,-RA,SCT,2200,SCT,3100,BKN,3900,,,VFR,,,,,,0.02,,,,,,SPECI,3.0
KAST 280829Z AUTO 28014G23KT 8SM -RA SCT022 BKN028 BKN043 04/02 A2942 RMK AO2 P0002 T00440022,KAST,2023-02-28T08:29:00Z,46.15,-123.88,4.4,2.2,280,14,23,8.0,29.421259,,,TRUE,TRUE,,,,,,-RA,SCT,2200,BKN,2800,BKN,4300,,,MVFR,,,,,,0.02,,,,,,SPECI,3.0
KAST 280816Z AUTO 27009KT 10SM -RA FEW018 BKN033 OVC070 04/02 A2941 RMK AO2 P0002 T00390017,KAST,2023-02-28T08:16:00Z,46.15,-123.88,3.9,1.7,270,9,,10.0,29.409449,,,TRUE,TRUE,,,,,,-RA,FEW,1800,BKN,3300,OVC,7000,,,VFR,,,,,,0.02,,,,,,SPECI,3.0
KAST 280808Z AUTO 28012KT 6SM -RA BR SCT019 BKN023 OVC029 04/02 A2941 RMK AO2 P0001 T00390017,KAST,2023-02-28T08:08:00Z,46.15,-123.88,3.9,1.7,280,12,,6.0,29.409449,,,TRUE,TRUE,,,,,,-RA BR,SCT,1900,BKN,2300,OVC,2900,,,MVFR,,,,,,0.01,,,,,,SPECI,3.0
KAST 280755Z AUTO 27014G20KT 10SM -RA FEW017 BKN040 OVC055 04/02 A2940 RMK AO2 RAB0656E15B23 SLP957 P0001 T00440022 400720011,KAST,2023-02-28T07:55:00Z,46.15,-123.88,4.4,2.2,270,14,20,10.0,29.40059,995.7,,TRUE,TRUE,,,,,,-RA,FEW,1700,BKN,4000,OVC,5500,,,VFR,,,,7.2,1.1,0.01,,,,,,METAR,3.0
KAST 280750Z AUTO 27013KT 8SM -RA FEW015 BKN023 OVC055 04/03 A2940 RMK AO2 RAB0656E15B23 P0001,KAST,2023-02-28T07:50:00Z,46.15,-123.88,4.0,3.0,270,13,,8.0,29.40059,,,TRUE,TRUE,,,,,,-RA,FEW,1500,BKN,2300,OVC,5500,,,MVFR,,,,,,0.01,,,,,,METAR,3.0
KAST 280738Z AUTO 28007KT 10SM -RA SCT025 BKN041 OVC055 04/02 A2939 RMK AO2 RAB0656E15B23 P0000 T00390022,KAST,2023-02-28T07:38:00Z,46.15,-123.88,3.9,2.2,280,7,,10.0,29.388779,,,TRUE,TRUE,,,,,,-RA,SCT,2500,BKN,4100,OVC,5500,,,VFR,,,,,,0.005,,,,,,METAR,3.0
KAST 280729Z AUTO 30013G20KT 5SM -RA BR SCT017 BKN028 04/02 A2938 RMK AO2 RAB0656E15B23 P0000 T00390022,KAST,2023-02-28T07:29:00Z,46.15,-123.88,3.9,2.2,300,13,20,5.0,29.379921,,,TRUE,TRUE,,,,,,-RA BR,SCT,1700,BKN,2800,,,,,MVFR,,,,,,0.005,,,,,,SPECI,3.0
KAST 280721Z AUTO 26005KT 10SM SCT021 BKN032 OVC110 04/03 A2937 RMK AO2 RAB0656E15 P0000 T00390028,KAST,2023-02-28T07:21:00Z,46.15,-123.88,3.9,2.8,260,5,,10.0,29.371063,,,TRUE,TRUE,,,,,,,SCT,2100,BKN,3200,OVC,11000,,,VFR,,,,,,0.005,,,,,,SPECI,3.0
KAST 280655Z AUTO 16004KT 10SM FEW013 BKN019 OVC029 04/03 A2935 RMK AO2 RAB27E52 SLP939 P0001 T00390028,KAST,2023-02-28T06:55:00Z,46.15,-123.88,3.9,2.8,160,4,,10.0,29.350393,993.9,,TRUE,TRUE,,,,,,,FEW,1300,BKN,1900,OVC,2900,,,MVFR,,,,,,0.01,,,,,,METAR,3.0
KAST 280555Z AUTO 15006KT 10SM SCT018 BKN025 OVC036 03/02 A2936 RMK AO2 SLP940 60003 T00330022 10056 20033 51001,KAST,2023-02-28T05:55:00Z,46.15,-123.88,3.3,2.2,150,6,,10.0,29.359253,994.0,,TRUE,TRUE,,,,,,,SCT,1800,BKN,2500,OVC,3600,,,MVFR,0.1,5.6,3.3,,,,,0.03,,,,METAR,3.0
KAST 280543Z AUTO 15006KT 10SM FEW016 SCT023 OVC035 03/02 A2936 RMK AO2 T00330017,KAST,2023-02-28T05:43:00Z,46.15,-123.88,3.3,1.7,150,6,,10.0,29.359253,,,TRUE,TRUE,,,,,,,FEW,1600,SCT,2300,OVC,3500,,,VFR,,,,,,,,,,,,SPECI,3.0
KAST 280455Z AUTO 17004KT 10SM BKN016 BKN023 OVC029 03/02 A2935 RMK AO2 RAE44 SLP940 P0003 T00330017,KAST,2023-02-28T04:55:00Z,46.15,-123.88,3.3,1.7,170,4,,10.0,29.350393,994.0,,TRUE,TRUE,,,,,,,BKN,1600,BKN,2300,OVC,2900,,,MVFR,,,,,,0.03,,,,,,METAR,3.0
KAST 280355Z AUTO 19007KT 5SM RA BKN025 OVC033 04/01 A2935 RMK AO2 RAB41 SLP940 P0000 T00440011,KAST,2023-02-28T03:55:00Z,46.15,-123.88,4.4,1.1,190,7,,5.0,29.350393,994.0,,TRUE,TRUE,,,,,,RA,BKN,2500,OVC,3300,,,,,MVFR,,,,,,0.005,,,,,,METAR,3.0
KAST 280255Z AUTO 00000KT 10SM OVC036 05/01 A2936 RMK AO2 SLP941 60000 T00500011 56010,KAST,2023-02-28T02:55:00Z,46.15,-123.88,5.0,1.1,0,0,,10.0,29.359253,994.1,,TRUE,TRUE,,,,,,,OVC,3600,,,,,,,VFR,-1.0,,,,,,0.005,,,,,METAR,3.0
KAST 280155Z AUTO 16003KT 10SM SCT034 BKN050 OVC070 05/02 A2936 RMK AO2 RAE0056 SLP941 P0000 T00500017,KAST,2023-02-28T01:55:00Z,46.15,-123.88,5.0,1.7,160,3,,10.0,29.359253,994.1,,TRUE,TRUE,,,,,,,SCT,3400,BKN,5000,OVC,7000,,,VFR,,,,,,0.005,,,,,,METAR,3.0
KAST 280055Z AUTO 18005KT 10SM -RA FEW042 SCT050 BKN075 05/02 A2937 RMK AO2 CIG 050 RWY 08 SLP945 P0000 T00500017,KAST,2023-02-28T00:55:00Z,46.15,-123.88,5.0,1.7,180,5,,10.0,29.371063,994.5,,TRUE,TRUE,,,,,,-RA,FEW,4200,SCT,5000,BKN,7500,,,VFR,,,,,,0.005,,,,,,METAR,3.0
KAST 272355Z AUTO 19007KT 10SM -RA SCT026 BKN038 OVC065 06/02 A2939 RMK AO2 RAB2257E11B42 SLP951 P0000 60007 T00560017 10072 20039 56014,KAST,2023-02-27T23:55:00Z,46.15,-123.88,5.6,1.7,190,7,,10.0,29.388779,995.1,,TRUE,TRUE,,,,,,-RA,SCT,2600,BKN,3800,OVC,6500,,,VFR,-1.4,7.2,3.9,,,0.005,,0.07,,,,METAR,3.0
KAST 272255Z AUTO 19009G16KT 10SM BKN033 OVC046 07/01 A2940 RMK AO2 RAE2159B21E38 SLP955 P0000 T00670011,KAST,2023-02-27T22:55:00Z,46.15,-123.88,6.7,1.1,190,9,16,10.0,29.40059,995.5,,TRUE,TRUE,,,,,,,BKN,3300,OVC,4600,,,,,VFR,,,,,,0.005,,,,,,METAR,3.0
KAST 272155Z AUTO 17013G18KT 10SM -RA SCT029 BKN042 OVC050 06/02 A2941 RMK AO2 RAB00 SLP958 P0000 T00610017,KAST,2023-02-27T21:55:00Z,46.15,-123.88,6.1,1.7,170,13,18,10.0,29.409449,995.8,,TRUE,TRUE,,,,,,-RA,SCT,2900,BKN,4200,OVC,5000,,,VFR,,,,,,0.005,,,,,,METAR,3.0
KAST 272055Z AUTO 17009KT 10SM BKN032 BKN045 OVC060 07/01 A2943 RMK AO2 RAE04 SLP964 P0000 60007 T00670011 58012,KAST,2023-02-27T20:55:00Z,46.15,-123.88,6.7,1.1,170,9,,10.0,29.430119,996.4,,TRUE,TRUE,,,,,,,BKN,3200,BKN,4500,OVC,6000,,,VFR,-1.2,,,,,0.005,0.07,,,,,METAR,3.0
KAST 271955Z AUTO 00000KT 8SM -RA SCT028 BKN034 OVC042 06/03 A2945 RMK AO2 RAE10B19 SLP973 P0002 T00560028,KAST,2023-02-27T19:55:00Z,46.15,-123.88,5.6,2.8,0,0,,8.0,29.450787,997.3,,TRUE,TRUE,,,,,,-RA,SCT,2800,BKN,3400,OVC,4200,,,VFR,,,,,,0.02,,,,,,SPECI,3.0
KAST 271916Z AUTO 21003KT 10SM BKN032 BKN040 OVC047 04/02 A2947 RMK AO2 RAE10 P0001 T00440022,KAST,2023-02-27T19:16:00Z,46.15,-123.88,4.4,2.2,210,3,,10.0,29.471457,,,TRUE,TRUE,,,,,,,BKN,3200,BKN,4000,OVC,4700,,,VFR,,,,,,0.01,,,,,,SPECI,3.0
KAST 271855Z AUTO 18006KT 7SM -RA OVC022 04/02 A2947 RMK AO2 RAB02 SLP978 P0005 T00390017,KAST,2023-02-27T18:55:00Z,46.15,-123.88,3.9,1.7,180,6,,7.0,29.471457,997.8,,TRUE,TRUE,,,,,,-RA,OVC,2200,,,,,,,MVFR,,,,,,0.05,,,,,,METAR,3.0
KAST 271823Z AUTO 17010G16KT 5SM -RA SCT020 BKN026 OVC036 04/01 A2947 RMK AO2 RAB02 P0001 T00440011,KAST,2023-02-27T18:23:00Z,46.15,-123.88,4.4,1.1,170,10,16,5.0,29.471457,,,TRUE,TRUE,,,,,,-RA,SCT,2000,BKN,2600,OVC,3600,,,MVFR,,,,,,0.01,,,,,,METAR,3.0
KAST 271755Z AUTO 17012G19KT 10SM FEW027 BKN040 OVC110 06/01 A2946 RMK AO2 RAE01 SLP976 P0000 60005 T00560011 10056 20028 51004,KAST,2023-02-27T17:55:00Z,46.15,-123.88,5.6,1.1,170,12,19,10.0,29.459646,997.6,,TRUE,TRUE,,,,,,,FEW,2700,BKN,4000,OVC,11000,,,VFR,0.4,5.6,2.8,,,0.005,,0.05,,,,METAR,3.0
KAST 271655Z AUTO 14006KT 10SM -RA SCT028 BKN034 OVC060 04/01 A2946 RMK AO2 SLP976 P0002 T00390011,KAST,2023-02-27T16:55:00Z,46.15,-123.88,3.9,1.1,140,6,,10.0,29.459646,997.6,,TRUE,TRUE,,,,,,-RA,SCT,2800,BKN,3400,OVC,6000,,,VFR,,,,,,0.02,,,,,,METAR,3.0
KAST 271647Z AUTO 14005KT 10SM -RA FEW026 OVC033 03/01 A2946 RMK AO2 CIG 027 RWY 08 P0002 T00330011,KAST,2023-02-27T16:47:00Z,46.15,-123.88,3.3,1.1,140,5,,10.0,29.459646,,,TRUE,TRUE,,,,,,-RA,FEW,2600,OVC,3300,,,,,VFR,,,,,,0.02,,,,,,SPECI,3.0
KAST 271555Z AUTO 21004KT 5SM -RA BR OVC018 03/01 A2946 RMK AO2 RAB29 SLP976 P0002 T00280006,KAST,2023-02-27T15:55:00Z,46.15,-123.88,2.8,0.6,210,4,,5.0,29.459646,997.6,,TRUE,TRUE,,,,,,-RA BR,OVC,1800,,,,,,,MVFR,,,,,,0.02,,,,,,METAR,3.0
KAST 271542Z AUTO 20005KT 6SM RA SCT017 OVC024 03/01 A2946 RMK AO2 RAB29 P0001 T00330006,KAST,2023-02-27T15:42:00Z,46.15,-123.88,3.3,0.6,200,5,,6.0,29.459646,,,TRUE,TRUE,,,,,,RA,SCT,1700,OVC,2400,,,,,MVFR,,,,,,0.01,,,,,,SPECI,3.0
KAST 271455Z AUTO 11009KT 10SM BKN050 OVC070 03/00 A2945 RMK AO2 RAE12 SLP972 P0000 60001 T00330000 56033,KAST,2023-02-27T14:55:00Z,46.15,-123.88,3.3,0.0,110,9,,10.0,29.450787,997.2,,TRUE,TRUE,,,,,,,BKN,5000,OVC,7000,,,,,VFR,-3.3,,,,,0.005,,,,,,SPECI,3.0
KAST 271355Z AUTO 12014G20KT 10SM -RA OVC032 03/01 A2948 RMK AO2 RAB12 SLP982 P0001 T00280006,KAST,2023-02-27T13:55:00Z,46.15,-123.88,2.8,0.6,120,14,20,10.0,29.480314,998.2,,TRUE,TRUE,,,,,,-RA,OVC,3200,,,,,,,VFR,,,,,,0.01,,,,,,METAR,3.0
KAST 271255Z AUTO 11011KT 10SM OVC040 03/01 A2951 RMK AO2 SLP992 T00330006,KAST,2023-02-27T12:55:00Z,46.15,-123.88,3.3,0.6,110,11,,10.0,29.509842,999.2,,TRUE,TRUE,,,,,,,OVC,4000,,,,,,,VFR,,,,,,,,,,,,METAR,3.0
KAST 271155Z AUTO 11004KT 10SM BKN049 OVC070 03/01 A2955 RMK AO2 RAB23E33 SLP005 P0000 60007 70029 T00280006 10028 20011 58038,KAST,2023-02-27T11:55:00Z,46.15,-123.88,2.8,0.6,110,4,,10.0,29.551182,1000.5,,TRUE,TRUE,,,,,,,BKN,4900,OVC,7000,,,,,VFR,-3.8,2.8,1.1,,,0.005,,,0.29,,,SPECI,3.0
KAST 271055Z AUTO 09004KT 10SM OVC039 02/00 A2959 RMK AO2 SLP020 T00220000,KAST,2023-02-27T10:55:00Z,46.15,-123.88,2.2,0.0,90,4,,10.0,29.589567,1002.0,,TRUE,TRUE,,,,,,,OVC,3900,,,,,,,VFR,,,,,,,,,,,,METAR,3.0
KAST 270955Z AUTO 11004KT 10SM FEW060 SCT120 02/00 A2964 RMK AO2 SLP035 T00170000,KAST,2023-02-27T09:55:00Z,46.15,-123.88,1.7,0.0,110,4,,10.0,29.639763,1003.5,,TRUE,TRUE,,,,,,,FEW,6000,SCT,12000,,,,,VFR,,,,,,,,,,,,METAR,3.0
KAST 270855Z AUTO 11005KT 10SM CLR 01/00 A2966 RMK AO2 RAE02 SLP043 P0000 60007 T00110000 58021,KAST,2023-02-27T08:55:00Z,46.15,-123.88,1.1,0.0,110,5,,10.0,29.660433,1004.3,,TRUE,TRUE,,,,,,,CLR,,,,,,,,VFR,-2.1,,,,,0.005,0.07,,,,,METAR,3.0
KAST 270755Z AUTO 08007KT 10SM -RA BKN031 OVC055 02/01 A2969 RMK AO2 RAE23B38 SLP053 P0004 T00170006 400780011,KAST,2023-02-27T07:55:00Z,46.15,-123.88,1.7,0.6,80,7,,10.0,29.68996,1005.3,,TRUE,TRUE,,,,,,-RA,BKN,3100,OVC,5500,,,,,VFR,,,,7.8,1.1,0.04,,,,,,METAR,3.0
KAST 270743Z AUTO 10005KT 9SM -RA BKN025 02/01 A2970 RMK AO2 RAE23B38 P0004 T00170006,KAST,2023-02-27T07:43:00Z,46.15,-123.88,1.7,0.6,100,5,,9.0,29.698818,,,TRUE,TRUE,,,,,,-RA,BKN,2500,,,,,,,MVFR,,,,,,0.04,,,,,,SPECI,3.0
KAST 270730Z AUTO 11004KT 10SM SCT026 BKN065 02/00 A2971 RMK AO2 RAE23 P0003 T00170000,KAST,2023-02-27T07:30:00Z,46.15,-123.88,1.7,0.0,110,4,,10.0,29.71063,,,TRUE,TRUE,,,,,,,SCT,2600,BKN,6500,,,,,VFR,,,,,,0.03,,,,,,SPECI,3.0
KAST 270655Z AUTO VRB04KT 5SM RA BR BKN016 OVC030 02/01 A2972 RMK AO2 RAB20 SLP065 P0003 T00170006,KAST,2023-02-27T06:55:00Z,46.15,-123.88,1.7,0.6,0,4,,5.0,29.719488,1006.5,,TRUE,TRUE,,,,,,RA BR,BKN,1600,OVC,3000,,,,,MVFR,,,,,,0.03,,,,,,SPECI,3.0
KAST 270645Z AUTO 18005KT 5SM RA BR SCT020 BKN025 OVC039 02/01 A2973 RMK AO2 RAB20 P0001 T00220006,KAST,2023-02-27T06:45:00Z,46.15,-123.88,2.2,0.6,180,5,,5.0,29.731298,,,TRUE,TRUE,,,,,,RA BR,SCT,2000,BKN,2500,OVC,3900,,,MVFR,,,,,,0.01,,,,,,SPECI,3.0
KAST 270555Z AUTO 13004KT 10SM FEW019 SCT038 BKN050 02/01 A2972 RMK AO2 RAB31E48 SLP064 P0000 60002 T00170006 10050 20017 58001,KAST,2023-02-27T05:55:00Z,46.15,-123.88,1.7,0.6,130,4,,10.0,29.719488,1006.4,,TRUE,TRUE,,,,,,,FEW,1900,SCT,3800,BKN,5000,,,VFR,-0.1,5.0,1.7,,,0.005,,0.02,,,,METAR,3.0
KAST 270455Z AUTO 10004KT 10SM BKN038 OVC048 02/01 A2973 RMK AO2 RAE19 SLP068 P0000 T00220006,KAST,2023-02-27T04:55:00Z,46.15,-123.88,2.2,0.6,100,4,,10.0,29.731298,1006.8,,TRUE,TRUE,,,,,,,BKN,3800,OVC,4800,,,,,VFR,,,,,,0.005,,,,,,METAR,3.0
KAST 270427Z AUTO 16004KT 10SM FEW018 OVC046 02/01 A2973 RMK AO2 RAE19 P0000 T00220006,KAST,2023-02-27T04:27:00Z,46.15,-123.88,2.2,0.6,160,4,,10.0,29.731298,,,TRUE,TRUE,,,,,,,FEW,1800,OVC,4600,,,,,VFR,,,,,,0.005,,,,,,SPECI,3.0
KAST 270355Z AUTO 00000KT 8SM -RA SCT018 OVC025 02/01 A2974 RMK AO2 RAB32 CIG 018 RWY 08 SLP070 P0002 T00220011,KAST,2023-02-27T03:55:00Z,46.15,-123.88,2.2,1.1,0,0,,8.0,29.740158,1007.0,,TRUE,TRUE,,,,,,-RA,SCT,1800,OVC,2500,,,,,MVFR,,,,,,0.02,,,,,,METAR,3.0
KAST 270255Z AUTO 15006KT 10SM FEW038 02/00 A2972 RMK AO2 SLP065 60000 T00170000 58006,KAST,2023-02-27T02:55:00Z,46.15,-123.88,1.7,0.0,150,6,,10.0,29.719488,1006.5,,TRUE,TRUE,,,,,,,FEW,3800,,,,,,,VFR,-0.6,,,,,,0.005,,,,,METAR,3.0
KAST 270155Z AUTO 16008KT 10SM FEW046 02/01 A2974 RMK AO2 RAB0059E13 SLP071 P0000 T00220006,KAST,2023-02-27T01:55:00Z,46.15,-123.88,2.2,0.6,160,8,,10.0,29.740158,1007.1,,TRUE,TRUE,,,,,,,FEW,4600,,,,,,,VFR,,,,,,0.005,,,,,,METAR,3.0
KAST 270055Z AUTO 23014G21KT 10SM FEW032 SCT039 BKN050 05/00 A2975 RMK AO2 SLP073 T00500000,KAST,2023-02-27T00:55:00Z,46.15,-123.88,5.0,0.0,230,14,21,10.0,29.749016,1007.3,,TRUE,TRUE,,,,,,,FEW,3200,SCT,3900,BKN,5000,,,VFR,,,,,,,,,,,,METAR,3.0
KAST 262355Z AUTO 21010KT 10SM BKN075 OVC095 05/01 A2974 RMK AO2 RAE20 SLP072 P0001 60001 T00500006 10078 20050 51006,KAST,2023-02-26T23:55:00Z,46.15,-123.88,5.0,0.6,210,10,,10.0,29.740158,1007.2,,TRUE,TRUE,,,,,,,BKN,7500,OVC,9500,,,,,VFR,0.6,7.8,5.0,,,0.01,,,,,,SPECI,3.0
KAST 262255Z AUTO 25019G25KT 7SM -RA SCT032 BKN042 OVC075 06/M01 A2974 RMK AO2 RAB54 SLP070 P0000 T00611006,KAST,2023-02-26T22:55:00Z,46.15,-123.88,6.1,-0.6,250,19,25,7.0,29.740158,1007.0,,TRUE,TRUE,,,,,,-RA,SCT,3200,BKN,4200,OVC,7500,,,VFR,,,,,,0.005,,,,,,SPECI,3.0
KAST 262155Z AUTO 26015G21KT 10SM FEW037 07/01 A2974 RMK AO2 RAB09E33 SLP069 P0000 T00720006,KAST,2023-02-26T21:55:00Z,46.15,-123.88,7.2,0.6,260,15,21,10.0,29.740158,1006.9,,TRUE,TRUE,,,,,,,FEW,3700,,,,,,,VFR,,,,,,0.005,,,,,,METAR,3.0
KAST 262055Z AUTO 29012G17KT 10SM FEW038 SCT048 SCT095 08/01 A2973 RMK AO2 SLP066 T00780006 51017,KAST,2023-02-26T20:55:00Z,46.15,-123.88,7.8,0.6,290,12,17,10.0,29.731298,1006.6,,TRUE,TRUE,,,,,,,FEW,3800,SCT,4800,SCT,9500,,,VFR,1.7,,,,,,,,,,,METAR,3.0
KAST 261955Z AUTO 28016G19KT 10SM FEW043 SCT095 07/M01 A2972 RMK AO2 SLP064 T00671011,KAST,2023-02-26T19:55:00Z,46.15,-123.88,6.7,-1.1,280,16,19,10.0,29.719488,1006.4,,TRUE,TRUE,,,,,,,FEW,4300,SCT,9500,,,,,VFR,,,,,,,,,,,,METAR,3.0
KAST 261855Z AUTO 30013G18KT 10SM SCT046 07/00 A2970 RMK AO2 SLP058 T00720000,KAST,2023-02-26T18:55:00Z,46.15,-123.88,7.2,0.0,300,13,18,10.0,29.698818,1005.8,,TRUE,TRUE,,,,,,,SCT,4600,,,,,,,VFR,,,,,,,,,,,,SPECI,3.0
KAST 261755Z AUTO 29008KT 10SM FEW045 BKN060 OVC110 06/00 A2968 RMK AO2 CIG 050 RWY 08 SLP048 60019 T00610000 10067 20033 53023,KAST,2023-02-26T17:55:00Z,46.15,-123.88,6.1,0.0,290,8,,10.0,29.681103,1004.8,,TRUE,TRUE,,,,,,,FEW,4500,BKN,6000,OVC,11000,,,VFR,2.3,6.7,3.3,,,,,0.19,,,,METAR,3.0
KAST 261655Z AUTO 29009KT 9SM BKN042 BKN110 07/01 A2965 RMK AO2 RAB03E13 SLP040 P0000 T00670011,KAST,2023-02-26T16:55:00Z,46.15,-123.88,6.7,1.1,290,9,,9.0,29.648623,1004.0,,TRUE,TRUE,,,,,,,BKN,4200,BKN,11000,,,,,VFR,,,,,,0.005,,,,,,METAR,3.0
KAST 261555Z AUTO 21004KT 10SM SCT060 BKN100 OVC110 04/02 A2962 RMK AO2 RAE30 SLP031 P0003 T00390017,KAST,2023-02-26T15:55:00Z,46.15,-123.88,3.9,1.7,210,4,,10.0,29.619095,1003.1,,TRUE,TRUE,,,,,,,SCT,6000,BKN,10000,OVC,11000,,,VFR,,,,,,0.03,,,,,,METAR,3.0
KAST 261535Z AUTO 30006KT 10SM SCT025 SCT047 OVC060 04/01 A2962 RMK AO2 RAE30 P0003 T00390011,KAST,2023-02-26T15:35:00Z,46.15,-123.88,3.9,1.1,300,6,,10.0,29.619095,,,TRUE,TRUE,,,,,,,SCT,2500,SCT,4700,OVC,6000,,,VFR,,,,,,0.03,,,,,,SPECI,3.0
KAST 261507Z AUTO 31007KT 4SM RA BR SCT014 SCT020 OVC029 04/02 A2961 RMK AO2 P0001 T00390017,KAST,2023-02-26T15:07:00Z,46.15,-123.88,3.9,1.7,310,7,,4.0,29.610237,,,TRUE,TRUE,,,,,,RA BR,SCT,1400,SCT,2000,OVC,2900,,,MVFR,,,,,,0.01,,,,,,METAR,3.0
KAST 261455Z AUTO 30011KT 6SM -RA BR SCT019 SCT025 OVC035 04/02 A2961 RMK AO2 RAB03 SLP026 P0002 60016 T00390022 53030,KAST,2023-02-26T14:55:00Z,46.15,-123.88,3.9,2.2,300,11,,6.0,29.610237,1002.6,,TRUE,TRUE,,,,,,-RA BR,SCT,1900,SCT,2500,OVC,3500,,,VFR,3.0,,,,,0.02,0.16,,,,,METAR,3.0
KAST 261433Z AUTO 30009KT 10SM -RA FEW016 SCT027 OVC035 04/02 A2960 RMK AO2 RAB03 P0002 T00390022,KAST,2023-02-26T14:33:00Z,46.15,-123.88,3.9,2.2,300,9,,10.0,29.601377,,,TRUE,TRUE,,,,,,-RA,FEW,1600,SCT,2700,OVC,3500,,,VFR,,,,,,0.02,,,,,,SPECI,3.0
KAST 261424Z AUTO 32012G23KT 6SM -RA BR FEW016 OVC027 04/02 A2959 RMK AO2 RAB03 P0001 T00390017,KAST,2023-02-26T14:24:00Z,46.15,-123.88,3.9,1.7,320,12,23,6.0,29.589567,,,TRUE,TRUE,,,,,,-RA BR,FEW,1600,OVC,2700,,,,,MVFR,,,,,,0.01,,,,,,SPECI,3.0
KAST 261355Z AUTO 28006KT 10SM SCT042 BKN055 OVC070 04/03 A2957 RMK AO2 RAE44 SLP011 P0003 T00440028,KAST,2023-02-26T13:55:00Z,46.15,-123.88,4.4,2.8,280,6,,10.0,29.568897,1001.1,,TRUE,TRUE,,,,,,,SCT,4200,BKN,5500,OVC,7000,,,VFR,,,,,,0.03,,,,,,METAR,3.0
KAST 261338Z AUTO 30008KT 9SM -RA FEW017 OVC039 04/02 A2956 RMK AO2 P0003 T00440022,KAST,2023-02-26T13:38:00Z,46.15,-123.88,4.4,2.2,300,8,,9.0,29.56004,,,TRUE,TRUE,,,,,,-RA,FEW,1700,OVC,3900,,,,,VFR,,,,,,0.03,,,,,,SPECI,3.0
KAST 261255Z AUTO 28016G21KT 5SM RA BR SCT013 BKN020 OVC024 04/03 A2954 RMK AO2 SLP004 P0011 T00440028,KAST,2023-02-26T12:55:00Z,46.15,-123.88,4.4,2.8,280,16,21,5.0,29.53937,1000.4,,TRUE,TRUE,,,,,,RA BR,SCT,1300,BKN,2000,OVC,2400,,,MVFR,,,,,,0.11,,,,,,METAR,3.0
KAST 261206Z AUTO 27010KT 5SM -RA BR SCT012 OVC019 05/03 A2952 RMK AO2 P0005 T00500033,KAST,2023-02-26T12:06:00Z,46.15,-123.88,5.0,3.3,270,10,,5.0,29.518702,,,TRUE,TRUE,,,,,,-RA BR,SCT,1200,OVC,1900,,,,,MVFR,,,,,,0.05,,,,,,METAR,3.0
KAST 261155Z AUTO 27010KT 3SM +RA BR BKN012 OVC021 05/04 A2952 RMK AO2 SLP996 P0007 60058 70062 T00500039 10056 20039 50007,KAST,2023-02-26T11:55:00Z,46.15,-123.88,5.0,3.9,270,10,,3.0,29.518702,999.6,,TRUE,TRUE,,,,,,+RA BR,BKN,1200,OVC,2100,,,,,MVFR,0.7,5.6,3.9,,,0.07,,0.58,0.62,,,METAR,3.0
KAST 261055Z AUTO 28007KT 6SM -RA BR SCT012 BKN018 OVC024 05/04 A2951 RMK AO2 SLP991 P0012 T00500039,KAST,2023-02-26T10:55:00Z,46.15,-123.88,5.0,3.9,280,7,,6.0,29.509842,999.1,,TRUE,TRUE,,,,,,-RA BR,SCT,1200,BKN,1800,OVC,2400,,,MVFR,,,,,,0.12,,,,,,METAR,3.0
KAST 261038Z AUTO 28010KT 5SM RA BR FEW009 BKN014 OVC022 05/04 A2951 RMK AO2 P0010 T00500039,KAST,2023-02-26T10:38:00Z,46.15,-123.88,5.0,3.9,280,10,,5.0,29.509842,,,TRUE,TRUE,,,,,,RA BR,FEW,900,BKN,1400,OVC,2200,,,MVFR,,,,,,0.1,,,,,,METAR,3.0
KAST 261028Z AUTO 29010G18KT 5SM RA BR FEW009 SCT016 OVC024 05/03 A2950 RMK AO2 P0008 T00500033,KAST,2023-02-26T10:28:00Z,46.15,-123.88,5.0,3.3,290,10,18,5.0,29.500984,,,TRUE,TRUE,,,,,,RA BR,FEW,900,SCT,1600,OVC,2400,,,MVFR,,,,,,0.08,,,,,,METAR,3.0
KAST 261016Z AUTO 27016G24KT 5SM RA BR FEW009 BKN014 OVC024 06/04 A2950 RMK AO2 P0006 T00560039,KAST,2023-02-26T10:16:00Z,46.15,-123.88,5.6,3.9,270,16,24,5.0,29.500984,,,TRUE,TRUE,,,,,,RA BR,FEW,900,BKN,1400,OVC,2400,,,MVFR,,,,,,0.06,,,,,,METAR,3.0
KAST 260955Z AUTO 26013G23KT 5SM RA BR FEW014 SCT020 OVC024 06/04 A2950 RMK AO2 PK WND 24027/0934 WSHFT 0923 SLP989 P0018 T00560039,KAST,2023-02-26T09:55:00Z,46.15,-123.88,5.6,3.9,260,13,23,5.0,29.500984,998.9,,TRUE,TRUE,,,,,,RA BR,FEW,1400,SCT,2000,OVC,2400,,,MVFR,,,,,,0.18,,,,,,METAR,3.0
KAST 260943Z AUTO 26014G27KT 5SM RA BR FEW014 OVC022 06/04 A2950 RMK AO2 PK WND 24027/0934 WSHFT 0923 P0014 T00560039,KAST,2023-02-26T09:43:00Z,46.15,-123.88,5.6,3.9,260,14,27,5.0,29.500984,,,TRUE,TRUE,,,,,,RA BR,FEW,1400,OVC,2200,,,,,MVFR,,,,,,0.14,,,,,,METAR,3.0
KAST 260855Z AUTO 16011G18KT 6SM -RA BR SCT023 OVC029 04/02 A2950 RMK AO2 PK WND 17026/0828 SLP990 P0009 60021 T00440022 58040,KAST,2023-02-26T08:55:00Z,46.15,-123.88,4.4,2.2,160,11,18,6.0,29.500984,999.0,,TRUE,TRUE,,,,,,-RA BR,SCT,2300,OVC,2900,,,,,MVFR,-4.0,,,,,0.09,0.21,,,,,METAR,3.0
KAST 260755Z AUTO 18013G22KT 6SM -RA BR FEW012 BKN017 OVC025 04/02 A2955 RMK AO2 SLP007 P0006 T00390022 400781050,KAST,2023-02-26T07:55:00Z,46.15,-123.88,3.9,2.2,180,13,22,6.0,29.551182,1000.7,,TRUE,TRUE,,,,,,-RA BR,FEW,1200,BKN,1700,OVC,2500,,,MVFR,,,,7.8,-5.0,0.06,,,,,,METAR,3.0
KAST 260655Z AUTO 18008KT 8SM -RA BKN018 OVC031 04/02 A2959 RMK AO2 SLP019 P0006 T00390017,KAST,2023-02-26T06:55:00Z,46.15,-123.88,3.9,1.7,180,8,,8.0,29.589567,1001.9,,TRUE,TRUE,,,,,,-RA,BKN,1800,OVC,3100,,,,,MVFR,,,,,,0.06,,,,,,METAR,3.0
KAST 260555Z AUTO 17005KT 9SM -RA OVC020 04/01 A2962 RMK AO2 SLP030 P0003 60004 T00390011 10056 20028 56024,KAST,2023-02-26T05:55:00Z,46.15,-123.88,3.9,1.1,170,5,,9.0,29.619095,1003.0,,TRUE,TRUE,,,,,,-RA,OVC,2000,,,,,,,MVFR,-2.4,5.6,2.8,,,0.03,,0.04,,,,METAR,3.0
KAST 260455Z AUTO 16005KT 6SM -RA OVC029 03/M02 A2964 RMK AO2 RAB33 SLP035 P0001 T00331022,KAST,2023-02-26T04:55:00Z,46.15,-123.88,3.3,-2.2,160,5,,6.0,29.639763,1003.5,,TRUE,TRUE,,,,,,-RA,OVC,2900,,,,,,,MVFR,,,,,,0.01,,,,,,METAR,3.0
KAST 260355Z AUTO 15008KT 10SM BKN070 OVC090 03/M02 A2965 RMK AO2 SLP038 T00331022,KAST,2023-02-26T03:55:00Z,46.15,-123.88,3.3,-2.2,150,8,,10.0,29.648623,1003.8,,TRUE,TRUE,,,,,,,BKN,7000,OVC,9000,,,,,VFR,,,,,,,,,,,,METAR,3.0
KAST 260255Z AUTO 16004KT 10SM SCT075 04/M02 A2969 RMK AO2 SLP055 T00391017 56027,KAST,2023-02-26T02:55:00Z,46.15,-123.88,3.9,-1.7,160,4,,10.0,29.68996,1005.5,,TRUE,TRUE,,,,,,,SCT,7500,,,,,,,VFR,-2.7,,,,,,,,,,,METAR,3.0
KAST 260155Z AUTO 20005KT 10SM CLR 04/M02 A2972 RMK AO2 SLP063 T00441017,KAST,2023-02-26T01:55:00Z,46.15,-123.88,4.4,-1.7,200,5,,10.0,29.719488,1006.3,,TRUE,TRUE,,,,,,,CLR,,,,,,,,VFR,,,,,,,,,,,,METAR,3.0
KAST 260055Z AUTO 20005KT 10SM CLR 05/M03 A2975 RMK AO2 SLP072 T00501028,KAST,2023-02-26T00:55:00Z,46.15,-123.88,5.0,-2.8,200,5,,10.0,29.749016,1007.2,,TRUE,TRUE,,,,,,,CLR,,,,,,,,VFR,,,,,,,,,,,,METAR,3.0
KAST 252355Z AUTO 24008KT 10SM CLR 06/M03 A2977 RMK AO2 SLP082 T00561033 10078 20017 56036,KAST,2023-02-25T23:55:00Z,46.15,-123.88,5.6,-3.3,240,8,,10.0,29.769686,1008.2,,TRUE,TRUE,,,,,,,CLR,,,,,,,,VFR,-3.6,7.8,1.7,,,,,,,,,METAR,3.0
KAST 252255Z AUTO 23006KT 10SM CLR 06/M05 A2979 RMK AO2 SLP089 T00611050,KAST,2023-02-25T22:55:00Z,46.15,-123.88,6.1,-5.0,230,6,,10.0,29.790354,1008.9,,TRUE,TRUE,,,,,,,CLR,,,,,,,,VFR,,,,,,,,,,,,METAR,3.0
KAST 252155Z AUTO 01006KT 10SM CLR 06/M04 A2984 RMK AO2 SLP103 T00611039,KAST,2023-02-25T21:55:00Z,46.15,-123.88,6.1,-3.9,10,6,,10.0,29.840551,1010.3,,TRUE,TRUE,,,,,,,CLR,,,,,,,,VFR,,,,,,,,,,,,METAR,3.0
KAST 252055Z AUTO 36005KT 10SM CLR 06/M04 A2988 RMK AO2 SLP118 T00611044 58034,KAST,2023-02-25T20:55:00Z,46.15,-123.88,6.1,-4.4,360,5,,10.0,29.878937,1011.8,,TRUE,TRUE,,,,,,,CLR,,,,,,,,VFR,-3.4,,,,,,,,,,,METAR,3.0
KAST 251955Z AUTO 01004KT 10SM CLR 05/M04 A2993 RMK AO2 SLP133 T00501039,KAST,2023-02-25T19:55:00Z,46.15,-123.88,5.0,-3.9,10,4,,10.0,29.929134,1013.3,,TRUE,TRUE,,,,,,,CLR,,,,,,,,VFR,,,,,,,,,,,,METAR,3.0
KAST 251855Z AUTO 02005KT 10SM CLR 04/M03 A2996 RMK AO2 SLP143 T00391028,KAST,2023-02-25T18:55:00Z,46.15,-123.88,3.9,-2.8,20,5,,10.0,29.958662,1014.3,,TRUE,TRUE,,,,,,,CLR,,,,,,,,VFR,,,,,,,,,,,,METAR,3.0
KAST 251755Z AUTO 05004KT 10SM CLR 02/M03 A2998 RMK AO2 SLP152 T00171033 10017 21044 58018,KAST,2023-02-25T17:55:00Z,46.15,-123.88,1.7,-3.3,50,4,,10.0,29.97933,1015.2,,TRUE,TRUE,,,,,,,CLR,,,,,,,,VFR,-1.8,1.7,-4.4,,,,,,,,,METAR,3.0
KAST 251655Z AUTO 08003KT 10SM CLR 00/M03 A3002 RMK AO2 SLP163 T00001033,KAST,2023-02-25T16:55:00Z,46.15,-123.88,0.0,-3.3,80,3,,10.0,30.02067,1016.3,,TRUE,TRUE,,,,,,,CLR,,,,,,,,VFR,,,,,,,,,,,,METAR,3.0
KAST 251555Z AUTO 00000KT 10SM CLR M03/M05 A3004 RMK AO2 SLP171 T10281050,KAST,2023-02-25T15:55:00Z,46.15,-123.88,-2.8,-5.0,0,0,,10.0,30.041338,1017.1,,TRUE,TRUE,,,,,,,CLR,,,,,,,,VFR,,,,,,,,,,,,METAR,3.0
KAST 251455Z AUTO 00000KT 10SM CLR M04/M06 A3004 RMK AO2 SLP170 T10391056 56008,KAST,2023-02-25T14:55:00Z,46.15,-123.88,-3.9,-5.6,0,0,,10.0,30.041338,1017.0,,TRUE,TRUE,,,,,,,CLR,,,,,,,,VFR,-0.8,,,,,,,,,,,METAR,3.0
KAST 251355Z AUTO 14005KT 10SM CLR M04/M06 A3004 RMK AO2 SLP172 T10441061,KAST,2023-02-25T13:55:00Z,46.15,-123.88,-4.4,-6.1,140,5,,10.0,30.041338,1017.2,,TRUE,TRUE,,,,,,,CLR,,,,,,,,VFR,,,,,,,,,,,,METAR,3.0
KAST 251255Z AUTO 13003KT 10SM CLR M03/M06 A3005 RMK AO2 SLP176 T10331056,KAST,2023-02-25T12:55:00Z,46.15,-123.88,-3.3,-5.6,130,3,,10.0,30.050198,1017.6,,TRUE,TRUE,,,,,,,CLR,,,,,,,,VFR,,,,,,,,,,,,METAR,3.0
KAST 251155Z AUTO 15003KT 10SM CLR M04/M06 A3006 RMK AO2 SLP179 T10441056 11022 21050 58010,KAST,2023-02-25T11:55:00Z,46.15,-123.88,-4.4,-5.6,150,3,,10.0,30.059055,1017.9,,TRUE,TRUE,,,,,,,CLR,,,,,,,,VFR,-1.0,-2.2,-5.0,,,,,,,,,METAR,3.0
KAST 251055Z AUTO 13003KT 10SM CLR M04/M06 A3007 RMK AO2 SLP182 T10391056,KAST,2023-02-25T10:55:00Z,46.15,-123.88,-3.9,-5.6,130,3,,10.0,30.070866,1018.2,,TRUE,TRUE,,,,,,,CLR,,,,,,,,VFR,,,,,,,,,,,,METAR,3.0
KAST 250955Z AUTO 00000KT 10SM CLR M03/M05 A3009 RMK AO2 SLP189 T10281050,KAST,2023-02-25T09:55:00Z,46.15,-123.88,-2.8,-5.0,0,0,,10.0,30.088583,1018.9,,TRUE,TRUE,,,,,,,CLR,,,,,,,,VFR,,,,,,,,,,,,SPECI,3.0
KAST 250855Z AUTO 07004KT 10SM CLR M03/M05 A3009 RMK AO2 SLP189 T10281050 55005,KAST,2023-02-25T08:55:00Z,46.15,-123.88,-2.8,-5.0,70,4,,10.0,30.088583,1018.9,,TRUE,TRUE,,,,,,,CLR,,,,,,,,VFR,-0.5,,,,,,,,,,,METAR,3.0
KAST 250755Z AUTO 14004KT 10SM CLR M03/M05 A3009 RMK AO2 SLP188 T10281050 400561033,KAST,2023-02-25T07:55:00Z,46.15,-123.88,-2.8,-5.0,140,4,,10.0,30.088583,1018.8,,TRUE,TRUE,,,,,,,CLR,,,,,,,,VFR,,,,5.6,-3.3,,,,,,,METAR,3.0
KAST 250655Z AUTO 16003KT 10SM CLR M03/M04 A3010 RMK AO2 SLP193 T10281044,KAST,2023-02-25T06:55:00Z,46.15,-123.88,-2.8,-4.4,160,3,,10.0,30.100393,1019.3,,TRUE,TRUE,,,,,,,CLR,,,,,,,,VFR,,,,,,,,,,,,METAR,3.0
KAST 250555Z AUTO 00000KT 10SM CLR M02/M05 A3010 RMK AO2 SLP194 T10221050 10056 21028 53014,KAST,2023-02-25T05:55:00Z,46.15,-123.88,-2.2,-5.0,0,0,,10.0,30.100393,1019.4,,TRUE,TRUE,,,,,,,CLR,,,,,,,,VFR,1.4,5.6,-2.8,,,,,,,,,METAR,3.0
KAST 250455Z AUTO 00000KT 10SM CLR M02/M05 A3008 RMK AO2 SLP187 T10171050,KAST,2023-02-25T04:55:00Z,46.15,-123.88,-1.7,-5.0,0,0,,10.0,30.079725,1018.7,,TRUE,TRUE,,,,,,,CLR,,,,,,,,VFR,,,,,,,,,,,,METAR,3.0
KAST 250355Z AUTO 13003KT 10SM CLR M01/M04 A3008 RMK AO2 SLP185 T10061044,KAST,2023-02-25T03:55:00Z,46.15,-123.88,-0.6,-4.4,130,3,,10.0,30.079725,1018.5,,TRUE,TRUE,,,,,,,CLR,,,,,,,,VFR,,,,,,,,,,,,METAR,3.0
KAST 250255Z AUTO 00000KT 10SM CLR M01/M06 A3007 RMK AO2 SLP180 T10061056 53001,KAST,2023-02-25T02:55:00Z,46.15,-123.88,-0.6,-5.6,0,0,,10.0,30.070866,1018.0,,TRUE,TRUE,,,,,,,CLR,,,,,,,,VFR,0.1,,,,,,,,,,,SPECI,3.0
KAST 250155Z AUTO 06004KT 10SM CLR 03/M06 A3005 RMK AO2 SLP176 T00331056,KAST,2023-02-25T01:55:00Z,46.15,-123.88,3.3,-5.6,60,4,,10.0,30.050198,1017.6,,TRUE,TRUE,,,,,,,CLR,,,,,,,,VFR,,,,,,,,,,,,SPECI,3.0
KAST 250055Z AUTO 08008KT 10SM CLR 05/M06 A3005 RMK AO2 SLP177 T00501061,KAST,2023-02-25T00:55:00Z,46.15,-123.88,5.0,-6.1,80,8,,10.0,30.050198,1017.7,,TRUE,TRUE,,,,,,,CLR,,,,,,,,VFR,,,,,,,,,,,,METAR,3.0
KAST 242355Z AUTO 08010KT 10SM CLR 06/M06 A3006 RMK AO2 SLP179 T00561056 10056 20000 53003,KAST,2023-02-24T23:55:00Z,46.15,-123.88,5.6,-5.6,80,10,,10.0,30.059055,1017.9,,TRUE,TRUE,,,,,,,CLR,,,,,,,,VFR,0.3,5.6,0.0,,,,,,,,,METAR,3.0
KAST 242255Z AUTO 07011KT 10SM CLR 06/M06 A3005 RMK AO2 SLP176 T00561061,KAST,2023-02-24T22:55:00Z,46.15,-123.88,5.6,-6.1,70,11,,10.0,30.050198,1017.6,,TRUE,TRUE,,,,,,,CLR,,,,,,,,VFR,,,,,,,,,,,,METAR,3.0
KAST 242155Z AUTO 04017G23KT 10SM CLR 04/M07 A3005 RMK AO2 SLP174 T00441067,KAST,2023-02-24T21:55:00Z,46.15,-123.88,4.4,-6.7,40,17,23,10.0,30.050198,1017.4,,TRUE,TRUE,,,,,,,CLR,,,,,,,,VFR,,,,,,,,,,,,METAR,3.0
KAST 242055Z AUTO 06017G23KT 10SM CLR 04/M07 A3005 RMK AO2 SLP175 T00391072 56003,KAST,2023-02-24T20:55:00Z,46.15,-123.88,3.9,-7.2,60,17,23,10.0,30.050198,1017.5,,TRUE,TRUE,,,,,,,CLR,,,,,,,,VFR,-0.3,,,,,,,,,,,SPECI,3.0
KAST 241955Z AUTO 06015KT 10SM CLR 03/M08 A3005 RMK AO2 SLP176 T00281078,KAST,2023-02-24T19:55:00Z,46.15,-123.88,2.8,-7.8,60,15,,10.0,30.050198,1017.6,,TRUE,TRUE,,,,,,,CLR,,,,,,,,VFR,,,,,,,,,,,,METAR,3.0
KAST 241855Z AUTO 08019G25KT 10SM CLR 02/M09 A3006 RMK AO2 SLP177 T00171089,KAST,2023-02-24T18:55:00Z,46.15,-123.88,1.7,-8.9,80,19,25,10.0,30.059055,1017.7,,TRUE,TRUE,,,,,,,CLR,,,,,,,,VFR,,,,,,,,,,,,METAR,3.0
KAST 241755Z AUTO 07015KT 10SM CLR 00/M09 A3006 RMK AO2 SLP179 T00001094 10000 21033 50008,KAST,2023-02-24T17:55:00Z,46.15,-123.88,0.0,-9.4,70,15,,10.0,30.059055,1017.9,,TRUE,TRUE,,,,,,,CLR,,,,,,,,VFR,0.8,0.0,-3.3,,,,,,,,,METAR,3.0
KAST 241655Z AUTO 07015KT 10SM CLR M01/M09 A3008 RMK AO2 SLP185 T10111089,KAST,2023-02-24T16:55:00Z,46.15,-123.88,-1.1,-8.9,70,15,,10.0,30.079725,1018.5,,TRUE,TRUE,,,,,,,CLR,,,,,,,,VFR,,,,,,,,,,,,METAR,3.0
KAST 241555Z AUTO 07014KT 10SM CLR M03/M09 A3006 RMK AO2 SLP178 T10281094,KAST,2023-02-24T15:55:00Z,46.15,-123.88,-2.8,-9.4,70,14,,10.0,30.059055,1017.8,,TRUE,TRUE,,,,,,,CLR,,,,,,,,VFR,,,,,,,,,,,,METAR,3.0
KAST 241455Z AUTO 06015G22KT 10SM CLR M03/M10 A3004 RMK AO2 SLP170 T10331100 53024,KAST,2023-02-24T14:55:00Z,46.15,-123.88,-3.3,-10.0,60,15,22,10.0,30.041338,1017.0,,TRUE,TRUE,,,,,,,CLR,,,,,,,,VFR,2.4,,,,,,,,,,,METAR,3.0
KAST 241355Z AUTO 07016KT 10SM CLR M03/M09 A2999 RMK AO2 SLP154 T10281094,KAST,2023-02-24T13:55:00Z,46.15,-123.88,-2.8,-9.4,70,16,,10.0,29.991142,1015.4,,TRUE,TRUE,,,,,,,CLR,,,,,,,,VFR,,,,,,,,,,,,METAR,3.0
KAST 241255Z AUTO 08015KT 10SM CLR M03/M09 A2996 RMK AO2 SLP146 T10281094,KAST,2023-02-24T12:55:00Z,46.15,-123.88,-2.8,-9.4,80,15,,10.0,29.958662,1014.6,,TRUE,TRUE,,,,,,,CLR,,,,,,,,VFR,,,,,,,,,,,,METAR,3.0
KAST 241155Z AUTO 07016KT 10SM CLR M03/M09 A2997 RMK AO2 SLP147 T10331094 11028 21033 50010,KAST,2023-02-24T11:55:00Z,46.15,-123.88,-3.3,-9.4,70,16,,10.0,29.970472,1014.7,,TRUE,TRUE,,,,,,,CLR,,,,,,,,VFR,1.0,-2.8,-3.3,,,,,,,,,METAR,3.0
KAST 241055Z AUTO 07016G25KT 10SM CLR M03/M10 A2997 RMK AO2 SLP147 T10281100,KAST,2023-02-24T10:55:00Z,46.15,-123.88,-2.8,-10.0,70,16,25,10.0,29.970472,1014.7,,TRUE,TRUE,,,,,,,CLR,,,,,,,,VFR,,,,,,,,,,,,METAR,3.0
KAST 240955Z AUTO 06014KT 10SM CLR M03/M10 A2996 RMK AO2 PK WND 07026/0910 SLP143 T10281100,KAST,2023-02-24T09:55:00Z,46.15,-123.88,-2.8,-10.0,60,14,,10.0,29.958662,1014.3,,TRUE,TRUE,,,,,,,CLR,,,,,,,,VFR,,,,,,,,,,,,METAR,3.0
KAST 240855Z AUTO 07019G25KT 10SM CLR M03/M11 A2994 RMK AO2 PK WND 05027/0805 SLP137 T10281106 53022,KAST,2023-02-24T08:55:00Z,46.15,-123.88,-2.8,-10.6,70,19,25,10.0,29.940945,1013.7,,TRUE,TRUE,,,,,,,CLR,,,,,,,,VFR,2.2,,,,,,,,,,,METAR,3.0
KAST 240755Z AUTO 06019G25KT 10SM CLR M03/M10 A2991 RMK AO2 PK WND 09026/0706 SLP127 T10281100 400171033,KAST,2023-02-24T07:55:00Z,46.15,-123.88,-2.8,-10.0,60,19,25,10.0,29.911417,1012.7,,TRUE,TRUE,,,,,,,CLR,,,,,,,,VFR,,,,1.7,-3.3,,,,,,,METAR,3.0
KAST 240655Z AUTO 07021G24KT 10SM CLR M03/M11 A2989 RMK AO2 PK WND 07026/0629 SLP120 T10281106,KAST,2023-02-24T06:55:00Z,46.15,-123.88,-2.8,-10.6,70,21,24,10.0,29.890747,1012.0,,TRUE,TRUE,,,,,,,CLR,,,,,,,,VFR,,,,,,,,,,,,METAR,3.0
KAST 240555Z AUTO 07016KT 10SM CLR M03/M10 A2987 RMK AO2 SLP115 T10281100 10017 21028 53025,KAST,2023-02-24T05:55:00Z,46.15,-123.88,-2.8,-10.0,70,16,,10.0,29.870079,1011.5,,TRUE,TRUE,,,,,,,CLR,,,,,,,,VFR,2.5,1.7,-2.8,,,,,,,,,METAR,3.0
KAST 240455Z AUTO 11006KT 10SM CLR M03/M09 A2984 RMK AO2 SLP106 T10281089,KAST,2023-02-24T04:55:00Z,46.15,-123.88,-2.8,-8.9,110,6,,10.0,29.840551,1010.6,,TRUE,TRUE,,,,,,,CLR,,,,,,,,VFR,,,,,,,,,,,,METAR,3.0
KAST 240355Z AUTO 10008KT 10SM CLR M02/M09 A2982 RMK AO2 SLP096 T10171094,KAST,2023-02-24T03:55:00Z,46.15,-123.88,-1.7,-9.4,100,8,,10.0,29.819881,1009.6,,TRUE,TRUE,,,,,,,CLR,,,,,,,,VFR,,,,,,,,,,,,METAR,3.0
KAST 240255Z AUTO 10009KT 10SM CLR M01/M09 A2980 RMK AO2 SLP090 T10111094 53029,KAST,2023-02-24T02:55:00Z,46.15,-123.88,-1.1,-9.4,100,9,,10.0,29.799213,1009.0,,TRUE,TRUE,,,,,,,CLR,,,,,,,,VFR,2.9,,,,,,,,,,,METAR,3.0
KAST 240155Z AUTO 11014G23KT 10SM SCT085 00/M09 A2976 RMK AO2 PK WND 08026/0144 SLP078 T00001094,KAST,2023-02-24T01:55:00Z,46.15,-123.88,0.0,-9.4,110,14,23,10.0,29.760826,1007.8,,TRUE,TRUE,,,,,,,SCT,8500,,,,,,,VFR,,,,,,,,,,,,METAR,3.0
KAST 240055Z AUTO 09014G19KT 10SM BKN090 OVC110 01/M07 A2975 RMK AO2 SLP072 T00111072,KAST,2023-02-24T00:55:00Z,46.15,-123.88,1.1,-7.2,90,14,19,10.0,29.749016,1007.2,,TRUE,TRUE,,,,,,,BKN,9000,OVC,11000,,,,,VFR,,,,,,,,,,,,METAR,3.0
KAST 232355Z AUTO 10012KT 10SM BKN075 BKN100 02/M07 A2971 RMK AO2 SLP061 T00171067 10017 21011 53020,KAST,2023-02-23T23:55:00Z,46.15,-123.88,1.7,-6.7,100,12,,10.0,29.71063,1006.1,,TRUE,TRUE,,,,,,,BKN,7500,BKN,10000,,,,,VFR,2.0,1.7,-1.1,,,,,,,,,METAR,3.0
KAST 232255Z AUTO 10011G19KT 10SM BKN110 01/M07 A2969 RMK AO2 SLP053 T00111067,KAST,2023-02-23T22:55:00Z,46.15,-123.88,1.1,-6.7,100,11,19,10.0,29.68996,1005.3,,TRUE,TRUE,,,,,,,BKN,11000,,,,,,,VFR,,,,,,,,,,,,METAR,3.0
KAST 232155Z AUTO 09009KT 10SM OVC085 01/M06 A2967 RMK AO2 SLP048 T00061061,KAST,2023-02-23T21:55:00Z,46.15,-123.88,0.6,-6.1,90,9,,10.0,29.66929,1004.8,,TRUE,TRUE,,,,,,,OVC,8500,,,,,,,VFR,,,,,,,,,,,,SPECI,3.0
KAST 232055Z AUTO 09013G20KT 10SM OVC070 00/M07 A2965 RMK AO2 SLP041 T00001067 51024,KAST,2023-02-23T20:55:00Z,46.15,-123.88,0.0,-6.7,90,13,20,10.0,29.648623,1004.1,,TRUE,TRUE,,,,,,,OVC,7000,,,,,,,VFR,2.4,,,,,,,,,,,METAR,3.0
KAST 231955Z AUTO 11017G26KT 10SM SCT060 BKN080 OVC090 M01/M07 A2964 RMK AO2 PK WND 11030/1907 SLP037 T10061072,KAST,2023-02-23T19:55:00Z,46.15,-123.88,-0.6,-7.2,110,17,26,10.0,29.639763,1003.7,,TRUE,TRUE,,,,,,,SCT,6000,BKN,8000,OVC,9000,,,VFR,,,,,,,,,,,,METAR,3.0
KAST 231855Z AUTO 11019G27KT 10SM FEW055 SCT070 BKN085 M01/M07 A2961 RMK AO2 PK WND 12032/1840 SLP026 T10111067,KAST,2023-02-23T18:55:00Z,46.15,-123.88,-1.1,-6.7,110,19,27,10.0,29.610237,1002.6,,TRUE,TRUE,,,,,,,FEW,5500,SCT,7000,BKN,8500,,,VFR,,,,,,,,,,,,METAR,3.0
KAST 231755Z AUTO 13018G27KT 10SM BKN055 OVC080 M01/M07 A2958 RMK AO2 PK WND 12028/1710 SLP017 60000 T10111067 11006 21017 53024,KAST,2023-02-23T17:55:00Z,46.15,-123.88,-1.1,-6.7,130,18,27,10.0,29.58071,1001.7,,TRUE,TRUE,,,,,,,BKN,5500,OVC,8000,,,,,VFR,2.4,-0.6,-1.7,,,,,,,,,SPECI,3.0
KAST 231655Z AUTO 12016G25KT 10SM OVC055 M02/M06 A2955 RMK AO2 PK WND 14030/1606 UPB11E27SNB21E22B27E33 SLP007 P0000 T10171061,KAST,2023-02-23T16:55:00Z,46.15,-123.88,-1.7,-6.1,120,16,25,10.0,29.551182,1000.7,,TRUE,TRUE,,,,,,,OVC,5500,,,,,,,VFR,,,,,,0.005,,,,,,SPECI,3.0
KAST 231555Z AUTO 11014G24KT 10SM OVC042 M01/M06 A2952 RMK AO2 SNE18 SLP997 P0000 T10111056,KAST,2023-02-23T15:55:00Z,46.15,-123.88,-1.1,-5.6,110,14,24,10.0,29.518702,999.7,,TRUE,TRUE,,,,,,,OVC,4200,,,,,,,VFR,,,,,,0.005,,,,,,SPECI,3.0
KAST 231531Z AUTO 11014G20KT 070V140 9SM FEW015 SCT020 OVC040 M02/M05 A2952 RMK AO2 SNE18 CIG 021 RWY 08 P0000 T10171050,KAST,2023-02-23T15:31:00Z,46.15,-123.88,-1.7,-5.0,110,14,20,9.0,29.518702,,,TRUE,TRUE,,,,,,,FEW,1500,SCT,2000,OVC,4000,,,VFR,,,,,,0.005,,,,,,SPECI,3.0
KAST 231455Z AUTO 11013G20KT 3SM -SN FEW016 BKN020 OVC047 M02/M05 A2951 RMK AO2 SNB42 SLP994 P0000 60000 T10171050 53008,KAST,2023-02-23T14:55:00Z,46.15,-123.88,-1.7,-5.0,110,13,20,3.0,29.509842,999.4,,TRUE,TRUE,,,,,,-SN,FEW,1600,BKN,2000,OVC,4700,,,MVFR,0.8,,,,,0.005,0.005,,,,,METAR,3.0
KAST 231355Z AUTO 11014G21KT 10SM OVC042 M01/M05 A2950 RMK AO2 UPB17E26SNB16E17 SLP988 P0000 T10111050,KAST,2023-02-23T13:55:00Z,46.15,-123.88,-1.1,-5.0,110,14,21,10.0,29.500984,998.8,,TRUE,TRUE,,,,,,,OVC,4200,,,,,,,VFR,,,,,,0.005,,,,,,METAR,3.0
KAST 231255Z AUTO 11011G23KT 10SM OVC040 M01/M04 A2949 RMK AO2 SLP985 T10061044,KAST,2023-02-23T12:55:00Z,46.15,-123.88,-0.6,-4.4,110,11,23,10.0,29.489174,998.5,,TRUE,TRUE,,,,,,,OVC,4000,,,,,,,VFR,,,,,,,,,,,,METAR,3.0
KAST 231155Z AUTO 11011G20KT 10SM OVC045 M01/M04 A2949 RMK AO2 SLP985 60003 70012 T10061039 10006 21006 55004,KAST,2023-02-23T11:55:00Z,46.15,-123.88,-0.6,-3.9,110,11,20,10.0,29.489174,998.5,,TRUE,TRUE,,,,,,,OVC,4500,,,,,,,VFR,-0.4,0.6,-0.6,,,,,0.03,0.12,,,METAR,3.0
KAST 231055Z AUTO 11015G23KT 10SM OVC041 M01/M04 A2949 RMK AO2 SLP985 T10061039,KAST,2023-02-23T10:55:00Z,46.15,-123.88,-0.6,-3.9,110,15,23,10.0,29.489174,998.5,,TRUE,TRUE,,,,,,,OVC,4100,,,,,,,VFR,,,,,,,,,,,,METAR,3.0
KAST 230955Z AUTO 12011G17KT 10SM OVC037 M01/M03 A2950 RMK AO2 SNE19 SLP988 P0000 T10061028,KAST,2023-02-23T09:55:00Z,46.15,-123.88,-0.6,-2.8,120,11,17,10.0,29.500984,998.8,,TRUE,TRUE,,,,,,,OVC,3700,,,,,,,VFR,,,,,,0.005,,,,,,METAR,3.0
KAST 230934Z AUTO 13011G16KT 10SM FEW009 OVC036 M01/M02 A2950 RMK AO2 SNE19 P0000 T10061022,KAST,2023-02-23T09:34:00Z,46.15,-123.88,-0.6,-2.2,130,11,16,10.0,29.500984,,,TRUE,TRUE,,,,,,,FEW,900,OVC,3600,,,,,VFR,,,,,,0.005,,,,,,METAR,3.0
KAST 230902Z AUTO 13011KT 5SM -SN BR BKN009 OVC032 M01/M02 A2950 RMK AO2 CIG 007V015 P0000 T10061022,KAST,2023-02-23T09:02:00Z,46.15,-123.88,-0.6,-2.2,130,11,,5.0,29.500984,,,TRUE,TRUE,,,,,,-SN BR,BKN,900,OVC,3200,,,,,IFR,,,,,,0.005,,,,,,SPECI,3.0
KAST 230855Z AUTO 13009G17KT 5SM -SN BR SCT009 BKN030 OVC038 M01/M02 A2950 RMK AO2 SNB55 SLP989 P0000 60003 T10061022 55001,KAST,2023-02-23T08:55:00Z,46.15,-123.88,-0.6,-2.2,130,9,17,5.0,29.500984,998.9,,TRUE,TRUE,,,,,,-SN BR,SCT,900,BKN,3000,OVC,3800,,,MVFR,-0.1,,,,,0.005,0.03,,,,,METAR,3.0
KAST 230807Z AUTO 12010KT 9SM OVC009 00/M02 A2950 RMK AO2 CIG 007V013 T00001017,KAST,2023-02-23T08:07:00Z,46.15,-123.88,0.0,-1.7,120,10,,9.0,29.500984,,,TRUE,TRUE,,,,,,,OVC,900,,,,,,,IFR,,,,,,,,,,,,METAR,3.0
KAST 230755Z AUTO 12010KT 7SM OVC011 00/M02 A2950 RMK AO2 SNE36 CIG 007V014 SLP988 P0000 T00001017 400670000,KAST,2023-02-23T07:55:00Z,46.15,-123.88,0.0,-1.7,120,10,,7.0,29.500984,998.8,,TRUE,TRUE,,,,,,,OVC,1100,,,,,,,MVFR,,,,6.7,,0.005,,,,,,METAR,3.0
KAST 230728Z AUTO 12009KT 5SM -SN BR BKN011 BKN017 OVC024 00/M01 A2950 RMK AO2 P0000 T00001011,KAST,2023-02-23T07:28:00Z,46.15,-123.88,0.0,-1.1,120,9,,5.0,29.500984,,,TRUE,TRUE,,,,,,-SN BR,BKN,1100,BKN,1700,OVC,2400,,,MVFR,,,,,,0.005,,,,,,SPECI,3.0
KAST 230705Z AUTO 11007KT 4SM -SN BR FEW007 FEW013 OVC024 00/M01 A2950 RMK AO2 P0000 T00001011,KAST,2023-02-23T07:05:00Z,46.15,-123.88,0.0,-1.1,110,7,,4.0,29.500984,,,TRUE,TRUE,,,,,,-SN BR,FEW,700,FEW,1300,OVC,2400,,,MVFR,,,,,,0.005,,,,,,SPECI,3.0
KAST 230655Z AUTO 11008KT 2SM -SN BR FEW007 SCT011 OVC024 00/M01 A2950 RMK AO2 CIG 019 RWY 08 SLP989 P0003 T00001011,KAST,2023-02-23T06:55:00Z,46.15,-123.88,0.0,-1.1,110,8,,2.0,29.500984,998.9,,TRUE,TRUE,,,,,,-SN BR,FEW,700,SCT,1100,OVC,2400,,,IFR,,,,,,0.03,,,,,,METAR,3.0
KAST 230647Z AUTO 11008KT 1SM -SN BR SCT007 BKN011 OVC024 00/M01 A2950 RMK AO2 CIG 007 RWY 08 P0003 T00001011,KAST,2023-02-23T06:47:00Z,46.15,-123.88,0.0,-1.1,110,8,,1.0,29.500984,,,TRUE,TRUE,,,,,,-SN BR,SCT,700,BKN,1100,OVC,2400,,,IFR,,,,,,0.03,,,,,,METAR,3.0
KAST 230635Z AUTO 11009KT 1SM -SN BR VV010 00/M01 A2950 RMK AO2 P0002 T00001011,KAST,2023-02-23T06:35:00Z,46.15,-123.88,0.0,-1.1,110,9,,1.0,29.500984,,,TRUE,TRUE,,,,,,-SN BR,OVX,0,,,,,,,LIFR,,,,,,0.02,,,,,1000,SPECI,3.0
KAST 230624Z AUTO 11008KT 3/4SM -SN BR BKN009 OVC021 00/M01 A2950 RMK AO2 P0001 T00001011,KAST,2023-02-23T06:24:00Z,46.15,-123.88,0.0,-1.1,110,8,,0.75,29.500984,,,TRUE,TRUE,,,,,,-SN BR,BKN,900,OVC,2100,,,,,LIFR,,,,,,0.01,,,,,,SPECI,3.0
KAST 230622Z AUTO 11008KT 1SM -SN BR FEW007 BKN011 OVC021 01/M01 A2950 RMK AO2 P0001 T00061011,KAST,2023-02-23T06:22:00Z,46.15,-123.88,0.6,-1.1,110,8,,1.0,29.500984,,,TRUE,TRUE,,,,,,-SN BR,FEW,700,BKN,1100,OVC,2100,,,IFR,,,,,,0.01,,,,,,METAR,3.0
KAST 230614Z AUTO 11008KT 1 1/4SM -SN BR FEW009 SCT014 OVC021 01/M01 A2950 RMK AO2 CIG 014 RWY 08 P0000 T00061011,KAST,2023-02-23T06:14:00Z,46.15,-123.88,0.6,-1.1,110,8,,1.25,29.500984,,,TRUE,TRUE,,,,,,-SN BR,FEW,900,SCT,1400,OVC,2100,,,IFR,,,,,,0.005,,,,,,METAR,3.0
KAST 230603Z AUTO 11009KT 1 1/2SM -SN BR FEW012 BKN021 OVC029 01/M01 A2951 RMK AO2 P0000 T00061011,KAST,2023-02-23T06:03:00Z,46.15,-123.88,0.6,-1.1,110,9,,1.5,29.509842,,,TRUE,TRUE,,,,,,-SN BR,FEW,1200,BKN,2100,OVC,2900,,,IFR,,,,,,0.005,,,,,,SPECI,3.0
KAST 230555Z AUTO 11009KT 2SM -SN BR BKN021 OVC032 01/M01 A2950 RMK AO2 SLP991 P0001 60009 T00061011 10044 20006 53004,KAST,2023-02-23T05:55:00Z,46.15,-123.88,0.6,-1.1,110,9,,2.0,29.500984,999.1,,TRUE,TRUE,,,,,,-SN BR,BKN,2100,OVC,3200,,,,,IFR,0.4,4.4,0.6,,,0.01,,0.09,,,,METAR,3.0
KAST 230551Z AUTO 11006KT 2 1/2SM -SN BR BKN021 OVC032 01/M01 A2950 RMK AO2 P0001,KAST,2023-02-23T05:51:00Z,46.15,-123.88,1.0,-1.0,110,6,,2.5,29.500984,,,TRUE,TRUE,,,,,,-SN BR,BKN,2100,OVC,3200,,,,,IFR,,,,,,0.01,,,,,,METAR,3.0
KAST 230537Z AUTO 10005KT 6SM -SN BR SCT026 OVC033 01/M01 A2950 RMK AO2 P0001 T00111006,KAST,2023-02-23T05:37:00Z,46.15,-123.88,1.1,-0.6,100,5,,6.0,29.500984,,,TRUE,TRUE,,,,,,-SN BR,SCT,2600,OVC,3300,,,,,VFR,,,,,,0.01,,,,,,SPECI,3.0
KAST 230517Z AUTO 11005KT 7SM -SN BKN024 OVC033 01/M01 A2950 RMK AO2 P0001 T00111006,KAST,2023-02-23T05:17:00Z,46.15,-123.88,1.1,-0.6,110,5,,7.0,29.500984,,,TRUE,TRUE,,,,,,-SN,BKN,2400,OVC,3300,,,,,MVFR,,,,,,0.01,,,,,,SPECI,3.0
KAST 230455Z AUTO 11008KT 7SM -SN SCT019 OVC031 01/M01 A2950 RMK AO2 SLP988 P0003 T00111006,KAST,2023-02-23T04:55:00Z,46.15,-123.88,1.1,-0.6,110,8,,7.0,29.500984,998.8,,TRUE,TRUE,,,,,,-SN,SCT,1900,OVC,3100,,,,,VFR,,,,,,0.03,,,,,,METAR,3.0
KAST 230443Z AUTO 11008KT 4SM -SN BR FEW008 BKN019 OVC031 01/M01 A2950 RMK AO2 P0003 T00061006,KAST,2023-02-23T04:43:00Z,46.15,-123.88,0.6,-0.6,110,8,,4.0,29.500984,,,TRUE,TRUE,,,,,,-SN BR,FEW,800,BKN,1900,OVC,3100,,,MVFR,,,,,,0.03,,,,,,SPECI,3.0
KAST 230433Z AUTO 11008KT 2SM -SN BR SCT008 SCT013 OVC017 01/M01 A2950 RMK AO2 CIG 008 RWY 08 P0003 T00061006,KAST,2023-02-23T04:33:00Z,46.15,-123.88,0.6,-0.6,110,8,,2.0,29.500984,,,TRUE,TRUE,,,,,,-SN BR,SCT,800,SCT,1300,OVC,1700,,,IFR,,,,,,0.03,,,,,,SPECI,3.0
KAST 230423Z AUTO 11007KT 1 1/2SM -SN BR BKN008 OVC015 01/M01 A2950 RMK AO2 P0003 T00061006,KAST,2023-02-23T04:23:00Z,46.15,-123.88,0.6,-0.6,110,7,,1.5,29.500984,,,TRUE,TRUE,,,,,,-SN BR,BKN,800,OVC,1500,,,,,IFR,,,,,,0.03,,,,,,SPECI,3.0
KAST 230416Z AUTO 12008KT 2SM -SN BR BKN008 OVC012 01/M01 A2950 RMK AO2 P0002 T00111006,KAST,2023-02-23T04:16:00Z,46.15,-123.88,1.1,-0.6,120,8,,2.0,29.500984,,,TRUE,TRUE,,,,,,-SN BR,BKN,800,OVC,1200,,,,,IFR,,,,,,0.02,,,,,,SPECI,3.0
KAST 230402Z AUTO 11007KT 2SM -SN BR BKN010 OVC015 01/M01 A2950 RMK AO2 P0001 T00111006,KAST,2023-02-23T04:02:00Z,46.15,-123.88,1.1,-0.6,110,7,,2.0,29.500984,,,TRUE,TRUE,,,,,,-SN BR,BKN,1000,OVC,1500,,,,,IFR,,,,,,0.01,,,,,,SPECI,3.0
KAST 230355Z AUTO 12007KT 3SM -SN BR BKN010 OVC015 01/00 A2950 RMK AO2 RAE28SNB28 SLP987 P0005 T00110000,KAST,2023-02-23T03:55:00Z,46.15,-123.88,1.1,0.0,120,7,,3.0,29.500984,998.7,,TRUE,TRUE,,,,,,-SN BR,BKN,1000,OVC,1500,,,,,MVFR,,,,,,0.05,,,,,,METAR,3.0
KAST 230255Z AUTO 00000KT 10SM -RA OVC017 02/01 A2949 RMK AO2 RAB24 SLP986 P0000 60000 T00220011 50001,KAST,2023-02-23T02:55:00Z,46.15,-123.88,2.2,1.1,0,0,,10.0,29.489174,998.6,,TRUE,TRUE,,,,,,-RA,OVC,1700,,,,,,,MVFR,0.1,,,,,0.005,0.005,,,,,METAR,3.0
KAST 230155Z AUTO 09008KT 10SM SCT017 BKN029 OVC035 03/01 A2949 RMK AO2 RAB35E52 SLP986 P0000 T00280006,KAST,2023-02-23T01:55:00Z,46.15,-123.88,2.8,0.6,90,8,,10.0,29.489174,998.6,,TRUE,TRUE,,,,,,,SCT,1700,BKN,2900,OVC,3500,,,MVFR,,,,,,0.005,,,,,,SPECI,3.0
KAST 230055Z AUTO 10008KT 10SM FEW008 SCT030 OVC037 03/01 A2949 RMK AO2 RAE2359 CIG 029 RWY 08 SLP986 P0000 T00280006,KAST,2023-02-23T00:55:00Z,46.15,-123.88,2.8,0.6,100,8,,10.0,29.489174,998.6,,TRUE,TRUE,,,,,,,FEW,800,SCT,3000,OVC,3700,,,VFR,,,,,,0.005,,,,,,SPECI,3.0
KAST 230042Z AUTO 10006KT 10SM FEW008 SCT019 OVC035 03/01 A2949 RMK AO2 RAE2359 CIG 017 RWY 08 P0000 T00330011,KAST,2023-02-23T00:42:00Z,46.15,-123.88,3.3,1.1,100,6,,10.0,29.489174,,,TRUE,TRUE,,,,,,,FEW,800,SCT,1900,OVC,3500,,,VFR,,,,,,0.005,,,,,,SPECI,3.0
KAST 222355Z AUTO 08009KT 10SM -RA FEW032 BKN039 OVC090 04/02 A2949 RMK AO2 RAB46 SLP985 P0000 60000 T00440017 10067 20033 56004,KAST,2023-02-22T23:55:00Z,46.15,-123.88,4.4,1.7,80,9,,10.0,29.489174,998.5,,TRUE,TRUE,,,,,,-RA,FEW,3200,BKN,3900,OVC,9000,,,VFR,-0.4,6.7,3.3,,,0.005,,0.005,,,,METAR,3.0
KAST 222340Z AUTO 07010G17KT 10SM SCT028 BKN048 OVC060 04/02 A2949 RMK AO2 T00440017,KAST,2023-02-22T23:40:00Z,46.15,-123.88,4.4,1.7,70,10,17,10.0,29.489174,,,TRUE,TRUE,,,,,,,SCT,2800,BKN,4800,OVC,6000,,,VFR,,,,,,,,,,,,SPECI,3.0
KAST 222322Z AUTO 08008KT 10SM OVC028 04/02 A2949 RMK AO2 CIG 022 RWY 08 T00440017,KAST,2023-02-22T23:22:00Z,46.15,-123.88,4.4,1.7,80,8,,10.0,29.489174,,,TRUE,TRUE,,,,,,,OVC,2800,,,,,,,MVFR,,,,,,,,,,,,SPECI,3.0
KAST 222255Z AUTO 08007KT 10SM FEW019 OVC030 05/02 A2949 RMK AO2 SLP986 T00500017,KAST,2023-02-22T22:55:00Z,46.15,-123.88,5.0,1.7,80,7,,10.0,29.489174,998.6,,TRUE,TRUE,,,,,,,FEW,1900,OVC,3000,,,,,MVFR,,,,,,,,,,,,METAR,3.0
KAST 222239Z AUTO 08009KT 10SM BKN028 05/02 A2949 RMK AO2 T00500017,KAST,2023-02-22T22:39:00Z,46.15,-123.88,5.0,1.7,80,9,,10.0,29.489174,,,TRUE,TRUE,,,,,,,BKN,2800,,,,,,,MVFR,,,,,,,,,,,,SPECI,3.0
KAST 222232Z AUTO 08008KT 10SM SCT028 05/02 A2949 RMK AO2 T00500017,KAST,2023-02-22T22:32:00Z,46.15,-123.88,5.0,1.7,80,8,,10.0,29.489174,,,TRUE,TRUE,,,,,,,SCT,2800,,,,,,,VFR,,,,,,,,,,,,SPECI,3.0
KAST 222155Z AUTO 06009KT 10SM BKN015 OVC021 05/02 A2949 RMK AO2 SLP986 T00500022,KAST,2023-02-22T21:55:00Z,46.15,-123.88,5.0,2.2,60,9,,10.0,29.489174,998.6,,TRUE,TRUE,,,,,,,BKN,1500,OVC,2100,,,,,MVFR,,,,,,,,,,,,METAR,3.0
KAST 222055Z AUTO 03006KT 10SM OVC017 05/02 A2950 RMK AO2 SLP990 T00500017 58002,KAST,2023-02-22T20:55:00Z,46.15,-123.88,5.0,1.7,30,6,,10.0,29.500984,999.0,,TRUE,TRUE,,,,,,,OVC,1700,,,,,,,MVFR,-0.2,,,,,,,,,,,SPECI,3.0
KAST 221955Z AUTO 02008KT 10SM BKN015 BKN022 OVC027 04/02 A2951 RMK AO2 SLP993 T00440017,KAST,2023-02-22T19:55:00Z,46.15,-123.88,4.4,1.7,20,8,,10.0,29.509842,999.3,,TRUE,TRUE,,,,,,,BKN,1500,BKN,2200,OVC,2700,,,MVFR,,,,,,,,,,,,METAR,3.0
KAST 221932Z AUTO 01007KT 10SM BKN013 BKN021 OVC034 04/02 A2951 RMK AO2 T00440017,KAST,2023-02-22T19:32:00Z,46.15,-123.88,4.4,1.7,10,7,,10.0,29.509842,,,TRUE,TRUE,,,,,,,BKN,1300,BKN,2100,OVC,3400,,,MVFR,,,,,,,,,,,,SPECI,3.0
KAST 221903Z AUTO 04007KT 10SM BKN015 OVC019 04/02 A2951 RMK AO2 T00440017,KAST,2023-02-22T19:03:00Z,46.15,-123.88,4.4,1.7,40,7,,10.0,29.509842,,,TRUE,TRUE,,,,,,,BKN,1500,OVC,1900,,,,,MVFR,,,,,,,,,,,,METAR,3.0
KAST 221855Z AUTO 05008KT 10SM BKN013 OVC019 04/02 A2951 RMK AO2 SLP993 T00440022,KAST,2023-02-22T18:55:00Z,46.15,-123.88,4.4,2.2,50,8,,10.0,29.509842,999.3,,TRUE,TRUE,,,,,,,BKN,1300,OVC,1900,,,,,MVFR,,,,,,,,,,,,METAR,3.0
KAST 221840Z AUTO 04009KT 10SM BKN015 OVC021 04/02 A2951 RMK AO2 T00390017,KAST,2023-02-22T18:40:00Z,46.15,-123.88,3.9,1.7,40,9,,10.0,29.509842,,,TRUE,TRUE,,,,,,,BKN,1500,OVC,2100,,,,,MVFR,,,,,,,,,,,,SPECI,3.0
KAST 221755Z AUTO 03007KT 10SM OVC011 04/02 A2951 RMK AO2 RAB32E47 SLP992 P0000 60000 T00390017 10039 20011 53007,KAST,2023-02-22T17:55:00Z,46.15,-123.88,3.9,1.7,30,7,,10.0,29.509842,999.2,,TRUE,TRUE,,,,,,,OVC,1100,,,,,,,MVFR,0.7,3.9,1.1,,,0.005,,0.005,,,,METAR,3.0
KAST 221738Z AUTO 04008KT 10SM -RA OVC013 03/01 A2950 RMK AO2 RAB32 P0000 T00330011,KAST,2023-02-22T17:38:00Z,46.15,-123.88,3.3,1.1,40,8,,10.0,29.500984,,,TRUE,TRUE,,,,,,-RA,OVC,1300,,,,,,,MVFR,,,,,,0.005,,,,,,SPECI,3.0
KAST 221719Z AUTO 03008KT 10SM OVC015 03/01 A2950 RMK AO2 T00330011,KAST,2023-02-22T17:19:00Z,46.15,-123.88,3.3,1.1,30,8,,10.0,29.500984,,,TRUE,TRUE,,,,,,,OVC,1500,,,,,,,MVFR,,,,,,,,,,,,SPECI,3.0
KAST 221655Z AUTO 03008KT 10SM BKN013 03/01 A2950 RMK AO2 SLP989 T00330011,KAST,2023-02-22T16:55:00Z,46.15,-123.88,3.3,1.1,30,8,,10.0,29.500984,998.9,,TRUE,TRUE,,,,,,,BKN,1300,,,,,,,MVFR,,,,,,,,,,,,SPECI,3.0
KAST 221646Z AUTO 03007KT 10SM BKN013 BKN020 BKN028 03/01 A2950 RMK AO2 T00330011,KAST,2023-02-22T16:46:00Z,46.15,-123.88,3.3,1.1,30,7,,10.0,29.500984,,,TRUE,TRUE,,,,,,,BKN,1300,BKN,2000,BKN,2800,,,MVFR,,,,,,,,,,,,METAR,3.0
KAST 221602Z AUTO 06007KT 10SM OVC015 03/01 A2949 RMK AO2 T00280006,KAST,2023-02-22T16:02:00Z,46.15,-123.88,2.8,0.6,60,7,,10.0,29.489174,,,TRUE,TRUE,,,,,,,OVC,1500,,,,,,,MVFR,,,,,,,,,,,,SPECI,3.0
KAST 221555Z AUTO 06007KT 10SM OVC013 03/01 A2949 RMK AO2 SLP986 T00280006,KAST,2023-02-22T15:55:00Z,46.15,-123.88,2.8,0.6,60,7,,10.0,29.489174,998.6,,TRUE,TRUE,,,,,,,OVC,1300,,,,,,,MVFR,,,,,,,,,,,,SPECI,3.0
KAST 221455Z AUTO 06004KT 10SM OVC011 03/01 A2949 RMK AO2 SLP985 T00280006 53009,KAST,2023-02-22T14:55:00Z,46.15,-123.88,2.8,0.6,60,4,,10.0,29.489174,998.5,,TRUE,TRUE,,,,,,,OVC,1100,,,,,,,MVFR,0.9,,,,,,,,,,,METAR,3.0
KAST 221355Z AUTO 05005KT 10SM OVC011 02/01 A2947 RMK AO2 SLP980 T00220011,KAST,2023-02-22T13:55:00Z,46.15,-123.88,2.2,1.1,50,5,,10.0,29.471457,998.0,,TRUE,TRUE,,,,,,,OVC,1100,,,,,,,MVFR,,,,,,,,,,,,METAR,3.0
KAST 221319Z AUTO VRB03KT 10SM SCT006 OVC011 02/01 A2947 RMK AO2 T00170011,KAST,2023-02-22T13:19:00Z,46.15,-123.88,1.7,1.1,0,3,,10.0,29.471457,,,TRUE,TRUE,,,,,,,SCT,600,OVC,1100,,,,,MVFR,,,,,,,,,,,,SPECI,3.0
KAST 221255Z AUTO 07009KT 10SM OVC006 02/01 A2946 RMK AO2 CIG 004V008 SLP977 T00170006,KAST,2023-02-22T12:55:00Z,46.15,-123.88,1.7,0.6,70,9,,10.0,29.459646,997.7,,TRUE,TRUE,,,,,,,OVC,600,,,,,,,IFR,,,,,,,,,,,,METAR,3.0
KAST 221203Z AUTO 09004KT 10SM BKN006 BKN046 OVC120 01/01 A2946 RMK AO2 T00110006,KAST,2023-02-22T12:03:00Z,46.15,-123.88,1.1,0.6,90,4,,10.0,29.459646,,,TRUE,TRUE,,,,,,,BKN,600,BKN,4600,OVC,12000,,,IFR,,,,,,,,,,,,SPECI,3.0
KAST 221155Z AUTO 10003KT 10SM SCT006 BKN028 OVC120 01/00 A2946 RMK AO2 RAE30 CIG 006 RWY 08 SLP975 P0002 60050 70063 T00110000 10039 20011 58008,KAST,2023-02-22T11:55:00Z,46.15,-123.88,1.1,0.0,100,3,,10.0,29.459646,997.5,,TRUE,TRUE,,,,,,,SCT,600,BKN,2800,OVC,12000,,,MVFR,-0.8,3.9,1.1,,,0.02,,0.5,0.63,,,METAR,3.0
KAST 221147Z AUTO 09005KT 10SM SCT006 BKN028 OVC120 01/00 A2946 RMK AO2 RAE30 P0002 T00110000,KAST,2023-02-22T11:47:00Z,46.15,-123.88,1.1,0.0,90,5,,10.0,29.459646,,,TRUE,TRUE,,,,,,,SCT,600,BKN,2800,OVC,12000,,,MVFR,,,,,,0.02,,,,,,METAR,3.0
KAST 221125Z AUTO 11005KT 10SM -RA BKN006 BKN012 OVC028 02/01 A2946 RMK AO2 P0002 T00170006,KAST,2023-02-22T11:25:00Z,46.15,-123.88,1.7,0.6,110,5,,10.0,29.459646,,,TRUE,TRUE,,,,,,-RA,BKN,600,BKN,1200,OVC,2800,,,IFR,,,,,,0.02,,,,,,SPECI,3.0
KAST 221055Z AUTO 06005KT 10SM -RA FEW006 OVC012 02/01 A2947 RMK AO2 SLP979 P0003 T00220011,KAST,2023-02-22T10:55:00Z,46.15,-123.88,2.2,1.1,60,5,,10.0,29.471457,997.9,,TRUE,TRUE,,,,,,-RA,FEW,600,OVC,1200,,,,,MVFR,,,,,,0.03,,,,,,METAR,3.0
KAST 221047Z AUTO 05006KT 8SM -RA FEW006 BKN010 OVC016 02/01 A2947 RMK AO2 P0003 T00220011,KAST,2023-02-22T10:47:00Z,46.15,-123.88,2.2,1.1,50,6,,8.0,29.471457,,,TRUE,TRUE,,,,,,-RA,FEW,600,BKN,1000,OVC,1600,,,MVFR,,,,,,0.03,,,,,,SPECI,3.0
KAST 221017Z AUTO 04007KT 10SM -RA BKN010 OVC019 02/01 A2947 RMK AO2 P0002 T00220011,KAST,2023-02-22T10:17:00Z,46.15,-123.88,2.2,1.1,40,7,,10.0,29.471457,,,TRUE,TRUE,,,,,,-RA,BKN,1000,OVC,1900,,,,,MVFR,,,,,,0.02,,,,,,SPECI,3.0
KAST 221009Z AUTO 01006KT 5SM -RA BR SCT008 OVC019 03/02 A2947 RMK AO2 P0002 T00280017,KAST,2023-02-22T10:09:00Z,46.15,-123.88,2.8,1.7,10,6,,5.0,29.471457,,,TRUE,TRUE,,,,,,-RA BR,SCT,800,OVC,1900,,,,,MVFR,,,,,,0.02,,,,,,SPECI,3.0
KAST 220955Z AUTO 33006KT 3SM RA BR OVC017 02/01 A2947 RMK AO2 SLP980 P0016 T00220011,KAST,2023-02-22T09:55:00Z,46.15,-123.88,2.2,1.1,330,6,,3.0,29.471457,998.0,,TRUE,TRUE,,,,,,RA BR,OVC,1700,,,,,,,MVFR,,,,,,0.16,,,,,,METAR,3.0
KAST 220938Z AUTO 32009KT 3SM RA BR SCT010 OVC017 02/01 A2948 RMK AO2 P0010 T00220011,KAST,2023-02-22T09:38:00Z,46.15,-123.88,2.2,1.1,320,9,,3.0,29.480314,,,TRUE,TRUE,,,,,,RA BR,SCT,1000,OVC,1700,,,,,MVFR,,,,,,0.1,,,,,,SPECI,3.0
KAST 220855Z AUTO 32011G20KT 6SM -RA BR BKN012 OVC021 03/01 A2948 RMK AO2 SLP983 P0009 60029 T00280011 58009,KAST,2023-02-22T08:55:00Z,46.15,-123.88,2.8,1.1,320,11,20,6.0,29.480314,998.3,,TRUE,TRUE,,,,,,-RA BR,BKN,1200,OVC,2100,,,,,MVFR,-0.9,,,,,0.09,0.29,,,,,METAR,3.0
KAST 220822Z AUTO 31006KT 4SM -RA BR BKN011 OVC016 03/02 A2949 RMK AO2 P0005 T00330017,KAST,2023-02-22T08:22:00Z,46.15,-123.88,3.3,1.7,310,6,,4.0,29.489174,,,TRUE,TRUE,,,,,,-RA BR,BKN,1100,OVC,1600,,,,,MVFR,,,,,,0.05,,,,,,SPECI,3.0
KAST 220815Z AUTO 30008G17KT 3SM +RA BR SCT011 OVC016 03/02 A2949 RMK AO2 CIG 010 RWY 08 P0002 T00280017,KAST,2023-02-22T08:15:00Z,46.15,-123.88,2.8,1.7,300,8,17,3.0,29.489174,,,TRUE,TRUE,,,,,,+RA BR,SCT,1100,OVC,1600,,,,,MVFR,,,,,,0.02,,,,,,SPECI,3.0
KAST 220755Z AUTO VRB04KT 5SM -RA BR OVC014 02/01 A2950 RMK AO2 SLP989 P0014 T00170011 400720017,KAST,2023-02-22T07:55:00Z,46.15,-123.88,1.7,1.1,0,4,,5.0,29.500984,998.9,,TRUE,TRUE,,,,,,-RA BR,OVC,1400,,,,,,,MVFR,,,,7.2,1.7,0.14,,,,,,METAR,3.0
KAST 220753Z AUTO VRB04KT 5SM -RA BR OVC014 02/01 A2950 RMK AO2 P0014,KAST,2023-02-22T07:53:00Z,46.15,-123.88,2.0,1.0,0,4,,5.0,29.500984,,,TRUE,TRUE,,,,,,-RA BR,OVC,1400,,,,,,,MVFR,,,,,,0.14,,,,,,METAR,3.0
KAST 220703Z AUTO 29010KT 5SM -RA BR SCT009 OVC018 03/02 A2951 RMK AO2 CIG 010 RWY 08 P0001 T00280017,KAST,2023-02-22T07:03:00Z,46.15,-123.88,2.8,1.7,290,10,,5.0,29.509842,,,TRUE,TRUE,,,,,,-RA BR,SCT,900,OVC,1800,,,,,MVFR,,,,,,0.01,,,,,,SPECI,3.0
KAST 220655Z AUTO 28010KT 8SM -RA BKN011 OVC018 03/01 A2951 RMK AO2 RAE15B19 SLP992 P0006 T00280011,KAST,2023-02-22T06:55:00Z,46.15,-123.88,2.8,1.1,280,10,,8.0,29.509842,999.2,,TRUE,TRUE,,,,,,-RA,BKN,1100,OVC,1800,,,,,MVFR,,,,,,0.06,,,,,,METAR,3.0
KAST 220648Z AUTO 28010KT 7SM -RA BKN009 OVC018 03/01 A2951 RMK AO2 RAE15B19 P0006 T00280006,KAST,2023-02-22T06:48:00Z,46.15,-123.88,2.8,0.6,280,10,,7.0,29.509842,,,TRUE,TRUE,,,,,,-RA,BKN,900,OVC,1800,,,,,IFR,,,,,,0.06,,,,,,SPECI,3.0
KAST 220629Z AUTO 28012G18KT 7SM -RA BKN015 OVC021 03/01 A2951 RMK AO2 RAE15B19 P0002 T00280011,KAST,2023-02-22T06:29:00Z,46.15,-123.88,2.8,1.1,280,12,18,7.0,29.509842,,,TRUE,TRUE,,,,,,-RA,BKN,1500,OVC,2100,,,,,MVFR,,,,,,0.02,,,,,,SPECI,3.0
KAST 220618Z AUTO 27010KT 9SM BKN014 OVC019 03/02 A2951 RMK AO2 RAE15 P0001 T00330017,KAST,2023-02-22T06:18:00Z,46.15,-123.88,3.3,1.7,270,10,,9.0,29.509842,,,TRUE,TRUE,,,,,,,BKN,1400,OVC,1900,,,,,MVFR,,,,,,0.01,,,,,,SPECI,3.0
KAST 220555Z AUTO 27010KT 6SM RA FEW017 BKN027 OVC036 03/01 A2952 RMK AO2 RAB48 CIG 022 RWY 08 SLP995 P0000 60001 T00330006 10061 20033 56007,KAST,2023-02-22T05:55:00Z,46.15,-123.88,3.3,0.6,270,10,,6.0,29.518702,999.5,,TRUE,TRUE,,,,,,RA,FEW,1700,BKN,2700,OVC,3600,,,MVFR,-0.7,6.1,3.3,,,0.005,,0.01,,,,METAR,3.0
KAST 220550Z AUTO 28016G21KT 8SM -RA FEW017 BKN036 OVC075 03/01 A2952 RMK AO2 RAB48 CIG 030 RWY 08 P0000,KAST,2023-02-22T05:50:00Z,46.15,-123.88,3.0,1.0,280,16,21,8.0,29.518702,,,TRUE,TRUE,,,,,,-RA,FEW,1700,BKN,3600,OVC,7500,,,VFR,,,,,,0.005,,,,,,SPECI,3.0
KAST 220522Z AUTO 28010KT 9SM BKN027 OVC037 04/01 A2952 RMK AO2 T00440011,KAST,2023-02-22T05:22:00Z,46.15,-123.88,4.4,1.1,280,10,,9.0,29.518702,,,TRUE,TRUE,,,,,,,BKN,2700,OVC,3700,,,,,MVFR,,,,,,,,,,,,METAR,3.0
KAST 220455Z AUTO 28007KT 9SM SCT029 BKN036 OVC060 04/01 A2952 RMK AO2 RAB38E52 SLP996 P0000 T00440006,KAST,2023-02-22T04:55:00Z,46.15,-123.88,4.4,0.6,280,7,,9.0,29.518702,999.6,,TRUE,TRUE,,,,,,,SCT,2900,BKN,3600,OVC,6000,,,VFR,,,,,,0.005,,,,,,SPECI,3.0
KAST 220355Z AUTO 29007KT 10SM FEW030 BKN065 OVC120 04/01 A2954 RMK AO2 SLP002 T00440006,KAST,2023-02-22T03:55:00Z,46.15,-123.88,4.4,0.6,290,7,,10.0,29.53937,1000.2,,TRUE,TRUE,,,,,,,FEW,3000,BKN,6500,OVC,12000,,,VFR,,,,,,,,,,,,METAR,3.0
KAST 220313Z AUTO 24008KT 220V280 10SM SCT026 BKN031 OVC050 04/01 A2955 RMK AO2 T00390011,KAST,2023-02-22T03:13:00Z,46.15,-123.88,3.9,1.1,240,8,,10.0,29.551182,,,TRUE,TRUE,,,,,,,SCT,2600,BKN,3100,OVC,5000,,,VFR,,,,,,,,,,,,SPECI,3.0
KAST 220305Z AUTO 26003KT 10SM FEW023 BKN028 OVC060 03/01 A2956 RMK AO2 T00330006,KAST,2023-02-22T03:05:00Z,46.15,-123.88,3.3,0.6,260,3,,10.0,29.56004,,,TRUE,TRUE,,,,,,,FEW,2300,BKN,2800,OVC,6000,,,MVFR,,,,,,,,,,,,SPECI,3.0
KAST 220255Z AUTO 33006KT 10SM SCT024 BKN031 OVC038 04/01 A2956 RMK AO2 PK WND 29027/0234 RAB38E51 SLP011 P0001 60001 T00390006 58010,KAST,2023-02-22T02:55:00Z,46.15,-123.88,3.9,0.6,330,6,,10.0,29.56004,1001.1,,TRUE,TRUE,,,,,,,SCT,2400,BKN,3100,OVC,3800,,,VFR,-1.0,,,,,0.01,0.01,,,,,METAR,3.0
KAST 220246Z AUTO 33008KT 8SM -RA FEW021 BKN029 OVC080 04/01 A2957 RMK AO2 PK WND 29027/0234 RAB38 P0001 T00390006,KAST,2023-02-22T02:46:00Z,46.15,-123.88,3.9,0.6,330,8,,8.0,29.568897,,,TRUE,TRUE,,,,,,-RA,FEW,2100,BKN,2900,OVC,8000,,,MVFR,,,,,,0.01,,,,,,SPECI,3.0
KAST 220155Z AUTO 29015G22KT 10SM FEW041 OVC055 05/01 A2958 RMK AO2 RAB04E28 SLP015 P0000 T00500006,KAST,2023-02-22T01:55:00Z,46.15,-123.88,5.0,0.6,290,15,22,10.0,29.58071,1001.5,,TRUE,TRUE,,,,,,,FEW,4100,OVC,5500,,,,,VFR,,,,,,0.005,,,,,,METAR,3.0
KAST 220143Z AUTO 28013G23KT 9SM SCT024 BKN042 OVC055 04/01 A2958 RMK AO2 RAB04E28 P0000 T00440011,KAST,2023-02-22T01:43:00Z,46.15,-123.88,4.4,1.1,280,13,23,9.0,29.58071,,,TRUE,TRUE,,,,,,,SCT,2400,BKN,4200,OVC,5500,,,VFR,,,,,,0.005,,,,,,SPECI,3.0
KAST 220125Z AUTO 27014G22KT 10SM -RA FEW018 BKN025 OVC034 05/02 A2959 RMK AO2 RAB04 P0000 T00500017,KAST,2023-02-22T01:25:00Z,46.15,-123.88,5.0,1.7,270,14,22,10.0,29.589567,,,TRUE,TRUE,,,,,,-RA,FEW,1800,BKN,2500,OVC,3400,,,MVFR,,,,,,0.005,,,,,,SPECI,3.0
KAST 220055Z AUTO 28009KT 10SM FEW026 SCT034 BKN043 05/01 A2959 RMK AO2 PK WND 31028/0037 RAE2358B38E55 SLP021 P0000 T00500011,KAST,2023-02-22T00:55:00Z,46.15,-123.88,5.0,1.1,280,9,,10.0,29.589567,1002.1,,TRUE,TRUE,,,,,,,FEW,2600,SCT,3400,BKN,4300,,,VFR,,,,,,0.005,,,,,,SPECI,3.0
KAST 212355Z AUTO 29012KT 6SM -RA FEW028 BKN035 OVC080 06/01 A2959 RMK AO2 RAB44 SLP021 P0002 60008 T00560011 10072 20039 56018,KAST,2023-02-21T23:55:00Z,46.15,-123.88,5.6,1.1,290,12,,6.0,29.589567,1002.1,,TRUE,TRUE,,,,,,-RA,FEW,2800,BKN,3500,OVC,8000,,,VFR,-1.8,7.2,3.9,,,0.02,,0.08,,,,METAR,3.0
KAST 212255Z AUTO 30015G23KT 8SM FEW028 BKN035 OVC055 07/02 A2961 RMK AO2 RAB46E55 SLP026 P0000 T00670017,KAST,2023-02-21T22:55:00Z,46.15,-123.88,6.7,1.7,300,15,23,8.0,29.610237,1002.6,,TRUE,TRUE,,,,,,,FEW,2800,BKN,3500,OVC,5500,,,VFR,,,,,,0.005,,,,,,METAR,3.0
KAST 212227Z AUTO 29015G25KT 8SM BKN028 BKN035 07/02 A2962 RMK AO2 T00670017,KAST,2023-02-21T22:27:00Z,46.15,-123.88,6.7,1.7,290,15,25,8.0,29.619095,,,TRUE,TRUE,,,,,,,BKN,2800,BKN,3500,,,,,MVFR,,,,,,,,,,,,SPECI,3.0
KAST 212155Z AUTO 29013KT 8SM FEW026 SCT036 BKN048 06/02 A2963 RMK AO2 RAE02 SLP034 P0000 T00610022,KAST,2023-02-21T21:55:00Z,46.15,-123.88,6.1,2.2,290,13,,8.0,29.630905,1003.4,,TRUE,TRUE,,,,,,,FEW,2600,SCT,3600,BKN,4800,,,VFR,,,,,,0.005,,,,,,METAR,3.0
KAST 212055Z AUTO 29018G27KT 7SM -RA SCT020 BKN034 OVC065 06/02 A2965 RMK AO2 PK WND 32033/1958 RAB00 SLP040 P0005 60006 T00560022 58024,KAST,2023-02-21T20:55:00Z,46.15,-123.88,5.6,2.2,290,18,27,7.0,29.648623,1004.0,,TRUE,TRUE,,,,,,-RA,SCT,2000,BKN,3400,OVC,6500,,,VFR,-2.4,,,,,0.05,0.06,,,,,METAR,3.0
KAST 212039Z AUTO 30016G26KT 6SM -RA BKN034 BKN041 OVC095 05/02 A2966 RMK AO2 PK WND 32033/1958 RAB00 P0005 T00500022,KAST,2023-02-21T20:39:00Z,46.15,-123.88,5.0,2.2,300,16,26,6.0,29.660433,,,TRUE,TRUE,,,,,,-RA,BKN,3400,BKN,4100,OVC,9500,,,VFR,,,,,,0.05,,,,,,SPECI,3.0
KAST 212020Z AUTO 30014G23KT 6SM -RA FEW018 BKN026 OVC060 05/02 A2967 RMK AO2 PK WND 32033/1958 RAB00 P0004 T00500022,KAST,2023-02-21T20:20:00Z,46.15,-123.88,5.0,2.2,300,14,23,6.0,29.66929,,,TRUE,TRUE,,,,,,-RA,FEW,1800,BKN,2600,OVC,6000,,,MVFR,,,,,,0.04,,,,,,METAR,3.0
KAST 212003Z AUTO 29020G33KT 2 1/2SM RA BKN021 BKN033 BKN090 04/02 A2969 RMK AO2 PK WND 32033/1958 VIS 1V5 RAB00 P0000 T00440017,KAST,2023-02-21T20:03:00Z,46.15,-123.88,4.4,1.7,290,20,33,2.5,29.68996,,,TRUE,TRUE,,,,,,RA,BKN,2100,BKN,3300,BKN,9000,,,IFR,,,,,,0.005,,,,,,SPECI,3.0
KAST 211955Z AUTO 30012G19KT 9SM FEW021 BKN034 BKN075 06/03 A2968 RMK AO2 PK WND 29037/1922 RAB00E11B21E37 SLP050 P0001 T00610033,KAST,2023-02-21T19:55:00Z,46.15,-123.88,6.1,3.3,300,12,19,9.0,29.681103,1005.0,,TRUE,TRUE,,,,,,,FEW,2100,BKN,3400,BKN,7500,,,VFR,,,,,,0.01,,,,,,METAR,3.0
KAST 211929Z AUTO 28016G37KT 3SM -RA FEW019 BKN030 BKN042 04/01 A2969 RMK AO2 PK WND 29037/1922 RAB00E11B21 P0001 T00390011,KAST,2023-02-21T19:29:00Z,46.15,-123.88,3.9,1.1,280,16,37,3.0,29.68996,,,TRUE,TRUE,,,,,,-RA,FEW,1900,BKN,3000,BKN,4200,,,MVFR,,,,,,0.01,,,,,,SPECI,3.0
KAST 211924Z AUTO 29020G37KT 2 1/2SM RA FEW019 BKN027 BKN042 05/02 A2969 RMK AO2 PK WND 29037/1922 RAB00E11B21 P0000 T00500017,KAST,2023-02-21T19:24:00Z,46.15,-123.88,5.0,1.7,290,20,37,2.5,29.68996,,,TRUE,TRUE,,,,,,RA,FEW,1900,BKN,2700,BKN,4200,,,IFR,,,,,,0.005,,,,,,SPECI,3.0
KAST 211915Z AUTO 27016G22KT 10SM SCT027 BKN034 BKN045 07/03 A2969 RMK AO2 RAB00E11 P0000 T00720033,KAST,2023-02-21T19:15:00Z,46.15,-123.88,7.2,3.3,270,16,22,10.0,29.68996,,,TRUE,TRUE,,,,,,,SCT,2700,BKN,3400,BKN,4500,,,VFR,,,,,,0.005,,,,,,SPECI,3.0
KAST 211855Z AUTO 26013G20KT 10SM BKN027 BKN036 OVC110 06/02 A2970 RMK AO2 PK WND 27028/1818 RAE35 SLP056 P0000 T00610022,KAST,2023-02-21T18:55:00Z,46.15,-123.88,6.1,2.2,260,13,20,10.0,29.698818,1005.6,,TRUE,TRUE,,,,,,,BKN,2700,BKN,3600,OVC,11000,,,MVFR,,,,,,0.005,,,,,,METAR,3.0
KAST 211755Z AUTO 30022G29KT 9SM -RA FEW027 SCT034 OVC047 06/01 A2972 RMK AO2 PK WND 29032/1744 CIG 039 RWY 08 SLP064 P0000 60004 T00610011 10067 20039 58020,KAST,2023-02-21T17:55:00Z,46.15,-123.88,6.1,1.1,300,22,29,9.0,29.719488,1006.4,,TRUE,TRUE,,,,,,-RA,FEW,2700,SCT,3400,OVC,4700,,,VFR,-2.0,6.7,3.9,,,0.005,,,,,,SPECI,3.0
KAST 211655Z AUTO 30013G24KT 6SM -RA FEW026 BKN037 OVC100 05/02 A2974 RMK AO2 PK WND 30028/1645 RAB14 SLP071 P0001 T00500017,KAST,2023-02-21T16:55:00Z,46.15,-123.88,5.0,1.7,300,13,24,6.0,29.740158,1007.1,,TRUE,TRUE,,,,,,-RA,FEW,2600,BKN,3700,OVC,10000,,,VFR,,,,,,0.01,,,,,,METAR,3.0
KAST 211555Z AUTO 29010G21KT 10SM FEW015 SCT025 BKN060 06/02 A2977 RMK AO2 PK WND 27028/1510 RAB26E41 SLP079 P0000 T00560022,KAST,2023-02-21T15:55:00Z,46.15,-123.88,5.6,2.2,290,10,21,10.0,29.769686,1007.9,,TRUE,TRUE,,,,,,,FEW,1500,SCT,2500,BKN,6000,,,VFR,,,,,,0.005,,,,,,METAR,3.0
KAST 211546Z AUTO 29013KT 9SM FEW017 SCT025 BKN047 05/03 A2977 RMK AO2 PK WND 27028/1510 RAB26E41 CIG 037 RWY 08 P0000 T00500028,KAST,2023-02-21T15:46:00Z,46.15,-123.88,5.0,2.8,290,13,,9.0,29.769686,,,TRUE,TRUE,,,,,,,FEW,1700,SCT,2500,BKN,4700,,,VFR,,,,,,0.005,,,,,,SPECI,3.0
KAST 211531Z AUTO 31016G21KT 7SM -RA SCT015 BKN023 OVC046 05/02 A2978 RMK AO2 PK WND 27028/1510 RAB26 P0000 T00500022,KAST,2023-02-21T15:31:00Z,46.15,-123.88,5.0,2.2,310,16,21,7.0,29.778543,,,TRUE,TRUE,,,,,,-RA,SCT,1500,BKN,2300,OVC,4600,,,MVFR,,,,,,0.005,,,,,,SPECI,3.0
KAST 211455Z AUTO 28014G23KT 10SM SCT029 SCT037 BKN048 06/02 A2978 RMK AO2 RAE05 SLP084 P0003 60003 T00610017 58030,KAST,2023-02-21T14:55:00Z,46.15,-123.88,6.1,1.7,280,14,23,10.0,29.778543,1008.4,,TRUE,TRUE,,,,,,,SCT,2900,SCT,3700,BKN,4800,,,VFR,-3.0,,,,,0.03,0.03,,,,,METAR,3.0
KAST 211355Z AUTO 30012G30KT 5SM RA SCT026 BKN036 OVC070 04/01 A2982 RMK AO2 PK WND 29030/1351 RAB23 SLP098 P0000 T00440011,KAST,2023-02-21T13:55:00Z,46.15,-123.88,4.4,1.1,300,12,30,5.0,29.819881,1009.8,,TRUE,TRUE,,,,,,RA,SCT,2600,BKN,3600,OVC,7000,,,MVFR,,,,,,0.005,,,,,,METAR,3.0
KAST 211255Z AUTO 28015G24KT 9SM FEW035 BKN055 OVC070 06/02 A2985 RMK AO2 RAE1158 SLP106 P0000 T00610017,KAST,2023-02-21T12:55:00Z,46.15,-123.88,6.1,1.7,280,15,24,9.0,29.84941,1010.6,,TRUE,TRUE,,,,,,,FEW,3500,BKN,5500,OVC,7000,,,VFR,,,,,,0.005,,,,,,SPECI,3.0
KAST 211155Z AUTO 28010KT 10SM -RA FEW030 BKN047 OVC070 06/02 A2987 RMK AO2 PK WND 27033/1104 SLP114 P0003 60010 70040 T00560022 10078 20050 58022,KAST,2023-02-21T11:55:00Z,46.15,-123.88,5.6,2.2,280,10,,10.0,29.870079,1011.4,,TRUE,TRUE,,,,,,-RA,FEW,3000,BKN,4700,OVC,7000,,,VFR,-2.2,7.8,5.0,,,0.03,,0.1,0.4,,,METAR,3.0
KAST 211135Z AUTO 28014G27KT 9SM -RA SCT030 BKN042 OVC070 06/02 A2988 RMK AO2 PK WND 27033/1104 CIG 033 RWY 08 P0003 T00560022,KAST,2023-02-21T11:35:00Z,46.15,-123.88,5.6,2.2,280,14,27,9.0,29.878937,,,TRUE,TRUE,,,,,,-RA,SCT,3000,BKN,4200,OVC,7000,,,VFR,,,,,,0.03,,,,,,SPECI,3.0
KAST 211118Z AUTO 27011G24KT 7SM -RA FEW020 BKN029 OVC060 05/03 A2988 RMK AO2 PK WND 27033/1104 P0003 T00500028,KAST,2023-02-21T11:18:00Z,46.15,-123.88,5.0,2.8,270,11,24,7.0,29.878937,,,TRUE,TRUE,,,,,,-RA,FEW,2000,BKN,2900,OVC,6000,,,MVFR,,,,,,0.03,,,,,,SPECI,3.0
KAST 211055Z AUTO 27012G19KT 10SM -RA FEW027 BKN043 OVC060 06/03 A2989 RMK AO2 PK WND 29029/1030 RAB27 SLP121 P0001 T00560028,KAST,2023-02-21T10:55:00Z,46.15,-123.88,5.6,2.8,270,12,19,10.0,29.890747,1012.1,,TRUE,TRUE,,,,,,-RA,FEW,2700,BKN,4300,OVC,6000,,,VFR,,,,,,0.01,,,,,,METAR,3.0
KAST 210955Z AUTO 28010KT 10SM FEW017 BKN043 OVC060 06/03 A2992 RMK AO2 RAE46 SLP131 P0004 T00610033,KAST,2023-02-21T09:55:00Z,46.15,-123.88,6.1,3.3,280,10,,10.0,29.920275,1013.1,,TRUE,TRUE,,,,,,,FEW,1700,BKN,4300,OVC,6000,,,VFR,,,,,,0.04,,,,,,METAR,3.0
KAST 210855Z AUTO 29016G29KT 6SM -RA FEW027 BKN033 OVC060 06/03 A2994 RMK AO2 PK WND 30029/0849 RAB11E25B52 SLP137 P0000 60002 T00610028 58008,KAST,2023-02-21T08:55:00Z,46.15,-123.88,6.1,2.8,290,16,29,6.0,29.940945,1013.7,,TRUE,TRUE,,,,,,-RA,FEW,2700,BKN,3300,OVC,6000,,,VFR,-0.8,,,,,0.005,0.02,,,,,METAR,3.0
KAST 210755Z AUTO 27013G22KT 10SM FEW044 OVC060 07/03 A2995 RMK AO2 PK WND 27026/0720 RAE37 SLP141 P0000 T00670028 400890061,KAST,2023-02-21T07:55:00Z,46.15,-123.88,6.7,2.8,270,13,22,10.0,29.949802,1014.1,,TRUE,TRUE,,,,,,,FEW,4400,OVC,6000,,,,,VFR,,,,8.9,6.1,0.005,,,,,,METAR,3.0
KAST 210655Z AUTO 29013G22KT 5SM -RA BR SCT016 SCT027 OVC036 06/04 A2997 RMK AO2 RAE00B24 SLP149 P0002 T00610044,KAST,2023-02-21T06:55:00Z,46.15,-123.88,6.1,4.4,290,13,22,5.0,29.970472,1014.9,,TRUE,TRUE,,,,,,-RA BR,SCT,1600,SCT,2700,OVC,3600,,,MVFR,,,,,,0.02,,,,,,METAR,3.0
KAST 210609Z AUTO 28011KT 9SM FEW010 BKN030 OVC036 07/06 A2996 RMK AO2 RAE00 P0000 T00720056,KAST,2023-02-21T06:09:00Z,46.15,-123.88,7.2,5.6,280,11,,9.0,29.958662,,,TRUE,TRUE,,,,,,,FEW,1000,BKN,3000,OVC,3600,,,MVFR,,,,,,0.005,,,,,,SPECI,3.0
KAST 210555Z AUTO 28012G25KT 5SM -RA BR FEW010 FEW022 OVC028 07/06 A2996 RMK AO2 PK WND 28032/0543 SLP145 P0002 60023 T00720056 10089 20072 58011,KAST,2023-02-21T05:55:00Z,46.15,-123.88,7.2,5.6,280,12,25,5.0,29.958662,1014.5,,TRUE,TRUE,,,,,,-RA BR,FEW,1000,FEW,2200,OVC,2800,,,MVFR,-1.1,8.9,7.2,,,0.02,,,,,,SPECI,3.0
KAST 210527Z AUTO 27011KT 5SM -RA BR FEW006 SCT013 OVC021 08/07 A2996 RMK AO2 PK WND 29028/0516 P0001 T00780067,KAST,2023-02-21T05:27:00Z,46.15,-123.88,7.8,6.7,270,11,,5.0,29.958662,,,TRUE,TRUE,,,,,,-RA BR,FEW,600,SCT,1300,OVC,2100,,,MVFR,,,,,,0.01,,,,,,SPECI,3.0
KAST 210521Z AUTO 29013G28KT 2SM -RA BR FEW006 OVC013 08/07 A2996 RMK AO2 PK WND 29028/0516 P0001 T00780067,KAST,2023-02-21T05:21:00Z,46.15,-123.88,7.8,6.7,290,13,28,2.0,29.958662,,,TRUE,TRUE,,,,,,-RA BR,FEW,600,OVC,1300,,,,,IFR,,,,,,0.01,,,,,,SPECI,3.0
KAST 210515Z AUTO 28020G26KT 1 3/4SM -RA BR BKN007 OVC013 08/07 A2996 RMK AO2 PK WND 29026/0515 P0000 T00830072,KAST,2023-02-21T05:15:00Z,46.15,-123.88,8.3,7.2,280,20,26,1.75,29.958662,,,TRUE,TRUE,,,,,,-RA BR,BKN,700,OVC,1300,,,,,IFR,,,,,,0.005,,,,,,SPECI,3.0
KAST 210455Z AUTO 25014KT 9SM -RA BKN007 OVC013 09/08 A2996 RMK AO2 PK WND 24032/0444 SLP145 P0005 T00890078,KAST,2023-02-21T04:55:00Z,46.15,-123.88,8.9,7.8,250,14,,9.0,29.958662,1014.5,,TRUE,TRUE,,,,,,-RA,BKN,700,OVC,1300,,,,,IFR,,,,,,0.05,,,,,,METAR,3.0
KAST 210444Z AUTO 24016G32KT 4SM -RA BR OVC005 09/08 A2997 RMK AO2 PK WND 24032/0444 P0004 T00890083,KAST,2023-02-21T04:44:00Z,46.15,-123.88,8.9,8.3,240,16,32,4.0,29.970472,,,TRUE,TRUE,,,,,,-RA BR,OVC,500,,,,,,,IFR,,,,,,0.04,,,,,,SPECI,3.0
KAST 210426Z AUTO 23015G23KT 2 1/2SM -RA BR OVC005 09/08 A2996 RMK AO2 P0003 T00890078,KAST,2023-02-21T04:26:00Z,46.15,-123.88,8.9,7.8,230,15,23,2.5,29.958662,,,TRUE,TRUE,,,,,,-RA BR,OVC,500,,,,,,,IFR,,,,,,0.03,,,,,,SPECI,3.0
KAST 210355Z AUTO 22014G22KT 1 3/4SM -RA BR OVC007 09/08 A2999 RMK AO2 SLP156 P0005 T00890078,KAST,2023-02-21T03:55:00Z,46.15,-123.88,8.9,7.8,220,14,22,1.75,29.991142,1015.6,,TRUE,TRUE,,,,,,-RA BR,OVC,700,,,,,,,IFR,,,,,,0.05,,,,,,METAR,3.0
KAST 210352Z AUTO 21015G23KT 1 3/4SM -RA BR OVC007 09/08 A2999 RMK AO2 P0004,KAST,2023-02-21T03:52:00Z,46.15,-123.88,9.0,8.0,210,15,23,1.75,29.991142,,,TRUE,TRUE,,,,,,-RA BR,OVC,700,,,,,,,IFR,,,,,,0.04,,,,,,SPECI,3.0
KAST 210316Z AUTO 21013G21KT 2SM -RA BR OVC007 08/08 A3001 RMK AO2 P0002 T00830078,KAST,2023-02-21T03:16:00Z,46.15,-123.88,8.3,7.8,210,13,21,2.0,30.008858,,,TRUE,TRUE,,,,,,-RA BR,OVC,700,,,,,,,IFR,,,,,,0.02,,,,,,SPECI,3.0
KAST 210306Z AUTO 22014G23KT 2SM -RA BR BKN004 OVC009 08/08 A3003 RMK AO2 P0001 T00830078,KAST,2023-02-21T03:06:00Z,46.15,-123.88,8.3,7.8,220,14,23,2.0,30.029528,,,TRUE,TRUE,,,,,,-RA BR,BKN,400,OVC,900,,,,,LIFR,,,,,,0.01,,,,,,SPECI,3.0
KAST 210257Z AUTO 22015G25KT 3SM -RA BR BKN004 OVC011 08/08 A3003 RMK AO2 P0000 T00830078,KAST,2023-02-21T02:57:00Z,46.15,-123.88,8.3,7.8,220,15,25,3.0,30.029528,,,TRUE,TRUE,,,,,,-RA BR,BKN,400,OVC,1100,,,,,LIFR,,,,,,0.005,,,,,,METAR,3.0
KAST 210255Z AUTO 22017G25KT 2 1/2SM -RA BR BKN006 OVC011 08/08 A3003 RMK AO2 SLP167 P0006 60011 T00830078 56019,KAST,2023-02-21T02:55:00Z,46.15,-123.88,8.3,7.8,220,17,25,2.5,30.029528,1016.7,,TRUE,TRUE,,,,,,-RA BR,BKN,600,OVC,1100,,,,,IFR,-1.9,,,,,0.06,0.11,,,,,METAR,3.0
KAST 210251Z AUTO 22014G22KT 2 1/2SM -RA BR BKN006 OVC009 08/08 A3003 RMK AO2 P0006,KAST,2023-02-21T02:51:00Z,46.15,-123.88,8.0,8.0,220,14,22,2.5,30.029528,,,TRUE,TRUE,,,,,,-RA BR,BKN,600,OVC,900,,,,,IFR,,,,,,0.06,,,,,,SPECI,3.0
KAST 210240Z AUTO 23016G21KT 2 1/2SM RA BR BKN004 OVC009 08/08 A3004 RMK AO2 P0004 T00830078,KAST,2023-02-21T02:40:00Z,46.15,-123.88,8.3,7.8,230,16,21,2.5,30.041338,,,TRUE,TRUE,,,,,,RA BR,BKN,400,OVC,900,,,,,LIFR,,,,,,0.04,,,,,,METAR,3.0
KAST 210231Z AUTO 22011G21KT 4SM -RA BR BKN006 OVC011 08/08 A3004 RMK AO2 P0003 T00830078,KAST,2023-02-21T02:31:00Z,46.15,-123.88,8.3,7.8,220,11,21,4.0,30.041338,,,TRUE,TRUE,,,,,,-RA BR,BKN,600,OVC,1100,,,,,IFR,,,,,,0.03,,,,,,SPECI,3.0
KAST 210204Z AUTO 23017G25KT 2SM -RA BR SCT006 OVC011 08/08 A3006 RMK AO2 CIG 005 RWY 08 P0001 T00830078,KAST,2023-02-21T02:04:00Z,46.15,-123.88,8.3,7.8,230,17,25,2.0,30.059055,,,TRUE,TRUE,,,,,,-RA BR,SCT,600,OVC,1100,,,,,IFR,,,,,,0.01,,,,,,SPECI,3.0
KAST 210155Z AUTO 23014G25KT 2 1/2SM -RA BR SCT006 OVC015 08/07 A3006 RMK AO2 RAB0059 CIG 006 RWY 08 SLP180 P0005 T00830072,KAST,2023-02-21T01:55:00Z,46.15,-123.88,8.3,7.2,230,14,25,2.5,30.059055,1018.0,,TRUE,TRUE,,,,,,-RA BR,SCT,600,OVC,1500,,,,,IFR,,,,,,0.05,,,,,,METAR,3.0
KAST 210145Z AUTO 24016G25KT 2SM -RA BR OVC006 08/07 A3006 RMK AO2 RAB0059 P0004 T00830072,KAST,2023-02-21T01:45:00Z,46.15,-123.88,8.3,7.2,240,16,25,2.0,30.059055,,,TRUE,TRUE,,,,,,-RA BR,OVC,600,,,,,,,IFR,,,,,,0.04,,,,,,SPECI,3.0
KAST 210138Z AUTO 24017G25KT 1 3/4SM -RA BR OVC006 08/07 A3007 RMK AO2 RAB0059 P0003 T00830072,KAST,2023-02-21T01:38:00Z,46.15,-123.88,8.3,7.2,240,17,25,1.75,30.070866,,,TRUE,TRUE,,,,,,-RA BR,OVC,600,,,,,,,IFR,,,,,,0.03,,,,,,METAR,3.0
KAST 210132Z AUTO 23012G20KT 3SM -RA BR BKN006 OVC010 08/08 A3006 RMK AO2 RAB0059 P0002 T00830078,KAST,2023-02-21T01:32:00Z,46.15,-123.88,8.3,7.8,230,12,20,3.0,30.059055,,,TRUE,TRUE,,,,,,-RA BR,BKN,600,OVC,1000,,,,,IFR,,,,,,0.02,,,,,,SPECI,3.0
KAST 210114Z AUTO 22013G21KT 2SM -RA BR OVC006 08/08 A3007 RMK AO2 VIS 1 1/4V4 RAB0059 P0002 T00830078,KAST,2023-02-21T01:14:00Z,46.15,-123.88,8.3,7.8,220,13,21,2.0,30.070866,,,TRUE,TRUE,,,,,,-RA BR,OVC,600,,,,,,,IFR,,,,,,0.02,,,,,,METAR,3.0
KAST 210109Z AUTO 22011G20KT 1 1/4SM -RA BR OVC006 08/08 A3007 RMK AO2 RAB0059 P0002 T00830078,KAST,2023-02-21T01:09:00Z,46.15,-123.88,8.3,7.8,220,11,20,1.25,30.070866,,,TRUE,TRUE,,,,,,-RA BR,OVC,600,,,,,,,IFR,,,,,,0.02,,,,,,METAR,3.0
KAST 210101Z AUTO 23013G22KT 1 3/4SM -RA BR OVC006 08/07 A3008 RMK AO2 RAB0059 P0000 T00830072,KAST,2023-02-21T01:01:00Z,46.15,-123.88,8.3,7.2,230,13,22,1.75,30.079725,,,TRUE,TRUE,,,,,,-RA BR,OVC,600,,,,,,,IFR,,,,,,0.005,,,,,,METAR,3.0
KAST 210055Z AUTO 23017G22KT 5SM BR BKN006 OVC010 08/07 A3008 RMK AO2 RAE31 SLP186 P0000 T00830072,KAST,2023-02-21T00:55:00Z,46.15,-123.88,8.3,7.2,230,17,22,5.0,30.079725,1018.6,,TRUE,TRUE,,,,,,BR,BKN,600,OVC,1000,,,,,IFR,,,,,,0.005,,,,,,METAR,3.0
KAST 210045Z AUTO 23012G20KT 2 1/2SM BR OVC006 08/08 A3009 RMK AO2 VIS 1 3/4V5 RAE31 P0000 T00830078,KAST,2023-02-21T00:45:00Z,46.15,-123.88,8.3,7.8,230,12,20,2.5,30.088583,,,TRUE,TRUE,,,,,,BR,OVC,600,,,,,,,IFR,,,,,,0.005,,,,,,SPECI,3.0
KAST 210029Z AUTO 22013G25KT 3SM -RA BR BKN006 OVC012 08/07 A3010 RMK AO2 P0000 T00830072,KAST,2023-02-21T00:29:00Z,46.15,-123.88,8.3,7.2,220,13,25,3.0,30.100393,,,TRUE,TRUE,,,,,,-RA BR,BKN,600,OVC,1200,,,,,IFR,,,,,,0.005,,,,,,SPECI,3.0
KAST 210020Z AUTO 22011G20KT 1 3/4SM -RA BR BKN006 OVC017 08/08 A3010 RMK AO2 P0000 T00830078,KAST,2023-02-21T00:20:00Z,46.15,-123.88,8.3,7.8,220,11,20,1.75,30.100393,,,TRUE,TRUE,,,,,,-RA BR,BKN,600,OVC,1700,,,,,IFR,,,,,,0.005,,,,,,SPECI,3.0
KAST 210009Z AUTO 22013G20KT 6SM -RA BR OVC006 08/08 A3010 RMK AO2 P0000 T00830078,KAST,2023-02-21T00:09:00Z,46.15,-123.88,8.3,7.8,220,13,20,6.0,30.100393,,,TRUE,TRUE,,,,,,-RA BR,OVC,600,,,,,,,IFR,,,,,,0.005,,,,,,SPECI,3.0
KAST 202355Z AUTO 22012G20KT 2 1/2SM -RA BR BKN006 OVC011 08/08 A3011 RMK AO2 SLP195 P0001 60006 T00830078 10089 20083 56043,KAST,2023-02-20T23:55:00Z,46.15,-123.88,8.3,7.8,220,12,20,2.5,30.109253,1019.5,,TRUE,TRUE,,,,,,-RA BR,BKN,600,OVC,1100,,,,,IFR,-4.3,8.9,8.3,,,0.01,,0.06,,,,METAR,3.0
KAST 202319Z AUTO 22012G19KT 3SM -RA BR OVC004 08/07 A3014 RMK AO2 P0001 T00830072,KAST,2023-02-20T23:19:00Z,46.15,-123.88,8.3,7.2,220,12,19,3.0,30.138779,,,TRUE,TRUE,,,,,,-RA BR,OVC,400,,,,,,,LIFR,,,,,,0.01,,,,,,SPECI,3.0
KAST 202307Z AUTO 23012G22KT 1 3/4SM -RA BR OVC004 08/07 A3014 RMK AO2 P0000 T00830072,KAST,2023-02-20T23:07:00Z,46.15,-123.88,8.3,7.2,230,12,22,1.75,30.138779,,,TRUE,TRUE,,,,,,-RA BR,OVC,400,,,,,,,LIFR,,,,,,0.005,,,,,,SPECI,3.0
KAST 202255Z AUTO 21011G20KT 2SM -RA BR OVC006 08/07 A3013 RMK AO2 SLP203 P0001 T00830072,KAST,2023-02-20T22:55:00Z,46.15,-123.88,8.3,7.2,210,11,20,2.0,30.129921,1020.3,,TRUE,TRUE,,,,,,-RA BR,OVC,600,,,,,,,IFR,,,,,,0.01,,,,,,METAR,3.0
KAST 202239Z AUTO 21009G24KT 1 3/4SM -RA BR OVC006 08/07 A3014 RMK AO2 P0001 T00830072,KAST,2023-02-20T22:39:00Z,46.15,-123.88,8.3,7.2,210,9,24,1.75,30.138779,,,TRUE,TRUE,,,,,,-RA BR,OVC,600,,,,,,,IFR,,,,,,0.01,,,,,,SPECI,3.0
KAST 202222Z AUTO 20012G25KT 2 1/2SM -RA BR OVC006 08/07 A3014 RMK AO2 P0000 T00830072,KAST,2023-02-20T22:22:00Z,46.15,-123.88,8.3,7.2,200,12,25,2.5,30.138779,,,TRUE,TRUE,,,,,,-RA BR,OVC,600,,,,,,,IFR,,,,,,0.005,,,,,,SPECI,3.0
KAST 202155Z AUTO 21013G23KT 1 3/4SM -RA BR OVC006 08/07 A3019 RMK AO2 SLP221 P0003 T00830072,KAST,2023-02-20T21:55:00Z,46.15,-123.88,8.3,7.2,210,13,23,1.75,30.188976,1022.1,,TRUE,TRUE,,,,,,-RA BR,OVC,600,,,,,,,IFR,,,,,,0.03,,,,,,SPECI,3.0
KAST 202148Z AUTO 20016G22KT 1 1/2SM -RA BR OVC006 08/07 A3018 RMK AO2 P0002 T00830072,KAST,2023-02-20T21:48:00Z,46.15,-123.88,8.3,7.2,200,16,22,1.5,30.180119,,,TRUE,TRUE,,,,,,-RA BR,OVC,600,,,,,,,IFR,,,,,,0.02,,,,,,METAR,3.0
KAST 202140Z AUTO 20014G20KT 2SM -RA BR OVC006 08/07 A3019 RMK AO2 P0002 T00830072,KAST,2023-02-20T21:40:00Z,46.15,-123.88,8.3,7.2,200,14,20,2.0,30.188976,,,TRUE,TRUE,,,,,,-RA BR,OVC,600,,,,,,,IFR,,,,,,0.02,,,,,,METAR,3.0
KAST 202133Z AUTO 20011G21KT 1 3/4SM -RA BR BKN006 OVC010 08/07 A3020 RMK AO2 P0002 T00830072,KAST,2023-02-20T21:33:00Z,46.15,-123.88,8.3,7.2,200,11,21,1.75,30.200787,,,TRUE,TRUE,,,,,,-RA BR,BKN,600,OVC,1000,,,,,IFR,,,,,,0.02,,,,,,SPECI,3.0
KAST 202055Z AUTO 22010KT 1 1/4SM -RA BR BKN006 OVC012 08/07 A3024 RMK AO2 RAB27 SLP239 P0000 60001 T00830072 56018,KAST,2023-02-20T20:55:00Z,46.15,-123.88,8.3,7.2,220,10,,1.25,30.239174,1023.9,,TRUE,TRUE,,,,,,-RA BR,BKN,600,OVC,1200,,,,,IFR,-1.8,,,,,0.005,0.01,,,,,METAR,3.0
KAST 202034Z AUTO 22009G19KT 1 3/4SM -RA BR BKN008 OVC018 08/07 A3024 RMK AO2 RAB27 P0000 T00830067,KAST,2023-02-20T20:34:00Z,46.15,-123.88,8.3,6.7,220,9,19,1.75,30.239174,,,TRUE,TRUE,,,,,,-RA BR,BKN,800,OVC,1800,,,,,IFR,,,,,,0.005,,,,,,SPECI,3.0
KAST 202032Z AUTO 22011G19KT 1 3/4SM -RA BR SCT010 BKN013 OVC020 08/07 A3024 RMK AO2 RAB27 P0000 T00830067,KAST,2023-02-20T20:32:00Z,46.15,-123.88,8.3,6.7,220,11,19,1.75,30.239174,,,TRUE,TRUE,,,,,,-RA BR,SCT,1000,BKN,1300,OVC,2000,,,IFR,,,,,,0.005,,,,,,METAR,3.0
KAST 202025Z AUTO 21011G19KT 2 1/2SM BR SCT009 OVC020 08/07 A3024 RMK AO2 T00830067,KAST,2023-02-20T20:25:00Z,46.15,-123.88,8.3,6.7,210,11,19,2.5,30.239174,,,TRUE,TRUE,,,,,,BR,SCT,900,OVC,2000,,,,,IFR,,,,,,,,,,,,SPECI,3.0
KAST 201955Z AUTO 22006G17KT 9SM OVC024 09/06 A3024 RMK AO2 SLP241 T00890061,KAST,2023-02-20T19:55:00Z,46.15,-123.88,8.9,6.1,220,6,17,9.0,30.239174,1024.1,,TRUE,TRUE,,,,,,,OVC,2400,,,,,,,MVFR,,,,,,,,,,,,METAR,3.0
KAST 201908Z AUTO 20011KT 7SM SCT008 SCT015 OVC026 09/07 A3025 RMK AO2 CIG 007 RWY 08 PRESFR T00890072,KAST,2023-02-20T19:08:00Z,46.15,-123.88,8.9,7.2,200,11,,7.0,30.250984,,,TRUE,TRUE,,,,,,,SCT,800,SCT,1500,OVC,2600,,,MVFR,,,,,,,,,,,,SPECI,3.0
KAST 201855Z AUTO 20011G16KT 6SM BR BKN008 BKN011 OVC024 08/07 A3027 RMK AO2 RAE41 SLP249 P0001 T00830072,KAST,2023-02-20T18:55:00Z,46.15,-123.88,8.3,7.2,200,11,16,6.0,30.268702,1024.9,,TRUE,TRUE,,,,,,BR,BKN,800,BKN,1100,OVC,2400,,,IFR,,,,,,0.01,,,,,,METAR,3.0
KAST 201835Z AUTO 22009G17KT 3SM -RA BR BKN006 OVC011 08/07 A3027 RMK AO2 CIG 004V009 P0001 T00830072,KAST,2023-02-20T18:35:00Z,46.15,-123.88,8.3,7.2,220,9,17,3.0,30.268702,,,TRUE,TRUE,,,,,,-RA BR,BKN,600,OVC,1100,,,,,IFR,,,,,,0.01,,,,,,METAR,3.0
KAST 201822Z AUTO 22009KT 2 1/2SM -RA BR OVC006 08/07 A3027 RMK AO2 VIS 1 3/4V4 P0000 T00830072,KAST,2023-02-20T18:22:00Z,46.15,-123.88,8.3,7.2,220,9,,2.5,30.268702,,,TRUE,TRUE,,,,,,-RA BR,OVC,600,,,,,,,IFR,,,,,,0.005,,,,,,SPECI,3.0
KAST 201755Z AUTO 22008KT 1 3/4SM -RA BR BKN006 BKN012 OVC017 08/07 A3029 RMK AO2 RAB48 SLP256 P0000 60001 T00830072 10083 20078 58003,KAST,2023-02-20T17:55:00Z,46.15,-123.88,8.3,7.2,220,8,,1.75,30.28937,1025.6,,TRUE,TRUE,,,,,,-RA BR,BKN,600,BKN,1200,OVC,1700,,,IFR,-0.3,8.3,7.8,,,0.005,,0.01,,,,METAR,3.0
KAST 201745Z AUTO 20010KT 1 3/4SM BR BKN006 OVC012 08/07 A3028 RMK AO2 PRESFR T00830072,KAST,2023-02-20T17:45:00Z,46.15,-123.88,8.3,7.2,200,10,,1.75,30.280512,,,TRUE,TRUE,,,,,,BR,BKN,600,OVC,1200,,,,,IFR,,,,,,,,,,,,SPECI,3.0
KAST 201733Z AUTO 24009KT 4SM BR BKN006 BKN011 OVC014 08/07 A3031 RMK AO2 T00830072,KAST,2023-02-20T17:33:00Z,46.15,-123.88,8.3,7.2,240,9,,4.0,30.31004,,,TRUE,TRUE,,,,,,BR,BKN,600,BKN,1100,OVC,1400,,,IFR,,,,,,,,,,,,SPECI,3.0
KAST 201725Z AUTO 23007KT 2 1/2SM BR BKN008 OVC016 08/07 A3030 RMK AO2 T00830072,KAST,2023-02-20T17:25:00Z,46.15,-123.88,8.3,7.2,230,7,,2.5,30.301182,,,TRUE,TRUE,,,,,,BR,BKN,800,OVC,1600,,,,,IFR,,,,,,,,,,,,SPECI,3.0
KAST 201716Z AUTO 22007KT 3SM BR BKN008 OVC016 08/07 A3029 RMK AO2 T00780072,KAST,2023-02-20T17:16:00Z,46.15,-123.88,7.8,7.2,220,7,,3.0,30.28937,,,TRUE,TRUE,,,,,,BR,BKN,800,OVC,1600,,,,,IFR,,,,,,,,,,,,SPECI,3.0
KAST 201709Z AUTO 22008G15KT 2 1/2SM BR SCT008 BKN014 OVC019 08/07 A3029 RMK AO2 VIS 2V4 CIG 010 RWY 08 T00780067,KAST,2023-02-20T17:09:00Z,46.15,-123.88,7.8,6.7,220,8,15,2.5,30.28937,,,TRUE,TRUE,,,,,,BR,SCT,800,BKN,1400,OVC,1900,,,IFR,,,,,,,,,,,,SPECI,3.0
KAST 201655Z AUTO 23011KT 6SM BR SCT008 OVC016 08/07 A3030 RMK AO2 SLP259 T00780067,KAST,2023-02-20T16:55:00Z,46.15,-123.88,7.8,6.7,230,11,,6.0,30.301182,1025.9,,TRUE,TRUE,,,,,,BR,SCT,800,OVC,1600,,,,,MVFR,,,,,,,,,,,,METAR,3.0
KAST 201652Z AUTO 23013G17KT 6SM BR SCT008 OVC016 08/07 A3030 RMK AO2,KAST,2023-02-20T16:52:00Z,46.15,-123.88,8.0,7.0,230,13,17,6.0,30.301182,,,TRUE,TRUE,,,,,,BR,SCT,800,OVC,1600,,,,,MVFR,,,,,,,,,,,,METAR,3.0
KAST 201651Z AUTO 23011G17KT 6SM BR BKN008 OVC016 08/07 A3030 RMK AO2 CIG 007V013,KAST,2023-02-20T16:51:00Z,46.15,-123.88,8.0,7.0,230,11,17,6.0,30.301182,,,TRUE,TRUE,,,,,,BR,BKN,800,OVC,1600,,,,,IFR,,,,,,,,,,,,SPECI,3.0
KAST 201555Z AUTO 24007KT 8SM FEW010 SCT014 OVC020 08/07 A3030 RMK AO2 SLP259 T00780067,KAST,2023-02-20T15:55:00Z,46.15,-123.88,7.8,6.7,240,7,,8.0,30.301182,1025.9,,TRUE,TRUE,,,,,,,FEW,1000,SCT,1400,OVC,2000,,,MVFR,,,,,,,,,,,,METAR,3.0
KAST 201551Z AUTO 24008KT 8SM SCT014 OVC020 08/07 A3030 RMK AO2,KAST,2023-02-20T15:51:00Z,46.15,-123.88,8.0,7.0,240,8,,8.0,30.301182,,,TRUE,TRUE,,,,,,,SCT,1400,OVC,2000,,,,,MVFR,,,,,,,,,,,,METAR,3.0
KAST 201455Z AUTO 23006KT 8SM BKN012 OVC018 08/07 A3028 RMK AO2 SLP254 60001 T00780072 56011,KAST,2023-02-20T14:55:00Z,46.15,-123.88,7.8,7.2,230,6,,8.0,30.280512,1025.4,,TRUE,TRUE,,,,,,,BKN,1200,OVC,1800,,,,,MVFR,-1.1,,,,,,0.01,,,,,METAR,3.0
KAST 201355Z AUTO 24007KT 8SM FEW005 BKN020 OVC025 08/07 A3031 RMK AO2 RAB1259E09 SLP262 P0001 T00780072,KAST,2023-02-20T13:55:00Z,46.15,-123.88,7.8,7.2,240,7,,8.0,30.31004,1026.2,,TRUE,TRUE,,,,,,,FEW,500,BKN,2000,OVC,2500,,,MVFR,,,,,,0.01,,,,,,METAR,3.0
KAST 201347Z AUTO 25007KT 6SM BR SCT005 BKN013 OVC025 08/07 A3031 RMK AO2 RAB1259E09 P0001 T00780072,KAST,2023-02-20T13:47:00Z,46.15,-123.88,7.8,7.2,250,7,,6.0,30.31004,,,TRUE,TRUE,,,,,,BR,SCT,500,BKN,1300,OVC,2500,,,MVFR,,,,,,0.01,,,,,,SPECI,3.0
KAST 201327Z AUTO 25008KT 4SM BR BKN005 OVC011 08/07 A3030 RMK AO2 RAB1259E09 P0000 T00780072,KAST,2023-02-20T13:27:00Z,46.15,-123.88,7.8,7.2,250,8,,4.0,30.301182,,,TRUE,TRUE,,,,,,BR,BKN,500,OVC,1100,,,,,IFR,,,,,,0.005,,,,,,SPECI,3.0
KAST 201255Z AUTO 23007KT 2SM BR BKN005 OVC012 08/07 A3029 RMK AO2 SLP257 T00780072,KAST,2023-02-20T12:55:00Z,46.15,-123.88,7.8,7.2,230,7,,2.0,30.28937,1025.7,,TRUE,TRUE,,,,,,BR,BKN,500,OVC,1200,,,,,IFR,,,,,,,,,,,,SPECI,3.0
KAST 201245Z AUTO 23005KT 1 3/4SM BR BKN007 OVC014 08/07 A3030 RMK AO2 T00780072,KAST,2023-02-20T12:45:00Z,46.15,-123.88,7.8,7.2,230,5,,1.75,30.301182,,,TRUE,TRUE,,,,,,BR,BKN,700,OVC,1400,,,,,IFR,,,,,,,,,,,,SPECI,3.0
KAST 201155Z AUTO 25008KT 3SM BR BKN005 BKN010 OVC014 08/07 A3032 RMK AO2 SLP266 60000 70004 T00780067 10078 20078 58005,KAST,2023-02-20T11:55:00Z,46.15,-123.88,7.8,6.7,250,8,,3.0,30.318897,1026.6,,TRUE,TRUE,,,,,,BR,BKN,500,BKN,1000,OVC,1400,,,IFR,-0.5,7.8,7.8,,,,,0.005,0.04,,,METAR,3.0
KAST 201114Z AUTO 25007KT 10SM FEW009 BKN021 OVC034 08/07 A3033 RMK AO2 T00780067,KAST,2023-02-20T11:14:00Z,46.15,-123.88,7.8,6.7,250,7,,10.0,30.33071,,,TRUE,TRUE,,,,,,,FEW,900,BKN,2100,OVC,3400,,,MVFR,,,,,,,,,,,,METAR,3.0
KAST 201107Z AUTO 25006KT 10SM FEW011 BKN023 OVC034 08/07 A3033 RMK AO2 T00780067,KAST,2023-02-20T11:07:00Z,46.15,-123.88,7.8,6.7,250,6,,10.0,30.33071,,,TRUE,TRUE,,,,,,,FEW,1100,BKN,2300,OVC,3400,,,MVFR,,,,,,,,,,,,SPECI,3.0
KAST 201100Z AUTO 25007KT 10SM SCT011 SCT017 OVC032 08/07 A3033 RMK AO2 T00780067,KAST,2023-02-20T11:00:00Z,46.15,-123.88,7.8,6.7,250,7,,10.0,30.33071,,,TRUE,TRUE,,,,,,,SCT,1100,SCT,1700,OVC,3200,,,VFR,,,,,,,,,,,,SPECI,3.0
KAST 201055Z AUTO 25007KT 10SM BKN011 BKN017 OVC035 08/07 A3033 RMK AO2 SLP271 T00780067,KAST,2023-02-20T10:55:00Z,46.15,-123.88,7.8,6.7,250,7,,10.0,30.33071,1027.1,,TRUE,TRUE,,,,,,,BKN,1100,BKN,1700,OVC,3500,,,MVFR,,,,,,,,,,,,METAR,3.0
KAST 201023Z AUTO 25007KT 9SM SCT006 BKN010 OVC015 08/07 A3033 RMK AO2 T00780072,KAST,2023-02-20T10:23:00Z,46.15,-123.88,7.8,7.2,250,7,,9.0,30.33071,,,TRUE,TRUE,,,,,,,SCT,600,BKN,1000,OVC,1500,,,MVFR,,,,,,,,,,,,SPECI,3.0
KAST 201014Z AUTO 25008KT 9SM BKN009 BKN013 OVC034 08/07 A3033 RMK AO2 CIG 006V010 T00780067,KAST,2023-02-20T10:14:00Z,46.15,-123.88,7.8,6.7,250,8,,9.0,30.33071,,,TRUE,TRUE,,,,,,,BKN,900,BKN,1300,OVC,3400,,,IFR,,,,,,,,,,,,METAR,3.0
KAST 201005Z AUTO 26007KT 10SM SCT007 BKN013 OVC034 08/07 A3034 RMK AO2 T00780067,KAST,2023-02-20T10:05:00Z,46.15,-123.88,7.8,6.7,260,7,,10.0,30.339567,,,TRUE,TRUE,,,,,,,SCT,700,BKN,1300,OVC,3400,,,MVFR,,,,,,,,,,,,METAR,3.0
KAST 200955Z AUTO 26007KT 10SM BKN007 BKN014 OVC034 08/07 A3033 RMK AO2 SLP270 T00780067,KAST,2023-02-20T09:55:00Z,46.15,-123.88,7.8,6.7,260,7,,10.0,30.33071,1027.0,,TRUE,TRUE,,,,,,,BKN,700,BKN,1400,OVC,3400,,,IFR,,,,,,,,,,,,METAR,3.0
KAST 200855Z AUTO 27010KT 9SM BKN007 OVC013 08/07 A3033 RMK AO2 SLP271 60000 T00780067 53004,KAST,2023-02-20T08:55:00Z,46.15,-123.88,7.8,6.7,270,10,,9.0,30.33071,1027.1,,TRUE,TRUE,,,,,,,BKN,700,OVC,1300,,,,,IFR,0.4,,,,,,0.005,,,,,METAR,3.0
KAST 200755Z AUTO 25007KT 10SM BKN007 OVC026 08/07 A3031 RMK AO2 CIG 004V012 SLP265 T00780067 400940056,KAST,2023-02-20T07:55:00Z,46.15,-123.88,7.8,6.7,250,7,,10.0,30.31004,1026.5,,TRUE,TRUE,,,,,,,BKN,700,OVC,2600,,,,,IFR,,,,9.4,5.6,,,,,,,METAR,3.0
KAST 200702Z AUTO 27008KT 5SM BR OVC006 08/07 A3032 RMK AO2 T00780067,KAST,2023-02-20T07:02:00Z,46.15,-123.88,7.8,6.7,270,8,,5.0,30.318897,,,TRUE,TRUE,,,,,,BR,OVC,600,,,,,,,IFR,,,,,,,,,,,,METAR,3.0
KAST 200655Z AUTO 26009KT 2 1/2SM BR BKN006 OVC009 08/07 A3032 RMK AO2 RAB43E53 SLP267 P0000 T00780072,KAST,2023-02-20T06:55:00Z,46.15,-123.88,7.8,7.2,260,9,,2.5,30.318897,1026.7,,TRUE,TRUE,,,,,,BR,BKN,600,OVC,900,,,,,IFR,,,,,,0.005,,,,,,METAR,3.0
KAST 200651Z AUTO 26006KT 1 3/4SM -RA BR BKN006 OVC009 08/07 A3032 RMK AO2 RAB43 P0000,KAST,2023-02-20T06:51:00Z,46.15,-123.88,8.0,7.0,260,6,,1.75,30.318897,,,TRUE,TRUE,,,,,,-RA BR,BKN,600,OVC,900,,,,,IFR,,,,,,0.005,,,,,,SPECI,3.0
KAST 200638Z AUTO 27010KT 2 1/2SM BR BKN006 OVC011 08/07 A3033 RMK AO2 T00780067,KAST,2023-02-20T06:38:00Z,46.15,-123.88,7.8,6.7,270,10,,2.5,30.33071,,,TRUE,TRUE,,,,,,BR,BKN,600,OVC,1100,,,,,IFR,,,,,,,,,,,,SPECI,3.0
KAST 200624Z AUTO 25008KT 8SM BKN008 OVC011 08/07 A3032 RMK AO2 T00780067,KAST,2023-02-20T06:24:00Z,46.15,-123.88,7.8,6.7,250,8,,8.0,30.318897,,,TRUE,TRUE,,,,,,,BKN,800,OVC,1100,,,,,IFR,,,,,,,,,,,,SPECI,3.0
KAST 200602Z AUTO 26006KT 9SM SCT008 BKN013 OVC022 08/07 A3034 RMK AO2 CIG 008 RWY 08 T00780067,KAST,2023-02-20T06:02:00Z,46.15,-123.88,7.8,6.7,260,6,,9.0,30.339567,,,TRUE,TRUE,,,,,,,SCT,800,BKN,1300,OVC,2200,,,MVFR,,,,,,,,,,,,SPECI,3.0
KAST 200555Z AUTO 25008KT 10SM BKN008 BKN013 OVC019 08/07 A3033 RMK AO2 SLP271 60001 T00780067 10089 20078 53002,KAST,2023-02-20T05:55:00Z,46.15,-123.88,7.8,6.7,250,8,,10.0,30.33071,1027.1,,TRUE,TRUE,,,,,,,BKN,800,BKN,1300,OVC,1900,,,IFR,0.2,8.9,7.8,,,,,0.01,,,,METAR,3.0
KAST 200519Z AUTO 28007KT 7SM BKN008 OVC013 08/07 A3034 RMK AO2 T00780067,KAST,2023-02-20T05:19:00Z,46.15,-123.88,7.8,6.7,280,7,,7.0,30.339567,,,TRUE,TRUE,,,,,,,BKN,800,OVC,1300,,,,,IFR,,,,,,,,,,,,SPECI,3.0
KAST 200502Z AUTO 27006KT 10SM SCT006 OVC013 08/07 A3033 RMK AO2 T00780067,KAST,2023-02-20T05:02:00Z,46.15,-123.88,7.8,6.7,270,6,,10.0,30.33071,,,TRUE,TRUE,,,,,,,SCT,600,OVC,1300,,,,,MVFR,,,,,,,,,,,,METAR,3.0
KAST 200455Z AUTO 26009KT 6SM BR SCT006 BKN015 OVC023 08/07 A3033 RMK AO2 RAB45E55 SLP268 P0001 T00780067,KAST,2023-02-20T04:55:00Z,46.15,-123.88,7.8,6.7,260,9,,6.0,30.33071,1026.8,,TRUE,TRUE,,,,,,BR,SCT,600,BKN,1500,OVC,2300,,,MVFR,,,,,,0.01,,,,,,METAR,3.0
KAST 200424Z AUTO 25006KT 10SM SCT008 BKN016 OVC039 08/07 A3033 RMK AO2 T00780067,KAST,2023-02-20T04:24:00Z,46.15,-123.88,7.8,6.7,250,6,,10.0,30.33071,,,TRUE,TRUE,,,,,,,SCT,800,BKN,1600,OVC,3900,,,MVFR,,,,,,,,,,,,SPECI,3.0
KAST 200409Z AUTO 26006KT 10SM BKN008 OVC014 08/07 A3033 RMK AO2 CIG 006V012 T00780067,KAST,2023-02-20T04:09:00Z,46.15,-123.88,7.8,6.7,260,6,,10.0,30.33071,,,TRUE,TRUE,,,,,,,BKN,800,OVC,1400,,,,,IFR,,,,,,,,,,,,SPECI,3.0
KAST 200354Z AUTO 27007KT 10SM FEW007 BKN012 OVC024 08/07 A3033 RMK AO2 SLP268 T00780067,KAST,2023-02-20T03:54:00Z,46.15,-123.88,7.8,6.7,270,7,,10.0,30.33071,1026.8,,TRUE,TRUE,,,,,,,FEW,700,BKN,1200,OVC,2400,,,MVFR,,,,,,,,,,,,METAR,3.0
KAST 200353Z AUTO 26007KT 10SM FEW007 BKN012 OVC024 08/07 A3033 RMK AO2,KAST,2023-02-20T03:53:00Z,46.15,-123.88,8.0,7.0,260,7,,10.0,30.33071,,,TRUE,TRUE,,,,,,,FEW,700,BKN,1200,OVC,2400,,,MVFR,,,,,,,,,,,,METAR,3.0
KAST 200255Z AUTO 25006KT 10SM BKN021 OVC029 08/07 A3033 RMK AO2 SLP269 60000 T00780067 53002,KAST,2023-02-20T02:55:00Z,46.15,-123.88,7.8,6.7,250,6,,10.0,30.33071,1026.9,,TRUE,TRUE,,,,,,,BKN,2100,OVC,2900,,,,,MVFR,0.2,,,,,,0.005,,,,,METAR,3.0
KAST 200247Z AUTO 26007KT 10SM SCT019 BKN026 OVC100 08/07 A3033 RMK AO2 T00780067,KAST,2023-02-20T02:47:00Z,46.15,-123.88,7.8,6.7,260,7,,10.0,30.33071,,,TRUE,TRUE,,,,,,,SCT,1900,BKN,2600,OVC,10000,,,MVFR,,,,,,,,,,,,SPECI,3.0
KAST 200155Z AUTO 26006KT 9SM FEW030 BKN039 OVC100 08/07 A3031 RMK AO2 SLP262 T00830067,KAST,2023-02-20T01:55:00Z,46.15,-123.88,8.3,6.7,260,6,,9.0,30.31004,1026.2,,TRUE,TRUE,,,,,,,FEW,3000,BKN,3900,OVC,10000,,,VFR,,,,,,,,,,,,METAR,3.0
KAST 200137Z AUTO 28008KT 10SM FEW025 OVC035 08/07 A3031 RMK AO2 T00830067,KAST,2023-02-20T01:37:00Z,46.15,-123.88,8.3,6.7,280,8,,10.0,30.31004,,,TRUE,TRUE,,,,,,,FEW,2500,OVC,3500,,,,,VFR,,,,,,,,,,,,SPECI,3.0
KAST 200113Z AUTO 28007KT 3SM BR SCT007 OVC021 08/07 A3030 RMK AO2 T00830072,KAST,2023-02-20T01:13:00Z,46.15,-123.88,8.3,7.2,280,7,,3.0,30.301182,,,TRUE,TRUE,,,,,,BR,SCT,700,OVC,2100,,,,,MVFR,,,,,,,,,,,,SPECI,3.0
KAST 200055Z AUTO 29009KT 10SM BKN007 BKN021 OVC032 09/08 A3031 RMK AO2 RAB07E16 SLP262 P0000 T00890078,KAST,2023-02-20T00:55:00Z,46.15,-123.88,8.9,7.8,290,9,,10.0,30.31004,1026.2,,TRUE,TRUE,,,,,,,BKN,700,BKN,2100,OVC,3200,,,IFR,,,,,,0.005,,,,,,METAR,3.0
KAST 200035Z AUTO 28009KT 5SM BR BKN007 OVC018 09/07 A3031 RMK AO2 RAB07E16 P0000 T00890072,KAST,2023-02-20T00:35:00Z,46.15,-123.88,8.9,7.2,280,9,,5.0,30.31004,,,TRUE,TRUE,,,,,,BR,BKN,700,OVC,1800,,,,,IFR,,,,,,0.005,,,,,,SPECI,3.0
KAST 200027Z AUTO 29011KT 2SM BR BKN007 OVC015 09/08 A3031 RMK AO2 RAB07E16 P0000 T00890078,KAST,2023-02-20T00:27:00Z,46.15,-123.88,8.9,7.8,290,11,,2.0,30.31004,,,TRUE,TRUE,,,,,,BR,BKN,700,OVC,1500,,,,,IFR,,,,,,0.005,,,,,,SPECI,3.0
KAST 200023Z AUTO 29009KT 1 1/4SM BR BKN007 OVC013 09/08 A3031 RMK AO2 RAB07E16 P0000 T00890078,KAST,2023-02-20T00:23:00Z,46.15,-123.88,8.9,7.8,290,9,,1.25,30.31004,,,TRUE,TRUE,,,,,,BR,BKN,700,OVC,1300,,,,,IFR,,,,,,0.005,,,,,,SPECI,3.0
KAST 200011Z AUTO 31014KT 1 3/4SM -RA BR BKN007 OVC011 08/07 A3032 RMK AO2 RAB07 P0000 T00830072,KAST,2023-02-20T00:11:00Z,46.15,-123.88,8.3,7.2,310,14,,1.75,30.318897,,,TRUE,TRUE,,,,,,-RA BR,BKN,700,OVC,1100,,,,,IFR,,,,,,0.005,,,,,,SPECI,3.0
KAST 192355Z AUTO 29011G18KT 5SM BR OVC007 09/08 A3032 RMK AO2 RAB28E38 SLP267 P0000 60003 T00890078 10094 20083 58002,KAST,2023-02-19T23:55:00Z,46.15,-123.88,8.9,7.8,290,11,18,5.0,30.318897,1026.7,,TRUE,TRUE,,,,,,BR,OVC,700,,,,,,,IFR,-0.2,9.4,8.3,,,0.005,,0.03,,,,METAR,3.0
KAST 192338Z AUTO 29011KT 3SM BR OVC007 09/08 A3033 RMK AO2 RAB28E38 P0000 T00940078,KAST,2023-02-19T23:38:00Z,46.15,-123.88,9.4,7.8,290,11,,3.0,30.33071,,,TRUE,TRUE,,,,,,BR,OVC,700,,,,,,,IFR,,,,,,0.005,,,,,,SPECI,3.0
KAST 192329Z AUTO 29012KT 1 3/4SM -RA BR BKN007 OVC013 09/08 A3032 RMK AO2 RAB28 P0000 T00940078,KAST,2023-02-19T23:29:00Z,46.15,-123.88,9.4,7.8,290,12,,1.75,30.318897,,,TRUE,TRUE,,,,,,-RA BR,BKN,700,OVC,1300,,,,,IFR,,,,,,0.005,,,,,,METAR,3.0
KAST 192255Z AUTO 28011KT 5SM BR BKN007 OVC027 09/08 A3032 RMK AO2 RAE07 SLP266 P0001 T00940078,KAST,2023-02-19T22:55:00Z,46.15,-123.88,9.4,7.8,280,11,,5.0,30.318897,1026.6,,TRUE,TRUE,,,,,,BR,BKN,700,OVC,2700,,,,,IFR,,,,,,0.01,,,,,,METAR,3.0
KAST 192218Z AUTO 28009KT 4SM BR OVC005 09/08 A3033 RMK AO2 RAE07 P0001 T00890078,KAST,2023-02-19T22:18:00Z,46.15,-123.88,8.9,7.8,280,9,,4.0,30.33071,,,TRUE,TRUE,,,,,,BR,OVC,500,,,,,,,IFR,,,,,,0.01,,,,,,SPECI,3.0
KAST 192210Z AUTO 28011KT 2SM BR BKN003 OVC007 09/08 A3033 RMK AO2 RAE07 P0001 T00890078,KAST,2023-02-19T22:10:00Z,46.15,-123.88,8.9,7.8,280,11,,2.0,30.33071,,,TRUE,TRUE,,,,,,BR,BKN,300,OVC,700,,,,,LIFR,,,,,,0.01,,,,,,SPECI,3.0
KAST 192155Z AUTO 24008KT 1SM -RA BR OVC005 08/08 A3034 RMK AO2 RAB02 SLP274 P0002 T00830078,KAST,2023-02-19T21:55:00Z,46.15,-123.88,8.3,7.8,240,8,,1.0,30.339567,1027.4,,TRUE,TRUE,,,,,,-RA BR,OVC,500,,,,,,,IFR,,,,,,0.02,,,,,,METAR,3.0
KAST 192055Z AUTO 22007KT 1 1/4SM BR BKN007 OVC012 08/07 A3033 RMK AO2 SLP269 T00830072 58006,KAST,2023-02-19T20:55:00Z,46.15,-123.88,8.3,7.2,220,7,,1.25,30.33071,1026.9,,TRUE,TRUE,,,,,,BR,BKN,700,OVC,1200,,,,,IFR,-0.6,,,,,,,,,,,METAR,3.0
KAST 192049Z AUTO 24009KT 1 1/4SM BR BKN007 OVC014 08/07 A3033 RMK AO2,KAST,2023-02-19T20:49:00Z,46.15,-123.88,8.0,7.0,240,9,,1.25,30.33071,,,TRUE,TRUE,,,,,,BR,BKN,700,OVC,1400,,,,,IFR,,,,,,,,,,,,METAR,3.0
KAST 192039Z AUTO 25008KT 1 1/2SM BR FEW007 OVC014 08/07 A3034 RMK AO2 T00830067,KAST,2023-02-19T20:39:00Z,46.15,-123.88,8.3,6.7,250,8,,1.5,30.339567,,,TRUE,TRUE,,,,,,BR,FEW,700,OVC,1400,,,,,IFR,,,,,,,,,,,,METAR,3.0
KAST 192034Z AUTO 24011KT 1 3/4SM BR OVC016 08/06 A3033 RMK AO2 T00830061,KAST,2023-02-19T20:34:00Z,46.15,-123.88,8.3,6.1,240,11,,1.75,30.33071,,,TRUE,TRUE,,,,,,BR,OVC,1600,,,,,,,IFR,,,,,,,,,,,,SPECI,3.0
KAST 191955Z AUTO 25009KT 7SM OVC021 09/05 A3033 RMK AO2 SLP271 T00940050,KAST,2023-02-19T19:55:00Z,46.15,-123.88,9.4,5.0,250,9,,7.0,30.33071,1027.1,,TRUE,TRUE,,,,,,,OVC,2100,,,,,,,MVFR,,,,,,,,,,,,METAR,3.0
KAST 191931Z AUTO 24010KT 7SM BKN023 OVC032 09/04 A3034 RMK AO2 T00890044,KAST,2023-02-19T19:31:00Z,46.15,-123.88,8.9,4.4,240,10,,7.0,30.339567,,,TRUE,TRUE,,,,,,,BKN,2300,OVC,3200,,,,,MVFR,,,,,,,,,,,,METAR,3.0
KAST 191855Z AUTO 24008KT 7SM OVC036 09/05 A3034 RMK AO2 SLP274 T00940050,KAST,2023-02-19T18:55:00Z,46.15,-123.88,9.4,5.0,240,8,,7.0,30.339567,1027.4,,TRUE,TRUE,,,,,,,OVC,3600,,,,,,,VFR,,,,,,,,,,,,METAR,3.0
KAST 191755Z AUTO 26009KT 7SM OVC043 09/05 A3034 RMK AO2 SLP275 T00940050 10094 20056 53008,KAST,2023-02-19T17:55:00Z,46.15,-123.88,9.4,5.0,260,9,,7.0,30.339567,1027.5,,TRUE,TRUE,,,,,,,OVC,4300,,,,,,,VFR,0.8,9.4,5.6,,,,,,,,,METAR,3.0
KAST 191655Z AUTO 25006KT 6SM HZ FEW025 OVC043 08/05 A3032 RMK AO2 SLP268 T00830050,KAST,2023-02-19T16:55:00Z,46.15,-123.88,8.3,5.0,250,6,,6.0,30.318897,1026.8,,TRUE,TRUE,,,,,,HZ,FEW,2500,OVC,4300,,,,,VFR,,,,,,,,,,,,METAR,3.0
KAST 191555Z AUTO 24003KT 5SM BR BKN049 07/05 A3033 RMK AO2 SLP269 T00720050,KAST,2023-02-19T15:55:00Z,46.15,-123.88,7.2,5.0,240,3,,5.0,30.33071,1026.9,,TRUE,TRUE,,,,,,BR,BKN,4900,,,,,,,MVFR,,,,,,,,,,,,METAR,3.0
KAST 191533Z AUTO 22004KT 5SM BR FEW019 SCT028 07/05 A3032 RMK AO2 T00720050,KAST,2023-02-19T15:33:00Z,46.15,-123.88,7.2,5.0,220,4,,5.0,30.318897,,,TRUE,TRUE,,,,,,BR,FEW,1900,SCT,2800,,,,,MVFR,,,,,,,,,,,,SPECI,3.0
KAST 191455Z AUTO 22004KT 6SM BR FEW022 BKN028 07/05 A3032 RMK AO2 SLP267 T00670050 51005,KAST,2023-02-19T14:55:00Z,46.15,-123.88,6.7,5.0,220,4,,6.0,30.318897,1026.7,,TRUE,TRUE,,,,,,BR,FEW,2200,BKN,2800,,,,,MVFR,0.5,,,,,,,,,,,METAR,3.0
KAST 191447Z AUTO 22003KT 6SM BR FEW022 BKN028 07/04 A3032 RMK AO2 T00670044,KAST,2023-02-19T14:47:00Z,46.15,-123.88,6.7,4.4,220,3,,6.0,30.318897,,,TRUE,TRUE,,,,,,BR,FEW,2200,BKN,2800,,,,,MVFR,,,,,,,,,,,,METAR,3.0
KAST 191355Z AUTO 24004KT 7SM BKN032 07/04 A3032 RMK AO2 SLP266 T00670039,KAST,2023-02-19T13:55:00Z,46.15,-123.88,6.7,3.9,240,4,,7.0,30.318897,1026.6,,TRUE,TRUE,,,,,,,BKN,3200,,,,,,,VFR,,,,,,,,,,,,SPECI,3.0
KAST 191255Z AUTO 24004KT 7SM OVC036 07/04 A3031 RMK AO2 SLP263 T00670039,KAST,2023-02-19T12:55:00Z,46.15,-123.88,6.7,3.9,240,4,,7.0,30.31004,1026.3,,TRUE,TRUE,,,,,,,OVC,3600,,,,,,,VFR,,,,,,,,,,,,METAR,3.0
KAST 191155Z AUTO 28003KT 6SM HZ OVC036 07/04 A3031 RMK AO2 SLP262 70012 T00720044 10072 20056 51004,KAST,2023-02-19T11:55:00Z,46.15,-123.88,7.2,4.4,280,3,,6.0,30.31004,1026.2,,TRUE,TRUE,,,,,,HZ,OVC,3600,,,,,,,VFR,0.4,7.2,5.6,,,,,,0.12,,,METAR,3.0
KAST 191142Z AUTO 28005KT 6SM HZ FEW023 SCT028 OVC036 07/04 A3030 RMK AO2 T00720044,KAST,2023-02-19T11:42:00Z,46.15,-123.88,7.2,4.4,280,5,,6.0,30.301182,,,TRUE,TRUE,,,,,,HZ,FEW,2300,SCT,2800,OVC,3600,,,VFR,,,,,,,,,,,,METAR,3.0
KAST 191120Z AUTO 27004KT 6SM BR BKN028 OVC036 07/05 A3030 RMK AO2 T00720050,KAST,2023-02-19T11:20:00Z,46.15,-123.88,7.2,5.0,270,4,,6.0,30.301182,,,TRUE,TRUE,,,,,,BR,BKN,2800,OVC,3600,,,,,MVFR,,,,,,,,,,,,SPECI,3.0
KAST 191055Z AUTO 24004KT 6SM BR SCT028 OVC036 07/04 A3030 RMK AO2 SLP261 T00670044,KAST,2023-02-19T10:55:00Z,46.15,-123.88,6.7,4.4,240,4,,6.0,30.301182,1026.1,,TRUE,TRUE,,,,,,BR,SCT,2800,OVC,3600,,,,,VFR,,,,,,,,,,,,SPECI,3.0
KAST 191053Z AUTO 24004KT 6SM HZ SCT028 OVC036 07/04 A3030 RMK AO2,KAST,2023-02-19T10:53:00Z,46.15,-123.88,7.0,4.0,240,4,,6.0,30.301182,,,TRUE,TRUE,,,,,,HZ,SCT,2800,OVC,3600,,,,,VFR,,,,,,,,,,,,SPECI,3.0
KAST 191038Z AUTO 24005KT 7SM FEW020 BKN028 OVC033 07/04 A3030 RMK AO2 T00720044,KAST,2023-02-19T10:38:00Z,46.15,-123.88,7.2,4.4,240,5,,7.0,30.301182,,,TRUE,TRUE,,,,,,,FEW,2000,BKN,2800,OVC,3300,,,MVFR,,,,,,,,,,,,SPECI,3.0
KAST 190955Z AUTO 26004KT 7SM BKN035 06/04 A3029 RMK AO2 SLP258 T00610039,KAST,2023-02-19T09:55:00Z,46.15,-123.88,6.1,3.9,260,4,,7.0,30.28937,1025.8,,TRUE,TRUE,,,,,,,BKN,3500,,,,,,,VFR,,,,,,,,,,,,METAR,3.0
KAST 190855Z AUTO 28007KT 7SM OVC035 07/04 A3029 RMK AO2 SLP256 T00720044 53007,KAST,2023-02-19T08:55:00Z,46.15,-123.88,7.2,4.4,280,7,,7.0,30.28937,1025.6,,TRUE,TRUE,,,,,,,OVC,3500,,,,,,,VFR,0.7,,,,,,,,,,,METAR,3.0
KAST 190755Z AUTO 00000KT 6SM BR OVC033 06/05 A3027 RMK AO2 SLP251 T00610050 400940028,KAST,2023-02-19T07:55:00Z,46.15,-123.88,6.1,5.0,0,0,,6.0,30.268702,1025.1,,TRUE,TRUE,,,,,,BR,OVC,3300,,,,,,,VFR,,,,9.4,2.8,,,,,,,METAR,3.0
KAST 190655Z AUTO 00000KT 7SM OVC033 07/05 A3026 RMK AO2 SLP248 T00670050,KAST,2023-02-19T06:55:00Z,46.15,-123.88,6.7,5.0,0,0,,7.0,30.259842,1024.8,,TRUE,TRUE,,,,,,,OVC,3300,,,,,,,VFR,,,,,,,,,,,,METAR,3.0
KAST 190603Z AUTO 16003KT 7SM FEW021 SCT028 OVC033 06/04 A3027 RMK AO2 T00610044,KAST,2023-02-19T06:03:00Z,46.15,-123.88,6.1,4.4,160,3,,7.0,30.268702,,,TRUE,TRUE,,,,,,,FEW,2100,SCT,2800,OVC,3300,,,VFR,,,,,,,,,,,,SPECI,3.0
KAST 190555Z AUTO 18003KT 7SM SCT021 BKN028 OVC033 06/04 A3027 RMK AO2 SLP249 60000 T00560039 10083 20044 51017,KAST,2023-02-19T05:55:00Z,46.15,-123.88,5.6,3.9,180,3,,7.0,30.268702,1024.9,,TRUE,TRUE,,,,,,,SCT,2100,BKN,2800,OVC,3300,,,MVFR,1.7,8.3,4.4,,,,,0.005,,,,METAR,3.0
KAST 190455Z AUTO 09003KT 7SM OVC035 05/03 A3026 RMK AO2 SLP246 T00500028,KAST,2023-02-19T04:55:00Z,46.15,-123.88,5.0,2.8,90,3,,7.0,30.259842,1024.6,,TRUE,TRUE,,,,,,,OVC,3500,,,,,,,VFR,,,,,,,,,,,,METAR,3.0
KAST 190355Z AUTO 24004KT 7SM OVC037 07/04 A3023 RMK AO2 SLP236 T00670039,KAST,2023-02-19T03:55:00Z,46.15,-123.88,6.7,3.9,240,4,,7.0,30.230314,1023.6,,TRUE,TRUE,,,,,,,OVC,3700,,,,,,,VFR,,,,,,,,,,,,METAR,3.0
KAST 190255Z AUTO 29004KT 7SM OVC033 07/03 A3022 RMK AO2 SLP232 60000 T00670033 53009,KAST,2023-02-19T02:55:00Z,46.15,-123.88,6.7,3.3,290,4,,7.0,30.221457,1023.2,,TRUE,TRUE,,,,,,,OVC,3300,,,,,,,VFR,0.9,,,,,,0.005,,,,,METAR,3.0
KAST 190155Z AUTO 27004KT 7SM OVC038 08/04 A3020 RMK AO2 SLP228 T00780044,KAST,2023-02-19T01:55:00Z,46.15,-123.88,7.8,4.4,270,4,,7.0,30.200787,1022.8,,TRUE,TRUE,,,,,,,OVC,3800,,,,,,,VFR,,,,,,,,,,,,METAR,3.0
KAST 190055Z AUTO 30009KT 6SM HZ FEW023 OVC034 08/04 A3020 RMK AO2 RAB37E47 SLP224 P0000 T00830039,KAST,2023-02-19T00:55:00Z,46.15,-123.88,8.3,3.9,300,9,,6.0,30.200787,1022.4,,TRUE,TRUE,,,,,,HZ,FEW,2300,OVC,3400,,,,,VFR,,,,,,0.005,,,,,,METAR,3.0
KAST 182355Z AUTO 29007KT 5SM HZ FEW024 OVC037 08/04 A3019 RMK AO2 SLP222 60003 T00830044 10094 20078 53005,KAST,2023-02-18T23:55:00Z,46.15,-123.88,8.3,4.4,290,7,,5.0,30.188976,1022.2,,TRUE,TRUE,,,,,,HZ,FEW,2400,OVC,3700,,,,,MVFR,0.5,9.4,7.8,,,,,0.03,,,,METAR,3.0
KAST 182255Z AUTO 31008KT 6SM HZ OVC035 09/04 A3018 RMK AO2 SLP219 T00890044,KAST,2023-02-18T22:55:00Z,46.15,-123.88,8.9,4.4,310,8,,6.0,30.180119,1021.9,,TRUE,TRUE,,,,,,HZ,OVC,3500,,,,,,,VFR,,,,,,,,,,,,METAR,3.0
KAST 182210Z AUTO 29010G16KT 6SM HZ FEW020 OVC035 09/06 A3017 RMK AO2 T00940056,KAST,2023-02-18T22:10:00Z,46.15,-123.88,9.4,5.6,290,10,16,6.0,30.171259,,,TRUE,TRUE,,,,,,HZ,FEW,2000,OVC,3500,,,,,VFR,,,,,,,,,,,,METAR,3.0
KAST 182155Z AUTO 30011KT 7SM FEW020 BKN026 OVC033 09/06 A3017 RMK AO2 SLP216 T00940061,KAST,2023-02-18T21:55:00Z,46.15,-123.88,9.4,6.1,300,11,,7.0,30.171259,1021.6,,TRUE,TRUE,,,,,,,FEW,2000,BKN,2600,OVC,3300,,,MVFR,,,,,,,,,,,,METAR,3.0
KAST 182055Z AUTO 32013KT 10SM FEW014 OVC020 09/06 A3017 RMK AO2 SLP217 60003 T00890061 53007,KAST,2023-02-18T20:55:00Z,46.15,-123.88,8.9,6.1,320,13,,10.0,30.171259,1021.7,,TRUE,TRUE,,,,,,,FEW,1400,OVC,2000,,,,,MVFR,0.7,,,,,,0.03,,,,,METAR,3.0
KAST 182042Z AUTO 32011KT 10SM FEW006 BKN015 OVC022 09/07 A3017 RMK AO2 T00890067,KAST,2023-02-18T20:42:00Z,46.15,-123.88,8.9,6.7,320,11,,10.0,30.171259,,,TRUE,TRUE,,,,,,,FEW,600,BKN,1500,OVC,2200,,,MVFR,,,,,,,,,,,,SPECI,3.0
KAST 182032Z AUTO 32012G18KT 10SM SCT006 BKN013 OVC028 09/07 A3016 RMK AO2 T00890067,KAST,2023-02-18T20:32:00Z,46.15,-123.88,8.9,6.7,320,12,18,10.0,30.159449,,,TRUE,TRUE,,,,,,,SCT,600,BKN,1300,OVC,2800,,,MVFR,,,,,,,,,,,,SPECI,3.0
KAST 181955Z AUTO 31012KT 10SM OVC006 09/08 A3016 RMK AO2 SLP214 T00890078,KAST,2023-02-18T19:55:00Z,46.15,-123.88,8.9,7.8,310,12,,10.0,30.159449,1021.4,,TRUE,TRUE,,,,,,,OVC,600,,,,,,,IFR,,,,,,,,,,,,METAR,3.0
KAST 181855Z AUTO 26007KT 5SM BR OVC006 08/07 A3015 RMK AO2 RAE53 SLP211 P0003 T00830072,KAST,2023-02-18T18:55:00Z,46.15,-123.88,8.3,7.2,260,7,,5.0,30.15059,1021.1,,TRUE,TRUE,,,,,,BR,OVC,600,,,,,,,IFR,,,,,,0.03,,,,,,METAR,3.0
KAST 181850Z AUTO 22008KT 2SM -RA BR OVC006 08/07 A3015 RMK AO2 P0003,KAST,2023-02-18T18:50:00Z,46.15,-123.88,8.0,7.0,220,8,,2.0,30.15059,,,TRUE,TRUE,,,,,,-RA BR,OVC,600,,,,,,,IFR,,,,,,0.03,,,,,,SPECI,3.0
KAST 181841Z AUTO 24011G17KT 1 1/4SM -RA BR OVC006 08/07 A3015 RMK AO2 P0002 T00780067,KAST,2023-02-18T18:41:00Z,46.15,-123.88,7.8,6.7,240,11,17,1.25,30.15059,,,TRUE,TRUE,,,,,,-RA BR,OVC,600,,,,,,,IFR,,,,,,0.02,,,,,,SPECI,3.0
KAST 181835Z AUTO 24009G17KT 2SM -RA BR BKN006 OVC010 08/07 A3016 RMK AO2 P0002 T00780067,KAST,2023-02-18T18:35:00Z,46.15,-123.88,7.8,6.7,240,9,17,2.0,30.159449,,,TRUE,TRUE,,,,,,-RA BR,BKN,600,OVC,1000,,,,,IFR,,,,,,0.02,,,,,,SPECI,3.0
KAST 181823Z AUTO 22012KT 1 1/2SM -RA BR BKN006 OVC012 08/07 A3015 RMK AO2 P0002 T00780067,KAST,2023-02-18T18:23:00Z,46.15,-123.88,7.8,6.7,220,12,,1.5,30.15059,,,TRUE,TRUE,,,,,,-RA BR,BKN,600,OVC,1200,,,,,IFR,,,,,,0.02,,,,,,METAR,3.0
KAST 181817Z AUTO 22010KT 1 1/4SM -RA BR SCT006 OVC012 08/07 A3015 RMK AO2 CIG 006 RWY 08 P0001 T00780067,KAST,2023-02-18T18:17:00Z,46.15,-123.88,7.8,6.7,220,10,,1.25,30.15059,,,TRUE,TRUE,,,,,,-RA BR,SCT,600,OVC,1200,,,,,IFR,,,,,,0.01,,,,,,METAR,3.0
KAST 181755Z AUTO 20007KT 1 1/2SM -RA BR SCT006 OVC012 08/07 A3015 RMK AO2 CIG 006 RWY 08 SLP211 P0002 60009 T00780067 10078 20039 58005,KAST,2023-02-18T17:55:00Z,46.15,-123.88,7.8,6.7,200,7,,1.5,30.15059,1021.1,,TRUE,TRUE,,,,,,-RA BR,SCT,600,OVC,1200,,,,,IFR,-0.5,7.8,3.9,,,0.02,,0.09,,,,METAR,3.0
KAST 181743Z AUTO 20009KT 1 1/2SM -RA BR SCT006 OVC012 07/06 A3015 RMK AO2 CIG 006 RWY 08 P0002 T00720061,KAST,2023-02-18T17:43:00Z,46.15,-123.88,7.2,6.1,200,9,,1.5,30.15059,,,TRUE,TRUE,,,,,,-RA BR,SCT,600,OVC,1200,,,,,IFR,,,,,,0.02,,,,,,SPECI,3.0
KAST 181708Z AUTO 20008KT 1 1/2SM -RA BR BKN006 OVC010 07/06 A3016 RMK AO2 P0001 T00670056,KAST,2023-02-18T17:08:00Z,46.15,-123.88,6.7,5.6,200,8,,1.5,30.159449,,,TRUE,TRUE,,,,,,-RA BR,BKN,600,OVC,1000,,,,,IFR,,,,,,0.01,,,,,,METAR,3.0
KAST 181655Z AUTO 20009KT 1 1/4SM -RA BR BKN006 OVC010 07/06 A3016 RMK AO2 SLP213 P0003 T00670056,KAST,2023-02-18T16:55:00Z,46.15,-123.88,6.7,5.6,200,9,,1.25,30.159449,1021.3,,TRUE,TRUE,,,,,,-RA BR,BKN,600,OVC,1000,,,,,IFR,,,,,,0.03,,,,,,METAR,3.0
KAST 181651Z AUTO 20007KT 1 1/4SM -RA BR BKN006 OVC010 07/06 A3017 RMK AO2 P0003,KAST,2023-02-18T16:51:00Z,46.15,-123.88,7.0,6.0,200,7,,1.25,30.171259,,,TRUE,TRUE,,,,,,-RA BR,BKN,600,OVC,1000,,,,,IFR,,,,,,0.03,,,,,,SPECI,3.0
KAST 181634Z AUTO 20009G15KT 1 1/2SM -RA BR BKN006 OVC010 07/06 A3016 RMK AO2 P0002 T00670056,KAST,2023-02-18T16:34:00Z,46.15,-123.88,6.7,5.6,200,9,15,1.5,30.159449,,,TRUE,TRUE,,,,,,-RA BR,BKN,600,OVC,1000,,,,,IFR,,,,,,0.02,,,,,,SPECI,3.0
KAST 181555Z AUTO 19006KT 1SM -RA BR OVC006 06/06 A3017 RMK AO2 RAE00B10 SLP215 P0003 T00610056,KAST,2023-02-18T15:55:00Z,46.15,-123.88,6.1,5.6,190,6,,1.0,30.171259,1021.5,,TRUE,TRUE,,,,,,-RA BR,OVC,600,,,,,,,IFR,,,,,,0.03,,,,,,METAR,3.0
KAST 181539Z AUTO 19007KT 1 1/4SM -RA BR BKN006 OVC011 06/05 A3016 RMK AO2 RAE00B10 P0002 T00610050,KAST,2023-02-18T15:39:00Z,46.15,-123.88,6.1,5.0,190,7,,1.25,30.159449,,,TRUE,TRUE,,,,,,-RA BR,BKN,600,OVC,1100,,,,,IFR,,,,,,0.02,,,,,,SPECI,3.0
KAST 181506Z AUTO 19006KT 2SM BR OVC006 06/05 A3016 RMK AO2 RAE00 P0000 T00610050,KAST,2023-02-18T15:06:00Z,46.15,-123.88,6.1,5.0,190,6,,2.0,30.159449,,,TRUE,TRUE,,,,,,BR,OVC,600,,,,,,,IFR,,,,,,0.005,,,,,,SPECI,3.0
KAST 181455Z AUTO 18004KT 1 3/4SM -RA BR BKN006 OVC011 06/05 A3015 RMK AO2 RAB50 SLP210 P0001 60001 T00610050 58008,KAST,2023-02-18T14:55:00Z,46.15,-123.88,6.1,5.0,180,4,,1.75,30.15059,1021.0,,TRUE,TRUE,,,,,,-RA BR,BKN,600,OVC,1100,,,,,IFR,-0.8,,,,,0.01,0.01,,,,,METAR,3.0
KAST 181433Z AUTO 17005KT 1 3/4SM BR BKN008 OVC015 06/05 A3015 RMK AO2 T00610050,KAST,2023-02-18T14:33:00Z,46.15,-123.88,6.1,5.0,170,5,,1.75,30.15059,,,TRUE,TRUE,,,,,,BR,BKN,800,OVC,1500,,,,,IFR,,,,,,,,,,,,SPECI,3.0
KAST 181425Z AUTO 19006KT 2 1/2SM BR SCT008 OVC017 06/05 A3016 RMK AO2 T00610050,KAST,2023-02-18T14:25:00Z,46.15,-123.88,6.1,5.0,190,6,,2.5,30.159449,,,TRUE,TRUE,,,,,,BR,SCT,800,OVC,1700,,,,,IFR,,,,,,,,,,,,SPECI,3.0
KAST 181407Z AUTO 19005KT 2 1/2SM BR SCT008 OVC014 06/05 A3016 RMK AO2 CIG 007 RWY 08 T00610050,KAST,2023-02-18T14:07:00Z,46.15,-123.88,6.1,5.0,190,5,,2.5,30.159449,,,TRUE,TRUE,,,,,,BR,SCT,800,OVC,1400,,,,,IFR,,,,,,,,,,,,SPECI,3.0
KAST 181355Z AUTO 19004KT 2 1/2SM BR OVC010 06/05 A3016 RMK AO2 SLP214 T00610050,KAST,2023-02-18T13:55:00Z,46.15,-123.88,6.1,5.0,190,4,,2.5,30.159449,1021.4,,TRUE,TRUE,,,,,,BR,OVC,1000,,,,,,,IFR,,,,,,,,,,,,METAR,3.0
KAST 181347Z AUTO 19005KT 2 1/2SM BR BKN010 OVC015 06/05 A3017 RMK AO2 CIG 007V012 T00610050,KAST,2023-02-18T13:47:00Z,46.15,-123.88,6.1,5.0,190,5,,2.5,30.171259,,,TRUE,TRUE,,,,,,BR,BKN,1000,OVC,1500,,,,,IFR,,,,,,,,,,,,SPECI,3.0
KAST 181338Z AUTO 18004KT 2 1/2SM BR SCT010 OVC016 06/05 A3017 RMK AO2 CIG 010 RWY 08 T00610050,KAST,2023-02-18T13:38:00Z,46.15,-123.88,6.1,5.0,180,4,,2.5,30.171259,,,TRUE,TRUE,,,,,,BR,SCT,1000,OVC,1600,,,,,IFR,,,,,,,,,,,,SPECI,3.0
KAST 181335Z AUTO 19003KT 3SM BR OVC013 06/05 A3018 RMK AO2 T00610050,KAST,2023-02-18T13:35:00Z,46.15,-123.88,6.1,5.0,190,3,,3.0,30.180119,,,TRUE,TRUE,,,,,,BR,OVC,1300,,,,,,,MVFR,,,,,,,,,,,,SPECI,3.0
KAST 181255Z AUTO 22005KT 5SM BR FEW016 SCT024 OVC028 05/04 A3017 RMK AO2 SLP217 T00500039,KAST,2023-02-18T12:55:00Z,46.15,-123.88,5.0,3.9,220,5,,5.0,30.171259,1021.7,,TRUE,TRUE,,,,,,BR,FEW,1600,SCT,2400,OVC,2800,,,MVFR,,,,,,,,,,,,METAR,3.0
KAST 181236Z AUTO 00000KT 10SM OVC028 04/03 A3018 RMK AO2 T00440033,KAST,2023-02-18T12:36:00Z,46.15,-123.88,4.4,3.3,0,0,,10.0,30.180119,,,TRUE,TRUE,,,,,,,OVC,2800,,,,,,,MVFR,,,,,,,,,,,,SPECI,3.0
KAST 181212Z AUTO 13003KT 10SM OVC030 04/03 A3018 RMK AO2 T00390033,KAST,2023-02-18T12:12:00Z,46.15,-123.88,3.9,3.3,130,3,,10.0,30.180119,,,TRUE,TRUE,,,,,,,OVC,3000,,,,,,,MVFR,,,,,,,,,,,,SPECI,3.0
KAST 181155Z AUTO 00000KT 10SM FEW020 OVC028 04/03 A3018 RMK AO2 SLP218 70006 T00390033 10039 20022 58011,KAST,2023-02-18T11:55:00Z,46.15,-123.88,3.9,3.3,0,0,,10.0,30.180119,1021.8,,TRUE,TRUE,,,,,,,FEW,2000,OVC,2800,,,,,MVFR,-1.1,3.9,2.2,,,,,,0.06,,,METAR,3.0
KAST 181128Z AUTO 13004KT 8SM BKN023 OVC028 04/03 A3019 RMK AO2 T00390028,KAST,2023-02-18T11:28:00Z,46.15,-123.88,3.9,2.8,130,4,,8.0,30.188976,,,TRUE,TRUE,,,,,,,BKN,2300,OVC,2800,,,,,MVFR,,,,,,,,,,,,METAR,3.0
KAST 181055Z AUTO 00000KT 10SM OVC034 04/03 A3021 RMK AO2 SLP230 T00390028,KAST,2023-02-18T10:55:00Z,46.15,-123.88,3.9,2.8,0,0,,10.0,30.209646,1023.0,,TRUE,TRUE,,,,,,,OVC,3400,,,,,,,VFR,,,,,,,,,,,,METAR,3.0
KAST 180955Z AUTO 00000KT 10SM OVC050 03/03 A3021 RMK AO2 SLP229 T00330033,KAST,2023-02-18T09:55:00Z,46.15,-123.88,3.3,3.3,0,0,,10.0,30.209646,1022.9,,TRUE,TRUE,,,,,,,OVC,5000,,,,,,,VFR,,,,,,,,,,,,METAR,3.0
KAST 180855Z AUTO 12004KT 9SM OVC055 03/02 A3021 RMK AO2 SLP230 T00330022 58009,KAST,2023-02-18T08:55:00Z,46.15,-123.88,3.3,2.2,120,4,,9.0,30.209646,1023.0,,TRUE,TRUE,,,,,,,OVC,5500,,,,,,,VFR,-0.9,,,,,,,,,,,METAR,3.0
KAST 180806Z AUTO 13004KT 10SM SCT028 OVC065 03/02 A3024 RMK AO2 T00330022,KAST,2023-02-18T08:06:00Z,46.15,-123.88,3.3,2.2,130,4,,10.0,30.239174,,,TRUE,TRUE,,,,,,,SCT,2800,OVC,6500,,,,,VFR,,,,,,,,,,,,SPECI,3.0
KAST 180755Z AUTO 00000KT 10SM BKN028 BKN060 OVC075 03/02 A3025 RMK AO2 SLP243 T00280022 400940017,KAST,2023-02-18T07:55:00Z,46.15,-123.88,2.8,2.2,0,0,,10.0,30.250984,1024.3,,TRUE,TRUE,,,,,,,BKN,2800,BKN,6000,OVC,7500,,,MVFR,,,,9.4,1.7,,,,,,,METAR,3.0
KAST 180753Z AUTO 10003KT 10SM BKN028 OVC070 03/02 A3025 RMK AO2,KAST,2023-02-18T07:53:00Z,46.15,-123.88,3.0,2.0,100,3,,10.0,30.250984,,,TRUE,TRUE,,,,,,,BKN,2800,OVC,7000,,,,,MVFR,,,,,,,,,,,,SPECI,3.0
KAST 180655Z AUTO 11004KT 7SM BKN100 BKN110 02/02 A3024 RMK AO2 SLP239 T00220017,KAST,2023-02-18T06:55:00Z,46.15,-123.88,2.2,1.7,110,4,,7.0,30.239174,1023.9,,TRUE,TRUE,,,,,,,BKN,10000,BKN,11000,,,,,VFR,,,,,,,,,,,,METAR,3.0
KAST 180555Z AUTO 11003KT 7SM FEW120 02/02 A3025 RMK AO2 SLP244 T00220017 10094 20017 50005,KAST,2023-02-18T05:55:00Z,46.15,-123.88,2.2,1.7,110,3,,7.0,30.250984,1024.4,,TRUE,TRUE,,,,,,,FEW,12000,,,,,,,VFR,0.5,9.4,1.7,,,,,,,,,METAR,3.0
KAST 180519Z AUTO 17005KT 3SM BR FEW005 FEW090 02/02 A3024 RMK AO2 T00220022,KAST,2023-02-18T05:19:00Z,46.15,-123.88,2.2,2.2,170,5,,3.0,30.239174,,,TRUE,TRUE,,,,,,BR,FEW,500,FEW,9000,,,,,MVFR,,,,,,,,,,,,METAR,3.0
KAST 180511Z AUTO 16003KT 1 3/4SM BR SCT003 BKN090 02/02 A3024 RMK AO2 T00220017,KAST,2023-02-18T05:11:00Z,46.15,-123.88,2.2,1.7,160,3,,1.75,30.239174,,,TRUE,TRUE,,,,,,BR,SCT,300,BKN,9000,,,,,IFR,,,,,,,,,,,,SPECI,3.0
KAST 180504Z AUTO 15004KT 3SM BR FEW001 BKN090 03/02 A3025 RMK AO2 VIS 1 1/4 RWY 08 T00280017,KAST,2023-02-18T05:04:00Z,46.15,-123.88,2.8,1.7,150,4,,3.0,30.250984,,,TRUE,TRUE,,,,,,BR,FEW,100,BKN,9000,,,,,MVFR,,,,,,,,,,,,METAR,3.0
KAST 180502Z AUTO 15004KT 1 1/2SM BR FEW001 BKN090 03/02 A3025 RMK AO2 T00280017,KAST,2023-02-18T05:02:00Z,46.15,-123.88,2.8,1.7,150,4,,1.5,30.250984,,,TRUE,TRUE,,,,,,BR,FEW,100,BKN,9000,,,,,IFR,,,,,,,,,,,,SPECI,3.0
KAST 180455Z AUTO 14004KT 1/2SM FG SCT003 OVC090 02/01 A3026 RMK AO2 SLP245 T00170011,KAST,2023-02-18T04:55:00Z,46.15,-123.88,1.7,1.1,140,4,,0.5,30.259842,1024.5,,TRUE,TRUE,,,,,,FG,SCT,300,OVC,9000,,,,,LIFR,,,,,,,,,,,,METAR,3.0
KAST 180420Z AUTO 00000KT 3/4SM BR SCT005 SCT090 02/01 A3026 RMK AO2 T00170011,KAST,2023-02-18T04:20:00Z,46.15,-123.88,1.7,1.1,0,0,,0.75,30.259842,,,TRUE,TRUE,,,,,,BR,SCT,500,SCT,9000,,,,,LIFR,,,,,,,,,,,,METAR,3.0
KAST 180416Z AUTO 00000KT 1 1/4SM BR FEW007 02/01 A3026 RMK AO2 PRESRR T00220011,KAST,2023-02-18T04:16:00Z,46.15,-123.88,2.2,1.1,0,0,,1.25,30.259842,,,TRUE,TRUE,,,,,,BR,FEW,700,,,,,,,IFR,,,,,,,,,,,,SPECI,3.0
KAST 180414Z AUTO 00000KT 1 3/4SM BR CLR 02/01 A3026 RMK AO2 T00220011,KAST,2023-02-18T04:14:00Z,46.15,-123.88,2.2,1.1,0,0,,1.75,30.259842,,,TRUE,TRUE,,,,,,BR,CLR,,,,,,,,IFR,,,,,,,,,,,,METAR,3.0
KAST 180355Z AUTO 00000KT 7SM CLR 03/02 A3024 RMK AO2 VIS 1 RWY 08 SLP239 T00280022,KAST,2023-02-18T03:55:00Z,46.15,-123.88,2.8,2.2,0,0,,7.0,30.239174,1023.9,,TRUE,TRUE,,,,,,,CLR,,,,,,,,VFR,,,,,,,,,,,,METAR,3.0
KAST 180255Z AUTO 16003KT 7SM CLR 04/03 A3024 RMK AO2 SLP240 T00390028 58002,KAST,2023-02-18T02:55:00Z,46.15,-123.88,3.9,2.8,160,3,,7.0,30.239174,1024.0,,TRUE,TRUE,,,,,,,CLR,,,,,,,,VFR,-0.2,,,,,,,,,,,METAR,3.0
KAST 180155Z AUTO 25003KT 10SM CLR 05/03 A3024 RMK AO2 SLP241 T00500033,KAST,2023-02-18T01:55:00Z,46.15,-123.88,5.0,3.3,250,3,,10.0,30.239174,1024.1,,TRUE,TRUE,,,,,,,CLR,,,,,,,,VFR,,,,,,,,,,,,METAR,3.0
KAST 180055Z AUTO 02004KT 10SM FEW080 FEW120 07/04 A3026 RMK AO2 SLP247 T00720044,KAST,2023-02-18T00:55:00Z,46.15,-123.88,7.2,4.4,20,4,,10.0,30.259842,1024.7,,TRUE,TRUE,,,,,,,FEW,8000,FEW,12000,,,,,VFR,,,,,,,,,,,,METAR,3.0
KAST 172355Z AUTO 00000KT 10SM FEW055 09/05 A3025 RMK AO2 SLP242 60000 T00940050 10094 20061 58007,KAST,2023-02-17T23:55:00Z,46.15,-123.88,9.4,5.0,0,0,,10.0,30.250984,1024.2,,TRUE,TRUE,,,,,,,FEW,5500,,,,,,,VFR,-0.7,9.4,6.1,,,,,0.005,,,,METAR,3.0
KAST 172255Z AUTO 08003KT 10SM OVC036 08/05 A3026 RMK AO2 SLP246 T00830050,KAST,2023-02-17T22:55:00Z,46.15,-123.88,8.3,5.0,80,3,,10.0,30.259842,1024.6,,TRUE,TRUE,,,,,,,OVC,3600,,,,,,,VFR,,,,,,,,,,,,METAR,3.0
KAST 172155Z AUTO 00000KT 10SM FEW010 SCT023 OVC036 08/04 A3027 RMK AO2 SLP249 T00780044,KAST,2023-02-17T21:55:00Z,46.15,-123.88,7.8,4.4,0,0,,10.0,30.268702,1024.9,,TRUE,TRUE,,,,,,,FEW,1000,SCT,2300,OVC,3600,,,VFR,,,,,,,,,,,,METAR,3.0
KAST 172055Z AUTO 27004KT 6SM BR SCT013 OVC021 07/06 A3028 RMK AO2 SLP253 60000 T00720056 55001,KAST,2023-02-17T20:55:00Z,46.15,-123.88,7.2,5.6,270,4,,6.0,30.280512,1025.3,,TRUE,TRUE,,,,,,BR,SCT,1300,OVC,2100,,,,,MVFR,-0.1,,,,,,0.005,,,,,METAR,3.0
KAST 172004Z AUTO 00000KT 7SM SCT005 BKN013 OVC023 08/07 A3028 RMK AO2 T00780067,KAST,2023-02-17T20:04:00Z,46.15,-123.88,7.8,6.7,0,0,,7.0,30.280512,,,TRUE,TRUE,,,,,,,SCT,500,BKN,1300,OVC,2300,,,MVFR,,,,,,,,,,,,SPECI,3.0
KAST 171955Z AUTO 00000KT 5SM BR SCT005 BKN015 OVC023 08/06 A3029 RMK AO2 SLP255 T00780061,KAST,2023-02-17T19:55:00Z,46.15,-123.88,7.8,6.1,0,0,,5.0,30.28937,1025.5,,TRUE,TRUE,,,,,,BR,SCT,500,BKN,1500,OVC,2300,,,MVFR,,,,,,,,,,,,METAR,3.0
KAST 171930Z AUTO 00000KT 7SM BKN005 BKN010 OVC021 07/06 A3029 RMK AO2 T00720056,KAST,2023-02-17T19:30:00Z,46.15,-123.88,7.2,5.6,0,0,,7.0,30.28937,,,TRUE,TRUE,,,,,,,BKN,500,BKN,1000,OVC,2100,,,IFR,,,,,,,,,,,,SPECI,3.0
KAST 171919Z AUTO 00000KT 3SM BR FEW007 SCT010 OVC021 07/06 A3029 RMK AO2 CIG 006 RWY 08 T00720056,KAST,2023-02-17T19:19:00Z,46.15,-123.88,7.2,5.6,0,0,,3.0,30.28937,,,TRUE,TRUE,,,,,,BR,FEW,700,SCT,1000,OVC,2100,,,MVFR,,,,,,,,,,,,SPECI,3.0
KAST 171912Z AUTO 00000KT 1 3/4SM BR FEW007 SCT010 OVC021 07/06 A3029 RMK AO2 CIG 007 RWY 08 T00720056,KAST,2023-02-17T19:12:00Z,46.15,-123.88,7.2,5.6,0,0,,1.75,30.28937,,,TRUE,TRUE,,,,,,BR,FEW,700,SCT,1000,OVC,2100,,,IFR,,,,,,,,,,,,SPECI,3.0
KAST 171907Z AUTO 00000KT 3SM BR SCT007 BKN010 OVC019 07/06 A3029 RMK AO2 T00720056,KAST,2023-02-17T19:07:00Z,46.15,-123.88,7.2,5.6,0,0,,3.0,30.28937,,,TRUE,TRUE,,,,,,BR,SCT,700,BKN,1000,OVC,1900,,,MVFR,,,,,,,,,,,,SPECI,3.0
KAST 171855Z AUTO 00000KT 7SM FEW007 SCT012 OVC019 07/06 A3029 RMK AO2 RAE1758 CIG 013 RWY 08 SLP255 P0000 T00670061,KAST,2023-02-17T18:55:00Z,46.15,-123.88,6.7,6.1,0,0,,7.0,30.28937,1025.5,,TRUE,TRUE,,,,,,,FEW,700,SCT,1200,OVC,1900,,,MVFR,,,,,,0.005,,,,,,METAR,3.0
KAST 171853Z AUTO 00000KT 7SM FEW007 OVC018 07/06 A3029 RMK AO2 RAE1758 P0000,KAST,2023-02-17T18:53:00Z,46.15,-123.88,7.0,6.0,0,0,,7.0,30.28937,,,TRUE,TRUE,,,,,,,FEW,700,OVC,1800,,,,,MVFR,,,,,,0.005,,,,,,SPECI,3.0
KAST 171802Z AUTO 02008KT 3SM BR OVC005 06/05 A3027 RMK AO2 RAE1758 CIG 003V007 P0000 T00610050,KAST,2023-02-17T18:02:00Z,46.15,-123.88,6.1,5.0,20,8,,3.0,30.268702,,,TRUE,TRUE,,,,,,BR,OVC,500,,,,,,,IFR,,,,,,0.005,,,,,,SPECI,3.0
KAST 171755Z AUTO 36007KT 2 1/2SM -RA BR BKN005 OVC010 06/06 A3027 RMK AO2 RAE14B19 CIG 003V007 SLP251 P0002 60006 T00610056 10072 20050 53015,KAST,2023-02-17T17:55:00Z,46.15,-123.88,6.1,5.6,360,7,,2.5,30.268702,1025.1,,TRUE,TRUE,,,,,,-RA BR,BKN,500,OVC,1000,,,,,IFR,1.5,7.2,5.0,,,0.02,,0.06,,,,METAR,3.0
KAST 171732Z AUTO 24006KT 3SM -RA BR BKN007 OVC010 07/06 A3027 RMK AO2 RAE14B19 CIG 004V009 P0001 T00720061,KAST,2023-02-17T17:32:00Z,46.15,-123.88,7.2,6.1,240,6,,3.0,30.268702,,,TRUE,TRUE,,,,,,-RA BR,BKN,700,OVC,1000,,,,,IFR,,,,,,0.01,,,,,,SPECI,3.0
KAST 171718Z AUTO 24008KT 2SM BR BKN007 OVC013 07/06 A3026 RMK AO2 RAE14 P0001 T00720061,KAST,2023-02-17T17:18:00Z,46.15,-123.88,7.2,6.1,240,8,,2.0,30.259842,,,TRUE,TRUE,,,,,,BR,BKN,700,OVC,1300,,,,,IFR,,,,,,0.01,,,,,,SPECI,3.0
KAST 171706Z AUTO 26006KT 1 1/2SM -RA BR BKN007 OVC011 07/06 A3027 RMK AO2 P0001 T00720056,KAST,2023-02-17T17:06:00Z,46.15,-123.88,7.2,5.6,260,6,,1.5,30.268702,,,TRUE,TRUE,,,,,,-RA BR,BKN,700,OVC,1100,,,,,IFR,,,,,,0.01,,,,,,SPECI,3.0
KAST 171702Z AUTO 26006KT 1 1/4SM -RA BR SCT007 OVC011 07/06 A3027 RMK AO2 CIG 006 RWY 08 P0001 T00720056,KAST,2023-02-17T17:02:00Z,46.15,-123.88,7.2,5.6,260,6,,1.25,30.268702,,,TRUE,TRUE,,,,,,-RA BR,SCT,700,OVC,1100,,,,,IFR,,,,,,0.01,,,,,,SPECI,3.0
KAST 171655Z AUTO 24005KT 1 1/4SM -RA BR OVC011 07/06 A3026 RMK AO2 RAE30B49 SLP247 P0001 T00720056,KAST,2023-02-17T16:55:00Z,46.15,-123.88,7.2,5.6,240,5,,1.25,30.259842,1024.7,,TRUE,TRUE,,,,,,-RA BR,OVC,1100,,,,,,,IFR,,,,,,0.01,,,,,,METAR,3.0
KAST 171631Z AUTO 21005KT 2 1/2SM BR OVC011 07/06 A3025 RMK AO2 RAE30 P0001 T00720061,KAST,2023-02-17T16:31:00Z,46.15,-123.88,7.2,6.1,210,5,,2.5,30.250984,,,TRUE,TRUE,,,,,,BR,OVC,1100,,,,,,,IFR,,,,,,0.01,,,,,,SPECI,3.0
KAST 171555Z AUTO 00000KT 4SM -RA BR OVC011 07/06 A3024 RMK AO2 SLP239 P0003 T00670056,KAST,2023-02-17T15:55:00Z,46.15,-123.88,6.7,5.6,0,0,,4.0,30.239174,1023.9,,TRUE,TRUE,,,,,,-RA BR,OVC,1100,,,,,,,MVFR,,,,,,0.03,,,,,,METAR,3.0
KAST 171529Z AUTO 16004KT 3SM -RA BR OVC013 07/05 A3023 RMK AO2 P0003 T00670050,KAST,2023-02-17T15:29:00Z,46.15,-123.88,6.7,5.0,160,4,,3.0,30.230314,,,TRUE,TRUE,,,,,,-RA BR,OVC,1300,,,,,,,MVFR,,,,,,0.03,,,,,,SPECI,3.0
KAST 171518Z AUTO 18004KT 1 3/4SM -RA BR OVC013 07/06 A3023 RMK AO2 P0002 T00670056,KAST,2023-02-17T15:18:00Z,46.15,-123.88,6.7,5.6,180,4,,1.75,30.230314,,,TRUE,TRUE,,,,,,-RA BR,OVC,1300,,,,,,,IFR,,,,,,0.02,,,,,,SPECI,3.0
KAST 171507Z AUTO 22003KT 2SM -RA BR OVC013 06/05 A3023 RMK AO2 P0001 T00610050,KAST,2023-02-17T15:07:00Z,46.15,-123.88,6.1,5.0,220,3,,2.0,30.230314,,,TRUE,TRUE,,,,,,-RA BR,OVC,1300,,,,,,,IFR,,,,,,0.01,,,,,,SPECI,3.0
KAST 171455Z AUTO 00000KT 2SM -RA BR OVC015 06/04 A3023 RMK AO2 RAB09E19B35 SLP236 P0000 60000 T00560044 51003,KAST,2023-02-17T14:55:00Z,46.15,-123.88,5.6,4.4,0,0,,2.0,30.230314,1023.6,,TRUE,TRUE,,,,,,-RA BR,OVC,1500,,,,,,,IFR,0.3,,,,,0.005,0.005,,,,,METAR,3.0
KAST 171445Z AUTO 00000KT 2 1/2SM -RA BR BKN013 OVC019 06/04 A3023 RMK AO2 RAB09E19B35 P0000 T00560044,KAST,2023-02-17T14:45:00Z,46.15,-123.88,5.6,4.4,0,0,,2.5,30.230314,,,TRUE,TRUE,,,,,,-RA BR,BKN,1300,OVC,1900,,,,,IFR,,,,,,0.005,,,,,,METAR,3.0
KAST 171355Z AUTO 00000KT 9SM OVC020 06/04 A3023 RMK AO2 RAE1256 SLP234 P0000 T00560044,KAST,2023-02-17T13:55:00Z,46.15,-123.88,5.6,4.4,0,0,,9.0,30.230314,1023.4,,TRUE,TRUE,,,,,,,OVC,2000,,,,,,,MVFR,,,,,,0.005,,,,,,METAR,3.0
KAST 171255Z AUTO 00000KT 10SM -RA OVC024 06/04 A3023 RMK AO2 RAB43 SLP235 P0000 T00560044 $,KAST,2023-02-17T12:55:00Z,46.15,-123.88,5.6,4.4,0,0,,10.0,30.230314,1023.5,,TRUE,TRUE,TRUE,,,,,-RA,OVC,2400,,,,,,,MVFR,,,,,,0.005,,,,,,METAR,3.0
KAST 171231Z AUTO 00000KT 10SM BKN024 OVC039 06/04 A3022 RMK AO2 T00560039 $,KAST,2023-02-17T12:31:00Z,46.15,-123.88,5.6,3.9,0,0,,10.0,30.221457,,,TRUE,TRUE,TRUE,,,,,,BKN,2400,OVC,3900,,,,,MVFR,,,,,,,,,,,,SPECI,3.0
KAST 171155Z AUTO 00000KT 10SM OVC041 06/04 A3022 RMK AO2 SLP233 60001 70001 T00560044 10067 20056 $,KAST,2023-02-17T11:55:00Z,46.15,-123.88,5.6,4.4,0,0,,10.0,30.221457,1023.3,,TRUE,TRUE,TRUE,,,,,,OVC,4100,,,,,,,VFR,,6.7,5.6,,,,,0.01,0.01,,,METAR,3.0
KAST 171121Z AUTO 00000KT 10SM SCT026 OVC034 06/04 A3022 RMK AO2 T00560044 $,KAST,2023-02-17T11:21:00Z,46.15,-123.88,5.6,4.4,0,0,,10.0,30.221457,,,TRUE,TRUE,TRUE,,,,,,SCT,2600,OVC,3400,,,,,VFR,,,,,,,,,,,,SPECI,3.0
KAST 171112Z AUTO 12003KT 10SM BKN026 OVC032 06/04 A3022 RMK AO2 T00560044 $,KAST,2023-02-17T11:12:00Z,46.15,-123.88,5.6,4.4,120,3,,10.0,30.221457,,,TRUE,TRUE,TRUE,,,,,,BKN,2600,OVC,3200,,,,,MVFR,,,,,,,,,,,,SPECI,3.0
KAST 171055Z AUTO 00000KT 10SM 06/04 A3023 RMK AO2 RAB03 SLP235 P0000 T00560044 CHINO RWY 08 $,KAST,2023-02-17T10:55:00Z,46.15,-123.88,5.6,4.4,0,0,,10.0,30.230314,1023.5,,TRUE,TRUE,TRUE,,,,,,,,,,,,,,,,,,,,0.005,,,,,,METAR,3.0
KAST 170955Z AUTO 00000KT 10SM BKN028 OVC036 06/04 A3023 RMK AO2 SLP237 T00560044,KAST,2023-02-17T09:55:00Z,46.15,-123.88,5.6,4.4,0,0,,10.0,30.230314,1023.7,,TRUE,TRUE,,,,,,,BKN,2800,OVC,3600,,,,,MVFR,,,,,,,,,,,,METAR,3.0
KAST 170855Z AUTO 17004KT 10SM OVC026 06/04 A3023 RMK AO2 RAE46 SLP235 P0000 60001 T00560044 51005,KAST,2023-02-17T08:55:00Z,46.15,-123.88,5.6,4.4,170,4,,10.0,30.230314,1023.5,,TRUE,TRUE,,,,,,,OVC,2600,,,,,,,MVFR,0.5,,,,,0.005,0.01,,,,,METAR,3.0
KAST 170843Z AUTO 14003KT 10SM -RA OVC029 06/04 A3022 RMK AO2 P0000 T00560044,KAST,2023-02-17T08:43:00Z,46.15,-123.88,5.6,4.4,140,3,,10.0,30.221457,,,TRUE,TRUE,,,,,,-RA,OVC,2900,,,,,,,MVFR,,,,,,0.005,,,,,,SPECI,3.0
KAST 170755Z AUTO 09003KT 10SM -RA OVC031 06/04 A3022 RMK AO2 RAE06B17 SLP233 P0001 T00560039 401000011,KAST,2023-02-17T07:55:00Z,46.15,-123.88,5.6,3.9,90,3,,10.0,30.221457,1023.3,,TRUE,TRUE,,,,,,-RA,OVC,3100,,,,,,,VFR,,,,10.0,1.1,0.01,,,,,,METAR,3.0
KAST 170753Z AUTO 09003KT 9SM -RA OVC031 06/04 A3022 RMK AO2 RAE06B17 P0001,KAST,2023-02-17T07:53:00Z,46.15,-123.88,6.0,4.0,90,3,,9.0,30.221457,,,TRUE,TRUE,,,,,,-RA,OVC,3100,,,,,,,VFR,,,,,,0.01,,,,,,SPECI,3.0
KAST 170709Z AUTO 00000KT 10SM OVC029 06/04 A3021 RMK AO2 RAE06 P0000 T00610039,KAST,2023-02-17T07:09:00Z,46.15,-123.88,6.1,3.9,0,0,,10.0,30.209646,,,TRUE,TRUE,,,,,,,OVC,2900,,,,,,,MVFR,,,,,,0.005,,,,,,SPECI,3.0
KAST 170655Z AUTO 00000KT 10SM -RA BKN031 OVC045 06/04 A3021 RMK AO2 SLP229 P0000 T00610039,KAST,2023-02-17T06:55:00Z,46.15,-123.88,6.1,3.9,0,0,,10.0,30.209646,1022.9,,TRUE,TRUE,,,,,,-RA,BKN,3100,OVC,4500,,,,,VFR,,,,,,0.005,,,,,,SPECI,3.0
KAST 170626Z AUTO 00000KT 10SM -RA OVC031 06/04 A3020 RMK AO2 P0000 T00610039,KAST,2023-02-17T06:26:00Z,46.15,-123.88,6.1,3.9,0,0,,10.0,30.200787,,,TRUE,TRUE,,,,,,-RA,OVC,3100,,,,,,,VFR,,,,,,0.005,,,,,,SPECI,3.0
KAST 170555Z AUTO 00000KT 10SM -RA OVC029 07/03 A3020 RMK AO2 RAB54 SLP225 P0000 60000 T00670033 10094 20067 53003,KAST,2023-02-17T05:55:00Z,46.15,-123.88,6.7,3.3,0,0,,10.0,30.200787,1022.5,,TRUE,TRUE,,,,,,-RA,OVC,2900,,,,,,,MVFR,0.3,9.4,6.7,,,0.005,,0.005,,,,METAR,3.0
KAST 170534Z AUTO 00000KT 10SM BKN029 OVC035 07/04 A3020 RMK AO2 T00670039,KAST,2023-02-17T05:34:00Z,46.15,-123.88,6.7,3.9,0,0,,10.0,30.200787,,,TRUE,TRUE,,,,,,,BKN,2900,OVC,3500,,,,,MVFR,,,,,,,,,,,,SPECI,3.0
KAST 170455Z AUTO 11004KT 10SM SCT029 BKN039 OVC070 07/04 A3019 RMK AO2 RAB27E37 SLP223 P0000 T00670039,KAST,2023-02-17T04:55:00Z,46.15,-123.88,6.7,3.9,110,4,,10.0,30.188976,1022.3,,TRUE,TRUE,,,,,,,SCT,2900,BKN,3900,OVC,7000,,,VFR,,,,,,0.005,,,,,,METAR,3.0
KAST 170355Z AUTO 00000KT 10SM FEW027 SCT032 OVC070 07/04 A3019 RMK AO2 RAB04E53 SLP223 P0000 T00720044,KAST,2023-02-17T03:55:00Z,46.15,-123.88,7.2,4.4,0,0,,10.0,30.188976,1022.3,,TRUE,TRUE,,,,,,,FEW,2700,SCT,3200,OVC,7000,,,VFR,,,,,,0.005,,,,,,SPECI,3.0
KAST 170255Z AUTO 19005KT 10SM FEW047 OVC070 08/03 A3019 RMK AO2 RAB05E46 SLP222 P0000 60000 T00780033 53004,KAST,2023-02-17T02:55:00Z,46.15,-123.88,7.8,3.3,190,5,,10.0,30.188976,1022.2,,TRUE,TRUE,,,,,,,FEW,4700,OVC,7000,,,,,VFR,0.4,,,,,0.005,0.005,,,,,METAR,3.0
KAST 170155Z AUTO 20007KT 10SM SCT033 OVC065 08/03 A3018 RMK AO2 CIG 033 RWY 08 SLP219 T00780028,KAST,2023-02-17T01:55:00Z,46.15,-123.88,7.8,2.8,200,7,,10.0,30.180119,1021.9,,TRUE,TRUE,,,,,,,SCT,3300,OVC,6500,,,,,VFR,,,,,,,,,,,,SPECI,3.0
KAST 170055Z AUTO 22007KT 10SM OVC065 08/03 A3017 RMK AO2 SLP217 T00830028,KAST,2023-02-17T00:55:00Z,46.15,-123.88,8.3,2.8,220,7,,10.0,30.171259,1021.7,,TRUE,TRUE,,,,,,,OVC,6500,,,,,,,VFR,,,,,,,,,,,,METAR,3.0
KAST 162355Z AUTO 20010KT 10SM OVC060 09/01 A3018 RMK AO2 SLP219 T00940006 10100 20044 53004,KAST,2023-02-16T23:55:00Z,46.15,-123.88,9.4,0.6,200,10,,10.0,30.180119,1021.9,,TRUE,TRUE,,,,,,,OVC,6000,,,,,,,VFR,0.4,10.0,4.4,,,,,,,,,METAR,3.0
KAST 162255Z AUTO 23011G18KT 10SM FEW038 OVC065 08/03 A3017 RMK AO2 SLP214 T00830033,KAST,2023-02-16T22:55:00Z,46.15,-123.88,8.3,3.3,230,11,18,10.0,30.171259,1021.4,,TRUE,TRUE,,,,,,,FEW,3800,OVC,6500,,,,,VFR,,,,,,,,,,,,METAR,3.0
KAST 162155Z AUTO 00000KT 10SM FEW025 OVC080 09/03 A3016 RMK AO2 SLP213 T00890033,KAST,2023-02-16T21:55:00Z,46.15,-123.88,8.9,3.3,0,0,,10.0,30.159449,1021.3,,TRUE,TRUE,,,,,,,FEW,2500,OVC,8000,,,,,VFR,,,,,,,,,,,,METAR,3.0
KAST 162055Z AUTO 03004KT 10SM OVC080 07/03 A3017 RMK AO2 SLP214 T00720028 58007,KAST,2023-02-16T20:55:00Z,46.15,-123.88,7.2,2.8,30,4,,10.0,30.171259,1021.4,,TRUE,TRUE,,,,,,,OVC,8000,,,,,,,VFR,-0.7,,,,,,,,,,,SPECI,3.0
KAST 161955Z AUTO 00000KT 10SM OVC085 07/02 A3018 RMK AO2 SLP220 T00670017,KAST,2023-02-16T19:55:00Z,46.15,-123.88,6.7,1.7,0,0,,10.0,30.180119,1022.0,,TRUE,TRUE,,,,,,,OVC,8500,,,,,,,VFR,,,,,,,,,,,,METAR,3.0
KAST 161855Z AUTO 09003KT 10SM OVC075 06/02 A3019 RMK AO2 SLP222 T00560017,KAST,2023-02-16T18:55:00Z,46.15,-123.88,5.6,1.7,90,3,,10.0,30.188976,1022.2,,TRUE,TRUE,,,,,,,OVC,7500,,,,,,,VFR,,,,,,,,,,,,METAR,3.0
KAST 161755Z AUTO 11003KT 10SM OVC090 04/01 A3019 RMK AO2 SLP221 T00440011 10044 20011 53009,KAST,2023-02-16T17:55:00Z,46.15,-123.88,4.4,1.1,110,3,,10.0,30.188976,1022.1,,TRUE,TRUE,,,,,,,OVC,9000,,,,,,,VFR,0.9,4.4,1.1,,,,,,,,,METAR,3.0
KAST 161655Z AUTO 00000KT 10SM OVC095 03/00 A3017 RMK AO2 SLP217 T00330000,KAST,2023-02-16T16:55:00Z,46.15,-123.88,3.3,0.0,0,0,,10.0,30.171259,1021.7,,TRUE,TRUE,,,,,,,OVC,9500,,,,,,,VFR,,,,,,,,,,,,METAR,3.0
KAST 161555Z AUTO 13003KT 10SM OVC090 03/00 A3017 RMK AO2 SLP214 T00280000,KAST,2023-02-16T15:55:00Z,46.15,-123.88,2.8,0.0,130,3,,10.0,30.171259,1021.4,,TRUE,TRUE,,,,,,,OVC,9000,,,,,,,VFR,,,,,,,,,,,,METAR,3.0
KAST 161455Z AUTO 12003KT 10SM OVC110 02/00 A3016 RMK AO2 SLP212 T00220000 57003,KAST,2023-02-16T14:55:00Z,46.15,-123.88,2.2,0.0,120,3,,10.0,30.159449,1021.2,,TRUE,TRUE,,,,,,,OVC,11000,,,,,,,VFR,-0.3,,,,,,,,,,,METAR,3.0
KAST 161355Z AUTO 00000KT 10SM SCT120 02/M01 A3016 RMK AO2 SLP213 T00171006,KAST,2023-02-16T13:55:00Z,46.15,-123.88,1.7,-0.6,0,0,,10.0,30.159449,1021.3,,TRUE,TRUE,,,,,,,SCT,12000,,,,,,,VFR,,,,,,,,,,,,METAR,3.0
KAST 161255Z AUTO 11003KT 10SM CLR 02/M01 A3016 RMK AO2 SLP213 T00171006,KAST,2023-02-16T12:55:00Z,46.15,-123.88,1.7,-0.6,110,3,,10.0,30.159449,1021.3,,TRUE,TRUE,,,,,,,CLR,,,,,,,,VFR,,,,,,,,,,,,METAR,3.0
KAST 161155Z AUTO 12003KT 10SM CLR 02/M01 A3017 RMK AO2 SLP215 T00171006 10022 20011 56012,KAST,2023-02-16T11:55:00Z,46.15,-123.88,1.7,-0.6,120,3,,10.0,30.171259,1021.5,,TRUE,TRUE,,,,,,,CLR,,,,,,,,VFR,-1.2,2.2,1.1,,,,,,,,,METAR,3.0
KAST 161055Z AUTO 00000KT 10SM CLR 02/M01 A3018 RMK AO2 SLP218 T00171006,KAST,2023-02-16T10:55:00Z,46.15,-123.88,1.7,-0.6,0,0,,10.0,30.180119,1021.8,,TRUE,TRUE,,,,,,,CLR,,,,,,,,VFR,,,,,,,,,,,,METAR,3.0
KAST 160955Z AUTO 11004KT 10SM CLR 02/M01 A3018 RMK AO2 SLP220 T00171006,KAST,2023-02-16T09:55:00Z,46.15,-123.88,1.7,-0.6,110,4,,10.0,30.180119,1022.0,,TRUE,TRUE,,,,,,,CLR,,,,,,,,VFR,,,,,,,,,,,,METAR,3.0
KAST 160855Z AUTO 12004KT 10SM CLR 02/M01 A3020 RMK AO2 SLP227 T00171006 56016,KAST,2023-02-16T08:55:00Z,46.15,-123.88,1.7,-0.6,120,4,,10.0,30.200787,1022.7,,TRUE,TRUE,,,,,,,CLR,,,,,,,,VFR,-1.6,,,,,,,,,,,METAR,3.0
KAST 160755Z AUTO 10003KT 10SM FEW120 02/00 A3022 RMK AO2 SLP232 T00220000 400781033,KAST,2023-02-16T07:55:00Z,46.15,-123.88,2.2,0.0,100,3,,10.0,30.221457,1023.2,,TRUE,TRUE,,,,,,,FEW,12000,,,,,,,VFR,,,,7.8,-3.3,,,,,,,METAR,3.0
KAST 160655Z AUTO 10004KT 10SM CLR 02/00 A3024 RMK AO2 SLP238 T00220000,KAST,2023-02-16T06:55:00Z,46.15,-123.88,2.2,0.0,100,4,,10.0,30.239174,1023.8,,TRUE,TRUE,,,,,,,CLR,,,,,,,,VFR,,,,,,,,,,,,METAR,3.0
KAST 160555Z AUTO 09004KT 10SM CLR 02/M01 A3025 RMK AO2 SLP243 T00171006 10078 20017 56013,KAST,2023-02-16T05:55:00Z,46.15,-123.88,1.7,-0.6,90,4,,10.0,30.250984,1024.3,,TRUE,TRUE,,,,,,,CLR,,,,,,,,VFR,-1.3,7.8,1.7,,,,,,,,,SPECI,3.0
KAST 160455Z AUTO 10006KT 10SM CLR 03/00 A3026 RMK AO2 SLP247 T00280000,KAST,2023-02-16T04:55:00Z,46.15,-123.88,2.8,0.0,100,6,,10.0,30.259842,1024.7,,TRUE,TRUE,,,,,,,CLR,,,,,,,,VFR,,,,,,,,,,,,METAR,3.0
KAST 160355Z AUTO 11005KT 10SM CLR 03/00 A3027 RMK AO2 SLP251 T00330000,KAST,2023-02-16T03:55:00Z,46.15,-123.88,3.3,0.0,110,5,,10.0,30.268702,1025.1,,TRUE,TRUE,,,,,,,CLR,,,,,,,,VFR,,,,,,,,,,,,SPECI,3.0
KAST 160255Z AUTO 09006KT 10SM CLR 05/01 A3029 RMK AO2 SLP257 T00500006 56013,KAST,2023-02-16T02:55:00Z,46.15,-123.88,5.0,0.6,90,6,,10.0,30.28937,1025.7,,TRUE,TRUE,,,,,,,CLR,,,,,,,,VFR,-1.3,,,,,,,,,,,METAR,3.0
KAST 160155Z AUTO 00000KT 10SM CLR 05/01 A3030 RMK AO2 SLP260 T00500011,KAST,2023-02-16T01:55:00Z,46.15,-123.88,5.0,1.1,0,0,,10.0,30.301182,1026.0,,TRUE,TRUE,,,,,,,CLR,,,,,,,,VFR,,,,,,,,,,,,SPECI,3.0
KAST 160055Z AUTO 03003KT 10SM CLR 07/M01 A3032 RMK AO2 SLP265 T00671011,KAST,2023-02-16T00:55:00Z,46.15,-123.88,6.7,-1.1,30,3,,10.0,30.318897,1026.5,,TRUE,TRUE,,,,,,,CLR,,,,,,,,VFR,,,,,,,,,,,,METAR,3.0
KAST 152355Z AUTO 05004KT 10SM CLR 08/M02 A3033 RMK AO2 SLP269 T00781022 10078 20011 56011,KAST,2023-02-15T23:55:00Z,46.15,-123.88,7.8,-2.2,50,4,,10.0,30.33071,1026.9,,TRUE,TRUE,,,,,,,CLR,,,,,,,,VFR,-1.1,7.8,1.1,,,,,,,,,METAR,3.0
KAST 152255Z AUTO 02008KT 10SM CLR 08/M01 A3034 RMK AO2 SLP273 T00781011,KAST,2023-02-15T22:55:00Z,46.15,-123.88,7.8,-1.1,20,8,,10.0,30.339567,1027.3,,TRUE,TRUE,,,,,,,CLR,,,,,,,,VFR,,,,,,,,,,,,METAR,3.0
KAST 152155Z AUTO 01012KT 10SM CLR 07/01 A3035 RMK AO2 SLP275 T00720006,KAST,2023-02-15T21:55:00Z,46.15,-123.88,7.2,0.6,10,12,,10.0,30.351377,1027.5,,TRUE,TRUE,,,,,,,CLR,,,,,,,,VFR,,,,,,,,,,,,METAR,3.0
KAST 152055Z AUTO 36008KT 10SM CLR 07/02 A3036 RMK AO2 SLP280 T00670017 58010,KAST,2023-02-15T20:55:00Z,46.15,-123.88,6.7,1.7,360,8,,10.0,30.360237,1028.0,,TRUE,TRUE,,,,,,,CLR,,,,,,,,VFR,-1.0,,,,,,,,,,,METAR,3.0
KAST 151955Z AUTO 03004KT 10SM CLR 06/01 A3039 RMK AO2 SLP289 T00610011,KAST,2023-02-15T19:55:00Z,46.15,-123.88,6.1,1.1,30,4,,10.0,30.389763,1028.9,,TRUE,TRUE,,,,,,,CLR,,,,,,,,VFR,,,,,,,,,,,,METAR,3.0
KAST 151855Z AUTO VRB03KT 10SM CLR 04/01 A3039 RMK AO2 SLP290 T00390011,KAST,2023-02-15T18:55:00Z,46.15,-123.88,3.9,1.1,0,3,,10.0,30.389763,1029.0,,TRUE,TRUE,,,,,,,CLR,,,,,,,,VFR,,,,,,,,,,,,METAR,3.0
KAST 151755Z AUTO 00000KT 10SM FEW002 01/01 A3039 RMK AO2 SLP291 I1000 I6002 T00110006 10011 21033 51006,KAST,2023-02-15T17:55:00Z,46.15,-123.88,1.1,0.6,0,0,,10.0,30.389763,1029.1,,TRUE,TRUE,,,,,,,FEW,200,,,,,,,VFR,0.6,1.1,-3.3,,,,,,,,,METAR,3.0
KAST 151742Z AUTO 00000KT 9SM BKN002 01/01 A3039 RMK AO2 I1000 T00110006,KAST,2023-02-15T17:42:00Z,46.15,-123.88,1.1,0.6,0,0,,9.0,30.389763,,,TRUE,TRUE,,,,,,,BKN,200,,,,,,,LIFR,,,,,,,,,,,,SPECI,3.0
KAST 151733Z AUTO 08003KT 2SM BR BKN002 00/00 A3039 RMK AO2 I1000 T00000000,KAST,2023-02-15T17:33:00Z,46.15,-123.88,0.0,0.0,80,3,,2.0,30.389763,,,TRUE,TRUE,,,,,,BR,BKN,200,,,,,,,LIFR,,,,,,,,,,,,SPECI,3.0
KAST 151730Z AUTO 11003KT 1 1/4SM BR OVC002 00/M01 A3039 RMK AO2 VIS 3/4V4 I1000 T00001006,KAST,2023-02-15T17:30:00Z,46.15,-123.88,0.0,-0.6,110,3,,1.25,30.389763,,,TRUE,TRUE,,,,,,BR,OVC,200,,,,,,,LIFR,,,,,,,,,,,,SPECI,3.0
KAST 151722Z AUTO 12004KT 3/4SM BR OVC002 00/M01 A3039 RMK AO2 I1000 T00001006,KAST,2023-02-15T17:22:00Z,46.15,-123.88,0.0,-0.6,120,4,,0.75,30.389763,,,TRUE,TRUE,,,,,,BR,OVC,200,,,,,,,LIFR,,,,,,,,,,,,SPECI,3.0
KAST 151655Z AUTO 10003KT 1/4SM FZFG VV002 M01/M01 A3039 RMK AO2 SLP290 I1001 T10061011,KAST,2023-02-15T16:55:00Z,46.15,-123.88,-0.6,-1.1,100,3,,0.25,30.389763,1029.0,,TRUE,TRUE,,,,,,FZFG,OVX,0,,,,,,,LIFR,,,,,,,,,,,200,METAR,3.0
KAST 151555Z AUTO 11005KT 1/4SM FZFG VV002 M02/M02 A3039 RMK AO2 SLP289 T10171022,KAST,2023-02-15T15:55:00Z,46.15,-123.88,-1.7,-2.2,110,5,,0.25,30.389763,1028.9,,TRUE,TRUE,,,,,,FZFG,OVX,0,,,,,,,LIFR,,,,,,,,,,,200,METAR,3.0
KAST 151547Z AUTO 12005KT 1/4SM FZFG VV002 M02/M03 A3038 RMK AO2 T10171028,KAST,2023-02-15T15:47:00Z,46.15,-123.88,-1.7,-2.8,120,5,,0.25,30.380905,,,TRUE,TRUE,,,,,,FZFG,OVX,0,,,,,,,LIFR,,,,,,,,,,,200,SPECI,3.0
KAST 151536Z AUTO 12005KT 1/2SM FZFG VV003 M02/M03 A3038 RMK AO2 T10171028,KAST,2023-02-15T15:36:00Z,46.15,-123.88,-1.7,-2.8,120,5,,0.5,30.380905,,,TRUE,TRUE,,,,,,FZFG,OVX,0,,,,,,,LIFR,,,,,,,,,,,300,SPECI,3.0
KAST 151526Z AUTO 12005KT 1 1/4SM BR BKN004 M02/M03 A3038 RMK AO2 T10171033,KAST,2023-02-15T15:26:00Z,46.15,-123.88,-1.7,-3.3,120,5,,1.25,30.380905,,,TRUE,TRUE,,,,,,BR,BKN,400,,,,,,,LIFR,,,,,,,,,,,,METAR,3.0
KAST 151523Z AUTO 11006KT 2 1/2SM BR SCT006 M02/M03 A3038 RMK AO2 T10171033,KAST,2023-02-15T15:23:00Z,46.15,-123.88,-1.7,-3.3,110,6,,2.5,30.380905,,,TRUE,TRUE,,,,,,BR,SCT,600,,,,,,,IFR,,,,,,,,,,,,METAR,3.0
KAST 151455Z AUTO 10003KT 10SM CLR M02/M03 A3037 RMK AO2 SLP285 I1001 I3001 T10221033 56001,KAST,2023-02-15T14:55:00Z,46.15,-123.88,-2.2,-3.3,100,3,,10.0,30.369095,1028.5,,TRUE,TRUE,,,,,,,CLR,,,,,,,,VFR,-0.1,,,,,,,,,,,SPECI,3.0
KAST 151355Z AUTO 00000KT 10SM CLR M03/M04 A3038 RMK AO2 SLP285 I1000 T10331039,KAST,2023-02-15T13:55:00Z,46.15,-123.88,-3.3,-3.9,0,0,,10.0,30.380905,1028.5,,TRUE,TRUE,,,,,,,CLR,,,,,,,,VFR,,,,,,,,,,,,METAR,3.0
