No errors
No warnings
24 ms
data source=metars
552 results
raw_text,station_id,observation_time,latitude,longitude,temp_c,dewpoint_c,wind_dir_degrees,wind_speed_kt,wind_gust_kt,visibility_statute_mi,altim_in_hg,sea_level_pressure_mb,corrected,auto,auto_station,maintenance_indicator_on,no_signal,lightning_sensor_off,freezing_rain_sensor_off,present_weather_sensor_off,wx_string,sky_cover,cloud_base_ft_agl,sky_cover,cloud_base_ft_agl,sky_cover,cloud_base_ft_agl,sky_cover,cloud_base_ft_agl,flight_category,three_hr_pressure_tendency_mb,maxT_c,minT_c,maxT24hr_c,minT24hr_c,precip_in,pcp3hr_in,pcp6hr_in,pcp24hr_in,snow_in,vert_vis_ft,metar_type,elevation_m
KAST 311555Z AUTO 19009KT 5SM -RA BR FEW025 BKN037 OVC070 07/05 A2994 RMK AO2 RAB10 SLP140 P0003 T00720050,KAST,2023-03-31T15:55:00Z,46.15,-123.88,7.2,5.0,190,9,,5.0,29.940945,1014.0,,TRUE,TRUE,,,,,,-RA BR,FEW,2500,BKN,3700,OVC,7000,,,MVFR,,,,,,0.03,,,,,,METAR,3.0
KAST 311547Z AUTO 18011G19KT 4SM -RA BR FEW013 BKN024 OVC041 07/05 A2995 RMK AO2 RAB10 P0002 T00670050,KAST,2023-03-31T15:47:00Z,46.15,-123.88,6.7,5.0,180,11,19,4.0,29.949802,,,TRUE,TRUE,,,,,,-RA BR,FEW,1300,BKN,2400,OVC,4100,,,MVFR,,,,,,0.02,,,,,,SPECI,3.0
KAST 311536Z AUTO 17006KT 9SM -RA FEW013 BKN036 OVC046 07/05 A2995 RMK AO2 RAB10 P0002 T00670050,KAST,2023-03-31T15:36:00Z,46.15,-123.88,6.7,5.0,170,6,,9.0,29.949802,,,TRUE,TRUE,,,,,,-RA,FEW,1300,BKN,3600,OVC,4600,,,VFR,,,,,,0.02,,,,,,SPECI,3.0
KAST 311455Z AUTO 17007KT 10SM SCT018 BKN023 OVC060 06/04 A2994 RMK AO2 RAB02E40 SLP140 P0005 60009 T00610044 53003,KAST,2023-03-31T14:55:00Z,46.15,-123.88,6.1,4.4,170,7,,10.0,29.940945,1014.0,,TRUE,TRUE,,,,,,,SCT,1800,BKN,2300,OVC,6000,,,MVFR,0.3,,,,,0.05,0.09,,,,,METAR,3.0
KAST 311412Z AUTO 19009G14KT 3SM -RA BR SCT014 BKN024 OVC050 06/04 A2994 RMK AO2 RAB02 P0005 T00610044,KAST,2023-03-31T14:12:00Z,46.15,-123.88,6.1,4.4,190,9,14,3.0,29.940945,,,TRUE,TRUE,,,,,,-RA BR,SCT,1400,BKN,2400,OVC,5000,,,MVFR,,,,,,0.05,,,,,,SPECI,3.0
KAST 311355Z AUTO 17005KT 10SM FEW025 BKN037 OVC047 06/04 A2994 RMK AO2 RAE00B27E54 SLP137 P0002 T00610044,KAST,2023-03-31T13:55:00Z,46.15,-123.88,6.1,4.4,170,5,,10.0,29.940945,1013.7,,TRUE,TRUE,,,,,,,FEW,2500,BKN,3700,OVC,4700,,,VFR,,,,,,0.02,,,,,,METAR,3.0
KAST 311302Z AUTO 15006KT 10SM FEW020 BKN032 OVC065 06/04 A2994 RMK AO2 RAE00 P0000 T00610044,KAST,2023-03-31T13:02:00Z,46.15,-123.88,6.1,4.4,150,6,,10.0,29.940945,,,TRUE,TRUE,,,,,,,FEW,2000,BKN,3200,OVC,6500,,,VFR,,,,,,0.005,,,,,,SPECI,3.0
KAST 311255Z AUTO 15006KT 8SM -RA SCT018 BKN026 OVC036 06/04 A2994 RMK AO2 RAB32 CIG 021 RWY 08 SLP137 P0002 T00610044,KAST,2023-03-31T12:55:00Z,46.15,-123.88,6.1,4.4,150,6,,8.0,29.940945,1013.7,,TRUE,TRUE,,,,,,-RA,SCT,1800,BKN,2600,OVC,3600,,,MVFR,,,,,,0.02,,,,,,SPECI,3.0
KAST 311214Z AUTO 15006KT 10SM SCT020 BKN026 OVC060 06/04 A2994 RMK AO2 CIG 020 RWY 08 T00610039,KAST,2023-03-31T12:14:00Z,46.15,-123.88,6.1,3.9,150,6,,10.0,29.940945,,,TRUE,TRUE,,,,,,,SCT,2000,BKN,2600,OVC,6000,,,MVFR,,,,,,,,,,,,METAR,3.0
KAST 311155Z AUTO 15004KT 10SM FEW019 SCT025 OVC055 06/04 A2994 RMK AO2 RAE29 SLP137 P0002 60006 70008 T00610044 10072 20061 55005,KAST,2023-03-31T11:55:00Z,46.15,-123.88,6.1,4.4,150,4,,10.0,29.940945,1013.7,,TRUE,TRUE,,,,,,,FEW,1900,SCT,2500,OVC,5500,,,VFR,-0.5,7.2,6.1,,,0.02,,0.06,0.08,,,METAR,3.0
KAST 311055Z AUTO 18005KT 10SM -RA FEW025 BKN036 BKN060 07/04 A2994 RMK AO2 RAB0957E06B49 SLP136 P0000 T00670039,KAST,2023-03-31T10:55:00Z,46.15,-123.88,6.7,3.9,180,5,,10.0,29.940945,1013.6,,TRUE,TRUE,,,,,,-RA,FEW,2500,BKN,3600,BKN,6000,,,VFR,,,,,,0.005,,,,,,METAR,3.0
KAST 311009Z AUTO VRB06KT 10SM FEW021 BKN035 OVC044 07/04 A2995 RMK AO2 RAB0957E06 P0000 T00670039,KAST,2023-03-31T10:09:00Z,46.15,-123.88,6.7,3.9,0,6,,10.0,29.949802,,,TRUE,TRUE,,,,,,,FEW,2100,BKN,3500,OVC,4400,,,VFR,,,,,,0.005,,,,,,SPECI,3.0
KAST 310955Z AUTO 20004KT 10SM SCT021 BKN028 OVC036 07/04 A2995 RMK AO2 RAE06 SLP140 P0000 T00670044,KAST,2023-03-31T09:55:00Z,46.15,-123.88,6.7,4.4,200,4,,10.0,29.949802,1014.0,,TRUE,TRUE,,,,,,,SCT,2100,BKN,2800,OVC,3600,,,MVFR,,,,,,0.005,,,,,,SPECI,3.0
KAST 310855Z AUTO 20007KT 5SM -RA BR SCT014 BKN021 OVC025 07/04 A2995 RMK AO2 RAB23 CIG 016 RWY 08 SLP142 P0003 60004 T00670044 53001,KAST,2023-03-31T08:55:00Z,46.15,-123.88,6.7,4.4,200,7,,5.0,29.949802,1014.2,,TRUE,TRUE,,,,,,-RA BR,SCT,1400,BKN,2100,OVC,2500,,,MVFR,0.1,,,,,0.03,,,,,,SPECI,3.0
KAST 310755Z AUTO 16004KT 10SM FEW018 BKN025 OVC055 06/04 A2995 RMK AO2 RAB0659E36 SLP141 P0000 T00610039 400940033,KAST,2023-03-31T07:55:00Z,46.15,-123.88,6.1,3.9,160,4,,10.0,29.949802,1014.1,,TRUE,TRUE,,,,,,,FEW,1800,BKN,2500,OVC,5500,,,MVFR,,,,9.4,3.3,0.005,,,,,,SPECI,3.0
KAST 310753Z AUTO 15005KT 10SM SCT017 BKN026 OVC055 06/04 A2995 RMK AO2 RAB0659E36 P0000,KAST,2023-03-31T07:53:00Z,46.15,-123.88,6.0,4.0,150,5,,10.0,29.949802,,,TRUE,TRUE,,,,,,,SCT,1700,BKN,2600,OVC,5500,,,MVFR,,,,,,0.005,,,,,,SPECI,3.0
KAST 310655Z AUTO 19009KT 10SM FEW025 BKN040 OVC055 07/04 A2995 RMK AO2 RAB00E20 SLP141 P0001 T00670039,KAST,2023-03-31T06:55:00Z,46.15,-123.88,6.7,3.9,190,9,,10.0,29.949802,1014.1,,TRUE,TRUE,,,,,,,FEW,2500,BKN,4000,OVC,5500,,,VFR,,,,,,0.01,,,,,,METAR,3.0
KAST 310615Z AUTO 18008KT 10SM -RA FEW019 SCT028 OVC037 07/04 A2995 RMK AO2 RAB00 P0001 T00670044,KAST,2023-03-31T06:15:00Z,46.15,-123.88,6.7,4.4,180,8,,10.0,29.949802,,,TRUE,TRUE,,,,,,-RA,FEW,1900,SCT,2800,OVC,3700,,,VFR,,,,,,0.01,,,,,,METAR,3.0
KAST 310555Z AUTO VRB04KT 10SM SCT021 BKN029 OVC037 07/04 A2995 RMK AO2 SLP141 60002 T00670039 10083 20061 51008,KAST,2023-03-31T05:55:00Z,46.15,-123.88,6.7,3.9,0,4,,10.0,29.949802,1014.1,,TRUE,TRUE,,,,,,,SCT,2100,BKN,2900,OVC,3700,,,MVFR,0.8,8.3,6.1,,,,,0.02,,,,METAR,3.0
KAST 310455Z AUTO 19003KT 10SM OVC031 07/04 A2995 RMK AO2 RAB0359E14 SLP141 P0000 T00670044,KAST,2023-03-31T04:55:00Z,46.15,-123.88,6.7,4.4,190,3,,10.0,29.949802,1014.1,,TRUE,TRUE,,,,,,,OVC,3100,,,,,,,VFR,,,,,,0.005,,,,,,METAR,3.0
KAST 310430Z AUTO 16004KT 10SM FEW021 BKN034 OVC041 06/04 A2994 RMK AO2 RAB0359E14 P0000 T00610044,KAST,2023-03-31T04:30:00Z,46.15,-123.88,6.1,4.4,160,4,,10.0,29.940945,,,TRUE,TRUE,,,,,,,FEW,2100,BKN,3400,OVC,4100,,,VFR,,,,,,0.005,,,,,,SPECI,3.0
KAST 310421Z AUTO 16003KT 10SM FEW020 BKN026 OVC039 06/04 A2994 RMK AO2 RAB0359E14 P0000 T00610044,KAST,2023-03-31T04:21:00Z,46.15,-123.88,6.1,4.4,160,3,,10.0,29.940945,,,TRUE,TRUE,,,,,,,FEW,2000,BKN,2600,OVC,3900,,,MVFR,,,,,,0.005,,,,,,SPECI,3.0
KAST 310355Z AUTO 18004KT 10SM FEW024 SCT029 OVC039 07/04 A2993 RMK AO2 RAE0256B12E35 SLP136 P0002 T00670039,KAST,2023-03-31T03:55:00Z,46.15,-123.88,6.7,3.9,180,4,,10.0,29.929134,1013.6,,TRUE,TRUE,,,,,,,FEW,2400,SCT,2900,OVC,3900,,,VFR,,,,,,0.02,,,,,,METAR,3.0
KAST 310255Z AUTO 21007KT 10SM -RA SCT023 OVC035 07/03 A2993 RMK AO2 RAB41 CIG 026 RWY 08 SLP133 P0000 60000 T00670033 51002,KAST,2023-03-31T02:55:00Z,46.15,-123.88,6.7,3.3,210,7,,10.0,29.929134,1013.3,,TRUE,TRUE,,,,,,-RA,SCT,2300,OVC,3500,,,,,VFR,0.2,,,,,0.005,,,,,,SPECI,3.0
KAST 310247Z AUTO 20007KT 6SM -RA FEW019 BKN024 OVC040 07/03 A2993 RMK AO2 RAB41 P0000 T00720028,KAST,2023-03-31T02:47:00Z,46.15,-123.88,7.2,2.8,200,7,,6.0,29.929134,,,TRUE,TRUE,,,,,,-RA,FEW,1900,BKN,2400,OVC,4000,,,MVFR,,,,,,0.005,,,,,,SPECI,3.0
KAST 310155Z AUTO 25009KT 10SM SCT032 OVC055 08/03 A2993 RMK AO2 CIG 035 RWY 08 SLP133 T00830028,KAST,2023-03-31T01:55:00Z,46.15,-123.88,8.3,2.8,250,9,,10.0,29.929134,1013.3,,TRUE,TRUE,,,,,,,SCT,3200,OVC,5500,,,,,VFR,,,,,,,,,,,,METAR,3.0
KAST 310055Z AUTO 25003KT 10SM FEW030 BKN047 OVC055 07/03 A2992 RMK AO2 RAB23E46 SLP131 P0000 T00720028,KAST,2023-03-31T00:55:00Z,46.15,-123.88,7.2,2.8,250,3,,10.0,29.920275,1013.1,,TRUE,TRUE,,,,,,,FEW,3000,BKN,4700,OVC,5500,,,VFR,,,,,,0.005,,,,,,SPECI,3.0
KAST 310041Z AUTO 25008G16KT 10SM -RA FEW025 OVC036 07/03 A2992 RMK AO2 RAB23 P0000 T00720028,KAST,2023-03-31T00:41:00Z,46.15,-123.88,7.2,2.8,250,8,16,10.0,29.920275,,,TRUE,TRUE,,,,,,-RA,FEW,2500,OVC,3600,,,,,VFR,,,,,,0.005,,,,,,SPECI,3.0
KAST 310033Z AUTO 25011KT 7SM -RA BKN027 OVC038 07/03 A2993 RMK AO2 RAB23 P0000 T00720028,KAST,2023-03-31T00:33:00Z,46.15,-123.88,7.2,2.8,250,11,,7.0,29.929134,,,TRUE,TRUE,,,,,,-RA,BKN,2700,OVC,3800,,,,,MVFR,,,,,,0.005,,,,,,SPECI,3.0
KAST 302355Z AUTO 24010KT 10SM FEW030 OVC050 08/02 A2992 RMK AO2 SLP131 T00830022 10094 20083 51002,KAST,2023-03-30T23:55:00Z,46.15,-123.88,8.3,2.2,240,10,,10.0,29.920275,1013.1,,TRUE,TRUE,,,,,,,FEW,3000,OVC,5000,,,,,VFR,0.2,9.4,8.3,,,,,,,,,METAR,3.0
KAST 302255Z AUTO 24012G18KT 10SM FEW027 OVC042 09/03 A2992 RMK AO2 SLP130 T00890028,KAST,2023-03-30T22:55:00Z,46.15,-123.88,8.9,2.8,240,12,18,10.0,29.920275,1013.0,,TRUE,TRUE,,,,,,,FEW,2700,OVC,4200,,,,,VFR,,,,,,,,,,,,METAR,3.0
KAST 302155Z AUTO 24011KT 10SM FEW028 BKN035 OVC042 09/03 A2992 RMK AO2 SLP131 T00890028,KAST,2023-03-30T21:55:00Z,46.15,-123.88,8.9,2.8,240,11,,10.0,29.920275,1013.1,,TRUE,TRUE,,,,,,,FEW,2800,BKN,3500,OVC,4200,,,VFR,,,,,,,,,,,,METAR,3.0
KAST 302055Z AUTO 23008KT 10SM OVC040 09/03 A2991 RMK AO2 SLP129 T00890033 53007,KAST,2023-03-30T20:55:00Z,46.15,-123.88,8.9,3.3,230,8,,10.0,29.911417,1012.9,,TRUE,TRUE,,,,,,,OVC,4000,,,,,,,VFR,0.7,,,,,,,,,,,METAR,3.0
KAST 301955Z AUTO 26011KT 10SM FEW027 OVC036 09/03 A2991 RMK AO2 SLP126 T00890028 PWINO $,KAST,2023-03-30T19:55:00Z,46.15,-123.88,8.9,2.8,260,11,,10.0,29.911417,1012.6,,TRUE,TRUE,TRUE,,,,TRUE,,FEW,2700,OVC,3600,,,,,VFR,,,,,,,,,,,,METAR,3.0
KAST 301855Z AUTO 25008KT SCT027 OVC035 09/03 A2989 RMK AO2 SLP122 T00890028 $,KAST,2023-03-30T18:55:00Z,46.15,-123.88,8.9,2.8,250,8,,,29.890747,1012.2,,TRUE,TRUE,TRUE,,,,,,SCT,2700,OVC,3500,,,,,,,,,,,,,,,,,METAR,3.0
KAST 301851Z AUTO 25009KT SCT028 OVC035 09/03 A2989 RMK AO2 $,KAST,2023-03-30T18:51:00Z,46.15,-123.88,9.0,3.0,250,9,,,29.890747,,,TRUE,TRUE,TRUE,,,,,,SCT,2800,OVC,3500,,,,,,,,,,,,,,,,,SPECI,3.0
KAST 301755Z AUTO 27007KT 10SM BKN028 OVC033 09/03 A2988 RMK AO2 SLP119 T00890033 10089 20044 51007,KAST,2023-03-30T17:55:00Z,46.15,-123.88,8.9,3.3,270,7,,10.0,29.878937,1011.9,,TRUE,TRUE,,,,,,,BKN,2800,OVC,3300,,,,,MVFR,0.7,8.9,4.4,,,,,,,,,METAR,3.0
KAST 301747Z AUTO 25007KT 10SM OVC031 08/03 A2988 RMK AO2 T00830033,KAST,2023-03-30T17:47:00Z,46.15,-123.88,8.3,3.3,250,7,,10.0,29.878937,,,TRUE,TRUE,,,,,,,OVC,3100,,,,,,,VFR,,,,,,,,,,,,METAR,3.0
KAST 301655Z AUTO 26005KT 10SM BKN027 OVC034 08/04 A2987 RMK AO2 SLP116 T00780039,KAST,2023-03-30T16:55:00Z,46.15,-123.88,7.8,3.9,260,5,,10.0,29.870079,1011.6,,TRUE,TRUE,,,,,,,BKN,2700,OVC,3400,,,,,MVFR,,,,,,,,,,,,SPECI,3.0
KAST 301555Z AUTO 12003KT 10SM BKN024 OVC033 07/05 A2987 RMK AO2 SLP115 T00670050,KAST,2023-03-30T15:55:00Z,46.15,-123.88,6.7,5.0,120,3,,10.0,29.870079,1011.5,,TRUE,TRUE,,,,,,,BKN,2400,OVC,3300,,,,,MVFR,,,,,,,,,,,,METAR,3.0
KAST 301455Z AUTO 00000KT 10SM BKN020 OVC031 05/04 A2986 RMK AO2 SLP112 T00500039 53007,KAST,2023-03-30T14:55:00Z,46.15,-123.88,5.0,3.9,0,0,,10.0,29.861221,1011.2,,TRUE,TRUE,,,,,,,BKN,2000,OVC,3100,,,,,MVFR,0.7,,,,,,,,,,,METAR,3.0
KAST 301355Z AUTO 00000KT 10SM OVC018 05/04 A2985 RMK AO2 SLP108 T00500039,KAST,2023-03-30T13:55:00Z,46.15,-123.88,5.0,3.9,0,0,,10.0,29.84941,1010.8,,TRUE,TRUE,,,,,,,OVC,1800,,,,,,,MVFR,,,,,,,,,,,,SPECI,3.0
KAST 301255Z AUTO 08003KT 10SM OVC019 04/03 A2985 RMK AO2 SLP107 T00440033,KAST,2023-03-30T12:55:00Z,46.15,-123.88,4.4,3.3,80,3,,10.0,29.84941,1010.7,,TRUE,TRUE,,,,,,,OVC,1900,,,,,,,MVFR,,,,,,,,,,,,METAR,3.0
KAST 301155Z AUTO 00000KT 10SM SCT008 BKN016 OVC021 05/04 A2984 RMK AO2 SLP105 T00500039 10061 20033 56002,KAST,2023-03-30T11:55:00Z,46.15,-123.88,5.0,3.9,0,0,,10.0,29.840551,1010.5,,TRUE,TRUE,,,,,,,SCT,800,BKN,1600,OVC,2100,,,MVFR,-0.2,6.1,3.3,,,,,,,,,METAR,3.0
KAST 301144Z AUTO 00000KT 10SM SCT008 BKN014 OVC021 06/04 A2984 RMK AO2 T00560044,KAST,2023-03-30T11:44:00Z,46.15,-123.88,5.6,4.4,0,0,,10.0,29.840551,,,TRUE,TRUE,,,,,,,SCT,800,BKN,1400,OVC,2100,,,MVFR,,,,,,,,,,,,SPECI,3.0
KAST 301113Z AUTO 09003KT 10SM BKN008 BKN014 OVC021 05/04 A2985 RMK AO2 T00500039,KAST,2023-03-30T11:13:00Z,46.15,-123.88,5.0,3.9,90,3,,10.0,29.84941,,,TRUE,TRUE,,,,,,,BKN,800,BKN,1400,OVC,2100,,,IFR,,,,,,,,,,,,SPECI,3.0
KAST 301102Z AUTO 00000KT 10SM SCT009 BKN013 OVC018 06/04 A2985 RMK AO2 T00560044,KAST,2023-03-30T11:02:00Z,46.15,-123.88,5.6,4.4,0,0,,10.0,29.84941,,,TRUE,TRUE,,,,,,,SCT,900,BKN,1300,OVC,1800,,,MVFR,,,,,,,,,,,,SPECI,3.0
KAST 301055Z AUTO 08004KT 10SM SCT010 BKN018 OVC023 05/04 A2985 RMK AO2 SLP106 T00500039,KAST,2023-03-30T10:55:00Z,46.15,-123.88,5.0,3.9,80,4,,10.0,29.84941,1010.6,,TRUE,TRUE,,,,,,,SCT,1000,BKN,1800,OVC,2300,,,MVFR,,,,,,,,,,,,METAR,3.0
KAST 300955Z AUTO 00000KT 10SM FEW010 BKN015 OVC020 06/04 A2984 RMK AO2 SLP105 T00560039,KAST,2023-03-30T09:55:00Z,46.15,-123.88,5.6,3.9,0,0,,10.0,29.840551,1010.5,,TRUE,TRUE,,,,,,,FEW,1000,BKN,1500,OVC,2000,,,MVFR,,,,,,,,,,,,METAR,3.0
KAST 300945Z AUTO 00000KT 10SM SCT009 OVC015 05/04 A2984 RMK AO2 CIG 010 RWY 08 T00500039,KAST,2023-03-30T09:45:00Z,46.15,-123.88,5.0,3.9,0,0,,10.0,29.840551,,,TRUE,TRUE,,,,,,,SCT,900,OVC,1500,,,,,MVFR,,,,,,,,,,,,SPECI,3.0
KAST 300855Z AUTO 13003KT 10SM OVC006 04/03 A2985 RMK AO2 SLP107 T00390028 50002,KAST,2023-03-30T08:55:00Z,46.15,-123.88,3.9,2.8,130,3,,10.0,29.84941,1010.7,,TRUE,TRUE,,,,,,,OVC,600,,,,,,,IFR,0.2,,,,,,,,,,,METAR,3.0
KAST 300833Z AUTO 12004KT 10SM BKN006 OVC090 03/02 A2985 RMK AO2 T00330022,KAST,2023-03-30T08:33:00Z,46.15,-123.88,3.3,2.2,120,4,,10.0,29.84941,,,TRUE,TRUE,,,,,,,BKN,600,OVC,9000,,,,,IFR,,,,,,,,,,,,SPECI,3.0
KAST 300811Z AUTO 14003KT 10SM SCT007 SCT090 03/02 A2985 RMK AO2 T00330022,KAST,2023-03-30T08:11:00Z,46.15,-123.88,3.3,2.2,140,3,,10.0,29.84941,,,TRUE,TRUE,,,,,,,SCT,700,SCT,9000,,,,,VFR,,,,,,,,,,,,SPECI,3.0
KAST 300755Z AUTO 12003KT 10SM FEW090 03/02 A2985 RMK AO2 SLP108 T00330022 401440028,KAST,2023-03-30T07:55:00Z,46.15,-123.88,3.3,2.2,120,3,,10.0,29.84941,1010.8,,TRUE,TRUE,,,,,,,FEW,9000,,,,,,,VFR,,,,14.4,2.8,,,,,,,SPECI,3.0
KAST 300655Z AUTO 00000KT 10SM CLR 04/03 A2985 RMK AO2 SLP107 T00440033,KAST,2023-03-30T06:55:00Z,46.15,-123.88,4.4,3.3,0,0,,10.0,29.84941,1010.7,,TRUE,TRUE,,,,,,,CLR,,,,,,,,VFR,,,,,,,,,,,,METAR,3.0
KAST 300555Z AUTO 16006KT 10SM CLR 06/04 A2984 RMK AO2 SLP105 T00560039 10111 20056 50004,KAST,2023-03-30T05:55:00Z,46.15,-123.88,5.6,3.9,160,6,,10.0,29.840551,1010.5,,TRUE,TRUE,,,,,,,CLR,,,,,,,,VFR,0.4,11.1,5.6,,,,,,,,,METAR,3.0
KAST 300455Z AUTO 00000KT 10SM CLR 06/05 A2985 RMK AO2 SLP106 T00610050,KAST,2023-03-30T04:55:00Z,46.15,-123.88,6.1,5.0,0,0,,10.0,29.84941,1010.6,,TRUE,TRUE,,,,,,,CLR,,,,,,,,VFR,,,,,,,,,,,,METAR,3.0
KAST 300355Z AUTO 00000KT 10SM CLR 07/06 A2983 RMK AO2 SLP101 T00720056,KAST,2023-03-30T03:55:00Z,46.15,-123.88,7.2,5.6,0,0,,10.0,29.828741,1010.1,,TRUE,TRUE,,,,,,,CLR,,,,,,,,VFR,,,,,,,,,,,,METAR,3.0
KAST 300255Z AUTO 18003KT 10SM OVC085 09/06 A2983 RMK AO2 SLP101 T00890061 53007,KAST,2023-03-30T02:55:00Z,46.15,-123.88,8.9,6.1,180,3,,10.0,29.828741,1010.1,,TRUE,TRUE,,,,,,,OVC,8500,,,,,,,VFR,0.7,,,,,,,,,,,METAR,3.0
KAST 300155Z AUTO 26005KT 10SM OVC085 09/06 A2982 RMK AO2 SLP099 T00940056,KAST,2023-03-30T01:55:00Z,46.15,-123.88,9.4,5.6,260,5,,10.0,29.819881,1009.9,,TRUE,TRUE,,,,,,,OVC,8500,,,,,,,VFR,,,,,,,,,,,,METAR,3.0
KAST 300055Z AUTO 23009KT 10SM OVC085 10/06 A2981 RMK AO2 SLP095 T01000061,KAST,2023-03-30T00:55:00Z,46.15,-123.88,10.0,6.1,230,9,,10.0,29.811024,1009.5,,TRUE,TRUE,,,,,,,OVC,8500,,,,,,,VFR,,,,,,,,,,,,METAR,3.0
KAST 292355Z AUTO 25009KT 10SM OVC080 11/06 A2981 RMK AO2 SLP094 60000 T01110056 10144 20072 56007,KAST,2023-03-29T23:55:00Z,46.15,-123.88,11.1,5.6,250,9,,10.0,29.811024,1009.4,,TRUE,TRUE,,,,,,,OVC,8000,,,,,,,VFR,-0.7,14.4,7.2,,,,,0.005,,,,METAR,3.0
KAST 292255Z AUTO VRB04KT 10SM SCT080 13/04 A2981 RMK AO2 SLP095 T01330044,KAST,2023-03-29T22:55:00Z,46.15,-123.88,13.3,4.4,0,4,,10.0,29.811024,1009.5,,TRUE,TRUE,,,,,,,SCT,8000,,,,,,,VFR,,,,,,,,,,,,METAR,3.0
KAST 292155Z AUTO 34005KT 10SM BKN090 14/06 A2982 RMK AO2 SLP098 T01440056,KAST,2023-03-29T21:55:00Z,46.15,-123.88,14.4,5.6,340,5,,10.0,29.819881,1009.8,,TRUE,TRUE,,,,,,,BKN,9000,,,,,,,VFR,,,,,,,,,,,,METAR,3.0
KAST 292055Z AUTO 35004KT 10SM CLR 13/06 A2983 RMK AO2 SLP101 60000 T01280061 58002,KAST,2023-03-29T20:55:00Z,46.15,-123.88,12.8,6.1,350,4,,10.0,29.828741,1010.1,,TRUE,TRUE,,,,,,,CLR,,,,,,,,VFR,-0.2,,,,,,0.005,,,,,METAR,3.0
KAST 291955Z AUTO 01011KT 10SM OVC100 09/07 A2984 RMK AO2 SLP104 T00940067,KAST,2023-03-29T19:55:00Z,46.15,-123.88,9.4,6.7,10,11,,10.0,29.840551,1010.4,,TRUE,TRUE,,,,,,,OVC,10000,,,,,,,VFR,,,,,,,,,,,,METAR,3.0
KAST 291855Z AUTO 11006KT 10SM SCT055 BKN070 OVC085 10/07 A2983 RMK AO2 RAB24E47 SLP102 P0000 T01000067,KAST,2023-03-29T18:55:00Z,46.15,-123.88,10.0,6.7,110,6,,10.0,29.828741,1010.2,,TRUE,TRUE,,,,,,,SCT,5500,BKN,7000,OVC,8500,,,VFR,,,,,,0.005,,,,,,METAR,3.0
KAST 291755Z AUTO 35003KT 10SM BKN070 OVC085 07/06 A2984 RMK AO2 SLP103 T00720056 10072 20028 53006,KAST,2023-03-29T17:55:00Z,46.15,-123.88,7.2,5.6,350,3,,10.0,29.840551,1010.3,,TRUE,TRUE,,,,,,,BKN,7000,OVC,8500,,,,,VFR,0.6,7.2,2.8,,,,,,,,,SPECI,3.0
KAST 291655Z AUTO 12003KT 9SM FEW003 OVC060 06/05 A2983 RMK AO2 SLP100 T00560050,KAST,2023-03-29T16:55:00Z,46.15,-123.88,5.6,5.0,120,3,,9.0,29.828741,1010.0,,TRUE,TRUE,,,,,,,FEW,300,OVC,6000,,,,,VFR,,,,,,,,,,,,METAR,3.0
KAST 291648Z AUTO 12004KT 8SM SCT002 OVC060 06/05 A2983 RMK AO2 T00560050,KAST,2023-03-29T16:48:00Z,46.15,-123.88,5.6,5.0,120,4,,8.0,29.828741,,,TRUE,TRUE,,,,,,,SCT,200,OVC,6000,,,,,VFR,,,,,,,,,,,,METAR,3.0
KAST 291555Z AUTO 12005KT 5SM BR BKN002 OVC065 05/04 A2982 RMK AO2 SLP097 T00500044,KAST,2023-03-29T15:55:00Z,46.15,-123.88,5.0,4.4,120,5,,5.0,29.819881,1009.7,,TRUE,TRUE,,,,,,BR,BKN,200,OVC,6500,,,,,LIFR,,,,,,,,,,,,METAR,3.0
KAST 291546Z AUTO 00000KT 2SM BR BKN002 OVC065 05/04 A2982 RMK AO2 VIS 1/2 RWY 08 T00500044,KAST,2023-03-29T15:46:00Z,46.15,-123.88,5.0,4.4,0,0,,2.0,29.819881,,,TRUE,TRUE,,,,,,BR,BKN,200,OVC,6500,,,,,LIFR,,,,,,,,,,,,SPECI,3.0
KAST 291543Z AUTO 00000KT 1SM BR BKN002 OVC065 05/04 A2982 RMK AO2 T00500044,KAST,2023-03-29T15:43:00Z,46.15,-123.88,5.0,4.4,0,0,,1.0,29.819881,,,TRUE,TRUE,,,,,,BR,BKN,200,OVC,6500,,,,,LIFR,,,,,,,,,,,,METAR,3.0
KAST 291522Z AUTO 13003KT 1/4SM FG VV002 04/03 A2982 RMK AO2 T00390033,KAST,2023-03-29T15:22:00Z,46.15,-123.88,3.9,3.3,130,3,,0.25,29.819881,,,TRUE,TRUE,,,,,,FG,OVX,0,,,,,,,LIFR,,,,,,,,,,,200,SPECI,3.0
KAST 291455Z AUTO 00000KT M1/4SM FG VV002 04/03 A2981 RMK AO2 SLP096 T00390033 53008,KAST,2023-03-29T14:55:00Z,46.15,-123.88,3.9,3.3,0,0,,0.25,29.811024,1009.6,,TRUE,TRUE,,,,,,FG,OVX,0,,,,,,,LIFR,0.8,,,,,,,,,,200,METAR,3.0
KAST 291423Z AUTO 00000KT M1/4SM FG VV002 03/03 A2981 RMK AO2 T00330028,KAST,2023-03-29T14:23:00Z,46.15,-123.88,3.3,2.8,0,0,,0.25,29.811024,,,TRUE,TRUE,,,,,,FG,OVX,0,,,,,,,LIFR,,,,,,,,,,,200,METAR,3.0
KAST 291410Z AUTO 00000KT 1/4SM FG VV002 03/03 A2980 RMK AO2 T00280028,KAST,2023-03-29T14:10:00Z,46.15,-123.88,2.8,2.8,0,0,,0.25,29.799213,,,TRUE,TRUE,,,,,,FG,OVX,0,,,,,,,LIFR,,,,,,,,,,,200,METAR,3.0
KAST 291402Z AUTO 00000KT 1 1/4SM BR OVC002 03/03 A2980 RMK AO2 T00330033,KAST,2023-03-29T14:02:00Z,46.15,-123.88,3.3,3.3,0,0,,1.25,29.799213,,,TRUE,TRUE,,,,,,BR,OVC,200,,,,,,,LIFR,,,,,,,,,,,,METAR,3.0
KAST 291355Z AUTO 00000KT 2 1/2SM BR OVC002 03/03 A2979 RMK AO2 VIS 1 3/4 RWY 08 SLP088 T00330028,KAST,2023-03-29T13:55:00Z,46.15,-123.88,3.3,2.8,0,0,,2.5,29.790354,1008.8,,TRUE,TRUE,,,,,,BR,OVC,200,,,,,,,LIFR,,,,,,,,,,,,METAR,3.0
KAST 291343Z AUTO 00000KT 2SM BR BKN002 03/03 A2979 RMK AO2 VIS 3/4 RWY 08 T00330028,KAST,2023-03-29T13:43:00Z,46.15,-123.88,3.3,2.8,0,0,,2.0,29.790354,,,TRUE,TRUE,,,,,,BR,BKN,200,,,,,,,LIFR,,,,,,,,,,,,SPECI,3.0
KAST 291334Z AUTO 09006KT 1 1/4SM BR BKN002 03/02 A2980 RMK AO2 T00280017,KAST,2023-03-29T13:34:00Z,46.15,-123.88,2.8,1.7,90,6,,1.25,29.799213,,,TRUE,TRUE,,,,,,BR,BKN,200,,,,,,,LIFR,,,,,,,,,,,,SPECI,3.0
KAST 291331Z AUTO 08006KT 2 1/2SM BR SCT002 03/02 A2980 RMK AO2 T00280017,KAST,2023-03-29T13:31:00Z,46.15,-123.88,2.8,1.7,80,6,,2.5,29.799213,,,TRUE,TRUE,,,,,,BR,SCT,200,,,,,,,IFR,,,,,,,,,,,,SPECI,3.0
KAST 291255Z AUTO 00000KT 10SM FEW070 OVC095 03/02 A2979 RMK AO2 SLP086 T00280022,KAST,2023-03-29T12:55:00Z,46.15,-123.88,2.8,2.2,0,0,,10.0,29.790354,1008.6,,TRUE,TRUE,,,,,,,FEW,7000,OVC,9500,,,,,VFR,,,,,,,,,,,,SPECI,3.0
KAST 291155Z AUTO 00000KT 8SM SCT055 BKN070 BKN090 04/03 A2979 RMK AO2 SLP088 70021 T00390033 10067 20028 50001,KAST,2023-03-29T11:55:00Z,46.15,-123.88,3.9,3.3,0,0,,8.0,29.790354,1008.8,,TRUE,TRUE,,,,,,,SCT,5500,BKN,7000,BKN,9000,,,VFR,0.1,6.7,2.8,,,,,,0.21,,,METAR,3.0
KAST 291055Z AUTO 14005KT 7SM FEW060 SCT110 03/03 A2979 RMK AO2 SLP088 T00330028,KAST,2023-03-29T10:55:00Z,46.15,-123.88,3.3,2.8,140,5,,7.0,29.790354,1008.8,,TRUE,TRUE,,,,,,,FEW,6000,SCT,11000,,,,,VFR,,,,,,,,,,,,METAR,3.0
KAST 290955Z AUTO 00000KT 10SM CLR 03/03 A2979 RMK AO2 VIS 1 1/4 RWY 08 SLP087 T00330028,KAST,2023-03-29T09:55:00Z,46.15,-123.88,3.3,2.8,0,0,,10.0,29.790354,1008.7,,TRUE,TRUE,,,,,,,CLR,,,,,,,,VFR,,,,,,,,,,,,METAR,3.0
KAST 290921Z AUTO 13003KT 3SM BR FEW004 03/03 A2979 RMK AO2 VIS 1 1/2 RWY 08 T00330028,KAST,2023-03-29T09:21:00Z,46.15,-123.88,3.3,2.8,130,3,,3.0,29.790354,,,TRUE,TRUE,,,,,,BR,FEW,400,,,,,,,MVFR,,,,,,,,,,,,SPECI,3.0
KAST 290909Z AUTO 21003KT 1 3/4SM BR FEW002 03/02 A2979 RMK AO2 T00330022,KAST,2023-03-29T09:09:00Z,46.15,-123.88,3.3,2.2,210,3,,1.75,29.790354,,,TRUE,TRUE,,,,,,BR,FEW,200,,,,,,,IFR,,,,,,,,,,,,SPECI,3.0
KAST 290855Z AUTO 00000KT 7SM FEW001 03/02 A2979 RMK AO2 SLP086 T00330022 55001,KAST,2023-03-29T08:55:00Z,46.15,-123.88,3.3,2.2,0,0,,7.0,29.790354,1008.6,,TRUE,TRUE,,,,,,,FEW,100,,,,,,,VFR,-0.1,,,,,,,,,,,METAR,3.0
KAST 290755Z AUTO 03003KT 10SM CLR 06/04 A2978 RMK AO2 SLP085 T00560044 401060056,KAST,2023-03-29T07:55:00Z,46.15,-123.88,5.6,4.4,30,3,,10.0,29.778543,1008.5,,TRUE,TRUE,,,,,,,CLR,,,,,,,,VFR,,,,10.6,5.6,,,,,,,METAR,3.0
KAST 290655Z AUTO 02007KT 10SM CLR 06/04 A2979 RMK AO2 SLP086 T00560044,KAST,2023-03-29T06:55:00Z,46.15,-123.88,5.6,4.4,20,7,,10.0,29.790354,1008.6,,TRUE,TRUE,,,,,,,CLR,,,,,,,,VFR,,,,,,,,,,,,METAR,3.0
KAST 290555Z AUTO 06009KT 10SM FEW055 SCT065 07/05 A2979 RMK AO2 SLP087 60011 T00670050 10067 20056 50000,KAST,2023-03-29T05:55:00Z,46.15,-123.88,6.7,5.0,60,9,,10.0,29.790354,1008.7,,TRUE,TRUE,,,,,,,FEW,5500,SCT,6500,,,,,VFR,0.0,6.7,5.6,,,,,0.11,,,,METAR,3.0
KAST 290455Z AUTO 10005KT 10SM OVC060 06/05 A2979 RMK AO2 RAE27 SLP089 P0000 T00610050,KAST,2023-03-29T04:55:00Z,46.15,-123.88,6.1,5.0,100,5,,10.0,29.790354,1008.9,,TRUE,TRUE,,,,,,,OVC,6000,,,,,,,VFR,,,,,,0.005,,,,,,METAR,3.0
KAST 290355Z AUTO 09006KT 10SM -RA OVC050 06/04 A2980 RMK AO2 SLP091 P0001 T00610044,KAST,2023-03-29T03:55:00Z,46.15,-123.88,6.1,4.4,90,6,,10.0,29.799213,1009.1,,TRUE,TRUE,,,,,,-RA,OVC,5000,,,,,,,VFR,,,,,,0.01,,,,,,METAR,3.0
KAST 290255Z AUTO 01004KT 9SM -RA BKN049 OVC070 06/04 A2979 RMK AO2 SLP087 P0001 60010 T00560044 51008,KAST,2023-03-29T02:55:00Z,46.15,-123.88,5.6,4.4,10,4,,9.0,29.790354,1008.7,,TRUE,TRUE,,,,,,-RA,BKN,4900,OVC,7000,,,,,VFR,0.8,,,,,0.01,0.1,,,,,METAR,3.0
KAST 290155Z AUTO 00000KT 7SM -RA BKN042 OVC060 06/04 A2978 RMK AO2 SLP085 P0005 T00560039,KAST,2023-03-29T01:55:00Z,46.15,-123.88,5.6,3.9,0,0,,7.0,29.778543,1008.5,,TRUE,TRUE,,,,,,-RA,BKN,4200,OVC,6000,,,,,VFR,,,,,,0.05,,,,,,METAR,3.0
KAST 290055Z AUTO 23005KT 4SM -RA BR SCT028 BKN036 OVC050 06/04 A2978 RMK AO2 SLP084 P0004 T00560044,KAST,2023-03-29T00:55:00Z,46.15,-123.88,5.6,4.4,230,5,,4.0,29.778543,1008.4,,TRUE,TRUE,,,,,,-RA BR,SCT,2800,BKN,3600,OVC,5000,,,MVFR,,,,,,0.04,,,,,,METAR,3.0
KAST 282358Z AUTO 25009KT 3SM -RA BR BKN025 OVC031 06/04 A2977 RMK AO2 P0000 T00610044,KAST,2023-03-28T23:58:00Z,46.15,-123.88,6.1,4.4,250,9,,3.0,29.769686,,,TRUE,TRUE,,,,,,-RA BR,BKN,2500,OVC,3100,,,,,MVFR,,,,,,0.005,,,,,,SPECI,3.0
KAST 282355Z AUTO 25009KT 2 1/2SM -RA BR SCT023 OVC031 06/04 A2977 RMK AO2 RAB2259 SLP079 P0010 60010 T00610044 10106 20061 53019,KAST,2023-03-28T23:55:00Z,46.15,-123.88,6.1,4.4,250,9,,2.5,29.769686,1007.9,,TRUE,TRUE,,,,,,-RA BR,SCT,2300,OVC,3100,,,,,IFR,1.9,10.6,6.1,,,0.1,,0.1,,,,METAR,3.0
KAST 282332Z AUTO 24010KT 2SM RA BR FEW015 OVC032 06/04 A2976 RMK AO2 RAB2259 P0004 T00610039,KAST,2023-03-28T23:32:00Z,46.15,-123.88,6.1,3.9,240,10,,2.0,29.760826,,,TRUE,TRUE,,,,,,RA BR,FEW,1500,OVC,3200,,,,,IFR,,,,,,0.04,,,,,,SPECI,3.0
KAST 282255Z AUTO 22009KT 10SM OVC048 08/03 A2975 RMK AO2 RAB14E47 SLP073 P0000 T00830033,KAST,2023-03-28T22:55:00Z,46.15,-123.88,8.3,3.3,220,9,,10.0,29.749016,1007.3,,TRUE,TRUE,,,,,,,OVC,4800,,,,,,,VFR,,,,,,0.005,,,,,,METAR,3.0
KAST 282155Z AUTO 15007KT 10SM BKN060 OVC070 09/03 A2972 RMK AO2 SLP063 T00940028,KAST,2023-03-28T21:55:00Z,46.15,-123.88,9.4,2.8,150,7,,10.0,29.719488,1006.3,,TRUE,TRUE,,,,,,,BKN,6000,OVC,7000,,,,,VFR,,,,,,,,,,,,METAR,3.0
KAST 282055Z AUTO 13012KT 10SM FEW050 SCT060 OVC075 09/02 A2971 RMK AO2 SLP060 T00940022 51007,KAST,2023-03-28T20:55:00Z,46.15,-123.88,9.4,2.2,130,12,,10.0,29.71063,1006.0,,TRUE,TRUE,,,,,,,FEW,5000,SCT,6000,OVC,7500,,,VFR,0.7,,,,,,,,,,,METAR,3.0
KAST 281955Z AUTO 10015G22KT 10SM BKN046 OVC060 09/02 A2971 RMK AO2 SLP060 T00940017,KAST,2023-03-28T19:55:00Z,46.15,-123.88,9.4,1.7,100,15,22,10.0,29.71063,1006.0,,TRUE,TRUE,,,,,,,BKN,4600,OVC,6000,,,,,VFR,,,,,,,,,,,,SPECI,3.0
KAST 281855Z AUTO VRB05KT 10SM BKN046 10/02 A2970 RMK AO2 SLP056 T01000022,KAST,2023-03-28T18:55:00Z,46.15,-123.88,10.0,2.2,0,5,,10.0,29.698818,1005.6,,TRUE,TRUE,,,,,,,BKN,4600,,,,,,,VFR,,,,,,,,,,,,METAR,3.0
KAST 281755Z AUTO 08010KT 10SM SCT120 09/03 A2969 RMK AO2 SLP052 60000 T00890033 10089 20067 58009,KAST,2023-03-28T17:55:00Z,46.15,-123.88,8.9,3.3,80,10,,10.0,29.68996,1005.2,,TRUE,TRUE,,,,,,,SCT,12000,,,,,,,VFR,-0.9,8.9,6.7,,,,,0.005,,,,METAR,3.0
KAST 281655Z AUTO 08015G22KT 10SM FEW037 OVC100 08/03 A2969 RMK AO2 SLP055 T00830028,KAST,2023-03-28T16:55:00Z,46.15,-123.88,8.3,2.8,80,15,22,10.0,29.68996,1005.5,,TRUE,TRUE,,,,,,,FEW,3700,OVC,10000,,,,,VFR,,,,,,,,,,,,SPECI,3.0
KAST 281555Z AUTO 07009KT 10SM FEW039 BKN070 OVC085 07/03 A2971 RMK AO2 RAE39 SLP060 P0000 T00720033,KAST,2023-03-28T15:55:00Z,46.15,-123.88,7.2,3.3,70,9,,10.0,29.71063,1006.0,,TRUE,TRUE,,,,,,,FEW,3900,BKN,7000,OVC,8500,,,VFR,,,,,,0.005,,,,,,METAR,3.0
KAST 281455Z AUTO 07014KT 10SM -RA SCT060 OVC070 07/03 A2971 RMK AO2 RAE04B47 SLP061 P0000 60000 T00670033 58009,KAST,2023-03-28T14:55:00Z,46.15,-123.88,6.7,3.3,70,14,,10.0,29.71063,1006.1,,TRUE,TRUE,,,,,,-RA,SCT,6000,OVC,7000,,,,,VFR,-0.9,,,,,0.005,0.005,,,,,METAR,3.0
KAST 281355Z AUTO 08018KT 10SM -RA BKN060 OVC080 07/03 A2972 RMK AO2 RAE1257B25 SLP064 P0000 T00670033,KAST,2023-03-28T13:55:00Z,46.15,-123.88,6.7,3.3,80,18,,10.0,29.719488,1006.4,,TRUE,TRUE,,,,,,-RA,BKN,6000,OVC,8000,,,,,VFR,,,,,,0.005,,,,,,METAR,3.0
KAST 281255Z AUTO 07012G20KT 10SM -RA OVC065 07/03 A2974 RMK AO2 RAE08B43 SLP070 P0000 T00720028,KAST,2023-03-28T12:55:00Z,46.15,-123.88,7.2,2.8,70,12,20,10.0,29.740158,1007.0,,TRUE,TRUE,,,,,,-RA,OVC,6500,,,,,,,VFR,,,,,,0.005,,,,,,METAR,3.0
KAST 281155Z AUTO 09012G19KT 10SM -RA BKN060 OVC075 08/03 A2974 RMK AO2 RAB46 SLP071 P0000 60001 70001 T00780028 10100 20072 57021,KAST,2023-03-28T11:55:00Z,46.15,-123.88,7.8,2.8,90,12,19,10.0,29.740158,1007.1,,TRUE,TRUE,,,,,,-RA,BKN,6000,OVC,7500,,,,,VFR,-2.1,10.0,7.2,,,0.005,,0.01,0.01,,,METAR,3.0
KAST 281055Z AUTO 12004KT 10SM BKN060 OVC080 07/03 A2976 RMK AO2 SLP078 T00720028,KAST,2023-03-28T10:55:00Z,46.15,-123.88,7.2,2.8,120,4,,10.0,29.760826,1007.8,,TRUE,TRUE,,,,,,,BKN,6000,OVC,8000,,,,,VFR,,,,,,,,,,,,METAR,3.0
KAST 280955Z AUTO 09009KT 10SM BKN055 OVC075 07/03 A2978 RMK AO2 RAE53 SLP084 P0001 T00720028,KAST,2023-03-28T09:55:00Z,46.15,-123.88,7.2,2.8,90,9,,10.0,29.778543,1008.4,,TRUE,TRUE,,,,,,,BKN,5500,OVC,7500,,,,,VFR,,,,,,0.01,,,,,,METAR,3.0
KAST 280855Z AUTO 12008KT 10SM -RA BKN055 OVC075 08/02 A2980 RMK AO2 RAB31 SLP091 P0000 60000 T00780022 58007,KAST,2023-03-28T08:55:00Z,46.15,-123.88,7.8,2.2,120,8,,10.0,29.799213,1009.1,,TRUE,TRUE,,,,,,-RA,BKN,5500,OVC,7500,,,,,VFR,-0.7,,,,,0.005,0.005,,,,,METAR,3.0
KAST 280755Z AUTO 11015G21KT 10SM OVC060 09/01 A2982 RMK AO2 RAB40E53 SLP096 P0000 T00890011 401280011,KAST,2023-03-28T07:55:00Z,46.15,-123.88,8.9,1.1,110,15,21,10.0,29.819881,1009.6,,TRUE,TRUE,,,,,,,OVC,6000,,,,,,,VFR,,,,12.8,1.1,0.005,,,,,,METAR,3.0
KAST 280655Z AUTO 11014G21KT 10SM OVC050 09/00 A2982 RMK AO2 SLP097 T00940000,KAST,2023-03-28T06:55:00Z,46.15,-123.88,9.4,0.0,110,14,21,10.0,29.819881,1009.7,,TRUE,TRUE,,,,,,,OVC,5000,,,,,,,VFR,,,,,,,,,,,,SPECI,3.0
KAST 280555Z AUTO 10015G28KT 10SM OVC075 10/M01 A2982 RMK AO2 PK WND 12030/0521 SLP098 T01001006 10117 20100 56023,KAST,2023-03-28T05:55:00Z,46.15,-123.88,10.0,-0.6,100,15,28,10.0,29.819881,1009.8,,TRUE,TRUE,,,,,,,OVC,7500,,,,,,,VFR,-2.3,11.7,10.0,,,,,,,,,METAR,3.0
KAST 280455Z AUTO 10018G28KT 10SM OVC090 10/M01 A2983 RMK AO2 PK WND 11032/0400 SLP101 T01001011,KAST,2023-03-28T04:55:00Z,46.15,-123.88,10.0,-1.1,100,18,28,10.0,29.828741,1010.1,,TRUE,TRUE,,,,,,,OVC,9000,,,,,,,VFR,,,,,,,,,,,,SPECI,3.0
KAST 280355Z AUTO 12020G27KT 10SM OVC095 11/M02 A2985 RMK AO2 PK WND 12027/0355 SLP109 T01061017,KAST,2023-03-28T03:55:00Z,46.15,-123.88,10.6,-1.7,120,20,27,10.0,29.84941,1010.9,,TRUE,TRUE,,,,,,,OVC,9500,,,,,,,VFR,,,,,,,,,,,,METAR,3.0
KAST 280255Z AUTO 11014G20KT 10SM BKN070 OVC085 11/M02 A2989 RMK AO2 SLP121 T01111022 58034,KAST,2023-03-28T02:55:00Z,46.15,-123.88,11.1,-2.2,110,14,20,10.0,29.890747,1012.1,,TRUE,TRUE,,,,,,,BKN,7000,OVC,8500,,,,,VFR,-3.4,,,,,,,,,,,METAR,3.0
KAST 280155Z AUTO 11013KT 10SM OVC090 11/M02 A2992 RMK AO2 SLP133 T01111017,KAST,2023-03-28T01:55:00Z,46.15,-123.88,11.1,-1.7,110,13,,10.0,29.920275,1013.3,,TRUE,TRUE,,,,,,,OVC,9000,,,,,,,VFR,,,,,,,,,,,,METAR,3.0
KAST 280055Z AUTO 09006KT 10SM BKN090 OVC100 12/M02 A2996 RMK AO2 SLP144 T01171017,KAST,2023-03-28T00:55:00Z,46.15,-123.88,11.7,-1.7,90,6,,10.0,29.958662,1014.4,,TRUE,TRUE,,,,,,,BKN,9000,OVC,10000,,,,,VFR,,,,,,,,,,,,METAR,3.0
KAST 272355Z AUTO 13008KT 10SM OVC100 12/M03 A2999 RMK AO2 SLP155 T01171028 10128 20078 56026,KAST,2023-03-27T23:55:00Z,46.15,-123.88,11.7,-2.8,130,8,,10.0,29.991142,1015.5,,TRUE,TRUE,,,,,,,OVC,10000,,,,,,,VFR,-2.6,12.8,7.8,,,,,,,,,METAR,3.0
KAST 272255Z AUTO 12012G17KT 10SM CLR 12/M02 A3001 RMK AO2 SLP162 T01221017,KAST,2023-03-27T22:55:00Z,46.15,-123.88,12.2,-1.7,120,12,17,10.0,30.008858,1016.2,,TRUE,TRUE,,,,,,,CLR,,,,,,,,VFR,,,,,,,,,,,,METAR,3.0
KAST 272155Z AUTO 10013KT 10SM CLR 12/M01 A3004 RMK AO2 WSHFT 2050 SLP172 T01221011,KAST,2023-03-27T21:55:00Z,46.15,-123.88,12.2,-1.1,100,13,,10.0,30.041338,1017.2,,TRUE,TRUE,,,,,,,CLR,,,,,,,,VFR,,,,,,,,,,,,METAR,3.0
KAST 272110Z AUTO 14010KT 10SM CLR 12/M01 A3006 RMK AO2 WSHFT 2050 T01171011,KAST,2023-03-27T21:10:00Z,46.15,-123.88,11.7,-1.1,140,10,,10.0,30.059055,,,TRUE,TRUE,,,,,,,CLR,,,,,,,,VFR,,,,,,,,,,,,METAR,3.0
KAST 272055Z AUTO 14011G16KT 10SM CLR 12/M01 A3007 RMK AO2 SLP181 T01221006 57027,KAST,2023-03-27T20:55:00Z,46.15,-123.88,12.2,-0.6,140,11,16,10.0,30.070866,1018.1,,TRUE,TRUE,,,,,,,CLR,,,,,,,,VFR,-2.7,,,,,,,,,,,METAR,3.0
KAST 271955Z AUTO 09010KT 10SM CLR 11/01 A3009 RMK AO2 SLP190 T01110006,KAST,2023-03-27T19:55:00Z,46.15,-123.88,11.1,0.6,90,10,,10.0,30.088583,1019.0,,TRUE,TRUE,,,,,,,CLR,,,,,,,,VFR,,,,,,,,,,,,METAR,3.0
KAST 271855Z AUTO 08013KT 10SM CLR 10/02 A3012 RMK AO2 SLP199 T01000022,KAST,2023-03-27T18:55:00Z,46.15,-123.88,10.0,2.2,80,13,,10.0,30.121063,1019.9,,TRUE,TRUE,,,,,,,CLR,,,,,,,,VFR,,,,,,,,,,,,METAR,3.0
KAST 271755Z AUTO 07011KT 10SM CLR 08/03 A3015 RMK AO2 SLP208 T00830028 10083 20017 56021,KAST,2023-03-27T17:55:00Z,46.15,-123.88,8.3,2.8,70,11,,10.0,30.15059,1020.8,,TRUE,TRUE,,,,,,,CLR,,,,,,,,VFR,-2.1,8.3,1.7,,,,,,,,,METAR,3.0
KAST 271655Z AUTO 07008KT 10SM CLR 06/02 A3017 RMK AO2 SLP215 T00610022,KAST,2023-03-27T16:55:00Z,46.15,-123.88,6.1,2.2,70,8,,10.0,30.171259,1021.5,,TRUE,TRUE,,,,,,,CLR,,,,,,,,VFR,,,,,,,,,,,,METAR,3.0
KAST 271555Z AUTO 07005KT 9SM CLR 04/03 A3019 RMK AO2 SLP222 T00440028,KAST,2023-03-27T15:55:00Z,46.15,-123.88,4.4,2.8,70,5,,9.0,30.188976,1022.2,,TRUE,TRUE,,,,,,,CLR,,,,,,,,VFR,,,,,,,,,,,,METAR,3.0
KAST 271455Z AUTO 07006KT 10SM CLR 02/01 A3021 RMK AO2 SLP229 T00220011 56013,KAST,2023-03-27T14:55:00Z,46.15,-123.88,2.2,1.1,70,6,,10.0,30.209646,1022.9,,TRUE,TRUE,,,,,,,CLR,,,,,,,,VFR,-1.3,,,,,,,,,,,METAR,3.0
KAST 271355Z AUTO 10007KT 10SM CLR 02/01 A3022 RMK AO2 SLP233 T00220006,KAST,2023-03-27T13:55:00Z,46.15,-123.88,2.2,0.6,100,7,,10.0,30.221457,1023.3,,TRUE,TRUE,,,,,,,CLR,,,,,,,,VFR,,,,,,,,,,,,METAR,3.0
KAST 271255Z AUTO 10006KT 10SM CLR 02/01 A3023 RMK AO2 SLP236 T00170006,KAST,2023-03-27T12:55:00Z,46.15,-123.88,1.7,0.6,100,6,,10.0,30.230314,1023.6,,TRUE,TRUE,,,,,,,CLR,,,,,,,,VFR,,,,,,,,,,,,METAR,3.0
KAST 271155Z AUTO 11005KT 10SM CLR 02/01 A3025 RMK AO2 SLP242 70036 T00170006 10028 20011 58016,KAST,2023-03-27T11:55:00Z,46.15,-123.88,1.7,0.6,110,5,,10.0,30.250984,1024.2,,TRUE,TRUE,,,,,,,CLR,,,,,,,,VFR,-1.6,2.8,1.1,,,,,,0.36,,,METAR,3.0
KAST 271055Z AUTO 10006KT 10SM CLR 02/00 A3026 RMK AO2 SLP248 T00170000,KAST,2023-03-27T10:55:00Z,46.15,-123.88,1.7,0.0,100,6,,10.0,30.259842,1024.8,,TRUE,TRUE,,,,,,,CLR,,,,,,,,VFR,,,,,,,,,,,,METAR,3.0
KAST 270955Z AUTO 11004KT 10SM CLR 02/00 A3028 RMK AO2 SLP254 T00170000,KAST,2023-03-27T09:55:00Z,46.15,-123.88,1.7,0.0,110,4,,10.0,30.280512,1025.4,,TRUE,TRUE,,,,,,,CLR,,,,,,,,VFR,,,,,,,,,,,,METAR,3.0
KAST 270855Z AUTO 09004KT 10SM CLR 02/01 A3030 RMK AO2 SLP258 T00170006 58006,KAST,2023-03-27T08:55:00Z,46.15,-123.88,1.7,0.6,90,4,,10.0,30.301182,1025.8,,TRUE,TRUE,,,,,,,CLR,,,,,,,,VFR,-0.6,,,,,,,,,,,METAR,3.0
KAST 270755Z AUTO 00000KT 10SM FEW050 02/01 A3031 RMK AO2 SLP262 T00220011 400890022,KAST,2023-03-27T07:55:00Z,46.15,-123.88,2.2,1.1,0,0,,10.0,30.31004,1026.2,,TRUE,TRUE,,,,,,,FEW,5000,,,,,,,VFR,,,,8.9,2.2,,,,,,,METAR,3.0
KAST 270655Z AUTO 00000KT 10SM CLR 02/01 A3031 RMK AO2 SLP263 T00220011,KAST,2023-03-27T06:55:00Z,46.15,-123.88,2.2,1.1,0,0,,10.0,30.31004,1026.3,,TRUE,TRUE,,,,,,,CLR,,,,,,,,VFR,,,,,,,,,,,,METAR,3.0
KAST 270555Z AUTO 12003KT 10SM BKN050 03/02 A3031 RMK AO2 SLP264 60003 T00280017 10089 20028 50003,KAST,2023-03-27T05:55:00Z,46.15,-123.88,2.8,1.7,120,3,,10.0,30.31004,1026.4,,TRUE,TRUE,,,,,,,BKN,5000,,,,,,,VFR,0.3,8.9,2.8,,,,,,,,,SPECI,3.0
KAST 270455Z AUTO 14004KT 10SM FEW060 03/02 A3032 RMK AO2 RAE19 SLP265 P0000 T00330017,KAST,2023-03-27T04:55:00Z,46.15,-123.88,3.3,1.7,140,4,,10.0,30.318897,1026.5,,TRUE,TRUE,,,,,,,FEW,6000,,,,,,,VFR,,,,,,0.005,,,,,,METAR,3.0
KAST 270416Z AUTO 00000KT 10SM -RA FEW028 BKN033 BKN044 04/02 A3031 RMK AO2 CIG 027 RWY 08 P0000 T00440017,KAST,2023-03-27T04:16:00Z,46.15,-123.88,4.4,1.7,0,0,,10.0,30.31004,,,TRUE,TRUE,,,,,,-RA,FEW,2800,BKN,3300,BKN,4400,,,VFR,,,,,,0.005,,,,,,SPECI,3.0
KAST 270355Z AUTO 00000KT 3SM RA BKN021 BKN034 OVC045 05/01 A3032 RMK AO2 RAB37 SLP265 P0003 T00500011,KAST,2023-03-27T03:55:00Z,46.15,-123.88,5.0,1.1,0,0,,3.0,30.318897,1026.5,,TRUE,TRUE,,,,,,RA,BKN,2100,BKN,3400,OVC,4500,,,MVFR,,,,,,0.03,,,,,,METAR,3.0
KAST 270351Z AUTO VRB04KT 2 1/2SM RA BKN021 BKN034 OVC085 05/01 A3032 RMK AO2 RAB37 P0001,KAST,2023-03-27T03:51:00Z,46.15,-123.88,5.0,1.0,0,4,,2.5,30.318897,,,TRUE,TRUE,,,,,,RA,BKN,2100,BKN,3400,OVC,8500,,,IFR,,,,,,0.01,,,,,,SPECI,3.0
KAST 270255Z AUTO 17004KT 10SM CLR 05/02 A3030 RMK AO2 SLP261 T00500017 56007,KAST,2023-03-27T02:55:00Z,46.15,-123.88,5.0,1.7,170,4,,10.0,30.301182,1026.1,,TRUE,TRUE,,,,,,,CLR,,,,,,,,VFR,-0.7,,,,,,,,,,,METAR,3.0
KAST 270155Z AUTO 21005KT 10SM CLR 07/02 A3031 RMK AO2 SLP262 T00670017,KAST,2023-03-27T01:55:00Z,46.15,-123.88,6.7,1.7,210,5,,10.0,30.31004,1026.2,,TRUE,TRUE,,,,,,,CLR,,,,,,,,VFR,,,,,,,,,,,,SPECI,3.0
KAST 270055Z AUTO 23006KT 10SM FEW028 08/02 A3032 RMK AO2 SLP266 T00780017,KAST,2023-03-27T00:55:00Z,46.15,-123.88,7.8,1.7,230,6,,10.0,30.318897,1026.6,,TRUE,TRUE,,,,,,,FEW,2800,,,,,,,VFR,,,,,,,,,,,,METAR,3.0
KAST 262355Z AUTO 21006KT 10SM CLR 09/02 A3032 RMK AO2 SLP268 60002 T00890022 10089 20044 58001,KAST,2023-03-26T23:55:00Z,46.15,-123.88,8.9,2.2,210,6,,10.0,30.318897,1026.8,,TRUE,TRUE,,,,,,,CLR,,,,,,,,VFR,-0.1,8.9,4.4,,,,,,,,,SPECI,3.0
KAST 262255Z AUTO 19010KT 10SM FEW043 BKN075 BKN090 08/03 A3032 RMK AO2 SLP268 T00780028,KAST,2023-03-26T22:55:00Z,46.15,-123.88,7.8,2.8,190,10,,10.0,30.318897,1026.8,,TRUE,TRUE,,,,,,,FEW,4300,BKN,7500,BKN,9000,,,VFR,,,,,,,,,,,,SPECI,3.0
KAST 262155Z AUTO 20008KT 10SM SCT024 BKN043 OVC075 06/03 A3033 RMK AO2 RAB28E41 SLP269 P0000 T00610028,KAST,2023-03-26T21:55:00Z,46.15,-123.88,6.1,2.8,200,8,,10.0,30.33071,1026.9,,TRUE,TRUE,,,,,,,SCT,2400,BKN,4300,OVC,7500,,,VFR,,,,,,0.005,,,,,,METAR,3.0
KAST 262132Z AUTO 24011KT 9SM -RA SCT020 BKN027 BKN035 07/03 A3033 RMK AO2 RAB28 P0000 T00720028,KAST,2023-03-26T21:32:00Z,46.15,-123.88,7.2,2.8,240,11,,9.0,30.33071,,,TRUE,TRUE,,,,,,-RA,SCT,2000,BKN,2700,BKN,3500,,,MVFR,,,,,,0.005,,,,,,SPECI,3.0
KAST 262055Z AUTO 21010KT 10SM FEW041 SCT110 08/04 A3033 RMK AO2 SLP269 60002 T00830039 53001,KAST,2023-03-26T20:55:00Z,46.15,-123.88,8.3,3.9,210,10,,10.0,30.33071,1026.9,,TRUE,TRUE,,,,,,,FEW,4100,SCT,11000,,,,,VFR,0.1,,,,,,0.02,,,,,METAR,3.0
KAST 261955Z AUTO 27008KT 10SM OVC055 08/03 A3033 RMK AO2 RAB25E35 SLP268 P0000 T00780028,KAST,2023-03-26T19:55:00Z,46.15,-123.88,7.8,2.8,270,8,,10.0,30.33071,1026.8,,TRUE,TRUE,,,,,,,OVC,5500,,,,,,,VFR,,,,,,0.005,,,,,,METAR,3.0
KAST 261855Z AUTO 22003KT 10SM FEW060 08/04 A3032 RMK AO2 RAE18 SLP267 P0002 T00780044,KAST,2023-03-26T18:55:00Z,46.15,-123.88,7.8,4.4,220,3,,10.0,30.318897,1026.7,,TRUE,TRUE,,,,,,,FEW,6000,,,,,,,VFR,,,,,,0.02,,,,,,METAR,3.0
KAST 261818Z AUTO 23003KT 10SM FEW024 BKN032 BKN070 05/02 A3032 RMK AO2 RAE18 P0002 T00500022,KAST,2023-03-26T18:18:00Z,46.15,-123.88,5.0,2.2,230,3,,10.0,30.318897,,,TRUE,TRUE,,,,,,,FEW,2400,BKN,3200,BKN,7000,,,VFR,,,,,,0.02,,,,,,SPECI,3.0
KAST 261806Z AUTO 24005KT 4SM -RA FEW011 OVC023 04/02 A3032 RMK AO2 P0001 T00440017,KAST,2023-03-26T18:06:00Z,46.15,-123.88,4.4,1.7,240,5,,4.0,30.318897,,,TRUE,TRUE,,,,,,-RA,FEW,1100,OVC,2300,,,,,MVFR,,,,,,0.01,,,,,,SPECI,3.0
KAST 261755Z AUTO 25011G20KT 2SM -RA FEW014 BKN021 OVC031 04/02 A3032 RMK AO2 RAE1659B37 SLP268 P0005 60031 T00440017 10072 20033 50006,KAST,2023-03-26T17:55:00Z,46.15,-123.88,4.4,1.7,250,11,20,2.0,30.318897,1026.8,,TRUE,TRUE,,,,,,-RA,FEW,1400,BKN,2100,OVC,3100,,,IFR,0.6,7.2,3.3,,,0.05,,0.31,,,,METAR,3.0
KAST 261742Z AUTO 29010G23KT 2 1/2SM RA FEW017 SCT023 BKN029 05/02 A3033 RMK AO2 RAE1659B37 CIG 024 RWY 08 P0001 T00500022,KAST,2023-03-26T17:42:00Z,46.15,-123.88,5.0,2.2,290,10,23,2.5,30.33071,,,TRUE,TRUE,,,,,,RA,FEW,1700,SCT,2300,BKN,2900,,,IFR,,,,,,0.01,,,,,,SPECI,3.0
KAST 261715Z AUTO 16007KT 10SM SCT021 BKN037 BKN048 06/04 A3031 RMK AO2 RAE1659 P0000 T00610044,KAST,2023-03-26T17:15:00Z,46.15,-123.88,6.1,4.4,160,7,,10.0,30.31004,,,TRUE,TRUE,,,,,,,SCT,2100,BKN,3700,BKN,4800,,,VFR,,,,,,0.005,,,,,,METAR,3.0
KAST 261655Z AUTO 17004KT 9SM -RA BKN020 BKN036 OVC060 05/03 A3031 RMK AO2 RAE07B50 SLP263 P0002 T00500033,KAST,2023-03-26T16:55:00Z,46.15,-123.88,5.0,3.3,170,4,,9.0,30.31004,1026.3,,TRUE,TRUE,,,,,,-RA,BKN,2000,BKN,3600,OVC,6000,,,MVFR,,,,,,0.02,,,,,,METAR,3.0
KAST 261646Z AUTO 21007KT 9SM BKN020 OVC060 05/03 A3031 RMK AO2 RAE07 P0002 T00500033,KAST,2023-03-26T16:46:00Z,46.15,-123.88,5.0,3.3,210,7,,9.0,30.31004,,,TRUE,TRUE,,,,,,,BKN,2000,OVC,6000,,,,,MVFR,,,,,,0.02,,,,,,SPECI,3.0
KAST 261621Z AUTO 13005KT 10SM FEW011 BKN034 OVC060 04/03 A3030 RMK AO2 RAE07 P0002 T00440028,KAST,2023-03-26T16:21:00Z,46.15,-123.88,4.4,2.8,130,5,,10.0,30.301182,,,TRUE,TRUE,,,,,,,FEW,1100,BKN,3400,OVC,6000,,,VFR,,,,,,0.02,,,,,,SPECI,3.0
KAST 261607Z AUTO 13003KT 10SM FEW009 BKN022 OVC048 04/02 A3031 RMK AO2 RAE07 P0002 T00390022,KAST,2023-03-26T16:07:00Z,46.15,-123.88,3.9,2.2,130,3,,10.0,30.31004,,,TRUE,TRUE,,,,,,,FEW,900,BKN,2200,OVC,4800,,,MVFR,,,,,,0.02,,,,,,SPECI,3.0
KAST 261555Z AUTO VRB03KT 2 1/2SM +RA BR FEW009 BKN020 OVC034 04/03 A3031 RMK AO2 SLP262 P0010 T00440028,KAST,2023-03-26T15:55:00Z,46.15,-123.88,4.4,2.8,0,3,,2.5,30.31004,1026.2,,TRUE,TRUE,,,,,,+RA BR,FEW,900,BKN,2000,OVC,3400,,,IFR,,,,,,0.1,,,,,,METAR,3.0
KAST 261552Z AUTO 01004KT 3SM -RA BR SCT012 BKN020 OVC025 04/03 A3031 RMK AO2 P0009,KAST,2023-03-26T15:52:00Z,46.15,-123.88,4.0,3.0,10,4,,3.0,30.31004,,,TRUE,TRUE,,,,,,-RA BR,SCT,1200,BKN,2000,OVC,2500,,,MVFR,,,,,,0.09,,,,,,METAR,3.0
KAST 261545Z AUTO 00000KT 2 1/2SM -RA BR FEW013 BKN023 OVC035 04/03 A3030 RMK AO2 VIS 1 1/4V5 CIG 018 RWY 08 P0009 T00440028,KAST,2023-03-26T15:45:00Z,46.15,-123.88,4.4,2.8,0,0,,2.5,30.301182,,,TRUE,TRUE,,,,,,-RA BR,FEW,1300,BKN,2300,OVC,3500,,,IFR,,,,,,0.09,,,,,,SPECI,3.0
KAST 261455Z AUTO 29005KT 5SM -RA BR SCT015 BKN020 OVC039 04/02 A3030 RMK AO2 SLP260 P0005 60014 T00390022 53002,KAST,2023-03-26T14:55:00Z,46.15,-123.88,3.9,2.2,290,5,,5.0,30.301182,1026.0,,TRUE,TRUE,,,,,,-RA BR,SCT,1500,BKN,2000,OVC,3900,,,MVFR,0.2,,,,,0.05,0.14,,,,,METAR,3.0
KAST 261452Z AUTO 22004KT 4SM -RA BR SCT020 BKN024 OVC039 04/02 A3030 RMK AO2 P0004,KAST,2023-03-26T14:52:00Z,46.15,-123.88,4.0,2.0,220,4,,4.0,30.301182,,,TRUE,TRUE,,,,,,-RA BR,SCT,2000,BKN,2400,OVC,3900,,,MVFR,,,,,,0.04,,,,,,SPECI,3.0
KAST 261418Z AUTO 18005KT 10SM -RA FEW016 FEW022 OVC033 04/02 A3029 RMK AO2 P0002 T00390022,KAST,2023-03-26T14:18:00Z,46.15,-123.88,3.9,2.2,180,5,,10.0,30.28937,,,TRUE,TRUE,,,,,,-RA,FEW,1600,FEW,2200,OVC,3300,,,VFR,,,,,,0.02,,,,,,METAR,3.0
KAST 261355Z AUTO 31006KT 8SM -RA FEW016 BKN025 BKN033 04/02 A3030 RMK AO2 RAE1256B47 SLP258 P0000 T00390022,KAST,2023-03-26T13:55:00Z,46.15,-123.88,3.9,2.2,310,6,,8.0,30.301182,1025.8,,TRUE,TRUE,,,,,,-RA,FEW,1600,BKN,2500,BKN,3300,,,MVFR,,,,,,0.005,,,,,,METAR,3.0
KAST 260655Z AUTO 10004KT 10SM FEW031 BKN055 03/02 A3031 RMK AO2 SLP263 T00280017,KAST,2023-03-26T06:55:00Z,46.15,-123.88,2.8,1.7,100,4,,10.0,30.31004,1026.3,,TRUE,TRUE,,,,,,,FEW,3100,BKN,5500,,,,,VFR,,,,,,,,,,,,METAR,3.0
KAST 260555Z AUTO 16006KT 10SM SCT025 BKN035 BKN047 03/02 A3031 RMK AO2 SLP262 60010 T00330022 10094 20033 51005,KAST,2023-03-26T05:55:00Z,46.15,-123.88,3.3,2.2,160,6,,10.0,30.31004,1026.2,,TRUE,TRUE,,,,,,,SCT,2500,BKN,3500,BKN,4700,,,VFR,0.5,9.4,3.3,,,,,0.1,,,,METAR,3.0
KAST 260455Z AUTO 16004KT 10SM FEW024 FEW029 FEW036 04/02 A3030 RMK AO2 RAE25 SLP260 P0001 T00440022,KAST,2023-03-26T04:55:00Z,46.15,-123.88,4.4,2.2,160,4,,10.0,30.301182,1026.0,,TRUE,TRUE,,,,,,,FEW,2400,FEW,2900,FEW,3600,,,VFR,,,,,,0.01,,,,,,METAR,3.0
KAST 260451Z AUTO 14003KT 10SM FEW019 FEW026 SCT036 05/02 A3030 RMK AO2 RAE25 P0001,KAST,2023-03-26T04:51:00Z,46.15,-123.88,5.0,2.0,140,3,,10.0,30.301182,,,TRUE,TRUE,,,,,,,FEW,1900,FEW,2600,SCT,3600,,,VFR,,,,,,0.01,,,,,,SPECI,3.0
KAST 260423Z AUTO 00000KT 10SM -RA SCT023 BKN029 OVC036 06/03 A3030 RMK AO2 P0001 T00560028,KAST,2023-03-26T04:23:00Z,46.15,-123.88,5.6,2.8,0,0,,10.0,30.301182,,,TRUE,TRUE,,,,,,-RA,SCT,2300,BKN,2900,OVC,3600,,,MVFR,,,,,,0.01,,,,,,SPECI,3.0
KAST 260355Z AUTO 30006KT 6SM -RA FEW024 BKN033 05/02 A3029 RMK AO2 RAB43 CIG 027 RWY 08 SLP257 P0001 T00500022,KAST,2023-03-26T03:55:00Z,46.15,-123.88,5.0,2.2,300,6,,6.0,30.28937,1025.7,,TRUE,TRUE,,,,,,-RA,FEW,2400,BKN,3300,,,,,VFR,,,,,,0.01,,,,,,METAR,3.0
KAST 260348Z AUTO 29008KT 5SM RA BKN026 BKN033 05/02 A3029 RMK AO2 RAB43 P0000 T00500022,KAST,2023-03-26T03:48:00Z,46.15,-123.88,5.0,2.2,290,8,,5.0,30.28937,,,TRUE,TRUE,,,,,,RA,BKN,2600,BKN,3300,,,,,MVFR,,,,,,0.005,,,,,,METAR,3.0
KAST 260255Z AUTO 23003KT 10SM FEW080 05/02 A3029 RMK AO2 RAE22 SLP255 P0002 60008 T00500022 52002,KAST,2023-03-26T02:55:00Z,46.15,-123.88,5.0,2.2,230,3,,10.0,30.28937,1025.5,,TRUE,TRUE,,,,,,,FEW,8000,,,,,,,VFR,0.2,,,,,0.02,,,,,,SPECI,3.0
KAST 260155Z AUTO 31006KT 9SM -RA SCT033 BKN043 OVC065 07/03 A3028 RMK AO2 RAE09B33 CIG 034 RWY 08 SLP254 P0005 T00670028,KAST,2023-03-26T01:55:00Z,46.15,-123.88,6.7,2.8,310,6,,9.0,30.280512,1025.4,,TRUE,TRUE,,,,,,-RA,SCT,3300,BKN,4300,OVC,6500,,,VFR,,,,,,0.05,,,,,,METAR,3.0
KAST 260148Z AUTO 30005KT 3SM -RA FEW017 BKN030 OVC070 06/02 A3029 RMK AO2 RAE09B33 P0004 T00610022,KAST,2023-03-26T01:48:00Z,46.15,-123.88,6.1,2.2,300,5,,3.0,30.28937,,,TRUE,TRUE,,,,,,-RA,FEW,1700,BKN,3000,OVC,7000,,,MVFR,,,,,,0.04,,,,,,SPECI,3.0
KAST 260141Z AUTO 34007KT 2 1/2SM +RA FEW018 BKN028 OVC070 06/02 A3029 RMK AO2 RAE09B33 P0002 T00560017,KAST,2023-03-26T01:41:00Z,46.15,-123.88,5.6,1.7,340,7,,2.5,30.28937,,,TRUE,TRUE,,,,,,+RA,FEW,1800,BKN,2800,OVC,7000,,,IFR,,,,,,0.02,,,,,,SPECI,3.0
KAST 260129Z AUTO 34013KT 10SM SCT023 BKN047 BKN070 06/03 A3028 RMK AO2 RAE09 CIG 035 RWY 08 P0002 T00610028,KAST,2023-03-26T01:29:00Z,46.15,-123.88,6.1,2.8,340,13,,10.0,30.280512,,,TRUE,TRUE,,,,,,,SCT,2300,BKN,4700,BKN,7000,,,VFR,,,,,,0.02,,,,,,SPECI,3.0
KAST 260120Z AUTO 33014G18KT 10SM FEW021 BKN026 BKN034 07/03 A3028 RMK AO2 RAE09 P0002 T00720033,KAST,2023-03-26T01:20:00Z,46.15,-123.88,7.2,3.3,330,14,18,10.0,30.280512,,,TRUE,TRUE,,,,,,,FEW,2100,BKN,2600,BKN,3400,,,MVFR,,,,,,0.02,,,,,,SPECI,3.0
KAST 260102Z AUTO 30007KT 4SM -RA FEW022 BKN030 OVC039 07/03 A3028 RMK AO2 VIS 2 1/2 RWY 08 P0002 T00670033,KAST,2023-03-26T01:02:00Z,46.15,-123.88,6.7,3.3,300,7,,4.0,30.280512,,,TRUE,TRUE,,,,,,-RA,FEW,2200,BKN,3000,OVC,3900,,,MVFR,,,,,,0.02,,,,,,SPECI,3.0
KAST 260055Z AUTO 31010KT 3SM RA FEW022 BKN027 OVC040 06/02 A3028 RMK AO2 WSHFT 0035 RAB42 SLP254 P0001 T00610022,KAST,2023-03-26T00:55:00Z,46.15,-123.88,6.1,2.2,310,10,,3.0,30.280512,1025.4,,TRUE,TRUE,,,,,,RA,FEW,2200,BKN,2700,OVC,4000,,,MVFR,,,,,,0.01,,,,,,METAR,3.0
KAST 260049Z AUTO 34013KT 5SM -RA SCT024 BKN030 OVC040 06/02 A3028 RMK AO2 WSHFT 0035 RAB42 P0000,KAST,2023-03-26T00:49:00Z,46.15,-123.88,6.0,2.0,340,13,,5.0,30.280512,,,TRUE,TRUE,,,,,,-RA,SCT,2400,BKN,3000,OVC,4000,,,MVFR,,,,,,0.005,,,,,,SPECI,3.0
KAST 260012Z AUTO 30007KT 10SM BKN029 OVC039 09/03 A3028 RMK AO2 T00940028,KAST,2023-03-26T00:12:00Z,46.15,-123.88,9.4,2.8,300,7,,10.0,30.280512,,,TRUE,TRUE,,,,,,,BKN,2900,OVC,3900,,,,,MVFR,,,,,,,,,,,,SPECI,3.0
KAST 252355Z AUTO 30012G18KT 10SM SCT026 BKN032 BKN040 09/02 A3028 RMK AO2 RAE2258 SLP253 P0000 60000 T00890022 10094 20050 56006,KAST,2023-03-25T23:55:00Z,46.15,-123.88,8.9,2.2,300,12,18,10.0,30.280512,1025.3,,TRUE,TRUE,,,,,,,SCT,2600,BKN,3200,BKN,4000,,,VFR,-0.6,9.4,5.0,,,0.005,,0.005,,,,METAR,3.0
KAST 252327Z AUTO 28009G15KT 10SM BKN026 OVC085 08/03 A3028 RMK AO2 RAE2258 P0000 T00830028,KAST,2023-03-25T23:27:00Z,46.15,-123.88,8.3,2.8,280,9,15,10.0,30.280512,,,TRUE,TRUE,,,,,,,BKN,2600,OVC,8500,,,,,MVFR,,,,,,0.005,,,,,,SPECI,3.0
KAST 252255Z AUTO 31008KT 10SM -RA FEW023 BKN044 OVC060 08/03 A3029 RMK AO2 RAB42 SLP255 P0000 T00780033,KAST,2023-03-25T22:55:00Z,46.15,-123.88,7.8,3.3,310,8,,10.0,30.28937,1025.5,,TRUE,TRUE,,,,,,-RA,FEW,2300,BKN,4400,OVC,6000,,,VFR,,,,,,0.005,,,,,,SPECI,3.0
KAST 252246Z AUTO 32008KT 7SM -RA SCT025 BKN030 BKN043 07/02 A3029 RMK AO2 RAB42 CIG 025 RWY 08 P0000 T00720022,KAST,2023-03-25T22:46:00Z,46.15,-123.88,7.2,2.2,320,8,,7.0,30.28937,,,TRUE,TRUE,,,,,,-RA,SCT,2500,BKN,3000,BKN,4300,,,MVFR,,,,,,0.005,,,,,,METAR,3.0
KAST 252236Z AUTO 35010KT 10SM BKN025 07/02 A3029 RMK AO2 T00720022,KAST,2023-03-25T22:36:00Z,46.15,-123.88,7.2,2.2,350,10,,10.0,30.28937,,,TRUE,TRUE,,,,,,,BKN,2500,,,,,,,MVFR,,,,,,,,,,,,METAR,3.0
KAST 252155Z AUTO 26011KT 10SM SCT026 BKN031 BKN043 08/03 A3029 RMK AO2 SLP256 T00830028,KAST,2023-03-25T21:55:00Z,46.15,-123.88,8.3,2.8,260,11,,10.0,30.28937,1025.6,,TRUE,TRUE,,,,,,,SCT,2600,BKN,3100,BKN,4300,,,VFR,,,,,,,,,,,,METAR,3.0
KAST 252055Z AUTO 26007KT 10SM FEW019 SCT026 BKN033 08/03 A3030 RMK AO2 SLP259 60000 T00830033 58005,KAST,2023-03-25T20:55:00Z,46.15,-123.88,8.3,3.3,260,7,,10.0,30.301182,1025.9,,TRUE,TRUE,,,,,,,FEW,1900,SCT,2600,BKN,3300,,,VFR,-0.5,,,,,,0.005,,,,,METAR,3.0
KAST 252012Z AUTO 31006KT 10SM BKN023 BKN028 07/02 A3031 RMK AO2 T00720017,KAST,2023-03-25T20:12:00Z,46.15,-123.88,7.2,1.7,310,6,,10.0,30.31004,,,TRUE,TRUE,,,,,,,BKN,2300,BKN,2800,,,,,MVFR,,,,,,,,,,,,SPECI,3.0
KAST 252004Z AUTO VRB05KT 10SM FEW020 SCT026 BKN035 08/04 A3031 RMK AO2 T00780039,KAST,2023-03-25T20:04:00Z,46.15,-123.88,7.8,3.9,0,5,,10.0,30.31004,,,TRUE,TRUE,,,,,,,FEW,2000,SCT,2600,BKN,3500,,,VFR,,,,,,,,,,,,SPECI,3.0
KAST 251955Z AUTO 33004KT 10SM FEW019 SCT024 BKN029 07/03 A3031 RMK AO2 RAB1859E08 CIG 022 RWY 08 SLP263 P0000 T00670028,KAST,2023-03-25T19:55:00Z,46.15,-123.88,6.7,2.8,330,4,,10.0,30.31004,1026.3,,TRUE,TRUE,,,,,,,FEW,1900,SCT,2400,BKN,2900,,,MVFR,,,,,,0.005,,,,,,METAR,3.0
KAST 251928Z AUTO 32004KT 10SM SCT016 BKN023 OVC110 07/03 A3031 RMK AO2 RAB1859E08 P0000 T00720033,KAST,2023-03-25T19:28:00Z,46.15,-123.88,7.2,3.3,320,4,,10.0,30.31004,,,TRUE,TRUE,,,,,,,SCT,1600,BKN,2300,OVC,11000,,,MVFR,,,,,,0.005,,,,,,SPECI,3.0
KAST 251918Z AUTO 22004KT 10SM SCT017 BKN043 OVC080 07/03 A3031 RMK AO2 RAB1859E08 CIG 018 RWY 08 P0000 T00720033,KAST,2023-03-25T19:18:00Z,46.15,-123.88,7.2,3.3,220,4,,10.0,30.31004,,,TRUE,TRUE,,,,,,,SCT,1700,BKN,4300,OVC,8000,,,VFR,,,,,,0.005,,,,,,SPECI,3.0
KAST 251855Z AUTO 10SM BKN012 BKN017 OVC041 06/03 A3032 RMK AO2 RAE1759 SLP265 P0000 T00610033,KAST,2023-03-25T18:55:00Z,46.15,-123.88,6.1,3.3,,,,10.0,30.318897,1026.5,,TRUE,TRUE,,,,,,,BKN,1200,BKN,1700,OVC,4100,,,MVFR,,,,,,0.005,,,,,,SPECI,3.0
KAST 251824Z AUTO 22003KT 10SM BKN012 BKN032 06/04 A3032 RMK AO2 RAE1759 P0000 T00560039,KAST,2023-03-25T18:24:00Z,46.15,-123.88,5.6,3.9,220,3,,10.0,30.318897,,,TRUE,TRUE,,,,,,,BKN,1200,BKN,3200,,,,,MVFR,,,,,,0.005,,,,,,SPECI,3.0
KAST 251814Z AUTO 00000KT 10SM SCT015 OVC032 06/03 A3032 RMK AO2 RAE1759 CIG 010 RWY 08 P0000 T00560028,KAST,2023-03-25T18:14:00Z,46.15,-123.88,5.6,2.8,0,0,,10.0,30.318897,,,TRUE,TRUE,,,,,,,SCT,1500,OVC,3200,,,,,VFR,,,,,,0.005,,,,,,SPECI,3.0
KAST 251755Z AUTO 04003KT 9SM -RA FEW007 BKN016 OVC020 05/03 A3031 RMK AO2 RAB43 SLP264 P0000 60028 T00500028 10050 20011 53005,KAST,2023-03-25T17:55:00Z,46.15,-123.88,5.0,2.8,40,3,,9.0,30.31004,1026.4,,TRUE,TRUE,,,,,,-RA,FEW,700,BKN,1600,OVC,2000,,,MVFR,0.5,5.0,1.1,,,0.005,,0.28,,,,METAR,3.0
KAST 251745Z AUTO 00000KT 7SM -RA SCT006 BKN019 OVC026 04/02 A3031 RMK AO2 RAB43 P0000 T00440022,KAST,2023-03-25T17:45:00Z,46.15,-123.88,4.4,2.2,0,0,,7.0,30.31004,,,TRUE,TRUE,,,,,,-RA,SCT,600,BKN,1900,OVC,2600,,,MVFR,,,,,,0.005,,,,,,SPECI,3.0
KAST 251655Z AUTO 08005KT 10SM BKN006 03/02 A3031 RMK AO2 RAE26 SLP262 P0001 T00330017,KAST,2023-03-25T16:55:00Z,46.15,-123.88,3.3,1.7,80,5,,10.0,30.31004,1026.2,,TRUE,TRUE,,,,,,,BKN,600,,,,,,,IFR,,,,,,0.01,,,,,,SPECI,3.0
KAST 251645Z AUTO 00000KT 10SM BKN006 BKN024 03/02 A3030 RMK AO2 RAE26 P0001 T00330022,KAST,2023-03-25T16:45:00Z,46.15,-123.88,3.3,2.2,0,0,,10.0,30.301182,,,TRUE,TRUE,,,,,,,BKN,600,BKN,2400,,,,,IFR,,,,,,0.01,,,,,,SPECI,3.0
KAST 251636Z AUTO 14004KT 10SM FEW005 SCT026 03/02 A3030 RMK AO2 RAE26 P0001 T00330017,KAST,2023-03-25T16:36:00Z,46.15,-123.88,3.3,1.7,140,4,,10.0,30.301182,,,TRUE,TRUE,,,,,,,FEW,500,SCT,2600,,,,,VFR,,,,,,0.01,,,,,,SPECI,3.0
KAST 251609Z AUTO 00000KT 5SM -RA BR FEW018 BKN027 OVC034 03/02 A3030 RMK AO2 P0000 T00280022,KAST,2023-03-25T16:09:00Z,46.15,-123.88,2.8,2.2,0,0,,5.0,30.301182,,,TRUE,TRUE,,,,,,-RA BR,FEW,1800,BKN,2700,OVC,3400,,,MVFR,,,,,,0.005,,,,,,SPECI,3.0
KAST 251555Z AUTO 00000KT 10SM -RA FEW024 BKN035 OVC070 02/02 A3030 RMK AO2 CIG 029 RWY 08 SLP259 P0004 T00220022,KAST,2023-03-25T15:55:00Z,46.15,-123.88,2.2,2.2,0,0,,10.0,30.301182,1025.9,,TRUE,TRUE,,,,,,-RA,FEW,2400,BKN,3500,OVC,7000,,,VFR,,,,,,0.04,,,,,,METAR,3.0
KAST 251519Z AUTO 26004KT 4SM -RA BR SCT009 OVC019 01/01 A3029 RMK AO2 P0003 T00110006,KAST,2023-03-25T15:19:00Z,46.15,-123.88,1.1,0.6,260,4,,4.0,30.28937,,,TRUE,TRUE,,,,,,-RA BR,SCT,900,OVC,1900,,,,,MVFR,,,,,,0.03,,,,,,SPECI,3.0
KAST 251508Z AUTO 30007KT 4SM RA BR BKN009 OVC017 01/01 A3029 RMK AO2 P0001 T00110006,KAST,2023-03-25T15:08:00Z,46.15,-123.88,1.1,0.6,300,7,,4.0,30.28937,,,TRUE,TRUE,,,,,,RA BR,BKN,900,OVC,1700,,,,,IFR,,,,,,0.01,,,,,,SPECI,3.0
KAST 251455Z AUTO 28006KT 5SM -RA BR OVC010 02/01 A3029 RMK AO2 SLP255 P0006 60023 T00220011 50001,KAST,2023-03-25T14:55:00Z,46.15,-123.88,2.2,1.1,280,6,,5.0,30.28937,1025.5,,TRUE,TRUE,,,,,,-RA BR,OVC,1000,,,,,,,MVFR,0.1,,,,,0.06,0.23,,,,,METAR,3.0
KAST 251422Z AUTO 17005KT 4SM -RA BR BKN014 OVC022 01/00 A3029 RMK AO2 P0002 T00110000,KAST,2023-03-25T14:22:00Z,46.15,-123.88,1.1,0.0,170,5,,4.0,30.28937,,,TRUE,TRUE,,,,,,-RA BR,BKN,1400,OVC,2200,,,,,MVFR,,,,,,0.02,,,,,,SPECI,3.0
KAST 251355Z AUTO 00000KT 4SM -RA BR FEW008 BKN019 OVC026 01/01 A3029 RMK AO2 SNB46E55 SLP257 P0016 T00110006,KAST,2023-03-25T13:55:00Z,46.15,-123.88,1.1,0.6,0,0,,4.0,30.28937,1025.7,,TRUE,TRUE,,,,,,-RA BR,FEW,800,BKN,1900,OVC,2600,,,MVFR,,,,,,0.16,,,,,,METAR,3.0
KAST 251340Z AUTO 29004KT 3SM RA BR FEW008 SCT017 OVC025 01/00 A3030 RMK AO2 P0011 T00110000,KAST,2023-03-25T13:40:00Z,46.15,-123.88,1.1,0.0,290,4,,3.0,30.301182,,,TRUE,TRUE,,,,,,RA BR,FEW,800,SCT,1700,OVC,2500,,,MVFR,,,,,,0.11,,,,,,METAR,3.0
KAST 251323Z AUTO 12004KT 4SM -RA BR FEW015 OVC024 01/00 A3028 RMK AO2 P0008 T00110000,KAST,2023-03-25T13:23:00Z,46.15,-123.88,1.1,0.0,120,4,,4.0,30.280512,,,TRUE,TRUE,,,,,,-RA BR,FEW,1500,OVC,2400,,,,,MVFR,,,,,,0.08,,,,,,SPECI,3.0
KAST 251315Z AUTO VRB04KT 2 1/2SM RA BR OVC020 01/01 A3029 RMK AO2 P0005 T00110006,KAST,2023-03-25T13:15:00Z,46.15,-123.88,1.1,0.6,0,4,,2.5,30.28937,,,TRUE,TRUE,,,,,,RA BR,OVC,2000,,,,,,,IFR,,,,,,0.05,,,,,,SPECI,3.0
KAST 251255Z AUTO 16005KT 6SM -RA BR FEW018 BKN026 OVC043 01/01 A3028 RMK AO2 RAB25 SLP255 P0001 T00110006,KAST,2023-03-25T12:55:00Z,46.15,-123.88,1.1,0.6,160,5,,6.0,30.280512,1025.5,,TRUE,TRUE,,,,,,-RA BR,FEW,1800,BKN,2600,OVC,4300,,,MVFR,,,,,,0.01,,,,,,METAR,3.0
KAST 251155Z AUTO 15003KT 10SM FEW050 01/00 A3028 RMK AO2 RAE1057 SLP254 P0000 60017 70063 T00110000 10028 20011 53001,KAST,2023-03-25T11:55:00Z,46.15,-123.88,1.1,0.0,150,3,,10.0,30.280512,1025.4,,TRUE,TRUE,,,,,,,FEW,5000,,,,,,,VFR,0.1,2.8,1.1,,,0.005,,0.17,0.63,,,METAR,3.0
KAST 251137Z AUTO 16005KT 10SM SCT023 01/00 A3028 RMK AO2 RAE1057 P0000 T00110000,KAST,2023-03-25T11:37:00Z,46.15,-123.88,1.1,0.0,160,5,,10.0,30.280512,,,TRUE,TRUE,,,,,,,SCT,2300,,,,,,,VFR,,,,,,0.005,,,,,,SPECI,3.0
KAST 251119Z AUTO 16003KT 10SM BKN023 OVC032 02/01 A3028 RMK AO2 RAE1057 P0000 T00170006,KAST,2023-03-25T11:19:00Z,46.15,-123.88,1.7,0.6,160,3,,10.0,30.280512,,,TRUE,TRUE,,,,,,,BKN,2300,OVC,3200,,,,,MVFR,,,,,,0.005,,,,,,SPECI,3.0
KAST 251055Z AUTO 16005KT 10SM -RA SCT019 BKN030 OVC050 02/01 A3028 RMK AO2 RAB00 SLP253 P0004 T00170006,KAST,2023-03-25T10:55:00Z,46.15,-123.88,1.7,0.6,160,5,,10.0,30.280512,1025.3,,TRUE,TRUE,,,,,,-RA,SCT,1900,BKN,3000,OVC,5000,,,MVFR,,,,,,0.04,,,,,,SPECI,3.0
KAST 250955Z AUTO 15004KT 10SM BKN019 BKN024 OVC048 02/01 A3028 RMK AO2 RAE49 SLP253 P0003 T00170006,KAST,2023-03-25T09:55:00Z,46.15,-123.88,1.7,0.6,150,4,,10.0,30.280512,1025.3,,TRUE,TRUE,,,,,,,BKN,1900,BKN,2400,OVC,4800,,,MVFR,,,,,,0.03,,,,,,SPECI,3.0
KAST 250855Z AUTO 19003KT 10SM -RA SCT019 BKN025 OVC032 02/02 A3028 RMK AO2 SLP253 P0005 60010 T00220017 55000,KAST,2023-03-25T08:55:00Z,46.15,-123.88,2.2,1.7,190,3,,10.0,30.280512,1025.3,,TRUE,TRUE,,,,,,-RA,SCT,1900,BKN,2500,OVC,3200,,,MVFR,0.0,,,,,0.05,0.1,,,,,METAR,3.0
KAST 250755Z AUTO 15005KT 3SM RA BR OVC019 03/01 A3027 RMK AO2 RAB03 SLP251 P0003 T00280011 400670022,KAST,2023-03-25T07:55:00Z,46.15,-123.88,2.8,1.1,150,5,,3.0,30.268702,1025.1,,TRUE,TRUE,,,,,,RA BR,OVC,1900,,,,,,,MVFR,,,,6.7,2.2,0.03,,,,,,SPECI,3.0
KAST 250712Z AUTO 10004KT 10SM -RA FEW021 BKN028 OVC037 03/02 A3027 RMK AO2 RAB03 P0000 T00280017,KAST,2023-03-25T07:12:00Z,46.15,-123.88,2.8,1.7,100,4,,10.0,30.268702,,,TRUE,TRUE,,,,,,-RA,FEW,2100,BKN,2800,OVC,3700,,,MVFR,,,,,,0.005,,,,,,SPECI,3.0
KAST 250655Z AUTO 07005KT 10SM FEW029 BKN034 OVC090 03/02 A3028 RMK AO2 RAB07E48 SLP252 P0002 T00280017,KAST,2023-03-25T06:55:00Z,46.15,-123.88,2.8,1.7,70,5,,10.0,30.280512,1025.2,,TRUE,TRUE,,,,,,,FEW,2900,BKN,3400,OVC,9000,,,VFR,,,,,,0.02,,,,,,METAR,3.0
KAST 250555Z AUTO 13006KT 10SM FEW029 BKN060 BKN120 02/01 A3028 RMK AO2 RAB19E37 SLP253 P0001 60010 T00220011 10067 20022 50001,KAST,2023-03-25T05:55:00Z,46.15,-123.88,2.2,1.1,130,6,,10.0,30.280512,1025.3,,TRUE,TRUE,,,,,,,FEW,2900,BKN,6000,BKN,12000,,,VFR,0.1,6.7,2.2,,,0.01,,0.1,,,,METAR,3.0
KAST 250524Z AUTO 11006KT 6SM -RA BR FEW007 BKN034 OVC055 03/01 A3029 RMK AO2 RAB19 P0001 T00280011,KAST,2023-03-25T05:24:00Z,46.15,-123.88,2.8,1.1,110,6,,6.0,30.28937,,,TRUE,TRUE,,,,,,-RA BR,FEW,700,BKN,3400,OVC,5500,,,VFR,,,,,,0.01,,,,,,SPECI,3.0
KAST 250513Z AUTO VRB04KT 10SM FEW007 BKN023 BKN031 03/01 A3029 RMK AO2 T00280011,KAST,2023-03-25T05:13:00Z,46.15,-123.88,2.8,1.1,0,4,,10.0,30.28937,,,TRUE,TRUE,,,,,,,FEW,700,BKN,2300,BKN,3100,,,MVFR,,,,,,,,,,,,SPECI,3.0
KAST 250455Z AUTO 16006KT 10SM SCT025 OVC085 03/01 A3029 RMK AO2 RAE25 SLP255 P0001 T00280011,KAST,2023-03-25T04:55:00Z,46.15,-123.88,2.8,1.1,160,6,,10.0,30.28937,1025.5,,TRUE,TRUE,,,,,,,SCT,2500,OVC,8500,,,,,VFR,,,,,,0.01,,,,,,METAR,3.0
KAST 250355Z AUTO 16005KT 10SM -RA FEW031 BKN046 OVC070 02/01 A3028 RMK AO2 RAE0257B45 SLP254 P0000 T00220011,KAST,2023-03-25T03:55:00Z,46.15,-123.88,2.2,1.1,160,5,,10.0,30.280512,1025.4,,TRUE,TRUE,,,,,,-RA,FEW,3100,BKN,4600,OVC,7000,,,VFR,,,,,,0.005,,,,,,METAR,3.0
KAST 250302Z AUTO 18004KT 10SM SCT035 BKN075 OVC100 02/01 A3027 RMK AO2 RAE0257 P0000 T00220011,KAST,2023-03-25T03:02:00Z,46.15,-123.88,2.2,1.1,180,4,,10.0,30.268702,,,TRUE,TRUE,,,,,,,SCT,3500,BKN,7500,OVC,10000,,,VFR,,,,,,0.005,,,,,,METAR,3.0
KAST 250255Z AUTO 18004KT 10SM -RA FEW013 BKN023 OVC075 02/01 A3028 RMK AO2 WSHFT 0202 RAB0157 SLP252 P0008 60008 T00220011 55002,KAST,2023-03-25T02:55:00Z,46.15,-123.88,2.2,1.1,180,4,,10.0,30.280512,1025.2,,TRUE,TRUE,,,,,,-RA,FEW,1300,BKN,2300,OVC,7500,,,MVFR,-0.2,,,,,0.08,0.08,,,,,METAR,3.0
KAST 250218Z AUTO 29020G25KT 5SM RA SCT020 BKN027 OVC060 03/01 A3028 RMK AO2 WSHFT 0202 RAB0157 P0000 T00330006,KAST,2023-03-25T02:18:00Z,46.15,-123.88,3.3,0.6,290,20,25,5.0,30.280512,,,TRUE,TRUE,,,,,,RA,SCT,2000,BKN,2700,OVC,6000,,,MVFR,,,,,,0.005,,,,,,SPECI,3.0
KAST 250155Z AUTO 21006KT 8SM FEW034 SCT045 BKN065 05/02 A3027 RMK AO2 SLP249 T00500022,KAST,2023-03-25T01:55:00Z,46.15,-123.88,5.0,2.2,210,6,,8.0,30.268702,1024.9,,TRUE,TRUE,,,,,,,FEW,3400,SCT,4500,BKN,6500,,,VFR,,,,,,,,,,,,METAR,3.0
KAST 250055Z AUTO 23005KT 10SM SCT075 BKN090 06/03 A3028 RMK AO2 SLP253 T00560028,KAST,2023-03-25T00:55:00Z,46.15,-123.88,5.6,2.8,230,5,,10.0,30.280512,1025.3,,TRUE,TRUE,,,,,,,SCT,7500,BKN,9000,,,,,VFR,,,,,,,,,,,,METAR,3.0
KAST 242355Z AUTO 27015G22KT 10SM FEW019 SCT031 BKN044 06/03 A3028 RMK AO2 RAE42 SLP254 P0001 60023 T00560028 10067 20033 51004,KAST,2023-03-24T23:55:00Z,46.15,-123.88,5.6,2.8,270,15,22,10.0,30.280512,1025.4,,TRUE,TRUE,,,,,,,FEW,1900,SCT,3100,BKN,4400,,,VFR,0.4,6.7,3.3,,,0.01,,0.23,,,,METAR,3.0
KAST 242328Z AUTO 28007G17KT 4SM -RA BR FEW016 BKN029 OVC050 05/03 A3028 RMK AO2 P0001 T00500033,KAST,2023-03-24T23:28:00Z,46.15,-123.88,5.0,3.3,280,7,17,4.0,30.280512,,,TRUE,TRUE,,,,,,-RA BR,FEW,1600,BKN,2900,OVC,5000,,,MVFR,,,,,,0.01,,,,,,SPECI,3.0
KAST 242255Z AUTO 31005KT 10SM -RA FEW013 BKN042 OVC060 06/03 A3028 RMK AO2 SLP253 P0004 T00560033,KAST,2023-03-24T22:55:00Z,46.15,-123.88,5.6,3.3,310,5,,10.0,30.280512,1025.3,,TRUE,TRUE,,,,,,-RA,FEW,1300,BKN,4200,OVC,6000,,,VFR,,,,,,0.04,,,,,,METAR,3.0
KAST 242244Z AUTO 28005KT 7SM -RA FEW013 BKN036 OVC047 05/03 A3028 RMK AO2 P0004 T00500028,KAST,2023-03-24T22:44:00Z,46.15,-123.88,5.0,2.8,280,5,,7.0,30.280512,,,TRUE,TRUE,,,,,,-RA,FEW,1300,BKN,3600,OVC,4700,,,VFR,,,,,,0.04,,,,,,SPECI,3.0
KAST 242203Z AUTO 27006KT 3SM -RA BR SCT017 BKN022 OVC031 04/02 A3028 RMK AO2 P0002 T00390022,KAST,2023-03-24T22:03:00Z,46.15,-123.88,3.9,2.2,270,6,,3.0,30.280512,,,TRUE,TRUE,,,,,,-RA BR,SCT,1700,BKN,2200,OVC,3100,,,MVFR,,,,,,0.02,,,,,,METAR,3.0
KAST 242155Z AUTO VRB04KT 1 3/4SM RA BR SCT015 BKN021 OVC030 04/02 A3028 RMK AO2 SLP252 P0009 T00390022,KAST,2023-03-24T21:55:00Z,46.15,-123.88,3.9,2.2,0,4,,1.75,30.280512,1025.2,,TRUE,TRUE,,,,,,RA BR,SCT,1500,BKN,2100,OVC,3000,,,IFR,,,,,,0.09,,,,,,METAR,3.0
KAST 242153Z AUTO 29010KT 1 3/4SM +RA BR SCT016 BKN023 OVC030 04/02 A3028 RMK AO2 P0007,KAST,2023-03-24T21:53:00Z,46.15,-123.88,4.0,2.0,290,10,,1.75,30.280512,,,TRUE,TRUE,,,,,,+RA BR,SCT,1600,BKN,2300,OVC,3000,,,IFR,,,,,,0.07,,,,,,SPECI,3.0
KAST 242113Z AUTO 31008KT 5SM -RA BR FEW012 BKN024 OVC038 04/02 A3027 RMK AO2 P0004 T00390017,KAST,2023-03-24T21:13:00Z,46.15,-123.88,3.9,1.7,310,8,,5.0,30.268702,,,TRUE,TRUE,,,,,,-RA BR,FEW,1200,BKN,2400,OVC,3800,,,MVFR,,,,,,0.04,,,,,,SPECI,3.0
KAST 242059Z AUTO 31013G24KT 2 1/2SM RA BR FEW013 BKN025 OVC039 04/02 A3027 RMK AO2 CIG 020 RWY 08 P0000 T00390017,KAST,2023-03-24T20:59:00Z,46.15,-123.88,3.9,1.7,310,13,24,2.5,30.268702,,,TRUE,TRUE,,,,,,RA BR,FEW,1300,BKN,2500,OVC,3900,,,IFR,,,,,,0.005,,,,,,SPECI,3.0
KAST 242055Z AUTO 29016G24KT 5SM -RA FEW013 BKN035 OVC045 06/03 A3027 RMK AO2 CIG 025 RWY 08 SLP250 P0003 60009 T00560028 51008,KAST,2023-03-24T20:55:00Z,46.15,-123.88,5.6,2.8,290,16,24,5.0,30.268702,1025.0,,TRUE,TRUE,,,,,,-RA,FEW,1300,BKN,3500,OVC,4500,,,MVFR,0.8,,,,,0.03,0.09,,,,,METAR,3.0
KAST 242031Z AUTO 26007KT 10SM -RA SCT028 BKN036 OVC055 06/03 A3026 RMK AO2 P0003 T00560033,KAST,2023-03-24T20:31:00Z,46.15,-123.88,5.6,3.3,260,7,,10.0,30.259842,,,TRUE,TRUE,,,,,,-RA,SCT,2800,BKN,3600,OVC,5500,,,VFR,,,,,,0.03,,,,,,SPECI,3.0
KAST 241955Z AUTO 31015KT 5SM RA BR SCT018 BKN027 OVC032 04/02 A3026 RMK AO2 RAE14B33 CIG 019 RWY 08 SLP248 P0003 T00440022,KAST,2023-03-24T19:55:00Z,46.15,-123.88,4.4,2.2,310,15,,5.0,30.259842,1024.8,,TRUE,TRUE,,,,,,RA BR,SCT,1800,BKN,2700,OVC,3200,,,MVFR,,,,,,0.03,,,,,,SPECI,3.0
KAST 241916Z AUTO 22007KT 10SM FEW020 BKN055 OVC100 05/03 A3026 RMK AO2 RAE14 P0002 T00500033,KAST,2023-03-24T19:16:00Z,46.15,-123.88,5.0,3.3,220,7,,10.0,30.259842,,,TRUE,TRUE,,,,,,,FEW,2000,BKN,5500,OVC,10000,,,VFR,,,,,,0.02,,,,,,SPECI,3.0
KAST 241900Z AUTO 22008KT 3SM -RA BR FEW013 BKN025 OVC038 04/02 A3026 RMK AO2 P0001 T00390022,KAST,2023-03-24T19:00:00Z,46.15,-123.88,3.9,2.2,220,8,,3.0,30.259842,,,TRUE,TRUE,,,,,,-RA BR,FEW,1300,BKN,2500,OVC,3800,,,MVFR,,,,,,0.01,,,,,,METAR,3.0
KAST 241855Z AUTO 22009KT 1 3/4SM RA BR BKN025 BKN033 OVC045 04/02 A3026 RMK AO2 RAE34B49 SLP247 P0003 T00390017,KAST,2023-03-24T18:55:00Z,46.15,-123.88,3.9,1.7,220,9,,1.75,30.259842,1024.7,,TRUE,TRUE,,,,,,RA BR,BKN,2500,BKN,3300,OVC,4500,,,IFR,,,,,,0.03,,,,,,METAR,3.0
KAST 241838Z AUTO 21008KT 10SM FEW009 BKN031 OVC065 06/04 A3025 RMK AO2 RAE34 P0001 T00560044,KAST,2023-03-24T18:38:00Z,46.15,-123.88,5.6,4.4,210,8,,10.0,30.250984,,,TRUE,TRUE,,,,,,,FEW,900,BKN,3100,OVC,6500,,,VFR,,,,,,0.01,,,,,,SPECI,3.0
KAST 241827Z AUTO 18006KT 6SM -RA BR SCT024 BKN029 OVC065 04/02 A3025 RMK AO2 P0001 T00440022,KAST,2023-03-24T18:27:00Z,46.15,-123.88,4.4,2.2,180,6,,6.0,30.250984,,,TRUE,TRUE,,,,,,-RA BR,SCT,2400,BKN,2900,OVC,6500,,,MVFR,,,,,,0.01,,,,,,SPECI,3.0
KAST 241819Z AUTO 18008KT 10SM -RA SCT025 BKN032 OVC065 05/03 A3025 RMK AO2 P0000 T00500033,KAST,2023-03-24T18:19:00Z,46.15,-123.88,5.0,3.3,180,8,,10.0,30.250984,,,TRUE,TRUE,,,,,,-RA,SCT,2500,BKN,3200,OVC,6500,,,VFR,,,,,,0.005,,,,,,SPECI,3.0
KAST 241755Z AUTO 19006KT 7SM -RA SCT015 BKN026 OVC033 03/02 A3025 RMK AO2 RAE06B16 SLP242 P0004 60013 T00330022 10044 20028 53013,KAST,2023-03-24T17:55:00Z,46.15,-123.88,3.3,2.2,190,6,,7.0,30.250984,1024.2,,TRUE,TRUE,,,,,,-RA,SCT,1500,BKN,2600,OVC,3300,,,MVFR,1.3,4.4,2.8,,,0.04,,0.13,,,,METAR,3.0
KAST 241738Z AUTO 19006KT 4SM -RA BR FEW006 OVC029 03/02 A3024 RMK AO2 RAE06B16 CIG 024 RWY 08 P0003 T00330017,KAST,2023-03-24T17:38:00Z,46.15,-123.88,3.3,1.7,190,6,,4.0,30.239174,,,TRUE,TRUE,,,,,,-RA BR,FEW,600,OVC,2900,,,,,MVFR,,,,,,0.03,,,,,,SPECI,3.0
KAST 241723Z AUTO 16006KT 4SM -RA BR FEW007 BKN032 OVC044 04/02 A3024 RMK AO2 RAE06B16 P0002 T00390022,KAST,2023-03-24T17:23:00Z,46.15,-123.88,3.9,2.2,160,6,,4.0,30.239174,,,TRUE,TRUE,,,,,,-RA BR,FEW,700,BKN,3200,OVC,4400,,,MVFR,,,,,,0.02,,,,,,SPECI,3.0
KAST 241709Z AUTO 14005KT 10SM FEW013 BKN032 OVC050 04/02 A3023 RMK AO2 RAE06 P0001 T00390022,KAST,2023-03-24T17:09:00Z,46.15,-123.88,3.9,2.2,140,5,,10.0,30.230314,,,TRUE,TRUE,,,,,,,FEW,1300,BKN,3200,OVC,5000,,,VFR,,,,,,0.01,,,,,,SPECI,3.0
KAST 241655Z AUTO 16004KT 3SM -RA BR FEW011 BKN019 OVC030 04/02 A3022 RMK AO2 SLP234 P0002 T00390017,KAST,2023-03-24T16:55:00Z,46.15,-123.88,3.9,1.7,160,4,,3.0,30.221457,1023.4,,TRUE,TRUE,,,,,,-RA BR,FEW,1100,BKN,1900,OVC,3000,,,MVFR,,,,,,0.02,,,,,,METAR,3.0
KAST 241652Z AUTO 16004KT 4SM -RA BR BKN018 OVC032 04/02 A3022 RMK AO2 P0002,KAST,2023-03-24T16:52:00Z,46.15,-123.88,4.0,2.0,160,4,,4.0,30.221457,,,TRUE,TRUE,,,,,,-RA BR,BKN,1800,OVC,3200,,,,,MVFR,,,,,,0.02,,,,,,METAR,3.0
KAST 241642Z AUTO 21004KT 3SM -RA BR FEW014 BKN032 OVC048 03/02 A3023 RMK AO2 CIG 025 RWY 08 P0002 T00330017,KAST,2023-03-24T16:42:00Z,46.15,-123.88,3.3,1.7,210,4,,3.0,30.230314,,,TRUE,TRUE,,,,,,-RA BR,FEW,1400,BKN,3200,OVC,4800,,,MVFR,,,,,,0.02,,,,,,METAR,3.0
KAST 241636Z AUTO 21006KT 2 1/2SM RA BR FEW014 BKN025 OVC047 04/02 A3022 RMK AO2 P0001 T00390017,KAST,2023-03-24T16:36:00Z,46.15,-123.88,3.9,1.7,210,6,,2.5,30.221457,,,TRUE,TRUE,,,,,,RA BR,FEW,1400,BKN,2500,OVC,4700,,,IFR,,,,,,0.01,,,,,,SPECI,3.0
KAST 241608Z AUTO 20005KT 10SM -RA BKN036 BKN046 OVC060 03/02 A3021 RMK AO2 P0000 T00330017,KAST,2023-03-24T16:08:00Z,46.15,-123.88,3.3,1.7,200,5,,10.0,30.209646,,,TRUE,TRUE,,,,,,-RA,BKN,3600,BKN,4600,OVC,6000,,,VFR,,,,,,0.005,,,,,,SPECI,3.0
KAST 241555Z AUTO 24005KT 10SM -RA FEW014 BKN027 OVC041 03/01 A3021 RMK AO2 SLP229 P0003 T00280011,KAST,2023-03-24T15:55:00Z,46.15,-123.88,2.8,1.1,240,5,,10.0,30.209646,1022.9,,TRUE,TRUE,,,,,,-RA,FEW,1400,BKN,2700,OVC,4100,,,MVFR,,,,,,0.03,,,,,,METAR,3.0
KAST 241543Z AUTO 26009KT 3SM RA BR FEW014 BKN021 OVC048 03/01 A3021 RMK AO2 P0002 T00280011,KAST,2023-03-24T15:43:00Z,46.15,-123.88,2.8,1.1,260,9,,3.0,30.209646,,,TRUE,TRUE,,,,,,RA BR,FEW,1400,BKN,2100,OVC,4800,,,MVFR,,,,,,0.02,,,,,,SPECI,3.0
KAST 241513Z AUTO 30005KT 10SM -RA BKN035 OVC048 03/02 A3020 RMK AO2 P0000 T00330017,KAST,2023-03-24T15:13:00Z,46.15,-123.88,3.3,1.7,300,5,,10.0,30.200787,,,TRUE,TRUE,,,,,,-RA,BKN,3500,OVC,4800,,,,,VFR,,,,,,0.005,,,,,,SPECI,3.0
KAST 241455Z AUTO 30006KT 8SM -RA FEW014 OVC024 03/01 A3019 RMK AO2 RAB22 SLP223 P0004 60004 T00330011 53016,KAST,2023-03-24T14:55:00Z,46.15,-123.88,3.3,1.1,300,6,,8.0,30.188976,1022.3,,TRUE,TRUE,,,,,,-RA,FEW,1400,OVC,2400,,,,,MVFR,1.6,,,,,0.04,0.04,,,,,METAR,3.0
KAST 241435Z AUTO 29012G19KT 5SM RA BR FEW013 BKN021 OVC039 03/01 A3019 RMK AO2 RAB22 P0002 T00330011,KAST,2023-03-24T14:35:00Z,46.15,-123.88,3.3,1.1,290,12,19,5.0,30.188976,,,TRUE,TRUE,,,,,,RA BR,FEW,1300,BKN,2100,OVC,3900,,,MVFR,,,,,,0.02,,,,,,METAR,3.0
KAST 241355Z AUTO 28008KT 10SM BKN047 BKN060 OVC090 04/01 A3016 RMK AO2 SLP214 T00440011,KAST,2023-03-24T13:55:00Z,46.15,-123.88,4.4,1.1,280,8,,10.0,30.159449,1021.4,,TRUE,TRUE,,,,,,,BKN,4700,BKN,6000,OVC,9000,,,VFR,,,,,,,,,,,,METAR,3.0
KAST 241255Z AUTO 16005KT 10SM FEW037 FEW048 SCT065 03/01 A3014 RMK AO2 RAE32 SLP206 P0000 T00280006,KAST,2023-03-24T12:55:00Z,46.15,-123.88,2.8,0.6,160,5,,10.0,30.138779,1020.6,,TRUE,TRUE,,,,,,,FEW,3700,FEW,4800,SCT,6500,,,VFR,,,,,,0.005,,,,,,SPECI,3.0
KAST 241155Z AUTO 31012KT 8SM -RA FEW029 BKN036 BKN060 04/01 A3015 RMK AO2 WSHFT 1139 RAB13E26B50 SLP207 P0001 60020 70060 T00390011 10050 20028 53003,KAST,2023-03-24T11:55:00Z,46.15,-123.88,3.9,1.1,310,12,,8.0,30.15059,1020.7,,TRUE,TRUE,,,,,,-RA,FEW,2900,BKN,3600,BKN,6000,,,VFR,0.3,5.0,2.8,,,0.01,,0.2,0.6,,,METAR,3.0
KAST 241055Z AUTO 27008KT 10SM FEW027 BKN100 05/02 A3014 RMK AO2 RAE0958 SLP205 P0000 T00500017,KAST,2023-03-24T10:55:00Z,46.15,-123.88,5.0,1.7,270,8,,10.0,30.138779,1020.5,,TRUE,TRUE,,,,,,,FEW,2700,BKN,10000,,,,,VFR,,,,,,0.005,,,,,,METAR,3.0
KAST 240955Z AUTO 26007KT 10SM -RA FEW021 FEW027 OVC034 04/02 A3014 RMK AO2 RAE23B30 SLP204 P0014 T00440017,KAST,2023-03-24T09:55:00Z,46.15,-123.88,4.4,1.7,260,7,,10.0,30.138779,1020.4,,TRUE,TRUE,,,,,,-RA,FEW,2100,FEW,2700,OVC,3400,,,VFR,,,,,,0.14,,,,,,SPECI,3.0
KAST 240925Z AUTO 26004KT 10SM FEW021 BKN038 OVC070 03/02 A3013 RMK AO2 RAE23 P0012 T00330017,KAST,2023-03-24T09:25:00Z,46.15,-123.88,3.3,1.7,260,4,,10.0,30.129921,,,TRUE,TRUE,,,,,,,FEW,2100,BKN,3800,OVC,7000,,,VFR,,,,,,0.12,,,,,,SPECI,3.0
KAST 240904Z AUTO 30009KT 3SM RA BR BKN023 OVC030 03/01 A3014 RMK AO2 P0011 T00280006,KAST,2023-03-24T09:04:00Z,46.15,-123.88,2.8,0.6,300,9,,3.0,30.138779,,,TRUE,TRUE,,,,,,RA BR,BKN,2300,OVC,3000,,,,,MVFR,,,,,,0.11,,,,,,METAR,3.0
KAST 240855Z AUTO 26012G19KT 2 1/2SM +RA BR SCT022 SCT028 OVC035 03/02 A3014 RMK AO2 VIS 1 1/4V5 RAB08E26B47 SLP205 P0001 60005 T00330017 53014,KAST,2023-03-24T08:55:00Z,46.15,-123.88,3.3,1.7,260,12,19,2.5,30.138779,1020.5,,TRUE,TRUE,,,,,,+RA BR,SCT,2200,SCT,2800,OVC,3500,,,IFR,1.4,,,,,0.01,0.05,,,,,METAR,3.0
KAST 240755Z AUTO 28010KT 10SM SCT024 BKN033 OVC047 05/02 A3011 RMK AO2 RAE37 SLP196 P0000 T00500022 400780039,KAST,2023-03-24T07:55:00Z,46.15,-123.88,5.0,2.2,280,10,,10.0,30.109253,1019.6,,TRUE,TRUE,,,,,,,SCT,2400,BKN,3300,OVC,4700,,,VFR,,,,7.8,3.9,0.005,,,,,,METAR,3.0
KAST 240718Z AUTO 27009KT 10SM -RA FEW018 BKN037 OVC049 05/03 A3011 RMK AO2 P0000 T00500028,KAST,2023-03-24T07:18:00Z,46.15,-123.88,5.0,2.8,270,9,,10.0,30.109253,,,TRUE,TRUE,,,,,,-RA,FEW,1800,BKN,3700,OVC,4900,,,VFR,,,,,,0.005,,,,,,SPECI,3.0
KAST 240655Z AUTO 29005KT 9SM -RA FEW016 BKN022 OVC032 04/03 A3011 RMK AO2 RAB10 SLP194 P0004 T00440028,KAST,2023-03-24T06:55:00Z,46.15,-123.88,4.4,2.8,290,5,,9.0,30.109253,1019.4,,TRUE,TRUE,,,,,,-RA,FEW,1600,BKN,2200,OVC,3200,,,MVFR,,,,,,0.04,,,,,,SPECI,3.0
KAST 240645Z AUTO 21008KT 7SM -RA SCT017 BKN024 OVC032 04/02 A3011 RMK AO2 RAB10 CIG 019 RWY 08 P0003 T00440022,KAST,2023-03-24T06:45:00Z,46.15,-123.88,4.4,2.2,210,8,,7.0,30.109253,,,TRUE,TRUE,,,,,,-RA,SCT,1700,BKN,2400,OVC,3200,,,MVFR,,,,,,0.03,,,,,,SPECI,3.0
KAST 240555Z AUTO 17006KT 10SM FEW030 SCT050 04/02 A3010 RMK AO2 RAB0456E32 SLP191 P0006 60007 T00390017 10078 20039 51008,KAST,2023-03-24T05:55:00Z,46.15,-123.88,3.9,1.7,170,6,,10.0,30.100393,1019.1,,TRUE,TRUE,,,,,,,FEW,3000,SCT,5000,,,,,VFR,0.8,7.8,3.9,,,0.06,,0.07,,,,METAR,3.0
KAST 240502Z AUTO 21005KT 4SM RA SCT019 BKN035 OVC070 06/03 A3009 RMK AO2 RAB0456 P0001 T00610028,KAST,2023-03-24T05:02:00Z,46.15,-123.88,6.1,2.8,210,5,,4.0,30.088583,,,TRUE,TRUE,,,,,,RA,SCT,1900,BKN,3500,OVC,7000,,,MVFR,,,,,,0.01,,,,,,SPECI,3.0
KAST 240455Z AUTO 23004KT 9SM BKN027 BKN045 OVC070 06/03 A3009 RMK AO2 RAB34E47 SLP189 P0000 T00610028,KAST,2023-03-24T04:55:00Z,46.15,-123.88,6.1,2.8,230,4,,9.0,30.088583,1018.9,,TRUE,TRUE,,,,,,,BKN,2700,BKN,4500,OVC,7000,,,MVFR,,,,,,0.005,,,,,,METAR,3.0
KAST 240451Z AUTO 25005KT 10SM SCT028 BKN045 OVC090 06/03 A3009 RMK AO2 RAB34E47 CIG 037 RWY 08 P0000,KAST,2023-03-24T04:51:00Z,46.15,-123.88,6.0,3.0,250,5,,10.0,30.088583,,,TRUE,TRUE,,,,,,,SCT,2800,BKN,4500,OVC,9000,,,VFR,,,,,,0.005,,,,,,SPECI,3.0
KAST 240435Z AUTO 24007KT 9SM -RA BKN027 BKN040 OVC110 06/03 A3008 RMK AO2 RAB34 P0000 T00610028,KAST,2023-03-24T04:35:00Z,46.15,-123.88,6.1,2.8,240,7,,9.0,30.079725,,,TRUE,TRUE,,,,,,-RA,BKN,2700,BKN,4000,OVC,11000,,,MVFR,,,,,,0.005,,,,,,SPECI,3.0
KAST 240355Z AUTO 20006KT 10SM SCT026 SCT031 BKN039 05/02 A3007 RMK AO2 SLP183 T00500022,KAST,2023-03-24T03:55:00Z,46.15,-123.88,5.0,2.2,200,6,,10.0,30.070866,1018.3,,TRUE,TRUE,,,,,,,SCT,2600,SCT,3100,BKN,3900,,,VFR,,,,,,,,,,,,METAR,3.0
KAST 240255Z AUTO 21006KT 10SM BKN034 05/02 A3006 RMK AO2 RAE49 SLP179 P0001 60001 T00500017 50006,KAST,2023-03-24T02:55:00Z,46.15,-123.88,5.0,1.7,210,6,,10.0,30.059055,1017.9,,TRUE,TRUE,,,,,,,BKN,3400,,,,,,,VFR,0.6,,,,,0.01,0.01,,,,,METAR,3.0
KAST 240155Z AUTO 22010G19KT 8SM -RA SCT031 BKN038 06/02 A3007 RMK AO2 RAB03 SLP180 P0000 T00560017,KAST,2023-03-24T01:55:00Z,46.15,-123.88,5.6,1.7,220,10,19,8.0,30.070866,1018.0,,TRUE,TRUE,,,,,,-RA,SCT,3100,BKN,3800,,,,,VFR,,,,,,0.005,,,,,,METAR,3.0
KAST 240055Z AUTO 25013G19KT 10SM BKN035 08/02 A3005 RMK AO2 SLP175 T00780022,KAST,2023-03-24T00:55:00Z,46.15,-123.88,7.8,2.2,250,13,19,10.0,30.050198,1017.5,,TRUE,TRUE,,,,,,,BKN,3500,,,,,,,VFR,,,,,,,,,,,,METAR,3.0
KAST 232355Z AUTO 20005KT 10SM FEW025 BKN035 OVC060 06/02 A3005 RMK AO2 RAB27E44 SLP174 P0002 60009 T00560022 10072 20044 51024,KAST,2023-03-23T23:55:00Z,46.15,-123.88,5.6,2.2,200,5,,10.0,30.050198,1017.4,,TRUE,TRUE,,,,,,,FEW,2500,BKN,3500,OVC,6000,,,VFR,2.4,7.2,4.4,,,0.02,,,,,,SPECI,3.0
KAST 232347Z AUTO 21005KT 10SM SCT024 BKN034 OVC120 05/02 A3005 RMK AO2 RAB27E44 P0002 T00500022,KAST,2023-03-23T23:47:00Z,46.15,-123.88,5.0,2.2,210,5,,10.0,30.050198,,,TRUE,TRUE,,,,,,,SCT,2400,BKN,3400,OVC,12000,,,VFR,,,,,,0.02,,,,,,SPECI,3.0
KAST 232255Z AUTO 28006KT 10SM BKN018 OVC026 06/03 A3003 RMK AO2 RAE2158 SLP167 P0000 T00560028,KAST,2023-03-23T22:55:00Z,46.15,-123.88,5.6,2.8,280,6,,10.0,30.029528,1016.7,,TRUE,TRUE,,,,,,,BKN,1800,OVC,2600,,,,,MVFR,,,,,,0.005,,,,,,METAR,3.0
KAST 232247Z AUTO 29010KT 10SM BKN018 BKN029 OVC036 06/03 A3003 RMK AO2 RAE2158 P0000 T00610028,KAST,2023-03-23T22:47:00Z,46.15,-123.88,6.1,2.8,290,10,,10.0,30.029528,,,TRUE,TRUE,,,,,,,BKN,1800,BKN,2900,OVC,3600,,,MVFR,,,,,,0.005,,,,,,SPECI,3.0
KAST 232155Z AUTO 24014G22KT 10SM -RA FEW023 BKN043 OVC055 06/03 A3000 RMK AO2 PK WND 27033/2109 SLP158 P0002 T00610028,KAST,2023-03-23T21:55:00Z,46.15,-123.88,6.1,2.8,240,14,22,10.0,30.0,1015.8,,TRUE,TRUE,,,,,,-RA,FEW,2300,BKN,4300,OVC,5500,,,VFR,,,,,,0.02,,,,,,METAR,3.0
KAST 232130Z AUTO 26016G27KT 10SM -RA SCT023 BKN031 OVC055 06/03 A2999 RMK AO2 PK WND 27033/2109 CIG 022 RWY 08 P0002 T00610028,KAST,2023-03-23T21:30:00Z,46.15,-123.88,6.1,2.8,260,16,27,10.0,29.991142,,,TRUE,TRUE,,,,,,-RA,SCT,2300,BKN,3100,OVC,5500,,,VFR,,,,,,0.02,,,,,,SPECI,3.0
KAST 232055Z AUTO 27021G31KT 3SM -RA BR FEW012 BKN021 OVC050 06/03 A2997 RMK AO2 PK WND 26031/2049 SLP149 P0001 60005 T00560033 51006,KAST,2023-03-23T20:55:00Z,46.15,-123.88,5.6,3.3,270,21,31,3.0,29.970472,1014.9,,TRUE,TRUE,,,,,,-RA BR,FEW,1200,BKN,2100,OVC,5000,,,MVFR,0.6,,,,,0.01,0.05,,,,,METAR,3.0
KAST 232052Z AUTO 26020G31KT 3SM -RA BR SCT013 BKN021 OVC050 06/03 A2997 RMK AO2 PK WND 26031/2049 P0001,KAST,2023-03-23T20:52:00Z,46.15,-123.88,6.0,3.0,260,20,31,3.0,29.970472,,,TRUE,TRUE,,,,,,-RA BR,SCT,1300,BKN,2100,OVC,5000,,,MVFR,,,,,,0.01,,,,,,METAR,3.0
KAST 232033Z AUTO 25015G28KT 9SM -RA FEW022 BKN032 OVC060 06/03 A2997 RMK AO2 PK WND 25028/2025 P0001 T00610033,KAST,2023-03-23T20:33:00Z,46.15,-123.88,6.1,3.3,250,15,28,9.0,29.970472,,,TRUE,TRUE,,,,,,-RA,FEW,2200,BKN,3200,OVC,6000,,,VFR,,,,,,0.01,,,,,,SPECI,3.0
KAST 232025Z AUTO 25021G28KT 6SM -RA FEW019 BKN025 OVC044 07/04 A2997 RMK AO2 PK WND 25028/2025 P0001 T00670039,KAST,2023-03-23T20:25:00Z,46.15,-123.88,6.7,3.9,250,21,28,6.0,29.970472,,,TRUE,TRUE,,,,,,-RA,FEW,1900,BKN,2500,OVC,4400,,,MVFR,,,,,,0.01,,,,,,SPECI,3.0
KAST 231955Z AUTO 22011G19KT 7SM -RA SCT025 BKN040 OVC070 06/03 A2996 RMK AO2 SLP145 P0001 T00610033,KAST,2023-03-23T19:55:00Z,46.15,-123.88,6.1,3.3,220,11,19,7.0,29.958662,1014.5,,TRUE,TRUE,,,,,,-RA,SCT,2500,BKN,4000,OVC,7000,,,VFR,,,,,,0.01,,,,,,METAR,3.0
KAST 231925Z AUTO 22006KT 10SM -RA FEW020 BKN026 OVC035 06/03 A2996 RMK AO2 P0001 T00560033,KAST,2023-03-23T19:25:00Z,46.15,-123.88,5.6,3.3,220,6,,10.0,29.958662,,,TRUE,TRUE,,,,,,-RA,FEW,2000,BKN,2600,OVC,3500,,,MVFR,,,,,,0.01,,,,,,SPECI,3.0
KAST 231855Z AUTO 15008KT 7SM -RA SCT028 BKN038 OVC047 05/03 A2996 RMK AO2 RAE18B34 SLP143 P0003 T00500028,KAST,2023-03-23T18:55:00Z,46.15,-123.88,5.0,2.8,150,8,,7.0,29.958662,1014.3,,TRUE,TRUE,,,,,,-RA,SCT,2800,BKN,3800,OVC,4700,,,VFR,,,,,,0.03,,,,,,METAR,3.0
KAST 231818Z AUTO 19004KT 10SM FEW014 BKN036 OVC050 05/03 A2996 RMK AO2 RAE18 P0003 T00500028,KAST,2023-03-23T18:18:00Z,46.15,-123.88,5.0,2.8,190,4,,10.0,29.958662,,,TRUE,TRUE,,,,,,,FEW,1400,BKN,3600,OVC,5000,,,VFR,,,,,,0.03,,,,,,SPECI,3.0
KAST 231805Z AUTO 23010G21KT 4SM -RA BR FEW011 BKN016 OVC023 05/03 A2996 RMK AO2 P0002 T00500028,KAST,2023-03-23T18:05:00Z,46.15,-123.88,5.0,2.8,230,10,21,4.0,29.958662,,,TRUE,TRUE,,,,,,-RA BR,FEW,1100,BKN,1600,OVC,2300,,,MVFR,,,,,,0.02,,,,,,SPECI,3.0
KAST 231755Z AUTO 25013G20KT 210V270 2 1/2SM RA BR BKN015 OVC021 05/03 A2996 RMK AO2 PK WND 25026/1702 RAB02 SLP145 P0020 60024 T00500033 10078 20039 53015,KAST,2023-03-23T17:55:00Z,46.15,-123.88,5.0,3.3,250,13,20,2.5,29.958662,1014.5,,TRUE,TRUE,,,,,,RA BR,BKN,1500,OVC,2100,,,,,IFR,1.5,7.8,3.9,,,0.2,,0.24,,,,METAR,3.0
KAST 231748Z AUTO 27009G21KT 2SM RA BR OVC018 05/03 A2995 RMK AO2 PK WND 25026/1702 RAB02 P0017 T00500033,KAST,2023-03-23T17:48:00Z,46.15,-123.88,5.0,3.3,270,9,21,2.0,29.949802,,,TRUE,TRUE,,,,,,RA BR,OVC,1800,,,,,,,IFR,,,,,,0.17,,,,,,SPECI,3.0
KAST 231722Z AUTO 24008G16KT 3SM RA BR BKN017 OVC022 05/03 A2993 RMK AO2 PK WND 25026/1702 RAB02 P0010 T00500028,KAST,2023-03-23T17:22:00Z,46.15,-123.88,5.0,2.8,240,8,16,3.0,29.929134,,,TRUE,TRUE,,,,,,RA BR,BKN,1700,OVC,2200,,,,,MVFR,,,,,,0.1,,,,,,SPECI,3.0
KAST 231707Z AUTO 23011G26KT 1 3/4SM +RA BR FEW013 OVC022 04/02 A2993 RMK AO2 PK WND 25026/1702 RAB02 P0000 T00440022,KAST,2023-03-23T17:07:00Z,46.15,-123.88,4.4,2.2,230,11,26,1.75,29.929134,,,TRUE,TRUE,,,,,,+RA BR,FEW,1300,OVC,2200,,,,,IFR,,,,,,0.005,,,,,,METAR,3.0
KAST 231655Z AUTO 15007KT 10SM OVC022 07/04 A2990 RMK AO2 RAE34 SLP123 P0001 T00670039,KAST,2023-03-23T16:55:00Z,46.15,-123.88,6.7,3.9,150,7,,10.0,29.899607,1012.3,,TRUE,TRUE,,,,,,,OVC,2200,,,,,,,MVFR,,,,,,0.01,,,,,,METAR,3.0
KAST 231555Z AUTO 17007KT 8SM -RA BKN020 BKN025 OVC037 06/03 A2992 RMK AO2 SLP130 P0001 T00610033,KAST,2023-03-23T15:55:00Z,46.15,-123.88,6.1,3.3,170,7,,8.0,29.920275,1013.0,,TRUE,TRUE,,,,,,-RA,BKN,2000,BKN,2500,OVC,3700,,,MVFR,,,,,,0.01,,,,,,METAR,3.0
KAST 231455Z AUTO 19010G17KT 7SM -RA FEW025 BKN047 OVC070 06/03 A2993 RMK AO2 RAB1357 SLP135 P0002 60002 T00610033 58006,KAST,2023-03-23T14:55:00Z,46.15,-123.88,6.1,3.3,190,10,17,7.0,29.929134,1013.5,,TRUE,TRUE,,,,,,-RA,FEW,2500,BKN,4700,OVC,7000,,,VFR,-0.6,,,,,0.02,,,,,,SPECI,3.0
KAST 231355Z AUTO 20014G23KT 10SM FEW024 SCT044 OVC100 08/03 A2994 RMK AO2 SLP138 T00780028,KAST,2023-03-23T13:55:00Z,46.15,-123.88,7.8,2.8,200,14,23,10.0,29.940945,1013.8,,TRUE,TRUE,,,,,,,FEW,2400,SCT,4400,OVC,10000,,,VFR,,,,,,,,,,,,METAR,3.0
KAST 231255Z AUTO 20007KT 10SM SCT022 SCT029 BKN041 07/04 A2994 RMK AO2 SLP139 T00720044,KAST,2023-03-23T12:55:00Z,46.15,-123.88,7.2,4.4,200,7,,10.0,29.940945,1013.9,,TRUE,TRUE,,,,,,,SCT,2200,SCT,2900,BKN,4100,,,VFR,,,,,,,,,,,,METAR,3.0
KAST 231155Z AUTO 20008KT 10SM SCT028 BKN036 OVC050 07/04 A2995 RMK AO2 RAB10E30 SLP142 P0002 60005 70005 T00720039 10083 20067 56005,KAST,2023-03-23T11:55:00Z,46.15,-123.88,7.2,3.9,200,8,,10.0,29.949802,1014.2,,TRUE,TRUE,,,,,,,SCT,2800,BKN,3600,OVC,5000,,,VFR,-0.5,8.3,6.7,,,0.02,,,0.05,,,SPECI,3.0
KAST 231153Z AUTO 20007KT 10SM SCT028 BKN034 OVC050 07/04 A2995 RMK AO2 RAB10E30 P0002,KAST,2023-03-23T11:53:00Z,46.15,-123.88,7.0,4.0,200,7,,10.0,29.949802,,,TRUE,TRUE,,,,,,,SCT,2800,BKN,3400,OVC,5000,,,VFR,,,,,,0.02,,,,,,SPECI,3.0
KAST 231144Z AUTO 20009KT 10SM FEW018 BKN029 OVC044 07/04 A2995 RMK AO2 RAB10E30 P0002 T00720044,KAST,2023-03-23T11:44:00Z,46.15,-123.88,7.2,4.4,200,9,,10.0,29.949802,,,TRUE,TRUE,,,,,,,FEW,1800,BKN,2900,OVC,4400,,,MVFR,,,,,,0.02,,,,,,METAR,3.0
KAST 231134Z AUTO 22007KT 10SM FEW016 BKN031 OVC044 07/05 A2996 RMK AO2 RAB10E30 P0002 T00720050,KAST,2023-03-23T11:34:00Z,46.15,-123.88,7.2,5.0,220,7,,10.0,29.958662,,,TRUE,TRUE,,,,,,,FEW,1600,BKN,3100,OVC,4400,,,VFR,,,,,,0.02,,,,,,SPECI,3.0
KAST 231110Z AUTO 20005KT 8SM -RA SCT021 BKN027 OVC043 07/04 A2996 RMK AO2 RAB10 CIG 019 RWY 08 P0000 T00720044,KAST,2023-03-23T11:10:00Z,46.15,-123.88,7.2,4.4,200,5,,8.0,29.958662,,,TRUE,TRUE,,,,,,-RA,SCT,2100,BKN,2700,OVC,4300,,,MVFR,,,,,,0.005,,,,,,SPECI,3.0
KAST 231055Z AUTO 20007KT 10SM FEW021 SCT028 BKN033 07/04 A2996 RMK AO2 SLP145 T00720044,KAST,2023-03-23T10:55:00Z,46.15,-123.88,7.2,4.4,200,7,,10.0,29.958662,1014.5,,TRUE,TRUE,,,,,,,FEW,2100,SCT,2800,BKN,3300,,,VFR,,,,,,,,,,,,METAR,3.0
KAST 231010Z AUTO 23004KT 10SM FEW019 SCT025 OVC042 07/04 A2996 RMK AO2 T00720044,KAST,2023-03-23T10:10:00Z,46.15,-123.88,7.2,4.4,230,4,,10.0,29.958662,,,TRUE,TRUE,,,,,,,FEW,1900,SCT,2500,OVC,4200,,,VFR,,,,,,,,,,,,SPECI,3.0
KAST 230955Z AUTO 22006KT 10SM SCT019 BKN025 OVC042 07/05 A2997 RMK AO2 RAE19 SLP147 P0001 T00720050,KAST,2023-03-23T09:55:00Z,46.15,-123.88,7.2,5.0,220,6,,10.0,29.970472,1014.7,,TRUE,TRUE,,,,,,,SCT,1900,BKN,2500,OVC,4200,,,MVFR,,,,,,0.01,,,,,,METAR,3.0
KAST 230855Z AUTO 23009G16KT 7SM -RA FEW016 BKN041 OVC070 07/05 A2996 RMK AO2 RAB47 SLP146 P0000 60002 T00720050 53001,KAST,2023-03-23T08:55:00Z,46.15,-123.88,7.2,5.0,230,9,16,7.0,29.958662,1014.6,,TRUE,TRUE,,,,,,-RA,FEW,1600,BKN,4100,OVC,7000,,,VFR,0.1,,,,,0.005,0.02,,,,,METAR,3.0
KAST 230755Z AUTO 20005KT 10SM FEW025 BKN036 OVC044 07/06 A2996 RMK AO2 RAB0656E53 SLP146 P0002 T00720056 401440017,KAST,2023-03-23T07:55:00Z,46.15,-123.88,7.2,5.6,200,5,,10.0,29.958662,1014.6,,TRUE,TRUE,,,,,,,FEW,2500,BKN,3600,OVC,4400,,,VFR,,,,14.4,1.7,0.02,,,,,,METAR,3.0
KAST 230655Z AUTO 22004KT 10SM SCT041 OVC049 08/05 A2996 RMK AO2 SLP144 T00780050,KAST,2023-03-23T06:55:00Z,46.15,-123.88,7.8,5.0,220,4,,10.0,29.958662,1014.4,,TRUE,TRUE,,,,,,,SCT,4100,OVC,4900,,,,,VFR,,,,,,,,,,,,METAR,3.0
KAST 230602Z AUTO 00000KT 10SM OVC033 08/06 A2996 RMK AO2 T00830056,KAST,2023-03-23T06:02:00Z,46.15,-123.88,8.3,5.6,0,0,,10.0,29.958662,,,TRUE,TRUE,,,,,,,OVC,3300,,,,,,,VFR,,,,,,,,,,,,SPECI,3.0
KAST 230555Z AUTO 00000KT 10SM FEW022 BKN029 OVC035 08/06 A2996 RMK AO2 SLP146 60000 T00780056 10100 20078 51015,KAST,2023-03-23T05:55:00Z,46.15,-123.88,7.8,5.6,0,0,,10.0,29.958662,1014.6,,TRUE,TRUE,,,,,,,FEW,2200,BKN,2900,OVC,3500,,,MVFR,1.5,10.0,7.8,,,,,0.005,,,,METAR,3.0
KAST 230455Z AUTO 24003KT 10SM BKN021 OVC026 08/06 A2995 RMK AO2 SLP142 T00830056,KAST,2023-03-23T04:55:00Z,46.15,-123.88,8.3,5.6,240,3,,10.0,29.949802,1014.2,,TRUE,TRUE,,,,,,,BKN,2100,OVC,2600,,,,,MVFR,,,,,,,,,,,,METAR,3.0
KAST 230355Z AUTO 25006KT 7SM FEW013 OVC020 08/06 A2994 RMK AO2 RAB32E48 SLP137 P0000 T00780056,KAST,2023-03-23T03:55:00Z,46.15,-123.88,7.8,5.6,250,6,,7.0,29.940945,1013.7,,TRUE,TRUE,,,,,,,FEW,1300,OVC,2000,,,,,MVFR,,,,,,0.005,,,,,,SPECI,3.0
KAST 230255Z AUTO 27007KT 9SM OVC018 08/06 A2992 RMK AO2 SLP131 T00830056 51016,KAST,2023-03-23T02:55:00Z,46.15,-123.88,8.3,5.6,270,7,,9.0,29.920275,1013.1,,TRUE,TRUE,,,,,,,OVC,1800,,,,,,,MVFR,1.6,,,,,,,,,,,METAR,3.0
KAST 230155Z AUTO 25008KT 10SM OVC018 09/05 A2991 RMK AO2 SLP127 T00890050,KAST,2023-03-23T01:55:00Z,46.15,-123.88,8.9,5.0,250,8,,10.0,29.911417,1012.7,,TRUE,TRUE,,,,,,,OVC,1800,,,,,,,MVFR,,,,,,,,,,,,METAR,3.0
KAST 230055Z AUTO 29008KT 10SM OVC016 09/06 A2989 RMK AO2 SLP120 T00940056,KAST,2023-03-23T00:55:00Z,46.15,-123.88,9.4,5.6,290,8,,10.0,29.890747,1012.0,,TRUE,TRUE,,,,,,,OVC,1600,,,,,,,MVFR,,,,,,,,,,,,METAR,3.0
KAST 230031Z AUTO 28009KT 10SM OVC016 10/06 A2988 RMK AO2 T01000061,KAST,2023-03-23T00:31:00Z,46.15,-123.88,10.0,6.1,280,9,,10.0,29.878937,,,TRUE,TRUE,,,,,,,OVC,1600,,,,,,,MVFR,,,,,,,,,,,,SPECI,3.0
KAST 222355Z AUTO 28013KT 10SM OVC013 11/06 A2987 RMK AO2 SLP115 T01060061 10144 20100 53019,KAST,2023-03-22T23:55:00Z,46.15,-123.88,10.6,6.1,280,13,,10.0,29.870079,1011.5,,TRUE,TRUE,,,,,,,OVC,1300,,,,,,,MVFR,1.9,14.4,10.0,,,,,,,,,METAR,3.0
KAST 222326Z AUTO 29013KT 10SM BKN014 OVC095 11/07 A2986 RMK AO2 T01060067,KAST,2023-03-22T23:26:00Z,46.15,-123.88,10.6,6.7,290,13,,10.0,29.861221,,,TRUE,TRUE,,,,,,,BKN,1400,OVC,9500,,,,,MVFR,,,,,,,,,,,,SPECI,3.0
KAST 222255Z AUTO 31012KT 10SM OVC090 11/07 A2985 RMK AO2 SLP106 T01110067,KAST,2023-03-22T22:55:00Z,46.15,-123.88,11.1,6.7,310,12,,10.0,29.84941,1010.6,,TRUE,TRUE,,,,,,,OVC,9000,,,,,,,VFR,,,,,,,,,,,,METAR,3.0
KAST 222155Z AUTO 30010KT 10SM CLR 13/07 A2982 RMK AO2 SLP098 T01330072,KAST,2023-03-22T21:55:00Z,46.15,-123.88,13.3,7.2,300,10,,10.0,29.819881,1009.8,,TRUE,TRUE,,,,,,,CLR,,,,,,,,VFR,,,,,,,,,,,,METAR,3.0
KAST 222055Z AUTO 34011KT 10SM CLR 13/07 A2981 RMK AO2 SLP096 T01330072 51006,KAST,2023-03-22T20:55:00Z,46.15,-123.88,13.3,7.2,340,11,,10.0,29.811024,1009.6,,TRUE,TRUE,,,,,,,CLR,,,,,,,,VFR,0.6,,,,,,,,,,,METAR,3.0
KAST 221955Z AUTO 33007KT 10SM CLR 13/07 A2981 RMK AO2 SLP094 T01330067,KAST,2023-03-22T19:55:00Z,46.15,-123.88,13.3,6.7,330,7,,10.0,29.811024,1009.4,,TRUE,TRUE,,,,,,,CLR,,,,,,,,VFR,,,,,,,,,,,,SPECI,3.0
KAST 221855Z AUTO 35005KT 10SM CLR 11/06 A2981 RMK AO2 SLP093 T01060061,KAST,2023-03-22T18:55:00Z,46.15,-123.88,10.6,6.1,350,5,,10.0,29.811024,1009.3,,TRUE,TRUE,,,,,,,CLR,,,,,,,,VFR,,,,,,,,,,,,METAR,3.0
KAST 221755Z AUTO 35004KT 10SM CLR 11/06 A2980 RMK AO2 SLP090 T01110056 10111 20017 51012,KAST,2023-03-22T17:55:00Z,46.15,-123.88,11.1,5.6,350,4,,10.0,29.799213,1009.0,,TRUE,TRUE,,,,,,,CLR,,,,,,,,VFR,1.2,11.1,1.7,,,,,,,,,METAR,3.0
KAST 221655Z AUTO 00000KT 10SM CLR 09/06 A2978 RMK AO2 SLP085 T00890061,KAST,2023-03-22T16:55:00Z,46.15,-123.88,8.9,6.1,0,0,,10.0,29.778543,1008.5,,TRUE,TRUE,,,,,,,CLR,,,,,,,,VFR,,,,,,,,,,,,METAR,3.0
KAST 221555Z AUTO 05003KT 6SM BR CLR 06/04 A2978 RMK AO2 SLP084 T00560044,KAST,2023-03-22T15:55:00Z,46.15,-123.88,5.6,4.4,50,3,,6.0,29.778543,1008.4,,TRUE,TRUE,,,,,,BR,CLR,,,,,,,,VFR,,,,,,,,,,,,SPECI,3.0
KAST 221532Z AUTO 12003KT 9SM SCT002 04/03 A2978 RMK AO2 T00390028,KAST,2023-03-22T15:32:00Z,46.15,-123.88,3.9,2.8,120,3,,9.0,29.778543,,,TRUE,TRUE,,,,,,,SCT,200,,,,,,,VFR,,,,,,,,,,,,SPECI,3.0
KAST 221455Z AUTO 00000KT 3SM BR BKN001 03/02 A2976 RMK AO2 SLP078 T00280017 53012,KAST,2023-03-22T14:55:00Z,46.15,-123.88,2.8,1.7,0,0,,3.0,29.760826,1007.8,,TRUE,TRUE,,,,,,BR,BKN,100,,,,,,,LIFR,1.2,,,,,,,,,,,SPECI,3.0
KAST 221413Z AUTO 09003KT 3SM BR CLR 02/01 A2975 RMK AO2 T00220011,KAST,2023-03-22T14:13:00Z,46.15,-123.88,2.2,1.1,90,3,,3.0,29.749016,,,TRUE,TRUE,,,,,,BR,CLR,,,,,,,,MVFR,,,,,,,,,,,,SPECI,3.0
KAST 221401Z AUTO 09003KT 1 3/4SM BR CLR 02/01 A2975 RMK AO2 VIS 1V5 T00220011,KAST,2023-03-22T14:01:00Z,46.15,-123.88,2.2,1.1,90,3,,1.75,29.749016,,,TRUE,TRUE,,,,,,BR,CLR,,,,,,,,IFR,,,,,,,,,,,,SPECI,3.0
KAST 221355Z AUTO 00000KT 5SM BR CLR 03/02 A2975 RMK AO2 SLP073 T00280017,KAST,2023-03-22T13:55:00Z,46.15,-123.88,2.8,1.7,0,0,,5.0,29.749016,1007.3,,TRUE,TRUE,,,,,,BR,CLR,,,,,,,,MVFR,,,,,,,,,,,,METAR,3.0
KAST 221255Z AUTO 14004KT 10SM CLR 02/01 A2973 RMK AO2 SLP067 T00220006,KAST,2023-03-22T12:55:00Z,46.15,-123.88,2.2,0.6,140,4,,10.0,29.731298,1006.7,,TRUE,TRUE,,,,,,,CLR,,,,,,,,VFR,,,,,,,,,,,,SPECI,3.0
KAST 221155Z AUTO 12003KT 10SM CLR 03/02 A2973 RMK AO2 SLP066 T00280017 10072 20022 51005,KAST,2023-03-22T11:55:00Z,46.15,-123.88,2.8,1.7,120,3,,10.0,29.731298,1006.6,,TRUE,TRUE,,,,,,,CLR,,,,,,,,VFR,0.5,7.2,2.2,,,,,,,,,METAR,3.0
KAST 221055Z AUTO 16003KT 10SM CLR 03/02 A2973 RMK AO2 SLP065 T00280017,KAST,2023-03-22T10:55:00Z,46.15,-123.88,2.8,1.7,160,3,,10.0,29.731298,1006.5,,TRUE,TRUE,,,,,,,CLR,,,,,,,,VFR,,,,,,,,,,,,METAR,3.0
KAST 220955Z AUTO 00000KT 10SM CLR 03/02 A2972 RMK AO2 VIS 2 RWY 08 SLP064 T00330022,KAST,2023-03-22T09:55:00Z,46.15,-123.88,3.3,2.2,0,0,,10.0,29.719488,1006.4,,TRUE,TRUE,,,,,,,CLR,,,,,,,,VFR,,,,,,,,,,,,METAR,3.0
KAST 220855Z AUTO 00000KT 10SM CLR 04/03 A2971 RMK AO2 SLP061 T00440028 55002,KAST,2023-03-22T08:55:00Z,46.15,-123.88,4.4,2.8,0,0,,10.0,29.71063,1006.1,,TRUE,TRUE,,,,,,,CLR,,,,,,,,VFR,-0.2,,,,,,,,,,,METAR,3.0
KAST 220755Z AUTO 11003KT 10SM CLR 05/04 A2971 RMK AO2 SLP059 T00500039 401440044,KAST,2023-03-22T07:55:00Z,46.15,-123.88,5.0,3.9,110,3,,10.0,29.71063,1005.9,,TRUE,TRUE,,,,,,,CLR,,,,,,,,VFR,,,,14.4,4.4,,,,,,,METAR,3.0
KAST 220655Z AUTO 00000KT 10SM CLR 06/04 A2972 RMK AO2 SLP062 T00610044,KAST,2023-03-22T06:55:00Z,46.15,-123.88,6.1,4.4,0,0,,10.0,29.719488,1006.2,,TRUE,TRUE,,,,,,,CLR,,,,,,,,VFR,,,,,,,,,,,,METAR,3.0
KAST 220555Z AUTO 00000KT 10SM BKN095 07/06 A2972 RMK AO2 SLP063 60000 T00720056 10139 20072 51012,KAST,2023-03-22T05:55:00Z,46.15,-123.88,7.2,5.6,0,0,,10.0,29.719488,1006.3,,TRUE,TRUE,,,,,,,BKN,9500,,,,,,,VFR,1.2,13.9,7.2,,,,,0.005,,,,METAR,3.0
KAST 220455Z AUTO 33007KT 10SM CLR 08/06 A2971 RMK AO2 SLP059 T00780056,KAST,2023-03-22T04:55:00Z,46.15,-123.88,7.8,5.6,330,7,,10.0,29.71063,1005.9,,TRUE,TRUE,,,,,,,CLR,,,,,,,,VFR,,,,,,,,,,,,SPECI,3.0
KAST 220355Z AUTO 32010KT 10SM CLR 08/06 A2970 RMK AO2 SLP056 T00830056,KAST,2023-03-22T03:55:00Z,46.15,-123.88,8.3,5.6,320,10,,10.0,29.698818,1005.6,,TRUE,TRUE,,,,,,,CLR,,,,,,,,VFR,,,,,,,,,,,,METAR,3.0
KAST 220255Z AUTO 31009KT 10SM FEW046 FEW100 09/06 A2969 RMK AO2 RAB10E33 SLP052 P0000 60000 T00940061 55000,KAST,2023-03-22T02:55:00Z,46.15,-123.88,9.4,6.1,310,9,,10.0,29.68996,1005.2,,TRUE,TRUE,,,,,,,FEW,4600,FEW,10000,,,,,VFR,0.0,,,,,0.005,0.005,,,,,METAR,3.0
KAST 220155Z AUTO 33011KT 10SM CLR 11/07 A2968 RMK AO2 SLP049 T01060067,KAST,2023-03-22T01:55:00Z,46.15,-123.88,10.6,6.7,330,11,,10.0,29.681103,1004.9,,TRUE,TRUE,,,,,,,CLR,,,,,,,,VFR,,,,,,,,,,,,METAR,3.0
KAST 220055Z AUTO 33012KT 10SM CLR 13/07 A2967 RMK AO2 SLP047 T01280067,KAST,2023-03-22T00:55:00Z,46.15,-123.88,12.8,6.7,330,12,,10.0,29.66929,1004.7,,TRUE,TRUE,,,,,,,CLR,,,,,,,,VFR,,,,,,,,,,,,METAR,3.0
KAST 212355Z AUTO 33009KT 10SM CLR 14/07 A2969 RMK AO2 SLP052 T01390067 10144 20089 56014,KAST,2023-03-21T23:55:00Z,46.15,-123.88,13.9,6.7,330,9,,10.0,29.68996,1005.2,,TRUE,TRUE,,,,,,,CLR,,,,,,,,VFR,-1.4,14.4,8.9,,,,,,,,,METAR,3.0
KAST 212255Z AUTO 35008KT 10SM CLR 14/06 A2969 RMK AO2 SLP055 T01390056,KAST,2023-03-21T22:55:00Z,46.15,-123.88,13.9,5.6,350,8,,10.0,29.68996,1005.5,,TRUE,TRUE,,,,,,,CLR,,,,,,,,VFR,,,,,,,,,,,,METAR,3.0
KAST 212155Z AUTO 35007KT 10SM CLR 13/06 A2970 RMK AO2 SLP058 T01280056,KAST,2023-03-21T21:55:00Z,46.15,-123.88,12.8,5.6,350,7,,10.0,29.698818,1005.8,,TRUE,TRUE,,,,,,,CLR,,,,,,,,VFR,,,,,,,,,,,,METAR,3.0
KAST 212055Z AUTO 35006KT 10SM CLR 12/06 A2973 RMK AO2 SLP065 T01220061 58023,KAST,2023-03-21T20:55:00Z,46.15,-123.88,12.2,6.1,350,6,,10.0,29.731298,1006.5,,TRUE,TRUE,,,,,,,CLR,,,,,,,,VFR,-2.3,,,,,,,,,,,METAR,3.0
KAST 211955Z AUTO 36006KT 10SM CLR 12/07 A2975 RMK AO2 SLP074 T01170067,KAST,2023-03-21T19:55:00Z,46.15,-123.88,11.7,6.7,360,6,,10.0,29.749016,1007.4,,TRUE,TRUE,,,,,,,CLR,,,,,,,,VFR,,,,,,,,,,,,METAR,3.0
KAST 211855Z AUTO 04009KT 10SM CLR 11/06 A2977 RMK AO2 SLP081 T01060056,KAST,2023-03-21T18:55:00Z,46.15,-123.88,10.6,5.6,40,9,,10.0,29.769686,1008.1,,TRUE,TRUE,,,,,,,CLR,,,,,,,,VFR,,,,,,,,,,,,METAR,3.0
KAST 211755Z AUTO 03006KT 10SM CLR 09/05 A2979 RMK AO2 SLP089 T00890050 10089 20044 58010,KAST,2023-03-21T17:55:00Z,46.15,-123.88,8.9,5.0,30,6,,10.0,29.790354,1008.9,,TRUE,TRUE,,,,,,,CLR,,,,,,,,VFR,-1.0,8.9,4.4,,,,,,,,,SPECI,3.0
KAST 211655Z AUTO 04007KT 10SM CLR 08/05 A2981 RMK AO2 SLP093 T00780050,KAST,2023-03-21T16:55:00Z,46.15,-123.88,7.8,5.0,40,7,,10.0,29.811024,1009.3,,TRUE,TRUE,,,,,,,CLR,,,,,,,,VFR,,,,,,,,,,,,METAR,3.0
KAST 211555Z AUTO 08005KT 10SM FEW005 07/05 A2982 RMK AO2 SLP097 T00670050,KAST,2023-03-21T15:55:00Z,46.15,-123.88,6.7,5.0,80,5,,10.0,29.819881,1009.7,,TRUE,TRUE,,,,,,,FEW,500,,,,,,,VFR,,,,,,,,,,,,METAR,3.0
KAST 211531Z AUTO 07005KT 10SM SCT005 06/05 A2982 RMK AO2 T00610050,KAST,2023-03-21T15:31:00Z,46.15,-123.88,6.1,5.0,70,5,,10.0,29.819881,,,TRUE,TRUE,,,,,,,SCT,500,,,,,,,VFR,,,,,,,,,,,,SPECI,3.0
KAST 211455Z AUTO 08005KT 10SM OVC005 06/04 A2982 RMK AO2 SLP099 T00560044 55004,KAST,2023-03-21T14:55:00Z,46.15,-123.88,5.6,4.4,80,5,,10.0,29.819881,1009.9,,TRUE,TRUE,,,,,,,OVC,500,,,,,,,IFR,-0.4,,,,,,,,,,,SPECI,3.0
KAST 211444Z AUTO 06006KT 10SM BKN005 06/04 A2982 RMK AO2 T00560044,KAST,2023-03-21T14:44:00Z,46.15,-123.88,5.6,4.4,60,6,,10.0,29.819881,,,TRUE,TRUE,,,,,,,BKN,500,,,,,,,IFR,,,,,,,,,,,,METAR,3.0
KAST 211423Z AUTO 07005KT 10SM SCT005 04/03 A2982 RMK AO2 T00440033,KAST,2023-03-21T14:23:00Z,46.15,-123.88,4.4,3.3,70,5,,10.0,29.819881,,,TRUE,TRUE,,,,,,,SCT,500,,,,,,,VFR,,,,,,,,,,,,SPECI,3.0
KAST 211355Z AUTO 07005KT 10SM BKN006 OVC024 06/04 A2982 RMK AO2 SLP099 T00560044,KAST,2023-03-21T13:55:00Z,46.15,-123.88,5.6,4.4,70,5,,10.0,29.819881,1009.9,,TRUE,TRUE,,,,,,,BKN,600,OVC,2400,,,,,IFR,,,,,,,,,,,,METAR,3.0
KAST 211255Z AUTO 06008KT 10SM OVC007 06/05 A2983 RMK AO2 SLP099 T00610050,KAST,2023-03-21T12:55:00Z,46.15,-123.88,6.1,5.0,60,8,,10.0,29.828741,1009.9,,TRUE,TRUE,,,,,,,OVC,700,,,,,,,IFR,,,,,,,,,,,,METAR,3.0
KAST 211155Z AUTO 00000KT 10SM OVC006 06/06 A2984 RMK AO2 SLP103 60003 70007 T00610056 10072 20061 58007,KAST,2023-03-21T11:55:00Z,46.15,-123.88,6.1,5.6,0,0,,10.0,29.840551,1010.3,,TRUE,TRUE,,,,,,,OVC,600,,,,,,,IFR,-0.7,7.2,6.1,,,,,0.03,0.07,,,METAR,3.0
KAST 211140Z AUTO 08003KT 10SM BKN008 BKN024 OVC030 06/06 A2984 RMK AO2 T00610056,KAST,2023-03-21T11:40:00Z,46.15,-123.88,6.1,5.6,80,3,,10.0,29.840551,,,TRUE,TRUE,,,,,,,BKN,800,BKN,2400,OVC,3000,,,IFR,,,,,,,,,,,,SPECI,3.0
KAST 211123Z AUTO 09003KT 8SM FEW004 BKN022 OVC030 07/06 A2984 RMK AO2 T00670056,KAST,2023-03-21T11:23:00Z,46.15,-123.88,6.7,5.6,90,3,,8.0,29.840551,,,TRUE,TRUE,,,,,,,FEW,400,BKN,2200,OVC,3000,,,MVFR,,,,,,,,,,,,SPECI,3.0
KAST 211055Z AUTO 05003KT 3SM BR BKN006 OVC010 07/06 A2985 RMK AO2 RAB20E49 SLP107 P0001 T00670061,KAST,2023-03-21T10:55:00Z,46.15,-123.88,6.7,6.1,50,3,,3.0,29.84941,1010.7,,TRUE,TRUE,,,,,,BR,BKN,600,OVC,1000,,,,,IFR,,,,,,0.01,,,,,,METAR,3.0
KAST 211043Z AUTO 07003KT 2 1/2SM -RA BR BKN008 OVC018 07/06 A2985 RMK AO2 VIS 1 3/4V4 RAB20 P0001 T00670056,KAST,2023-03-21T10:43:00Z,46.15,-123.88,6.7,5.6,70,3,,2.5,29.84941,,,TRUE,TRUE,,,,,,-RA BR,BKN,800,OVC,1800,,,,,IFR,,,,,,0.01,,,,,,SPECI,3.0
KAST 211033Z AUTO 07004KT 3SM -RA BR FEW006 BKN014 OVC020 07/06 A2985 RMK AO2 RAB20 CIG 007 RWY 08 P0001 T00670056,KAST,2023-03-21T10:33:00Z,46.15,-123.88,6.7,5.6,70,4,,3.0,29.84941,,,TRUE,TRUE,,,,,,-RA BR,FEW,600,BKN,1400,OVC,2000,,,MVFR,,,,,,0.01,,,,,,SPECI,3.0
KAST 211019Z AUTO 09004KT 5SM BR BKN014 OVC022 07/06 A2985 RMK AO2 CIG 009 RWY 08 T00670056,KAST,2023-03-21T10:19:00Z,46.15,-123.88,6.7,5.6,90,4,,5.0,29.84941,,,TRUE,TRUE,,,,,,BR,BKN,1400,OVC,2200,,,,,MVFR,,,,,,,,,,,,METAR,3.0
KAST 210955Z AUTO 12004KT 10SM OVC022 07/06 A2986 RMK AO2 SLP109 T00670056,KAST,2023-03-21T09:55:00Z,46.15,-123.88,6.7,5.6,120,4,,10.0,29.861221,1010.9,,TRUE,TRUE,,,,,,,OVC,2200,,,,,,,MVFR,,,,,,,,,,,,METAR,3.0
KAST 210855Z AUTO 15004KT 10SM FEW009 OVC024 07/06 A2986 RMK AO2 RAE03 SLP110 P0000 60002 T00670056 55001,KAST,2023-03-21T08:55:00Z,46.15,-123.88,6.7,5.6,150,4,,10.0,29.861221,1011.0,,TRUE,TRUE,,,,,,,FEW,900,OVC,2400,,,,,MVFR,-0.1,,,,,0.005,0.02,,,,,METAR,3.0
KAST 210816Z AUTO 15003KT 5SM BR FEW009 BKN015 OVC030 07/06 A2985 RMK AO2 RAE03 P0000 T00670061,KAST,2023-03-21T08:16:00Z,46.15,-123.88,6.7,6.1,150,3,,5.0,29.84941,,,TRUE,TRUE,,,,,,BR,FEW,900,BKN,1500,OVC,3000,,,MVFR,,,,,,0.005,,,,,,SPECI,3.0
KAST 210755Z AUTO 14003KT 3SM -RA BR SCT010 OVC017 07/06 A2985 RMK AO2 RAE08B15E28B52 SLP109 P0001 T00720061 401170067,KAST,2023-03-21T07:55:00Z,46.15,-123.88,7.2,6.1,140,3,,3.0,29.84941,1010.9,,TRUE,TRUE,,,,,,-RA BR,SCT,1000,OVC,1700,,,,,MVFR,,,,11.7,6.7,0.01,,,,,,METAR,3.0
KAST 210744Z AUTO 12003KT 8SM SCT009 OVC019 07/06 A2985 RMK AO2 RAE08B15E28 P0001 T00720061,KAST,2023-03-21T07:44:00Z,46.15,-123.88,7.2,6.1,120,3,,8.0,29.84941,,,TRUE,TRUE,,,,,,,SCT,900,OVC,1900,,,,,MVFR,,,,,,0.01,,,,,,SPECI,3.0
KAST 210737Z AUTO 10003KT 9SM SCT010 OVC017 07/06 A2986 RMK AO2 RAE08B15E28 P0001 T00720061,KAST,2023-03-21T07:37:00Z,46.15,-123.88,7.2,6.1,100,3,,9.0,29.861221,,,TRUE,TRUE,,,,,,,SCT,1000,OVC,1700,,,,,MVFR,,,,,,0.01,,,,,,SPECI,3.0
KAST 210726Z AUTO 11003KT 6SM -RA BR BKN009 BKN018 OVC039 07/06 A2986 RMK AO2 RAE08B15 P0001 T00720061,KAST,2023-03-21T07:26:00Z,46.15,-123.88,7.2,6.1,110,3,,6.0,29.861221,,,TRUE,TRUE,,,,,,-RA BR,BKN,900,BKN,1800,OVC,3900,,,IFR,,,,,,0.01,,,,,,SPECI,3.0
KAST 210714Z AUTO 00000KT 9SM FEW009 BKN020 OVC039 07/07 A2986 RMK AO2 RAE08 P0001 T00720067,KAST,2023-03-21T07:14:00Z,46.15,-123.88,7.2,6.7,0,0,,9.0,29.861221,,,TRUE,TRUE,,,,,,,FEW,900,BKN,2000,OVC,3900,,,MVFR,,,,,,0.01,,,,,,METAR,3.0
KAST 210655Z AUTO 24003KT 5SM -RA BR BKN032 OVC041 07/06 A2986 RMK AO2 RAB14 SLP110 P0001 T00670061,KAST,2023-03-21T06:55:00Z,46.15,-123.88,6.7,6.1,240,3,,5.0,29.861221,1011.0,,TRUE,TRUE,,,,,,-RA BR,BKN,3200,OVC,4100,,,,,MVFR,,,,,,0.01,,,,,,METAR,3.0
KAST 210652Z AUTO 25003KT 6SM -RA BR FEW016 BKN032 OVC041 07/06 A2986 RMK AO2 RAB14 P0001,KAST,2023-03-21T06:52:00Z,46.15,-123.88,7.0,6.0,250,3,,6.0,29.861221,,,TRUE,TRUE,,,,,,-RA BR,FEW,1600,BKN,3200,OVC,4100,,,VFR,,,,,,0.01,,,,,,METAR,3.0
KAST 210627Z AUTO 25005KT 3SM -RA BR FEW008 BKN016 OVC033 07/06 A2986 RMK AO2 RAB14 P0001 T00720061,KAST,2023-03-21T06:27:00Z,46.15,-123.88,7.2,6.1,250,5,,3.0,29.861221,,,TRUE,TRUE,,,,,,-RA BR,FEW,800,BKN,1600,OVC,3300,,,MVFR,,,,,,0.01,,,,,,SPECI,3.0
KAST 210613Z AUTO 00000KT 4SM BR FEW007 SCT014 OVC031 07/06 A2986 RMK AO2 CIG 008 RWY 08 T00720061,KAST,2023-03-21T06:13:00Z,46.15,-123.88,7.2,6.1,0,0,,4.0,29.861221,,,TRUE,TRUE,,,,,,BR,FEW,700,SCT,1400,OVC,3100,,,MVFR,,,,,,,,,,,,METAR,3.0
KAST 210555Z AUTO 22005KT 10SM SCT025 BKN031 OVC043 07/06 A2985 RMK AO2 RAB06E51 SLP109 P0000 60000 T00720056 10089 20072 51010,KAST,2023-03-21T05:55:00Z,46.15,-123.88,7.2,5.6,220,5,,10.0,29.84941,1010.9,,TRUE,TRUE,,,,,,,SCT,2500,BKN,3100,OVC,4300,,,VFR,1.0,8.9,7.2,,,0.005,,,,,,SPECI,3.0
KAST 210455Z AUTO 21003KT 10SM OVC032 07/06 A2985 RMK AO2 SLP106 T00720056,KAST,2023-03-21T04:55:00Z,46.15,-123.88,7.2,5.6,210,3,,10.0,29.84941,1010.6,,TRUE,TRUE,,,,,,,OVC,3200,,,,,,,VFR,,,,,,,,,,,,METAR,3.0
KAST 210355Z AUTO 22003KT 10SM FEW029 OVC036 08/06 A2984 RMK AO2 SLP104 T00780061,KAST,2023-03-21T03:55:00Z,46.15,-123.88,7.8,6.1,220,3,,10.0,29.840551,1010.4,,TRUE,TRUE,,,,,,,FEW,2900,OVC,3600,,,,,VFR,,,,,,,,,,,,METAR,3.0
KAST 210336Z AUTO 23003KT 10SM FEW014 SCT019 OVC036 08/06 A2983 RMK AO2 T00780061,KAST,2023-03-21T03:36:00Z,46.15,-123.88,7.8,6.1,230,3,,10.0,29.828741,,,TRUE,TRUE,,,,,,,FEW,1400,SCT,1900,OVC,3600,,,VFR,,,,,,,,,,,,SPECI,3.0
KAST 210255Z AUTO 25004KT 10SM FEW015 OVC024 08/06 A2982 RMK AO2 SLP099 60000 T00830061 53009,KAST,2023-03-21T02:55:00Z,46.15,-123.88,8.3,6.1,250,4,,10.0,29.819881,1009.9,,TRUE,TRUE,,,,,,,FEW,1500,OVC,2400,,,,,MVFR,0.9,,,,,,0.005,,,,,METAR,3.0
KAST 210230Z AUTO 21003KT 10SM FEW010 BKN025 OVC065 08/07 A2982 RMK AO2 CIG 016 RWY 08 T00830067,KAST,2023-03-21T02:30:00Z,46.15,-123.88,8.3,6.7,210,3,,10.0,29.819881,,,TRUE,TRUE,,,,,,,FEW,1000,BKN,2500,OVC,6500,,,MVFR,,,,,,,,,,,,SPECI,3.0
KAST 210155Z AUTO 25006KT 10SM FEW009 SCT029 OVC035 08/07 A2981 RMK AO2 RAB00E40 CIG 030 RWY 08 SLP093 P0000 T00830067,KAST,2023-03-21T01:55:00Z,46.15,-123.88,8.3,6.7,250,6,,10.0,29.811024,1009.3,,TRUE,TRUE,,,,,,,FEW,900,SCT,2900,OVC,3500,,,VFR,,,,,,0.005,,,,,,METAR,3.0
KAST 210113Z AUTO 27007KT 10SM -RA SCT009 BKN018 OVC035 08/07 A2980 RMK AO2 RAB00 P0000 T00830067,KAST,2023-03-21T01:13:00Z,46.15,-123.88,8.3,6.7,270,7,,10.0,29.799213,,,TRUE,TRUE,,,,,,-RA,SCT,900,BKN,1800,OVC,3500,,,MVFR,,,,,,0.005,,,,,,SPECI,3.0
KAST 210102Z AUTO 26009KT 9SM -RA BKN009 BKN016 OVC021 08/07 A2980 RMK AO2 RAB00 P0000 T00830067,KAST,2023-03-21T01:02:00Z,46.15,-123.88,8.3,6.7,260,9,,9.0,29.799213,,,TRUE,TRUE,,,,,,-RA,BKN,900,BKN,1600,OVC,2100,,,IFR,,,,,,0.005,,,,,,METAR,3.0
KAST 210055Z AUTO 26007KT 10SM BKN010 BKN019 OVC037 08/07 A2980 RMK AO2 SLP090 T00830067,KAST,2023-03-21T00:55:00Z,46.15,-123.88,8.3,6.7,260,7,,10.0,29.799213,1009.0,,TRUE,TRUE,,,,,,,BKN,1000,BKN,1900,OVC,3700,,,MVFR,,,,,,,,,,,,METAR,3.0
KAST 210008Z AUTO 26007KT 10SM FEW009 BKN014 OVC028 08/07 A2979 RMK AO2 T00830072,KAST,2023-03-21T00:08:00Z,46.15,-123.88,8.3,7.2,260,7,,10.0,29.790354,,,TRUE,TRUE,,,,,,,FEW,900,BKN,1400,OVC,2800,,,MVFR,,,,,,,,,,,,SPECI,3.0
KAST 202355Z AUTO 26008KT 10SM FEW007 BKN028 OVC034 08/07 A2979 RMK AO2 RAE06B36E48 CIG 019 RWY 08 SLP087 P0000 60002 T00830072 10117 20083 51015,KAST,2023-03-20T23:55:00Z,46.15,-123.88,8.3,7.2,260,8,,10.0,29.790354,1008.7,,TRUE,TRUE,,,,,,,FEW,700,BKN,2800,OVC,3400,,,MVFR,1.5,11.7,8.3,,,0.005,,0.02,,,,METAR,3.0
KAST 202306Z AUTO 25011KT 10SM SCT008 OVC019 08/07 A2978 RMK AO2 RAE06 P0000 T00830067,KAST,2023-03-20T23:06:00Z,46.15,-123.88,8.3,6.7,250,11,,10.0,29.778543,,,TRUE,TRUE,,,,,,,SCT,800,OVC,1900,,,,,MVFR,,,,,,0.005,,,,,,SPECI,3.0
KAST 202255Z AUTO 26012KT 3SM -RA BR BKN007 OVC017 08/07 A2978 RMK AO2 RAB40 SLP082 P0000 T00830067,KAST,2023-03-20T22:55:00Z,46.15,-123.88,8.3,6.7,260,12,,3.0,29.778543,1008.2,,TRUE,TRUE,,,,,,-RA BR,BKN,700,OVC,1700,,,,,IFR,,,,,,0.005,,,,,,METAR,3.0
KAST 202232Z AUTO 25016G21KT 10SM BKN007 BKN012 OVC038 09/07 A2977 RMK AO2 T00890072,KAST,2023-03-20T22:32:00Z,46.15,-123.88,8.9,7.2,250,16,21,10.0,29.769686,,,TRUE,TRUE,,,,,,,BKN,700,BKN,1200,OVC,3800,,,IFR,,,,,,,,,,,,SPECI,3.0
KAST 202223Z AUTO 25013G20KT 10SM SCT008 BKN012 OVC060 09/07 A2976 RMK AO2 T00940072,KAST,2023-03-20T22:23:00Z,46.15,-123.88,9.4,7.2,250,13,20,10.0,29.760826,,,TRUE,TRUE,,,,,,,SCT,800,BKN,1200,OVC,6000,,,MVFR,,,,,,,,,,,,SPECI,3.0
KAST 202155Z AUTO 22010KT 10SM SCT011 BKN030 OVC055 10/08 A2975 RMK AO2 RAE39 SLP073 P0002 T01000083,KAST,2023-03-20T21:55:00Z,46.15,-123.88,10.0,8.3,220,10,,10.0,29.749016,1007.3,,TRUE,TRUE,,,,,,,SCT,1100,BKN,3000,OVC,5500,,,MVFR,,,,,,0.02,,,,,,METAR,3.0
KAST 202130Z AUTO 20007KT 3SM -RA BR SCT009 BKN015 OVC029 09/08 A2975 RMK AO2 P0002 T00940078,KAST,2023-03-20T21:30:00Z,46.15,-123.88,9.4,7.8,200,7,,3.0,29.749016,,,TRUE,TRUE,,,,,,-RA BR,SCT,900,BKN,1500,OVC,2900,,,MVFR,,,,,,0.02,,,,,,SPECI,3.0
KAST 202118Z AUTO 20011G18KT 2SM -RA BR BKN011 BKN020 OVC028 09/08 A2974 RMK AO2 P0002 T00940078,KAST,2023-03-20T21:18:00Z,46.15,-123.88,9.4,7.8,200,11,18,2.0,29.740158,,,TRUE,TRUE,,,,,,-RA BR,BKN,1100,BKN,2000,OVC,2800,,,IFR,,,,,,0.02,,,,,,METAR,3.0
KAST 202111Z AUTO 19007G16KT 1 3/4SM -RA BR FEW010 BKN016 OVC023 09/08 A2974 RMK AO2 P0001 T00940078,KAST,2023-03-20T21:11:00Z,46.15,-123.88,9.4,7.8,190,7,16,1.75,29.740158,,,TRUE,TRUE,,,,,,-RA BR,FEW,1000,BKN,1600,OVC,2300,,,IFR,,,,,,0.01,,,,,,SPECI,3.0
KAST 202104Z AUTO 17011G16KT 2SM -RA BR FEW012 BKN022 OVC028 09/07 A2974 RMK AO2 P0000 T00940072,KAST,2023-03-20T21:04:00Z,46.15,-123.88,9.4,7.2,170,11,16,2.0,29.740158,,,TRUE,TRUE,,,,,,-RA BR,FEW,1200,BKN,2200,OVC,2800,,,IFR,,,,,,0.005,,,,,,SPECI,3.0
KAST 202055Z AUTO 19006G14KT 4SM -RA FEW014 BKN022 OVC036 10/07 A2974 RMK AO2 RAB53 SLP071 P0000 60000 T01000067 51005,KAST,2023-03-20T20:55:00Z,46.15,-123.88,10.0,6.7,190,6,14,4.0,29.740158,1007.1,,TRUE,TRUE,,,,,,-RA,FEW,1400,BKN,2200,OVC,3600,,,MVFR,0.5,,,,,0.005,0.005,,,,,METAR,3.0
KAST 202050Z AUTO 19008G15KT 8SM FEW018 BKN029 OVC036 11/06 A2974 RMK AO2 CIG 022 RWY 08,KAST,2023-03-20T20:50:00Z,46.15,-123.88,11.0,6.0,190,8,15,8.0,29.740158,,,TRUE,TRUE,,,,,,,FEW,1800,BKN,2900,OVC,3600,,,MVFR,,,,,,,,,,,,SPECI,3.0
KAST 201955Z AUTO 24008KT 10SM FEW028 OVC042 11/07 A2973 RMK AO2 SLP067 T01110067,KAST,2023-03-20T19:55:00Z,46.15,-123.88,11.1,6.7,240,8,,10.0,29.731298,1006.7,,TRUE,TRUE,,,,,,,FEW,2800,OVC,4200,,,,,VFR,,,,,,,,,,,,METAR,3.0
KAST 201855Z AUTO 20007KT 10SM FEW019 SCT036 OVC042 11/07 A2973 RMK AO2 SLP066 T01110067,KAST,2023-03-20T18:55:00Z,46.15,-123.88,11.1,6.7,200,7,,10.0,29.731298,1006.6,,TRUE,TRUE,,,,,,,FEW,1900,SCT,3600,OVC,4200,,,VFR,,,,,,,,,,,,METAR,3.0
KAST 201755Z AUTO 20010KT 10SM FEW018 BKN031 OVC039 10/07 A2972 RMK AO2 SLP065 60002 T01000067 10100 20083 51013,KAST,2023-03-20T17:55:00Z,46.15,-123.88,10.0,6.7,200,10,,10.0,29.719488,1006.5,,TRUE,TRUE,,,,,,,FEW,1800,BKN,3100,OVC,3900,,,VFR,1.3,10.0,8.3,,,,,0.02,,,,METAR,3.0
KAST 201752Z AUTO 19009KT 10SM SCT023 BKN035 OVC045 10/07 A2972 RMK AO2,KAST,2023-03-20T17:52:00Z,46.15,-123.88,10.0,7.0,190,9,,10.0,29.719488,,,TRUE,TRUE,,,,,,,SCT,2300,BKN,3500,OVC,4500,,,VFR,,,,,,,,,,,,METAR,3.0
KAST 201711Z AUTO 18006KT 10SM BKN017 BKN030 OVC040 09/07 A2971 RMK AO2 T00940067,KAST,2023-03-20T17:11:00Z,46.15,-123.88,9.4,6.7,180,6,,10.0,29.71063,,,TRUE,TRUE,,,,,,,BKN,1700,BKN,3000,OVC,4000,,,MVFR,,,,,,,,,,,,SPECI,3.0
KAST 201655Z AUTO 19007KT 10SM FEW017 BKN034 OVC042 09/07 A2971 RMK AO2 SLP059 T00940072,KAST,2023-03-20T16:55:00Z,46.15,-123.88,9.4,7.2,190,7,,10.0,29.71063,1005.9,,TRUE,TRUE,,,,,,,FEW,1700,BKN,3400,OVC,4200,,,VFR,,,,,,,,,,,,METAR,3.0
KAST 201555Z AUTO 18007G15KT 10SM FEW013 BKN034 OVC049 08/07 A2969 RMK AO2 SLP052 T00830067,KAST,2023-03-20T15:55:00Z,46.15,-123.88,8.3,6.7,180,7,15,10.0,29.68996,1005.2,,TRUE,TRUE,,,,,,,FEW,1300,BKN,3400,OVC,4900,,,VFR,,,,,,,,,,,,METAR,3.0
KAST 201535Z AUTO 18010KT 10SM FEW013 BKN037 OVC110 08/07 A2968 RMK AO2 T00830067,KAST,2023-03-20T15:35:00Z,46.15,-123.88,8.3,6.7,180,10,,10.0,29.681103,,,TRUE,TRUE,,,,,,,FEW,1300,BKN,3700,OVC,11000,,,VFR,,,,,,,,,,,,SPECI,3.0
KAST 201508Z AUTO 18008KT 7SM FEW009 BKN013 OVC039 08/07 A2968 RMK AO2 T00830067,KAST,2023-03-20T15:08:00Z,46.15,-123.88,8.3,6.7,180,8,,7.0,29.681103,,,TRUE,TRUE,,,,,,,FEW,900,BKN,1300,OVC,3900,,,MVFR,,,,,,,,,,,,METAR,3.0
KAST 201455Z AUTO 19007KT 5SM BR SCT011 BKN030 OVC037 08/07 A2967 RMK AO2 RAE15B31E40 SLP048 P0000 60002 T00830067 51012,KAST,2023-03-20T14:55:00Z,46.15,-123.88,8.3,6.7,190,7,,5.0,29.66929,1004.8,,TRUE,TRUE,,,,,,BR,SCT,1100,BKN,3000,OVC,3700,,,MVFR,1.2,,,,,0.005,,,,,,SPECI,3.0
KAST 201452Z AUTO 19007KT 6SM BR SCT010 BKN030 OVC037 08/07 A2967 RMK AO2 RAE15B31E40 P0000,KAST,2023-03-20T14:52:00Z,46.15,-123.88,8.0,7.0,190,7,,6.0,29.66929,,,TRUE,TRUE,,,,,,BR,SCT,1000,BKN,3000,OVC,3700,,,MVFR,,,,,,0.005,,,,,,SPECI,3.0
KAST 201412Z AUTO 20011G16KT 10SM -RA SCT009 SCT014 OVC021 08/07 A2966 RMK AO2 CIG 012 RWY 08 P0000 T00830072,KAST,2023-03-20T14:12:00Z,46.15,-123.88,8.3,7.2,200,11,16,10.0,29.660433,,,TRUE,TRUE,,,,,,-RA,SCT,900,SCT,1400,OVC,2100,,,MVFR,,,,,,0.005,,,,,,SPECI,3.0
KAST 201355Z AUTO 20011G19KT 9SM -RA BKN008 OVC016 08/07 A2965 RMK AO2 RAE01B25 SLP041 P0001 T00830072,KAST,2023-03-20T13:55:00Z,46.15,-123.88,8.3,7.2,200,11,19,9.0,29.648623,1004.1,,TRUE,TRUE,,,,,,-RA,BKN,800,OVC,1600,,,,,IFR,,,,,,0.01,,,,,,METAR,3.0
KAST 201338Z AUTO 19008KT 3SM -RA BR BKN007 BKN012 OVC028 08/07 A2965 RMK AO2 RAE01B25 P0000 T00830072,KAST,2023-03-20T13:38:00Z,46.15,-123.88,8.3,7.2,190,8,,3.0,29.648623,,,TRUE,TRUE,,,,,,-RA BR,BKN,700,BKN,1200,OVC,2800,,,IFR,,,,,,0.005,,,,,,METAR,3.0
KAST 201331Z AUTO 17006KT 4SM -RA BR SCT009 BKN015 OVC028 08/07 A2965 RMK AO2 RAE01B25 P0000 T00830072,KAST,2023-03-20T13:31:00Z,46.15,-123.88,8.3,7.2,170,6,,4.0,29.648623,,,TRUE,TRUE,,,,,,-RA BR,SCT,900,BKN,1500,OVC,2800,,,MVFR,,,,,,0.005,,,,,,SPECI,3.0
KAST 201324Z AUTO 18005KT 9SM BKN010 BKN015 OVC028 08/07 A2964 RMK AO2 RAE01 P0000 T00830072,KAST,2023-03-20T13:24:00Z,46.15,-123.88,8.3,7.2,180,5,,9.0,29.639763,,,TRUE,TRUE,,,,,,,BKN,1000,BKN,1500,OVC,2800,,,MVFR,,,,,,0.005,,,,,,SPECI,3.0
KAST 201312Z AUTO 18007KT 7SM SCT008 BKN016 OVC044 08/07 A2964 RMK AO2 RAE01 P0000 T00830072,KAST,2023-03-20T13:12:00Z,46.15,-123.88,8.3,7.2,180,7,,7.0,29.639763,,,TRUE,TRUE,,,,,,,SCT,800,BKN,1600,OVC,4400,,,MVFR,,,,,,0.005,,,,,,SPECI,3.0
KAST 201255Z AUTO 19006KT 6SM -RA BR BKN009 BKN016 OVC026 08/07 A2964 RMK AO2 RAB38 SLP036 P0001 T00830072,KAST,2023-03-20T12:55:00Z,46.15,-123.88,8.3,7.2,190,6,,6.0,29.639763,1003.6,,TRUE,TRUE,,,,,,-RA BR,BKN,900,BKN,1600,OVC,2600,,,IFR,,,,,,0.01,,,,,,METAR,3.0
KAST 201246Z AUTO 19005KT 4SM -RA BR SCT009 BKN016 OVC031 08/07 A2964 RMK AO2 RAB38 CIG 009 RWY 08 P0000 T00830072,KAST,2023-03-20T12:46:00Z,46.15,-123.88,8.3,7.2,190,5,,4.0,29.639763,,,TRUE,TRUE,,,,,,-RA BR,SCT,900,BKN,1600,OVC,3100,,,MVFR,,,,,,0.005,,,,,,SPECI,3.0
KAST 201239Z AUTO 18007KT 6SM -RA BR BKN010 BKN016 OVC031 09/07 A2963 RMK AO2 RAB38 P0000 T00890072,KAST,2023-03-20T12:39:00Z,46.15,-123.88,8.9,7.2,180,7,,6.0,29.630905,,,TRUE,TRUE,,,,,,-RA BR,BKN,1000,BKN,1600,OVC,3100,,,MVFR,,,,,,0.005,,,,,,SPECI,3.0
KAST 201232Z AUTO 19005KT 10SM SCT010 BKN016 OVC027 09/07 A2963 RMK AO2 CIG 009 RWY 08 T00890072,KAST,2023-03-20T12:32:00Z,46.15,-123.88,8.9,7.2,190,5,,10.0,29.630905,,,TRUE,TRUE,,,,,,,SCT,1000,BKN,1600,OVC,2700,,,MVFR,,,,,,,,,,,,SPECI,3.0
KAST 201224Z AUTO 20007G17KT 10SM BKN010 BKN016 OVC035 09/07 A2963 RMK AO2 T00890072,KAST,2023-03-20T12:24:00Z,46.15,-123.88,8.9,7.2,200,7,17,10.0,29.630905,,,TRUE,TRUE,,,,,,,BKN,1000,BKN,1600,OVC,3500,,,MVFR,,,,,,,,,,,,SPECI,3.0
KAST 201155Z AUTO 19007KT 8SM FEW011 BKN020 OVC034 09/07 A2962 RMK AO2 RAB35E54 SLP029 P0000 60007 70020 T00890072 10094 20083 53004,KAST,2023-03-20T11:55:00Z,46.15,-123.88,8.9,7.2,190,7,,8.0,29.619095,1002.9,,TRUE,TRUE,,,,,,,FEW,1100,BKN,2000,OVC,3400,,,MVFR,0.4,9.4,8.3,,,0.005,,0.07,0.2,,,METAR,3.0
KAST 201055Z AUTO 20010KT 10SM OVC023 09/07 A2961 RMK AO2 SLP026 T00890072,KAST,2023-03-20T10:55:00Z,46.15,-123.88,8.9,7.2,200,10,,10.0,29.610237,1002.6,,TRUE,TRUE,,,,,,,OVC,2300,,,,,,,MVFR,,,,,,,,,,,,METAR,3.0
KAST 201015Z AUTO 19008KT 10SM OVC017 09/07 A2961 RMK AO2 T00890072,KAST,2023-03-20T10:15:00Z,46.15,-123.88,8.9,7.2,190,8,,10.0,29.610237,,,TRUE,TRUE,,,,,,,OVC,1700,,,,,,,MVFR,,,,,,,,,,,,SPECI,3.0
KAST 200955Z AUTO 19009KT 10SM FEW009 BKN013 OVC018 09/07 A2961 RMK AO2 SLP025 T00890072,KAST,2023-03-20T09:55:00Z,46.15,-123.88,8.9,7.2,190,9,,10.0,29.610237,1002.5,,TRUE,TRUE,,,,,,,FEW,900,BKN,1300,OVC,1800,,,MVFR,,,,,,,,,,,,METAR,3.0
KAST 200952Z AUTO 19009KT 10SM BKN013 BKN018 OVC050 09/07 A2960 RMK AO2,KAST,2023-03-20T09:52:00Z,46.15,-123.88,9.0,7.0,190,9,,10.0,29.601377,,,TRUE,TRUE,,,,,,,BKN,1300,BKN,1800,OVC,5000,,,MVFR,,,,,,,,,,,,METAR,3.0
KAST 200944Z AUTO 20010KT 10SM SCT010 BKN016 OVC048 09/08 A2960 RMK AO2 T00890078,KAST,2023-03-20T09:44:00Z,46.15,-123.88,8.9,7.8,200,10,,10.0,29.601377,,,TRUE,TRUE,,,,,,,SCT,1000,BKN,1600,OVC,4800,,,MVFR,,,,,,,,,,,,SPECI,3.0
KAST 200920Z AUTO 20009KT 10SM BKN011 BKN016 OVC029 09/08 A2960 RMK AO2 T00890078,KAST,2023-03-20T09:20:00Z,46.15,-123.88,8.9,7.8,200,9,,10.0,29.601377,,,TRUE,TRUE,,,,,,,BKN,1100,BKN,1600,OVC,2900,,,MVFR,,,,,,,,,,,,SPECI,3.0
KAST 200855Z AUTO 20009KT 10SM BKN008 OVC013 09/08 A2960 RMK AO2 RAE44 SLP023 P0002 60007 T00890078 53001,KAST,2023-03-20T08:55:00Z,46.15,-123.88,8.9,7.8,200,9,,10.0,29.601377,1002.3,,TRUE,TRUE,,,,,,,BKN,800,OVC,1300,,,,,IFR,0.1,,,,,0.02,0.07,,,,,METAR,3.0
KAST 200825Z AUTO 17004KT 7SM -RA OVC008 09/08 A2960 RMK AO2 P0002 T00890078,KAST,2023-03-20T08:25:00Z,46.15,-123.88,8.9,7.8,170,4,,7.0,29.601377,,,TRUE,TRUE,,,,,,-RA,OVC,800,,,,,,,IFR,,,,,,0.02,,,,,,SPECI,3.0
KAST 200755Z AUTO 10003KT 4SM -RA BR OVC014 09/08 A2960 RMK AO2 SLP022 P0004 T00890078 401280044,KAST,2023-03-20T07:55:00Z,46.15,-123.88,8.9,7.8,100,3,,4.0,29.601377,1002.2,,TRUE,TRUE,,,,,,-RA BR,OVC,1400,,,,,,,MVFR,,,,12.8,4.4,0.04,,,,,,METAR,3.0
KAST 200710Z AUTO 00000KT 7SM -RA BKN024 BKN031 OVC045 08/08 A2960 RMK AO2 P0001 T00830078,KAST,2023-03-20T07:10:00Z,46.15,-123.88,8.3,7.8,0,0,,7.0,29.601377,,,TRUE,TRUE,,,,,,-RA,BKN,2400,BKN,3100,OVC,4500,,,MVFR,,,,,,0.01,,,,,,SPECI,3.0
KAST 200655Z AUTO 00000KT 8SM -RA FEW026 SCT033 OVC047 09/08 A2959 RMK AO2 SLP021 P0001 T00890078,KAST,2023-03-20T06:55:00Z,46.15,-123.88,8.9,7.8,0,0,,8.0,29.589567,1002.1,,TRUE,TRUE,,,,,,-RA,FEW,2600,SCT,3300,OVC,4700,,,VFR,,,,,,0.01,,,,,,METAR,3.0
KAST 200614Z AUTO 09003KT 6SM -RA BR SCT028 OVC037 09/08 A2960 RMK AO2 P0000 T00890078,KAST,2023-03-20T06:14:00Z,46.15,-123.88,8.9,7.8,90,3,,6.0,29.601377,,,TRUE,TRUE,,,,,,-RA BR,SCT,2800,OVC,3700,,,,,VFR,,,,,,0.005,,,,,,SPECI,3.0
KAST 200555Z AUTO 00000KT 7SM -RA BKN027 OVC033 09/08 A2960 RMK AO2 SLP022 P0003 60012 T00890083 10100 20083 58001,KAST,2023-03-20T05:55:00Z,46.15,-123.88,8.9,8.3,0,0,,7.0,29.601377,1002.2,,TRUE,TRUE,,,,,,-RA,BKN,2700,OVC,3300,,,,,MVFR,-0.1,10.0,8.3,,,0.03,,0.12,,,,METAR,3.0
KAST 200544Z AUTO 00000KT 6SM -RA BR BKN028 OVC035 09/08 A2960 RMK AO2 P0002 T00890078,KAST,2023-03-20T05:44:00Z,46.15,-123.88,8.9,7.8,0,0,,6.0,29.601377,,,TRUE,TRUE,,,,,,-RA BR,BKN,2800,OVC,3500,,,,,MVFR,,,,,,0.02,,,,,,SPECI,3.0
KAST 200455Z AUTO 08003KT 6SM -RA BR FEW028 BKN037 OVC044 09/08 A2960 RMK AO2 SLP023 P0003 T00890078,KAST,2023-03-20T04:55:00Z,46.15,-123.88,8.9,7.8,80,3,,6.0,29.601377,1002.3,,TRUE,TRUE,,,,,,-RA BR,FEW,2800,BKN,3700,OVC,4400,,,VFR,,,,,,0.03,,,,,,METAR,3.0
KAST 200355Z AUTO 00000KT 6SM -RA BR FEW034 BKN045 OVC055 09/08 A2960 RMK AO2 SLP024 P0003 T00890078,KAST,2023-03-20T03:55:00Z,46.15,-123.88,8.9,7.8,0,0,,6.0,29.601377,1002.4,,TRUE,TRUE,,,,,,-RA BR,FEW,3400,BKN,4500,OVC,5500,,,VFR,,,,,,0.03,,,,,,METAR,3.0
KAST 200255Z AUTO 13003KT 8SM -RA BKN045 OVC055 09/07 A2960 RMK AO2 SLP023 P0002 60003 T00890072 56015,KAST,2023-03-20T02:55:00Z,46.15,-123.88,8.9,7.2,130,3,,8.0,29.601377,1002.3,,TRUE,TRUE,,,,,,-RA,BKN,4500,OVC,5500,,,,,VFR,-1.5,,,,,0.02,0.03,,,,,METAR,3.0
KAST 200155Z AUTO 36004KT 8SM -RA OVC046 09/07 A2961 RMK AO2 RAE25B45 SLP027 P0000 T00890072,KAST,2023-03-20T01:55:00Z,46.15,-123.88,8.9,7.2,360,4,,8.0,29.610237,1002.7,,TRUE,TRUE,,,,,,-RA,OVC,4600,,,,,,,VFR,,,,,,0.005,,,,,,METAR,3.0
KAST 200055Z AUTO 00000KT 7SM -RA BKN043 OVC065 10/08 A2962 RMK AO2 SLP031 P0001 T01000078,KAST,2023-03-20T00:55:00Z,46.15,-123.88,10.0,7.8,0,0,,7.0,29.619095,1003.1,,TRUE,TRUE,,,,,,-RA,BKN,4300,OVC,6500,,,,,VFR,,,,,,0.01,,,,,,METAR,3.0
KAST 192355Z AUTO 24003KT 6SM -RA BKN034 OVC045 10/07 A2965 RMK AO2 RAB2259 SLP039 P0001 60001 T01000072 10128 20089 56017,KAST,2023-03-19T23:55:00Z,46.15,-123.88,10.0,7.2,240,3,,6.0,29.648623,1003.9,,TRUE,TRUE,,,,,,-RA,BKN,3400,OVC,4500,,,,,VFR,-1.7,12.8,8.9,,,0.01,,0.01,,,,METAR,3.0
KAST 192255Z AUTO 26005KT 10SM BKN045 OVC055 11/06 A2966 RMK AO2 SLP044 T01110061,KAST,2023-03-19T22:55:00Z,46.15,-123.88,11.1,6.1,260,5,,10.0,29.660433,1004.4,,TRUE,TRUE,,,,,,,BKN,4500,OVC,5500,,,,,VFR,,,,,,,,,,,,METAR,3.0
KAST 192155Z AUTO 29007KT 10SM FEW050 OVC080 12/06 A2968 RMK AO2 SLP049 T01170061,KAST,2023-03-19T21:55:00Z,46.15,-123.88,11.7,6.1,290,7,,10.0,29.681103,1004.9,,TRUE,TRUE,,,,,,,FEW,5000,OVC,8000,,,,,VFR,,,,,,,,,,,,METAR,3.0
KAST 192055Z AUTO 33008KT 10SM OVC100 12/06 A2970 RMK AO2 SLP056 T01220056 58014,KAST,2023-03-19T20:55:00Z,46.15,-123.88,12.2,5.6,330,8,,10.0,29.698818,1005.6,,TRUE,TRUE,,,,,,,OVC,10000,,,,,,,VFR,-1.4,,,,,,,,,,,METAR,3.0
KAST 191955Z AUTO 33005KT 10SM OVC095 13/06 A2972 RMK AO2 SLP064 T01280056,KAST,2023-03-19T19:55:00Z,46.15,-123.88,12.8,5.6,330,5,,10.0,29.719488,1006.4,,TRUE,TRUE,,,,,,,OVC,9500,,,,,,,VFR,,,,,,,,,,,,METAR,3.0
KAST 191855Z AUTO 32003KT 10SM BKN110 11/06 A2974 RMK AO2 SLP069 T01060056,KAST,2023-03-19T18:55:00Z,46.15,-123.88,10.6,5.6,320,3,,10.0,29.740158,1006.9,,TRUE,TRUE,,,,,,,BKN,11000,,,,,,,VFR,,,,,,,,,,,,METAR,3.0
KAST 191755Z AUTO 33004KT 10SM SCT110 09/04 A2974 RMK AO2 SLP070 T00890044 10094 20044 58004,KAST,2023-03-19T17:55:00Z,46.15,-123.88,8.9,4.4,330,4,,10.0,29.740158,1007.0,,TRUE,TRUE,,,,,,,SCT,11000,,,,,,,VFR,-0.4,9.4,4.4,,,,,,,,,METAR,3.0
KAST 191655Z AUTO 35003KT 10SM BKN120 08/05 A2974 RMK AO2 SLP071 T00830050,KAST,2023-03-19T16:55:00Z,46.15,-123.88,8.3,5.0,350,3,,10.0,29.740158,1007.1,,TRUE,TRUE,,,,,,,BKN,12000,,,,,,,VFR,,,,,,,,,,,,METAR,3.0
KAST 191555Z AUTO 00000KT 10SM BKN120 07/05 A2975 RMK AO2 SLP073 T00720050,KAST,2023-03-19T15:55:00Z,46.15,-123.88,7.2,5.0,0,0,,10.0,29.749016,1007.3,,TRUE,TRUE,,,,,,,BKN,12000,,,,,,,VFR,,,,,,,,,,,,METAR,3.0
KAST 191455Z AUTO 00000KT 10SM FEW120 06/04 A2975 RMK AO2 SLP074 T00610044 58013,KAST,2023-03-19T14:55:00Z,46.15,-123.88,6.1,4.4,0,0,,10.0,29.749016,1007.4,,TRUE,TRUE,,,,,,,FEW,12000,,,,,,,VFR,-1.3,,,,,,,,,,,METAR,3.0
KAST 191355Z AUTO 12003KT 10SM FEW120 06/04 A2977 RMK AO2 SLP079 T00610039,KAST,2023-03-19T13:55:00Z,46.15,-123.88,6.1,3.9,120,3,,10.0,29.769686,1007.9,,TRUE,TRUE,,,,,,,FEW,12000,,,,,,,VFR,,,,,,,,,,,,METAR,3.0
KAST 191255Z AUTO 00000KT 10SM CLR 06/04 A2978 RMK AO2 SLP083 T00560039,KAST,2023-03-19T12:55:00Z,46.15,-123.88,5.6,3.9,0,0,,10.0,29.778543,1008.3,,TRUE,TRUE,,,,,,,CLR,,,,,,,,VFR,,,,,,,,,,,,SPECI,3.0
KAST 191155Z AUTO 00000KT 10SM CLR 04/02 A2979 RMK AO2 SLP087 T00440022 10089 20044 58016,KAST,2023-03-19T11:55:00Z,46.15,-123.88,4.4,2.2,0,0,,10.0,29.790354,1008.7,,TRUE,TRUE,,,,,,,CLR,,,,,,,,VFR,-1.6,8.9,4.4,,,,,,,,,SPECI,3.0
KAST 191055Z AUTO 12003KT 10SM CLR 07/03 A2981 RMK AO2 SLP093 T00670033,KAST,2023-03-19T10:55:00Z,46.15,-123.88,6.7,3.3,120,3,,10.0,29.811024,1009.3,,TRUE,TRUE,,,,,,,CLR,,,,,,,,VFR,,,,,,,,,,,,METAR,3.0
KAST 190955Z AUTO 13004KT 10SM CLR 08/04 A2982 RMK AO2 SLP099 T00780044,KAST,2023-03-19T09:55:00Z,46.15,-123.88,7.8,4.4,130,4,,10.0,29.819881,1009.9,,TRUE,TRUE,,,,,,,CLR,,,,,,,,VFR,,,,,,,,,,,,METAR,3.0
KAST 190855Z AUTO 00000KT 10SM CLR 08/04 A2984 RMK AO2 SLP103 T00780044 56015,KAST,2023-03-19T08:55:00Z,46.15,-123.88,7.8,4.4,0,0,,10.0,29.840551,1010.3,,TRUE,TRUE,,,,,,,CLR,,,,,,,,VFR,-1.5,,,,,,,,,,,METAR,3.0
KAST 190755Z AUTO 00000KT 10SM CLR 08/05 A2985 RMK AO2 SLP109 T00830050 401830028,KAST,2023-03-19T07:55:00Z,46.15,-123.88,8.3,5.0,0,0,,10.0,29.84941,1010.9,,TRUE,TRUE,,,,,,,CLR,,,,,,,,VFR,,,,18.3,2.8,,,,,,,METAR,3.0
KAST 190655Z AUTO 14003KT 10SM CLR 09/06 A2986 RMK AO2 SLP112 T00890056,KAST,2023-03-19T06:55:00Z,46.15,-123.88,8.9,5.6,140,3,,10.0,29.861221,1011.2,,TRUE,TRUE,,,,,,,CLR,,,,,,,,VFR,,,,,,,,,,,,METAR,3.0
KAST 190555Z AUTO 06004KT 10SM CLR 09/06 A2988 RMK AO2 SLP118 T00890056 10172 20083 58002,KAST,2023-03-19T05:55:00Z,46.15,-123.88,8.9,5.6,60,4,,10.0,29.878937,1011.8,,TRUE,TRUE,,,,,,,CLR,,,,,,,,VFR,-0.2,17.2,8.3,,,,,,,,,METAR,3.0
KAST 190455Z AUTO 00000KT 10SM BKN110 09/05 A2989 RMK AO2 SLP121 T00940050,KAST,2023-03-19T04:55:00Z,46.15,-123.88,9.4,5.0,0,0,,10.0,29.890747,1012.1,,TRUE,TRUE,,,,,,,BKN,11000,,,,,,,VFR,,,,,,,,,,,,METAR,3.0
KAST 190355Z AUTO 00000KT 10SM BKN100 11/05 A2989 RMK AO2 SLP122 T01060050,KAST,2023-03-19T03:55:00Z,46.15,-123.88,10.6,5.0,0,0,,10.0,29.890747,1012.2,,TRUE,TRUE,,,,,,,BKN,10000,,,,,,,VFR,,,,,,,,,,,,METAR,3.0
KAST 190255Z AUTO 00000KT 10SM CLR 12/05 A2989 RMK AO2 SLP121 T01170050 58005,KAST,2023-03-19T02:55:00Z,46.15,-123.88,11.7,5.0,0,0,,10.0,29.890747,1012.1,,TRUE,TRUE,,,,,,,CLR,,,,,,,,VFR,-0.5,,,,,,,,,,,METAR,3.0
KAST 190155Z AUTO 00000KT 10SM CLR 13/04 A2989 RMK AO2 SLP122 T01330039,KAST,2023-03-19T01:55:00Z,46.15,-123.88,13.3,3.9,0,0,,10.0,29.890747,1012.2,,TRUE,TRUE,,,,,,,CLR,,,,,,,,VFR,,,,,,,,,,,,METAR,3.0
KAST 190055Z AUTO 25006KT 10SM CLR 15/03 A2990 RMK AO2 SLP124 T01500028,KAST,2023-03-19T00:55:00Z,46.15,-123.88,15.0,2.8,250,6,,10.0,29.899607,1012.4,,TRUE,TRUE,,,,,,,CLR,,,,,,,,VFR,,,,,,,,,,,,SPECI,3.0
KAST 182355Z AUTO 25009KT 10SM CLR 17/02 A2990 RMK AO2 SLP125 T01670022 10183 20083 56011,KAST,2023-03-18T23:55:00Z,46.15,-123.88,16.7,2.2,250,9,,10.0,29.899607,1012.5,,TRUE,TRUE,,,,,,,CLR,,,,,,,,VFR,-1.1,18.3,8.3,,,,,,,,,METAR,3.0
KAST 182255Z AUTO 35004KT 10SM CLR 18/04 A2990 RMK AO2 SLP126 T01830044,KAST,2023-03-18T22:55:00Z,46.15,-123.88,18.3,4.4,350,4,,10.0,29.899607,1012.6,,TRUE,TRUE,,,,,,,CLR,,,,,,,,VFR,,,,,,,,,,,,METAR,3.0
KAST 182155Z AUTO 03009KT 10SM CLR 17/05 A2992 RMK AO2 SLP130 T01670050,KAST,2023-03-18T21:55:00Z,46.15,-123.88,16.7,5.0,30,9,,10.0,29.920275,1013.0,,TRUE,TRUE,,,,,,,CLR,,,,,,,,VFR,,,,,,,,,,,,METAR,3.0
KAST 182055Z AUTO 03010KT 10SM CLR 17/06 A2993 RMK AO2 SLP136 T01670056 56029,KAST,2023-03-18T20:55:00Z,46.15,-123.88,16.7,5.6,30,10,,10.0,29.929134,1013.6,,TRUE,TRUE,,,,,,,CLR,,,,,,,,VFR,-2.9,,,,,,,,,,,METAR,3.0
KAST 181955Z AUTO 01005KT 10SM CLR 14/06 A2996 RMK AO2 SLP145 T01390056,KAST,2023-03-18T19:55:00Z,46.15,-123.88,13.9,5.6,10,5,,10.0,29.958662,1014.5,,TRUE,TRUE,,,,,,,CLR,,,,,,,,VFR,,,,,,,,,,,,METAR,3.0
KAST 181855Z AUTO 34004KT 10SM CLR 12/06 A2999 RMK AO2 SLP156 T01170056,KAST,2023-03-18T18:55:00Z,46.15,-123.88,11.7,5.6,340,4,,10.0,29.991142,1015.6,,TRUE,TRUE,,,,,,,CLR,,,,,,,,VFR,,,,,,,,,,,,SPECI,3.0
KAST 181755Z AUTO 03005KT 10SM CLR 08/04 A3002 RMK AO2 SLP165 T00830044 10083 20050 58012,KAST,2023-03-18T17:55:00Z,46.15,-123.88,8.3,4.4,30,5,,10.0,30.02067,1016.5,,TRUE,TRUE,,,,,,,CLR,,,,,,,,VFR,-1.2,8.3,5.0,,,,,,,,,METAR,3.0
KAST 181655Z AUTO 09005KT 9SM SCT005 06/04 A3003 RMK AO2 SLP170 T00560039,KAST,2023-03-18T16:55:00Z,46.15,-123.88,5.6,3.9,90,5,,9.0,30.029528,1017.0,,TRUE,TRUE,,,,,,,SCT,500,,,,,,,VFR,,,,,,,,,,,,SPECI,3.0
KAST 181555Z AUTO 07007KT 8SM OVC005 06/04 A3004 RMK AO2 SLP173 T00560044,KAST,2023-03-18T15:55:00Z,46.15,-123.88,5.6,4.4,70,7,,8.0,30.041338,1017.3,,TRUE,TRUE,,,,,,,OVC,500,,,,,,,IFR,,,,,,,,,,,,METAR,3.0
KAST 181455Z AUTO 07008KT 10SM OVC007 06/04 A3006 RMK AO2 SLP177 T00610044 58010,KAST,2023-03-18T14:55:00Z,46.15,-123.88,6.1,4.4,70,8,,10.0,30.059055,1017.7,,TRUE,TRUE,,,,,,,OVC,700,,,,,,,IFR,-1.0,,,,,,,,,,,METAR,3.0
KAST 181428Z AUTO 10005KT 10SM OVC009 06/04 A3005 RMK AO2 T00560044,KAST,2023-03-18T14:28:00Z,46.15,-123.88,5.6,4.4,100,5,,10.0,30.050198,,,TRUE,TRUE,,,,,,,OVC,900,,,,,,,IFR,,,,,,,,,,,,SPECI,3.0
KAST 181355Z AUTO 10003KT 10SM OVC012 06/04 A3007 RMK AO2 SLP183 T00560044,KAST,2023-03-18T13:55:00Z,46.15,-123.88,5.6,4.4,100,3,,10.0,30.070866,1018.3,,TRUE,TRUE,,,,,,,OVC,1200,,,,,,,MVFR,,,,,,,,,,,,SPECI,3.0
KAST 181255Z AUTO 14003KT 10SM OVC012 06/04 A3009 RMK AO2 SLP189 T00560044,KAST,2023-03-18T12:55:00Z,46.15,-123.88,5.6,4.4,140,3,,10.0,30.088583,1018.9,,TRUE,TRUE,,,,,,,OVC,1200,,,,,,,MVFR,,,,,,,,,,,,SPECI,3.0
KAST 181155Z AUTO 15004KT 10SM OVC013 05/04 A3009 RMK AO2 SLP187 T00500039 10061 20028 58006,KAST,2023-03-18T11:55:00Z,46.15,-123.88,5.0,3.9,150,4,,10.0,30.088583,1018.7,,TRUE,TRUE,,,,,,,OVC,1300,,,,,,,MVFR,-0.6,6.1,2.8,,,,,,,,,METAR,3.0
KAST 181055Z AUTO 08003KT 10SM OVC013 05/03 A3010 RMK AO2 SLP193 T00500033,KAST,2023-03-18T10:55:00Z,46.15,-123.88,5.0,3.3,80,3,,10.0,30.100393,1019.3,,TRUE,TRUE,,,,,,,OVC,1300,,,,,,,MVFR,,,,,,,,,,,,METAR,3.0
KAST 180955Z AUTO 00000KT 10SM OVC014 04/03 A3010 RMK AO2 SLP191 T00440033,KAST,2023-03-18T09:55:00Z,46.15,-123.88,4.4,3.3,0,0,,10.0,30.100393,1019.1,,TRUE,TRUE,,,,,,,OVC,1400,,,,,,,MVFR,,,,,,,,,,,,METAR,3.0
KAST 180928Z AUTO 00000KT 10SM OVC014 04/03 A3010 RMK AO2 T00390028,KAST,2023-03-18T09:28:00Z,46.15,-123.88,3.9,2.8,0,0,,10.0,30.100393,,,TRUE,TRUE,,,,,,,OVC,1400,,,,,,,MVFR,,,,,,,,,,,,SPECI,3.0
KAST 180855Z AUTO 00000KT 7SM OVC016 03/03 A3010 RMK AO2 VIS 1 1/2 RWY 08 SLP194 T00330028 57003,KAST,2023-03-18T08:55:00Z,46.15,-123.88,3.3,2.8,0,0,,7.0,30.100393,1019.4,,TRUE,TRUE,,,,,,,OVC,1600,,,,,,,MVFR,-0.3,,,,,,,,,,,METAR,3.0
KAST 180853Z AUTO 12003KT 7SM OVC016 03/03 A3010 RMK AO2 VIS 1 1/2 RWY 08,KAST,2023-03-18T08:53:00Z,46.15,-123.88,3.0,3.0,120,3,,7.0,30.100393,,,TRUE,TRUE,,,,,,,OVC,1600,,,,,,,MVFR,,,,,,,,,,,,METAR,3.0
KAST 180841Z AUTO 12003KT 2SM BR BKN015 03/02 A3011 RMK AO2 T00330022,KAST,2023-03-18T08:41:00Z,46.15,-123.88,3.3,2.2,120,3,,2.0,30.109253,,,TRUE,TRUE,,,,,,BR,BKN,1500,,,,,,,IFR,,,,,,,,,,,,SPECI,3.0
KAST 180836Z AUTO 11003KT 3SM BR BKN014 04/02 A3011 RMK AO2 T00390022,KAST,2023-03-18T08:36:00Z,46.15,-123.88,3.9,2.2,110,3,,3.0,30.109253,,,TRUE,TRUE,,,,,,BR,BKN,1400,,,,,,,MVFR,,,,,,,,,,,,SPECI,3.0
KAST 180755Z AUTO 00000KT 10SM SCT120 04/03 A3012 RMK AO2 SLP197 T00390028 401440033,KAST,2023-03-18T07:55:00Z,46.15,-123.88,3.9,2.8,0,0,,10.0,30.121063,1019.7,,TRUE,TRUE,,,,,,,SCT,12000,,,,,,,VFR,,,,14.4,3.3,,,,,,,METAR,3.0
KAST 180655Z AUTO 00000KT 8SM CLR 05/03 A3011 RMK AO2 SLP197 T00500033,KAST,2023-03-18T06:55:00Z,46.15,-123.88,5.0,3.3,0,0,,8.0,30.109253,1019.7,,TRUE,TRUE,,,,,,,CLR,,,,,,,,VFR,,,,,,,,,,,,METAR,3.0
KAST 180555Z AUTO 12003KT 10SM CLR 06/04 A3012 RMK AO2 SLP198 T00610044 10100 20061 51004,KAST,2023-03-18T05:55:00Z,46.15,-123.88,6.1,4.4,120,3,,10.0,30.121063,1019.8,,TRUE,TRUE,,,,,,,CLR,,,,,,,,VFR,0.4,10.0,6.1,,,,,,,,,SPECI,3.0
KAST 180455Z AUTO 00000KT 10SM CLR 07/05 A3012 RMK AO2 SLP198 T00720050,KAST,2023-03-18T04:55:00Z,46.15,-123.88,7.2,5.0,0,0,,10.0,30.121063,1019.8,,TRUE,TRUE,,,,,,,CLR,,,,,,,,VFR,,,,,,,,,,,,SPECI,3.0
KAST 180355Z AUTO 00000KT 10SM CLR 08/06 A3012 RMK AO2 SLP198 T00780056,KAST,2023-03-18T03:55:00Z,46.15,-123.88,7.8,5.6,0,0,,10.0,30.121063,1019.8,,TRUE,TRUE,,,,,,,CLR,,,,,,,,VFR,,,,,,,,,,,,METAR,3.0
KAST 180255Z AUTO 28004KT 10SM CLR 08/06 A3011 RMK AO2 SLP194 T00830056 53002,KAST,2023-03-18T02:55:00Z,46.15,-123.88,8.3,5.6,280,4,,10.0,30.109253,1019.4,,TRUE,TRUE,,,,,,,CLR,,,,,,,,VFR,0.2,,,,,,,,,,,METAR,3.0
KAST 180155Z AUTO 24006KT 10SM CLR 09/06 A3010 RMK AO2 SLP191 T00890056,KAST,2023-03-18T01:55:00Z,46.15,-123.88,8.9,5.6,240,6,,10.0,30.100393,1019.1,,TRUE,TRUE,,,,,,,CLR,,,,,,,,VFR,,,,,,,,,,,,SPECI,3.0
KAST 180055Z AUTO 24008KT 10SM FEW011 09/06 A3010 RMK AO2 SLP192 T00890061,KAST,2023-03-18T00:55:00Z,46.15,-123.88,8.9,6.1,240,8,,10.0,30.100393,1019.2,,TRUE,TRUE,,,,,,,FEW,1100,,,,,,,VFR,,,,,,,,,,,,METAR,3.0
KAST 172355Z AUTO 23006KT 10SM CLR 10/07 A3010 RMK AO2 SLP192 T01000067 10144 20100 55006,KAST,2023-03-17T23:55:00Z,46.15,-123.88,10.0,6.7,230,6,,10.0,30.100393,1019.2,,TRUE,TRUE,,,,,,,CLR,,,,,,,,VFR,-0.6,14.4,10.0,,,,,,,,,METAR,3.0
KAST 172255Z AUTO 24009KT 10SM CLR 11/06 A3010 RMK AO2 SLP192 T01060061,KAST,2023-03-17T22:55:00Z,46.15,-123.88,10.6,6.1,240,9,,10.0,30.100393,1019.2,,TRUE,TRUE,,,,,,,CLR,,,,,,,,VFR,,,,,,,,,,,,METAR,3.0
KAST 172155Z AUTO 24008KT 10SM CLR 11/05 A3011 RMK AO2 SLP194 T01110050,KAST,2023-03-17T21:55:00Z,46.15,-123.88,11.1,5.0,240,8,,10.0,30.109253,1019.4,,TRUE,TRUE,,,,,,,CLR,,,,,,,,VFR,,,,,,,,,,,,METAR,3.0
KAST 172055Z AUTO 23007G15KT 190V260 10SM CLR 12/01 A3012 RMK AO2 SLP198 T01220011 51003,KAST,2023-03-17T20:55:00Z,46.15,-123.88,12.2,1.1,230,7,15,10.0,30.121063,1019.8,,TRUE,TRUE,,,,,,,CLR,,,,,,,,VFR,0.3,,,,,,,,,,,METAR,3.0
KAST 171955Z AUTO 26008KT 10SM CLR 13/03 A3012 RMK AO2 SLP199 T01280033,KAST,2023-03-17T19:55:00Z,46.15,-123.88,12.8,3.3,260,8,,10.0,30.121063,1019.9,,TRUE,TRUE,,,,,,,CLR,,,,,,,,VFR,,,,,,,,,,,,METAR,3.0
KAST 171855Z AUTO 32006KT 10SM CLR 13/02 A3011 RMK AO2 SLP196 T01330022,KAST,2023-03-17T18:55:00Z,46.15,-123.88,13.3,2.2,320,6,,10.0,30.109253,1019.6,,TRUE,TRUE,,,,,,,CLR,,,,,,,,VFR,,,,,,,,,,,,METAR,3.0
KAST 171755Z AUTO 05006KT 10SM CLR 12/01 A3011 RMK AO2 SLP196 T01220011 10122 20033 51005,KAST,2023-03-17T17:55:00Z,46.15,-123.88,12.2,1.1,50,6,,10.0,30.109253,1019.6,,TRUE,TRUE,,,,,,,CLR,,,,,,,,VFR,0.5,12.2,3.3,,,,,,,,,METAR,3.0
KAST 171655Z AUTO 07005KT 10SM CLR 11/01 A3011 RMK AO2 SLP195 T01060011,KAST,2023-03-17T16:55:00Z,46.15,-123.88,10.6,1.1,70,5,,10.0,30.109253,1019.5,,TRUE,TRUE,,,,,,,CLR,,,,,,,,VFR,,,,,,,,,,,,SPECI,3.0
KAST 171555Z AUTO 00000KT 10SM CLR 07/01 A3010 RMK AO2 SLP193 T00720006,KAST,2023-03-17T15:55:00Z,46.15,-123.88,7.2,0.6,0,0,,10.0,30.100393,1019.3,,TRUE,TRUE,,,,,,,CLR,,,,,,,,VFR,,,,,,,,,,,,METAR,3.0
KAST 171455Z AUTO 13003KT 10SM CLR 04/M01 A3010 RMK AO2 SLP191 T00441011 51006,KAST,2023-03-17T14:55:00Z,46.15,-123.88,4.4,-1.1,130,3,,10.0,30.100393,1019.1,,TRUE,TRUE,,,,,,,CLR,,,,,,,,VFR,0.6,,,,,,,,,,,METAR,3.0
KAST 171355Z AUTO 09003KT 10SM CLR 04/M02 A3009 RMK AO2 SLP190 T00441017,KAST,2023-03-17T13:55:00Z,46.15,-123.88,4.4,-1.7,90,3,,10.0,30.088583,1019.0,,TRUE,TRUE,,,,,,,CLR,,,,,,,,VFR,,,,,,,,,,,,METAR,3.0
KAST 171255Z AUTO 08007KT 10SM CLR 04/M02 A3009 RMK AO2 SLP187 T00391017,KAST,2023-03-17T12:55:00Z,46.15,-123.88,3.9,-1.7,80,7,,10.0,30.088583,1018.7,,TRUE,TRUE,,,,,,,CLR,,,,,,,,VFR,,,,,,,,,,,,METAR,3.0
KAST 171155Z AUTO 07007KT 10SM CLR 04/M01 A3008 RMK AO2 SLP185 T00391011 10072 20028 53000,KAST,2023-03-17T11:55:00Z,46.15,-123.88,3.9,-1.1,70,7,,10.0,30.079725,1018.5,,TRUE,TRUE,,,,,,,CLR,,,,,,,,VFR,0.0,7.2,2.8,,,,,,,,,METAR,3.0
KAST 171055Z AUTO 08008KT 10SM CLR 05/M01 A3007 RMK AO2 SLP183 T00501011,KAST,2023-03-17T10:55:00Z,46.15,-123.88,5.0,-1.1,80,8,,10.0,30.070866,1018.3,,TRUE,TRUE,,,,,,,CLR,,,,,,,,VFR,,,,,,,,,,,,METAR,3.0
KAST 170955Z AUTO 09006KT 10SM CLR 06/M01 A3007 RMK AO2 SLP183 T00561006,KAST,2023-03-17T09:55:00Z,46.15,-123.88,5.6,-0.6,90,6,,10.0,30.070866,1018.3,,TRUE,TRUE,,,,,,,CLR,,,,,,,,VFR,,,,,,,,,,,,METAR,3.0
KAST 170855Z AUTO 08003KT 10SM CLR 07/M01 A3008 RMK AO2 SLP185 T00671006 57003,KAST,2023-03-17T08:55:00Z,46.15,-123.88,6.7,-0.6,80,3,,10.0,30.079725,1018.5,,TRUE,TRUE,,,,,,,CLR,,,,,,,,VFR,-0.3,,,,,,,,,,,METAR,3.0
KAST 170755Z AUTO 08004KT 10SM CLR 06/00 A3008 RMK AO2 SLP184 T00560000 401611017,KAST,2023-03-17T07:55:00Z,46.15,-123.88,5.6,0.0,80,4,,10.0,30.079725,1018.4,,TRUE,TRUE,,,,,,,CLR,,,,,,,,VFR,,,,16.1,-1.7,,,,,,,METAR,3.0
KAST 170655Z AUTO 07005KT 10SM CLR 04/00 A3009 RMK AO2 SLP188 T00390000,KAST,2023-03-17T06:55:00Z,46.15,-123.88,3.9,0.0,70,5,,10.0,30.088583,1018.8,,TRUE,TRUE,,,,,,,CLR,,,,,,,,VFR,,,,,,,,,,,,METAR,3.0
KAST 170555Z AUTO 08004KT 10SM CLR 06/02 A3009 RMK AO2 SLP188 T00560017 10161 20044 53010,KAST,2023-03-17T05:55:00Z,46.15,-123.88,5.6,1.7,80,4,,10.0,30.088583,1018.8,,TRUE,TRUE,,,,,,,CLR,,,,,,,,VFR,1.0,16.1,4.4,,,,,,,,,SPECI,3.0
KAST 170455Z AUTO 00000KT 10SM CLR 05/01 A3007 RMK AO2 SLP183 T00500011,KAST,2023-03-17T04:55:00Z,46.15,-123.88,5.0,1.1,0,0,,10.0,30.070866,1018.3,,TRUE,TRUE,,,,,,,CLR,,,,,,,,VFR,,,,,,,,,,,,METAR,3.0
KAST 170355Z AUTO 14003KT 10SM CLR 08/01 A3006 RMK AO2 SLP177 T00780011,KAST,2023-03-17T03:55:00Z,46.15,-123.88,7.8,1.1,140,3,,10.0,30.059055,1017.7,,TRUE,TRUE,,,,,,,CLR,,,,,,,,VFR,,,,,,,,,,,,METAR,3.0
KAST 170255Z AUTO 00000KT 10SM CLR 11/00 A3006 RMK AO2 SLP177 T01060000 55003,KAST,2023-03-17T02:55:00Z,46.15,-123.88,10.6,0.0,0,0,,10.0,30.059055,1017.7,,TRUE,TRUE,,,,,,,CLR,,,,,,,,VFR,-0.3,,,,,,,,,,,METAR,3.0
KAST 170155Z AUTO 14006KT 10SM CLR 14/M02 A3005 RMK AO2 SLP177 T01391017,KAST,2023-03-17T01:55:00Z,46.15,-123.88,13.9,-1.7,140,6,,10.0,30.050198,1017.7,,TRUE,TRUE,,,,,,,CLR,,,,,,,,VFR,,,,,,,,,,,,METAR,3.0
KAST 170055Z AUTO 13009KT 10SM CLR 16/M01 A3005 RMK AO2 SLP176 T01561011,KAST,2023-03-17T00:55:00Z,46.15,-123.88,15.6,-1.1,130,9,,10.0,30.050198,1017.6,,TRUE,TRUE,,,,,,,CLR,,,,,,,,VFR,,,,,,,,,,,,METAR,3.0
KAST 162355Z AUTO 07009KT 10SM CLR 15/02 A3007 RMK AO2 SLP181 T01500022 10156 20083 56022,KAST,2023-03-16T23:55:00Z,46.15,-123.88,15.0,2.2,70,9,,10.0,30.070866,1018.1,,TRUE,TRUE,,,,,,,CLR,,,,,,,,VFR,-2.2,15.6,8.3,,,,,,,,,METAR,3.0
KAST 162255Z AUTO 03011KT 10SM CLR 14/03 A3009 RMK AO2 SLP188 T01440028,KAST,2023-03-16T22:55:00Z,46.15,-123.88,14.4,2.8,30,11,,10.0,30.088583,1018.8,,TRUE,TRUE,,,,,,,CLR,,,,,,,,VFR,,,,,,,,,,,,METAR,3.0
KAST 162155Z AUTO 04014KT 10SM CLR 14/03 A3010 RMK AO2 SLP193 T01390033,KAST,2023-03-16T21:55:00Z,46.15,-123.88,13.9,3.3,40,14,,10.0,30.100393,1019.3,,TRUE,TRUE,,,,,,,CLR,,,,,,,,VFR,,,,,,,,,,,,METAR,3.0
KAST 162055Z AUTO 04011KT 10SM CLR 13/03 A3013 RMK AO2 SLP202 T01280028 56018,KAST,2023-03-16T20:55:00Z,46.15,-123.88,12.8,2.8,40,11,,10.0,30.129921,1020.2,,TRUE,TRUE,,,,,,,CLR,,,,,,,,VFR,-1.8,,,,,,,,,,,METAR,3.0
KAST 161955Z AUTO 06011KT 10SM CLR 12/01 A3015 RMK AO2 SLP208 T01170011,KAST,2023-03-16T19:55:00Z,46.15,-123.88,11.7,1.1,60,11,,10.0,30.15059,1020.8,,TRUE,TRUE,,,,,,,CLR,,,,,,,,VFR,,,,,,,,,,,,METAR,3.0
KAST 161855Z AUTO 07011KT 10SM CLR 10/02 A3016 RMK AO2 SLP213 T01000017,KAST,2023-03-16T18:55:00Z,46.15,-123.88,10.0,1.7,70,11,,10.0,30.159449,1021.3,,TRUE,TRUE,,,,,,,CLR,,,,,,,,VFR,,,,,,,,,,,,METAR,3.0
KAST 161755Z AUTO 08009KT 10SM CLR 08/02 A3018 RMK AO2 SLP220 I6000 T00780017 10078 21017 58009,KAST,2023-03-16T17:55:00Z,46.15,-123.88,7.8,1.7,80,9,,10.0,30.180119,1022.0,,TRUE,TRUE,,,,,,,CLR,,,,,,,,VFR,-0.9,7.8,-1.7,,,,,,,,,SPECI,3.0
KAST 161655Z AUTO 05005KT 10SM CLR 06/02 A3019 RMK AO2 SLP224 T00610022,KAST,2023-03-16T16:55:00Z,46.15,-123.88,6.1,2.2,50,5,,10.0,30.188976,1022.4,,TRUE,TRUE,,,,,,,CLR,,,,,,,,VFR,,,,,,,,,,,,SPECI,3.0
KAST 161555Z AUTO 07003KT 7SM FEW002 02/01 A3020 RMK AO2 SLP227 T00170006,KAST,2023-03-16T15:55:00Z,46.15,-123.88,1.7,0.6,70,3,,7.0,30.200787,1022.7,,TRUE,TRUE,,,,,,,FEW,200,,,,,,,VFR,,,,,,,,,,,,METAR,3.0
KAST 161540Z AUTO 00000KT 8SM SCT002 01/M01 A3021 RMK AO2 T00111006,KAST,2023-03-16T15:40:00Z,46.15,-123.88,1.1,-0.6,0,0,,8.0,30.209646,,,TRUE,TRUE,,,,,,,SCT,200,,,,,,,VFR,,,,,,,,,,,,SPECI,3.0
KAST 161455Z AUTO 08004KT 8SM CLR M01/M02 A3021 RMK AO2 SLP229 I1000 I3000 T10061017 58007,KAST,2023-03-16T14:55:00Z,46.15,-123.88,-0.6,-1.7,80,4,,8.0,30.209646,1022.9,,TRUE,TRUE,,,,,,,CLR,,,,,,,,VFR,-0.7,,,,,,,,,,,METAR,3.0
KAST 161355Z AUTO 00000KT 5SM BR CLR M01/M02 A3022 RMK AO2 SLP231 I1000 T10111017,KAST,2023-03-16T13:55:00Z,46.15,-123.88,-1.1,-1.7,0,0,,5.0,30.221457,1023.1,,TRUE,TRUE,,,,,,BR,CLR,,,,,,,,MVFR,,,,,,,,,,,,METAR,3.0
