No errors
No warnings
33 ms
data source=metars
588 results
raw_text,station_id,observation_time,latitude,longitude,temp_c,dewpoint_c,wind_dir_degrees,wind_speed_kt,wind_gust_kt,visibility_statute_mi,altim_in_hg,sea_level_pressure_mb,corrected,auto,auto_station,maintenance_indicator_on,no_signal,lightning_sensor_off,freezing_rain_sensor_off,present_weather_sensor_off,wx_string,sky_cover,cloud_base_ft_agl,sky_cover,cloud_base_ft_agl,sky_cover,cloud_base_ft_agl,sky_cover,cloud_base_ft_agl,flight_category,three_hr_pressure_tendency_mb,maxT_c,minT_c,maxT24hr_c,minT24hr_c,precip_in,pcp3hr_in,pcp6hr_in,pcp24hr_in,snow_in,vert_vis_ft,metar_type,elevation_m
KAST 141755Z AUTO 04006KT 10SM CLR 05/01 A3012 RMK AO2 SLP199 60001 T00500006 10050 21006 51040,KAST,2023-02-14T17:55:00Z,46.15,-123.88,5.0,0.6,40,6,,10.0,30.121063,1019.9,,TRUE,TRUE,,,,,,,CLR,,,,,,,,VFR,4.0,5.0,-0.6,,,,,0.01,,,,METAR,3.0
KAST 141655Z AUTO 07007KT 10SM FEW090 04/01 A3008 RMK AO2 SLP186 T00440011,KAST,2023-02-14T16:55:00Z,46.15,-123.88,4.4,1.1,70,7,,10.0,30.079725,1018.6,,TRUE,TRUE,,,,,,,FEW,9000,,,,,,,VFR,,,,,,,,,,,,METAR,3.0
KAST 141555Z AUTO 02007KT 10SM FEW022 OVC050 03/00 A3005 RMK AO2 SLP174 T00280000,KAST,2023-02-14T15:55:00Z,46.15,-123.88,2.8,0.0,20,7,,10.0,30.050198,1017.4,,TRUE,TRUE,,,,,,,FEW,2200,OVC,5000,,,,,VFR,,,,,,,,,,,,METAR,3.0
KAST 141455Z AUTO 00000KT 10SM FEW090 00/M01 A3000 RMK AO2 SLP159 60001 T00001011 53028,KAST,2023-02-14T14:55:00Z,46.15,-123.88,0.0,-1.1,0,0,,10.0,30.0,1015.9,,TRUE,TRUE,,,,,,,FEW,9000,,,,,,,VFR,2.8,,,,,,0.01,,,,,METAR,3.0
KAST 141355Z AUTO 00000KT 10SM FEW025 02/01 A2996 RMK AO2 RAB22E41 SLP146 P0001 T00170006,KAST,2023-02-14T13:55:00Z,46.15,-123.88,1.7,0.6,0,0,,10.0,29.958662,1014.6,,TRUE,TRUE,,,,,,,FEW,2500,,,,,,,VFR,,,,,,0.01,,,,,,METAR,3.0
KAST 141344Z AUTO 00000KT 10SM FEW021 SCT025 02/00 A2996 RMK AO2 RAB22E41 P0001 T00170000,KAST,2023-02-14T13:44:00Z,46.15,-123.88,1.7,0.0,0,0,,10.0,29.958662,,,TRUE,TRUE,,,,,,,FEW,2100,SCT,2500,,,,,VFR,,,,,,0.01,,,,,,SPECI,3.0
KAST 141331Z AUTO 04006KT 7SM -RA SCT019 BKN027 BKN036 02/01 A2996 RMK AO2 RAB22 P0001 T00220006,KAST,2023-02-14T13:31:00Z,46.15,-123.88,2.2,0.6,40,6,,7.0,29.958662,,,TRUE,TRUE,,,,,,-RA,SCT,1900,BKN,2700,BKN,3600,,,MVFR,,,,,,0.01,,,,,,SPECI,3.0
KAST 141305Z AUTO 08006KT 10SM SCT021 BKN050 BKN100 03/00 A2994 RMK AO2 T00280000,KAST,2023-02-14T13:05:00Z,46.15,-123.88,2.8,0.0,80,6,,10.0,29.940945,,,TRUE,TRUE,,,,,,,SCT,2100,BKN,5000,BKN,10000,,,VFR,,,,,,,,,,,,SPECI,3.0
KAST 141255Z AUTO 09006KT 10SM BKN021 BKN040 BKN055 03/00 A2993 RMK AO2 WSHFT 1145 SLP136 T00280000,KAST,2023-02-14T12:55:00Z,46.15,-123.88,2.8,0.0,90,6,,10.0,29.929134,1013.6,,TRUE,TRUE,,,,,,,BKN,2100,BKN,4000,BKN,5500,,,MVFR,,,,,,,,,,,,SPECI,3.0
KAST 141244Z AUTO 04003KT 10SM BKN021 BKN042 03/00 A2993 RMK AO2 WSHFT 1145 T00330000,KAST,2023-02-14T12:44:00Z,46.15,-123.88,3.3,0.0,40,3,,10.0,29.929134,,,TRUE,TRUE,,,,,,,BKN,2100,BKN,4200,,,,,MVFR,,,,,,,,,,,,SPECI,3.0
KAST 141205Z AUTO 32008KT 10SM FEW021 SCT030 03/00 A2992 RMK AO2 WSHFT 1145 T00330000,KAST,2023-02-14T12:05:00Z,46.15,-123.88,3.3,0.0,320,8,,10.0,29.920275,,,TRUE,TRUE,,,,,,,FEW,2100,SCT,3000,,,,,VFR,,,,,,,,,,,,SPECI,3.0
KAST 141155Z AUTO 31012KT 10SM FEW021 SCT030 BKN050 03/00 A2992 RMK AO2 SLP130 60005 70024 T00330000 10061 20022 55004,KAST,2023-02-14T11:55:00Z,46.15,-123.88,3.3,0.0,310,12,,10.0,29.920275,1013.0,,TRUE,TRUE,,,,,,,FEW,2100,SCT,3000,BKN,5000,,,VFR,-0.4,6.1,2.2,,,,,0.05,0.24,,,METAR,3.0
KAST 141055Z AUTO 27009G18KT 10SM BKN044 OVC090 03/M01 A2991 RMK AO2 PK WND 31026/1018 RAB07E55 SLP128 P0002 T00331011,KAST,2023-02-14T10:55:00Z,46.15,-123.88,3.3,-1.1,270,9,18,10.0,29.911417,1012.8,,TRUE,TRUE,,,,,,,BKN,4400,OVC,9000,,,,,VFR,,,,,,0.02,,,,,,METAR,3.0
KAST 140955Z AUTO 23004KT 10SM SCT025 BKN034 BKN095 04/02 A2991 RMK AO2 RAE02 CIG 028 RWY 08 SLP128 P0000 T00390017,KAST,2023-02-14T09:55:00Z,46.15,-123.88,3.9,1.7,230,4,,10.0,29.911417,1012.8,,TRUE,TRUE,,,,,,,SCT,2500,BKN,3400,BKN,9500,,,VFR,,,,,,0.005,,,,,,METAR,3.0
KAST 140855Z AUTO 26009G19KT 8SM -RA FEW018 SCT023 OVC031 04/01 A2993 RMK AO2 RAE21B38 SLP135 P0002 60003 T00390011 56025,KAST,2023-02-14T08:55:00Z,46.15,-123.88,3.9,1.1,260,9,19,8.0,29.929134,1013.5,,TRUE,TRUE,,,,,,-RA,FEW,1800,SCT,2300,OVC,3100,,,VFR,-2.5,,,,,0.02,0.03,,,,,METAR,3.0
KAST 140813Z AUTO 24010G16KT 5SM -RA BR SCT015 OVC027 04/02 A2994 RMK AO2 P0001 T00440022,KAST,2023-02-14T08:13:00Z,46.15,-123.88,4.4,2.2,240,10,16,5.0,29.940945,,,TRUE,TRUE,,,,,,-RA BR,SCT,1500,OVC,2700,,,,,MVFR,,,,,,0.01,,,,,,SPECI,3.0
KAST 140755Z AUTO 24010G21KT 8SM -RA FEW027 OVC033 04/01 A2995 RMK AO2 PK WND 25029/0735 RAE18B42 SLP143 P0001 T00390011 400890022,KAST,2023-02-14T07:55:00Z,46.15,-123.88,3.9,1.1,240,10,21,8.0,29.949802,1014.3,,TRUE,TRUE,,,,,,-RA,FEW,2700,OVC,3300,,,,,VFR,,,,8.9,2.2,0.01,,,,,,METAR,3.0
KAST 140655Z AUTO 28016G30KT 10SM -RA SCT022 BKN041 OVC050 06/01 A2998 RMK AO2 PK WND 27030/0650 RAB53 SLP150 P0000 T00560006,KAST,2023-02-14T06:55:00Z,46.15,-123.88,5.6,0.6,280,16,30,10.0,29.97933,1015.0,,TRUE,TRUE,,,,,,-RA,SCT,2200,BKN,4100,OVC,5000,,,VFR,,,,,,0.005,,,,,,METAR,3.0
KAST 140555Z AUTO 28014G20KT 10SM BKN038 BKN047 06/M01 A3000 RMK AO2 PK WND 29032/0456 SLP159 60000 T00561006 10067 20022 53001,KAST,2023-02-14T05:55:00Z,46.15,-123.88,5.6,-0.6,280,14,20,10.0,30.0,1015.9,,TRUE,TRUE,,,,,,,BKN,3800,BKN,4700,,,,,VFR,0.1,6.7,2.2,,,,,0.005,,,,METAR,3.0
KAST 140455Z AUTO 30023G34KT 10SM FEW026 BKN060 OVC080 06/M01 A3001 RMK AO2 PK WND 30036/0433 CIG 046 RWY 08 SLP160 T00561006,KAST,2023-02-14T04:55:00Z,46.15,-123.88,5.6,-0.6,300,23,34,10.0,30.008858,1016.0,,TRUE,TRUE,,,,,,,FEW,2600,BKN,6000,OVC,8000,,,VFR,,,,,,,,,,,,METAR,3.0
KAST 140355Z AUTO 30024G30KT 10SM BKN049 OVC065 06/M02 A2999 RMK AO2 PK WND 30033/0328 SLP156 T00561022,KAST,2023-02-14T03:55:00Z,46.15,-123.88,5.6,-2.2,300,24,30,10.0,29.991142,1015.6,,TRUE,TRUE,,,,,,,BKN,4900,OVC,6500,,,,,VFR,,,,,,,,,,,,METAR,3.0
KAST 140255Z AUTO 33014KT 10SM FEW037 BKN065 OVC080 03/M01 A3000 RMK AO2 PK WND 30042/0220 RAB22E26UPB39E41SNB26E39 CIG 049 RWY 08 SLP158 P0000 60000 T00331006 53011,KAST,2023-02-14T02:55:00Z,46.15,-123.88,3.3,-0.6,330,14,,10.0,30.0,1015.8,,TRUE,TRUE,,,,,,,FEW,3700,BKN,6500,OVC,8000,,,VFR,1.1,,,,,0.005,0.005,,,,,METAR,3.0
KAST 140231Z AUTO 31014G37KT 5SM -SN BKN036 BKN050 OVC065 02/M02 A2999 RMK AO2 PK WND 30042/0220 RAB22E26SNB26 P0000 T00221022,KAST,2023-02-14T02:31:00Z,46.15,-123.88,2.2,-2.2,310,14,37,5.0,29.991142,,,TRUE,TRUE,,,,,,-SN,BKN,3600,BKN,5000,OVC,6500,,,MVFR,,,,,,0.005,,,,,,METAR,3.0
KAST 140216Z AUTO 30032G41KT 10SM VCTS BKN050 BKN060 OVC095 06/M02 A2999 RMK AO2 PK WND 31041/0215 T00561022,KAST,2023-02-14T02:16:00Z,46.15,-123.88,5.6,-2.2,300,32,41,10.0,29.991142,,,TRUE,TRUE,,,,,,VCTS,BKN,5000,BKN,6000,OVC,9500,,,VFR,,,,,,,,,,,,SPECI,3.0
KAST 140155Z AUTO 31023G31KT 10SM BKN042 BKN050 OVC110 05/M02 A2997 RMK AO2 PK WND 31038/0130 RAB33E46SNB46E47 SLP148 P0000 T00501022,KAST,2023-02-14T01:55:00Z,46.15,-123.88,5.0,-2.2,310,23,31,10.0,29.970472,1014.8,,TRUE,TRUE,,,,,,,BKN,4200,BKN,5000,OVC,11000,,,VFR,,,,,,0.005,,,,,,METAR,3.0
KAST 140055Z AUTO 30021G30KT 10SM BKN042 OVC055 06/M02 A2998 RMK AO2 PK WND 32038/2357 RAE09 SLP151 P0000 T00611022,KAST,2023-02-14T00:55:00Z,46.15,-123.88,6.1,-2.2,300,21,30,10.0,29.97933,1015.1,,TRUE,TRUE,,,,,,,BKN,4200,OVC,5500,,,,,VFR,,,,,,0.005,,,,,,METAR,3.0
KAST 132355Z AUTO 30024G36KT 6SM -RA FEW036 SCT049 OVC080 07/00 A2997 RMK AO2 PK WND 31036/2353 RAB55 SLP148 P0000 60008 T00670000 10089 20050 53007,KAST,2023-02-13T23:55:00Z,46.15,-123.88,6.7,0.0,300,24,36,6.0,29.970472,1014.8,,TRUE,TRUE,,,,,,-RA,FEW,3600,SCT,4900,OVC,8000,,,VFR,0.7,8.9,5.0,,,0.005,,0.08,,,,METAR,3.0
KAST 132255Z AUTO 31025G35KT 8SM FEW031 SCT039 OVC060 07/01 A2995 RMK AO2 PK WND 30035/2254 RAE20 CIG 036 RWY 08 SLP142 P0001 T00720011,KAST,2023-02-13T22:55:00Z,46.15,-123.88,7.2,1.1,310,25,35,8.0,29.949802,1014.2,,TRUE,TRUE,,,,,,,FEW,3100,SCT,3900,OVC,6000,,,VFR,,,,,,0.01,,,,,,METAR,3.0
KAST 132213Z AUTO 30014G21KT 8SM -RA FEW019 BKN034 OVC045 06/03 A2994 RMK AO2 P0001 T00560028,KAST,2023-02-13T22:13:00Z,46.15,-123.88,5.6,2.8,300,14,21,8.0,29.940945,,,TRUE,TRUE,,,,,,-RA,FEW,1900,BKN,3400,OVC,4500,,,VFR,,,,,,0.01,,,,,,SPECI,3.0
KAST 132204Z AUTO 29012G25KT 7SM -RA FEW017 OVC028 06/03 A2994 RMK AO2 P0001 T00560028,KAST,2023-02-13T22:04:00Z,46.15,-123.88,5.6,2.8,290,12,25,7.0,29.940945,,,TRUE,TRUE,,,,,,-RA,FEW,1700,OVC,2800,,,,,MVFR,,,,,,0.01,,,,,,SPECI,3.0
KAST 132155Z AUTO 32016G23KT 2 1/2SM RA BR BKN020 BKN027 OVC043 05/03 A2994 RMK AO2 PK WND 31033/2138 SLP140 P0007 T00500028,KAST,2023-02-13T21:55:00Z,46.15,-123.88,5.0,2.8,320,16,23,2.5,29.940945,1014.0,,TRUE,TRUE,,,,,,RA BR,BKN,2000,BKN,2700,OVC,4300,,,IFR,,,,,,0.07,,,,,,METAR,3.0
KAST 132141Z AUTO 31020G33KT 1 3/4SM RA BKN020 BKN029 OVC043 06/03 A2995 RMK AO2 PK WND 31033/2138 P0004 T00560028,KAST,2023-02-13T21:41:00Z,46.15,-123.88,5.6,2.8,310,20,33,1.75,29.949802,,,TRUE,TRUE,,,,,,RA,BKN,2000,BKN,2900,OVC,4300,,,IFR,,,,,,0.04,,,,,,SPECI,3.0
KAST 132055Z AUTO 31020G26KT 5SM -RA SCT019 BKN027 BKN037 06/03 A2995 RMK AO2 PK WND 31026/2054 RAB44 SLP142 P0000 60000 T00610028 58010,KAST,2023-02-13T20:55:00Z,46.15,-123.88,6.1,2.8,310,20,26,5.0,29.949802,1014.2,,TRUE,TRUE,,,,,,-RA,SCT,1900,BKN,2700,BKN,3700,,,MVFR,-1.0,,,,,0.005,0.005,,,,,METAR,3.0
KAST 131955Z AUTO 27016G23KT 10SM FEW031 SCT040 BKN060 08/03 A2997 RMK AO2 PK WND 27028/1943 RAB03E16 SLP147 P0000 T00780033,KAST,2023-02-13T19:55:00Z,46.15,-123.88,7.8,3.3,270,16,23,10.0,29.970472,1014.7,,TRUE,TRUE,,,,,,,FEW,3100,SCT,4000,BKN,6000,,,VFR,,,,,,0.005,,,,,,METAR,3.0
KAST 131855Z AUTO 28014KT 10SM SCT028 BKN037 08/04 A2997 RMK AO2 RAE1756 SLP149 P0000 T00830039,KAST,2023-02-13T18:55:00Z,46.15,-123.88,8.3,3.9,280,14,,10.0,29.970472,1014.9,,TRUE,TRUE,,,,,,,SCT,2800,BKN,3700,,,,,VFR,,,,,,0.005,,,,,,METAR,3.0
KAST 131817Z AUTO 29007KT 10SM SCT027 SCT110 07/04 A2998 RMK AO2 RAE1756 P0000 T00670039,KAST,2023-02-13T18:17:00Z,46.15,-123.88,6.7,3.9,290,7,,10.0,29.97933,,,TRUE,TRUE,,,,,,,SCT,2700,SCT,11000,,,,,VFR,,,,,,0.005,,,,,,SPECI,3.0
KAST 131755Z AUTO 31014KT 9SM -RA BKN029 BKN041 BKN060 05/03 A2998 RMK AO2 PK WND 29032/1742 WSHFT 1740 SLP153 P0001 60011 T00500028 10072 20050 53002,KAST,2023-02-13T17:55:00Z,46.15,-123.88,5.0,2.8,310,14,,9.0,29.97933,1015.3,,TRUE,TRUE,,,,,,-RA,BKN,2900,BKN,4100,BKN,6000,,,MVFR,0.2,7.2,5.0,,,0.01,,0.11,,,,METAR,3.0
KAST 131751Z AUTO 31014G32KT 4SM -RA FEW019 BKN029 OVC065 05/02 A2998 RMK AO2 PK WND 29032/1742 P0001,KAST,2023-02-13T17:51:00Z,46.15,-123.88,5.0,2.0,310,14,32,4.0,29.97933,,,TRUE,TRUE,,,,,,-RA,FEW,1900,BKN,2900,OVC,6500,,,MVFR,,,,,,0.01,,,,,,SPECI,3.0
KAST 131655Z AUTO 29009KT 5SM -RA SCT026 BKN036 OVC060 06/03 A2997 RMK AO2 PK WND 31028/1640 RAB1559E11B28 SLP150 P0001 T00560028,KAST,2023-02-13T16:55:00Z,46.15,-123.88,5.6,2.8,290,9,,5.0,29.970472,1015.0,,TRUE,TRUE,,,,,,-RA,SCT,2600,BKN,3600,OVC,6000,,,MVFR,,,,,,0.01,,,,,,SPECI,3.0
KAST 131555Z AUTO 29019G24KT 9SM SCT028 BKN034 BKN070 07/02 A2998 RMK AO2 RAE1456 SLP151 P0000 T00670022,KAST,2023-02-13T15:55:00Z,46.15,-123.88,6.7,2.2,290,19,24,9.0,29.97933,1015.1,,TRUE,TRUE,,,,,,,SCT,2800,BKN,3400,BKN,7000,,,VFR,,,,,,0.005,,,,,,METAR,3.0
KAST 131455Z AUTO 28010KT 10SM -RA SCT036 BKN055 OVC120 06/03 A2997 RMK AO2 SLP147 P0000 60009 T00610028 56008,KAST,2023-02-13T14:55:00Z,46.15,-123.88,6.1,2.8,280,10,,10.0,29.970472,1014.7,,TRUE,TRUE,,,,,,-RA,SCT,3600,BKN,5500,OVC,12000,,,VFR,-0.8,,,,,0.005,0.09,,,,,METAR,3.0
KAST 131355Z AUTO 28016G20KT 9SM -RA FEW025 BKN033 OVC045 07/04 A2997 RMK AO2 RAB55 SLP149 P0000 T00670039,KAST,2023-02-13T13:55:00Z,46.15,-123.88,6.7,3.9,280,16,20,9.0,29.970472,1014.9,,TRUE,TRUE,,,,,,-RA,FEW,2500,BKN,3300,OVC,4500,,,VFR,,,,,,0.005,,,,,,METAR,3.0
KAST 131255Z AUTO 25009KT 10SM SCT023 OVC038 06/04 A2998 RMK AO2 RAE47 SLP151 P0009 T00610044,KAST,2023-02-13T12:55:00Z,46.15,-123.88,6.1,4.4,250,9,,10.0,29.97933,1015.1,,TRUE,TRUE,,,,,,,SCT,2300,OVC,3800,,,,,VFR,,,,,,0.09,,,,,,METAR,3.0
KAST 131155Z AUTO 28010KT 5SM -RA BR FEW019 BKN031 OVC050 07/04 A2999 RMK AO2 RAB49 SLP155 P0001 60015 70025 T00670044 10094 20067 58015,KAST,2023-02-13T11:55:00Z,46.15,-123.88,6.7,4.4,280,10,,5.0,29.991142,1015.5,,TRUE,TRUE,,,,,,-RA BR,FEW,1900,BKN,3100,OVC,5000,,,MVFR,-1.5,9.4,6.7,,,0.01,,0.15,0.25,,,METAR,3.0
KAST 131055Z AUTO 25007KT 7SM FEW026 OVC080 07/05 A3000 RMK AO2 SLP159 T00670050,KAST,2023-02-13T10:55:00Z,46.15,-123.88,6.7,5.0,250,7,,7.0,30.0,1015.9,,TRUE,TRUE,,,,,,,FEW,2600,OVC,8000,,,,,VFR,,,,,,,,,,,,METAR,3.0
KAST 130955Z AUTO 26007KT 7SM SCT027 OVC032 07/05 A3003 RMK AO2 SLP168 T00720050,KAST,2023-02-13T09:55:00Z,46.15,-123.88,7.2,5.0,260,7,,7.0,30.029528,1016.8,,TRUE,TRUE,,,,,,,SCT,2700,OVC,3200,,,,,VFR,,,,,,,,,,,,METAR,3.0
KAST 130855Z AUTO 28011G20KT 8SM FEW028 FEW034 08/05 A3004 RMK AO2 SLP170 60014 T00780050 57001,KAST,2023-02-13T08:55:00Z,46.15,-123.88,7.8,5.0,280,11,20,8.0,30.041338,1017.0,,TRUE,TRUE,,,,,,,FEW,2800,FEW,3400,,,,,VFR,-0.1,,,,,,0.14,,,,,METAR,3.0
KAST 130822Z AUTO 28011KT 8SM SCT024 SCT029 BKN050 08/06 A3004 RMK AO2 T00830061,KAST,2023-02-13T08:22:00Z,46.15,-123.88,8.3,6.1,280,11,,8.0,30.041338,,,TRUE,TRUE,,,,,,,SCT,2400,SCT,2900,BKN,5000,,,VFR,,,,,,,,,,,,SPECI,3.0
KAST 130755Z AUTO 29014G24KT 8SM FEW008 BKN015 OVC029 08/07 A3004 RMK AO2 RAE32 SLP171 P0003 T00830072 401061011,KAST,2023-02-13T07:55:00Z,46.15,-123.88,8.3,7.2,290,14,24,8.0,30.041338,1017.1,,TRUE,TRUE,,,,,,,FEW,800,BKN,1500,OVC,2900,,,MVFR,,,,10.6,-1.1,0.03,,,,,,METAR,3.0
KAST 130750Z AUTO 28015G20KT 8SM SCT008 OVC017 09/08 A3004 RMK AO2 RAE32 P0003,KAST,2023-02-13T07:50:00Z,46.15,-123.88,9.0,8.0,280,15,20,8.0,30.041338,,,TRUE,TRUE,,,,,,,SCT,800,OVC,1700,,,,,MVFR,,,,,,0.03,,,,,,SPECI,3.0
KAST 130732Z AUTO 28010KT 5SM BR BKN005 BKN010 OVC018 09/08 A3003 RMK AO2 RAE32 P0003 T00890078,KAST,2023-02-13T07:32:00Z,46.15,-123.88,8.9,7.8,280,10,,5.0,30.029528,,,TRUE,TRUE,,,,,,BR,BKN,500,BKN,1000,OVC,1800,,,IFR,,,,,,0.03,,,,,,SPECI,3.0
KAST 130655Z AUTO 24009KT 2SM -RA BR OVC005 09/08 A3004 RMK AO2 SLP172 P0011 T00890083,KAST,2023-02-13T06:55:00Z,46.15,-123.88,8.9,8.3,240,9,,2.0,30.041338,1017.2,,TRUE,TRUE,,,,,,-RA BR,OVC,500,,,,,,,IFR,,,,,,0.11,,,,,,METAR,3.0
KAST 130645Z AUTO 22008KT 2SM -RA BR OVC007 09/08 A3004 RMK AO2 P0009 T00890078,KAST,2023-02-13T06:45:00Z,46.15,-123.88,8.9,7.8,220,8,,2.0,30.041338,,,TRUE,TRUE,,,,,,-RA BR,OVC,700,,,,,,,IFR,,,,,,0.09,,,,,,SPECI,3.0
KAST 130633Z AUTO 21010KT 1 3/4SM RA BR OVC009 09/08 A3005 RMK AO2 P0006 T00890078,KAST,2023-02-13T06:33:00Z,46.15,-123.88,8.9,7.8,210,10,,1.75,30.050198,,,TRUE,TRUE,,,,,,RA BR,OVC,900,,,,,,,IFR,,,,,,0.06,,,,,,SPECI,3.0
KAST 130614Z AUTO 21011G19KT 1 3/4SM -RA BR FEW006 OVC011 09/08 A3005 RMK AO2 P0002 T00890078,KAST,2023-02-13T06:14:00Z,46.15,-123.88,8.9,7.8,210,11,19,1.75,30.050198,,,TRUE,TRUE,,,,,,-RA BR,FEW,600,OVC,1100,,,,,IFR,,,,,,0.02,,,,,,SPECI,3.0
KAST 130607Z AUTO 21010G19KT 1 3/4SM -RA BR OVC013 09/08 A3005 RMK AO2 P0001 T00890078,KAST,2023-02-13T06:07:00Z,46.15,-123.88,8.9,7.8,210,10,19,1.75,30.050198,,,TRUE,TRUE,,,,,,-RA BR,OVC,1300,,,,,,,IFR,,,,,,0.01,,,,,,SPECI,3.0
KAST 130555Z AUTO 21010G19KT 2 1/2SM -RA BR FEW006 OVC017 09/08 A3005 RMK AO2 SLP175 P0005 60010 T00890078 10089 20067 57017,KAST,2023-02-13T05:55:00Z,46.15,-123.88,8.9,7.8,210,10,19,2.5,30.050198,1017.5,,TRUE,TRUE,,,,,,-RA BR,FEW,600,OVC,1700,,,,,IFR,-1.7,8.9,6.7,,,0.05,,0.1,,,,METAR,3.0
KAST 130536Z AUTO 21010KT 2 1/2SM -RA BR BKN025 OVC037 08/07 A3006 RMK AO2 CIG 020 RWY 08 P0003 T00830072,KAST,2023-02-13T05:36:00Z,46.15,-123.88,8.3,7.2,210,10,,2.5,30.059055,,,TRUE,TRUE,,,,,,-RA BR,BKN,2500,OVC,3700,,,,,IFR,,,,,,0.03,,,,,,SPECI,3.0
KAST 130517Z AUTO 21010KT 3SM -RA BR FEW012 OVC025 08/07 A3006 RMK AO2 P0001 T00830072,KAST,2023-02-13T05:17:00Z,46.15,-123.88,8.3,7.2,210,10,,3.0,30.059055,,,TRUE,TRUE,,,,,,-RA BR,FEW,1200,OVC,2500,,,,,MVFR,,,,,,0.01,,,,,,SPECI,3.0
KAST 130507Z AUTO 20009KT 3SM -RA BR BKN014 OVC023 08/07 A3006 RMK AO2 P0001 T00830072,KAST,2023-02-13T05:07:00Z,46.15,-123.88,8.3,7.2,200,9,,3.0,30.059055,,,TRUE,TRUE,,,,,,-RA BR,BKN,1400,OVC,2300,,,,,MVFR,,,,,,0.01,,,,,,METAR,3.0
KAST 130455Z AUTO 22007KT 6SM -RA BR FEW011 BKN019 OVC029 08/07 A3007 RMK AO2 SLP180 P0001 T00830072,KAST,2023-02-13T04:55:00Z,46.15,-123.88,8.3,7.2,220,7,,6.0,30.070866,1018.0,,TRUE,TRUE,,,,,,-RA BR,FEW,1100,BKN,1900,OVC,2900,,,MVFR,,,,,,0.01,,,,,,METAR,3.0
KAST 130406Z AUTO 19007G16KT 3SM -RA BR SCT005 OVC017 08/07 A3008 RMK AO2 P0000 T00780067,KAST,2023-02-13T04:06:00Z,46.15,-123.88,7.8,6.7,190,7,16,3.0,30.079725,,,TRUE,TRUE,,,,,,-RA BR,SCT,500,OVC,1700,,,,,MVFR,,,,,,0.005,,,,,,SPECI,3.0
KAST 130355Z AUTO 20007KT 2 1/2SM -RA BR BKN005 OVC013 08/07 A3008 RMK AO2 SLP186 P0002 T00780067,KAST,2023-02-13T03:55:00Z,46.15,-123.88,7.8,6.7,200,7,,2.5,30.079725,1018.6,,TRUE,TRUE,,,,,,-RA BR,BKN,500,OVC,1300,,,,,IFR,,,,,,0.02,,,,,,METAR,3.0
KAST 130306Z AUTO 19009KT 2 1/2SM -RA BR SCT009 OVC013 07/06 A3010 RMK AO2 P0000 T00720061,KAST,2023-02-13T03:06:00Z,46.15,-123.88,7.2,6.1,190,9,,2.5,30.100393,,,TRUE,TRUE,,,,,,-RA BR,SCT,900,OVC,1300,,,,,IFR,,,,,,0.005,,,,,,SPECI,3.0
KAST 130255Z AUTO 19008KT 2 1/2SM -RA BR BKN009 OVC015 07/06 A3010 RMK AO2 SLP192 P0002 60002 T00720056 58007,KAST,2023-02-13T02:55:00Z,46.15,-123.88,7.2,5.6,190,8,,2.5,30.100393,1019.2,,TRUE,TRUE,,,,,,-RA BR,BKN,900,OVC,1500,,,,,IFR,-0.7,,,,,0.02,0.02,,,,,METAR,3.0
KAST 130227Z AUTO 21007KT 3SM -RA BR BKN009 BKN015 OVC020 07/05 A3011 RMK AO2 P0001 T00720050,KAST,2023-02-13T02:27:00Z,46.15,-123.88,7.2,5.0,210,7,,3.0,30.109253,,,TRUE,TRUE,,,,,,-RA BR,BKN,900,BKN,1500,OVC,2000,,,IFR,,,,,,0.01,,,,,,SPECI,3.0
KAST 130207Z AUTO 23009KT 5SM -RA FEW013 BKN025 OVC033 08/04 A3012 RMK AO2 P0000 T00780039,KAST,2023-02-13T02:07:00Z,46.15,-123.88,7.8,3.9,230,9,,5.0,30.121063,,,TRUE,TRUE,,,,,,-RA,FEW,1300,BKN,2500,OVC,3300,,,MVFR,,,,,,0.005,,,,,,SPECI,3.0
KAST 130155Z AUTO 23007KT 9SM -RA FEW014 SCT024 OVC031 09/06 A3012 RMK AO2 RAB49 SLP198 P0000 T00890056,KAST,2023-02-13T01:55:00Z,46.15,-123.88,8.9,5.6,230,7,,9.0,30.121063,1019.8,,TRUE,TRUE,,,,,,-RA,FEW,1400,SCT,2400,OVC,3100,,,VFR,,,,,,0.005,,,,,,METAR,3.0
KAST 130151Z AUTO 23007KT 10SM -RA FEW025 BKN031 OVC035 09/06 A3012 RMK AO2 RAB49 P0000,KAST,2023-02-13T01:51:00Z,46.15,-123.88,9.0,6.0,230,7,,10.0,30.121063,,,TRUE,TRUE,,,,,,-RA,FEW,2500,BKN,3100,OVC,3500,,,VFR,,,,,,0.005,,,,,,METAR,3.0
KAST 130134Z AUTO 23008KT 10SM OVC029 09/06 A3012 RMK AO2 T00890061,KAST,2023-02-13T01:34:00Z,46.15,-123.88,8.9,6.1,230,8,,10.0,30.121063,,,TRUE,TRUE,,,,,,,OVC,2900,,,,,,,MVFR,,,,,,,,,,,,SPECI,3.0
KAST 130055Z AUTO 23008KT 10SM BKN033 OVC044 09/06 A3012 RMK AO2 SLP199 T00890061,KAST,2023-02-13T00:55:00Z,46.15,-123.88,8.9,6.1,230,8,,10.0,30.121063,1019.9,,TRUE,TRUE,,,,,,,BKN,3300,OVC,4400,,,,,VFR,,,,,,,,,,,,METAR,3.0
KAST 122355Z AUTO 23006KT 10SM OVC038 09/06 A3014 RMK AO2 SLP206 T00940056 10106 20056 56025,KAST,2023-02-12T23:55:00Z,46.15,-123.88,9.4,5.6,230,6,,10.0,30.138779,1020.6,,TRUE,TRUE,,,,,,,OVC,3800,,,,,,,VFR,-2.5,10.6,5.6,,,,,,,,,METAR,3.0
KAST 122255Z AUTO 25008KT 10SM OVC038 09/04 A3015 RMK AO2 SLP209 T00940044,KAST,2023-02-12T22:55:00Z,46.15,-123.88,9.4,4.4,250,8,,10.0,30.15059,1020.9,,TRUE,TRUE,,,,,,,OVC,3800,,,,,,,VFR,,,,,,,,,,,,METAR,3.0
KAST 122155Z AUTO 22005KT 10SM SCT044 10/05 A3017 RMK AO2 SLP216 T01000050,KAST,2023-02-12T21:55:00Z,46.15,-123.88,10.0,5.0,220,5,,10.0,30.171259,1021.6,,TRUE,TRUE,,,,,,,SCT,4400,,,,,,,VFR,,,,,,,,,,,,METAR,3.0
KAST 122055Z AUTO 20005KT 10SM FEW043 09/06 A3021 RMK AO2 PRESFR SLP231 T00940056 58015,KAST,2023-02-12T20:55:00Z,46.15,-123.88,9.4,5.6,200,5,,10.0,30.209646,1023.1,,TRUE,TRUE,,,,,,,FEW,4300,,,,,,,VFR,-1.5,,,,,,,,,,,METAR,3.0
KAST 121955Z AUTO 02003KT 10SM FEW014 08/04 A3024 RMK AO2 SLP240 T00830044,KAST,2023-02-12T19:55:00Z,46.15,-123.88,8.3,4.4,20,3,,10.0,30.239174,1024.0,,TRUE,TRUE,,,,,,,FEW,1400,,,,,,,VFR,,,,,,,,,,,,METAR,3.0
KAST 121855Z AUTO 00000KT 10SM CLR 07/04 A3026 RMK AO2 SLP245 T00720039,KAST,2023-02-12T18:55:00Z,46.15,-123.88,7.2,3.9,0,0,,10.0,30.259842,1024.5,,TRUE,TRUE,,,,,,,CLR,,,,,,,,VFR,,,,,,,,,,,,METAR,3.0
KAST 121755Z AUTO 00000KT 9SM CLR 05/03 A3026 RMK AO2 SLP246 I6001 T00500028 10050 21011 53003,KAST,2023-02-12T17:55:00Z,46.15,-123.88,5.0,2.8,0,0,,9.0,30.259842,1024.6,,TRUE,TRUE,,,,,,,CLR,,,,,,,,VFR,0.3,5.0,-1.1,,,,,,,,,METAR,3.0
KAST 121655Z AUTO 00000KT 8SM CLR 02/02 A3024 RMK AO2 SLP239 I1000 T00170017,KAST,2023-02-12T16:55:00Z,46.15,-123.88,1.7,1.7,0,0,,8.0,30.239174,1023.9,,TRUE,TRUE,,,,,,,CLR,,,,,,,,VFR,,,,,,,,,,,,METAR,3.0
KAST 121636Z AUTO 00000KT 5SM BR FEW003 01/00 A3024 RMK AO2 I1000 T00060000,KAST,2023-02-12T16:36:00Z,46.15,-123.88,0.6,0.0,0,0,,5.0,30.239174,,,TRUE,TRUE,,,,,,BR,FEW,300,,,,,,,MVFR,,,,,,,,,,,,SPECI,3.0
KAST 121628Z AUTO 00000KT 2SM BR SCT003 01/00 A3024 RMK AO2 I1000 T00060000,KAST,2023-02-12T16:28:00Z,46.15,-123.88,0.6,0.0,0,0,,2.0,30.239174,,,TRUE,TRUE,,,,,,BR,SCT,300,,,,,,,IFR,,,,,,,,,,,,SPECI,3.0
KAST 121624Z AUTO 00000KT 1SM BR VV003 00/00 A3024 RMK AO2 I1000 T00000000,KAST,2023-02-12T16:24:00Z,46.15,-123.88,0.0,0.0,0,0,,1.0,30.239174,,,TRUE,TRUE,,,,,,BR,OVX,0,,,,,,,LIFR,,,,,,,,,,,300,METAR,3.0
KAST 121555Z AUTO 14004KT 1/4SM FG VV002 00/M01 A3025 RMK AO2 SLP242 T00001011,KAST,2023-02-12T15:55:00Z,46.15,-123.88,0.0,-1.1,140,4,,0.25,30.250984,1024.2,,TRUE,TRUE,,,,,,FG,OVX,0,,,,,,,LIFR,,,,,,,,,,,200,METAR,3.0
KAST 121546Z AUTO 13004KT M1/4SM FZFG VV002 M01/M01 A3024 RMK AO2 T10061011,KAST,2023-02-12T15:46:00Z,46.15,-123.88,-0.6,-1.1,130,4,,0.25,30.239174,,,TRUE,TRUE,,,,,,FZFG,OVX,0,,,,,,,LIFR,,,,,,,,,,,200,METAR,3.0
KAST 121455Z AUTO 00000KT 1/4SM FG VV002 00/M01 A3025 RMK AO2 SLP243 I1001 I3001 T00001006 58003,KAST,2023-02-12T14:55:00Z,46.15,-123.88,0.0,-0.6,0,0,,0.25,30.250984,1024.3,,TRUE,TRUE,,,,,,FG,OVX,0,,,,,,,LIFR,-0.3,,,,,,,,,,200,METAR,3.0
KAST 121431Z AUTO 00000KT 1/4SM FZFG VV002 M01/M01 A3025 RMK AO2 I1000 T10061006,KAST,2023-02-12T14:31:00Z,46.15,-123.88,-0.6,-0.6,0,0,,0.25,30.250984,,,TRUE,TRUE,,,,,,FZFG,OVX,0,,,,,,,LIFR,,,,,,,,,,,200,SPECI,3.0
KAST 121418Z AUTO 00000KT 1/2SM FG VV002 00/M01 A3026 RMK AO2 I1000 T00001006,KAST,2023-02-12T14:18:00Z,46.15,-123.88,0.0,-0.6,0,0,,0.5,30.259842,,,TRUE,TRUE,,,,,,FG,OVX,0,,,,,,,LIFR,,,,,,,,,,,200,SPECI,3.0
KAST 121408Z AUTO 00000KT 1 1/4SM BR OVC002 00/M01 A3025 RMK AO2 I1000 T00001011,KAST,2023-02-12T14:08:00Z,46.15,-123.88,0.0,-1.1,0,0,,1.25,30.250984,,,TRUE,TRUE,,,,,,BR,OVC,200,,,,,,,LIFR,,,,,,,,,,,,SPECI,3.0
KAST 121402Z AUTO 14003KT 2 1/2SM BR OVC002 00/M01 A3025 RMK AO2 VIS 1 RWY 08 I1000 T00001011,KAST,2023-02-12T14:02:00Z,46.15,-123.88,0.0,-1.1,140,3,,2.5,30.250984,,,TRUE,TRUE,,,,,,BR,OVC,200,,,,,,,LIFR,,,,,,,,,,,,SPECI,3.0
KAST 121355Z AUTO 15004KT 1 3/4SM BR OVC002 M01/M01 A3025 RMK AO2 VIS 1/2 RWY 08 SLP244 T10061011,KAST,2023-02-12T13:55:00Z,46.15,-123.88,-0.6,-1.1,150,4,,1.75,30.250984,1024.4,,TRUE,TRUE,,,,,,BR,OVC,200,,,,,,,LIFR,,,,,,,,,,,,SPECI,3.0
KAST 121348Z AUTO 15003KT 3/4SM BR VV002 M01/M01 A3026 RMK AO2 T10061011,KAST,2023-02-12T13:48:00Z,46.15,-123.88,-0.6,-1.1,150,3,,0.75,30.259842,,,TRUE,TRUE,,,,,,BR,OVX,0,,,,,,,LIFR,,,,,,,,,,,200,METAR,3.0
KAST 121339Z AUTO 15004KT 1 1/4SM BR BKN003 M01/M02 A3026 RMK AO2 T10061017,KAST,2023-02-12T13:39:00Z,46.15,-123.88,-0.6,-1.7,150,4,,1.25,30.259842,,,TRUE,TRUE,,,,,,BR,BKN,300,,,,,,,LIFR,,,,,,,,,,,,SPECI,3.0
KAST 121334Z AUTO 15004KT 2 1/2SM BR BKN003 M01/M02 A3025 RMK AO2 T10061017,KAST,2023-02-12T13:34:00Z,46.15,-123.88,-0.6,-1.7,150,4,,2.5,30.250984,,,TRUE,TRUE,,,,,,BR,BKN,300,,,,,,,LIFR,,,,,,,,,,,,METAR,3.0
KAST 121302Z AUTO 14003KT 5SM BR FEW005 00/M02 A3026 RMK AO2 T00001017,KAST,2023-02-12T13:02:00Z,46.15,-123.88,0.0,-1.7,140,3,,5.0,30.259842,,,TRUE,TRUE,,,,,,BR,FEW,500,,,,,,,MVFR,,,,,,,,,,,,SPECI,3.0
KAST 121255Z AUTO 13003KT 2 1/2SM BR FEW005 00/M02 A3026 RMK AO2 SLP246 T00001017,KAST,2023-02-12T12:55:00Z,46.15,-123.88,0.0,-1.7,130,3,,2.5,30.259842,1024.6,,TRUE,TRUE,,,,,,BR,FEW,500,,,,,,,IFR,,,,,,,,,,,,METAR,3.0
KAST 121247Z AUTO 00000KT 1 1/4SM BR FEW005 M01/M02 A3026 RMK AO2 T10061022,KAST,2023-02-12T12:47:00Z,46.15,-123.88,-0.6,-2.2,0,0,,1.25,30.259842,,,TRUE,TRUE,,,,,,BR,FEW,500,,,,,,,IFR,,,,,,,,,,,,SPECI,3.0
KAST 121243Z AUTO 00000KT 2 1/2SM BR FEW005 M01/M02 A3025 RMK AO2 VIS 1 RWY 08 T10061022,KAST,2023-02-12T12:43:00Z,46.15,-123.88,-0.6,-2.2,0,0,,2.5,30.250984,,,TRUE,TRUE,,,,,,BR,FEW,500,,,,,,,IFR,,,,,,,,,,,,SPECI,3.0
KAST 121155Z AUTO 00000KT 10SM CLR M01/M01 A3026 RMK AO2 SLP247 T10061011 10022 21006 58002,KAST,2023-02-12T11:55:00Z,46.15,-123.88,-0.6,-1.1,0,0,,10.0,30.259842,1024.7,,TRUE,TRUE,,,,,,,CLR,,,,,,,,VFR,-0.2,2.2,-0.6,,,,,,,,,METAR,3.0
KAST 121055Z AUTO 14004KT 9SM CLR 01/M01 A3026 RMK AO2 SLP248 T00061006,KAST,2023-02-12T10:55:00Z,46.15,-123.88,0.6,-0.6,140,4,,9.0,30.259842,1024.8,,TRUE,TRUE,,,,,,,CLR,,,,,,,,VFR,,,,,,,,,,,,METAR,3.0
KAST 121049Z AUTO 14004KT 3SM BR CLR 00/M01 A3027 RMK AO2,KAST,2023-02-12T10:49:00Z,46.15,-123.88,0.0,-1.0,140,4,,3.0,30.268702,,,TRUE,TRUE,,,,,,BR,CLR,,,,,,,,MVFR,,,,,,,,,,,,SPECI,3.0
KAST 121042Z AUTO 14004KT 1 3/4SM BR CLR M01/M02 A3027 RMK AO2 T10061017,KAST,2023-02-12T10:42:00Z,46.15,-123.88,-0.6,-1.7,140,4,,1.75,30.268702,,,TRUE,TRUE,,,,,,BR,CLR,,,,,,,,IFR,,,,,,,,,,,,SPECI,3.0
KAST 120955Z AUTO 00000KT 10SM CLR 00/M01 A3028 RMK AO2 SLP254 T00001006,KAST,2023-02-12T09:55:00Z,46.15,-123.88,0.0,-0.6,0,0,,10.0,30.280512,1025.4,,TRUE,TRUE,,,,,,,CLR,,,,,,,,VFR,,,,,,,,,,,,SPECI,3.0
KAST 120855Z AUTO 00000KT 8SM CLR 00/M01 A3027 RMK AO2 SLP249 T00001011 55000,KAST,2023-02-12T08:55:00Z,46.15,-123.88,0.0,-1.1,0,0,,8.0,30.268702,1024.9,,TRUE,TRUE,,,,,,,CLR,,,,,,,,VFR,0.0,,,,,,,,,,,METAR,3.0
KAST 120755Z AUTO 11003KT 10SM CLR 01/M01 A3026 RMK AO2 SLP248 T00061006 401001017,KAST,2023-02-12T07:55:00Z,46.15,-123.88,0.6,-0.6,110,3,,10.0,30.259842,1024.8,,TRUE,TRUE,,,,,,,CLR,,,,,,,,VFR,,,,10.0,-1.7,,,,,,,METAR,3.0
KAST 120655Z AUTO 00000KT 10SM CLR 02/01 A3027 RMK AO2 SLP250 T00170011,KAST,2023-02-12T06:55:00Z,46.15,-123.88,1.7,1.1,0,0,,10.0,30.268702,1025.0,,TRUE,TRUE,,,,,,,CLR,,,,,,,,VFR,,,,,,,,,,,,METAR,3.0
KAST 120555Z AUTO 13003KT 10SM CLR 02/01 A3027 RMK AO2 SLP249 T00220006 10089 20017 53004,KAST,2023-02-12T05:55:00Z,46.15,-123.88,2.2,0.6,130,3,,10.0,30.268702,1024.9,,TRUE,TRUE,,,,,,,CLR,,,,,,,,VFR,0.4,8.9,1.7,,,,,,,,,METAR,3.0
KAST 120455Z AUTO 00000KT 10SM CLR 03/02 A3026 RMK AO2 SLP245 T00330017,KAST,2023-02-12T04:55:00Z,46.15,-123.88,3.3,1.7,0,0,,10.0,30.259842,1024.5,,TRUE,TRUE,,,,,,,CLR,,,,,,,,VFR,,,,,,,,,,,,METAR,3.0
KAST 120355Z AUTO 00000KT 10SM CLR 04/02 A3025 RMK AO2 SLP243 T00390017,KAST,2023-02-12T03:55:00Z,46.15,-123.88,3.9,1.7,0,0,,10.0,30.250984,1024.3,,TRUE,TRUE,,,,,,,CLR,,,,,,,,VFR,,,,,,,,,,,,METAR,3.0
KAST 120255Z AUTO 32006KT 10SM CLR 06/03 A3026 RMK AO2 SLP245 T00610028 56003,KAST,2023-02-12T02:55:00Z,46.15,-123.88,6.1,2.8,320,6,,10.0,30.259842,1024.5,,TRUE,TRUE,,,,,,,CLR,,,,,,,,VFR,-0.3,,,,,,,,,,,METAR,3.0
KAST 120155Z AUTO 34007KT 10SM CLR 07/03 A3026 RMK AO2 SLP245 T00670028,KAST,2023-02-12T01:55:00Z,46.15,-123.88,6.7,2.8,340,7,,10.0,30.259842,1024.5,,TRUE,TRUE,,,,,,,CLR,,,,,,,,VFR,,,,,,,,,,,,METAR,3.0
KAST 120055Z AUTO 32009KT 10SM CLR 08/03 A3026 RMK AO2 SLP245 T00780033,KAST,2023-02-12T00:55:00Z,46.15,-123.88,7.8,3.3,320,9,,10.0,30.259842,1024.5,,TRUE,TRUE,,,,,,,CLR,,,,,,,,VFR,,,,,,,,,,,,METAR,3.0
KAST 112355Z AUTO 33007KT 10SM CLR 09/03 A3027 RMK AO2 SLP248 T00890033 10100 20039 56010,KAST,2023-02-11T23:55:00Z,46.15,-123.88,8.9,3.3,330,7,,10.0,30.268702,1024.8,,TRUE,TRUE,,,,,,,CLR,,,,,,,,VFR,-1.0,10.0,3.9,,,,,,,,,METAR,3.0
KAST 112255Z AUTO 33009KT 10SM SCT030 09/04 A3028 RMK AO2 SLP252 T00940039,KAST,2023-02-11T22:55:00Z,46.15,-123.88,9.4,3.9,330,9,,10.0,30.280512,1025.2,,TRUE,TRUE,,,,,,,SCT,3000,,,,,,,VFR,,,,,,,,,,,,METAR,3.0
KAST 112155Z AUTO 31005KT 10SM CLR 09/04 A3028 RMK AO2 SLP252 T00940039,KAST,2023-02-11T21:55:00Z,46.15,-123.88,9.4,3.9,310,5,,10.0,30.280512,1025.2,,TRUE,TRUE,,,,,,,CLR,,,,,,,,VFR,,,,,,,,,,,,METAR,3.0
KAST 112055Z AUTO 01003KT 10SM CLR 09/03 A3029 RMK AO2 SLP258 T00940033 58010,KAST,2023-02-11T20:55:00Z,46.15,-123.88,9.4,3.3,10,3,,10.0,30.28937,1025.8,,TRUE,TRUE,,,,,,,CLR,,,,,,,,VFR,-1.0,,,,,,,,,,,METAR,3.0
KAST 111955Z AUTO 32006KT 10SM CLR 07/04 A3031 RMK AO2 SLP264 T00670039,KAST,2023-02-11T19:55:00Z,46.15,-123.88,6.7,3.9,320,6,,10.0,30.31004,1026.4,,TRUE,TRUE,,,,,,,CLR,,,,,,,,VFR,,,,,,,,,,,,METAR,3.0
KAST 111855Z AUTO 00000KT 10SM CLR 07/04 A3031 RMK AO2 SLP264 T00720039,KAST,2023-02-11T18:55:00Z,46.15,-123.88,7.2,3.9,0,0,,10.0,30.31004,1026.4,,TRUE,TRUE,,,,,,,CLR,,,,,,,,VFR,,,,,,,,,,,,SPECI,3.0
KAST 111755Z AUTO 00000KT 10SM CLR 04/03 A3032 RMK AO2 SLP268 I6000 T00390028 10039 21017 51008,KAST,2023-02-11T17:55:00Z,46.15,-123.88,3.9,2.8,0,0,,10.0,30.318897,1026.8,,TRUE,TRUE,,,,,,,CLR,,,,,,,,VFR,0.8,3.9,-1.7,,,,,,,,,SPECI,3.0
KAST 111655Z AUTO 11003KT 9SM CLR 01/00 A3032 RMK AO2 SLP267 I1000 T00110000,KAST,2023-02-11T16:55:00Z,46.15,-123.88,1.1,0.0,110,3,,9.0,30.318897,1026.7,,TRUE,TRUE,,,,,,,CLR,,,,,,,,VFR,,,,,,,,,,,,METAR,3.0
KAST 111628Z AUTO 10003KT 10SM SCT005 00/M01 A3032 RMK AO2 I1000 T00001011,KAST,2023-02-11T16:28:00Z,46.15,-123.88,0.0,-1.1,100,3,,10.0,30.318897,,,TRUE,TRUE,,,,,,,SCT,500,,,,,,,VFR,,,,,,,,,,,,METAR,3.0
KAST 111619Z AUTO 11003KT 3SM BR BKN005 M01/M01 A3032 RMK AO2 VIS 1 1/4 RWY 08 I1000 T10061011,KAST,2023-02-11T16:19:00Z,46.15,-123.88,-0.6,-1.1,110,3,,3.0,30.318897,,,TRUE,TRUE,,,,,,BR,BKN,500,,,,,,,IFR,,,,,,,,,,,,SPECI,3.0
KAST 111617Z AUTO 00000KT 1 1/2SM BR BKN005 M01/M01 A3032 RMK AO2 I1000 T10061011,KAST,2023-02-11T16:17:00Z,46.15,-123.88,-0.6,-1.1,0,0,,1.5,30.318897,,,TRUE,TRUE,,,,,,BR,BKN,500,,,,,,,IFR,,,,,,,,,,,,SPECI,3.0
KAST 111610Z AUTO 13003KT 1/2SM FZFG VV005 M01/M02 A3032 RMK AO2 T10111017,KAST,2023-02-11T16:10:00Z,46.15,-123.88,-1.1,-1.7,130,3,,0.5,30.318897,,,TRUE,TRUE,,,,,,FZFG,OVX,0,,,,,,,LIFR,,,,,,,,,,,500,SPECI,3.0
KAST 111603Z AUTO 12004KT 1SM BR VV005 M01/M02 A3032 RMK AO2 T10111017,KAST,2023-02-11T16:03:00Z,46.15,-123.88,-1.1,-1.7,120,4,,1.0,30.318897,,,TRUE,TRUE,,,,,,BR,OVX,0,,,,,,,LIFR,,,,,,,,,,,500,SPECI,3.0
KAST 111600Z AUTO 12004KT 2 1/2SM BR BKN005 M01/M02 A3032 RMK AO2 VIS 3/4 RWY 08 T10111017,KAST,2023-02-11T16:00:00Z,46.15,-123.88,-1.1,-1.7,120,4,,2.5,30.318897,,,TRUE,TRUE,,,,,,BR,BKN,500,,,,,,,IFR,,,,,,,,,,,,SPECI,3.0
KAST 111558Z AUTO 12003KT 1 1/4SM BR SCT005 M01/M02 A3032 RMK AO2 VIS 1/2 RWY 08 T10111017,KAST,2023-02-11T15:58:00Z,46.15,-123.88,-1.1,-1.7,120,3,,1.25,30.318897,,,TRUE,TRUE,,,,,,BR,SCT,500,,,,,,,IFR,,,,,,,,,,,,SPECI,3.0
KAST 111555Z AUTO 00000KT 3/4SM BR VV005 M01/M02 A3032 RMK AO2 SLP268 I1000 T10111017,KAST,2023-02-11T15:55:00Z,46.15,-123.88,-1.1,-1.7,0,0,,0.75,30.318897,1026.8,,TRUE,TRUE,,,,,,BR,OVX,0,,,,,,,LIFR,,,,,,,,,,,500,METAR,3.0
KAST 111546Z AUTO 00000KT 1/2SM FZFG VV005 M02/M02 A3032 RMK AO2 I1000 T10171022,KAST,2023-02-11T15:46:00Z,46.15,-123.88,-1.7,-2.2,0,0,,0.5,30.318897,,,TRUE,TRUE,,,,,,FZFG,OVX,0,,,,,,,LIFR,,,,,,,,,,,500,SPECI,3.0
KAST 111539Z AUTO 11003KT 1SM BR VV005 M02/M03 A3032 RMK AO2 T10171028,KAST,2023-02-11T15:39:00Z,46.15,-123.88,-1.7,-2.8,110,3,,1.0,30.318897,,,TRUE,TRUE,,,,,,BR,OVX,0,,,,,,,LIFR,,,,,,,,,,,500,SPECI,3.0
KAST 111537Z AUTO 12004KT 1 3/4SM BR FEW006 M02/M03 A3032 RMK AO2 T10171028,KAST,2023-02-11T15:37:00Z,46.15,-123.88,-1.7,-2.8,120,4,,1.75,30.318897,,,TRUE,TRUE,,,,,,BR,FEW,600,,,,,,,IFR,,,,,,,,,,,,METAR,3.0
KAST 111512Z AUTO 00000KT 3SM BR FEW007 M01/M02 A3030 RMK AO2 T10111017,KAST,2023-02-11T15:12:00Z,46.15,-123.88,-1.1,-1.7,0,0,,3.0,30.301182,,,TRUE,TRUE,,,,,,BR,FEW,700,,,,,,,MVFR,,,,,,,,,,,,METAR,3.0
KAST 111509Z AUTO 00000KT 1 1/2SM BR SCT005 M01/M02 A3030 RMK AO2 T10111017,KAST,2023-02-11T15:09:00Z,46.15,-123.88,-1.1,-1.7,0,0,,1.5,30.301182,,,TRUE,TRUE,,,,,,BR,SCT,500,,,,,,,IFR,,,,,,,,,,,,SPECI,3.0
KAST 111504Z AUTO 16003KT 1 1/4SM BR BKN005 M02/M02 A3030 RMK AO2 T10171017,KAST,2023-02-11T15:04:00Z,46.15,-123.88,-1.7,-1.7,160,3,,1.25,30.301182,,,TRUE,TRUE,,,,,,BR,BKN,500,,,,,,,IFR,,,,,,,,,,,,SPECI,3.0
KAST 111455Z AUTO 00000KT 2 1/2SM BR FEW005 M01/M01 A3030 RMK AO2 VIS 3/4 RWY 08 SLP260 I1000 I3000 T10061011 53001,KAST,2023-02-11T14:55:00Z,46.15,-123.88,-0.6,-1.1,0,0,,2.5,30.301182,1026.0,,TRUE,TRUE,,,,,,BR,FEW,500,,,,,,,IFR,0.1,,,,,,,,,,,METAR,3.0
KAST 111451Z AUTO 00000KT 1 1/4SM BR SCT005 M01/M01 A3030 RMK AO2 I1000,KAST,2023-02-11T14:51:00Z,46.15,-123.88,-1.0,-1.0,0,0,,1.25,30.301182,,,TRUE,TRUE,,,,,,BR,SCT,500,,,,,,,IFR,,,,,,,,,,,,METAR,3.0
KAST 111445Z AUTO 00000KT 1/2SM FZFG VV005 M01/M02 A3030 RMK AO2 I1000 T10111017,KAST,2023-02-11T14:45:00Z,46.15,-123.88,-1.1,-1.7,0,0,,0.5,30.301182,,,TRUE,TRUE,,,,,,FZFG,OVX,0,,,,,,,LIFR,,,,,,,,,,,500,SPECI,3.0
KAST 111438Z AUTO 08003KT 1SM BR VV005 M01/M02 A3030 RMK AO2 VIS 1/2V5 I1000 T10111017,KAST,2023-02-11T14:38:00Z,46.15,-123.88,-1.1,-1.7,80,3,,1.0,30.301182,,,TRUE,TRUE,,,,,,BR,OVX,0,,,,,,,LIFR,,,,,,,,,,,500,SPECI,3.0
KAST 111436Z AUTO 00000KT 1 1/2SM BR FEW004 M01/M02 A3030 RMK AO2 VIS 1/2V5 I1000 T10111017,KAST,2023-02-11T14:36:00Z,46.15,-123.88,-1.1,-1.7,0,0,,1.5,30.301182,,,TRUE,TRUE,,,,,,BR,FEW,400,,,,,,,IFR,,,,,,,,,,,,SPECI,3.0
KAST 111423Z AUTO 00000KT 3SM BR CLR M01/M02 A3030 RMK AO2 T10111022,KAST,2023-02-11T14:23:00Z,46.15,-123.88,-1.1,-2.2,0,0,,3.0,30.301182,,,TRUE,TRUE,,,,,,BR,CLR,,,,,,,,MVFR,,,,,,,,,,,,SPECI,3.0
KAST 111417Z AUTO 16003KT 1 3/4SM BR CLR M01/M02 A3029 RMK AO2 T10111017,KAST,2023-02-11T14:17:00Z,46.15,-123.88,-1.1,-1.7,160,3,,1.75,30.28937,,,TRUE,TRUE,,,,,,BR,CLR,,,,,,,,IFR,,,,,,,,,,,,SPECI,3.0
KAST 111355Z AUTO 13004KT 6SM BR CLR M01/M02 A3029 RMK AO2 SLP257 T10111017,KAST,2023-02-11T13:55:00Z,46.15,-123.88,-1.1,-1.7,130,4,,6.0,30.28937,1025.7,,TRUE,TRUE,,,,,,BR,CLR,,,,,,,,VFR,,,,,,,,,,,,METAR,3.0
KAST 111302Z AUTO 09003KT 8SM SCT003 M01/M01 A3029 RMK AO2 T10061011,KAST,2023-02-11T13:02:00Z,46.15,-123.88,-0.6,-1.1,90,3,,8.0,30.28937,,,TRUE,TRUE,,,,,,,SCT,300,,,,,,,VFR,,,,,,,,,,,,SPECI,3.0
KAST 111255Z AUTO 17005KT 3SM BR BKN003 00/M01 A3029 RMK AO2 I1001 T00001011,KAST,2023-02-11T12:55:00Z,46.15,-123.88,0.0,-1.1,170,5,,3.0,30.28937,,,TRUE,TRUE,,,,,,BR,BKN,300,,,,,,,LIFR,,,,,,,,,,,,METAR,3.0
KAST 111251Z AUTO 14005KT 1 3/4SM BR BKN003 M01/M01 A3029 RMK AO2 SLP257 I1000 T10061011,KAST,2023-02-11T12:51:00Z,46.15,-123.88,-0.6,-1.1,140,5,,1.75,30.28937,1025.7,,TRUE,TRUE,,,,,,BR,BKN,300,,,,,,,LIFR,,,,,,,,,,,,METAR,3.0
KAST 111250Z AUTO 13005KT 1 3/4SM BR BKN003 M01/M01 A3029 RMK AO2 I1000,KAST,2023-02-11T12:50:00Z,46.15,-123.88,-1.0,-1.0,130,5,,1.75,30.28937,,,TRUE,TRUE,,,,,,BR,BKN,300,,,,,,,LIFR,,,,,,,,,,,,SPECI,3.0
KAST 111207Z AUTO 12004KT 3SM BR SCT006 M01/M02 A3030 RMK AO2 T10111017,KAST,2023-02-11T12:07:00Z,46.15,-123.88,-1.1,-1.7,120,4,,3.0,30.301182,,,TRUE,TRUE,,,,,,BR,SCT,600,,,,,,,MVFR,,,,,,,,,,,,SPECI,3.0
KAST 111155Z AUTO 00000KT 2SM BR SCT006 M01/M02 A3030 RMK AO2 VIS 1 1/4V4 SLP259 70008 I6001 T10061017 10028 21006 51005,KAST,2023-02-11T11:55:00Z,46.15,-123.88,-0.6,-1.7,0,0,,2.0,30.301182,1025.9,,TRUE,TRUE,,,,,,BR,SCT,600,,,,,,,IFR,0.5,2.8,-0.6,,,,,,0.08,,,METAR,3.0
KAST 111116Z AUTO 00000KT 4SM BR FEW008 M01/M01 A3030 RMK AO2 T10061011,KAST,2023-02-11T11:16:00Z,46.15,-123.88,-0.6,-1.1,0,0,,4.0,30.301182,,,TRUE,TRUE,,,,,,BR,FEW,800,,,,,,,MVFR,,,,,,,,,,,,SPECI,3.0
KAST 111055Z AUTO 00000KT 10SM CLR 00/M01 A3029 RMK AO2 SLP258 I1001 T00001006,KAST,2023-02-11T10:55:00Z,46.15,-123.88,0.0,-0.6,0,0,,10.0,30.28937,1025.8,,TRUE,TRUE,,,,,,,CLR,,,,,,,,VFR,,,,,,,,,,,,METAR,3.0
KAST 111039Z AUTO 12004KT 10SM FEW006 00/M01 A3030 RMK AO2 I1001 T00001006,KAST,2023-02-11T10:39:00Z,46.15,-123.88,0.0,-0.6,120,4,,10.0,30.301182,,,TRUE,TRUE,,,,,,,FEW,600,,,,,,,VFR,,,,,,,,,,,,METAR,3.0
KAST 111032Z AUTO 00000KT 2SM BR BKN008 00/M01 A3030 RMK AO2 I1001 T00001006,KAST,2023-02-11T10:32:00Z,46.15,-123.88,0.0,-0.6,0,0,,2.0,30.301182,,,TRUE,TRUE,,,,,,BR,BKN,800,,,,,,,IFR,,,,,,,,,,,,SPECI,3.0
KAST 111024Z AUTO 14004KT 2SM BR SCT008 01/M01 A3030 RMK AO2 I1001 T00061006,KAST,2023-02-11T10:24:00Z,46.15,-123.88,0.6,-0.6,140,4,,2.0,30.301182,,,TRUE,TRUE,,,,,,BR,SCT,800,,,,,,,IFR,,,,,,,,,,,,SPECI,3.0
KAST 111018Z AUTO 13004KT 4SM BR FEW010 00/M01 A3029 RMK AO2 I1000 T00001011,KAST,2023-02-11T10:18:00Z,46.15,-123.88,0.0,-1.1,130,4,,4.0,30.28937,,,TRUE,TRUE,,,,,,BR,FEW,1000,,,,,,,MVFR,,,,,,,,,,,,SPECI,3.0
KAST 111016Z AUTO 13003KT 1 3/4SM BR SCT010 00/M01 A3029 RMK AO2 I1000 T00001011,KAST,2023-02-11T10:16:00Z,46.15,-123.88,0.0,-1.1,130,3,,1.75,30.28937,,,TRUE,TRUE,,,,,,BR,SCT,1000,,,,,,,IFR,,,,,,,,,,,,SPECI,3.0
KAST 111008Z AUTO 14004KT 1SM BR VV010 00/M01 A3030 RMK AO2 I1000 T00001011,KAST,2023-02-11T10:08:00Z,46.15,-123.88,0.0,-1.1,140,4,,1.0,30.301182,,,TRUE,TRUE,,,,,,BR,OVX,0,,,,,,,LIFR,,,,,,,,,,,1000,METAR,3.0
KAST 111006Z AUTO 13004KT 1 1/2SM BR FEW010 00/M01 A3030 RMK AO2 T00001011,KAST,2023-02-11T10:06:00Z,46.15,-123.88,0.0,-1.1,130,4,,1.5,30.301182,,,TRUE,TRUE,,,,,,BR,FEW,1000,,,,,,,IFR,,,,,,,,,,,,SPECI,3.0
KAST 110955Z AUTO 00000KT 10SM CLR 00/M01 A3029 RMK AO2 SLP258 T00001006,KAST,2023-02-11T09:55:00Z,46.15,-123.88,0.0,-0.6,0,0,,10.0,30.28937,1025.8,,TRUE,TRUE,,,,,,,CLR,,,,,,,,VFR,,,,,,,,,,,,METAR,3.0
KAST 110855Z AUTO 00000KT 8SM CLR 01/00 A3029 RMK AO2 SLP255 T00060000 51003,KAST,2023-02-11T08:55:00Z,46.15,-123.88,0.6,0.0,0,0,,8.0,30.28937,1025.5,,TRUE,TRUE,,,,,,,CLR,,,,,,,,VFR,0.3,,,,,,,,,,,METAR,3.0
KAST 110755Z AUTO 13005KT 10SM FEW022 01/00 A3028 RMK AO2 SLP254 T00060000 401110006,KAST,2023-02-11T07:55:00Z,46.15,-123.88,0.6,0.0,130,5,,10.0,30.280512,1025.4,,TRUE,TRUE,,,,,,,FEW,2200,,,,,,,VFR,,,,11.1,0.6,,,,,,,METAR,3.0
KAST 110716Z AUTO 00000KT 9SM SCT023 02/01 A3028 RMK AO2 T00220011,KAST,2023-02-11T07:16:00Z,46.15,-123.88,2.2,1.1,0,0,,9.0,30.280512,,,TRUE,TRUE,,,,,,,SCT,2300,,,,,,,VFR,,,,,,,,,,,,SPECI,3.0
KAST 110703Z AUTO 15004KT 10SM BKN022 02/01 A3028 RMK AO2 VIS 2 1/2 RWY 08 T00220011,KAST,2023-02-11T07:03:00Z,46.15,-123.88,2.2,1.1,150,4,,10.0,30.280512,,,TRUE,TRUE,,,,,,,BKN,2200,,,,,,,MVFR,,,,,,,,,,,,METAR,3.0
KAST 110655Z AUTO 00000KT 10SM SCT022 02/01 A3028 RMK AO2 VIS 2 RWY 08 SLP253 T00220011,KAST,2023-02-11T06:55:00Z,46.15,-123.88,2.2,1.1,0,0,,10.0,30.280512,1025.3,,TRUE,TRUE,,,,,,,SCT,2200,,,,,,,VFR,,,,,,,,,,,,METAR,3.0
KAST 110634Z AUTO 00000KT 9SM SCT022 02/02 A3028 RMK AO2 T00220017,KAST,2023-02-11T06:34:00Z,46.15,-123.88,2.2,1.7,0,0,,9.0,30.280512,,,TRUE,TRUE,,,,,,,SCT,2200,,,,,,,VFR,,,,,,,,,,,,SPECI,3.0
KAST 110555Z AUTO 00000KT 9SM BKN020 03/02 A3028 RMK AO2 SLP251 T00280017 10100 20028 51011,KAST,2023-02-11T05:55:00Z,46.15,-123.88,2.8,1.7,0,0,,9.0,30.280512,1025.1,,TRUE,TRUE,,,,,,,BKN,2000,,,,,,,MVFR,1.1,10.0,2.8,,,,,,,,,METAR,3.0
KAST 110455Z AUTO 19003KT 8SM CLR 04/03 A3025 RMK AO2 SLP242 T00390028,KAST,2023-02-11T04:55:00Z,46.15,-123.88,3.9,2.8,190,3,,8.0,30.250984,1024.2,,TRUE,TRUE,,,,,,,CLR,,,,,,,,VFR,,,,,,,,,,,,METAR,3.0
KAST 110355Z AUTO 31004KT 9SM CLR 06/04 A3024 RMK AO2 SLP240 T00560039,KAST,2023-02-11T03:55:00Z,46.15,-123.88,5.6,3.9,310,4,,9.0,30.239174,1024.0,,TRUE,TRUE,,,,,,,CLR,,,,,,,,VFR,,,,,,,,,,,,METAR,3.0
KAST 110255Z AUTO 33005KT 9SM CLR 06/04 A3024 RMK AO2 SLP238 T00610039 51011,KAST,2023-02-11T02:55:00Z,46.15,-123.88,6.1,3.9,330,5,,9.0,30.239174,1023.8,,TRUE,TRUE,,,,,,,CLR,,,,,,,,VFR,1.1,,,,,,,,,,,METAR,3.0
KAST 110155Z AUTO 33003KT 10SM CLR 07/04 A3023 RMK AO2 SLP235 T00720044,KAST,2023-02-11T01:55:00Z,46.15,-123.88,7.2,4.4,330,3,,10.0,30.230314,1023.5,,TRUE,TRUE,,,,,,,CLR,,,,,,,,VFR,,,,,,,,,,,,SPECI,3.0
KAST 110055Z AUTO 33007KT 9SM CLR 09/05 A3022 RMK AO2 SLP232 T00890050,KAST,2023-02-11T00:55:00Z,46.15,-123.88,8.9,5.0,330,7,,9.0,30.221457,1023.2,,TRUE,TRUE,,,,,,,CLR,,,,,,,,VFR,,,,,,,,,,,,METAR,3.0
KAST 102355Z AUTO 32011KT 9SM OVC040 10/06 A3020 RMK AO2 SLP227 T01000056 10111 20083 53003,KAST,2023-02-10T23:55:00Z,46.15,-123.88,10.0,5.6,320,11,,9.0,30.200787,1022.7,,TRUE,TRUE,,,,,,,OVC,4000,,,,,,,VFR,0.3,11.1,8.3,,,,,,,,,METAR,3.0
KAST 102255Z AUTO 32010KT 9SM SCT032 11/06 A3019 RMK AO2 SLP222 T01060056,KAST,2023-02-10T22:55:00Z,46.15,-123.88,10.6,5.6,320,10,,9.0,30.188976,1022.2,,TRUE,TRUE,,,,,,,SCT,3200,,,,,,,VFR,,,,,,,,,,,,METAR,3.0
KAST 102242Z AUTO 32008KT 9SM FEW019 BKN030 11/06 A3018 RMK AO2 T01060056,KAST,2023-02-10T22:42:00Z,46.15,-123.88,10.6,5.6,320,8,,9.0,30.180119,,,TRUE,TRUE,,,,,,,FEW,1900,BKN,3000,,,,,MVFR,,,,,,,,,,,,SPECI,3.0
KAST 102226Z AUTO 32008KT 7SM FEW019 BKN026 11/06 A3018 RMK AO2 T01060061,KAST,2023-02-10T22:26:00Z,46.15,-123.88,10.6,6.1,320,8,,7.0,30.180119,,,TRUE,TRUE,,,,,,,FEW,1900,BKN,2600,,,,,MVFR,,,,,,,,,,,,SPECI,3.0
KAST 102155Z AUTO 33007KT 8SM CLR 11/06 A3018 RMK AO2 SLP221 T01060061,KAST,2023-02-10T21:55:00Z,46.15,-123.88,10.6,6.1,330,7,,8.0,30.180119,1022.1,,TRUE,TRUE,,,,,,,CLR,,,,,,,,VFR,,,,,,,,,,,,METAR,3.0
KAST 102055Z AUTO 34004KT 10SM CLR 11/07 A3019 RMK AO2 SLP224 T01110067 58008,KAST,2023-02-10T20:55:00Z,46.15,-123.88,11.1,6.7,340,4,,10.0,30.188976,1022.4,,TRUE,TRUE,,,,,,,CLR,,,,,,,,VFR,-0.8,,,,,,,,,,,METAR,3.0
KAST 101955Z AUTO 00000KT 10SM CLR 10/08 A3021 RMK AO2 SLP228 T01000083,KAST,2023-02-10T19:55:00Z,46.15,-123.88,10.0,8.3,0,0,,10.0,30.209646,1022.8,,TRUE,TRUE,,,,,,,CLR,,,,,,,,VFR,,,,,,,,,,,,METAR,3.0
KAST 101855Z AUTO VRB05KT 10SM FEW005 FEW027 SCT110 09/07 A3021 RMK AO2 SLP229 T00890072,KAST,2023-02-10T18:55:00Z,46.15,-123.88,8.9,7.2,0,5,,10.0,30.209646,1022.9,,TRUE,TRUE,,,,,,,FEW,500,FEW,2700,SCT,11000,,,VFR,,,,,,,,,,,,METAR,3.0
KAST 101804Z AUTO 14004KT 10SM FEW005 FEW008 BKN050 08/07 A3022 RMK AO2 T00830072,KAST,2023-02-10T18:04:00Z,46.15,-123.88,8.3,7.2,140,4,,10.0,30.221457,,,TRUE,TRUE,,,,,,,FEW,500,FEW,800,BKN,5000,,,VFR,,,,,,,,,,,,SPECI,3.0
KAST 101755Z AUTO 00000KT 10SM SCT005 BKN009 BKN029 08/07 A3022 RMK AO2 SLP232 60008 T00830072 10089 20061 51017,KAST,2023-02-10T17:55:00Z,46.15,-123.88,8.3,7.2,0,0,,10.0,30.221457,1023.2,,TRUE,TRUE,,,,,,,SCT,500,BKN,900,BKN,2900,,,IFR,1.7,8.9,6.1,,,,,0.08,,,,METAR,3.0
KAST 101725Z AUTO 13003KT 10SM SCT003 SCT030 BKN100 08/07 A3021 RMK AO2 T00780072,KAST,2023-02-10T17:25:00Z,46.15,-123.88,7.8,7.2,130,3,,10.0,30.209646,,,TRUE,TRUE,,,,,,,SCT,300,SCT,3000,BKN,10000,,,VFR,,,,,,,,,,,,METAR,3.0
KAST 101655Z AUTO 16004KT 9SM FEW013 SCT022 BKN110 07/07 A3020 RMK AO2 SLP227 T00720067,KAST,2023-02-10T16:55:00Z,46.15,-123.88,7.2,6.7,160,4,,9.0,30.200787,1022.7,,TRUE,TRUE,,,,,,,FEW,1300,SCT,2200,BKN,11000,,,VFR,,,,,,,,,,,,METAR,3.0
KAST 101555Z AUTO 00000KT 10SM FEW013 BKN030 OVC042 07/07 A3018 RMK AO2 RAE55 SLP221 P0006 T00720067,KAST,2023-02-10T15:55:00Z,46.15,-123.88,7.2,6.7,0,0,,10.0,30.180119,1022.1,,TRUE,TRUE,,,,,,,FEW,1300,BKN,3000,OVC,4200,,,MVFR,,,,,,0.06,,,,,,METAR,3.0
KAST 101526Z AUTO 32004KT 4SM -RA BR FEW003 BKN022 OVC028 07/07 A3018 RMK AO2 P0006 T00720067,KAST,2023-02-10T15:26:00Z,46.15,-123.88,7.2,6.7,320,4,,4.0,30.180119,,,TRUE,TRUE,,,,,,-RA BR,FEW,300,BKN,2200,OVC,2800,,,MVFR,,,,,,0.06,,,,,,SPECI,3.0
KAST 101510Z AUTO 06005KT 2 1/2SM -RA BR FEW011 BKN021 OVC030 07/06 A3017 RMK AO2 P0002 T00720061,KAST,2023-02-10T15:10:00Z,46.15,-123.88,7.2,6.1,60,5,,2.5,30.171259,,,TRUE,TRUE,,,,,,-RA BR,FEW,1100,BKN,2100,OVC,3000,,,IFR,,,,,,0.02,,,,,,SPECI,3.0
KAST 101507Z AUTO 07004KT 3SM -RA BR FEW009 BKN014 OVC030 07/06 A3017 RMK AO2 P0002 T00720061,KAST,2023-02-10T15:07:00Z,46.15,-123.88,7.2,6.1,70,4,,3.0,30.171259,,,TRUE,TRUE,,,,,,-RA BR,FEW,900,BKN,1400,OVC,3000,,,MVFR,,,,,,0.02,,,,,,METAR,3.0
KAST 101504Z AUTO 05004KT 3SM RA BR SCT011 BKN016 OVC027 07/06 A3017 RMK AO2 P0001 T00720061,KAST,2023-02-10T15:04:00Z,46.15,-123.88,7.2,6.1,50,4,,3.0,30.171259,,,TRUE,TRUE,,,,,,RA BR,SCT,1100,BKN,1600,OVC,2700,,,MVFR,,,,,,0.01,,,,,,SPECI,3.0
KAST 101455Z AUTO 33004KT 5SM RA BR BKN014 BKN020 BKN025 07/06 A3017 RMK AO2 RAB53 SLP215 P0000 60002 T00670056 53004,KAST,2023-02-10T14:55:00Z,46.15,-123.88,6.7,5.6,330,4,,5.0,30.171259,1021.5,,TRUE,TRUE,,,,,,RA BR,BKN,1400,BKN,2000,BKN,2500,,,MVFR,0.4,,,,,0.005,,,,,,SPECI,3.0
KAST 101416Z AUTO 00000KT 8SM FEW013 BKN025 BKN033 06/06 A3016 RMK AO2 T00610056,KAST,2023-02-10T14:16:00Z,46.15,-123.88,6.1,5.6,0,0,,8.0,30.159449,,,TRUE,TRUE,,,,,,,FEW,1300,BKN,2500,BKN,3300,,,MVFR,,,,,,,,,,,,SPECI,3.0
KAST 101355Z AUTO 00000KT 8SM SCT015 SCT025 OVC033 07/06 A3016 RMK AO2 SLP211 T00720061,KAST,2023-02-10T13:55:00Z,46.15,-123.88,7.2,6.1,0,0,,8.0,30.159449,1021.1,,TRUE,TRUE,,,,,,,SCT,1500,SCT,2500,OVC,3300,,,VFR,,,,,,,,,,,,METAR,3.0
KAST 101347Z AUTO 00000KT 8SM FEW015 BKN030 OVC036 07/06 A3016 RMK AO2 T00720061,KAST,2023-02-10T13:47:00Z,46.15,-123.88,7.2,6.1,0,0,,8.0,30.159449,,,TRUE,TRUE,,,,,,,FEW,1500,BKN,3000,OVC,3600,,,MVFR,,,,,,,,,,,,SPECI,3.0
KAST 101310Z AUTO 12004KT 9SM FEW015 BKN024 BKN100 07/06 A3015 RMK AO2 T00720056,KAST,2023-02-10T13:10:00Z,46.15,-123.88,7.2,5.6,120,4,,9.0,30.15059,,,TRUE,TRUE,,,,,,,FEW,1500,BKN,2400,BKN,10000,,,MVFR,,,,,,,,,,,,SPECI,3.0
KAST 101255Z AUTO 16003KT 9SM SCT017 SCT026 SCT043 08/07 A3016 RMK AO2 RAE32 SLP211 P0002 T00780067,KAST,2023-02-10T12:55:00Z,46.15,-123.88,7.8,6.7,160,3,,9.0,30.159449,1021.1,,TRUE,TRUE,,,,,,,SCT,1700,SCT,2600,SCT,4300,,,VFR,,,,,,0.02,,,,,,METAR,3.0
KAST 101224Z AUTO 20003KT 9SM -RA FEW021 BKN049 OVC060 08/07 A3016 RMK AO2 CIG 042 RWY 08 P0002 T00830072,KAST,2023-02-10T12:24:00Z,46.15,-123.88,8.3,7.2,200,3,,9.0,30.159449,,,TRUE,TRUE,,,,,,-RA,FEW,2100,BKN,4900,OVC,6000,,,VFR,,,,,,0.02,,,,,,SPECI,3.0
KAST 101155Z AUTO 26007KT 6SM -RA BR FEW010 BKN023 OVC043 09/07 A3016 RMK AO2 RAB51 SLP211 P0000 60003 70026 T00890072 10100 20089 51006,KAST,2023-02-10T11:55:00Z,46.15,-123.88,8.9,7.2,260,7,,6.0,30.159449,1021.1,,TRUE,TRUE,,,,,,-RA BR,FEW,1000,BKN,2300,OVC,4300,,,MVFR,0.6,10.0,8.9,,,0.005,,0.03,0.26,,,METAR,3.0
KAST 101135Z AUTO 20004KT 7SM FEW012 SCT021 OVC044 09/08 A3015 RMK AO2 T00890078,KAST,2023-02-10T11:35:00Z,46.15,-123.88,8.9,7.8,200,4,,7.0,30.15059,,,TRUE,TRUE,,,,,,,FEW,1200,SCT,2100,OVC,4400,,,VFR,,,,,,,,,,,,SPECI,3.0
KAST 101055Z AUTO 21005KT 7SM FEW013 BKN022 OVC049 09/08 A3015 RMK AO2 RAE10 CIG 017 RWY 08 SLP209 P0001 T00890078,KAST,2023-02-10T10:55:00Z,46.15,-123.88,8.9,7.8,210,5,,7.0,30.15059,1020.9,,TRUE,TRUE,,,,,,,FEW,1300,BKN,2200,OVC,4900,,,MVFR,,,,,,0.01,,,,,,METAR,3.0
KAST 101029Z AUTO 20003KT 8SM SCT011 OVC021 09/08 A3015 RMK AO2 RAE10 P0001 T00890078,KAST,2023-02-10T10:29:00Z,46.15,-123.88,8.9,7.8,200,3,,8.0,30.15059,,,TRUE,TRUE,,,,,,,SCT,1100,OVC,2100,,,,,MVFR,,,,,,0.01,,,,,,METAR,3.0
KAST 100955Z AUTO 21007KT 3SM -RA BR BKN013 BKN021 OVC028 09/07 A3015 RMK AO2 RAB11E29B36 SLP208 P0002 T00890072,KAST,2023-02-10T09:55:00Z,46.15,-123.88,8.9,7.2,210,7,,3.0,30.15059,1020.8,,TRUE,TRUE,,,,,,-RA BR,BKN,1300,BKN,2100,OVC,2800,,,MVFR,,,,,,0.02,,,,,,METAR,3.0
KAST 100935Z AUTO 22006KT 8SM FEW011 SCT017 BKN029 09/07 A3014 RMK AO2 RAB11E29 P0001 T00890072,KAST,2023-02-10T09:35:00Z,46.15,-123.88,8.9,7.2,220,6,,8.0,30.138779,,,TRUE,TRUE,,,,,,,FEW,1100,SCT,1700,BKN,2900,,,MVFR,,,,,,0.01,,,,,,METAR,3.0
KAST 100924Z AUTO 22008KT 7SM -RA SCT015 BKN034 OVC060 09/07 A3015 RMK AO2 RAB11 P0001 T00890072,KAST,2023-02-10T09:24:00Z,46.15,-123.88,8.9,7.2,220,8,,7.0,30.15059,,,TRUE,TRUE,,,,,,-RA,SCT,1500,BKN,3400,OVC,6000,,,VFR,,,,,,0.01,,,,,,SPECI,3.0
KAST 100913Z AUTO 21011G20KT 5SM -RA BR SCT013 BKN018 OVC060 09/08 A3014 RMK AO2 RAB11 P0000 T00940078,KAST,2023-02-10T09:13:00Z,46.15,-123.88,9.4,7.8,210,11,20,5.0,30.138779,,,TRUE,TRUE,,,,,,-RA BR,SCT,1300,BKN,1800,OVC,6000,,,MVFR,,,,,,0.005,,,,,,SPECI,3.0
KAST 100855Z AUTO 22010G18KT 10SM FEW014 SCT022 OVC060 09/08 A3014 RMK AO2 RAB00E19 SLP205 P0000 60000 T00940078 50010,KAST,2023-02-10T08:55:00Z,46.15,-123.88,9.4,7.8,220,10,18,10.0,30.138779,1020.5,,TRUE,TRUE,,,,,,,FEW,1400,SCT,2200,OVC,6000,,,VFR,1.0,,,,,0.005,0.005,,,,,METAR,3.0
KAST 100848Z AUTO 22009G16KT 10SM FEW014 SCT022 OVC060 09/08 A3014 RMK AO2 RAB00E19 P0000 T00940078,KAST,2023-02-10T08:48:00Z,46.15,-123.88,9.4,7.8,220,9,16,10.0,30.138779,,,TRUE,TRUE,,,,,,,FEW,1400,SCT,2200,OVC,6000,,,VFR,,,,,,0.005,,,,,,SPECI,3.0
KAST 100838Z AUTO 21012KT 10SM SCT014 BKN020 OVC055 09/08 A3014 RMK AO2 RAB00E19 P0000 T00940078,KAST,2023-02-10T08:38:00Z,46.15,-123.88,9.4,7.8,210,12,,10.0,30.138779,,,TRUE,TRUE,,,,,,,SCT,1400,BKN,2000,OVC,5500,,,MVFR,,,,,,0.005,,,,,,SPECI,3.0
KAST 100819Z AUTO 22008KT 9SM FEW009 BKN014 OVC032 09/08 A3014 RMK AO2 RAB00E19 P0000 T00940078,KAST,2023-02-10T08:19:00Z,46.15,-123.88,9.4,7.8,220,8,,9.0,30.138779,,,TRUE,TRUE,,,,,,,FEW,900,BKN,1400,OVC,3200,,,MVFR,,,,,,0.005,,,,,,SPECI,3.0
KAST 100755Z AUTO 21011G16KT 9SM SCT013 BKN020 OVC043 09/08 A3014 RMK AO2 SLP206 T00940078 401500056,KAST,2023-02-10T07:55:00Z,46.15,-123.88,9.4,7.8,210,11,16,9.0,30.138779,1020.6,,TRUE,TRUE,,,,,,,SCT,1300,BKN,2000,OVC,4300,,,MVFR,,,,15.0,5.6,,,,,,,METAR,3.0
KAST 100725Z AUTO 21009G17KT 10SM FEW013 BKN034 OVC049 09/08 A3014 RMK AO2 T00940078,KAST,2023-02-10T07:25:00Z,46.15,-123.88,9.4,7.8,210,9,17,10.0,30.138779,,,TRUE,TRUE,,,,,,,FEW,1300,BKN,3400,OVC,4900,,,VFR,,,,,,,,,,,,SPECI,3.0
KAST 100655Z AUTO 22014G19KT 9SM SCT017 BKN024 OVC033 10/08 A3013 RMK AO2 SLP202 T01000078,KAST,2023-02-10T06:55:00Z,46.15,-123.88,10.0,7.8,220,14,19,9.0,30.129921,1020.2,,TRUE,TRUE,,,,,,,SCT,1700,BKN,2400,OVC,3300,,,MVFR,,,,,,,,,,,,METAR,3.0
KAST 100639Z AUTO 21009G18KT 9SM SCT016 BKN022 BKN035 09/08 A3012 RMK AO2 T00940078,KAST,2023-02-10T06:39:00Z,46.15,-123.88,9.4,7.8,210,9,18,9.0,30.121063,,,TRUE,TRUE,,,,,,,SCT,1600,BKN,2200,BKN,3500,,,MVFR,,,,,,,,,,,,SPECI,3.0
KAST 100619Z AUTO 21008G18KT 9SM FEW012 SCT023 SCT038 09/08 A3012 RMK AO2 T00940078,KAST,2023-02-10T06:19:00Z,46.15,-123.88,9.4,7.8,210,8,18,9.0,30.121063,,,TRUE,TRUE,,,,,,,FEW,1200,SCT,2300,SCT,3800,,,VFR,,,,,,,,,,,,SPECI,3.0
KAST 100608Z AUTO 21011G20KT 9SM SCT012 BKN018 BKN024 09/08 A3011 RMK AO2 T00940078,KAST,2023-02-10T06:08:00Z,46.15,-123.88,9.4,7.8,210,11,20,9.0,30.109253,,,TRUE,TRUE,,,,,,,SCT,1200,BKN,1800,BKN,2400,,,MVFR,,,,,,,,,,,,SPECI,3.0
KAST 100559Z AUTO 21010G21KT 10SM BKN013 BKN021 OVC047 09/08 A3011 RMK AO2 T00940078,KAST,2023-02-10T05:59:00Z,46.15,-123.88,9.4,7.8,210,10,21,10.0,30.109253,,,TRUE,TRUE,,,,,,,BKN,1300,BKN,2100,OVC,4700,,,MVFR,,,,,,,,,,,,SPECI,3.0
KAST 100555Z AUTO 20010G18KT 10SM SCT015 OVC047 09/08 A3011 RMK AO2 RAE06 SLP195 P0000 60023 T00940078 10128 20089 52018,KAST,2023-02-10T05:55:00Z,46.15,-123.88,9.4,7.8,200,10,18,10.0,30.109253,1019.5,,TRUE,TRUE,,,,,,,SCT,1500,OVC,4700,,,,,VFR,1.8,12.8,8.9,,,0.005,,0.23,,,,METAR,3.0
KAST 100455Z AUTO 21014G22KT 7SM -RA FEW011 FEW037 OVC049 09/07 A3008 RMK AO2 PK WND 20027/0436 SLP186 P0012 T00890067,KAST,2023-02-10T04:55:00Z,46.15,-123.88,8.9,6.7,210,14,22,7.0,30.079725,1018.6,,TRUE,TRUE,,,,,,-RA,FEW,1100,FEW,3700,OVC,4900,,,VFR,,,,,,0.12,,,,,,METAR,3.0
KAST 100450Z AUTO 21015G23KT 5SM -RA BR FEW009 SCT015 OVC049 09/07 A3008 RMK AO2 PK WND 20027/0436 P0011,KAST,2023-02-10T04:50:00Z,46.15,-123.88,9.0,7.0,210,15,23,5.0,30.079725,,,TRUE,TRUE,,,,,,-RA BR,FEW,900,SCT,1500,OVC,4900,,,MVFR,,,,,,0.11,,,,,,SPECI,3.0
KAST 100442Z AUTO 21012G27KT 3SM RA BR SCT012 SCT022 OVC044 09/07 A3008 RMK AO2 PK WND 20027/0436 CIG 034 RWY 08 P0010 T00940072,KAST,2023-02-10T04:42:00Z,46.15,-123.88,9.4,7.2,210,12,27,3.0,30.079725,,,TRUE,TRUE,,,,,,RA BR,SCT,1200,SCT,2200,OVC,4400,,,MVFR,,,,,,0.1,,,,,,SPECI,3.0
KAST 100435Z AUTO 22017G25KT 2 1/2SM RA BR SCT009 BKN016 OVC036 10/08 A3007 RMK AO2 VIS 1V5 P0003 T01000083,KAST,2023-02-10T04:35:00Z,46.15,-123.88,10.0,8.3,220,17,25,2.5,30.070866,,,TRUE,TRUE,,,,,,RA BR,SCT,900,BKN,1600,OVC,3600,,,IFR,,,,,,0.03,,,,,,METAR,3.0
KAST 100432Z AUTO 23010G25KT 3SM RA BR FEW009 BKN013 OVC018 10/08 A3008 RMK AO2 PRESRR P0002 T01000083,KAST,2023-02-10T04:32:00Z,46.15,-123.88,10.0,8.3,230,10,25,3.0,30.079725,,,TRUE,TRUE,,,,,,RA BR,FEW,900,BKN,1300,OVC,1800,,,MVFR,,,,,,0.02,,,,,,METAR,3.0
KAST 100355Z AUTO 18014G21KT 7SM -RA SCT015 BKN020 OVC060 10/08 A3005 RMK AO2 PK WND 18027/0321 SLP176 P0006 T01000083,KAST,2023-02-10T03:55:00Z,46.15,-123.88,10.0,8.3,180,14,21,7.0,30.050198,1017.6,,TRUE,TRUE,,,,,,-RA,SCT,1500,BKN,2000,OVC,6000,,,MVFR,,,,,,0.06,,,,,,METAR,3.0
KAST 100255Z AUTO 18020G28KT 4SM -RA BR BKN040 OVC048 10/08 A3006 RMK AO2 PK WND 19031/0235 RAB29 SLP177 P0005 60005 T01000078 53003,KAST,2023-02-10T02:55:00Z,46.15,-123.88,10.0,7.8,180,20,28,4.0,30.059055,1017.7,,TRUE,TRUE,,,,,,-RA BR,BKN,4000,OVC,4800,,,,,MVFR,0.3,,,,,0.05,0.05,,,,,METAR,3.0
KAST 100250Z AUTO 17019G26KT 4SM RA BR OVC042 10/08 A3006 RMK AO2 PK WND 19031/0235 RAB29 P0004,KAST,2023-02-10T02:50:00Z,46.15,-123.88,10.0,8.0,170,19,26,4.0,30.059055,,,TRUE,TRUE,,,,,,RA BR,OVC,4200,,,,,,,MVFR,,,,,,0.04,,,,,,METAR,3.0
KAST 100243Z AUTO 18019G31KT 2 1/2SM RA FEW027 BKN039 OVC045 10/07 A3006 RMK AO2 PK WND 19031/0235 RAB29 P0002 T01000072,KAST,2023-02-10T02:43:00Z,46.15,-123.88,10.0,7.2,180,19,31,2.5,30.059055,,,TRUE,TRUE,,,,,,RA,FEW,2700,BKN,3900,OVC,4500,,,IFR,,,,,,0.02,,,,,,SPECI,3.0
KAST 100155Z AUTO 18014G21KT 10SM CLR 13/01 A3004 RMK AO2 SLP172 T01280011,KAST,2023-02-10T01:55:00Z,46.15,-123.88,12.8,1.1,180,14,21,10.0,30.041338,1017.2,,TRUE,TRUE,,,,,,,CLR,,,,,,,,VFR,,,,,,,,,,,,METAR,3.0
KAST 100055Z AUTO 20015G25KT 10SM FEW049 13/M06 A3005 RMK AO2 PK WND 19027/0027 SLP175 T01281056,KAST,2023-02-10T00:55:00Z,46.15,-123.88,12.8,-5.6,200,15,25,10.0,30.050198,1017.5,,TRUE,TRUE,,,,,,,FEW,4900,,,,,,,VFR,,,,,,,,,,,,METAR,3.0
KAST 092355Z AUTO 21015G26KT 10SM OVC050 12/02 A3006 RMK AO2 PK WND 21026/2355 SLP180 T01220022 10150 20100 56011,KAST,2023-02-09T23:55:00Z,46.15,-123.88,12.2,2.2,210,15,26,10.0,30.059055,1018.0,,TRUE,TRUE,,,,,,,OVC,5000,,,,,,,VFR,-1.1,15.0,10.0,,,,,,,,,METAR,3.0
KAST 092255Z AUTO 23010KT 10SM CLR 13/02 A3006 RMK AO2 SLP180 T01280022,KAST,2023-02-09T22:55:00Z,46.15,-123.88,12.8,2.2,230,10,,10.0,30.059055,1018.0,,TRUE,TRUE,,,,,,,CLR,,,,,,,,VFR,,,,,,,,,,,,METAR,3.0
KAST 092155Z AUTO 31007KT 10SM CLR 13/04 A3008 RMK AO2 SLP184 T01330039,KAST,2023-02-09T21:55:00Z,46.15,-123.88,13.3,3.9,310,7,,10.0,30.079725,1018.4,,TRUE,TRUE,,,,,,,CLR,,,,,,,,VFR,,,,,,,,,,,,METAR,3.0
KAST 092055Z AUTO 04004KT 10SM CLR 14/03 A3010 RMK AO2 SLP191 T01390028 58029,KAST,2023-02-09T20:55:00Z,46.15,-123.88,13.9,2.8,40,4,,10.0,30.100393,1019.1,,TRUE,TRUE,,,,,,,CLR,,,,,,,,VFR,-2.9,,,,,,,,,,,METAR,3.0
KAST 091955Z AUTO 36006KT 10SM CLR 12/04 A3015 RMK AO2 SLP211 T01170039,KAST,2023-02-09T19:55:00Z,46.15,-123.88,11.7,3.9,360,6,,10.0,30.15059,1021.1,,TRUE,TRUE,,,,,,,CLR,,,,,,,,VFR,,,,,,,,,,,,METAR,3.0
KAST 091855Z AUTO 35004KT 10SM CLR 11/03 A3018 RMK AO2 SLP220 T01110033,KAST,2023-02-09T18:55:00Z,46.15,-123.88,11.1,3.3,350,4,,10.0,30.180119,1022.0,,TRUE,TRUE,,,,,,,CLR,,,,,,,,VFR,,,,,,,,,,,,METAR,3.0
KAST 091755Z AUTO 06003KT 10SM CLR 11/03 A3018 RMK AO2 SLP220 T01060028 10106 20056 56008,KAST,2023-02-09T17:55:00Z,46.15,-123.88,10.6,2.8,60,3,,10.0,30.180119,1022.0,,TRUE,TRUE,,,,,,,CLR,,,,,,,,VFR,-0.8,10.6,5.6,,,,,,,,,METAR,3.0
KAST 091655Z AUTO 05003KT 10SM CLR 07/03 A3019 RMK AO2 SLP224 T00720028,KAST,2023-02-09T16:55:00Z,46.15,-123.88,7.2,2.8,50,3,,10.0,30.188976,1022.4,,TRUE,TRUE,,,,,,,CLR,,,,,,,,VFR,,,,,,,,,,,,METAR,3.0
KAST 091555Z AUTO 08006KT 10SM CLR 07/02 A3019 RMK AO2 SLP223 T00670017,KAST,2023-02-09T15:55:00Z,46.15,-123.88,6.7,1.7,80,6,,10.0,30.188976,1022.3,,TRUE,TRUE,,,,,,,CLR,,,,,,,,VFR,,,,,,,,,,,,METAR,3.0
KAST 091455Z AUTO 10004KT 10SM CLR 07/02 A3021 RMK AO2 SLP228 T00670017 56019,KAST,2023-02-09T14:55:00Z,46.15,-123.88,6.7,1.7,100,4,,10.0,30.209646,1022.8,,TRUE,TRUE,,,,,,,CLR,,,,,,,,VFR,-1.9,,,,,,,,,,,METAR,3.0
KAST 091355Z AUTO 09003KT 10SM CLR 06/02 A3022 RMK AO2 SLP234 T00610022,KAST,2023-02-09T13:55:00Z,46.15,-123.88,6.1,2.2,90,3,,10.0,30.221457,1023.4,,TRUE,TRUE,,,,,,,CLR,,,,,,,,VFR,,,,,,,,,,,,METAR,3.0
KAST 091255Z AUTO 08006KT 10SM SCT120 06/02 A3024 RMK AO2 SLP238 T00610022,KAST,2023-02-09T12:55:00Z,46.15,-123.88,6.1,2.2,80,6,,10.0,30.239174,1023.8,,TRUE,TRUE,,,,,,,SCT,12000,,,,,,,VFR,,,,,,,,,,,,METAR,3.0
KAST 091155Z AUTO 06005KT 10SM BKN080 OVC120 07/02 A3026 RMK AO2 SLP247 70002 T00720022 10078 20067 58025,KAST,2023-02-09T11:55:00Z,46.15,-123.88,7.2,2.2,60,5,,10.0,30.259842,1024.7,,TRUE,TRUE,,,,,,,BKN,8000,OVC,12000,,,,,VFR,-2.5,7.8,6.7,,,,,,0.02,,,SPECI,3.0
KAST 091055Z AUTO 08005KT 10SM OVC080 07/03 A3029 RMK AO2 SLP256 T00720033,KAST,2023-02-09T10:55:00Z,46.15,-123.88,7.2,3.3,80,5,,10.0,30.28937,1025.6,,TRUE,TRUE,,,,,,,OVC,8000,,,,,,,VFR,,,,,,,,,,,,METAR,3.0
KAST 090955Z AUTO 07006KT 10SM OVC080 07/03 A3031 RMK AO2 SLP264 T00720033,KAST,2023-02-09T09:55:00Z,46.15,-123.88,7.2,3.3,70,6,,10.0,30.31004,1026.4,,TRUE,TRUE,,,,,,,OVC,8000,,,,,,,VFR,,,,,,,,,,,,METAR,3.0
KAST 090855Z AUTO 09007KT 10SM OVC055 07/03 A3034 RMK AO2 SLP272 T00720033 58018,KAST,2023-02-09T08:55:00Z,46.15,-123.88,7.2,3.3,90,7,,10.0,30.339567,1027.2,,TRUE,TRUE,,,,,,,OVC,5500,,,,,,,VFR,-1.8,,,,,,,,,,,METAR,3.0
KAST 090755Z AUTO 10005KT 10SM OVC060 07/04 A3036 RMK AO2 SLP281 T00720039 401000033,KAST,2023-02-09T07:55:00Z,46.15,-123.88,7.2,3.9,100,5,,10.0,30.360237,1028.1,,TRUE,TRUE,,,,,,,OVC,6000,,,,,,,VFR,,,,10.0,3.3,,,,,,,METAR,3.0
KAST 090655Z AUTO 09007KT 10SM OVC060 07/03 A3038 RMK AO2 SLP286 T00720033,KAST,2023-02-09T06:55:00Z,46.15,-123.88,7.2,3.3,90,7,,10.0,30.380905,1028.6,,TRUE,TRUE,,,,,,,OVC,6000,,,,,,,VFR,,,,,,,,,,,,SPECI,3.0
KAST 090555Z AUTO 10005KT 10SM OVC060 08/03 A3039 RMK AO2 SLP291 T00780033 10094 20072 56012,KAST,2023-02-09T05:55:00Z,46.15,-123.88,7.8,3.3,100,5,,10.0,30.389763,1029.1,,TRUE,TRUE,,,,,,,OVC,6000,,,,,,,VFR,-1.2,9.4,7.2,,,,,,,,,METAR,3.0
KAST 090455Z AUTO 10006KT 10SM OVC060 08/03 A3041 RMK AO2 SLP295 T00780033,KAST,2023-02-09T04:55:00Z,46.15,-123.88,7.8,3.3,100,6,,10.0,30.410433,1029.5,,TRUE,TRUE,,,,,,,OVC,6000,,,,,,,VFR,,,,,,,,,,,,METAR,3.0
KAST 090355Z AUTO 09005KT 10SM OVC075 08/04 A3041 RMK AO2 SLP298 T00780039,KAST,2023-02-09T03:55:00Z,46.15,-123.88,7.8,3.9,90,5,,10.0,30.410433,1029.8,,TRUE,TRUE,,,,,,,OVC,7500,,,,,,,VFR,,,,,,,,,,,,METAR,3.0
KAST 090255Z AUTO 08004KT 10SM BKN060 OVC080 08/04 A3043 RMK AO2 SLP303 T00830044 56008,KAST,2023-02-09T02:55:00Z,46.15,-123.88,8.3,4.4,80,4,,10.0,30.431103,1030.3,,TRUE,TRUE,,,,,,,BKN,6000,OVC,8000,,,,,VFR,-0.8,,,,,,,,,,,METAR,3.0
KAST 090155Z AUTO 09003KT 10SM BKN070 OVC090 08/05 A3043 RMK AO2 SLP304 T00830050,KAST,2023-02-09T01:55:00Z,46.15,-123.88,8.3,5.0,90,3,,10.0,30.431103,1030.4,,TRUE,TRUE,,,,,,,BKN,7000,OVC,9000,,,,,VFR,,,,,,,,,,,,METAR,3.0
KAST 090055Z AUTO 00000KT 10SM OVC090 09/05 A3044 RMK AO2 SLP307 T00890050,KAST,2023-02-09T00:55:00Z,46.15,-123.88,8.9,5.0,0,0,,10.0,30.43996,1030.7,,TRUE,TRUE,,,,,,,OVC,9000,,,,,,,VFR,,,,,,,,,,,,METAR,3.0
KAST 082355Z AUTO 32003KT 10SM OVC090 09/04 A3045 RMK AO2 SLP310 T00940044 10100 20067 56015,KAST,2023-02-08T23:55:00Z,46.15,-123.88,9.4,4.4,320,3,,10.0,30.448818,1031.0,,TRUE,TRUE,,,,,,,OVC,9000,,,,,,,VFR,-1.5,10.0,6.7,,,,,,,,,METAR,3.0
KAST 082255Z AUTO 09006KT 10SM FEW028 SCT038 09/05 A3046 RMK AO2 SLP315 T00940050,KAST,2023-02-08T22:55:00Z,46.15,-123.88,9.4,5.0,90,6,,10.0,30.46063,1031.5,,TRUE,TRUE,,,,,,,FEW,2800,SCT,3800,,,,,VFR,,,,,,,,,,,,METAR,3.0
KAST 082155Z AUTO 07004KT 10SM SCT035 BKN044 OVC100 09/06 A3048 RMK AO2 CIG 036 RWY 08 SLP320 T00890056,KAST,2023-02-08T21:55:00Z,46.15,-123.88,8.9,5.6,70,4,,10.0,30.481298,1032.0,,TRUE,TRUE,,,,,,,SCT,3500,BKN,4400,OVC,10000,,,VFR,,,,,,,,,,,,METAR,3.0
KAST 082055Z AUTO 02006KT 10SM FEW026 FEW034 OVC100 08/06 A3049 RMK AO2 SLP325 T00830056 58002,KAST,2023-02-08T20:55:00Z,46.15,-123.88,8.3,5.6,20,6,,10.0,30.490158,1032.5,,TRUE,TRUE,,,,,,,FEW,2600,FEW,3400,OVC,10000,,,VFR,-0.2,,,,,,,,,,,SPECI,3.0
KAST 082039Z AUTO 01007KT 10SM SCT025 BKN033 OVC100 08/05 A3049 RMK AO2 T00780050,KAST,2023-02-08T20:39:00Z,46.15,-123.88,7.8,5.0,10,7,,10.0,30.490158,,,TRUE,TRUE,,,,,,,SCT,2500,BKN,3300,OVC,10000,,,VFR,,,,,,,,,,,,METAR,3.0
KAST 082024Z AUTO 01006KT 10SM SCT022 BKN029 OVC100 08/05 A3050 RMK AO2 T00780050,KAST,2023-02-08T20:24:00Z,46.15,-123.88,7.8,5.0,10,6,,10.0,30.499016,,,TRUE,TRUE,,,,,,,SCT,2200,BKN,2900,OVC,10000,,,MVFR,,,,,,,,,,,,SPECI,3.0
KAST 081955Z AUTO 02005KT 10SM FEW055 OVC100 08/05 A3050 RMK AO2 SLP327 T00780050,KAST,2023-02-08T19:55:00Z,46.15,-123.88,7.8,5.0,20,5,,10.0,30.499016,1032.7,,TRUE,TRUE,,,,,,,FEW,5500,OVC,10000,,,,,VFR,,,,,,,,,,,,METAR,3.0
KAST 081855Z AUTO 03004KT 10SM BKN055 OVC110 08/05 A3051 RMK AO2 SLP331 T00780050,KAST,2023-02-08T18:55:00Z,46.15,-123.88,7.8,5.0,30,4,,10.0,30.510826,1033.1,,TRUE,TRUE,,,,,,,BKN,5500,OVC,11000,,,,,VFR,,,,,,,,,,,,SPECI,3.0
KAST 081755Z AUTO 09003KT 10SM FEW120 07/04 A3050 RMK AO2 SLP326 60002 T00670044 10067 20033 52009,KAST,2023-02-08T17:55:00Z,46.15,-123.88,6.7,4.4,90,3,,10.0,30.499016,1032.6,,TRUE,TRUE,,,,,,,FEW,12000,,,,,,,VFR,0.9,6.7,3.3,,,,,,,,,SPECI,3.0
KAST 081655Z AUTO 08005KT 10SM CLR 06/04 A3049 RMK AO2 SLP323 T00560039,KAST,2023-02-08T16:55:00Z,46.15,-123.88,5.6,3.9,80,5,,10.0,30.490158,1032.3,,TRUE,TRUE,,,,,,,CLR,,,,,,,,VFR,,,,,,,,,,,,METAR,3.0
KAST 081555Z AUTO 11003KT 9SM FEW048 04/03 A3048 RMK AO2 RAE17 SLP320 P0001 T00390033,KAST,2023-02-08T15:55:00Z,46.15,-123.88,3.9,3.3,110,3,,9.0,30.481298,1032.0,,TRUE,TRUE,,,,,,,FEW,4800,,,,,,,VFR,,,,,,0.01,,,,,,METAR,3.0
KAST 081455Z AUTO 11003KT 9SM -RA SCT030 BKN038 OVC055 04/03 A3047 RMK AO2 RAB55 SLP317 P0000 60001 T00440033 53008,KAST,2023-02-08T14:55:00Z,46.15,-123.88,4.4,3.3,110,3,,9.0,30.469488,1031.7,,TRUE,TRUE,,,,,,-RA,SCT,3000,BKN,3800,OVC,5500,,,VFR,0.8,,,,,0.005,0.01,,,,,METAR,3.0
KAST 081355Z AUTO 15005KT 10SM BKN035 BKN042 OVC050 05/03 A3046 RMK AO2 RAB1256E23 SLP314 P0001 T00500033,KAST,2023-02-08T13:55:00Z,46.15,-123.88,5.0,3.3,150,5,,10.0,30.46063,1031.4,,TRUE,TRUE,,,,,,,BKN,3500,BKN,4200,OVC,5000,,,VFR,,,,,,0.01,,,,,,METAR,3.0
KAST 081255Z AUTO 18004KT 10SM FEW034 BKN050 OVC070 06/03 A3045 RMK AO2 SLP310 T00560028,KAST,2023-02-08T12:55:00Z,46.15,-123.88,5.6,2.8,180,4,,10.0,30.448818,1031.0,,TRUE,TRUE,,,,,,,FEW,3400,BKN,5000,OVC,7000,,,VFR,,,,,,,,,,,,METAR,3.0
KAST 081155Z AUTO 31008KT 10SM FEW020 OVC034 04/02 A3045 RMK AO2 SLP309 70026 T00390022 10083 20033 53012,KAST,2023-02-08T11:55:00Z,46.15,-123.88,3.9,2.2,310,8,,10.0,30.448818,1030.9,,TRUE,TRUE,,,,,,,FEW,2000,OVC,3400,,,,,VFR,1.2,8.3,3.3,,,,,,0.26,,,METAR,3.0
KAST 081055Z AUTO 26004KT 10SM FEW031 07/02 A3043 RMK AO2 SLP303 T00670022,KAST,2023-02-08T10:55:00Z,46.15,-123.88,6.7,2.2,260,4,,10.0,30.431103,1030.3,,TRUE,TRUE,,,,,,,FEW,3100,,,,,,,VFR,,,,,,,,,,,,SPECI,3.0
KAST 080955Z AUTO 21004KT 10SM FEW029 BKN037 BKN090 07/03 A3042 RMK AO2 SLP300 T00670028,KAST,2023-02-08T09:55:00Z,46.15,-123.88,6.7,2.8,210,4,,10.0,30.41929,1030.0,,TRUE,TRUE,,,,,,,FEW,2900,BKN,3700,BKN,9000,,,VFR,,,,,,,,,,,,METAR,3.0
KAST 080855Z AUTO 27007KT 10SM FEW030 FEW035 08/03 A3041 RMK AO2 SLP297 T00780028 51015,KAST,2023-02-08T08:55:00Z,46.15,-123.88,7.8,2.8,270,7,,10.0,30.410433,1029.7,,TRUE,TRUE,,,,,,,FEW,3000,FEW,3500,,,,,VFR,1.5,,,,,,,,,,,METAR,3.0
KAST 080755Z AUTO 26006KT 10SM SCT039 BKN110 07/03 A3040 RMK AO2 SLP293 T00720028 401110067,KAST,2023-02-08T07:55:00Z,46.15,-123.88,7.2,2.8,260,6,,10.0,30.398623,1029.3,,TRUE,TRUE,,,,,,,SCT,3900,BKN,11000,,,,,VFR,,,,11.1,6.7,,,,,,,METAR,3.0
KAST 080655Z AUTO 26007KT 10SM FEW026 SCT034 08/03 A3038 RMK AO2 SLP288 T00780033,KAST,2023-02-08T06:55:00Z,46.15,-123.88,7.8,3.3,260,7,,10.0,30.380905,1028.8,,TRUE,TRUE,,,,,,,FEW,2600,SCT,3400,,,,,VFR,,,,,,,,,,,,METAR,3.0
KAST 080555Z AUTO 25009KT 10SM SCT028 BKN037 BKN046 08/04 A3037 RMK AO2 SLP282 60002 T00780039 10100 20067 51019,KAST,2023-02-08T05:55:00Z,46.15,-123.88,7.8,3.9,250,9,,10.0,30.369095,1028.2,,TRUE,TRUE,,,,,,,SCT,2800,BKN,3700,BKN,4600,,,VFR,1.9,10.0,6.7,,,,,0.02,,,,METAR,3.0
KAST 080455Z AUTO 23006KT 10SM FEW065 07/03 A3035 RMK AO2 SLP276 T00720033,KAST,2023-02-08T04:55:00Z,46.15,-123.88,7.2,3.3,230,6,,10.0,30.351377,1027.6,,TRUE,TRUE,,,,,,,FEW,6500,,,,,,,VFR,,,,,,,,,,,,METAR,3.0
KAST 080355Z AUTO 25012KT 10SM FEW029 SCT110 08/04 A3033 RMK AO2 SLP270 T00780039,KAST,2023-02-08T03:55:00Z,46.15,-123.88,7.8,3.9,250,12,,10.0,30.33071,1027.0,,TRUE,TRUE,,,,,,,FEW,2900,SCT,11000,,,,,VFR,,,,,,,,,,,,METAR,3.0
KAST 080255Z AUTO 24006KT 10SM SCT027 07/04 A3031 RMK AO2 RAB32E48 SLP263 P0002 60002 T00670039 50007,KAST,2023-02-08T02:55:00Z,46.15,-123.88,6.7,3.9,240,6,,10.0,30.31004,1026.3,,TRUE,TRUE,,,,,,,SCT,2700,,,,,,,VFR,0.7,,,,,0.02,0.02,,,,,METAR,3.0
KAST 080253Z AUTO 24006KT 10SM SCT027 SCT036 07/04 A3031 RMK AO2 RAB32E48 P0002,KAST,2023-02-08T02:53:00Z,46.15,-123.88,7.0,4.0,240,6,,10.0,30.31004,,,TRUE,TRUE,,,,,,,SCT,2700,SCT,3600,,,,,VFR,,,,,,0.02,,,,,,METAR,3.0
KAST 080243Z AUTO 23009KT 4SM -RA BKN027 BKN033 07/04 A3031 RMK AO2 RAB32 P0002 T00720039,KAST,2023-02-08T02:43:00Z,46.15,-123.88,7.2,3.9,230,9,,4.0,30.31004,,,TRUE,TRUE,,,,,,-RA,BKN,2700,BKN,3300,,,,,MVFR,,,,,,0.02,,,,,,SPECI,3.0
KAST 080232Z AUTO 27008KT 8SM -RA SCT026 BKN037 OVC065 09/04 A3031 RMK AO2 RAB32 P0000 T00890044,KAST,2023-02-08T02:32:00Z,46.15,-123.88,8.9,4.4,270,8,,8.0,30.31004,,,TRUE,TRUE,,,,,,-RA,SCT,2600,BKN,3700,OVC,6500,,,VFR,,,,,,0.005,,,,,,SPECI,3.0
KAST 080224Z AUTO 26010KT 9SM BKN028 BKN041 OVC060 09/04 A3030 RMK AO2 T00890044,KAST,2023-02-08T02:24:00Z,46.15,-123.88,8.9,4.4,260,10,,9.0,30.301182,,,TRUE,TRUE,,,,,,,BKN,2800,BKN,4100,OVC,6000,,,MVFR,,,,,,,,,,,,SPECI,3.0
KAST 080155Z AUTO 26008KT 9SM SCT033 SCT047 OVC060 08/04 A3030 RMK AO2 SLP259 T00830044,KAST,2023-02-08T01:55:00Z,46.15,-123.88,8.3,4.4,260,8,,9.0,30.301182,1025.9,,TRUE,TRUE,,,,,,,SCT,3300,SCT,4700,OVC,6000,,,VFR,,,,,,,,,,,,METAR,3.0
KAST 080055Z AUTO 27009G18KT 9SM FEW065 09/04 A3029 RMK AO2 SLP256 T00890044,KAST,2023-02-08T00:55:00Z,46.15,-123.88,8.9,4.4,270,9,18,9.0,30.28937,1025.6,,TRUE,TRUE,,,,,,,FEW,6500,,,,,,,VFR,,,,,,,,,,,,SPECI,3.0
KAST 072355Z AUTO 27013KT 8SM FEW024 FEW040 OVC070 10/06 A3026 RMK AO2 RAB31E45 SLP247 P0001 60005 T01000061 10111 20089 53016,KAST,2023-02-07T23:55:00Z,46.15,-123.88,10.0,6.1,270,13,,8.0,30.259842,1024.7,,TRUE,TRUE,,,,,,,FEW,2400,FEW,4000,OVC,7000,,,VFR,1.6,11.1,8.9,,,0.01,,,,,,SPECI,3.0
KAST 072347Z AUTO 27011KT 8SM SCT024 BKN040 OVC070 09/06 A3026 RMK AO2 RAB31E45 P0001 T00940061,KAST,2023-02-07T23:47:00Z,46.15,-123.88,9.4,6.1,270,11,,8.0,30.259842,,,TRUE,TRUE,,,,,,,SCT,2400,BKN,4000,OVC,7000,,,VFR,,,,,,0.01,,,,,,METAR,3.0
KAST 072340Z AUTO 26011KT 7SM -RA BKN024 BKN040 OVC075 09/06 A3026 RMK AO2 RAB31 P0001 T00890056,KAST,2023-02-07T23:40:00Z,46.15,-123.88,8.9,5.6,260,11,,7.0,30.259842,,,TRUE,TRUE,,,,,,-RA,BKN,2400,BKN,4000,OVC,7500,,,MVFR,,,,,,0.01,,,,,,SPECI,3.0
KAST 072331Z AUTO 30015G25KT 6SM -RA SCT023 BKN030 OVC041 09/06 A3026 RMK AO2 RAB31 P0000 T00940056,KAST,2023-02-07T23:31:00Z,46.15,-123.88,9.4,5.6,300,15,25,6.0,30.259842,,,TRUE,TRUE,,,,,,-RA,SCT,2300,BKN,3000,OVC,4100,,,MVFR,,,,,,0.005,,,,,,SPECI,3.0
KAST 072315Z AUTO 26010KT 7SM FEW022 BKN029 OVC100 11/07 A3025 RMK AO2 T01060067,KAST,2023-02-07T23:15:00Z,46.15,-123.88,10.6,6.7,260,10,,7.0,30.250984,,,TRUE,TRUE,,,,,,,FEW,2200,BKN,2900,OVC,10000,,,MVFR,,,,,,,,,,,,SPECI,3.0
KAST 072255Z AUTO 26011KT 6SM HZ FEW020 BKN031 OVC100 11/07 A3024 RMK AO2 SLP241 T01060072,KAST,2023-02-07T22:55:00Z,46.15,-123.88,10.6,7.2,260,11,,6.0,30.239174,1024.1,,TRUE,TRUE,,,,,,HZ,FEW,2000,BKN,3100,OVC,10000,,,VFR,,,,,,,,,,,,METAR,3.0
KAST 072155Z AUTO 26014G20KT 6SM HZ FEW017 BKN024 OVC039 11/08 A3023 RMK AO2 SLP237 T01110083,KAST,2023-02-07T21:55:00Z,46.15,-123.88,11.1,8.3,260,14,20,6.0,30.230314,1023.7,,TRUE,TRUE,,,,,,HZ,FEW,1700,BKN,2400,OVC,3900,,,MVFR,,,,,,,,,,,,METAR,3.0
KAST 072147Z AUTO 26009KT 7SM FEW017 BKN024 OVC095 11/08 A3023 RMK AO2 T01060078,KAST,2023-02-07T21:47:00Z,46.15,-123.88,10.6,7.8,260,9,,7.0,30.230314,,,TRUE,TRUE,,,,,,,FEW,1700,BKN,2400,OVC,9500,,,MVFR,,,,,,,,,,,,METAR,3.0
KAST 072055Z AUTO 26011KT 6SM BR SCT016 BKN055 OVC075 10/08 A3022 RMK AO2 SLP232 60004 T01000083 53012,KAST,2023-02-07T20:55:00Z,46.15,-123.88,10.0,8.3,260,11,,6.0,30.221457,1023.2,,TRUE,TRUE,,,,,,BR,SCT,1600,BKN,5500,OVC,7500,,,VFR,1.2,,,,,,0.04,,,,,METAR,3.0
KAST 072030Z AUTO 26011G21KT 6SM BR SCT014 OVC080 10/08 A3021 RMK AO2 T01000083,KAST,2023-02-07T20:30:00Z,46.15,-123.88,10.0,8.3,260,11,21,6.0,30.209646,,,TRUE,TRUE,,,,,,BR,SCT,1400,OVC,8000,,,,,VFR,,,,,,,,,,,,SPECI,3.0
KAST 071955Z AUTO 26014KT 6SM BR BKN011 BKN025 OVC080 11/09 A3020 RMK AO2 PK WND 25028/1914 RAE31 SLP225 P0004 T01060089,KAST,2023-02-07T19:55:00Z,46.15,-123.88,10.6,8.9,260,14,,6.0,30.200787,1022.5,,TRUE,TRUE,,,,,,BR,BKN,1100,BKN,2500,OVC,8000,,,MVFR,,,,,,0.04,,,,,,SPECI,3.0
KAST 071941Z AUTO 26013KT 6SM BR SCT007 BKN023 OVC080 11/09 A3020 RMK AO2 PK WND 25028/1914 RAE31 P0004 T01060089,KAST,2023-02-07T19:41:00Z,46.15,-123.88,10.6,8.9,260,13,,6.0,30.200787,,,TRUE,TRUE,,,,,,BR,SCT,700,BKN,2300,OVC,8000,,,MVFR,,,,,,0.04,,,,,,METAR,3.0
KAST 071924Z AUTO 26014G26KT 3SM -RA BR BKN007 OVC021 10/09 A3019 RMK AO2 PK WND 25028/1914 P0004 T01000089,KAST,2023-02-07T19:24:00Z,46.15,-123.88,10.0,8.9,260,14,26,3.0,30.188976,,,TRUE,TRUE,,,,,,-RA BR,BKN,700,OVC,2100,,,,,IFR,,,,,,0.04,,,,,,SPECI,3.0
KAST 071912Z AUTO 23011G19KT 1 3/4SM RA BR OVC007 11/09 A3019 RMK AO2 P0002 T01060089,KAST,2023-02-07T19:12:00Z,46.15,-123.88,10.6,8.9,230,11,19,1.75,30.188976,,,TRUE,TRUE,,,,,,RA BR,OVC,700,,,,,,,IFR,,,,,,0.02,,,,,,METAR,3.0
KAST 071855Z AUTO 20013G24KT 5SM -RA BR OVC009 11/09 A3018 RMK AO2 PK WND 21027/1758 RAE16B19 SLP220 P0000 T01060089,KAST,2023-02-07T18:55:00Z,46.15,-123.88,10.6,8.9,200,13,24,5.0,30.180119,1022.0,,TRUE,TRUE,,,,,,-RA BR,OVC,900,,,,,,,IFR,,,,,,0.005,,,,,,METAR,3.0
KAST 071851Z AUTO 20012G24KT 5SM -RA BR OVC009 11/09 A3018 RMK AO2 PK WND 21027/1758 RAE16B19 P0000,KAST,2023-02-07T18:51:00Z,46.15,-123.88,11.0,9.0,200,12,24,5.0,30.180119,,,TRUE,TRUE,,,,,,-RA BR,OVC,900,,,,,,,IFR,,,,,,0.005,,,,,,SPECI,3.0
KAST 071818Z AUTO 20014G24KT 7SM BKN011 BKN021 OVC033 10/08 A3018 RMK AO2 PK WND 21027/1758 RAE16 P0000 T01000083,KAST,2023-02-07T18:18:00Z,46.15,-123.88,10.0,8.3,200,14,24,7.0,30.180119,,,TRUE,TRUE,,,,,,,BKN,1100,BKN,2100,OVC,3300,,,MVFR,,,,,,0.005,,,,,,SPECI,3.0
KAST 071755Z AUTO 19015G21KT 7SM -RA SCT034 BKN043 OVC060 09/08 A3018 RMK AO2 PK WND 22034/1718 SLP218 P0008 60019 T00940078 10100 20094 53005,KAST,2023-02-07T17:55:00Z,46.15,-123.88,9.4,7.8,190,15,21,7.0,30.180119,1021.8,,TRUE,TRUE,,,,,,-RA,SCT,3400,BKN,4300,OVC,6000,,,VFR,0.5,10.0,9.4,,,0.08,,,,,,SPECI,3.0
KAST 071711Z AUTO 20021G31KT 3SM -RA BR SCT012 BKN031 OVC040 09/08 A3017 RMK AO2 PK WND 19031/1709 P0003 T00940078,KAST,2023-02-07T17:11:00Z,46.15,-123.88,9.4,7.8,200,21,31,3.0,30.171259,,,TRUE,TRUE,,,,,,-RA BR,SCT,1200,BKN,3100,OVC,4000,,,MVFR,,,,,,0.03,,,,,,SPECI,3.0
KAST 071702Z AUTO 21021G31KT 3SM -RA BR FEW014 BKN026 OVC040 09/08 A3017 RMK AO2 PK WND 20030/1656 P0002 T00940078,KAST,2023-02-07T17:02:00Z,46.15,-123.88,9.4,7.8,210,21,31,3.0,30.171259,,,TRUE,TRUE,,,,,,-RA BR,FEW,1400,BKN,2600,OVC,4000,,,MVFR,,,,,,0.02,,,,,,SPECI,3.0
KAST 071655Z AUTO 20022G34KT 2 1/2SM RA BR FEW018 SCT028 OVC035 09/08 A3016 RMK AO2 PK WND 19034/1652 CIG 030 RWY 08 SLP213 P0006 T00940078,KAST,2023-02-07T16:55:00Z,46.15,-123.88,9.4,7.8,200,22,34,2.5,30.159449,1021.3,,TRUE,TRUE,,,,,,RA BR,FEW,1800,SCT,2800,OVC,3500,,,IFR,,,,,,0.06,,,,,,METAR,3.0
KAST 071620Z AUTO 19022G31KT 4SM -RA BR SCT018 BKN034 OVC043 09/07 A3016 RMK AO2 PK WND 18031/1620 P0002 T00940072,KAST,2023-02-07T16:20:00Z,46.15,-123.88,9.4,7.2,190,22,31,4.0,30.159449,,,TRUE,TRUE,,,,,,-RA BR,SCT,1800,BKN,3400,OVC,4300,,,MVFR,,,,,,0.02,,,,,,SPECI,3.0
KAST 071555Z AUTO 19018G30KT 6SM -RA BR BKN018 BKN023 OVC045 09/07 A3016 RMK AO2 PK WND 18030/1530 SLP212 P0003 T00940072,KAST,2023-02-07T15:55:00Z,46.15,-123.88,9.4,7.2,190,18,30,6.0,30.159449,1021.2,,TRUE,TRUE,,,,,,-RA BR,BKN,1800,BKN,2300,OVC,4500,,,MVFR,,,,,,0.03,,,,,,SPECI,3.0
KAST 071455Z AUTO 19020G29KT 7SM -RA BKN018 BKN029 OVC075 09/07 A3016 RMK AO2 PK WND 18033/1435 RAB29 SLP213 P0000 60002 T00940072 56020,KAST,2023-02-07T14:55:00Z,46.15,-123.88,9.4,7.2,190,20,29,7.0,30.159449,1021.3,,TRUE,TRUE,,,,,,-RA,BKN,1800,BKN,2900,OVC,7500,,,MVFR,-2.0,,,,,0.005,0.02,,,,,METAR,3.0
KAST 071355Z AUTO 18018G26KT 10SM BKN018 OVC033 10/07 A3018 RMK AO2 PK WND 20033/1343 RAE14 SLP219 P0001 T01000067,KAST,2023-02-07T13:55:00Z,46.15,-123.88,10.0,6.7,180,18,26,10.0,30.180119,1021.9,,TRUE,TRUE,,,,,,,BKN,1800,OVC,3300,,,,,MVFR,,,,,,0.01,,,,,,METAR,3.0
KAST 071255Z AUTO 18013G23KT 8SM -RA BKN020 OVC036 09/07 A3020 RMK AO2 PK WND 20026/1207 RAB1156 SLP226 P0001 T00940067,KAST,2023-02-07T12:55:00Z,46.15,-123.88,9.4,6.7,180,13,23,8.0,30.200787,1022.6,,TRUE,TRUE,,,,,,-RA,BKN,2000,OVC,3600,,,,,MVFR,,,,,,0.01,,,,,,METAR,3.0
KAST 071203Z AUTO 19016G25KT 10SM -RA BKN020 BKN050 OVC070 09/07 A3022 RMK AO2 RAB1156 P0000 T00940067,KAST,2023-02-07T12:03:00Z,46.15,-123.88,9.4,6.7,190,16,25,10.0,30.221457,,,TRUE,TRUE,,,,,,-RA,BKN,2000,BKN,5000,OVC,7000,,,MVFR,,,,,,0.005,,,,,,SPECI,3.0
KAST 071155Z AUTO 19013G25KT 10SM SCT020 BKN032 OVC070 09/07 A3022 RMK AO2 RAE23 CIG 020 RWY 08 SLP233 P0001 60002 70004 T00940067 10100 20089 58022,KAST,2023-02-07T11:55:00Z,46.15,-123.88,9.4,6.7,190,13,25,10.0,30.221457,1023.3,,TRUE,TRUE,,,,,,,SCT,2000,BKN,3200,OVC,7000,,,VFR,-2.2,10.0,8.9,,,0.01,,0.02,0.04,,,METAR,3.0
KAST 071055Z AUTO 19014G19KT 6SM -RA FEW020 SCT025 OVC047 09/07 A3025 RMK AO2 PK WND 18028/1021 CIG 039 RWY 08 SLP241 P0001 T00940067,KAST,2023-02-07T10:55:00Z,46.15,-123.88,9.4,6.7,190,14,19,6.0,30.250984,1024.1,,TRUE,TRUE,,,,,,-RA,FEW,2000,SCT,2500,OVC,4700,,,VFR,,,,,,0.01,,,,,,METAR,3.0
KAST 071032Z AUTO 19014G22KT 9SM -RA SCT020 BKN035 OVC042 09/06 A3026 RMK AO2 PK WND 18028/1021 P0000 T00940061,KAST,2023-02-07T10:32:00Z,46.15,-123.88,9.4,6.1,190,14,22,9.0,30.259842,,,TRUE,TRUE,,,,,,-RA,SCT,2000,BKN,3500,OVC,4200,,,VFR,,,,,,0.005,,,,,,METAR,3.0
KAST 071020Z AUTO 19011G20KT 10SM -RA SCT023 BKN029 OVC040 10/06 A3026 RMK AO2 P0000 T01000061,KAST,2023-02-07T10:20:00Z,46.15,-123.88,10.0,6.1,190,11,20,10.0,30.259842,,,TRUE,TRUE,,,,,,-RA,SCT,2300,BKN,2900,OVC,4000,,,MVFR,,,,,,0.005,,,,,,SPECI,3.0
KAST 070955Z AUTO 19014G22KT 10SM -RA FEW025 SCT030 OVC039 10/06 A3027 RMK AO2 RAB04 SLP248 P0000 T01000061,KAST,2023-02-07T09:55:00Z,46.15,-123.88,10.0,6.1,190,14,22,10.0,30.268702,1024.8,,TRUE,TRUE,,,,,,-RA,FEW,2500,SCT,3000,OVC,3900,,,VFR,,,,,,0.005,,,,,,METAR,3.0
KAST 070855Z AUTO 18014G22KT 10SM FEW024 BKN042 OVC050 10/06 A3029 RMK AO2 SLP255 T01000056 58014,KAST,2023-02-07T08:55:00Z,46.15,-123.88,10.0,5.6,180,14,22,10.0,30.28937,1025.5,,TRUE,TRUE,,,,,,,FEW,2400,BKN,4200,OVC,5000,,,VFR,-1.4,,,,,,,,,,,METAR,3.0
KAST 070755Z AUTO 18015G22KT 10SM FEW018 OVC055 10/06 A3030 RMK AO2 SLP261 T01000061 401060078,KAST,2023-02-07T07:55:00Z,46.15,-123.88,10.0,6.1,180,15,22,10.0,30.301182,1026.1,,TRUE,TRUE,,,,,,,FEW,1800,OVC,5500,,,,,VFR,,,,10.6,7.8,,,,,,,METAR,3.0
KAST 070742Z AUTO 19011G23KT 10SM FEW018 OVC055 09/06 A3030 RMK AO2 T00940061,KAST,2023-02-07T07:42:00Z,46.15,-123.88,9.4,6.1,190,11,23,10.0,30.301182,,,TRUE,TRUE,,,,,,,FEW,1800,OVC,5500,,,,,VFR,,,,,,,,,,,,SPECI,3.0
KAST 070655Z AUTO 18013G24KT 10SM BKN017 OVC025 09/06 A3031 RMK AO2 SLP264 T00940061,KAST,2023-02-07T06:55:00Z,46.15,-123.88,9.4,6.1,180,13,24,10.0,30.31004,1026.4,,TRUE,TRUE,,,,,,,BKN,1700,OVC,2500,,,,,MVFR,,,,,,,,,,,,METAR,3.0
KAST 070610Z AUTO 18009G20KT 10SM BKN019 OVC055 09/06 A3033 RMK AO2 T00940061,KAST,2023-02-07T06:10:00Z,46.15,-123.88,9.4,6.1,180,9,20,10.0,30.33071,,,TRUE,TRUE,,,,,,,BKN,1900,OVC,5500,,,,,MVFR,,,,,,,,,,,,SPECI,3.0
KAST 070555Z AUTO 18013G22KT 10SM FEW017 FEW022 OVC060 09/06 A3033 RMK AO2 SLP269 T00940061 10100 20089 58006,KAST,2023-02-07T05:55:00Z,46.15,-123.88,9.4,6.1,180,13,22,10.0,30.33071,1026.9,,TRUE,TRUE,,,,,,,FEW,1700,FEW,2200,OVC,6000,,,VFR,-0.6,10.0,8.9,,,,,,,,,METAR,3.0
KAST 070508Z AUTO 18010KT 10SM BKN015 BKN019 OVC055 09/07 A3034 RMK AO2 T00890067,KAST,2023-02-07T05:08:00Z,46.15,-123.88,8.9,6.7,180,10,,10.0,30.339567,,,TRUE,TRUE,,,,,,,BKN,1500,BKN,1900,OVC,5500,,,MVFR,,,,,,,,,,,,SPECI,3.0
KAST 070455Z AUTO 18011G20KT 8SM SCT018 BKN043 OVC055 09/07 A3034 RMK AO2 CIG 024 RWY 08 SLP273 T00890067,KAST,2023-02-07T04:55:00Z,46.15,-123.88,8.9,6.7,180,11,20,8.0,30.339567,1027.3,,TRUE,TRUE,,,,,,,SCT,1800,BKN,4300,OVC,5500,,,VFR,,,,,,,,,,,,METAR,3.0
KAST 070427Z AUTO 19009KT 6SM HZ FEW018 BKN040 OVC049 09/06 A3034 RMK AO2 T00890061,KAST,2023-02-07T04:27:00Z,46.15,-123.88,8.9,6.1,190,9,,6.0,30.339567,,,TRUE,TRUE,,,,,,HZ,FEW,1800,BKN,4000,OVC,4900,,,VFR,,,,,,,,,,,,METAR,3.0
KAST 070355Z AUTO 18012G17KT 10SM BKN018 BKN023 OVC055 09/06 A3034 RMK AO2 SLP274 T00890061,KAST,2023-02-07T03:55:00Z,46.15,-123.88,8.9,6.1,180,12,17,10.0,30.339567,1027.4,,TRUE,TRUE,,,,,,,BKN,1800,BKN,2300,OVC,5500,,,MVFR,,,,,,,,,,,,METAR,3.0
KAST 070350Z AUTO 19009KT 10SM BKN018 BKN025 OVC033 09/06 A3034 RMK AO2,KAST,2023-02-07T03:50:00Z,46.15,-123.88,9.0,6.0,190,9,,10.0,30.339567,,,TRUE,TRUE,,,,,,,BKN,1800,BKN,2500,OVC,3300,,,MVFR,,,,,,,,,,,,SPECI,3.0
KAST 070255Z AUTO 20008G18KT 10SM FEW029 OVC037 09/06 A3037 RMK AO2 SLP284 T00940056 58011,KAST,2023-02-07T02:55:00Z,46.15,-123.88,9.4,5.6,200,8,18,10.0,30.369095,1028.4,,TRUE,TRUE,,,,,,,FEW,2900,OVC,3700,,,,,VFR,-1.1,,,,,,,,,,,METAR,3.0
KAST 070239Z AUTO 19011G16KT 10SM FEW021 SCT029 OVC039 09/06 A3038 RMK AO2 T00940061,KAST,2023-02-07T02:39:00Z,46.15,-123.88,9.4,6.1,190,11,16,10.0,30.380905,,,TRUE,TRUE,,,,,,,FEW,2100,SCT,2900,OVC,3900,,,VFR,,,,,,,,,,,,SPECI,3.0
KAST 070224Z AUTO 19008KT 9SM FEW019 BKN029 OVC037 09/06 A3038 RMK AO2 T00890061,KAST,2023-02-07T02:24:00Z,46.15,-123.88,8.9,6.1,190,8,,9.0,30.380905,,,TRUE,TRUE,,,,,,,FEW,1900,BKN,2900,OVC,3700,,,MVFR,,,,,,,,,,,,SPECI,3.0
KAST 070155Z AUTO 20007KT 10SM OVC040 09/06 A3039 RMK AO2 SLP289 T00940056,KAST,2023-02-07T01:55:00Z,46.15,-123.88,9.4,5.6,200,7,,10.0,30.389763,1028.9,,TRUE,TRUE,,,,,,,OVC,4000,,,,,,,VFR,,,,,,,,,,,,SPECI,3.0
KAST 070055Z AUTO 19009KT 10SM BKN041 OVC047 09/06 A3039 RMK AO2 SLP291 T00940056,KAST,2023-02-07T00:55:00Z,46.15,-123.88,9.4,5.6,190,9,,10.0,30.389763,1029.1,,TRUE,TRUE,,,,,,,BKN,4100,OVC,4700,,,,,VFR,,,,,,,,,,,,METAR,3.0
KAST 062355Z AUTO 18011G18KT 10SM OVC050 10/06 A3040 RMK AO2 SLP295 T01000056 10106 20100 58010,KAST,2023-02-06T23:55:00Z,46.15,-123.88,10.0,5.6,180,11,18,10.0,30.398623,1029.5,,TRUE,TRUE,,,,,,,OVC,5000,,,,,,,VFR,-1.0,10.6,10.0,,,,,,,,,METAR,3.0
KAST 062255Z AUTO 20009G22KT 8SM SCT016 SCT021 OVC048 10/07 A3042 RMK AO2 SLP300 T01000072,KAST,2023-02-06T22:55:00Z,46.15,-123.88,10.0,7.2,200,9,22,8.0,30.41929,1030.0,,TRUE,TRUE,,,,,,,SCT,1600,SCT,2100,OVC,4800,,,VFR,,,,,,,,,,,,METAR,3.0
KAST 062155Z AUTO 20014G20KT 8SM OVC060 11/08 A3042 RMK AO2 SLP300 T01060078,KAST,2023-02-06T21:55:00Z,46.15,-123.88,10.6,7.8,200,14,20,8.0,30.41929,1030.0,,TRUE,TRUE,,,,,,,OVC,6000,,,,,,,VFR,,,,,,,,,,,,METAR,3.0
KAST 062055Z AUTO 20009G17KT 7SM FEW010 OVC060 11/08 A3043 RMK AO2 SLP305 T01060083 58004,KAST,2023-02-06T20:55:00Z,46.15,-123.88,10.6,8.3,200,9,17,7.0,30.431103,1030.5,,TRUE,TRUE,,,,,,,FEW,1000,OVC,6000,,,,,VFR,-0.4,,,,,,,,,,,METAR,3.0
KAST 061955Z AUTO 21008KT 170V240 7SM BKN047 OVC055 11/08 A3045 RMK AO2 SLP311 T01060083,KAST,2023-02-06T19:55:00Z,46.15,-123.88,10.6,8.3,210,8,,7.0,30.448818,1031.1,,TRUE,TRUE,,,,,,,BKN,4700,OVC,5500,,,,,VFR,,,,,,,,,,,,METAR,3.0
KAST 061855Z AUTO 21010KT 7SM FEW009 OVC055 10/08 A3045 RMK AO2 SLP311 T01000083,KAST,2023-02-06T18:55:00Z,46.15,-123.88,10.0,8.3,210,10,,7.0,30.448818,1031.1,,TRUE,TRUE,,,,,,,FEW,900,OVC,5500,,,,,VFR,,,,,,,,,,,,SPECI,3.0
KAST 061755Z AUTO 21010KT 6SM BR SCT009 OVC060 10/08 A3045 RMK AO2 SLP309 60002 T01000083 10100 20083 51004,KAST,2023-02-06T17:55:00Z,46.15,-123.88,10.0,8.3,210,10,,6.0,30.448818,1030.9,,TRUE,TRUE,,,,,,BR,SCT,900,OVC,6000,,,,,VFR,0.4,10.0,8.3,,,,,0.02,,,,METAR,3.0
KAST 061752Z AUTO 21008KT 6SM BR SCT009 OVC055 10/08 A3044 RMK AO2 CIG 011 RWY 08,KAST,2023-02-06T17:52:00Z,46.15,-123.88,10.0,8.0,210,8,,6.0,30.43996,,,TRUE,TRUE,,,,,,BR,SCT,900,OVC,5500,,,,,VFR,,,,,,,,,,,,METAR,3.0
KAST 061722Z AUTO 21008KT 6SM BR BKN013 OVC050 09/08 A3044 RMK AO2 T00940083,KAST,2023-02-06T17:22:00Z,46.15,-123.88,9.4,8.3,210,8,,6.0,30.43996,,,TRUE,TRUE,,,,,,BR,BKN,1300,OVC,5000,,,,,MVFR,,,,,,,,,,,,SPECI,3.0
KAST 061655Z AUTO 21008KT 6SM BR OVC055 09/08 A3044 RMK AO2 SLP307 T00940078,KAST,2023-02-06T16:55:00Z,46.15,-123.88,9.4,7.8,210,8,,6.0,30.43996,1030.7,,TRUE,TRUE,,,,,,BR,OVC,5500,,,,,,,VFR,,,,,,,,,,,,METAR,3.0
KAST 061636Z AUTO 20007KT 6SM BR FEW009 OVC055 09/08 A3044 RMK AO2 T00940083,KAST,2023-02-06T16:36:00Z,46.15,-123.88,9.4,8.3,200,7,,6.0,30.43996,,,TRUE,TRUE,,,,,,BR,FEW,900,OVC,5500,,,,,VFR,,,,,,,,,,,,SPECI,3.0
KAST 061619Z AUTO 22005KT 6SM BR SCT012 SCT033 OVC055 09/08 A3044 RMK AO2 T00940078,KAST,2023-02-06T16:19:00Z,46.15,-123.88,9.4,7.8,220,5,,6.0,30.43996,,,TRUE,TRUE,,,,,,BR,SCT,1200,SCT,3300,OVC,5500,,,VFR,,,,,,,,,,,,SPECI,3.0
KAST 061612Z AUTO 22007KT 6SM BR FEW009 BKN013 OVC055 09/08 A3044 RMK AO2 T00940078,KAST,2023-02-06T16:12:00Z,46.15,-123.88,9.4,7.8,220,7,,6.0,30.43996,,,TRUE,TRUE,,,,,,BR,FEW,900,BKN,1300,OVC,5500,,,MVFR,,,,,,,,,,,,SPECI,3.0
KAST 061555Z AUTO 23007KT 7SM SCT010 BKN014 OVC055 09/08 A3043 RMK AO2 RAE1457 SLP305 P0000 T00940078,KAST,2023-02-06T15:55:00Z,46.15,-123.88,9.4,7.8,230,7,,7.0,30.431103,1030.5,,TRUE,TRUE,,,,,,,SCT,1000,BKN,1400,OVC,5500,,,MVFR,,,,,,0.005,,,,,,METAR,3.0
KAST 061508Z AUTO 23007KT 7SM SCT007 BKN012 OVC028 09/08 A3042 RMK AO2 RAE1457 P0000 T00940078,KAST,2023-02-06T15:08:00Z,46.15,-123.88,9.4,7.8,230,7,,7.0,30.41929,,,TRUE,TRUE,,,,,,,SCT,700,BKN,1200,OVC,2800,,,MVFR,,,,,,0.005,,,,,,SPECI,3.0
KAST 061455Z AUTO 23006KT 6SM -RA BR BKN007 BKN012 OVC017 09/08 A3042 RMK AO2 RAB12 SLP301 P0001 60002 T00890078 51007,KAST,2023-02-06T14:55:00Z,46.15,-123.88,8.9,7.8,230,6,,6.0,30.41929,1030.1,,TRUE,TRUE,,,,,,-RA BR,BKN,700,BKN,1200,OVC,1700,,,IFR,0.7,,,,,0.01,0.02,,,,,METAR,3.0
KAST 061440Z AUTO 22006KT 6SM -RA BR BKN007 OVC014 09/08 A3042 RMK AO2 RAB12 P0001 T00890078,KAST,2023-02-06T14:40:00Z,46.15,-123.88,8.9,7.8,220,6,,6.0,30.41929,,,TRUE,TRUE,,,,,,-RA BR,BKN,700,OVC,1400,,,,,IFR,,,,,,0.01,,,,,,SPECI,3.0
KAST 061426Z AUTO VRB05KT 6SM -RA BR SCT007 BKN013 OVC018 09/08 A3042 RMK AO2 RAB12 P0000 T00890078,KAST,2023-02-06T14:26:00Z,46.15,-123.88,8.9,7.8,0,5,,6.0,30.41929,,,TRUE,TRUE,,,,,,-RA BR,SCT,700,BKN,1300,OVC,1800,,,MVFR,,,,,,0.005,,,,,,SPECI,3.0
KAST 061419Z AUTO 22004KT 5SM -RA BR SCT010 BKN013 OVC020 09/08 A3041 RMK AO2 RAB12 P0000 T00940078,KAST,2023-02-06T14:19:00Z,46.15,-123.88,9.4,7.8,220,4,,5.0,30.410433,,,TRUE,TRUE,,,,,,-RA BR,SCT,1000,BKN,1300,OVC,2000,,,MVFR,,,,,,0.005,,,,,,SPECI,3.0
KAST 061355Z AUTO 22005KT 6SM BR BKN015 OVC047 09/08 A3041 RMK AO2 SLP298 T00890078,KAST,2023-02-06T13:55:00Z,46.15,-123.88,8.9,7.8,220,5,,6.0,30.410433,1029.8,,TRUE,TRUE,,,,,,BR,BKN,1500,OVC,4700,,,,,MVFR,,,,,,,,,,,,METAR,3.0
KAST 061352Z AUTO 22007KT 6SM BR OVC015 09/08 A3041 RMK AO2,KAST,2023-02-06T13:52:00Z,46.15,-123.88,9.0,8.0,220,7,,6.0,30.410433,,,TRUE,TRUE,,,,,,BR,OVC,1500,,,,,,,MVFR,,,,,,,,,,,,METAR,3.0
KAST 061329Z AUTO 21005KT 6SM BR SCT007 BKN011 OVC018 09/08 A3041 RMK AO2 T00890078,KAST,2023-02-06T13:29:00Z,46.15,-123.88,8.9,7.8,210,5,,6.0,30.410433,,,TRUE,TRUE,,,,,,BR,SCT,700,BKN,1100,OVC,1800,,,MVFR,,,,,,,,,,,,SPECI,3.0
KAST 061317Z AUTO 23005KT 7SM BKN007 OVC013 09/08 A3040 RMK AO2 T00890078,KAST,2023-02-06T13:17:00Z,46.15,-123.88,8.9,7.8,230,5,,7.0,30.398623,,,TRUE,TRUE,,,,,,,BKN,700,OVC,1300,,,,,IFR,,,,,,,,,,,,SPECI,3.0
KAST 061303Z AUTO 21007KT 7SM SCT007 BKN012 OVC017 09/08 A3040 RMK AO2 T00890078,KAST,2023-02-06T13:03:00Z,46.15,-123.88,8.9,7.8,210,7,,7.0,30.398623,,,TRUE,TRUE,,,,,,,SCT,700,BKN,1200,OVC,1700,,,MVFR,,,,,,,,,,,,METAR,3.0
KAST 061255Z AUTO 21008KT 7SM SCT007 OVC015 09/08 A3040 RMK AO2 RAE26 CIG 008 RWY 08 SLP294 P0001 T00890078,KAST,2023-02-06T12:55:00Z,46.15,-123.88,8.9,7.8,210,8,,7.0,30.398623,1029.4,,TRUE,TRUE,,,,,,,SCT,700,OVC,1500,,,,,MVFR,,,,,,0.01,,,,,,SPECI,3.0
KAST 061240Z AUTO 22007KT 8SM SCT007 BKN012 OVC018 09/08 A3040 RMK AO2 RAE26 P0001 T00890078,KAST,2023-02-06T12:40:00Z,46.15,-123.88,8.9,7.8,220,7,,8.0,30.398623,,,TRUE,TRUE,,,,,,,SCT,700,BKN,1200,OVC,1800,,,MVFR,,,,,,0.01,,,,,,SPECI,3.0
KAST 061155Z AUTO 20008KT 6SM -RA BR BKN005 OVC010 08/07 A3040 RMK AO2 SLP294 P0006 60009 70021 T00830072 10083 20072 51007,KAST,2023-02-06T11:55:00Z,46.15,-123.88,8.3,7.2,200,8,,6.0,30.398623,1029.4,,TRUE,TRUE,,,,,,-RA BR,BKN,500,OVC,1000,,,,,IFR,0.7,8.3,7.2,,,0.06,,0.09,0.21,,,METAR,3.0
KAST 061120Z AUTO 24007KT 3SM -RA BR BKN005 OVC010 08/07 A3040 RMK AO2 P0006 T00830067,KAST,2023-02-06T11:20:00Z,46.15,-123.88,8.3,6.7,240,7,,3.0,30.398623,,,TRUE,TRUE,,,,,,-RA BR,BKN,500,OVC,1000,,,,,IFR,,,,,,0.06,,,,,,SPECI,3.0
KAST 061110Z AUTO 22006KT 1 1/2SM RA BR BKN007 OVC015 08/07 A3040 RMK AO2 P0003 T00830067,KAST,2023-02-06T11:10:00Z,46.15,-123.88,8.3,6.7,220,6,,1.5,30.398623,,,TRUE,TRUE,,,,,,RA BR,BKN,700,OVC,1500,,,,,IFR,,,,,,0.03,,,,,,SPECI,3.0
KAST 061101Z AUTO 22007KT 2SM -RA BR BKN007 BKN015 OVC023 08/07 A3040 RMK AO2 P0000 T00780067,KAST,2023-02-06T11:01:00Z,46.15,-123.88,7.8,6.7,220,7,,2.0,30.398623,,,TRUE,TRUE,,,,,,-RA BR,BKN,700,BKN,1500,OVC,2300,,,IFR,,,,,,0.005,,,,,,SPECI,3.0
KAST 061055Z AUTO 20007KT 2 1/2SM -RA BR SCT007 BKN015 OVC023 08/07 A3040 RMK AO2 RAB44 CIG 006 RWY 08 SLP292 P0002 T00780067,KAST,2023-02-06T10:55:00Z,46.15,-123.88,7.8,6.7,200,7,,2.5,30.398623,1029.2,,TRUE,TRUE,,,,,,-RA BR,SCT,700,BKN,1500,OVC,2300,,,IFR,,,,,,0.02,,,,,,METAR,3.0
KAST 061053Z AUTO 19008KT 2SM -RA BR SCT009 BKN015 OVC023 08/07 A3039 RMK AO2 RAB44 CIG 006 RWY 08 P0002,KAST,2023-02-06T10:53:00Z,46.15,-123.88,8.0,7.0,190,8,,2.0,30.389763,,,TRUE,TRUE,,,,,,-RA BR,SCT,900,BKN,1500,OVC,2300,,,IFR,,,,,,0.02,,,,,,SPECI,3.0
KAST 061037Z AUTO 19006KT 4SM BR SCT009 BKN023 OVC042 08/07 A3039 RMK AO2 CIG 008 RWY 08 T00780067,KAST,2023-02-06T10:37:00Z,46.15,-123.88,7.8,6.7,190,6,,4.0,30.389763,,,TRUE,TRUE,,,,,,BR,SCT,900,BKN,2300,OVC,4200,,,MVFR,,,,,,,,,,,,SPECI,3.0
KAST 061021Z AUTO 20006KT 5SM BR FEW009 BKN012 OVC044 08/07 A3039 RMK AO2 T00780067,KAST,2023-02-06T10:21:00Z,46.15,-123.88,7.8,6.7,200,6,,5.0,30.389763,,,TRUE,TRUE,,,,,,BR,FEW,900,BKN,1200,OVC,4400,,,MVFR,,,,,,,,,,,,SPECI,3.0
KAST 061003Z AUTO 19007KT 6SM BR SCT010 BKN015 OVC020 08/06 A3038 RMK AO2 T00780061,KAST,2023-02-06T10:03:00Z,46.15,-123.88,7.8,6.1,190,7,,6.0,30.380905,,,TRUE,TRUE,,,,,,BR,SCT,1000,BKN,1500,OVC,2000,,,MVFR,,,,,,,,,,,,SPECI,3.0
KAST 060955Z AUTO 20007KT 5SM BR BKN012 BKN020 OVC033 08/06 A3038 RMK AO2 RAE51 SLP288 P0001 T00780061,KAST,2023-02-06T09:55:00Z,46.15,-123.88,7.8,6.1,200,7,,5.0,30.380905,1028.8,,TRUE,TRUE,,,,,,BR,BKN,1200,BKN,2000,OVC,3300,,,MVFR,,,,,,0.01,,,,,,METAR,3.0
KAST 060953Z AUTO 21007KT 6SM BR FEW008 BKN012 OVC033 08/06 A3038 RMK AO2 RAE51 P0001,KAST,2023-02-06T09:53:00Z,46.15,-123.88,8.0,6.0,210,7,,6.0,30.380905,,,TRUE,TRUE,,,,,,BR,FEW,800,BKN,1200,OVC,3300,,,MVFR,,,,,,0.01,,,,,,SPECI,3.0
KAST 060855Z AUTO 23006KT 4SM -RA OVC022 08/05 A3037 RMK AO2 RAB35 SLP284 P0000 60000 T00780050 51020,KAST,2023-02-06T08:55:00Z,46.15,-123.88,7.8,5.0,230,6,,4.0,30.369095,1028.4,,TRUE,TRUE,,,,,,-RA,OVC,2200,,,,,,,MVFR,2.0,,,,,0.005,,,,,,SPECI,3.0
KAST 060822Z AUTO 22004KT 9SM BKN026 OVC034 08/04 A3036 RMK AO2 T00830039,KAST,2023-02-06T08:22:00Z,46.15,-123.88,8.3,3.9,220,4,,9.0,30.360237,,,TRUE,TRUE,,,,,,,BKN,2600,OVC,3400,,,,,MVFR,,,,,,,,,,,,SPECI,3.0
KAST 060755Z AUTO 22003KT 9SM BKN034 BKN041 08/04 A3035 RMK AO2 SLP278 T00830039 401000067,KAST,2023-02-06T07:55:00Z,46.15,-123.88,8.3,3.9,220,3,,9.0,30.351377,1027.8,,TRUE,TRUE,,,,,,,BKN,3400,BKN,4100,,,,,VFR,,,,10.0,6.7,,,,,,,METAR,3.0
KAST 060655Z AUTO 26007KT 9SM SCT039 08/03 A3034 RMK AO2 SLP273 T00780033,KAST,2023-02-06T06:55:00Z,46.15,-123.88,7.8,3.3,260,7,,9.0,30.339567,1027.3,,TRUE,TRUE,,,,,,,SCT,3900,,,,,,,VFR,,,,,,,,,,,,METAR,3.0
KAST 060555Z AUTO 27010KT 9SM FEW036 OVC045 08/03 A3031 RMK AO2 SLP264 60000 T00780033 10083 20078 52032,KAST,2023-02-06T05:55:00Z,46.15,-123.88,7.8,3.3,270,10,,9.0,30.31004,1026.4,,TRUE,TRUE,,,,,,,FEW,3600,OVC,4500,,,,,VFR,3.2,8.3,7.8,,,,,,,,,SPECI,3.0
KAST 060455Z AUTO 27007KT 9SM FEW033 OVC044 08/03 A3028 RMK AO2 RAE0359 SLP254 P0000 T00780028,KAST,2023-02-06T04:55:00Z,46.15,-123.88,7.8,2.8,270,7,,9.0,30.280512,1025.4,,TRUE,TRUE,,,,,,,FEW,3300,OVC,4400,,,,,VFR,,,,,,0.005,,,,,,METAR,3.0
KAST 060355Z AUTO 28008KT 8SM -RA BKN033 OVC042 08/03 A3025 RMK AO2 RAB49 SLP242 P0000 T00780028,KAST,2023-02-06T03:55:00Z,46.15,-123.88,7.8,2.8,280,8,,8.0,30.250984,1024.2,,TRUE,TRUE,,,,,,-RA,BKN,3300,OVC,4200,,,,,VFR,,,,,,0.005,,,,,,METAR,3.0
KAST 060255Z AUTO 28009KT 10SM BKN034 OVC041 08/03 A3022 RMK AO2 SLP232 60000 T00780028 53045,KAST,2023-02-06T02:55:00Z,46.15,-123.88,7.8,2.8,280,9,,10.0,30.221457,1023.2,,TRUE,TRUE,,,,,,,BKN,3400,OVC,4100,,,,,VFR,4.5,,,,,,0.005,,,,,METAR,3.0
KAST 060155Z AUTO 29012KT 10SM OVC040 08/04 A3017 RMK AO2 SLP216 T00830039,KAST,2023-02-06T01:55:00Z,46.15,-123.88,8.3,3.9,290,12,,10.0,30.171259,1021.6,,TRUE,TRUE,,,,,,,OVC,4000,,,,,,,VFR,,,,,,,,,,,,METAR,3.0
KAST 060055Z AUTO 30012G19KT 8SM FEW032 BKN041 OVC048 08/05 A3013 RMK AO2 RAE00 SLP202 P0000 T00780050,KAST,2023-02-06T00:55:00Z,46.15,-123.88,7.8,5.0,300,12,19,8.0,30.129921,1020.2,,TRUE,TRUE,,,,,,,FEW,3200,BKN,4100,OVC,4800,,,VFR,,,,,,0.005,,,,,,SPECI,3.0
KAST 052358Z AUTO 29014G26KT 3SM -RA BR FEW015 BKN035 OVC046 08/06 A3009 RMK AO2 P0000 T00830061,KAST,2023-02-05T23:58:00Z,46.15,-123.88,8.3,6.1,290,14,26,3.0,30.088583,,,TRUE,TRUE,,,,,,-RA BR,FEW,1500,BKN,3500,OVC,4600,,,MVFR,,,,,,0.005,,,,,,SPECI,3.0
KAST 052355Z AUTO 29016G27KT 2SM -RA BR FEW015 BKN029 OVC046 08/06 A3009 RMK AO2 PK WND 30031/2345 RAB48 SLP188 P0000 60003 T00780061 10100 20078 53039,KAST,2023-02-05T23:55:00Z,46.15,-123.88,7.8,6.1,290,16,27,2.0,30.088583,1018.8,,TRUE,TRUE,,,,,,-RA BR,FEW,1500,BKN,2900,OVC,4600,,,IFR,3.9,10.0,7.8,,,0.005,,0.03,,,,METAR,3.0
KAST 052315Z AUTO 30018G24KT 8SM FEW020 BKN030 OVC039 09/07 A3005 RMK AO2 PRESRR T00890067,KAST,2023-02-05T23:15:00Z,46.15,-123.88,8.9,6.7,300,18,24,8.0,30.050198,,,TRUE,TRUE,,,,,,,FEW,2000,BKN,3000,OVC,3900,,,MVFR,,,,,,,,,,,,SPECI,3.0
KAST 052255Z AUTO 30016G24KT 7SM SCT020 BKN027 OVC041 09/07 A3003 RMK AO2 PK WND 31027/2208 RAB2159E14B23E32 CIG 019 RWY 08 SLP167 P0001 T00890067,KAST,2023-02-05T22:55:00Z,46.15,-123.88,8.9,6.7,300,16,24,7.0,30.029528,1016.7,,TRUE,TRUE,,,,,,,SCT,2000,BKN,2700,OVC,4100,,,MVFR,,,,,,0.01,,,,,,METAR,3.0
KAST 052222Z AUTO 30018G25KT 6SM BR FEW007 BKN018 OVC023 09/07 A3000 RMK AO2 PK WND 31027/2208 RAB2159E14 P0001 T00890072,KAST,2023-02-05T22:22:00Z,46.15,-123.88,8.9,7.2,300,18,25,6.0,30.0,,,TRUE,TRUE,,,,,,BR,FEW,700,BKN,1800,OVC,2300,,,MVFR,,,,,,0.01,,,,,,SPECI,3.0
KAST 052211Z AUTO 31016G27KT 3SM -RA BR SCT007 BKN013 OVC035 08/07 A2999 RMK AO2 PK WND 31027/2208 RAB2159 P0001 T00830067,KAST,2023-02-05T22:11:00Z,46.15,-123.88,8.3,6.7,310,16,27,3.0,29.991142,,,TRUE,TRUE,,,,,,-RA BR,SCT,700,BKN,1300,OVC,3500,,,MVFR,,,,,,0.01,,,,,,SPECI,3.0
KAST 052209Z AUTO 31020G27KT 2 1/2SM -RA BR SCT007 BKN016 OVC035 08/07 A2999 RMK AO2 PK WND 31027/2208 RAB2159 P0001 T00830067,KAST,2023-02-05T22:09:00Z,46.15,-123.88,8.3,6.7,310,20,27,2.5,29.991142,,,TRUE,TRUE,,,,,,-RA BR,SCT,700,BKN,1600,OVC,3500,,,IFR,,,,,,0.01,,,,,,SPECI,3.0
KAST 052206Z AUTO 31019G25KT 1 1/2SM -RA BR SCT007 BKN012 OVC035 08/07 A2999 RMK AO2 RAB2159 P0001 T00830072,KAST,2023-02-05T22:06:00Z,46.15,-123.88,8.3,7.2,310,19,25,1.5,29.991142,,,TRUE,TRUE,,,,,,-RA BR,SCT,700,BKN,1200,OVC,3500,,,IFR,,,,,,0.01,,,,,,SPECI,3.0
KAST 052200Z AUTO 30019G25KT 2 1/2SM -RA BR BKN009 BKN014 OVC035 09/07 A2998 RMK AO2 RAB2159 P0000 T00890072,KAST,2023-02-05T22:00:00Z,46.15,-123.88,8.9,7.2,300,19,25,2.5,29.97933,,,TRUE,TRUE,,,,,,-RA BR,BKN,900,BKN,1400,OVC,3500,,,IFR,,,,,,0.005,,,,,,METAR,3.0
KAST 052155Z AUTO 31017G23KT 10SM SCT007 BKN012 OVC037 09/08 A2997 RMK AO2 RAB16E49 SLP149 P0000 T00940078,KAST,2023-02-05T21:55:00Z,46.15,-123.88,9.4,7.8,310,17,23,10.0,29.970472,1014.9,,TRUE,TRUE,,,,,,,SCT,700,BKN,1200,OVC,3700,,,MVFR,,,,,,0.005,,,,,,METAR,3.0
KAST 052135Z AUTO 31016G21KT 3SM -RA BR OVC007 09/07 A2995 RMK AO2 RAB16 P0000 T00890072,KAST,2023-02-05T21:35:00Z,46.15,-123.88,8.9,7.2,310,16,21,3.0,29.949802,,,TRUE,TRUE,,,,,,-RA BR,OVC,700,,,,,,,IFR,,,,,,0.005,,,,,,SPECI,3.0
KAST 052126Z AUTO 31011KT 1 1/2SM -RA BR BKN007 OVC013 09/08 A2995 RMK AO2 RAB16 P0000 T00890078,KAST,2023-02-05T21:26:00Z,46.15,-123.88,8.9,7.8,310,11,,1.5,29.949802,,,TRUE,TRUE,,,,,,-RA BR,BKN,700,OVC,1300,,,,,IFR,,,,,,0.005,,,,,,SPECI,3.0
KAST 052118Z AUTO 30010KT 2SM -RA BR BKN008 OVC013 09/08 A2994 RMK AO2 RAB16 P0000 T00890078,KAST,2023-02-05T21:18:00Z,46.15,-123.88,8.9,7.8,300,10,,2.0,29.940945,,,TRUE,TRUE,,,,,,-RA BR,BKN,800,OVC,1300,,,,,IFR,,,,,,0.005,,,,,,SPECI,3.0
KAST 052055Z AUTO 30017KT 9SM BKN010 OVC015 09/08 A2992 RMK AO2 PK WND 31026/2024 SLP132 60002 T00940078 53052,KAST,2023-02-05T20:55:00Z,46.15,-123.88,9.4,7.8,300,17,,9.0,29.920275,1013.2,,TRUE,TRUE,,,,,,,BKN,1000,OVC,1500,,,,,MVFR,5.2,,,,,,0.02,,,,,METAR,3.0
KAST 051955Z AUTO 29016G22KT 8SM BKN008 BKN012 OVC028 10/08 A2985 RMK AO2 RAE05B24E34 SLP107 P0001 T01000083,KAST,2023-02-05T19:55:00Z,46.15,-123.88,10.0,8.3,290,16,22,8.0,29.84941,1010.7,,TRUE,TRUE,,,,,,,BKN,800,BKN,1200,OVC,2800,,,IFR,,,,,,0.01,,,,,,METAR,3.0
KAST 051941Z AUTO 29015G22KT 6SM BR BKN008 OVC014 09/08 A2984 RMK AO2 RAE05B24E34 P0001 T00940083,KAST,2023-02-05T19:41:00Z,46.15,-123.88,9.4,8.3,290,15,22,6.0,29.840551,,,TRUE,TRUE,,,,,,BR,BKN,800,OVC,1400,,,,,IFR,,,,,,0.01,,,,,,SPECI,3.0
KAST 051932Z AUTO 29016G24KT 2SM -RA BR BKN008 OVC014 09/08 A2983 RMK AO2 VIS 1V3 RAE05B24 P0001 T00940083,KAST,2023-02-05T19:32:00Z,46.15,-123.88,9.4,8.3,290,16,24,2.0,29.828741,,,TRUE,TRUE,,,,,,-RA BR,BKN,800,OVC,1400,,,,,IFR,,,,,,0.01,,,,,,SPECI,3.0
KAST 051927Z AUTO 27013KT 1 3/4SM -RA BR BKN008 OVC014 09/08 A2983 RMK AO2 RAE05B24 P0001 T00940083,KAST,2023-02-05T19:27:00Z,46.15,-123.88,9.4,8.3,270,13,,1.75,29.828741,,,TRUE,TRUE,,,,,,-RA BR,BKN,800,OVC,1400,,,,,IFR,,,,,,0.01,,,,,,SPECI,3.0
KAST 051855Z AUTO 25011KT 3SM -RA BR OVC006 09/08 A2980 RMK AO2 RAE01B23 SLP091 P0001 T00940083,KAST,2023-02-05T18:55:00Z,46.15,-123.88,9.4,8.3,250,11,,3.0,29.799213,1009.1,,TRUE,TRUE,,,,,,-RA BR,OVC,600,,,,,,,IFR,,,,,,0.01,,,,,,SPECI,3.0
KAST 051846Z AUTO 25012G19KT 1 1/2SM -RA BR OVC006 09/08 A2980 RMK AO2 RAE01B23 P0001 T00940083,KAST,2023-02-05T18:46:00Z,46.15,-123.88,9.4,8.3,250,12,19,1.5,29.799213,,,TRUE,TRUE,,,,,,-RA BR,OVC,600,,,,,,,IFR,,,,,,0.01,,,,,,SPECI,3.0
KAST 051824Z AUTO 21010KT 2 1/2SM -RA BR BKN008 OVC017 09/08 A2978 RMK AO2 VIS 1 1/2V5 RAE01B23 P0000 T00940083,KAST,2023-02-05T18:24:00Z,46.15,-123.88,9.4,8.3,210,10,,2.5,29.778543,,,TRUE,TRUE,,,,,,-RA BR,BKN,800,OVC,1700,,,,,IFR,,,,,,0.005,,,,,,SPECI,3.0
KAST 051817Z AUTO 21009G17KT 5SM BR SCT008 OVC017 09/08 A2978 RMK AO2 RAE01 P0000 T00940083,KAST,2023-02-05T18:17:00Z,46.15,-123.88,9.4,8.3,210,9,17,5.0,29.778543,,,TRUE,TRUE,,,,,,BR,SCT,800,OVC,1700,,,,,MVFR,,,,,,0.005,,,,,,METAR,3.0
KAST 051755Z AUTO 22010G23KT 4SM -RA BR BKN006 OVC017 09/08 A2977 RMK AO2 PK WND 17026/1708 SLP079 P0004 60009 T00890078 10089 20067 51019,KAST,2023-02-05T17:55:00Z,46.15,-123.88,8.9,7.8,220,10,23,4.0,29.769686,1007.9,,TRUE,TRUE,,,,,,-RA BR,BKN,600,OVC,1700,,,,,IFR,1.9,8.9,6.7,,,0.04,,0.09,,,,METAR,3.0
KAST 051749Z AUTO 21009G23KT 2SM -RA BR OVC006 09/08 A2976 RMK AO2 PK WND 17026/1708 P0004,KAST,2023-02-05T17:49:00Z,46.15,-123.88,9.0,8.0,210,9,23,2.0,29.760826,,,TRUE,TRUE,,,,,,-RA BR,OVC,600,,,,,,,IFR,,,,,,0.04,,,,,,SPECI,3.0
KAST 051655Z AUTO 19012G20KT 1 1/4SM -RA BR BKN008 OVC013 08/07 A2974 RMK AO2 RAB23 SLP072 P0002 T00830067,KAST,2023-02-05T16:55:00Z,46.15,-123.88,8.3,6.7,190,12,20,1.25,29.740158,1007.2,,TRUE,TRUE,,,,,,-RA BR,BKN,800,OVC,1300,,,,,IFR,,,,,,0.02,,,,,,SPECI,3.0
KAST 051651Z AUTO 19012G20KT 1 1/2SM -RA BR BKN008 OVC013 08/07 A2974 RMK AO2 RAB23 P0001,KAST,2023-02-05T16:51:00Z,46.15,-123.88,8.0,7.0,190,12,20,1.5,29.740158,,,TRUE,TRUE,,,,,,-RA BR,BKN,800,OVC,1300,,,,,IFR,,,,,,0.01,,,,,,METAR,3.0
KAST 051643Z AUTO 20013G20KT 1 1/4SM -RA BR SCT008 OVC013 08/07 A2974 RMK AO2 RAB23 P0001 T00830067,KAST,2023-02-05T16:43:00Z,46.15,-123.88,8.3,6.7,200,13,20,1.25,29.740158,,,TRUE,TRUE,,,,,,-RA BR,SCT,800,OVC,1300,,,,,IFR,,,,,,0.01,,,,,,SPECI,3.0
KAST 051635Z AUTO 19012G19KT 1 3/4SM -RA BR FEW010 BKN015 OVC020 08/07 A2974 RMK AO2 RAB23 P0000 T00830067,KAST,2023-02-05T16:35:00Z,46.15,-123.88,8.3,6.7,190,12,19,1.75,29.740158,,,TRUE,TRUE,,,,,,-RA BR,FEW,1000,BKN,1500,OVC,2000,,,IFR,,,,,,0.005,,,,,,METAR,3.0
KAST 051555Z AUTO 19010G15KT 10SM OVC027 08/06 A2973 RMK AO2 SLP068 T00830061,KAST,2023-02-05T15:55:00Z,46.15,-123.88,8.3,6.1,190,10,15,10.0,29.731298,1006.8,,TRUE,TRUE,,,,,,,OVC,2700,,,,,,,MVFR,,,,,,,,,,,,METAR,3.0
KAST 051455Z AUTO 19007G16KT 10SM SCT021 BKN029 OVC037 08/07 A2971 RMK AO2 RAB04E32 SLP060 P0001 60003 T00830067 53025,KAST,2023-02-05T14:55:00Z,46.15,-123.88,8.3,6.7,190,7,16,10.0,29.71063,1006.0,,TRUE,TRUE,,,,,,,SCT,2100,BKN,2900,OVC,3700,,,MVFR,2.5,,,,,0.01,0.03,,,,,METAR,3.0
KAST 051434Z AUTO 20007KT 10SM FEW009 BKN019 OVC037 08/07 A2970 RMK AO2 RAB04E32 P0001 T00830067,KAST,2023-02-05T14:34:00Z,46.15,-123.88,8.3,6.7,200,7,,10.0,29.698818,,,TRUE,TRUE,,,,,,,FEW,900,BKN,1900,OVC,3700,,,MVFR,,,,,,0.01,,,,,,SPECI,3.0
KAST 051355Z AUTO 17006KT 10SM SCT018 BKN026 OVC048 08/07 A2968 RMK AO2 RAE25 SLP051 P0000 T00780067,KAST,2023-02-05T13:55:00Z,46.15,-123.88,7.8,6.7,170,6,,10.0,29.681103,1005.1,,TRUE,TRUE,,,,,,,SCT,1800,BKN,2600,OVC,4800,,,MVFR,,,,,,0.005,,,,,,SPECI,3.0
KAST 051346Z AUTO 17006KT 10SM BKN018 BKN036 OVC046 07/06 A2968 RMK AO2 RAE25 P0000 T00720061,KAST,2023-02-05T13:46:00Z,46.15,-123.88,7.2,6.1,170,6,,10.0,29.681103,,,TRUE,TRUE,,,,,,,BKN,1800,BKN,3600,OVC,4600,,,MVFR,,,,,,0.005,,,,,,SPECI,3.0
KAST 051255Z AUTO 14004KT 10SM -RA FEW038 SCT047 OVC065 07/06 A2966 RMK AO2 SLP043 P0002 T00720061,KAST,2023-02-05T12:55:00Z,46.15,-123.88,7.2,6.1,140,4,,10.0,29.660433,1004.3,,TRUE,TRUE,,,,,,-RA,FEW,3800,SCT,4700,OVC,6500,,,VFR,,,,,,0.02,,,,,,METAR,3.0
KAST 051155Z AUTO 11004KT 10SM -RA OVC042 07/06 A2964 RMK AO2 SLP035 P0003 60010 70010 T00670056 10083 20067 53011,KAST,2023-02-05T11:55:00Z,46.15,-123.88,6.7,5.6,110,4,,10.0,29.639763,1003.5,,TRUE,TRUE,,,,,,-RA,OVC,4200,,,,,,,VFR,1.1,8.3,6.7,,,0.03,,0.1,0.1,,,METAR,3.0
KAST 051055Z AUTO 00000KT 9SM -RA BKN050 OVC060 07/06 A2962 RMK AO2 SLP028 P0003 T00670056,KAST,2023-02-05T10:55:00Z,46.15,-123.88,6.7,5.6,0,0,,9.0,29.619095,1002.8,,TRUE,TRUE,,,,,,-RA,BKN,5000,OVC,6000,,,,,VFR,,,,,,0.03,,,,,,SPECI,3.0
KAST 050955Z AUTO 04003KT 7SM -RA OVC050 07/06 A2961 RMK AO2 SLP026 P0004 T00720056,KAST,2023-02-05T09:55:00Z,46.15,-123.88,7.2,5.6,40,3,,7.0,29.610237,1002.6,,TRUE,TRUE,,,,,,-RA,OVC,5000,,,,,,,VFR,,,,,,0.04,,,,,,METAR,3.0
KAST 050855Z AUTO 09006KT 10SM -RA OVC060 08/05 A2960 RMK AO2 RAB21 SLP024 P0000 60000 T00780050 56013,KAST,2023-02-05T08:55:00Z,46.15,-123.88,7.8,5.0,90,6,,10.0,29.601377,1002.4,,TRUE,TRUE,,,,,,-RA,OVC,6000,,,,,,,VFR,-1.3,,,,,0.005,0.005,,,,,METAR,3.0
KAST 050755Z AUTO 08008KT 10SM FEW055 BKN080 OVC100 08/04 A2961 RMK AO2 SLP028 T00830044 401170072,KAST,2023-02-05T07:55:00Z,46.15,-123.88,8.3,4.4,80,8,,10.0,29.610237,1002.8,,TRUE,TRUE,,,,,,,FEW,5500,BKN,8000,OVC,10000,,,VFR,,,,11.7,7.2,,,,,,,METAR,3.0
KAST 050655Z AUTO 00000KT 10SM BKN100 OVC120 08/04 A2963 RMK AO2 SLP032 T00830044,KAST,2023-02-05T06:55:00Z,46.15,-123.88,8.3,4.4,0,0,,10.0,29.630905,1003.2,,TRUE,TRUE,,,,,,,BKN,10000,OVC,12000,,,,,VFR,,,,,,,,,,,,METAR,3.0
KAST 050555Z AUTO 09007KT 10SM CLR 08/04 A2964 RMK AO2 SLP038 60000 T00830044 10106 20083 56037,KAST,2023-02-05T05:55:00Z,46.15,-123.88,8.3,4.4,90,7,,10.0,29.639763,1003.8,,TRUE,TRUE,,,,,,,CLR,,,,,,,,VFR,-3.7,10.6,8.3,,,,,0.005,,,,METAR,3.0
KAST 050455Z AUTO 11010KT 10SM SCT090 09/04 A2967 RMK AO2 SLP047 T00940039,KAST,2023-02-05T04:55:00Z,46.15,-123.88,9.4,3.9,110,10,,10.0,29.66929,1004.7,,TRUE,TRUE,,,,,,,SCT,9000,,,,,,,VFR,,,,,,,,,,,,METAR,3.0
KAST 050355Z AUTO 12014G21KT 10SM SCT120 10/04 A2971 RMK AO2 SLP059 T01000039,KAST,2023-02-05T03:55:00Z,46.15,-123.88,10.0,3.9,120,14,21,10.0,29.71063,1005.9,,TRUE,TRUE,,,,,,,SCT,12000,,,,,,,VFR,,,,,,,,,,,,METAR,3.0
KAST 050255Z AUTO 10006KT 10SM OVC120 10/04 A2975 RMK AO2 SLP074 60000 T01000039 58021,KAST,2023-02-05T02:55:00Z,46.15,-123.88,10.0,3.9,100,6,,10.0,29.749016,1007.4,,TRUE,TRUE,,,,,,,OVC,12000,,,,,,,VFR,-2.1,,,,,,0.005,,,,,METAR,3.0
KAST 050155Z AUTO 13004KT 10SM FEW070 BKN090 OVC110 09/06 A2978 RMK AO2 RAB28E39 SLP083 P0000 T00890056,KAST,2023-02-05T01:55:00Z,46.15,-123.88,8.9,5.6,130,4,,10.0,29.778543,1008.3,,TRUE,TRUE,,,,,,,FEW,7000,BKN,9000,OVC,11000,,,VFR,,,,,,0.005,,,,,,METAR,3.0
KAST 050055Z AUTO 10003KT 10SM FEW090 OVC100 09/06 A2979 RMK AO2 RAE16 SLP087 P0000 T00940056,KAST,2023-02-05T00:55:00Z,46.15,-123.88,9.4,5.6,100,3,,10.0,29.790354,1008.7,,TRUE,TRUE,,,,,,,FEW,9000,OVC,10000,,,,,VFR,,,,,,0.005,,,,,,SPECI,3.0
KAST 042355Z AUTO 10010KT 10SM -RA BKN075 OVC100 11/06 A2981 RMK AO2 RAB31 SLP095 P0000 60000 T01060056 10117 20094 56022,KAST,2023-02-04T23:55:00Z,46.15,-123.88,10.6,5.6,100,10,,10.0,29.811024,1009.5,,TRUE,TRUE,,,,,,-RA,BKN,7500,OVC,10000,,,,,VFR,-2.2,11.7,9.4,,,0.005,,0.005,,,,METAR,3.0
KAST 042255Z AUTO 11010KT 10SM BKN060 OVC100 12/06 A2984 RMK AO2 SLP104 T01170061,KAST,2023-02-04T22:55:00Z,46.15,-123.88,11.7,6.1,110,10,,10.0,29.840551,1010.4,,TRUE,TRUE,,,,,,,BKN,6000,OVC,10000,,,,,VFR,,,,,,,,,,,,METAR,3.0
KAST 042155Z AUTO 11012KT 10SM BKN080 OVC090 12/06 A2985 RMK AO2 SLP107 T01170061,KAST,2023-02-04T21:55:00Z,46.15,-123.88,11.7,6.1,110,12,,10.0,29.84941,1010.7,,TRUE,TRUE,,,,,,,BKN,8000,OVC,9000,,,,,VFR,,,,,,,,,,,,METAR,3.0
KAST 042055Z AUTO 11009KT 10SM BKN095 12/06 A2988 RMK AO2 SLP117 T01170061 58027,KAST,2023-02-04T20:55:00Z,46.15,-123.88,11.7,6.1,110,9,,10.0,29.878937,1011.7,,TRUE,TRUE,,,,,,,BKN,9500,,,,,,,VFR,-2.7,,,,,,,,,,,METAR,3.0
KAST 041955Z AUTO 11008KT 10SM SCT085 BKN100 11/07 A2992 RMK AO2 SLP131 T01110067,KAST,2023-02-04T19:55:00Z,46.15,-123.88,11.1,6.7,110,8,,10.0,29.920275,1013.1,,TRUE,TRUE,,,,,,,SCT,8500,BKN,10000,,,,,VFR,,,,,,,,,,,,METAR,3.0
KAST 041855Z AUTO 09005KT 10SM OVC100 11/07 A2995 RMK AO2 SLP141 T01060067,KAST,2023-02-04T18:55:00Z,46.15,-123.88,10.6,6.7,90,5,,10.0,29.949802,1014.1,,TRUE,TRUE,,,,,,,OVC,10000,,,,,,,VFR,,,,,,,,,,,,METAR,3.0
KAST 041755Z AUTO 11006KT 10SM OVC100 09/07 A2996 RMK AO2 RAE13 SLP144 P0000 60000 T00940067 10106 20089 57005,KAST,2023-02-04T17:55:00Z,46.15,-123.88,9.4,6.7,110,6,,10.0,29.958662,1014.4,,TRUE,TRUE,,,,,,,OVC,10000,,,,,,,VFR,-0.5,10.6,8.9,,,0.005,,0.005,,,,METAR,3.0
KAST 041655Z AUTO 11006KT 10SM -RA SCT038 OVC060 09/07 A2997 RMK AO2 RAB05E15B43 SLP147 P0000 T00890067,KAST,2023-02-04T16:55:00Z,46.15,-123.88,8.9,6.7,110,6,,10.0,29.970472,1014.7,,TRUE,TRUE,,,,,,-RA,SCT,3800,OVC,6000,,,,,VFR,,,,,,0.005,,,,,,SPECI,3.0
KAST 041555Z AUTO 12005KT 10SM FEW036 OVC050 09/07 A2997 RMK AO2 RAB20E53 SLP147 P0000 T00890067,KAST,2023-02-04T15:55:00Z,46.15,-123.88,8.9,6.7,120,5,,10.0,29.970472,1014.7,,TRUE,TRUE,,,,,,,FEW,3600,OVC,5000,,,,,VFR,,,,,,0.005,,,,,,METAR,3.0
KAST 041455Z AUTO 09006KT 10SM BKN036 OVC044 09/07 A2997 RMK AO2 SLP149 T00890072 58009,KAST,2023-02-04T14:55:00Z,46.15,-123.88,8.9,7.2,90,6,,10.0,29.970472,1014.9,,TRUE,TRUE,,,,,,,BKN,3600,OVC,4400,,,,,VFR,-0.9,,,,,,,,,,,METAR,3.0
KAST 041355Z AUTO 00000KT 10SM FEW028 OVC041 10/07 A2999 RMK AO2 SLP155 T01000072,KAST,2023-02-04T13:55:00Z,46.15,-123.88,10.0,7.2,0,0,,10.0,29.991142,1015.5,,TRUE,TRUE,,,,,,,FEW,2800,OVC,4100,,,,,VFR,,,,,,,,,,,,METAR,3.0
KAST 041255Z AUTO 00000KT 10SM FEW030 OVC037 09/08 A3000 RMK AO2 SLP158 T00890078,KAST,2023-02-04T12:55:00Z,46.15,-123.88,8.9,7.8,0,0,,10.0,30.0,1015.8,,TRUE,TRUE,,,,,,,FEW,3000,OVC,3700,,,,,VFR,,,,,,,,,,,,METAR,3.0
KAST 041218Z AUTO 16006KT 10SM OVC030 11/08 A3000 RMK AO2 T01060078,KAST,2023-02-04T12:18:00Z,46.15,-123.88,10.6,7.8,160,6,,10.0,30.0,,,TRUE,TRUE,,,,,,,OVC,3000,,,,,,,MVFR,,,,,,,,,,,,SPECI,3.0
KAST 041211Z AUTO VRB05KT 10SM BKN026 BKN032 OVC046 11/08 A3000 RMK AO2 T01060078,KAST,2023-02-04T12:11:00Z,46.15,-123.88,10.6,7.8,0,5,,10.0,30.0,,,TRUE,TRUE,,,,,,,BKN,2600,BKN,3200,OVC,4600,,,MVFR,,,,,,,,,,,,SPECI,3.0
KAST 041202Z AUTO 16006KT 10SM SCT026 BKN032 OVC043 10/08 A3000 RMK AO2 CIG 027 RWY 08 T01000078,KAST,2023-02-04T12:02:00Z,46.15,-123.88,10.0,7.8,160,6,,10.0,30.0,,,TRUE,TRUE,,,,,,,SCT,2600,BKN,3200,OVC,4300,,,VFR,,,,,,,,,,,,METAR,3.0
KAST 041155Z AUTO 18008KT 10SM FEW020 BKN029 OVC043 11/08 A3000 RMK AO2 RAB18E28B33E42 SLP159 P0000 60033 70072 T01060078 10106 20078 56006,KAST,2023-02-04T11:55:00Z,46.15,-123.88,10.6,7.8,180,8,,10.0,30.0,1015.9,,TRUE,TRUE,,,,,,,FEW,2000,BKN,2900,OVC,4300,,,MVFR,-0.6,10.6,7.8,,,0.005,,0.33,0.72,,,METAR,3.0
KAST 041152Z AUTO 18010G19KT 10SM FEW020 BKN035 OVC043 11/08 A3000 RMK AO2 RAB18E28B33E42 CIG 027 RWY 08 P0000,KAST,2023-02-04T11:52:00Z,46.15,-123.88,11.0,8.0,180,10,19,10.0,30.0,,,TRUE,TRUE,,,,,,,FEW,2000,BKN,3500,OVC,4300,,,VFR,,,,,,0.005,,,,,,METAR,3.0
KAST 041055Z AUTO 18013G24KT 8SM SCT018 OVC024 11/08 A3001 RMK AO2 RAE28 SLP162 P0006 T01060083,KAST,2023-02-04T10:55:00Z,46.15,-123.88,10.6,8.3,180,13,24,8.0,30.008858,1016.2,,TRUE,TRUE,,,,,,,SCT,1800,OVC,2400,,,,,MVFR,,,,,,0.06,,,,,,METAR,3.0
KAST 041023Z AUTO 20012G23KT 8SM -RA FEW010 BKN016 OVC060 11/08 A3001 RMK AO2 P0006 T01060083,KAST,2023-02-04T10:23:00Z,46.15,-123.88,10.6,8.3,200,12,23,8.0,30.008858,,,TRUE,TRUE,,,,,,-RA,FEW,1000,BKN,1600,OVC,6000,,,MVFR,,,,,,0.06,,,,,,SPECI,3.0
KAST 041005Z AUTO 3SM -RA BR SCT008 BKN014 OVC024 09/08 A3002 RMK AO2 P0005 T00940083,KAST,2023-02-04T10:05:00Z,46.15,-123.88,9.4,8.3,,,,3.0,30.02067,,,TRUE,TRUE,,,,,,-RA BR,SCT,800,BKN,1400,OVC,2400,,,MVFR,,,,,,0.05,,,,,,METAR,3.0
KAST 040955Z AUTO VRB04KT 2SM +RA BR BKN008 BKN013 OVC018 08/07 A3002 RMK AO2 RAB0858 SLP165 P0018 T00830072,KAST,2023-02-04T09:55:00Z,46.15,-123.88,8.3,7.2,0,4,,2.0,30.02067,1016.5,,TRUE,TRUE,,,,,,+RA BR,BKN,800,BKN,1300,OVC,1800,,,IFR,,,,,,0.18,,,,,,METAR,3.0
KAST 040947Z AUTO 15004KT 2SM RA BR BKN008 BKN012 OVC018 08/08 A3002 RMK AO2 RAB0858 P0014 T00830078,KAST,2023-02-04T09:47:00Z,46.15,-123.88,8.3,7.8,150,4,,2.0,30.02067,,,TRUE,TRUE,,,,,,RA BR,BKN,800,BKN,1200,OVC,1800,,,IFR,,,,,,0.14,,,,,,SPECI,3.0
KAST 040943Z AUTO VRB05KT 1 3/4SM +RA BR BKN010 OVC018 08/07 A3003 RMK AO2 RAB0858 P0012 T00830072,KAST,2023-02-04T09:43:00Z,46.15,-123.88,8.3,7.2,0,5,,1.75,30.029528,,,TRUE,TRUE,,,,,,+RA BR,BKN,1000,OVC,1800,,,,,IFR,,,,,,0.12,,,,,,SPECI,3.0
KAST 040924Z AUTO 11003KT 2 1/2SM RA BR BKN012 OVC018 08/07 A3003 RMK AO2 RAB0858 P0001 T00830072,KAST,2023-02-04T09:24:00Z,46.15,-123.88,8.3,7.2,110,3,,2.5,30.029528,,,TRUE,TRUE,,,,,,RA BR,BKN,1200,OVC,1800,,,,,IFR,,,,,,0.01,,,,,,METAR,3.0
KAST 040855Z AUTO 10004KT 10SM BKN018 BKN028 OVC041 08/07 A3003 RMK AO2 RAE34B41E51 SLP169 P0001 60009 T00830072 58004,KAST,2023-02-04T08:55:00Z,46.15,-123.88,8.3,7.2,100,4,,10.0,30.029528,1016.9,,TRUE,TRUE,,,,,,,BKN,1800,BKN,2800,OVC,4100,,,MVFR,-0.4,,,,,0.01,0.09,,,,,METAR,3.0
KAST 040837Z AUTO 10005KT 10SM BKN018 BKN022 OVC049 08/07 A3004 RMK AO2 RAE34 P0001 T00780067,KAST,2023-02-04T08:37:00Z,46.15,-123.88,7.8,6.7,100,5,,10.0,30.041338,,,TRUE,TRUE,,,,,,,BKN,1800,BKN,2200,OVC,4900,,,MVFR,,,,,,0.01,,,,,,SPECI,3.0
KAST 040755Z AUTO 14005KT 8SM -RA OVC045 08/07 A3005 RMK AO2 SLP174 P0004 T00830067 401110039,KAST,2023-02-04T07:55:00Z,46.15,-123.88,8.3,6.7,140,5,,8.0,30.050198,1017.4,,TRUE,TRUE,,,,,,-RA,OVC,4500,,,,,,,VFR,,,,11.1,3.9,0.04,,,,,,METAR,3.0
KAST 040655Z AUTO 17007KT 7SM -RA FEW036 OVC045 08/07 A3004 RMK AO2 PK WND 18026/0556 SLP173 P0004 T00830067,KAST,2023-02-04T06:55:00Z,46.15,-123.88,8.3,6.7,170,7,,7.0,30.041338,1017.3,,TRUE,TRUE,,,,,,-RA,FEW,3600,OVC,4500,,,,,VFR,,,,,,0.04,,,,,,METAR,3.0
KAST 040555Z AUTO 19011G17KT 7SM -RA FEW018 OVC046 09/07 A3005 RMK AO2 SLP174 P0005 60007 T00940072 10106 20094 53012,KAST,2023-02-04T05:55:00Z,46.15,-123.88,9.4,7.2,190,11,17,7.0,30.050198,1017.4,,TRUE,TRUE,,,,,,-RA,FEW,1800,OVC,4600,,,,,VFR,1.2,10.6,9.4,,,0.05,,0.07,,,,METAR,3.0
KAST 040455Z AUTO 20011KT 8SM -RA FEW022 BKN070 OVC100 11/08 A3002 RMK AO2 RAB48 SLP166 P0000 T01060078,KAST,2023-02-04T04:55:00Z,46.15,-123.88,10.6,7.8,200,11,,8.0,30.02067,1016.6,,TRUE,TRUE,,,,,,-RA,FEW,2200,BKN,7000,OVC,10000,,,VFR,,,,,,0.005,,,,,,METAR,3.0
KAST 040355Z AUTO 19012G20KT 9SM FEW020 SCT075 OVC110 10/08 A3002 RMK AO2 PK WND 20026/0305 CIG 085 RWY 08 SLP165 T01000078,KAST,2023-02-04T03:55:00Z,46.15,-123.88,10.0,7.8,190,12,20,9.0,30.02067,1016.5,,TRUE,TRUE,,,,,,,FEW,2000,SCT,7500,OVC,11000,,,VFR,,,,,,,,,,,,METAR,3.0
KAST 040342Z AUTO 20014G23KT 9SM SCT020 SCT085 OVC120 10/07 A3002 RMK AO2 PK WND 20026/0305 CIG 085 RWY 08 T01000072,KAST,2023-02-04T03:42:00Z,46.15,-123.88,10.0,7.2,200,14,23,9.0,30.02067,,,TRUE,TRUE,,,,,,,SCT,2000,SCT,8500,OVC,12000,,,VFR,,,,,,,,,,,,SPECI,3.0
KAST 040333Z AUTO 20014G24KT 9SM BKN018 BKN120 10/07 A3002 RMK AO2 PK WND 20026/0305 T01000072,KAST,2023-02-04T03:33:00Z,46.15,-123.88,10.0,7.2,200,14,24,9.0,30.02067,,,TRUE,TRUE,,,,,,,BKN,1800,BKN,12000,,,,,MVFR,,,,,,,,,,,,METAR,3.0
KAST 040255Z AUTO 20015G22KT 8SM FEW120 10/08 A3001 RMK AO2 PK WND 21027/0219 SLP162 60002 T01000078 51013,KAST,2023-02-04T02:55:00Z,46.15,-123.88,10.0,7.8,200,15,22,8.0,30.008858,1016.2,,TRUE,TRUE,,,,,,,FEW,12000,,,,,,,VFR,1.3,,,,,,0.02,,,,,METAR,3.0
KAST 040216Z AUTO 20014G23KT 9SM SCT023 BKN110 10/07 A3000 RMK AO2 PK WND 18027/0159 T01000072,KAST,2023-02-04T02:16:00Z,46.15,-123.88,10.0,7.2,200,14,23,9.0,30.0,,,TRUE,TRUE,,,,,,,SCT,2300,BKN,11000,,,,,VFR,,,,,,,,,,,,SPECI,3.0
KAST 040155Z AUTO 20014G25KT 8SM BKN025 BKN037 OVC120 10/07 A2999 RMK AO2 PK WND 19028/0105 SLP155 T01000072,KAST,2023-02-04T01:55:00Z,46.15,-123.88,10.0,7.2,200,14,25,8.0,29.991142,1015.5,,TRUE,TRUE,,,,,,,BKN,2500,BKN,3700,OVC,12000,,,MVFR,,,,,,,,,,,,METAR,3.0
KAST 040152Z AUTO 20013G25KT 7SM BKN025 BKN037 OVC055 10/07 A2999 RMK AO2 PK WND 19028/0105,KAST,2023-02-04T01:52:00Z,46.15,-123.88,10.0,7.0,200,13,25,7.0,29.991142,,,TRUE,TRUE,,,,,,,BKN,2500,BKN,3700,OVC,5500,,,MVFR,,,,,,,,,,,,METAR,3.0
KAST 040055Z AUTO 20020G27KT 7SM FEW028 SCT039 BKN050 10/07 A2997 RMK AO2 PK WND 21029/0023 RAE19B33E42 SLP149 P0002 T01000072,KAST,2023-02-04T00:55:00Z,46.15,-123.88,10.0,7.2,200,20,27,7.0,29.970472,1014.9,,TRUE,TRUE,,,,,,,FEW,2800,SCT,3900,BKN,5000,,,VFR,,,,,,0.02,,,,,,SPECI,3.0
KAST 040038Z AUTO 20013G23KT 6SM -RA FEW022 BKN032 OVC050 10/07 A2996 RMK AO2 PK WND 21029/0023 RAE19B33 P0002 T01000072,KAST,2023-02-04T00:38:00Z,46.15,-123.88,10.0,7.2,200,13,23,6.0,29.958662,,,TRUE,TRUE,,,,,,-RA,FEW,2200,BKN,3200,OVC,5000,,,VFR,,,,,,0.02,,,,,,SPECI,3.0
KAST 040029Z AUTO 21015G29KT 6SM HZ FEW022 BKN028 OVC050 10/07 A2997 RMK AO2 PK WND 21029/0023 RAE19 P0002 T01000072,KAST,2023-02-04T00:29:00Z,46.15,-123.88,10.0,7.2,210,15,29,6.0,29.970472,,,TRUE,TRUE,,,,,,HZ,FEW,2200,BKN,2800,OVC,5000,,,MVFR,,,,,,0.02,,,,,,SPECI,3.0
KAST 040018Z AUTO 21014G24KT 6SM -RA FEW018 BKN032 OVC050 10/07 A2997 RMK AO2 PK WND 19028/2358 P0002 T01000072,KAST,2023-02-04T00:18:00Z,46.15,-123.88,10.0,7.2,210,14,24,6.0,29.970472,,,TRUE,TRUE,,,,,,-RA,FEW,1800,BKN,3200,OVC,5000,,,VFR,,,,,,0.02,,,,,,SPECI,3.0
KAST 040010Z AUTO 21017G24KT 3SM -RA BR SCT023 BKN028 OVC050 10/08 A2996 RMK AO2 PK WND 19028/2358 P0002 T01000078,KAST,2023-02-04T00:10:00Z,46.15,-123.88,10.0,7.8,210,17,24,3.0,29.958662,,,TRUE,TRUE,,,,,,-RA BR,SCT,2300,BKN,2800,OVC,5000,,,MVFR,,,,,,0.02,,,,,,SPECI,3.0
KAST 040003Z AUTO 21012G28KT 3SM -RA BR FEW019 BKN038 OVC049 10/08 A2996 RMK AO2 PK WND 19028/2358 P0000 T01000078,KAST,2023-02-04T00:03:00Z,46.15,-123.88,10.0,7.8,210,12,28,3.0,29.958662,,,TRUE,TRUE,,,,,,-RA BR,FEW,1900,BKN,3800,OVC,4900,,,MVFR,,,,,,0.005,,,,,,SPECI,3.0
KAST 032355Z AUTO 21017G31KT 2 1/2SM -RA FEW020 BKN047 OVC110 10/07 A2995 RMK AO2 PK WND 20033/2329 VIS 1V5 RAB48 SLP142 P0001 60027 T01000072 10111 20089 53028,KAST,2023-02-03T23:55:00Z,46.15,-123.88,10.0,7.2,210,17,31,2.5,29.949802,1014.2,,TRUE,TRUE,,,,,,-RA,FEW,2000,BKN,4700,OVC,11000,,,IFR,2.8,11.1,8.9,,,0.01,,0.27,,,,METAR,3.0
KAST 032336Z AUTO 21017G33KT 7SM SCT026 BKN049 OVC110 10/07 A2994 RMK AO2 PK WND 20033/2329 T01000072,KAST,2023-02-03T23:36:00Z,46.15,-123.88,10.0,7.2,210,17,33,7.0,29.940945,,,TRUE,TRUE,,,,,,,SCT,2600,BKN,4900,OVC,11000,,,VFR,,,,,,,,,,,,SPECI,3.0
KAST 032326Z AUTO 21016G30KT 7SM BKN026 OVC100 10/07 A2993 RMK AO2 PK WND 20032/2304 T01000072,KAST,2023-02-03T23:26:00Z,46.15,-123.88,10.0,7.2,210,16,30,7.0,29.929134,,,TRUE,TRUE,,,,,,,BKN,2600,OVC,10000,,,,,MVFR,,,,,,,,,,,,SPECI,3.0
KAST 032255Z AUTO 21018G35KT 7SM SCT023 BKN033 OVC060 10/07 A2991 RMK AO2 PK WND 20036/2202 RAE47 SLP129 P0009 T01000072,KAST,2023-02-03T22:55:00Z,46.15,-123.88,10.0,7.2,210,18,35,7.0,29.911417,1012.9,,TRUE,TRUE,,,,,,,SCT,2300,BKN,3300,OVC,6000,,,VFR,,,,,,0.09,,,,,,METAR,3.0
KAST 032242Z AUTO 21018G34KT 3SM -RA FEW014 BKN036 OVC046 10/07 A2990 RMK AO2 PK WND 20036/2202 P0009 T01000072,KAST,2023-02-03T22:42:00Z,46.15,-123.88,10.0,7.2,210,18,34,3.0,29.899607,,,TRUE,TRUE,,,,,,-RA,FEW,1400,BKN,3600,OVC,4600,,,MVFR,,,,,,0.09,,,,,,SPECI,3.0
KAST 032228Z AUTO 21021G35KT 170V240 1 3/4SM -RA BR SCT017 OVC036 09/07 A2990 RMK AO2 PK WND 20036/2202 VIS 3/4V3 P0005 T00940072,KAST,2023-02-03T22:28:00Z,46.15,-123.88,9.4,7.2,210,21,35,1.75,29.899607,,,TRUE,TRUE,,,,,,-RA BR,SCT,1700,OVC,3600,,,,,IFR,,,,,,0.05,,,,,,SPECI,3.0
KAST 032216Z AUTO 21014G31KT 5SM -RA BR FEW026 BKN036 OVC045 09/07 A2989 RMK AO2 PK WND 20036/2202 P0004 T00940072,KAST,2023-02-03T22:16:00Z,46.15,-123.88,9.4,7.2,210,14,31,5.0,29.890747,,,TRUE,TRUE,,,,,,-RA BR,FEW,2600,BKN,3600,OVC,4500,,,MVFR,,,,,,0.04,,,,,,SPECI,3.0
KAST 032155Z AUTO 21020G29KT 2SM RA BR SCT027 BKN033 OVC044 09/07 A2989 RMK AO2 PK WND 19039/2122 SLP120 P0012 T00940072,KAST,2023-02-03T21:55:00Z,46.15,-123.88,9.4,7.2,210,20,29,2.0,29.890747,1012.0,,TRUE,TRUE,,,,,,RA BR,SCT,2700,BKN,3300,OVC,4400,,,IFR,,,,,,0.12,,,,,,METAR,3.0
KAST 032121Z AUTO 21023G37KT 2SM -RA BR SCT019 OVC032 09/07 A2988 RMK AO2 PK WND 19037/2115 P0005 T00940072,KAST,2023-02-03T21:21:00Z,46.15,-123.88,9.4,7.2,210,23,37,2.0,29.878937,,,TRUE,TRUE,,,,,,-RA BR,SCT,1900,OVC,3200,,,,,IFR,,,,,,0.05,,,,,,SPECI,3.0
KAST 032109Z AUTO 20020G32KT 1 3/4SM -RA BR SCT019 BKN028 OVC033 09/07 A2987 RMK AO2 PK WND 19032/2057 P0002 T00940072,KAST,2023-02-03T21:09:00Z,46.15,-123.88,9.4,7.2,200,20,32,1.75,29.870079,,,TRUE,TRUE,,,,,,-RA BR,SCT,1900,BKN,2800,OVC,3300,,,IFR,,,,,,0.02,,,,,,SPECI,3.0
KAST 032055Z AUTO 20017G35KT 2 1/2SM -RA FEW017 BKN033 OVC041 09/07 A2987 RMK AO2 PK WND 20042/2021 SLP113 P0004 60005 T00940067 53017,KAST,2023-02-03T20:55:00Z,46.15,-123.88,9.4,6.7,200,17,35,2.5,29.870079,1011.3,,TRUE,TRUE,,,,,,-RA,FEW,1700,BKN,3300,OVC,4100,,,IFR,1.7,,,,,0.04,0.05,,,,,METAR,3.0
KAST 032028Z AUTO 20027G42KT 3SM -RA SCT019 BKN031 OVC041 09/07 A2986 RMK AO2 PK WND 20042/2021 P0001 T00940067,KAST,2023-02-03T20:28:00Z,46.15,-123.88,9.4,6.7,200,27,42,3.0,29.861221,,,TRUE,TRUE,,,,,,-RA,SCT,1900,BKN,3100,OVC,4100,,,MVFR,,,,,,0.01,,,,,,SPECI,3.0
KAST 032004Z AUTO 20025G38KT 4SM -RA SCT018 BKN028 OVC042 10/07 A2984 RMK AO2 PK WND 20038/2001 P0001 T01000072,KAST,2023-02-03T20:04:00Z,46.15,-123.88,10.0,7.2,200,25,38,4.0,29.840551,,,TRUE,TRUE,,,,,,-RA,SCT,1800,BKN,2800,OVC,4200,,,MVFR,,,,,,0.01,,,,,,SPECI,3.0
KAST 031955Z AUTO 20021G42KT 2 1/2SM -RA SCT018 BKN035 OVC042 10/07 A2984 RMK AO2 PK WND 19047/1905 SLP104 P0000 T01000072,KAST,2023-02-03T19:55:00Z,46.15,-123.88,10.0,7.2,200,21,42,2.5,29.840551,1010.4,,TRUE,TRUE,,,,,,-RA,SCT,1800,BKN,3500,OVC,4200,,,IFR,,,,,,0.005,,,,,,METAR,3.0
KAST 031937Z AUTO 19015G32KT 4SM -RA SCT018 BKN037 OVC045 11/08 A2983 RMK AO2 PK WND 19047/1905 P0000 T01060078,KAST,2023-02-03T19:37:00Z,46.15,-123.88,10.6,7.8,190,15,32,4.0,29.828741,,,TRUE,TRUE,,,,,,-RA,SCT,1800,BKN,3700,OVC,4500,,,MVFR,,,,,,0.005,,,,,,METAR,3.0
KAST 031855Z AUTO 18020G36KT 4SM -RA SCT022 BKN027 OVC040 10/07 A2982 RMK AO2 PK WND 17043/1844 SLP096 P0001 T01000067,KAST,2023-02-03T18:55:00Z,46.15,-123.88,10.0,6.7,180,20,36,4.0,29.819881,1009.6,,TRUE,TRUE,,,,,,-RA,SCT,2200,BKN,2700,OVC,4000,,,MVFR,,,,,,0.01,,,,,,METAR,3.0
KAST 031843Z AUTO 18026G35KT 7SM -RA BKN026 OVC033 11/06 A2981 RMK AO2 PK WND 18037/1832 P0001 T01060061,KAST,2023-02-03T18:43:00Z,46.15,-123.88,10.6,6.1,180,26,35,7.0,29.811024,,,TRUE,TRUE,,,,,,-RA,BKN,2600,OVC,3300,,,,,MVFR,,,,,,0.01,,,,,,SPECI,3.0
KAST 031755Z AUTO 17008G17KT 7SM -RA FEW027 BKN033 OVC040 09/06 A2982 RMK AO2 SLP096 P0002 60005 T00890056 10100 20044 53005,KAST,2023-02-03T17:55:00Z,46.15,-123.88,8.9,5.6,170,8,17,7.0,29.819881,1009.6,,TRUE,TRUE,,,,,,-RA,FEW,2700,BKN,3300,OVC,4000,,,VFR,0.5,10.0,4.4,,,0.02,,,,,,SPECI,3.0
KAST 031655Z AUTO 14010G19KT 10SM -RA OVC041 09/04 A2980 RMK AO2 SLP091 P0003 T00940044,KAST,2023-02-03T16:55:00Z,46.15,-123.88,9.4,4.4,140,10,19,10.0,29.799213,1009.1,,TRUE,TRUE,,,,,,-RA,OVC,4100,,,,,,,VFR,,,,,,0.03,,,,,,METAR,3.0
KAST 031555Z AUTO 17009KT 9SM -RA BKN050 OVC060 09/00 A2981 RMK AO2 RAB36 SLP094 P0000 T00890000,KAST,2023-02-03T15:55:00Z,46.15,-123.88,8.9,0.0,170,9,,9.0,29.811024,1009.4,,TRUE,TRUE,,,,,,-RA,BKN,5000,OVC,6000,,,,,VFR,,,,,,0.005,,,,,,METAR,3.0
KAST 031455Z AUTO 12004KT 10SM BKN080 OVC095 06/02 A2980 RMK AO2 SLP091 T00560017 58018,KAST,2023-02-03T14:55:00Z,46.15,-123.88,5.6,1.7,120,4,,10.0,29.799213,1009.1,,TRUE,TRUE,,,,,,,BKN,8000,OVC,9500,,,,,VFR,-1.8,,,,,,,,,,,SPECI,3.0
KAST 031355Z AUTO 02003KT 10SM OVC110 06/01 A2982 RMK AO2 SLP099 T00560011,KAST,2023-02-03T13:55:00Z,46.15,-123.88,5.6,1.1,20,3,,10.0,29.819881,1009.9,,TRUE,TRUE,,,,,,,OVC,11000,,,,,,,VFR,,,,,,,,,,,,METAR,3.0
KAST 031255Z AUTO 00000KT 10SM OVC100 06/00 A2983 RMK AO2 SLP102 T00560000,KAST,2023-02-03T12:55:00Z,46.15,-123.88,5.6,0.0,0,0,,10.0,29.828741,1010.2,,TRUE,TRUE,,,,,,,OVC,10000,,,,,,,VFR,,,,,,,,,,,,METAR,3.0
KAST 031155Z AUTO 14005KT 10SM OVC110 07/M01 A2985 RMK AO2 SLP109 T00671006 10072 20039 58006,KAST,2023-02-03T11:55:00Z,46.15,-123.88,6.7,-0.6,140,5,,10.0,29.84941,1010.9,,TRUE,TRUE,,,,,,,OVC,11000,,,,,,,VFR,-0.6,7.2,3.9,,,,,,,,,METAR,3.0
KAST 031055Z AUTO 00000KT 10SM SCT120 04/01 A2987 RMK AO2 SLP114 T00440006,KAST,2023-02-03T10:55:00Z,46.15,-123.88,4.4,0.6,0,0,,10.0,29.870079,1011.4,,TRUE,TRUE,,,,,,,SCT,12000,,,,,,,VFR,,,,,,,,,,,,METAR,3.0
KAST 030955Z AUTO 00000KT 10SM CLR 04/01 A2989 RMK AO2 SLP121 T00440006,KAST,2023-02-03T09:55:00Z,46.15,-123.88,4.4,0.6,0,0,,10.0,29.890747,1012.1,,TRUE,TRUE,,,,,,,CLR,,,,,,,,VFR,,,,,,,,,,,,METAR,3.0
KAST 030855Z AUTO 07005KT 10SM BKN110 06/00 A2987 RMK AO2 SLP115 T00610000 56023,KAST,2023-02-03T08:55:00Z,46.15,-123.88,6.1,0.0,70,5,,10.0,29.870079,1011.5,,TRUE,TRUE,,,,,,,BKN,11000,,,,,,,VFR,-2.3,,,,,,,,,,,METAR,3.0
KAST 030755Z AUTO 07009KT 10SM OVC100 07/00 A2989 RMK AO2 SLP123 T00670000 401331017,KAST,2023-02-03T07:55:00Z,46.15,-123.88,6.7,0.0,70,9,,10.0,29.890747,1012.3,,TRUE,TRUE,,,,,,,OVC,10000,,,,,,,VFR,,,,13.3,-1.7,,,,,,,SPECI,3.0
KAST 030655Z AUTO 08005KT 10SM CLR 07/00 A2992 RMK AO2 SLP130 T00720000,KAST,2023-02-03T06:55:00Z,46.15,-123.88,7.2,0.0,80,5,,10.0,29.920275,1013.0,,TRUE,TRUE,,,,,,,CLR,,,,,,,,VFR,,,,,,,,,,,,METAR,3.0
KAST 030555Z AUTO 08007KT 10SM CLR 06/01 A2994 RMK AO2 SLP138 T00560011 10083 20050 58023,KAST,2023-02-03T05:55:00Z,46.15,-123.88,5.6,1.1,80,7,,10.0,29.940945,1013.8,,TRUE,TRUE,,,,,,,CLR,,,,,,,,VFR,-2.3,8.3,5.0,,,,,,,,,SPECI,3.0
KAST 030455Z AUTO 07006KT 10SM FEW120 06/01 A2997 RMK AO2 SLP148 T00560011,KAST,2023-02-03T04:55:00Z,46.15,-123.88,5.6,1.1,70,6,,10.0,29.970472,1014.8,,TRUE,TRUE,,,,,,,FEW,12000,,,,,,,VFR,,,,,,,,,,,,METAR,3.0
KAST 030355Z AUTO 08008KT 10SM FEW120 07/01 A2999 RMK AO2 SLP154 T00670006,KAST,2023-02-03T03:55:00Z,46.15,-123.88,6.7,0.6,80,8,,10.0,29.991142,1015.4,,TRUE,TRUE,,,,,,,FEW,12000,,,,,,,VFR,,,,,,,,,,,,SPECI,3.0
KAST 030255Z AUTO 08011KT 10SM FEW120 07/01 A3001 RMK AO2 SLP162 T00670006 58021,KAST,2023-02-03T02:55:00Z,46.15,-123.88,6.7,0.6,80,11,,10.0,30.008858,1016.2,,TRUE,TRUE,,,,,,,FEW,12000,,,,,,,VFR,-2.1,,,,,,,,,,,METAR,3.0
KAST 030155Z AUTO 10004KT 10SM BKN110 08/02 A3003 RMK AO2 SLP168 T00780017,KAST,2023-02-03T01:55:00Z,46.15,-123.88,7.8,1.7,100,4,,10.0,30.029528,1016.8,,TRUE,TRUE,,,,,,,BKN,11000,,,,,,,VFR,,,,,,,,,,,,METAR,3.0
KAST 030055Z AUTO 07005KT 10SM CLR 08/02 A3006 RMK AO2 SLP178 T00830022,KAST,2023-02-03T00:55:00Z,46.15,-123.88,8.3,2.2,70,5,,10.0,30.059055,1017.8,,TRUE,TRUE,,,,,,,CLR,,,,,,,,VFR,,,,,,,,,,,,METAR,3.0
KAST 022355Z AUTO 01005KT 10SM CLR 08/02 A3007 RMK AO2 SLP182 T00830022 10133 20033 55007,KAST,2023-02-02T23:55:00Z,46.15,-123.88,8.3,2.2,10,5,,10.0,30.070866,1018.2,,TRUE,TRUE,,,,,,,CLR,,,,,,,,VFR,-0.7,13.3,3.3,,,,,,,,,METAR,3.0
KAST 022255Z AUTO 21011G19KT 10SM CLR 12/02 A3007 RMK AO2 SLP182 T01220017,KAST,2023-02-02T22:55:00Z,46.15,-123.88,12.2,1.7,210,11,19,10.0,30.070866,1018.2,,TRUE,TRUE,,,,,,,CLR,,,,,,,,VFR,,,,,,,,,,,,METAR,3.0
KAST 022155Z AUTO 10SM CLR 12/03 A3008 RMK AO2 SLP186 T01220028,KAST,2023-02-02T21:55:00Z,46.15,-123.88,12.2,2.8,,,,10.0,30.079725,1018.6,,TRUE,TRUE,,,,,,,CLR,,,,,,,,VFR,,,,,,,,,,,,METAR,3.0
KAST 022055Z AUTO 13009KT 10SM CLR 12/02 A3009 RMK AO2 SLP189 T01220022 58013,KAST,2023-02-02T20:55:00Z,46.15,-123.88,12.2,2.2,130,9,,10.0,30.088583,1018.9,,TRUE,TRUE,,,,,,,CLR,,,,,,,,VFR,-1.3,,,,,,,,,,,METAR,3.0
KAST 021955Z AUTO 08007KT 10SM CLR 08/02 A3011 RMK AO2 SLP196 T00780017,KAST,2023-02-02T19:55:00Z,46.15,-123.88,7.8,1.7,80,7,,10.0,30.109253,1019.6,,TRUE,TRUE,,,,,,,CLR,,,,,,,,VFR,,,,,,,,,,,,METAR,3.0
KAST 021855Z AUTO 10007KT 10SM CLR 06/01 A3013 RMK AO2 SLP201 T00560006,KAST,2023-02-02T18:55:00Z,46.15,-123.88,5.6,0.6,100,7,,10.0,30.129921,1020.1,,TRUE,TRUE,,,,,,,CLR,,,,,,,,VFR,,,,,,,,,,,,METAR,3.0
KAST 021755Z AUTO 11006KT 10SM CLR 03/M01 A3013 RMK AO2 SLP202 T00331006 10033 21017 51007,KAST,2023-02-02T17:55:00Z,46.15,-123.88,3.3,-0.6,110,6,,10.0,30.129921,1020.2,,TRUE,TRUE,,,,,,,CLR,,,,,,,,VFR,0.7,3.3,-1.7,,,,,,,,,METAR,3.0
KAST 021655Z AUTO 10004KT 10SM CLR 02/M01 A3013 RMK AO2 SLP202 T00171006,KAST,2023-02-02T16:55:00Z,46.15,-123.88,1.7,-0.6,100,4,,10.0,30.129921,1020.2,,TRUE,TRUE,,,,,,,CLR,,,,,,,,VFR,,,,,,,,,,,,METAR,3.0
KAST 021555Z AUTO 08005KT 10SM CLR M01/M02 A3011 RMK AO2 SLP196 T10061022,KAST,2023-02-02T15:55:00Z,46.15,-123.88,-0.6,-2.2,80,5,,10.0,30.109253,1019.6,,TRUE,TRUE,,,,,,,CLR,,,,,,,,VFR,,,,,,,,,,,,METAR,3.0
KAST 021455Z AUTO 11004KT 10SM CLR M01/M02 A3011 RMK AO2 SLP195 T10061022 58003,KAST,2023-02-02T14:55:00Z,46.15,-123.88,-0.6,-2.2,110,4,,10.0,30.109253,1019.5,,TRUE,TRUE,,,,,,,CLR,,,,,,,,VFR,-0.3,,,,,,,,,,,METAR,3.0
KAST 021355Z AUTO 03003KT 10SM CLR M01/M03 A3011 RMK AO2 SLP196 T10111028,KAST,2023-02-02T13:55:00Z,46.15,-123.88,-1.1,-2.8,30,3,,10.0,30.109253,1019.6,,TRUE,TRUE,,,,,,,CLR,,,,,,,,VFR,,,,,,,,,,,,METAR,3.0
KAST 021255Z AUTO 06003KT 10SM CLR M01/M02 A3012 RMK AO2 SLP197 T10061022,KAST,2023-02-02T12:55:00Z,46.15,-123.88,-0.6,-2.2,60,3,,10.0,30.121063,1019.7,,TRUE,TRUE,,,,,,,CLR,,,,,,,,VFR,,,,,,,,,,,,SPECI,3.0
KAST 021220Z AUTO 00000KT 10SM BKN030 00/M02 A3012 RMK AO2 T00001017,KAST,2023-02-02T12:20:00Z,46.15,-123.88,0.0,-1.7,0,0,,10.0,30.121063,,,TRUE,TRUE,,,,,,,BKN,3000,,,,,,,MVFR,,,,,,,,,,,,SPECI,3.0
KAST 021155Z AUTO 00000KT 10SM OVC028 00/M02 A3012 RMK AO2 SLP198 T00001022 10028 21011 50001,KAST,2023-02-02T11:55:00Z,46.15,-123.88,0.0,-2.2,0,0,,10.0,30.121063,1019.8,,TRUE,TRUE,,,,,,,OVC,2800,,,,,,,MVFR,0.1,2.8,-1.1,,,,,,,,,METAR,3.0
KAST 021132Z AUTO 00000KT 10SM OVC028 00/M02 A3012 RMK AO2 T00001017,KAST,2023-02-02T11:32:00Z,46.15,-123.88,0.0,-1.7,0,0,,10.0,30.121063,,,TRUE,TRUE,,,,,,,OVC,2800,,,,,,,MVFR,,,,,,,,,,,,METAR,3.0
KAST 021055Z AUTO 11003KT 10SM FEW030 M01/M03 A3012 RMK AO2 SLP200 T10111028,KAST,2023-02-02T10:55:00Z,46.15,-123.88,-1.1,-2.8,110,3,,10.0,30.121063,1020.0,,TRUE,TRUE,,,,,,,FEW,3000,,,,,,,VFR,,,,,,,,,,,,METAR,3.0
KAST 020955Z AUTO 00000KT 10SM FEW028 M01/M03 A3012 RMK AO2 SLP199 T10111028,KAST,2023-02-02T09:55:00Z,46.15,-123.88,-1.1,-2.8,0,0,,10.0,30.121063,1019.9,,TRUE,TRUE,,,,,,,FEW,2800,,,,,,,VFR,,,,,,,,,,,,METAR,3.0
KAST 020855Z AUTO VRB05KT 10SM SCT026 01/M03 A3011 RMK AO2 SLP197 T00061028 56004,KAST,2023-02-02T08:55:00Z,46.15,-123.88,0.6,-2.8,0,5,,10.0,30.109253,1019.7,,TRUE,TRUE,,,,,,,SCT,2600,,,,,,,VFR,-0.4,,,,,,,,,,,METAR,3.0
KAST 020852Z AUTO 15004KT 10SM SCT026 01/M03 A3011 RMK AO2,KAST,2023-02-02T08:52:00Z,46.15,-123.88,1.0,-3.0,150,4,,10.0,30.109253,,,TRUE,TRUE,,,,,,,SCT,2600,,,,,,,VFR,,,,,,,,,,,,SPECI,3.0
KAST 020821Z AUTO 12006KT 10SM BKN026 01/M02 A3012 RMK AO2 T00111017,KAST,2023-02-02T08:21:00Z,46.15,-123.88,1.1,-1.7,120,6,,10.0,30.121063,,,TRUE,TRUE,,,,,,,BKN,2600,,,,,,,MVFR,,,,,,,,,,,,SPECI,3.0
KAST 020755Z AUTO 13006KT 10SM FEW026 M01/M02 A3012 RMK AO2 SLP199 T10061022 401001011,KAST,2023-02-02T07:55:00Z,46.15,-123.88,-0.6,-2.2,130,6,,10.0,30.121063,1019.9,,TRUE,TRUE,,,,,,,FEW,2600,,,,,,,VFR,,,,10.0,-1.1,,,,,,,METAR,3.0
KAST 020655Z AUTO 00000KT 10SM FEW025 M01/M03 A3013 RMK AO2 SLP201 T10111028,KAST,2023-02-02T06:55:00Z,46.15,-123.88,-1.1,-2.8,0,0,,10.0,30.129921,1020.1,,TRUE,TRUE,,,,,,,FEW,2500,,,,,,,VFR,,,,,,,,,,,,METAR,3.0
KAST 020555Z AUTO 00000KT 10SM CLR M01/M03 A3011 RMK AO2 SLP196 T10061028 10094 21006 53007,KAST,2023-02-02T05:55:00Z,46.15,-123.88,-0.6,-2.8,0,0,,10.0,30.109253,1019.6,,TRUE,TRUE,,,,,,,CLR,,,,,,,,VFR,0.7,9.4,-0.6,,,,,,,,,METAR,3.0
KAST 020455Z AUTO 00000KT 10SM CLR 01/M02 A3009 RMK AO2 SLP190 T00061022,KAST,2023-02-02T04:55:00Z,46.15,-123.88,0.6,-2.2,0,0,,10.0,30.088583,1019.0,,TRUE,TRUE,,,,,,,CLR,,,,,,,,VFR,,,,,,,,,,,,SPECI,3.0
KAST 020355Z AUTO 00000KT 10SM CLR 02/M01 A3009 RMK AO2 SLP187 T00221011,KAST,2023-02-02T03:55:00Z,46.15,-123.88,2.2,-1.1,0,0,,10.0,30.088583,1018.7,,TRUE,TRUE,,,,,,,CLR,,,,,,,,VFR,,,,,,,,,,,,METAR,3.0
KAST 020255Z AUTO 00000KT 10SM CLR 03/M01 A3009 RMK AO2 SLP188 T00281011 56005,KAST,2023-02-02T02:55:00Z,46.15,-123.88,2.8,-1.1,0,0,,10.0,30.088583,1018.8,,TRUE,TRUE,,,,,,,CLR,,,,,,,,VFR,-0.5,,,,,,,,,,,METAR,3.0
KAST 020155Z AUTO 00000KT 10SM CLR 06/M02 A3009 RMK AO2 SLP189 T00561022,KAST,2023-02-02T01:55:00Z,46.15,-123.88,5.6,-2.2,0,0,,10.0,30.088583,1018.9,,TRUE,TRUE,,,,,,,CLR,,,,,,,,VFR,,,,,,,,,,,,SPECI,3.0
KAST 020055Z AUTO 11003KT 10SM CLR 08/M02 A3009 RMK AO2 SLP189 T00831022,KAST,2023-02-02T00:55:00Z,46.15,-123.88,8.3,-2.2,110,3,,10.0,30.088583,1018.9,,TRUE,TRUE,,,,,,,CLR,,,,,,,,VFR,,,,,,,,,,,,METAR,3.0
KAST 012355Z AUTO 06004KT 10SM CLR 09/M01 A3010 RMK AO2 SLP193 T00891006 10100 20028 55008,KAST,2023-02-01T23:55:00Z,46.15,-123.88,8.9,-0.6,60,4,,10.0,30.100393,1019.3,,TRUE,TRUE,,,,,,,CLR,,,,,,,,VFR,-0.8,10.0,2.8,,,,,,,,,METAR,3.0
KAST 012255Z AUTO 04004KT 10SM CLR 10/00 A3010 RMK AO2 SLP192 T01000000,KAST,2023-02-01T22:55:00Z,46.15,-123.88,10.0,0.0,40,4,,10.0,30.100393,1019.2,,TRUE,TRUE,,,,,,,CLR,,,,,,,,VFR,,,,,,,,,,,,METAR,3.0
KAST 012155Z AUTO 04006KT 10SM CLR 09/M01 A3010 RMK AO2 SLP192 T00891006,KAST,2023-02-01T21:55:00Z,46.15,-123.88,8.9,-0.6,40,6,,10.0,30.100393,1019.2,,TRUE,TRUE,,,,,,,CLR,,,,,,,,VFR,,,,,,,,,,,,METAR,3.0
KAST 012055Z AUTO 01004KT 10SM CLR 07/M01 A3013 RMK AO2 SLP201 T00721011 58005,KAST,2023-02-01T20:55:00Z,46.15,-123.88,7.2,-1.1,10,4,,10.0,30.129921,1020.1,,TRUE,TRUE,,,,,,,CLR,,,,,,,,VFR,-0.5,,,,,,,,,,,METAR,3.0
KAST 011955Z AUTO 36005KT 10SM CLR 06/M01 A3014 RMK AO2 SLP206 T00611006,KAST,2023-02-01T19:55:00Z,46.15,-123.88,6.1,-0.6,360,5,,10.0,30.138779,1020.6,,TRUE,TRUE,,,,,,,CLR,,,,,,,,VFR,,,,,,,,,,,,METAR,3.0
KAST 011855Z AUTO 06003KT 10SM CLR 05/M01 A3015 RMK AO2 SLP208 T00501006,KAST,2023-02-01T18:55:00Z,46.15,-123.88,5.0,-0.6,60,3,,10.0,30.15059,1020.8,,TRUE,TRUE,,,,,,,CLR,,,,,,,,VFR,,,,,,,,,,,,METAR,3.0
KAST 011755Z AUTO 09003KT 10SM CLR 03/M02 A3014 RMK AO2 SLP207 T00281017 10028 20006 51002,KAST,2023-02-01T17:55:00Z,46.15,-123.88,2.8,-1.7,90,3,,10.0,30.138779,1020.7,,TRUE,TRUE,,,,,,,CLR,,,,,,,,VFR,0.2,2.8,0.6,,,,,,,,,METAR,3.0
KAST 011655Z AUTO 11003KT 10SM CLR 01/M01 A3014 RMK AO2 SLP206 T00111011,KAST,2023-02-01T16:55:00Z,46.15,-123.88,1.1,-1.1,110,3,,10.0,30.138779,1020.6,,TRUE,TRUE,,,,,,,CLR,,,,,,,,VFR,,,,,,,,,,,,METAR,3.0
KAST 011555Z AUTO 11003KT 10SM CLR 01/M02 A3014 RMK AO2 SLP206 T00061017,KAST,2023-02-01T15:55:00Z,46.15,-123.88,0.6,-1.7,110,3,,10.0,30.138779,1020.6,,TRUE,TRUE,,,,,,,CLR,,,,,,,,VFR,,,,,,,,,,,,METAR,3.0
KAST 011543Z AUTO 11004KT 10SM SCT029 01/M02 A3013 RMK AO2 T00061017,KAST,2023-02-01T15:43:00Z,46.15,-123.88,0.6,-1.7,110,4,,10.0,30.129921,,,TRUE,TRUE,,,,,,,SCT,2900,,,,,,,VFR,,,,,,,,,,,,SPECI,3.0
KAST 011518Z AUTO 11005KT 10SM OVC029 01/M02 A3013 RMK AO2 T00061017,KAST,2023-02-01T15:18:00Z,46.15,-123.88,0.6,-1.7,110,5,,10.0,30.129921,,,TRUE,TRUE,,,,,,,OVC,2900,,,,,,,MVFR,,,,,,,,,,,,METAR,3.0
KAST 011455Z AUTO 11004KT 10SM OVC031 01/M02 A3014 RMK AO2 SLP204 T00111017 56006,KAST,2023-02-01T14:55:00Z,46.15,-123.88,1.1,-1.7,110,4,,10.0,30.138779,1020.4,,TRUE,TRUE,,,,,,,OVC,3100,,,,,,,VFR,-0.6,,,,,,,,,,,METAR,3.0
KAST 011355Z AUTO 07004KT 10SM OVC031 01/M02 A3014 RMK AO2 SLP205 T00111017,KAST,2023-02-01T13:55:00Z,46.15,-123.88,1.1,-1.7,70,4,,10.0,30.138779,1020.5,,TRUE,TRUE,,,,,,,OVC,3100,,,,,,,VFR,,,,,,,,,,,,METAR,3.0
KAST 011255Z AUTO 00000KT 10SM OVC031 01/M02 A3015 RMK AO2 SLP208 T00061017,KAST,2023-02-01T12:55:00Z,46.15,-123.88,0.6,-1.7,0,0,,10.0,30.15059,1020.8,,TRUE,TRUE,,,,,,,OVC,3100,,,,,,,VFR,,,,,,,,,,,,METAR,3.0
KAST 011155Z AUTO 06004KT 10SM OVC031 01/M02 A3015 RMK AO2 SLP210 T00061017 10011 21006 58002,KAST,2023-02-01T11:55:00Z,46.15,-123.88,0.6,-1.7,60,4,,10.0,30.15059,1021.0,,TRUE,TRUE,,,,,,,OVC,3100,,,,,,,VFR,-0.2,1.1,-0.6,,,,,,,,,METAR,3.0
KAST 011055Z AUTO 11004KT 10SM OVC031 01/M02 A3016 RMK AO2 SLP212 T00111017,KAST,2023-02-01T10:55:00Z,46.15,-123.88,1.1,-1.7,110,4,,10.0,30.159449,1021.2,,TRUE,TRUE,,,,,,,OVC,3100,,,,,,,VFR,,,,,,,,,,,,METAR,3.0
KAST 010955Z AUTO 12004KT 10SM OVC031 01/M02 A3016 RMK AO2 SLP212 T00061022,KAST,2023-02-01T09:55:00Z,46.15,-123.88,0.6,-2.2,120,4,,10.0,30.159449,1021.2,,TRUE,TRUE,,,,,,,OVC,3100,,,,,,,VFR,,,,,,,,,,,,METAR,3.0
KAST 010855Z AUTO 00000KT 10SM OVC031 00/M02 A3016 RMK AO2 SLP212 T00001022 58001,KAST,2023-02-01T08:55:00Z,46.15,-123.88,0.0,-2.2,0,0,,10.0,30.159449,1021.2,,TRUE,TRUE,,,,,,,OVC,3100,,,,,,,VFR,-0.1,,,,,,,,,,,METAR,3.0
KAST 010818Z AUTO 12003KT 10SM OVC031 M01/M02 A3017 RMK AO2 T10061022,KAST,2023-02-01T08:18:00Z,46.15,-123.88,-0.6,-2.2,120,3,,10.0,30.171259,,,TRUE,TRUE,,,,,,,OVC,3100,,,,,,,VFR,,,,,,,,,,,,SPECI,3.0
KAST 010755Z AUTO 13004KT 10SM BKN029 M01/M02 A3017 RMK AO2 SLP216 T10061022 400671022,KAST,2023-02-01T07:55:00Z,46.15,-123.88,-0.6,-2.2,130,4,,10.0,30.171259,1021.6,,TRUE,TRUE,,,,,,,BKN,2900,,,,,,,MVFR,,,,6.7,-2.2,,,,,,,METAR,3.0
KAST 010745Z AUTO 14003KT 10SM BKN029 M01/M02 A3017 RMK AO2 T10061022,KAST,2023-02-01T07:45:00Z,46.15,-123.88,-0.6,-2.2,140,3,,10.0,30.171259,,,TRUE,TRUE,,,,,,,BKN,2900,,,,,,,MVFR,,,,,,,,,,,,SPECI,3.0
KAST 010655Z AUTO 00000KT 10SM CLR 00/M02 A3016 RMK AO2 SLP214 T00001022,KAST,2023-02-01T06:55:00Z,46.15,-123.88,0.0,-2.2,0,0,,10.0,30.159449,1021.4,,TRUE,TRUE,,,,,,,CLR,,,,,,,,VFR,,,,,,,,,,,,METAR,3.0
KAST 010555Z AUTO 16003KT 10SM CLR M01/M03 A3016 RMK AO2 SLP214 T10061033 10061 21006 56002,KAST,2023-02-01T05:55:00Z,46.15,-123.88,-0.6,-3.3,160,3,,10.0,30.159449,1021.4,,TRUE,TRUE,,,,,,,CLR,,,,,,,,VFR,-0.2,6.1,-0.6,,,,,,,,,METAR,3.0
KAST 010455Z AUTO 00000KT 10SM CLR 00/M03 A3017 RMK AO2 SLP214 T00001028,KAST,2023-02-01T04:55:00Z,46.15,-123.88,0.0,-2.8,0,0,,10.0,30.171259,1021.4,,TRUE,TRUE,,,,,,,CLR,,,,,,,,VFR,,,,,,,,,,,,METAR,3.0
KAST 010355Z AUTO 14004KT 10SM CLR 01/M03 A3017 RMK AO2 SLP214 T00111028,KAST,2023-02-01T03:55:00Z,46.15,-123.88,1.1,-2.8,140,4,,10.0,30.171259,1021.4,,TRUE,TRUE,,,,,,,CLR,,,,,,,,VFR,,,,,,,,,,,,METAR,3.0
KAST 010255Z AUTO 00000KT 10SM CLR 03/M02 A3017 RMK AO2 SLP216 T00281022 55005,KAST,2023-02-01T02:55:00Z,46.15,-123.88,2.8,-2.2,0,0,,10.0,30.171259,1021.6,,TRUE,TRUE,,,,,,,CLR,,,,,,,,VFR,-0.5,,,,,,,,,,,METAR,3.0
KAST 010155Z AUTO 12004KT 10SM CLR 03/M02 A3016 RMK AO2 SLP212 T00331022,KAST,2023-02-01T01:55:00Z,46.15,-123.88,3.3,-2.2,120,4,,10.0,30.159449,1021.2,,TRUE,TRUE,,,,,,,CLR,,,,,,,,VFR,,,,,,,,,,,,METAR,3.0
KAST 010055Z AUTO 01003KT 10SM CLR 05/M02 A3019 RMK AO2 SLP221 T00501017,KAST,2023-02-01T00:55:00Z,46.15,-123.88,5.0,-1.7,10,3,,10.0,30.188976,1022.1,,TRUE,TRUE,,,,,,,CLR,,,,,,,,VFR,,,,,,,,,,,,METAR,3.0
KAST 312355Z AUTO 00000KT 10SM CLR 06/M04 A3019 RMK AO2 SLP221 T00611039 10067 20017 56013,KAST,2023-01-31T23:55:00Z,46.15,-123.88,6.1,-3.9,0,0,,10.0,30.188976,1022.1,,TRUE,TRUE,,,,,,,CLR,,,,,,,,VFR,-1.3,6.7,1.7,,,,,,,,,METAR,3.0
KAST 312255Z AUTO 00000KT 10SM CLR 07/M06 A3020 RMK AO2 SLP226 T00671056,KAST,2023-01-31T22:55:00Z,46.15,-123.88,6.7,-5.6,0,0,,10.0,30.200787,1022.6,,TRUE,TRUE,,,,,,,CLR,,,,,,,,VFR,,,,,,,,,,,,METAR,3.0
KAST 312155Z AUTO 06003KT 10SM CLR 06/M04 A3020 RMK AO2 SLP227 T00611044,KAST,2023-01-31T21:55:00Z,46.15,-123.88,6.1,-4.4,60,3,,10.0,30.200787,1022.7,,TRUE,TRUE,,,,,,,CLR,,,,,,,,VFR,,,,,,,,,,,,METAR,3.0
KAST 312055Z AUTO 10005KT 10SM CLR 05/M04 A3022 RMK AO2 SLP234 T00501044 56010,KAST,2023-01-31T20:55:00Z,46.15,-123.88,5.0,-4.4,100,5,,10.0,30.221457,1023.4,,TRUE,TRUE,,,,,,,CLR,,,,,,,,VFR,-1.0,,,,,,,,,,,SPECI,3.0
KAST 311955Z AUTO 04009KT 10SM CLR 04/M03 A3024 RMK AO2 SLP241 T00441033,KAST,2023-01-31T19:55:00Z,46.15,-123.88,4.4,-3.3,40,9,,10.0,30.239174,1024.1,,TRUE,TRUE,,,,,,,CLR,,,,,,,,VFR,,,,,,,,,,,,METAR,3.0
KAST 311855Z AUTO 11005KT 10SM CLR 03/M03 A3023 RMK AO2 SLP236 T00331033,KAST,2023-01-31T18:55:00Z,46.15,-123.88,3.3,-3.3,110,5,,10.0,30.230314,1023.6,,TRUE,TRUE,,,,,,,CLR,,,,,,,,VFR,,,,,,,,,,,,METAR,3.0
KAST 311755Z AUTO 11003KT 10SM CLR 02/M04 A3026 RMK AO2 SLP245 T00171039 10017 21011 58005,KAST,2023-01-31T17:55:00Z,46.15,-123.88,1.7,-3.9,110,3,,10.0,30.259842,1024.5,,TRUE,TRUE,,,,,,,CLR,,,,,,,,VFR,-0.5,1.7,-1.1,,,,,,,,,METAR,3.0
KAST 311655Z AUTO 00000KT 10SM CLR 01/M04 A3027 RMK AO2 SLP249 T00061039,KAST,2023-01-31T16:55:00Z,46.15,-123.88,0.6,-3.9,0,0,,10.0,30.268702,1024.9,,TRUE,TRUE,,,,,,,CLR,,,,,,,,VFR,,,,,,,,,,,,SPECI,3.0
KAST 311555Z AUTO 11004KT 10SM CLR 00/M04 A3026 RMK AO2 SLP247 T00001039,KAST,2023-01-31T15:55:00Z,46.15,-123.88,0.0,-3.9,110,4,,10.0,30.259842,1024.7,,TRUE,TRUE,,,,,,,CLR,,,,,,,,VFR,,,,,,,,,,,,METAR,3.0
KAST 311455Z AUTO 08005KT 10SM CLR M01/M04 A3027 RMK AO2 SLP249 T10061044 58007,KAST,2023-01-31T14:55:00Z,46.15,-123.88,-0.6,-4.4,80,5,,10.0,30.268702,1024.9,,TRUE,TRUE,,,,,,,CLR,,,,,,,,VFR,-0.7,,,,,,,,,,,METAR,3.0
KAST 311355Z AUTO 00000KT 10SM CLR M01/M03 A3028 RMK AO2 SLP254 T10061033,KAST,2023-01-31T13:55:00Z,46.15,-123.88,-0.6,-3.3,0,0,,10.0,30.280512,1025.4,,TRUE,TRUE,,,,,,,CLR,,,,,,,,VFR,,,,,,,,,,,,METAR,3.0
KAST 311255Z AUTO 00000KT 10SM CLR M01/M03 A3029 RMK AO2 SLP256 T10111033,KAST,2023-01-31T12:55:00Z,46.15,-123.88,-1.1,-3.3,0,0,,10.0,30.28937,1025.6,,TRUE,TRUE,,,,,,,CLR,,,,,,,,VFR,,,,,,,,,,,,SPECI,3.0
KAST 311155Z AUTO 13003KT 10SM CLR M01/M04 A3029 RMK AO2 SLP256 T10111039 10000 21022 58007,KAST,2023-01-31T11:55:00Z,46.15,-123.88,-1.1,-3.9,130,3,,10.0,30.28937,1025.6,,TRUE,TRUE,,,,,,,CLR,,,,,,,,VFR,-0.7,0.0,-2.2,,,,,,,,,METAR,3.0
KAST 311055Z AUTO 13003KT 10SM CLR M02/M04 A3030 RMK AO2 SLP260 T10221039,KAST,2023-01-31T10:55:00Z,46.15,-123.88,-2.2,-3.9,130,3,,10.0,30.301182,1026.0,,TRUE,TRUE,,,,,,,CLR,,,,,,,,VFR,,,,,,,,,,,,METAR,3.0
KAST 310955Z AUTO 13003KT 10SM CLR M02/M04 A3031 RMK AO2 SLP263 T10221044,KAST,2023-01-31T09:55:00Z,46.15,-123.88,-2.2,-4.4,130,3,,10.0,30.31004,1026.3,,TRUE,TRUE,,,,,,,CLR,,,,,,,,VFR,,,,,,,,,,,,METAR,3.0
KAST 310855Z AUTO 16003KT 10SM CLR M02/M04 A3031 RMK AO2 SLP264 T10171044 56010,KAST,2023-01-31T08:55:00Z,46.15,-123.88,-1.7,-4.4,160,3,,10.0,30.31004,1026.4,,TRUE,TRUE,,,,,,,CLR,,,,,,,,VFR,-1.0,,,,,,,,,,,METAR,3.0
KAST 310755Z AUTO 00000KT 10SM CLR M01/M04 A3032 RMK AO2 SLP266 T10111039 400561044,KAST,2023-01-31T07:55:00Z,46.15,-123.88,-1.1,-3.9,0,0,,10.0,30.318897,1026.6,,TRUE,TRUE,,,,,,,CLR,,,,,,,,VFR,,,,5.6,-4.4,,,,,,,METAR,3.0
KAST 310655Z AUTO 00000KT 10SM CLR M01/M04 A3032 RMK AO2 SLP268 T10061039,KAST,2023-01-31T06:55:00Z,46.15,-123.88,-0.6,-3.9,0,0,,10.0,30.318897,1026.8,,TRUE,TRUE,,,,,,,CLR,,,,,,,,VFR,,,,,,,,,,,,METAR,3.0
KAST 310555Z AUTO 00000KT 10SM CLR M01/M04 A3034 RMK AO2 SLP274 T10061039 10050 21006 51007,KAST,2023-01-31T05:55:00Z,46.15,-123.88,-0.6,-3.9,0,0,,10.0,30.339567,1027.4,,TRUE,TRUE,,,,,,,CLR,,,,,,,,VFR,0.7,5.0,-0.6,,,,,,,,,METAR,3.0
KAST 310455Z AUTO 00000KT 10SM CLR M01/M05 A3034 RMK AO2 SLP273 T10061050,KAST,2023-01-31T04:55:00Z,46.15,-123.88,-0.6,-5.0,0,0,,10.0,30.339567,1027.3,,TRUE,TRUE,,,,,,,CLR,,,,,,,,VFR,,,,,,,,,,,,METAR,3.0
KAST 310355Z AUTO 13003KT 10SM CLR 00/M05 A3033 RMK AO2 SLP270 T00001050,KAST,2023-01-31T03:55:00Z,46.15,-123.88,0.0,-5.0,130,3,,10.0,30.33071,1027.0,,TRUE,TRUE,,,,,,,CLR,,,,,,,,VFR,,,,,,,,,,,,METAR,3.0
KAST 310255Z AUTO 00000KT 10SM CLR 01/M06 A3032 RMK AO2 SLP267 T00061056 57016,KAST,2023-01-31T02:55:00Z,46.15,-123.88,0.6,-5.6,0,0,,10.0,30.318897,1026.7,,TRUE,TRUE,,,,,,,CLR,,,,,,,,VFR,-1.6,,,,,,,,,,,METAR,3.0
KAST 310155Z AUTO 00000KT 10SM CLR 02/M06 A3033 RMK AO2 SLP271 T00171061,KAST,2023-01-31T01:55:00Z,46.15,-123.88,1.7,-6.1,0,0,,10.0,30.33071,1027.1,,TRUE,TRUE,,,,,,,CLR,,,,,,,,VFR,,,,,,,,,,,,METAR,3.0
KAST 310055Z AUTO 01005KT 10SM CLR 04/M08 A3036 RMK AO2 SLP279 T00441078,KAST,2023-01-31T00:55:00Z,46.15,-123.88,4.4,-7.8,10,5,,10.0,30.360237,1027.9,,TRUE,TRUE,,,,,,,CLR,,,,,,,,VFR,,,,,,,,,,,,METAR,3.0
KAST 302355Z AUTO 03007KT 10SM CLR 05/M09 A3037 RMK AO2 SLP283 T00501089 10056 20000 56017,KAST,2023-01-30T23:55:00Z,46.15,-123.88,5.0,-8.9,30,7,,10.0,30.369095,1028.3,,TRUE,TRUE,,,,,,,CLR,,,,,,,,VFR,-1.7,5.6,0.0,,,,,,,,,METAR,3.0
KAST 302255Z AUTO 03007KT 10SM CLR 06/M08 A3039 RMK AO2 SLP292 T00561078,KAST,2023-01-30T22:55:00Z,46.15,-123.88,5.6,-7.8,30,7,,10.0,30.389763,1029.2,,TRUE,TRUE,,,,,,,CLR,,,,,,,,VFR,,,,,,,,,,,,METAR,3.0
KAST 302155Z AUTO 04007KT 10SM CLR 06/M08 A3038 RMK AO2 SLP288 T00561083,KAST,2023-01-30T21:55:00Z,46.15,-123.88,5.6,-8.3,40,7,,10.0,30.380905,1028.8,,TRUE,TRUE,,,,,,,CLR,,,,,,,,VFR,,,,,,,,,,,,METAR,3.0
KAST 302055Z AUTO 02007KT 10SM CLR 04/M07 A3042 RMK AO2 SLP300 T00441072 58007,KAST,2023-01-30T20:55:00Z,46.15,-123.88,4.4,-7.2,20,7,,10.0,30.41929,1030.0,,TRUE,TRUE,,,,,,,CLR,,,,,,,,VFR,-0.7,,,,,,,,,,,METAR,3.0
KAST 301955Z AUTO 04007KT 10SM CLR 04/M06 A3043 RMK AO2 SLP304 T00391061,KAST,2023-01-30T19:55:00Z,46.15,-123.88,3.9,-6.1,40,7,,10.0,30.431103,1030.4,,TRUE,TRUE,,,,,,,CLR,,,,,,,,VFR,,,,,,,,,,,,METAR,3.0
KAST 301855Z AUTO 06006KT 10SM CLR 02/M06 A3043 RMK AO2 SLP304 T00221056,KAST,2023-01-30T18:55:00Z,46.15,-123.88,2.2,-5.6,60,6,,10.0,30.431103,1030.4,,TRUE,TRUE,,,,,,,CLR,,,,,,,,VFR,,,,,,,,,,,,METAR,3.0
KAST 301755Z AUTO 13004KT 10SM CLR 00/M06 A3044 RMK AO2 SLP307 T00001056 10000 21044 50002,KAST,2023-01-30T17:55:00Z,46.15,-123.88,0.0,-5.6,130,4,,10.0,30.43996,1030.7,,TRUE,TRUE,,,,,,,CLR,,,,,,,,VFR,0.2,0.0,-4.4,,,,,,,,,METAR,3.0
KAST 301655Z AUTO 16003KT 10SM CLR M02/M06 A3044 RMK AO2 SLP308 T10221061,KAST,2023-01-30T16:55:00Z,46.15,-123.88,-2.2,-6.1,160,3,,10.0,30.43996,1030.8,,TRUE,TRUE,,,,,,,CLR,,,,,,,,VFR,,,,,,,,,,,,SPECI,3.0
KAST 301555Z AUTO 14003KT 10SM CLR M03/M08 A3044 RMK AO2 SLP306 T10331078,KAST,2023-01-30T15:55:00Z,46.15,-123.88,-3.3,-7.8,140,3,,10.0,30.43996,1030.6,,TRUE,TRUE,,,,,,,CLR,,,,,,,,VFR,,,,,,,,,,,,METAR,3.0
KAST 301455Z AUTO 10004KT 10SM CLR M04/M08 A3044 RMK AO2 SLP306 T10391078 58009,KAST,2023-01-30T14:55:00Z,46.15,-123.88,-3.9,-7.8,100,4,,10.0,30.43996,1030.6,,TRUE,TRUE,,,,,,,CLR,,,,,,,,VFR,-0.9,,,,,,,,,,,SPECI,3.0
KAST 301355Z AUTO 12008KT 10SM CLR M03/M08 A3044 RMK AO2 SLP306 T10331078,KAST,2023-01-30T13:55:00Z,46.15,-123.88,-3.3,-7.8,120,8,,10.0,30.43996,1030.6,,TRUE,TRUE,,,,,,,CLR,,,,,,,,VFR,,,,,,,,,,,,METAR,3.0
