No errors
No warnings
128 ms
data source=metars
513 results
raw_text,station_id,observation_time,latitude,longitude,temp_c,dewpoint_c,wind_dir_degrees,wind_speed_kt,wind_gust_kt,visibility_statute_mi,altim_in_hg,sea_level_pressure_mb,corrected,auto,auto_station,maintenance_indicator_on,no_signal,lightning_sensor_off,freezing_rain_sensor_off,present_weather_sensor_off,wx_string,sky_cover,cloud_base_ft_agl,sky_cover,cloud_base_ft_agl,sky_cover,cloud_base_ft_agl,sky_cover,cloud_base_ft_agl,flight_category,three_hr_pressure_tendency_mb,maxT_c,minT_c,maxT24hr_c,minT24hr_c,precip_in,pcp3hr_in,pcp6hr_in,pcp24hr_in,snow_in,vert_vis_ft,metar_type,elevation_m
KEUG 141754Z 25003KT 10SM FEW003 SCT049 BKN065 02/01 A3009 RMK AO2 SLP192 60002 T00220011 10022 20006 53026,KEUG,2023-02-14T17:54:00Z,44.13,-123.22,2.2,1.1,250,3,,10.0,30.088583,1019.2,,,TRUE,,,,,,,FEW,300,SCT,4900,BKN,6500,,,VFR,2.6,2.2,0.6,,,,,0.02,,,,METAR,109.0
KEUG 141654Z 13003KT 10SM BKN040 BKN060 OVC070 01/00 A3006 RMK AO2 SNB06E48 SLP181 P0000 T00110000,KEUG,2023-02-14T16:54:00Z,44.13,-123.22,1.1,0.0,130,3,,10.0,30.059055,1018.1,,,TRUE,,,,,,,BKN,4000,BKN,6000,OVC,7000,,,VFR,,,,,,0.005,,,,,,METAR,109.0
KEUG 141648Z 08003KT 9SM BKN035 BKN060 OVC070 01/00 A3005 RMK AO2 SNB06E48 P0000,KEUG,2023-02-14T16:48:00Z,44.13,-123.22,1.0,0.0,80,3,,9.0,30.050198,,,,TRUE,,,,,,,BKN,3500,BKN,6000,OVC,7000,,,VFR,,,,,,0.005,,,,,,SPECI,109.0
KEUG 141621Z 23005KT 10SM -SN BKN032 BKN060 OVC070 01/00 A3004 RMK AO2 SNB06 P0000 T00110000,KEUG,2023-02-14T16:21:00Z,44.13,-123.22,1.1,0.0,230,5,,10.0,30.041338,,,,TRUE,,,,,,-SN,BKN,3200,BKN,6000,OVC,7000,,,VFR,,,,,,0.005,,,,,,METAR,109.0
KEUG 141554Z 22005KT 10SM BKN042 BKN065 BKN110 01/00 A3003 RMK AO2 UPB10E11SNB12E38 SLP172 P0000 T00110000,KEUG,2023-02-14T15:54:00Z,44.13,-123.22,1.1,0.0,220,5,,10.0,30.029528,1017.2,,,TRUE,,,,,,,BKN,4200,BKN,6500,BKN,11000,,,VFR,,,,,,0.005,,,,,,METAR,109.0
KEUG 141538Z 21005KT 9SM SCT038 BKN070 BKN110 01/00 A3002 RMK AO2 UPB10E11SNB12E38 P0000 T00110000,KEUG,2023-02-14T15:38:00Z,44.13,-123.22,1.1,0.0,210,5,,9.0,30.02067,,,,TRUE,,,,,,,SCT,3800,BKN,7000,BKN,11000,,,VFR,,,,,,0.005,,,,,,SPECI,109.0
KEUG 141512Z 22005KT 10SM -SN BKN034 OVC070 01/00 A3002 RMK AO2 UPB10E11SNB12 P0000 T00110000,KEUG,2023-02-14T15:12:00Z,44.13,-123.22,1.1,0.0,220,5,,10.0,30.02067,,,,TRUE,,,,,,-SN,BKN,3400,OVC,7000,,,,,VFR,,,,,,0.005,,,,,,SPECI,109.0
KEUG 141454Z 14004KT 10SM BKN038 BKN049 BKN055 01/M01 A3001 RMK AO2 SLP165 60002 T00061006 53007,KEUG,2023-02-14T14:54:00Z,44.13,-123.22,0.6,-0.6,140,4,,10.0,30.008858,1016.5,,,TRUE,,,,,,,BKN,3800,BKN,4900,BKN,5500,,,VFR,0.7,,,,,,0.02,,,,,METAR,109.0
KEUG 141354Z 18005KT 10SM FEW011 SCT020 01/00 A3000 RMK AO2 UPB04E06B33E37SNE04B19E33 SLP163 P0001 T00110000,KEUG,2023-02-14T13:54:00Z,44.13,-123.22,1.1,0.0,180,5,,10.0,30.0,1016.3,,,TRUE,,,,,,,FEW,1100,SCT,2000,,,,,VFR,,,,,,0.01,,,,,,METAR,109.0
KEUG 141254Z AUTO 21006KT 9SM -SN OVC022 01/00 A2999 RMK AO2 RAB32E39UPB39E52SNE32B52 SLP157 P0001 T00110000,KEUG,2023-02-14T12:54:00Z,44.13,-123.22,1.1,0.0,210,6,,9.0,29.991142,1015.7,,TRUE,TRUE,,,,,,-SN,OVC,2200,,,,,,,MVFR,,,,,,0.01,,,,,,METAR,109.0
KEUG 141203Z AUTO 20006KT 8SM -SN FEW008 OVC017 01/00 A2999 RMK AO2 P0000 T00060000,KEUG,2023-02-14T12:03:00Z,44.13,-123.22,0.6,0.0,200,6,,8.0,29.991142,,,TRUE,TRUE,,,,,,-SN,FEW,800,OVC,1700,,,,,MVFR,,,,,,0.005,,,,,,SPECI,109.0
KEUG 141154Z AUTO 18005KT 3SM -SN BR OVC015 01/00 A2999 RMK AO2 SLP157 P0014 60026 70035 I6000 T00060000 10028 20006 56034,KEUG,2023-02-14T11:54:00Z,44.13,-123.22,0.6,0.0,180,5,,3.0,29.991142,1015.7,,TRUE,TRUE,,,,,,-SN BR,OVC,1500,,,,,,,MVFR,-3.4,2.8,0.6,,,0.14,,0.26,0.35,,,METAR,109.0
KEUG 141149Z AUTO 18006KT 2SM -SN BR OVC011 01/00 A2999 RMK AO2 P0013,KEUG,2023-02-14T11:49:00Z,44.13,-123.22,1.0,0.0,180,6,,2.0,29.991142,,,TRUE,TRUE,,,,,,-SN BR,OVC,1100,,,,,,,IFR,,,,,,0.13,,,,,,SPECI,109.0
KEUG 141145Z AUTO 18006KT 1 3/4SM -SN BR OVC009 01/00 A2999 RMK AO2 P0013 T00060000,KEUG,2023-02-14T11:45:00Z,44.13,-123.22,0.6,0.0,180,6,,1.75,29.991142,,,TRUE,TRUE,,,,,,-SN BR,OVC,900,,,,,,,IFR,,,,,,0.13,,,,,,SPECI,109.0
KEUG 141122Z AUTO 17007KT 1 1/4SM R16R/5500VP6000FT -SN BR OVC009 01/00 A2999 RMK AO2 P0008 T00060000,KEUG,2023-02-14T11:22:00Z,44.13,-123.22,0.6,0.0,170,7,,1.25,29.991142,,,TRUE,TRUE,,,,,,-SN BR,OVC,900,,,,,,,IFR,,,,,,0.08,,,,,,SPECI,109.0
KEUG 141101Z AUTO 18010KT 1 1/2SM R16R/5000VP6000FT -SN BR OVC011 01/00 A3001 RMK AO2 P0003 T00060000,KEUG,2023-02-14T11:01:00Z,44.13,-123.22,0.6,0.0,180,10,,1.5,30.008858,,,TRUE,TRUE,,,,,,-SN BR,OVC,1100,,,,,,,IFR,,,,,,0.03,,,,,,METAR,109.0
KEUG 141054Z AUTO 18009KT 2SM R16R/5000VP6000FT -SN BR OVC011 01/00 A3001 RMK AO2 SLP164 P0009 T00060000,KEUG,2023-02-14T10:54:00Z,44.13,-123.22,0.6,0.0,180,9,,2.0,30.008858,1016.4,,TRUE,TRUE,,,,,,-SN BR,OVC,1100,,,,,,,IFR,,,,,,0.09,,,,,,METAR,109.0
KEUG 141042Z AUTO 18008KT 2 1/2SM -SN BR OVC011 01/00 A3002 RMK AO2 P0005 T00060000,KEUG,2023-02-14T10:42:00Z,44.13,-123.22,0.6,0.0,180,8,,2.5,30.02067,,,TRUE,TRUE,,,,,,-SN BR,OVC,1100,,,,,,,IFR,,,,,,0.05,,,,,,SPECI,109.0
KEUG 141034Z AUTO 18008KT 1 3/4SM R16R/5000VP6000FT -SN BR OVC011 01/00 A3003 RMK AO2 P0004 T00060000,KEUG,2023-02-14T10:34:00Z,44.13,-123.22,0.6,0.0,180,8,,1.75,30.029528,,,TRUE,TRUE,,,,,,-SN BR,OVC,1100,,,,,,,IFR,,,,,,0.04,,,,,,METAR,109.0
KEUG 141021Z AUTO 18010KT 2SM -SN BR BKN013 BKN020 OVC034 01/00 A3004 RMK AO2 VIS 1 1/2V4 P0001 T00110000,KEUG,2023-02-14T10:21:00Z,44.13,-123.22,1.1,0.0,180,10,,2.0,30.041338,,,TRUE,TRUE,,,,,,-SN BR,BKN,1300,BKN,2000,OVC,3400,,,IFR,,,,,,0.01,,,,,,METAR,109.0
KEUG 141002Z AUTO 17007KT 6SM -SN BR BKN026 OVC034 01/00 A3005 RMK AO2 P0000 T00110000,KEUG,2023-02-14T10:02:00Z,44.13,-123.22,1.1,0.0,170,7,,6.0,30.050198,,,TRUE,TRUE,,,,,,-SN BR,BKN,2600,OVC,3400,,,,,MVFR,,,,,,0.005,,,,,,METAR,109.0
KEUG 140954Z AUTO 15006KT 8SM -SN FEW023 BKN030 OVC040 01/00 A3005 RMK AO2 SNE13B40 SLP178 P0002 I1000 T00110000,KEUG,2023-02-14T09:54:00Z,44.13,-123.22,1.1,0.0,150,6,,8.0,30.050198,1017.8,,TRUE,TRUE,,,,,,-SN,FEW,2300,BKN,3000,OVC,4000,,,MVFR,,,,,,0.02,,,,,,METAR,109.0
KEUG 140944Z AUTO 14006KT 5SM -SN BR FEW012 BKN021 OVC120 01/00 A3005 RMK AO2 SNE13B40 P0001 I1000 T00110000,KEUG,2023-02-14T09:44:00Z,44.13,-123.22,1.1,0.0,140,6,,5.0,30.050198,,,TRUE,TRUE,,,,,,-SN BR,FEW,1200,BKN,2100,OVC,12000,,,MVFR,,,,,,0.01,,,,,,SPECI,109.0
KEUG 140931Z AUTO 17006KT 10SM FEW012 SCT036 OVC110 01/00 A3006 RMK AO2 SNE13 P0001 T00110000,KEUG,2023-02-14T09:31:00Z,44.13,-123.22,1.1,0.0,170,6,,10.0,30.059055,,,TRUE,TRUE,,,,,,,FEW,1200,SCT,3600,OVC,11000,,,VFR,,,,,,0.01,,,,,,SPECI,109.0
KEUG 140921Z AUTO 17008KT 10SM FEW006 BKN013 OVC110 01/00 A3007 RMK AO2 SNE13 P0001 T00110000,KEUG,2023-02-14T09:21:00Z,44.13,-123.22,1.1,0.0,170,8,,10.0,30.070866,,,TRUE,TRUE,,,,,,,FEW,600,BKN,1300,OVC,11000,,,MVFR,,,,,,0.01,,,,,,SPECI,109.0
KEUG 140914Z AUTO 18009KT 9SM BKN013 OVC110 01/00 A3007 RMK AO2 SNE13 P0001 T00110000,KEUG,2023-02-14T09:14:00Z,44.13,-123.22,1.1,0.0,180,9,,9.0,30.070866,,,TRUE,TRUE,,,,,,,BKN,1300,OVC,11000,,,,,MVFR,,,,,,0.01,,,,,,METAR,109.0
KEUG 140854Z AUTO 20009KT 3SM -SN BR BKN017 OVC023 01/00 A3009 RMK AO2 SNB38 SLP191 P0001 60001 T00110000 55013,KEUG,2023-02-14T08:54:00Z,44.13,-123.22,1.1,0.0,200,9,,3.0,30.088583,1019.1,,TRUE,TRUE,,,,,,-SN BR,BKN,1700,OVC,2300,,,,,MVFR,-1.3,,,,,0.01,0.01,,,,,METAR,109.0
KEUG 140852Z AUTO 19008KT 3SM -SN BR BKN017 OVC023 01/00 A3009 RMK AO2 SNB38 P0000,KEUG,2023-02-14T08:52:00Z,44.13,-123.22,1.0,0.0,190,8,,3.0,30.088583,,,TRUE,TRUE,,,,,,-SN BR,BKN,1700,OVC,2300,,,,,MVFR,,,,,,0.005,,,,,,SPECI,109.0
KEUG 140754Z AUTO 16008KT 10SM FEW120 01/00 A3010 RMK AO2 RAB0659E05SNE05 SLP194 P0000 T00110000 400940006,KEUG,2023-02-14T07:54:00Z,44.13,-123.22,1.1,0.0,160,8,,10.0,30.100393,1019.4,,TRUE,TRUE,,,,,,,FEW,12000,,,,,,,VFR,,,,9.4,0.6,0.005,,,,,,METAR,109.0
KEUG 140705Z 24006KT 8SM FEW011 SCT030 02/00 A3012 RMK AO2 RAB0659E05SNE05 P0000 T00170000,KEUG,2023-02-14T07:05:00Z,44.13,-123.22,1.7,0.0,240,6,,8.0,30.121063,,,,TRUE,,,,,,,FEW,1100,SCT,3000,,,,,VFR,,,,,,0.005,,,,,,METAR,109.0
KEUG 140654Z 24010KT 8SM -SN BKN030 OVC045 02/00 A3013 RMK AO2 RAB13E54SNB36E42B50 SLP204 P0000 T00220000,KEUG,2023-02-14T06:54:00Z,44.13,-123.22,2.2,0.0,240,10,,8.0,30.129921,1020.4,,,TRUE,,,,,,-SN,BKN,3000,OVC,4500,,,,,MVFR,,,,,,0.005,,,,,,METAR,109.0
KEUG 140642Z 23007KT 9SM -RA BKN030 OVC045 02/M01 A3013 RMK AO2 RAB13SNB36E42 P0000 T00221006,KEUG,2023-02-14T06:42:00Z,44.13,-123.22,2.2,-0.6,230,7,,9.0,30.129921,,,,TRUE,,,,,,-RA,BKN,3000,OVC,4500,,,,,MVFR,,,,,,0.005,,,,,,METAR,109.0
KEUG 140636Z 24005KT 7SM -RASN BKN031 02/M01 A3013 RMK AO2 RAB13SNB36 P0000 T00221006,KEUG,2023-02-14T06:36:00Z,44.13,-123.22,2.2,-0.6,240,5,,7.0,30.129921,,,,TRUE,,,,,,-RA -SN,BKN,3100,,,,,,,VFR,,,,,,0.005,,,,,,SPECI,109.0
KEUG 140554Z 22007KT 10SM BKN048 01/M01 A3014 RMK AO2 SLP208 60002 T00061011 10067 20006 51015,KEUG,2023-02-14T05:54:00Z,44.13,-123.22,0.6,-1.1,220,7,,10.0,30.138779,1020.8,,,TRUE,,,,,,,BKN,4800,,,,,,,VFR,1.5,6.7,0.6,,,,,0.02,,,,METAR,109.0
KEUG 140454Z 27006KT 10SM FEW045 02/M01 A3013 RMK AO2 RAE11 SLP205 P0000 T00221006,KEUG,2023-02-14T04:54:00Z,44.13,-123.22,2.2,-0.6,270,6,,10.0,30.129921,1020.5,,,TRUE,,,,,,,FEW,4500,,,,,,,VFR,,,,,,0.005,,,,,,METAR,109.0
KEUG 140354Z 23009KT 10SM -RA SCT035 BKN045 BKN095 03/01 A3011 RMK AO2 RAB51 SLP199 P0000 T00280006,KEUG,2023-02-14T03:54:00Z,44.13,-123.22,2.8,0.6,230,9,,10.0,30.109253,1019.9,,,TRUE,,,,,,-RA,SCT,3500,BKN,4500,BKN,9500,,,VFR,,,,,,0.005,,,,,,METAR,109.0
KEUG 140254Z 26006KT 10SM FEW017 BKN035 OVC120 03/01 A3009 RMK AO2 RAE05B30E45 SLP192 P0001 60002 T00330011 53016,KEUG,2023-02-14T02:54:00Z,44.13,-123.22,3.3,1.1,260,6,,10.0,30.088583,1019.2,,,TRUE,,,,,,,FEW,1700,BKN,3500,OVC,12000,,,VFR,1.6,,,,,0.01,0.02,,,,,METAR,109.0
KEUG 140154Z 25006KT 9SM -RA FEW020 BKN037 OVC050 04/02 A3007 RMK AO2 SLP183 P0001 T00440017,KEUG,2023-02-14T01:54:00Z,44.13,-123.22,4.4,1.7,250,6,,9.0,30.070866,1018.3,,,TRUE,,,,,,-RA,FEW,2000,BKN,3700,OVC,5000,,,VFR,,,,,,0.01,,,,,,METAR,109.0
KEUG 140129Z 27009KT 7SM -RA BKN028 BKN060 OVC075 05/02 A3006 RMK AO2 P0000 T00500022,KEUG,2023-02-14T01:29:00Z,44.13,-123.22,5.0,2.2,270,9,,7.0,30.059055,,,,TRUE,,,,,,-RA,BKN,2800,BKN,6000,OVC,7500,,,MVFR,,,,,,0.005,,,,,,SPECI,109.0
KEUG 140054Z 28011KT 10SM -RA FEW020 BKN035 OVC045 06/02 A3005 RMK AO2 RAE09B28 SLP177 P0000 T00560022,KEUG,2023-02-14T00:54:00Z,44.13,-123.22,5.6,2.2,280,11,,10.0,30.050198,1017.7,,,TRUE,,,,,,-RA,FEW,2000,BKN,3500,OVC,4500,,,VFR,,,,,,0.005,,,,,,METAR,109.0
KEUG 132354Z 28012KT 9SM -RA FEW025 BKN040 OVC060 07/02 A3004 RMK AO2 RAB29 SLP175 CB DSNT E P0000 60002 T00670022 10094 20067 55001,KEUG,2023-02-13T23:54:00Z,44.13,-123.22,6.7,2.2,280,12,,9.0,30.041338,1017.5,,,TRUE,,,,,,-RA,FEW,2500,BKN,4000,OVC,6000,,,VFR,-0.1,9.4,6.7,,,0.005,,0.02,,,,METAR,109.0
KEUG 132254Z 26011KT 10SM SCT025 BKN036 BKN050 09/03 A3003 RMK AO2 SLP169 TCU DSNT NE AND S T00940033,KEUG,2023-02-13T22:54:00Z,44.13,-123.22,9.4,3.3,260,11,,10.0,30.029528,1016.9,,,TRUE,,,,,,,SCT,2500,BKN,3600,BKN,5000,,,VFR,,,,,,,,,,,,METAR,109.0
KEUG 132154Z 30007KT 10SM SCT025 BKN035 BKN075 07/03 A3004 RMK AO2 RAB2058E49 SLP174 P0002 T00720028,KEUG,2023-02-13T21:54:00Z,44.13,-123.22,7.2,2.8,300,7,,10.0,30.041338,1017.4,,,TRUE,,,,,,,SCT,2500,BKN,3500,BKN,7500,,,VFR,,,,,,0.02,,,,,,METAR,109.0
KEUG 132109Z 26008KT 5SM -RA BR BKN025 BKN035 OVC075 07/03 A3005 RMK AO2 RAB2058 P0000 T00720033,KEUG,2023-02-13T21:09:00Z,44.13,-123.22,7.2,3.3,260,8,,5.0,30.050198,,,,TRUE,,,,,,-RA BR,BKN,2500,BKN,3500,OVC,7500,,,MVFR,,,,,,0.005,,,,,,METAR,109.0
KEUG 132054Z 25013KT 10SM SCT025 BKN035 BKN075 08/02 A3005 RMK AO2 RAB03E13 SLP176 TCU DSNT E-SE P0000 60000 T00780022 58008,KEUG,2023-02-13T20:54:00Z,44.13,-123.22,7.8,2.2,250,13,,10.0,30.050198,1017.6,,,TRUE,,,,,,,SCT,2500,BKN,3500,BKN,7500,,,VFR,-0.8,,,,,0.005,0.005,,,,,METAR,109.0
KEUG 131954Z 27015KT 10SM FEW019 BKN031 BKN060 08/02 A3006 RMK AO2 SLP181 TCU DSNT S T00830022,KEUG,2023-02-13T19:54:00Z,44.13,-123.22,8.3,2.2,270,15,,10.0,30.059055,1018.1,,,TRUE,,,,,,,FEW,1900,BKN,3100,BKN,6000,,,VFR,,,,,,,,,,,,METAR,109.0
KEUG 131854Z 27010KT 10SM SCT019 BKN032 BKN060 08/03 A3008 RMK AO2 RAE19 SLP188 P0000 T00830033,KEUG,2023-02-13T18:54:00Z,44.13,-123.22,8.3,3.3,270,10,,10.0,30.079725,1018.8,,,TRUE,,,,,,,SCT,1900,BKN,3200,BKN,6000,,,VFR,,,,,,0.005,,,,,,METAR,109.0
KEUG 131754Z 27009G25KT 8SM -RA FEW012 SCT030 OVC040 07/03 A3007 RMK AO2 RAB47 SLP185 P0000 60005 T00720033 10072 20044 50002,KEUG,2023-02-13T17:54:00Z,44.13,-123.22,7.2,3.3,270,9,25,8.0,30.070866,1018.5,,,TRUE,,,,,,-RA,FEW,1200,SCT,3000,OVC,4000,,,VFR,0.2,7.2,4.4,,,0.005,,0.05,,,,METAR,109.0
KEUG 131654Z 21008KT 10SM SCT014 SCT030 BKN042 07/04 A3008 RMK AO2 RAE02 SLP187 P0000 T00670044,KEUG,2023-02-13T16:54:00Z,44.13,-123.22,6.7,4.4,210,8,,10.0,30.079725,1018.7,,,TRUE,,,,,,,SCT,1400,SCT,3000,BKN,4200,,,VFR,,,,,,0.005,,,,,,METAR,109.0
KEUG 131616Z 24004KT 10SM SCT014 BKN035 BKN050 06/03 A3008 RMK AO2 RAE02 P0000 T00560033,KEUG,2023-02-13T16:16:00Z,44.13,-123.22,5.6,3.3,240,4,,10.0,30.079725,,,,TRUE,,,,,,,SCT,1400,BKN,3500,BKN,5000,,,VFR,,,,,,0.005,,,,,,SPECI,109.0
KEUG 131554Z 25007KT 5SM RA BR FEW012 BKN029 BKN060 06/04 A3008 RMK AO2 RAB12 SLP188 P0005 T00610039,KEUG,2023-02-13T15:54:00Z,44.13,-123.22,6.1,3.9,250,7,,5.0,30.079725,1018.8,,,TRUE,,,,,,RA BR,FEW,1200,BKN,2900,BKN,6000,,,MVFR,,,,,,0.05,,,,,,METAR,109.0
KEUG 131547Z 27011KT 240V300 7SM RA BKN026 BKN036 OVC060 06/04 A3009 RMK AO2 RAB12 P0002 T00610044,KEUG,2023-02-13T15:47:00Z,44.13,-123.22,6.1,4.4,270,11,,7.0,30.088583,,,,TRUE,,,,,,RA,BKN,2600,BKN,3600,OVC,6000,,,MVFR,,,,,,0.02,,,,,,METAR,109.0
KEUG 131454Z 21008KT 10SM FEW030 SCT045 SCT060 05/03 A3006 RMK AO2 SLP182 T00500033 58007,KEUG,2023-02-13T14:54:00Z,44.13,-123.22,5.0,3.3,210,8,,10.0,30.059055,1018.2,,,TRUE,,,,,,,FEW,3000,SCT,4500,SCT,6000,,,VFR,-0.7,,,,,,,,,,,METAR,109.0
KEUG 131354Z 23007KT 10SM FEW040 SCT060 05/04 A3007 RMK AO2 SLP186 T00500039,KEUG,2023-02-13T13:54:00Z,44.13,-123.22,5.0,3.9,230,7,,10.0,30.070866,1018.6,,,TRUE,,,,,,,FEW,4000,SCT,6000,,,,,VFR,,,,,,,,,,,,METAR,109.0
KEUG 131254Z AUTO 22007KT 10SM BKN039 OVC046 07/05 A3008 RMK AO2 SLP186 T00670050,KEUG,2023-02-13T12:54:00Z,44.13,-123.22,6.7,5.0,220,7,,10.0,30.079725,1018.6,,TRUE,TRUE,,,,,,,BKN,3900,OVC,4600,,,,,VFR,,,,,,,,,,,,METAR,109.0
KEUG 131208Z AUTO 19006KT 10SM SCT011 BKN032 OVC042 07/05 A3008 RMK AO2 T00670050,KEUG,2023-02-13T12:08:00Z,44.13,-123.22,6.7,5.0,190,6,,10.0,30.079725,,,TRUE,TRUE,,,,,,,SCT,1100,BKN,3200,OVC,4200,,,VFR,,,,,,,,,,,,SPECI,109.0
KEUG 131154Z AUTO 21005KT 10SM BKN011 OVC029 07/05 A3008 RMK AO2 SLP188 T00670050 10072 20039 56009,KEUG,2023-02-13T11:54:00Z,44.13,-123.22,6.7,5.0,210,5,,10.0,30.079725,1018.8,,TRUE,TRUE,,,,,,,BKN,1100,OVC,2900,,,,,MVFR,-0.9,7.2,3.9,,,,,,,,,SPECI,109.0
KEUG 131054Z AUTO 14006KT 10SM OVC013 06/04 A3008 RMK AO2 SLP189 T00610044,KEUG,2023-02-13T10:54:00Z,44.13,-123.22,6.1,4.4,140,6,,10.0,30.079725,1018.9,,TRUE,TRUE,,,,,,,OVC,1300,,,,,,,MVFR,,,,,,,,,,,,METAR,109.0
KEUG 130954Z AUTO 15006KT 10SM OVC019 06/04 A3011 RMK AO2 SLP195 T00610039,KEUG,2023-02-13T09:54:00Z,44.13,-123.22,6.1,3.9,150,6,,10.0,30.109253,1019.5,,TRUE,TRUE,,,,,,,OVC,1900,,,,,,,MVFR,,,,,,,,,,,,METAR,109.0
KEUG 130935Z AUTO 15006KT 10SM BKN021 BKN026 OVC032 06/04 A3010 RMK AO2 T00610039,KEUG,2023-02-13T09:35:00Z,44.13,-123.22,6.1,3.9,150,6,,10.0,30.100393,,,TRUE,TRUE,,,,,,,BKN,2100,BKN,2600,OVC,3200,,,MVFR,,,,,,,,,,,,SPECI,109.0
KEUG 130920Z AUTO 15006KT 10SM BKN030 OVC037 06/04 A3011 RMK AO2 T00610039,KEUG,2023-02-13T09:20:00Z,44.13,-123.22,6.1,3.9,150,6,,10.0,30.109253,,,TRUE,TRUE,,,,,,,BKN,3000,OVC,3700,,,,,MVFR,,,,,,,,,,,,SPECI,109.0
KEUG 130854Z AUTO 15008KT 10SM BKN029 OVC060 06/03 A3011 RMK AO2 SLP199 T00610033 58008,KEUG,2023-02-13T08:54:00Z,44.13,-123.22,6.1,3.3,150,8,,10.0,30.109253,1019.9,,TRUE,TRUE,,,,,,,BKN,2900,OVC,6000,,,,,MVFR,-0.8,,,,,,,,,,,METAR,109.0
KEUG 130802Z AUTO 14006KT 10SM SCT026 OVC037 06/04 A3013 RMK AO2 T00610039,KEUG,2023-02-13T08:02:00Z,44.13,-123.22,6.1,3.9,140,6,,10.0,30.129921,,,TRUE,TRUE,,,,,,,SCT,2600,OVC,3700,,,,,VFR,,,,,,,,,,,,SPECI,109.0
KEUG 130754Z AUTO 14006KT 10SM BKN026 OVC035 06/04 A3013 RMK AO2 SLP206 T00610039 401061017,KEUG,2023-02-13T07:54:00Z,44.13,-123.22,6.1,3.9,140,6,,10.0,30.129921,1020.6,,TRUE,TRUE,,,,,,,BKN,2600,OVC,3500,,,,,MVFR,,,,10.6,-1.7,,,,,,,METAR,109.0
KEUG 130735Z AUTO 17004KT 10SM BKN028 BKN041 OVC048 06/04 A3013 RMK AO2 T00610039,KEUG,2023-02-13T07:35:00Z,44.13,-123.22,6.1,3.9,170,4,,10.0,30.129921,,,TRUE,TRUE,,,,,,,BKN,2800,BKN,4100,OVC,4800,,,MVFR,,,,,,,,,,,,SPECI,109.0
KEUG 130654Z 14007KT 10SM OVC037 06/04 A3012 RMK AO2 SLP202 T00560039,KEUG,2023-02-13T06:54:00Z,44.13,-123.22,5.6,3.9,140,7,,10.0,30.121063,1020.2,,,TRUE,,,,,,,OVC,3700,,,,,,,VFR,,,,,,,,,,,,METAR,109.0
KEUG 130554Z 19004KT 10SM BKN050 04/02 A3013 RMK AO2 SLP207 T00390022 10100 20022 53004,KEUG,2023-02-13T05:54:00Z,44.13,-123.22,3.9,2.2,190,4,,10.0,30.129921,1020.7,,,TRUE,,,,,,,BKN,5000,,,,,,,VFR,0.4,10.0,2.2,,,,,,,,,METAR,109.0
KEUG 130454Z 16004KT 10SM CLR 04/02 A3013 RMK AO2 SLP205 T00390022,KEUG,2023-02-13T04:54:00Z,44.13,-123.22,3.9,2.2,160,4,,10.0,30.129921,1020.5,,,TRUE,,,,,,,CLR,,,,,,,,VFR,,,,,,,,,,,,METAR,109.0
KEUG 130354Z 16003KT 10SM CLR 04/03 A3012 RMK AO2 SLP203 T00440028,KEUG,2023-02-13T03:54:00Z,44.13,-123.22,4.4,2.8,160,3,,10.0,30.121063,1020.3,,,TRUE,,,,,,,CLR,,,,,,,,VFR,,,,,,,,,,,,METAR,109.0
KEUG 130254Z 00000KT 10SM CLR 05/03 A3012 RMK AO2 SLP203 T00500033 56022,KEUG,2023-02-13T02:54:00Z,44.13,-123.22,5.0,3.3,0,0,,10.0,30.121063,1020.3,,,TRUE,,,,,,,CLR,,,,,,,,VFR,-2.2,,,,,,,,,,,METAR,109.0
KEUG 130154Z 33004KT 10SM FEW200 SCT250 07/04 A3014 RMK AO2 SLP208 T00720039,KEUG,2023-02-13T01:54:00Z,44.13,-123.22,7.2,3.9,330,4,,10.0,30.138779,1020.8,,,TRUE,,,,,,,FEW,20000,SCT,25000,,,,,VFR,,,,,,,,,,,,METAR,109.0
KEUG 130054Z 00000KT 10SM BKN250 10/04 A3015 RMK AO2 SLP212 T01000039,KEUG,2023-02-13T00:54:00Z,44.13,-123.22,10.0,3.9,0,0,,10.0,30.15059,1021.2,,,TRUE,,,,,,,BKN,25000,,,,,,,VFR,,,,,,,,,,,,METAR,109.0
KEUG 122354Z 00000KT 10SM SCT250 10/04 A3019 RMK AO2 SLP224 T01000044 10106 20044 56015,KEUG,2023-02-12T23:54:00Z,44.13,-123.22,10.0,4.4,0,0,,10.0,30.188976,1022.4,,,TRUE,,,,,,,SCT,25000,,,,,,,VFR,-1.5,10.6,4.4,,,,,,,,,METAR,109.0
KEUG 122254Z 00000KT 10SM FEW014 SCT250 09/04 A3020 RMK AO2 SLP228 T00940039,KEUG,2023-02-12T22:54:00Z,44.13,-123.22,9.4,3.9,0,0,,10.0,30.200787,1022.8,,,TRUE,,,,,,,FEW,1400,SCT,25000,,,,,VFR,,,,,,,,,,,,METAR,109.0
KEUG 122154Z 36006KT 10SM FEW014 SCT250 10/04 A3022 RMK AO2 SLP236 T01000039,KEUG,2023-02-12T21:54:00Z,44.13,-123.22,10.0,3.9,360,6,,10.0,30.221457,1023.6,,,TRUE,,,,,,,FEW,1400,SCT,25000,,,,,VFR,,,,,,,,,,,,METAR,109.0
KEUG 122054Z 00000KT 10SM FEW012 BKN250 08/03 A3023 RMK AO2 SLP240 T00780028 56012,KEUG,2023-02-12T20:54:00Z,44.13,-123.22,7.8,2.8,0,0,,10.0,30.230314,1024.0,,,TRUE,,,,,,,FEW,1200,BKN,25000,,,,,VFR,-1.2,,,,,,,,,,,METAR,109.0
KEUG 122008Z 34003KT 10SM BKN012 07/02 A3025 RMK AO2 T00670022,KEUG,2023-02-12T20:08:00Z,44.13,-123.22,6.7,2.2,340,3,,10.0,30.250984,,,,TRUE,,,,,,,BKN,1200,,,,,,,MVFR,,,,,,,,,,,,SPECI,109.0
KEUG 121954Z 03004KT 10SM OVC009 08/03 A3025 RMK AO2 SLP247 T00780028,KEUG,2023-02-12T19:54:00Z,44.13,-123.22,7.8,2.8,30,4,,10.0,30.250984,1024.7,,,TRUE,,,,,,,OVC,900,,,,,,,IFR,,,,,,,,,,,,METAR,109.0
KEUG 121854Z 17004KT 10SM OVC008 06/03 A3027 RMK AO2 SLP252 T00560028,KEUG,2023-02-12T18:54:00Z,44.13,-123.22,5.6,2.8,170,4,,10.0,30.268702,1025.2,,,TRUE,,,,,,,OVC,800,,,,,,,IFR,,,,,,,,,,,,METAR,109.0
KEUG 121754Z 13004KT 9SM BKN008 04/03 A3027 RMK AO2 SLP253 T00440028 10044 20006 50001,KEUG,2023-02-12T17:54:00Z,44.13,-123.22,4.4,2.8,130,4,,9.0,30.268702,1025.3,,,TRUE,,,,,,,BKN,800,,,,,,,IFR,0.1,4.4,0.6,,,,,,,,,METAR,109.0
KEUG 121654Z 00000KT 5SM BR BKN005 OVC010 03/02 A3028 RMK AO2 SLP256 T00330022,KEUG,2023-02-12T16:54:00Z,44.13,-123.22,3.3,2.2,0,0,,5.0,30.280512,1025.6,,,TRUE,,,,,,BR,BKN,500,OVC,1000,,,,,IFR,,,,,,,,,,,,METAR,109.0
KEUG 121554Z 00000KT 3SM BR OVC006 03/02 A3028 RMK AO2 SFC VIS 4 SLP255 T00280022,KEUG,2023-02-12T15:54:00Z,44.13,-123.22,2.8,2.2,0,0,,3.0,30.280512,1025.5,,,TRUE,,,,,,BR,OVC,600,,,,,,,IFR,,,,,,,,,,,,METAR,109.0
KEUG 121454Z 00000KT 3SM BR OVC006 02/02 A3027 RMK AO2 SFC VIS 4 SLP252 T00220017 56005,KEUG,2023-02-12T14:54:00Z,44.13,-123.22,2.2,1.7,0,0,,3.0,30.268702,1025.2,,,TRUE,,,,,,BR,OVC,600,,,,,,,IFR,-0.5,,,,,,,,,,,METAR,109.0
KEUG 121354Z 00000KT 3SM BR OVC008 02/01 A3027 RMK AO2 SLP254 T00170011,KEUG,2023-02-12T13:54:00Z,44.13,-123.22,1.7,1.1,0,0,,3.0,30.268702,1025.4,,,TRUE,,,,,,BR,OVC,800,,,,,,,IFR,,,,,,,,,,,,METAR,109.0
KEUG 121327Z AUTO 00000KT 4SM BR OVC008 02/01 A3027 RMK AO2 T00170011,KEUG,2023-02-12T13:27:00Z,44.13,-123.22,1.7,1.1,0,0,,4.0,30.268702,,,TRUE,TRUE,,,,,,BR,OVC,800,,,,,,,IFR,,,,,,,,,,,,SPECI,109.0
KEUG 121301Z AUTO 00000KT 3SM BR FEW002 OVC010 01/01 A3027 RMK AO2 T00110006,KEUG,2023-02-12T13:01:00Z,44.13,-123.22,1.1,0.6,0,0,,3.0,30.268702,,,TRUE,TRUE,,,,,,BR,FEW,200,OVC,1000,,,,,MVFR,,,,,,,,,,,,SPECI,109.0
KEUG 121254Z AUTO 00000KT 2 1/2SM BR FEW002 OVC010 01/01 A3027 RMK AO2 SLP253 T00110011,KEUG,2023-02-12T12:54:00Z,44.13,-123.22,1.1,1.1,0,0,,2.5,30.268702,1025.3,,TRUE,TRUE,,,,,,BR,FEW,200,OVC,1000,,,,,IFR,,,,,,,,,,,,SPECI,109.0
KEUG 121249Z AUTO 00000KT 2SM BR SCT002 SCT006 OVC012 01/01 A3027 RMK AO2,KEUG,2023-02-12T12:49:00Z,44.13,-123.22,1.0,1.0,0,0,,2.0,30.268702,,,TRUE,TRUE,,,,,,BR,SCT,200,SCT,600,OVC,1200,,,IFR,,,,,,,,,,,,METAR,109.0
KEUG 121243Z AUTO 00000KT 1SM R16R/5000VP6000FT BR BKN002 OVC012 01/01 A3028 RMK AO2 T00110006,KEUG,2023-02-12T12:43:00Z,44.13,-123.22,1.1,0.6,0,0,,1.0,30.280512,,,TRUE,TRUE,,,,,,BR,BKN,200,OVC,1200,,,,,LIFR,,,,,,,,,,,,SPECI,109.0
KEUG 121239Z AUTO 00000KT 1SM R16R/5000VP6000FT BR FEW002 SCT006 OVC012 01/01 A3027 RMK AO2 CIG 002 RNW 34 T00110006,KEUG,2023-02-12T12:39:00Z,44.13,-123.22,1.1,0.6,0,0,,1.0,30.268702,,,TRUE,TRUE,,,,,,BR,FEW,200,SCT,600,OVC,1200,,,IFR,,,,,,,,,,,,SPECI,109.0
KEUG 121232Z AUTO 19004KT 3/4SM R16R/4000VP6000FT BR BKN004 OVC012 01/01 A3027 RMK AO2 T00060006,KEUG,2023-02-12T12:32:00Z,44.13,-123.22,0.6,0.6,190,4,,0.75,30.268702,,,TRUE,TRUE,,,,,,BR,BKN,400,OVC,1200,,,,,LIFR,,,,,,,,,,,,SPECI,109.0
KEUG 121154Z AUTO 00000KT 1/2SM R16R/2200V3000FT FG VV006 01/00 A3028 RMK AO2 SLP257 I1001 I6002 T00060000 10011 21017 51004,KEUG,2023-02-12T11:54:00Z,44.13,-123.22,0.6,0.0,0,0,,0.5,30.280512,1025.7,,TRUE,TRUE,,,,,,FG,OVX,0,,,,,,,LIFR,0.4,1.1,-1.7,,,,,,,,600,METAR,109.0
KEUG 121150Z AUTO 14003KT 1/2SM R16R/2200V2800FT FG VV005 01/00 A3028 RMK AO2 I1001,KEUG,2023-02-12T11:50:00Z,44.13,-123.22,1.0,0.0,140,3,,0.5,30.280512,,,TRUE,TRUE,,,,,,FG,OVX,0,,,,,,,LIFR,,,,,,,,,,,500,METAR,109.0
KEUG 121142Z AUTO 00000KT 1/4SM R16R/2000V2400FT FG VV003 01/00 A3028 RMK AO2 I1001 T00060000,KEUG,2023-02-12T11:42:00Z,44.13,-123.22,0.6,0.0,0,0,,0.25,30.280512,,,TRUE,TRUE,,,,,,FG,OVX,0,,,,,,,LIFR,,,,,,,,,,,300,SPECI,109.0
KEUG 121109Z AUTO 00000KT 1/4SM R16R/1600V2000FT FG VV002 00/M01 A3028 RMK AO2 T00001006,KEUG,2023-02-12T11:09:00Z,44.13,-123.22,0.0,-0.6,0,0,,0.25,30.280512,,,TRUE,TRUE,,,,,,FG,OVX,0,,,,,,,LIFR,,,,,,,,,,,200,SPECI,109.0
KEUG 121054Z AUTO 00000KT 1/4SM R16R/2000V2400FT FZFG VV002 M01/M01 A3028 RMK AO2 SLP257 T10061011,KEUG,2023-02-12T10:54:00Z,44.13,-123.22,-0.6,-1.1,0,0,,0.25,30.280512,1025.7,,TRUE,TRUE,,,,,,FZFG,OVX,0,,,,,,,LIFR,,,,,,,,,,,200,METAR,109.0
KEUG 121052Z AUTO 00000KT 1/4SM R16R/2000V2600FT FZFG VV002 M01/M01 A3028 RMK AO2,KEUG,2023-02-12T10:52:00Z,44.13,-123.22,-1.0,-1.0,0,0,,0.25,30.280512,,,TRUE,TRUE,,,,,,FZFG,OVX,0,,,,,,,LIFR,,,,,,,,,,,200,METAR,109.0
KEUG 121038Z AUTO 00000KT 1/2SM R16R/3000V4000FT FZFG VV002 M01/M01 A3028 RMK AO2 T10061011,KEUG,2023-02-12T10:38:00Z,44.13,-123.22,-0.6,-1.1,0,0,,0.5,30.280512,,,TRUE,TRUE,,,,,,FZFG,OVX,0,,,,,,,LIFR,,,,,,,,,,,200,SPECI,109.0
KEUG 121031Z AUTO 29003KT 1/4SM R16R/2000V4000FT FZFG VV002 M01/M02 A3028 RMK AO2 T10111017,KEUG,2023-02-12T10:31:00Z,44.13,-123.22,-1.1,-1.7,290,3,,0.25,30.280512,,,TRUE,TRUE,,,,,,FZFG,OVX,0,,,,,,,LIFR,,,,,,,,,,,200,SPECI,109.0
KEUG 121021Z AUTO 24003KT 1/2SM R16R/2200V3000FT FZFG VV002 M01/M02 A3027 RMK AO2 T10111017,KEUG,2023-02-12T10:21:00Z,44.13,-123.22,-1.1,-1.7,240,3,,0.5,30.268702,,,TRUE,TRUE,,,,,,FZFG,OVX,0,,,,,,,LIFR,,,,,,,,,,,200,SPECI,109.0
KEUG 121014Z AUTO 22003KT 1SM R16R/3000V6000FT BR VV002 M01/M02 A3027 RMK AO2 VIS 1/4 RNW 34 T10111017,KEUG,2023-02-12T10:14:00Z,44.13,-123.22,-1.1,-1.7,220,3,,1.0,30.268702,,,TRUE,TRUE,,,,,,BR,OVX,0,,,,,,,LIFR,,,,,,,,,,,200,SPECI,109.0
KEUG 121005Z AUTO 21003KT 1/2SM R16R/2200V6000FT FZFG VV002 M01/M02 A3027 RMK AO2 T10111017,KEUG,2023-02-12T10:05:00Z,44.13,-123.22,-1.1,-1.7,210,3,,0.5,30.268702,,,TRUE,TRUE,,,,,,FZFG,OVX,0,,,,,,,LIFR,,,,,,,,,,,200,SPECI,109.0
KEUG 120954Z AUTO 00000KT 1/4SM R16R/1800V3000FT FZFG VV003 M01/M02 A3027 RMK AO2 SLP253 I1001 T10111022,KEUG,2023-02-12T09:54:00Z,44.13,-123.22,-1.1,-2.2,0,0,,0.25,30.268702,1025.3,,TRUE,TRUE,,,,,,FZFG,OVX,0,,,,,,,LIFR,,,,,,,,,,,300,METAR,109.0
KEUG 120949Z AUTO 00000KT 1/4SM R16R/1400V3000FT FZFG VV004 M01/M02 A3027 RMK AO2 I1001,KEUG,2023-02-12T09:49:00Z,44.13,-123.22,-1.0,-2.0,0,0,,0.25,30.268702,,,TRUE,TRUE,,,,,,FZFG,OVX,0,,,,,,,LIFR,,,,,,,,,,,400,SPECI,109.0
KEUG 120943Z AUTO 00000KT 1/4SM R16R/1400V2200FT FZFG VV005 M01/M02 A3027 RMK AO2 I1001 T10111022,KEUG,2023-02-12T09:43:00Z,44.13,-123.22,-1.1,-2.2,0,0,,0.25,30.268702,,,TRUE,TRUE,,,,,,FZFG,OVX,0,,,,,,,LIFR,,,,,,,,,,,500,SPECI,109.0
KEUG 120925Z AUTO 25003KT 1/4SM R16R/1800V2400FT FZFG VV006 M01/M02 A3026 RMK AO2 I1001 T10061017,KEUG,2023-02-12T09:25:00Z,44.13,-123.22,-0.6,-1.7,250,3,,0.25,30.259842,,,TRUE,TRUE,,,,,,FZFG,OVX,0,,,,,,,LIFR,,,,,,,,,,,600,SPECI,109.0
KEUG 120906Z AUTO 24004KT 1/4SM R16R/1400V2200FT FZFG VV002 M01/M02 A3026 RMK AO2 T10061017,KEUG,2023-02-12T09:06:00Z,44.13,-123.22,-0.6,-1.7,240,4,,0.25,30.259842,,,TRUE,TRUE,,,,,,FZFG,OVX,0,,,,,,,LIFR,,,,,,,,,,,200,METAR,109.0
KEUG 120854Z AUTO 26005KT 1/2SM R16R/2800V5500FT FZFG VV002 M01/M02 A3026 RMK AO2 SLP250 I1000 I3000 T10111017 58001,KEUG,2023-02-12T08:54:00Z,44.13,-123.22,-1.1,-1.7,260,5,,0.5,30.259842,1025.0,,TRUE,TRUE,,,,,,FZFG,OVX,0,,,,,,,LIFR,-0.1,,,,,,,,,,200,METAR,109.0
KEUG 120851Z AUTO 23004KT 1/2SM R16R/3500V5500FT FZFG VV001 M01/M02 A3026 RMK AO2 I1000,KEUG,2023-02-12T08:51:00Z,44.13,-123.22,-1.0,-2.0,230,4,,0.5,30.259842,,,TRUE,TRUE,,,,,,FZFG,OVX,0,,,,,,,LIFR,,,,,,,,,,,100,SPECI,109.0
KEUG 120843Z AUTO 21005KT 3/4SM R16R/3500VP6000FT BR SCT001 OVC006 M01/M01 A3026 RMK AO2 I1000 T10061011,KEUG,2023-02-12T08:43:00Z,44.13,-123.22,-0.6,-1.1,210,5,,0.75,30.259842,,,TRUE,TRUE,,,,,,BR,SCT,100,OVC,600,,,,,LIFR,,,,,,,,,,,,SPECI,109.0
KEUG 120832Z AUTO 20004KT 1/4SM R16R/2000V2600FT FZFG VV008 M01/M02 A3026 RMK AO2 I1000 T10111017,KEUG,2023-02-12T08:32:00Z,44.13,-123.22,-1.1,-1.7,200,4,,0.25,30.259842,,,TRUE,TRUE,,,,,,FZFG,OVX,0,,,,,,,LIFR,,,,,,,,,,,800,METAR,109.0
KEUG 120817Z AUTO 00000KT 1/4SM R16R/4500VP6000FT FZFG VV011 M02/M02 A3026 RMK AO2 T10171022,KEUG,2023-02-12T08:17:00Z,44.13,-123.22,-1.7,-2.2,0,0,,0.25,30.259842,,,TRUE,TRUE,,,,,,FZFG,OVX,0,,,,,,,LIFR,,,,,,,,,,,1100,SPECI,109.0
KEUG 120807Z AUTO 24003KT 1/4SM R16R/1400VP6000FT FZFG VV008 M01/M02 A3027 RMK AO2 T10111022,KEUG,2023-02-12T08:07:00Z,44.13,-123.22,-1.1,-2.2,240,3,,0.25,30.268702,,,TRUE,TRUE,,,,,,FZFG,OVX,0,,,,,,,LIFR,,,,,,,,,,,800,SPECI,109.0
KEUG 120754Z AUTO 00000KT 1/2SM R16R/2600VP6000FT FZFG VV005 M01/M02 A3027 RMK AO2 SLP253 I1000 T10111017 400831011,KEUG,2023-02-12T07:54:00Z,44.13,-123.22,-1.1,-1.7,0,0,,0.5,30.268702,1025.3,,TRUE,TRUE,,,,,,FZFG,OVX,0,,,,,,,LIFR,,,,8.3,-1.1,,,,,,500,METAR,109.0
KEUG 120749Z AUTO 00000KT 1/4SM R16R/2600VP6000FT FZFG VV006 M01/M01 A3026 RMK AO2 I1000,KEUG,2023-02-12T07:49:00Z,44.13,-123.22,-1.0,-1.0,0,0,,0.25,30.259842,,,TRUE,TRUE,,,,,,FZFG,OVX,0,,,,,,,LIFR,,,,,,,,,,,600,SPECI,109.0
KEUG 120739Z AUTO 16003KT 3/4SM R16R/P6000FT BR VV007 M01/M01 A3026 RMK AO2 I1000 T10061011,KEUG,2023-02-12T07:39:00Z,44.13,-123.22,-0.6,-1.1,160,3,,0.75,30.259842,,,TRUE,TRUE,,,,,,BR,OVX,0,,,,,,,LIFR,,,,,,,,,,,700,SPECI,109.0
KEUG 120736Z AUTO 15003KT 1 1/4SM BR SCT008 M01/M01 A3026 RMK AO2 VIS 1/4 RNW 34 I1000 T10061011,KEUG,2023-02-12T07:36:00Z,44.13,-123.22,-0.6,-1.1,150,3,,1.25,30.259842,,,TRUE,TRUE,,,,,,BR,SCT,800,,,,,,,IFR,,,,,,,,,,,,SPECI,109.0
KEUG 120718Z 16003KT 3SM BR CLR M01/M01 A3027 RMK AO2 T10061011,KEUG,2023-02-12T07:18:00Z,44.13,-123.22,-0.6,-1.1,160,3,,3.0,30.268702,,,,TRUE,,,,,,BR,CLR,,,,,,,,MVFR,,,,,,,,,,,,SPECI,109.0
KEUG 120713Z 00000KT 1SM R16R/P6000FT BR CLR M01/M02 A3027 RMK AO2 T10111017,KEUG,2023-02-12T07:13:00Z,44.13,-123.22,-1.1,-1.7,0,0,,1.0,30.268702,,,,TRUE,,,,,,BR,CLR,,,,,,,,IFR,,,,,,,,,,,,SPECI,109.0
KEUG 120654Z 22003KT 1/2SM R16R/3000VP6000FT FZFG BKN003 M01/M01 A3026 RMK AO2 SLP251 FG BKN003 I1000 T10061011,KEUG,2023-02-12T06:54:00Z,44.13,-123.22,-0.6,-1.1,220,3,,0.5,30.259842,1025.1,,,TRUE,,,,,,FZFG,BKN,300,,,,,,,LIFR,,,,,,,,,,,,METAR,109.0
KEUG 120643Z 00000KT 2SM R16R/2000VP6000FT BR CLR M01/M02 A3026 RMK AO2 I1000 T10111017,KEUG,2023-02-12T06:43:00Z,44.13,-123.22,-1.1,-1.7,0,0,,2.0,30.259842,,,,TRUE,,,,,,BR,CLR,,,,,,,,IFR,,,,,,,,,,,,SPECI,109.0
KEUG 120554Z 00000KT 5SM R16R/2600VP6000FT BR CLR 01/M01 A3026 RMK AO2 VIS 1 1/2 RNW 34 SLP249 T00061006 10083 20006 53012,KEUG,2023-02-12T05:54:00Z,44.13,-123.22,0.6,-0.6,0,0,,5.0,30.259842,1024.9,,,TRUE,,,,,,BR,CLR,,,,,,,,MVFR,1.2,8.3,0.6,,,,,,,,,METAR,109.0
KEUG 120454Z 30004KT 8SM CLR 02/01 A3025 RMK AO2 SLP245 T00220006,KEUG,2023-02-12T04:54:00Z,44.13,-123.22,2.2,0.6,300,4,,8.0,30.250984,1024.5,,,TRUE,,,,,,,CLR,,,,,,,,VFR,,,,,,,,,,,,METAR,109.0
KEUG 120354Z 30005KT 10SM CLR 02/01 A3022 RMK AO2 SLP237 T00170006,KEUG,2023-02-12T03:54:00Z,44.13,-123.22,1.7,0.6,300,5,,10.0,30.221457,1023.7,,,TRUE,,,,,,,CLR,,,,,,,,VFR,,,,,,,,,,,,METAR,109.0
KEUG 120254Z 31005KT 10SM CLR 03/02 A3022 RMK AO2 SLP238 T00280017 56001,KEUG,2023-02-12T02:54:00Z,44.13,-123.22,2.8,1.7,310,5,,10.0,30.221457,1023.8,,,TRUE,,,,,,,CLR,,,,,,,,VFR,-0.1,,,,,,,,,,,METAR,109.0
KEUG 120154Z 35003KT 10SM FEW250 04/02 A3023 RMK AO2 SLP238 T00390022,KEUG,2023-02-12T01:54:00Z,44.13,-123.22,3.9,2.2,350,3,,10.0,30.230314,1023.8,,,TRUE,,,,,,,FEW,25000,,,,,,,VFR,,,,,,,,,,,,METAR,109.0
KEUG 120054Z 03005KT 10SM FEW016 SCT250 07/03 A3021 RMK AO2 SLP233 T00720033,KEUG,2023-02-12T00:54:00Z,44.13,-123.22,7.2,3.3,30,5,,10.0,30.209646,1023.3,,,TRUE,,,,,,,FEW,1600,SCT,25000,,,,,VFR,,,,,,,,,,,,METAR,109.0
KEUG 112354Z 01007KT 10SM BKN013 08/04 A3023 RMK AO2 SLP238 T00830039 10083 20056 56010,KEUG,2023-02-11T23:54:00Z,44.13,-123.22,8.3,3.9,10,7,,10.0,30.230314,1023.8,,,TRUE,,,,,,,BKN,1300,,,,,,,MVFR,-1.0,8.3,5.6,,,,,,,,,METAR,109.0
KEUG 112254Z 02007KT 10SM OVC013 08/04 A3024 RMK AO2 SLP241 T00780039,KEUG,2023-02-11T22:54:00Z,44.13,-123.22,7.8,3.9,20,7,,10.0,30.239174,1024.1,,,TRUE,,,,,,,OVC,1300,,,,,,,MVFR,,,,,,,,,,,,METAR,109.0
KEUG 112154Z 02010KT 10SM OVC013 07/04 A3024 RMK AO2 SLP243 T00720039,KEUG,2023-02-11T21:54:00Z,44.13,-123.22,7.2,3.9,20,10,,10.0,30.239174,1024.3,,,TRUE,,,,,,,OVC,1300,,,,,,,MVFR,,,,,,,,,,,,METAR,109.0
KEUG 112054Z 02010KT 10SM OVC013 07/03 A3026 RMK AO2 SLP248 T00720033 58008,KEUG,2023-02-11T20:54:00Z,44.13,-123.22,7.2,3.3,20,10,,10.0,30.259842,1024.8,,,TRUE,,,,,,,OVC,1300,,,,,,,MVFR,-0.8,,,,,,,,,,,METAR,109.0
KEUG 111954Z 02010KT 10SM BKN013 OVC025 07/03 A3027 RMK AO2 SLP253 T00670033,KEUG,2023-02-11T19:54:00Z,44.13,-123.22,6.7,3.3,20,10,,10.0,30.268702,1025.3,,,TRUE,,,,,,,BKN,1300,OVC,2500,,,,,MVFR,,,,,,,,,,,,METAR,109.0
KEUG 111854Z 36012KT 10SM BKN010 06/03 A3029 RMK AO2 SLP257 T00610033,KEUG,2023-02-11T18:54:00Z,44.13,-123.22,6.1,3.3,360,12,,10.0,30.28937,1025.7,,,TRUE,,,,,,,BKN,1000,,,,,,,MVFR,,,,,,,,,,,,METAR,109.0
KEUG 111754Z 36011KT 10SM BKN012 06/03 A3028 RMK AO2 SLP256 T00560028 10056 20044 51009,KEUG,2023-02-11T17:54:00Z,44.13,-123.22,5.6,2.8,360,11,,10.0,30.280512,1025.6,,,TRUE,,,,,,,BKN,1200,,,,,,,MVFR,0.9,5.6,4.4,,,,,,,,,SPECI,109.0
KEUG 111654Z 35009KT 10SM BKN014 06/03 A3028 RMK AO2 SLP254 T00560028,KEUG,2023-02-11T16:54:00Z,44.13,-123.22,5.6,2.8,350,9,,10.0,30.280512,1025.4,,,TRUE,,,,,,,BKN,1400,,,,,,,MVFR,,,,,,,,,,,,METAR,109.0
KEUG 111554Z 01008KT 10SM BKN014 05/02 A3026 RMK AO2 SLP250 T00500022,KEUG,2023-02-11T15:54:00Z,44.13,-123.22,5.0,2.2,10,8,,10.0,30.259842,1025.0,,,TRUE,,,,,,,BKN,1400,,,,,,,MVFR,,,,,,,,,,,,METAR,109.0
KEUG 111533Z 01007KT 10SM BKN014 05/02 A3027 RMK AO2 T00500022,KEUG,2023-02-11T15:33:00Z,44.13,-123.22,5.0,2.2,10,7,,10.0,30.268702,,,,TRUE,,,,,,,BKN,1400,,,,,,,MVFR,,,,,,,,,,,,SPECI,109.0
KEUG 111454Z 01009KT 10SM OVC016 06/02 A3025 RMK AO2 SLP247 T00560017 51010,KEUG,2023-02-11T14:54:00Z,44.13,-123.22,5.6,1.7,10,9,,10.0,30.250984,1024.7,,,TRUE,,,,,,,OVC,1600,,,,,,,MVFR,1.0,,,,,,,,,,,METAR,109.0
KEUG 111354Z 01008KT 10SM OVC020 06/02 A3025 RMK AO2 SLP244 T00560022,KEUG,2023-02-11T13:54:00Z,44.13,-123.22,5.6,2.2,10,8,,10.0,30.250984,1024.4,,,TRUE,,,,,,,OVC,2000,,,,,,,MVFR,,,,,,,,,,,,METAR,109.0
KEUG 111254Z AUTO 02006KT 10SM OVC022 05/02 A3023 RMK AO2 SLP239 T00500022,KEUG,2023-02-11T12:54:00Z,44.13,-123.22,5.0,2.2,20,6,,10.0,30.230314,1023.9,,TRUE,TRUE,,,,,,,OVC,2200,,,,,,,MVFR,,,,,,,,,,,,METAR,109.0
KEUG 111154Z AUTO 36010KT 10SM OVC022 06/03 A3022 RMK AO2 SLP235 T00560028 10072 20050 51005,KEUG,2023-02-11T11:54:00Z,44.13,-123.22,5.6,2.8,360,10,,10.0,30.221457,1023.5,,TRUE,TRUE,,,,,,,OVC,2200,,,,,,,MVFR,0.5,7.2,5.0,,,,,,,,,METAR,109.0
KEUG 111054Z AUTO 35009KT 10SM OVC022 06/04 A3022 RMK AO2 SLP235 T00610039,KEUG,2023-02-11T10:54:00Z,44.13,-123.22,6.1,3.9,350,9,,10.0,30.221457,1023.5,,TRUE,TRUE,,,,,,,OVC,2200,,,,,,,MVFR,,,,,,,,,,,,METAR,109.0
KEUG 110954Z AUTO 01009KT 10SM OVC020 06/04 A3021 RMK AO2 SLP231 T00610039,KEUG,2023-02-11T09:54:00Z,44.13,-123.22,6.1,3.9,10,9,,10.0,30.209646,1023.1,,TRUE,TRUE,,,,,,,OVC,2000,,,,,,,MVFR,,,,,,,,,,,,METAR,109.0
KEUG 110854Z AUTO 03005KT 10SM BKN022 05/03 A3021 RMK AO2 SLP230 T00500028 53011,KEUG,2023-02-11T08:54:00Z,44.13,-123.22,5.0,2.8,30,5,,10.0,30.209646,1023.0,,TRUE,TRUE,,,,,,,BKN,2200,,,,,,,MVFR,1.1,,,,,,,,,,,METAR,109.0
KEUG 110754Z AUTO 36009KT 10SM FEW022 06/03 A3020 RMK AO2 SLP227 T00610033 401280056,KEUG,2023-02-11T07:54:00Z,44.13,-123.22,6.1,3.3,360,9,,10.0,30.200787,1022.7,,TRUE,TRUE,,,,,,,FEW,2200,,,,,,,VFR,,,,12.8,5.6,,,,,,,METAR,109.0
KEUG 110654Z 35010KT 10SM FEW040 06/04 A3018 RMK AO2 SLP220 T00560039,KEUG,2023-02-11T06:54:00Z,44.13,-123.22,5.6,3.9,350,10,,10.0,30.180119,1022.0,,,TRUE,,,,,,,FEW,4000,,,,,,,VFR,,,,,,,,,,,,METAR,109.0
KEUG 110554Z 35010KT 10SM FEW025 07/04 A3018 RMK AO2 SLP219 T00720044 10117 20067 53010,KEUG,2023-02-11T05:54:00Z,44.13,-123.22,7.2,4.4,350,10,,10.0,30.180119,1021.9,,,TRUE,,,,,,,FEW,2500,,,,,,,VFR,1.0,11.7,6.7,,,,,,,,,METAR,109.0
KEUG 110533Z 35008KT 10SM FEW027 07/05 A3018 RMK AO2 T00720050,KEUG,2023-02-11T05:33:00Z,44.13,-123.22,7.2,5.0,350,8,,10.0,30.180119,,,,TRUE,,,,,,,FEW,2700,,,,,,,VFR,,,,,,,,,,,,SPECI,109.0
KEUG 110503Z 36008KT 10SM BKN029 BKN050 07/06 A3017 RMK AO2 T00720056,KEUG,2023-02-11T05:03:00Z,44.13,-123.22,7.2,5.6,360,8,,10.0,30.171259,,,,TRUE,,,,,,,BKN,2900,BKN,5000,,,,,MVFR,,,,,,,,,,,,SPECI,109.0
KEUG 110454Z 36007KT 10SM SCT025 BKN050 07/05 A3017 RMK AO2 SLP217 T00670050,KEUG,2023-02-11T04:54:00Z,44.13,-123.22,6.7,5.0,360,7,,10.0,30.171259,1021.7,,,TRUE,,,,,,,SCT,2500,BKN,5000,,,,,VFR,,,,,,,,,,,,METAR,109.0
KEUG 110354Z 35009KT 10SM FEW035 FEW045 08/06 A3014 RMK AO2 SLP209 T00780056,KEUG,2023-02-11T03:54:00Z,44.13,-123.22,7.8,5.6,350,9,,10.0,30.138779,1020.9,,,TRUE,,,,,,,FEW,3500,FEW,4500,,,,,VFR,,,,,,,,,,,,METAR,109.0
KEUG 110254Z 35008KT 10SM SCT028 SCT130 08/06 A3014 RMK AO2 SLP209 T00780056 53007,KEUG,2023-02-11T02:54:00Z,44.13,-123.22,7.8,5.6,350,8,,10.0,30.138779,1020.9,,,TRUE,,,,,,,SCT,2800,SCT,13000,,,,,VFR,0.7,,,,,,,,,,,METAR,109.0
KEUG 110154Z 36009KT 10SM FEW022 FEW065 SCT130 09/06 A3013 RMK AO2 SLP205 T00890061,KEUG,2023-02-11T01:54:00Z,44.13,-123.22,8.9,6.1,360,9,,10.0,30.129921,1020.5,,,TRUE,,,,,,,FEW,2200,FEW,6500,SCT,13000,,,VFR,,,,,,,,,,,,METAR,109.0
KEUG 110054Z 01010KT 10SM FEW023 BKN060 11/07 A3012 RMK AO2 SLP200 T01110067,KEUG,2023-02-11T00:54:00Z,44.13,-123.22,11.1,6.7,10,10,,10.0,30.121063,1020.0,,,TRUE,,,,,,,FEW,2300,BKN,6000,,,,,VFR,,,,,,,,,,,,METAR,109.0
KEUG 102354Z 35007KT 10SM SCT024 SCT060 12/07 A3012 RMK AO2 SLP201 T01170067 10128 20089 56008,KEUG,2023-02-10T23:54:00Z,44.13,-123.22,11.7,6.7,350,7,,10.0,30.121063,1020.1,,,TRUE,,,,,,,SCT,2400,SCT,6000,,,,,VFR,-0.8,12.8,8.9,,,,,,,,,METAR,109.0
KEUG 102304Z 01009KT 10SM SCT023 BKN060 12/07 A3013 RMK AO2 T01220067,KEUG,2023-02-10T23:04:00Z,44.13,-123.22,12.2,6.7,10,9,,10.0,30.129921,,,,TRUE,,,,,,,SCT,2300,BKN,6000,,,,,VFR,,,,,,,,,,,,METAR,109.0
KEUG 102254Z 36010KT 10SM BKN019 BKN060 12/07 A3013 RMK AO2 SLP202 T01220072,KEUG,2023-02-10T22:54:00Z,44.13,-123.22,12.2,7.2,360,10,,10.0,30.129921,1020.2,,,TRUE,,,,,,,BKN,1900,BKN,6000,,,,,MVFR,,,,,,,,,,,,METAR,109.0
KEUG 102154Z 36011KT 10SM BKN017 BKN060 BKN200 12/07 A3013 RMK AO2 SLP204 T01220067,KEUG,2023-02-10T21:54:00Z,44.13,-123.22,12.2,6.7,360,11,,10.0,30.129921,1020.4,,,TRUE,,,,,,,BKN,1700,BKN,6000,BKN,20000,,,MVFR,,,,,,,,,,,,METAR,109.0
KEUG 102124Z 34009KT 10SM BKN017 BKN060 BKN200 12/07 A3014 RMK AO2 T01170072,KEUG,2023-02-10T21:24:00Z,44.13,-123.22,11.7,7.2,340,9,,10.0,30.138779,,,,TRUE,,,,,,,BKN,1700,BKN,6000,BKN,20000,,,MVFR,,,,,,,,,,,,SPECI,109.0
KEUG 102054Z 35008KT 10SM BKN013 BKN065 BKN200 12/07 A3015 RMK AO2 SLP210 T01170072 58014,KEUG,2023-02-10T20:54:00Z,44.13,-123.22,11.7,7.2,350,8,,10.0,30.15059,1021.0,,,TRUE,,,,,,,BKN,1300,BKN,6500,BKN,20000,,,MVFR,-1.4,,,,,,,,,,,METAR,109.0
KEUG 102036Z 34010KT 10SM BKN013 BKN065 BKN200 11/07 A3015 RMK AO2 T01110072,KEUG,2023-02-10T20:36:00Z,44.13,-123.22,11.1,7.2,340,10,,10.0,30.15059,,,,TRUE,,,,,,,BKN,1300,BKN,6500,BKN,20000,,,MVFR,,,,,,,,,,,,METAR,109.0
KEUG 101954Z 35008KT 10SM SCT011 BKN045 BKN200 11/07 A3017 RMK AO2 SLP217 T01110072,KEUG,2023-02-10T19:54:00Z,44.13,-123.22,11.1,7.2,350,8,,10.0,30.171259,1021.7,,,TRUE,,,,,,,SCT,1100,BKN,4500,BKN,20000,,,VFR,,,,,,,,,,,,METAR,109.0
KEUG 101854Z 35004KT 10SM FEW049 SCT080 BKN200 11/06 A3018 RMK AO2 SLP222 T01060061,KEUG,2023-02-10T18:54:00Z,44.13,-123.22,10.6,6.1,350,4,,10.0,30.180119,1022.2,,,TRUE,,,,,,,FEW,4900,SCT,8000,BKN,20000,,,VFR,,,,,,,,,,,,METAR,109.0
KEUG 101754Z 08004KT 10SM BKN045 BKN055 OVC200 09/06 A3019 RMK AO2 SLP223 T00890056 10089 20061 50003,KEUG,2023-02-10T17:54:00Z,44.13,-123.22,8.9,5.6,80,4,,10.0,30.188976,1022.3,,,TRUE,,,,,,,BKN,4500,BKN,5500,OVC,20000,,,VFR,0.3,8.9,6.1,,,,,,,,,METAR,109.0
KEUG 101654Z 35003KT 10SM OVC039 08/06 A3019 RMK AO2 SLP223 T00780056,KEUG,2023-02-10T16:54:00Z,44.13,-123.22,7.8,5.6,350,3,,10.0,30.188976,1022.3,,,TRUE,,,,,,,OVC,3900,,,,,,,VFR,,,,,,,,,,,,METAR,109.0
KEUG 101554Z 14006KT 10SM SCT042 BKN070 OVC085 07/05 A3018 RMK AO2 SLP222 T00720050,KEUG,2023-02-10T15:54:00Z,44.13,-123.22,7.2,5.0,140,6,,10.0,30.180119,1022.2,,,TRUE,,,,,,,SCT,4200,BKN,7000,OVC,8500,,,VFR,,,,,,,,,,,,METAR,109.0
KEUG 101454Z 13004KT 10SM SCT035 BKN055 OVC075 07/04 A3018 RMK AO2 SLP220 T00670044 55003,KEUG,2023-02-10T14:54:00Z,44.13,-123.22,6.7,4.4,130,4,,10.0,30.180119,1022.0,,,TRUE,,,,,,,SCT,3500,BKN,5500,OVC,7500,,,VFR,-0.3,,,,,,,,,,,METAR,109.0
KEUG 101354Z 00000KT 10SM SCT036 OVC055 07/05 A3017 RMK AO2 SLP218 T00720050,KEUG,2023-02-10T13:54:00Z,44.13,-123.22,7.2,5.0,0,0,,10.0,30.171259,1021.8,,,TRUE,,,,,,,SCT,3600,OVC,5500,,,,,VFR,,,,,,,,,,,,SPECI,109.0
KEUG 101254Z AUTO 26004KT 10SM SCT032 OVC046 08/06 A3019 RMK AO2 SLP222 T00780056,KEUG,2023-02-10T12:54:00Z,44.13,-123.22,7.8,5.6,260,4,,10.0,30.188976,1022.2,,TRUE,TRUE,,,,,,,SCT,3200,OVC,4600,,,,,VFR,,,,,,,,,,,,METAR,109.0
KEUG 101154Z AUTO 16005KT 10SM SCT033 OVC055 08/05 A3019 RMK AO2 SLP222 T00780050 10106 20072 57008,KEUG,2023-02-10T11:54:00Z,44.13,-123.22,7.8,5.0,160,5,,10.0,30.188976,1022.2,,TRUE,TRUE,,,,,,,SCT,3300,OVC,5500,,,,,VFR,-0.8,10.6,7.2,,,,,,,,,METAR,109.0
KEUG 101054Z AUTO 15005KT 10SM OVC055 08/06 A3019 RMK AO2 SLP224 T00780056,KEUG,2023-02-10T10:54:00Z,44.13,-123.22,7.8,5.6,150,5,,10.0,30.188976,1022.4,,TRUE,TRUE,,,,,,,OVC,5500,,,,,,,VFR,,,,,,,,,,,,METAR,109.0
KEUG 100954Z AUTO 14006KT 10SM FEW028 BKN036 OVC060 08/06 A3020 RMK AO2 SLP229 T00830056,KEUG,2023-02-10T09:54:00Z,44.13,-123.22,8.3,5.6,140,6,,10.0,30.200787,1022.9,,TRUE,TRUE,,,,,,,FEW,2800,BKN,3600,OVC,6000,,,VFR,,,,,,,,,,,,METAR,109.0
KEUG 100854Z AUTO 18006KT 10SM FEW048 OVC060 08/05 A3021 RMK AO2 SLP231 T00830050 50000,KEUG,2023-02-10T08:54:00Z,44.13,-123.22,8.3,5.0,180,6,,10.0,30.209646,1023.1,,TRUE,TRUE,,,,,,,FEW,4800,OVC,6000,,,,,VFR,0.0,,,,,,,,,,,METAR,109.0
KEUG 100837Z AUTO 19007KT 10SM SCT025 BKN046 OVC060 09/05 A3022 RMK AO2 T00890050,KEUG,2023-02-10T08:37:00Z,44.13,-123.22,8.9,5.0,190,7,,10.0,30.221457,,,TRUE,TRUE,,,,,,,SCT,2500,BKN,4600,OVC,6000,,,VFR,,,,,,,,,,,,SPECI,109.0
KEUG 100807Z AUTO 18009KT 10SM BKN029 09/05 A3022 RMK AO2 T00890050,KEUG,2023-02-10T08:07:00Z,44.13,-123.22,8.9,5.0,180,9,,10.0,30.221457,,,TRUE,TRUE,,,,,,,BKN,2900,,,,,,,MVFR,,,,,,,,,,,,SPECI,109.0
KEUG 100754Z AUTO 16007KT 10SM SCT029 BKN055 09/05 A3022 RMK AO2 SLP235 T00890050 401781022,KEUG,2023-02-10T07:54:00Z,44.13,-123.22,8.9,5.0,160,7,,10.0,30.221457,1023.5,,TRUE,TRUE,,,,,,,SCT,2900,BKN,5500,,,,,VFR,,,,17.8,-2.2,,,,,,,METAR,109.0
KEUG 100654Z 22010KT 10SM FEW032 FEW100 09/05 A3022 RMK AO2 SLP234 T00940050,KEUG,2023-02-10T06:54:00Z,44.13,-123.22,9.4,5.0,220,10,,10.0,30.221457,1023.4,,,TRUE,,,,,,,FEW,3200,FEW,10000,,,,,VFR,,,,,,,,,,,,METAR,109.0
KEUG 100554Z 22009KT 10SM FEW034 SCT045 OVC085 10/04 A3021 RMK AO2 RAB27E32 SLP232 P0000 60000 T01000044 10172 20083 53020,KEUG,2023-02-10T05:54:00Z,44.13,-123.22,10.0,4.4,220,9,,10.0,30.209646,1023.2,,,TRUE,,,,,,,FEW,3400,SCT,4500,OVC,8500,,,VFR,2.0,17.2,8.3,,,0.005,,0.005,,,,METAR,109.0
KEUG 100454Z 22008KT 10SM BKN070 OVC100 11/02 A3019 RMK AO2 RAB10E12B29E38 SLP225 P0000 T01110022,KEUG,2023-02-10T04:54:00Z,44.13,-123.22,11.1,2.2,220,8,,10.0,30.188976,1022.5,,,TRUE,,,,,,,BKN,7000,OVC,10000,,,,,VFR,,,,,,0.005,,,,,,METAR,109.0
KEUG 100354Z 19006KT 10SM BKN100 11/03 A3016 RMK AO2 SLP216 T01060028,KEUG,2023-02-10T03:54:00Z,44.13,-123.22,10.6,2.8,190,6,,10.0,30.159449,1021.6,,,TRUE,,,,,,,BKN,10000,,,,,,,VFR,,,,,,,,,,,,METAR,109.0
KEUG 100254Z 20005KT 10SM FEW110 FEW250 10/02 A3015 RMK AO2 SLP212 T01000022 53010,KEUG,2023-02-10T02:54:00Z,44.13,-123.22,10.0,2.2,200,5,,10.0,30.15059,1021.2,,,TRUE,,,,,,,FEW,11000,FEW,25000,,,,,VFR,1.0,,,,,,,,,,,METAR,109.0
KEUG 100154Z 26007KT 10SM FEW090 FEW250 12/03 A3013 RMK AO2 SLP204 T01220033,KEUG,2023-02-10T01:54:00Z,44.13,-123.22,12.2,3.3,260,7,,10.0,30.129921,1020.4,,,TRUE,,,,,,,FEW,9000,FEW,25000,,,,,VFR,,,,,,,,,,,,METAR,109.0
KEUG 100054Z 26004KT 10SM CLR 16/03 A3012 RMK AO2 SLP200 T01610033,KEUG,2023-02-10T00:54:00Z,44.13,-123.22,16.1,3.3,260,4,,10.0,30.121063,1020.0,,,TRUE,,,,,,,CLR,,,,,,,,VFR,,,,,,,,,,,,METAR,109.0
KEUG 092354Z 29003KT 10SM FEW150 FEW250 17/04 A3012 RMK AO2 SLP200 T01720044 10178 20039 56024,KEUG,2023-02-09T23:54:00Z,44.13,-123.22,17.2,4.4,290,3,,10.0,30.121063,1020.0,,,TRUE,,,,,,,FEW,15000,FEW,25000,,,,,VFR,-2.4,17.8,3.9,,,,,,,,,METAR,109.0
KEUG 092254Z 00000KT 10SM FEW250 17/04 A3013 RMK AO2 SLP203 T01670044,KEUG,2023-02-09T22:54:00Z,44.13,-123.22,16.7,4.4,0,0,,10.0,30.129921,1020.3,,,TRUE,,,,,,,FEW,25000,,,,,,,VFR,,,,,,,,,,,,METAR,109.0
KEUG 092154Z 19003KT 10SM FEW250 15/04 A3015 RMK AO2 SLP211 T01500039,KEUG,2023-02-09T21:54:00Z,44.13,-123.22,15.0,3.9,190,3,,10.0,30.15059,1021.1,,,TRUE,,,,,,,FEW,25000,,,,,,,VFR,,,,,,,,,,,,SPECI,109.0
KEUG 092054Z 22003KT 10SM FEW250 13/04 A3019 RMK AO2 SLP225 T01330039 57021,KEUG,2023-02-09T20:54:00Z,44.13,-123.22,13.3,3.9,220,3,,10.0,30.188976,1022.5,,,TRUE,,,,,,,FEW,25000,,,,,,,VFR,-2.1,,,,,,,,,,,METAR,109.0
KEUG 091954Z 26003KT 10SM FEW250 11/04 A3021 RMK AO2 SLP232 T01060044,KEUG,2023-02-09T19:54:00Z,44.13,-123.22,10.6,4.4,260,3,,10.0,30.209646,1023.2,,,TRUE,,,,,,,FEW,25000,,,,,,,VFR,,,,,,,,,,,,METAR,109.0
KEUG 091854Z 23003KT 10SM SCT250 08/04 A3023 RMK AO2 SLP240 T00780039,KEUG,2023-02-09T18:54:00Z,44.13,-123.22,7.8,3.9,230,3,,10.0,30.230314,1024.0,,,TRUE,,,,,,,SCT,25000,,,,,,,VFR,,,,,,,,,,,,METAR,109.0
KEUG 091754Z 20003KT 10SM FEW002 BKN250 04/03 A3025 RMK AO2 SLP248 I6001 T00390028 10039 21022 58007,KEUG,2023-02-09T17:54:00Z,44.13,-123.22,3.9,2.8,200,3,,10.0,30.250984,1024.8,,,TRUE,,,,,,,FEW,200,BKN,25000,,,,,VFR,-0.7,3.9,-2.2,,,,,,,,,METAR,109.0
KEUG 091720Z 00000KT 5SM BR FEW002 BKN250 02/02 A3026 RMK AO2 T00220017,KEUG,2023-02-09T17:20:00Z,44.13,-123.22,2.2,1.7,0,0,,5.0,30.259842,,,,TRUE,,,,,,BR,FEW,200,BKN,25000,,,,,MVFR,,,,,,,,,,,,SPECI,109.0
KEUG 091654Z 21003KT 2SM R16R/3000V6000FT BR SCT002 BKN250 01/00 A3027 RMK AO2 SLP253 T00060000,KEUG,2023-02-09T16:54:00Z,44.13,-123.22,0.6,0.0,210,3,,2.0,30.268702,1025.3,,,TRUE,,,,,,BR,SCT,200,BKN,25000,,,,,IFR,,,,,,,,,,,,METAR,109.0
KEUG 091648Z 00000KT 2SM R16R/3000V4000FT BR SCT002 BKN200 01/00 A3027 RMK AO2,KEUG,2023-02-09T16:48:00Z,44.13,-123.22,1.0,0.0,0,0,,2.0,30.268702,,,,TRUE,,,,,,BR,SCT,200,BKN,20000,,,,,IFR,,,,,,,,,,,,METAR,109.0
KEUG 091623Z 00000KT 2SM R16R/3000VP6000FT BR BKN002 BKN150 00/M01 A3028 RMK AO2 VIS W-NW 1 T00001006,KEUG,2023-02-09T16:23:00Z,44.13,-123.22,0.0,-0.6,0,0,,2.0,30.280512,,,,TRUE,,,,,,BR,BKN,200,BKN,15000,,,,,LIFR,,,,,,,,,,,,SPECI,109.0
KEUG 091554Z 21004KT 8SM FEW002 SCT120 M02/M02 A3028 RMK AO2 SLP256 T10171022,KEUG,2023-02-09T15:54:00Z,44.13,-123.22,-1.7,-2.2,210,4,,8.0,30.280512,1025.6,,,TRUE,,,,,,,FEW,200,SCT,12000,,,,,VFR,,,,,,,,,,,,SPECI,109.0
KEUG 091549Z 20003KT 8SM R16R/3000VP6000FT FEW002 SCT120 M02/M02 A3027 RMK AO2,KEUG,2023-02-09T15:49:00Z,44.13,-123.22,-2.0,-2.0,200,3,,8.0,30.268702,,,,TRUE,,,,,,,FEW,200,SCT,12000,,,,,VFR,,,,,,,,,,,,METAR,109.0
KEUG 091523Z 15004KT 1/2SM R16R/P6000FT BR FEW002 SCT120 M02/M03 A3028 RMK AO2 SFC VIS 1 VIS W 1/2 T10171028,KEUG,2023-02-09T15:23:00Z,44.13,-123.22,-1.7,-2.8,150,4,,0.5,30.280512,,,,TRUE,,,,,,BR,FEW,200,SCT,12000,,,,,LIFR,,,,,,,,,,,,SPECI,109.0
KEUG 091454Z 14003KT 1/4SM R16R/4000VP6000FT FZFG BKN001 M01/M02 A3028 RMK AO2 TWR VIS 1/2 SLP257 FG BKN001 I3001 T10111022 58014,KEUG,2023-02-09T14:54:00Z,44.13,-123.22,-1.1,-2.2,140,3,,0.25,30.280512,1025.7,,,TRUE,,,,,,FZFG,BKN,100,,,,,,,LIFR,-1.4,,,,,,,,,,,METAR,109.0
KEUG 091434Z 00000KT 1/4SM R16R/4000VP6000FT FZFG VV002 M02/M03 A3028 RMK AO2 TWR VIS 1/2 T10171028,KEUG,2023-02-09T14:34:00Z,44.13,-123.22,-1.7,-2.8,0,0,,0.25,30.280512,,,,TRUE,,,,,,FZFG,OVX,0,,,,,,,LIFR,,,,,,,,,,,200,SPECI,109.0
KEUG 091354Z 00000KT 3/4SM R16R/3500VP6000FT BR BKN006 M01/M02 A3029 RMK AO2 SLP261 I1001 T10111022,KEUG,2023-02-09T13:54:00Z,44.13,-123.22,-1.1,-2.2,0,0,,0.75,30.28937,1026.1,,,TRUE,,,,,,BR,BKN,600,,,,,,,LIFR,,,,,,,,,,,,METAR,109.0
KEUG 091339Z AUTO 26004KT 3/4SM R16R/3000VP6000FT BR VV006 M01/M02 A3030 RMK AO2 T10111017,KEUG,2023-02-09T13:39:00Z,44.13,-123.22,-1.1,-1.7,260,4,,0.75,30.301182,,,TRUE,TRUE,,,,,,BR,OVX,0,,,,,,,LIFR,,,,,,,,,,,600,METAR,109.0
KEUG 091337Z AUTO 27003KT 1 1/4SM R16R/3000VP6000FT BR SCT007 M01/M02 A3030 RMK AO2 VIS 1/2V5 T10061017,KEUG,2023-02-09T13:37:00Z,44.13,-123.22,-0.6,-1.7,270,3,,1.25,30.301182,,,TRUE,TRUE,,,,,,BR,SCT,700,,,,,,,IFR,,,,,,,,,,,,METAR,109.0
KEUG 091330Z AUTO 26003KT 2SM BR FEW009 M01/M02 A3030 RMK AO2 VIS 1 RNW 34 T10061017,KEUG,2023-02-09T13:30:00Z,44.13,-123.22,-0.6,-1.7,260,3,,2.0,30.301182,,,TRUE,TRUE,,,,,,BR,FEW,900,,,,,,,IFR,,,,,,,,,,,,SPECI,109.0
KEUG 091324Z AUTO 00000KT 1 1/4SM R16R/5500VP6000FT BR FEW009 M01/M02 A3030 RMK AO2 T10111022,KEUG,2023-02-09T13:24:00Z,44.13,-123.22,-1.1,-2.2,0,0,,1.25,30.301182,,,TRUE,TRUE,,,,,,BR,FEW,900,,,,,,,IFR,,,,,,,,,,,,SPECI,109.0
KEUG 091257Z AUTO 00000KT 3/4SM R16R/5500VP6000FT BR VV008 M01/M02 A3031 RMK AO2 T10111017,KEUG,2023-02-09T12:57:00Z,44.13,-123.22,-1.1,-1.7,0,0,,0.75,30.31004,,,TRUE,TRUE,,,,,,BR,OVX,0,,,,,,,LIFR,,,,,,,,,,,800,METAR,109.0
KEUG 091251Z AUTO 00000KT 1 1/2SM R16R/6000VP6000FT BR CLR M01/M02 A3031 RMK AO2 VIS 1/2 RNW 34 CIG 002 RNW 34 SLP268 T10061017,KEUG,2023-02-09T12:51:00Z,44.13,-123.22,-0.6,-1.7,0,0,,1.5,30.31004,1026.8,,TRUE,TRUE,,,,,,BR,CLR,,,,,,,,IFR,,,,,,,,,,,,METAR,109.0
KEUG 091250Z AUTO 00000KT 1 3/4SM R16R/6000VP6000FT BR CLR M01/M01 A3031 RMK AO2 VIS 1/2 RNW 34 CIG 002 RNW 34,KEUG,2023-02-09T12:50:00Z,44.13,-123.22,-1.0,-1.0,0,0,,1.75,30.31004,,,TRUE,TRUE,,,,,,BR,CLR,,,,,,,,IFR,,,,,,,,,,,,SPECI,109.0
KEUG 091228Z AUTO 00000KT 3SM BR CLR M01/M02 A3031 RMK AO2 VIS 1/4 RNW 34 CIG 001 RNW 34 T10111022,KEUG,2023-02-09T12:28:00Z,44.13,-123.22,-1.1,-2.2,0,0,,3.0,30.31004,,,TRUE,TRUE,,,,,,BR,CLR,,,,,,,,MVFR,,,,,,,,,,,,SPECI,109.0
KEUG 091225Z AUTO 18003KT 1 1/2SM BR CLR M01/M02 A3032 RMK AO2 VIS 1/4 RNW 34 CIG 001 RNW 34 T10111022,KEUG,2023-02-09T12:25:00Z,44.13,-123.22,-1.1,-2.2,180,3,,1.5,30.318897,,,TRUE,TRUE,,,,,,BR,CLR,,,,,,,,IFR,,,,,,,,,,,,SPECI,109.0
KEUG 091218Z AUTO 00000KT 3/4SM R16R/4000VP6000FT BR CLR M01/M02 A3032 RMK AO2 T10061017,KEUG,2023-02-09T12:18:00Z,44.13,-123.22,-0.6,-1.7,0,0,,0.75,30.318897,,,TRUE,TRUE,,,,,,BR,CLR,,,,,,,,LIFR,,,,,,,,,,,,SPECI,109.0
KEUG 091207Z AUTO 00000KT 3/4SM R16R/3000VP6000FT BR VV002 M01/M02 A3032 RMK AO2 T10111017,KEUG,2023-02-09T12:07:00Z,44.13,-123.22,-1.1,-1.7,0,0,,0.75,30.318897,,,TRUE,TRUE,,,,,,BR,OVX,0,,,,,,,LIFR,,,,,,,,,,,200,SPECI,109.0
KEUG 091154Z AUTO 00000KT 1 1/4SM BR FEW002 M01/M02 A3032 RMK AO2 VIS 1/2 RNW 34 SLP272 I1000 I6000 T10111022 10022 21017 56022,KEUG,2023-02-09T11:54:00Z,44.13,-123.22,-1.1,-2.2,0,0,,1.25,30.318897,1027.2,,TRUE,TRUE,,,,,,BR,FEW,200,,,,,,,IFR,-2.2,2.2,-1.7,,,,,,,,,METAR,109.0
KEUG 091152Z AUTO 00000KT 1 1/4SM R16R/3500VP6000FT BR FEW002 M01/M02 A3033 RMK AO2 VIS 1/2 RNW 34 I1000,KEUG,2023-02-09T11:52:00Z,44.13,-123.22,-1.0,-2.0,0,0,,1.25,30.33071,,,TRUE,TRUE,,,,,,BR,FEW,200,,,,,,,IFR,,,,,,,,,,,,METAR,109.0
KEUG 091147Z AUTO 00000KT 2 1/2SM R16R/2400VP6000FT BR FEW002 M01/M02 A3033 RMK AO2 VIS 3/4 RNW 34 I1000 T10111022,KEUG,2023-02-09T11:47:00Z,44.13,-123.22,-1.1,-2.2,0,0,,2.5,30.33071,,,TRUE,TRUE,,,,,,BR,FEW,200,,,,,,,IFR,,,,,,,,,,,,SPECI,109.0
KEUG 091105Z AUTO 22003KT 4SM BR CLR M01/M02 A3034 RMK AO2 T10111022,KEUG,2023-02-09T11:05:00Z,44.13,-123.22,-1.1,-2.2,220,3,,4.0,30.339567,,,TRUE,TRUE,,,,,,BR,CLR,,,,,,,,MVFR,,,,,,,,,,,,METAR,109.0
KEUG 091059Z AUTO 24004KT 1 1/2SM R16R/4500VP6000FT BR FEW002 M02/M02 A3035 RMK AO2 VIS 1V5 T10171022,KEUG,2023-02-09T10:59:00Z,44.13,-123.22,-1.7,-2.2,240,4,,1.5,30.351377,,,TRUE,TRUE,,,,,,BR,FEW,200,,,,,,,IFR,,,,,,,,,,,,SPECI,109.0
KEUG 091054Z AUTO 26004KT 1SM R16R/4500VP6000FT BR VV002 M01/M02 A3034 RMK AO2 SLP278 T10111017,KEUG,2023-02-09T10:54:00Z,44.13,-123.22,-1.1,-1.7,260,4,,1.0,30.339567,1027.8,,TRUE,TRUE,,,,,,BR,OVX,0,,,,,,,LIFR,,,,,,,,,,,200,METAR,109.0
KEUG 091044Z AUTO 00000KT 3/4SM R16R/4000VP6000FT BR CLR M01/M02 A3034 RMK AO2 T10061017,KEUG,2023-02-09T10:44:00Z,44.13,-123.22,-0.6,-1.7,0,0,,0.75,30.339567,,,TRUE,TRUE,,,,,,BR,CLR,,,,,,,,LIFR,,,,,,,,,,,,METAR,109.0
KEUG 091034Z AUTO 00000KT 1/2SM R16R/4000VP6000FT FZFG VV002 M01/M02 A3035 RMK AO2 T10061017,KEUG,2023-02-09T10:34:00Z,44.13,-123.22,-0.6,-1.7,0,0,,0.5,30.351377,,,TRUE,TRUE,,,,,,FZFG,OVX,0,,,,,,,LIFR,,,,,,,,,,,200,SPECI,109.0
KEUG 091027Z AUTO 00000KT 1/2SM R16R/5500VP6000FT FZFG CLR M01/M01 A3035 RMK AO2 T10061011,KEUG,2023-02-09T10:27:00Z,44.13,-123.22,-0.6,-1.1,0,0,,0.5,30.351377,,,TRUE,TRUE,,,,,,FZFG,CLR,,,,,,,,LIFR,,,,,,,,,,,,SPECI,109.0
KEUG 091018Z AUTO 00000KT 1 1/4SM BR CLR M01/M01 A3036 RMK AO2 T10061011,KEUG,2023-02-09T10:18:00Z,44.13,-123.22,-0.6,-1.1,0,0,,1.25,30.360237,,,TRUE,TRUE,,,,,,BR,CLR,,,,,,,,IFR,,,,,,,,,,,,SPECI,109.0
KEUG 091010Z AUTO 00000KT 2 1/2SM BR FEW007 00/M01 A3036 RMK AO2 T00001011,KEUG,2023-02-09T10:10:00Z,44.13,-123.22,0.0,-1.1,0,0,,2.5,30.360237,,,TRUE,TRUE,,,,,,BR,FEW,700,,,,,,,IFR,,,,,,,,,,,,SPECI,109.0
KEUG 091007Z AUTO 00000KT 1 1/4SM R16R/5500VP6000FT BR SCT007 00/M01 A3036 RMK AO2 T00001006,KEUG,2023-02-09T10:07:00Z,44.13,-123.22,0.0,-0.6,0,0,,1.25,30.360237,,,TRUE,TRUE,,,,,,BR,SCT,700,,,,,,,IFR,,,,,,,,,,,,SPECI,109.0
KEUG 090954Z AUTO 26003KT 3/4SM R16R/5000VP6000FT BR VV007 00/M01 A3037 RMK AO2 SLP286 T00001006,KEUG,2023-02-09T09:54:00Z,44.13,-123.22,0.0,-0.6,260,3,,0.75,30.369095,1028.6,,TRUE,TRUE,,,,,,BR,OVX,0,,,,,,,LIFR,,,,,,,,,,,700,METAR,109.0
KEUG 090934Z AUTO 00000KT 1/2SM R16R/3000V5500FT FG BKN007 OVC110 01/M01 A3037 RMK AO2 T00061006,KEUG,2023-02-09T09:34:00Z,44.13,-123.22,0.6,-0.6,0,0,,0.5,30.369095,,,TRUE,TRUE,,,,,,FG,BKN,700,OVC,11000,,,,,LIFR,,,,,,,,,,,,SPECI,109.0
KEUG 090926Z AUTO 00000KT 1SM R16R/3000V5000FT BR BKN009 OVC110 00/M01 A3038 RMK AO2 VIS 1/2V5 T00001011,KEUG,2023-02-09T09:26:00Z,44.13,-123.22,0.0,-1.1,0,0,,1.0,30.380905,,,TRUE,TRUE,,,,,,BR,BKN,900,OVC,11000,,,,,IFR,,,,,,,,,,,,SPECI,109.0
KEUG 090923Z AUTO 00000KT 2 1/2SM R16R/3500VP6000FT BR BKN009 BKN110 00/M01 A3038 RMK AO2 VIS 1 RNW 34 T00001011,KEUG,2023-02-09T09:23:00Z,44.13,-123.22,0.0,-1.1,0,0,,2.5,30.380905,,,TRUE,TRUE,,,,,,BR,BKN,900,BKN,11000,,,,,IFR,,,,,,,,,,,,SPECI,109.0
KEUG 090920Z AUTO 00000KT 6SM R16R/3500VP6000FT BR SCT009 BKN110 00/M01 A3038 RMK AO2 VIS 1 RNW 34 T00001006,KEUG,2023-02-09T09:20:00Z,44.13,-123.22,0.0,-0.6,0,0,,6.0,30.380905,,,TRUE,TRUE,,,,,,BR,SCT,900,BKN,11000,,,,,VFR,,,,,,,,,,,,SPECI,109.0
KEUG 090854Z AUTO 18003KT 5SM BR SCT110 00/M01 A3039 RMK AO2 VIS 3/4 RNW 34 SLP294 T00001006 58012,KEUG,2023-02-09T08:54:00Z,44.13,-123.22,0.0,-0.6,180,3,,5.0,30.389763,1029.4,,TRUE,TRUE,,,,,,BR,SCT,11000,,,,,,,MVFR,-1.2,,,,,,,,,,,METAR,109.0
KEUG 090820Z AUTO 21003KT 3SM BR CLR 01/01 A3040 RMK AO2 VIS 1/2 RNW 34 T00110006,KEUG,2023-02-09T08:20:00Z,44.13,-123.22,1.1,0.6,210,3,,3.0,30.398623,,,TRUE,TRUE,,,,,,BR,CLR,,,,,,,,MVFR,,,,,,,,,,,,SPECI,109.0
KEUG 090814Z AUTO 20003KT 1 1/2SM R16R/4000VP6000FT BR FEW110 01/00 A3041 RMK AO2 VIS 1/2 RNW 34 T00060000,KEUG,2023-02-09T08:14:00Z,44.13,-123.22,0.6,0.0,200,3,,1.5,30.410433,,,TRUE,TRUE,,,,,,BR,FEW,11000,,,,,,,IFR,,,,,,,,,,,,SPECI,109.0
KEUG 090809Z AUTO 00000KT 3/4SM R16R/3500VP6000FT BR FEW003 FEW110 01/00 A3041 RMK AO2 T00060000,KEUG,2023-02-09T08:09:00Z,44.13,-123.22,0.6,0.0,0,0,,0.75,30.410433,,,TRUE,TRUE,,,,,,BR,FEW,300,FEW,11000,,,,,LIFR,,,,,,,,,,,,SPECI,109.0
KEUG 090802Z AUTO 00000KT 1SM R16R/3500VP6000FT BR FEW003 FEW110 01/00 A3041 RMK AO2 T00060000,KEUG,2023-02-09T08:02:00Z,44.13,-123.22,0.6,0.0,0,0,,1.0,30.410433,,,TRUE,TRUE,,,,,,BR,FEW,300,FEW,11000,,,,,IFR,,,,,,,,,,,,SPECI,109.0
KEUG 090759Z AUTO 00000KT 1 3/4SM BR FEW110 01/00 A3041 RMK AO2 VIS 1 RNW 34 T00060000,KEUG,2023-02-09T07:59:00Z,44.13,-123.22,0.6,0.0,0,0,,1.75,30.410433,,,TRUE,TRUE,,,,,,BR,FEW,11000,,,,,,,IFR,,,,,,,,,,,,METAR,109.0
KEUG 090754Z AUTO 00000KT 6SM BR FEW110 01/M01 A3041 RMK AO2 VIS 1 1/4 RNW 34 SLP299 T00061006 401001011,KEUG,2023-02-09T07:54:00Z,44.13,-123.22,0.6,-0.6,0,0,,6.0,30.410433,1029.9,,TRUE,TRUE,,,,,,BR,FEW,11000,,,,,,,VFR,,,,10.0,-1.1,,,,,,,METAR,109.0
KEUG 090654Z 25005KT 3SM R16R/6000VP6000FT BR BCFG SCT001 SCT130 02/01 A3042 RMK AO2 TWR VIS 10 SLP303 FG SCT001 T00170011,KEUG,2023-02-09T06:54:00Z,44.13,-123.22,1.7,1.1,250,5,,3.0,30.41929,1030.3,,,TRUE,,,,,,BR BCFG,SCT,100,SCT,13000,,,,,MVFR,,,,,,,,,,,,METAR,109.0
KEUG 090554Z 00000KT 3SM R16R/5000VP6000FT BR FEW130 02/01 A3043 RMK AO2 SLP306 T00170011 10100 20017 58004,KEUG,2023-02-09T05:54:00Z,44.13,-123.22,1.7,1.1,0,0,,3.0,30.431103,1030.6,,,TRUE,,,,,,BR,FEW,13000,,,,,,,MVFR,-0.4,10.0,1.7,,,,,,,,,METAR,109.0
KEUG 090454Z 16003KT 3SM BR SCT130 03/02 A3043 RMK AO2 SLP308 T00280022,KEUG,2023-02-09T04:54:00Z,44.13,-123.22,2.8,2.2,160,3,,3.0,30.431103,1030.8,,,TRUE,,,,,,BR,SCT,13000,,,,,,,MVFR,,,,,,,,,,,,METAR,109.0
KEUG 090354Z 00000KT 6SM BR SCT130 03/03 A3043 RMK AO2 SLP309 T00330028,KEUG,2023-02-09T03:54:00Z,44.13,-123.22,3.3,2.8,0,0,,6.0,30.431103,1030.9,,,TRUE,,,,,,BR,SCT,13000,,,,,,,VFR,,,,,,,,,,,,METAR,109.0
KEUG 090254Z 36003KT 6SM BR SCT085 SCT200 04/03 A3044 RMK AO2 SLP310 T00440033 55007,KEUG,2023-02-09T02:54:00Z,44.13,-123.22,4.4,3.3,360,3,,6.0,30.43996,1031.0,,,TRUE,,,,,,BR,SCT,8500,SCT,20000,,,,,VFR,-0.7,,,,,,,,,,,METAR,109.0
KEUG 090154Z 01003KT 10SM SCT085 BKN200 06/04 A3043 RMK AO2 SLP308 T00610044,KEUG,2023-02-09T01:54:00Z,44.13,-123.22,6.1,4.4,10,3,,10.0,30.431103,1030.8,,,TRUE,,,,,,,SCT,8500,BKN,20000,,,,,VFR,,,,,,,,,,,,METAR,109.0
KEUG 090054Z 01005KT 10SM FEW020 SCT085 BKN200 09/04 A3045 RMK AO2 SLP313 T00940044,KEUG,2023-02-09T00:54:00Z,44.13,-123.22,9.4,4.4,10,5,,10.0,30.448818,1031.3,,,TRUE,,,,,,,FEW,2000,SCT,8500,BKN,20000,,,VFR,,,,,,,,,,,,METAR,109.0
KEUG 082354Z 06005KT 10SM FEW020 BKN075 10/05 A3046 RMK AO2 SLP316 T01000050 10100 20044 58015,KEUG,2023-02-08T23:54:00Z,44.13,-123.22,10.0,5.0,60,5,,10.0,30.46063,1031.6,,,TRUE,,,,,,,FEW,2000,BKN,7500,,,,,VFR,-1.5,10.0,4.4,,,,,,,,,METAR,109.0
KEUG 082254Z 04004KT 10SM FEW010 BKN080 09/05 A3048 RMK AO2 SLP323 T00940050,KEUG,2023-02-08T22:54:00Z,44.13,-123.22,9.4,5.0,40,4,,10.0,30.481298,1032.3,,,TRUE,,,,,,,FEW,1000,BKN,8000,,,,,VFR,,,,,,,,,,,,METAR,109.0
KEUG 082154Z 05004KT 10SM FEW010 BKN080 09/06 A3048 RMK AO2 SLP325 T00940056,KEUG,2023-02-08T21:54:00Z,44.13,-123.22,9.4,5.6,50,4,,10.0,30.481298,1032.5,,,TRUE,,,,,,,FEW,1000,BKN,8000,,,,,VFR,,,,,,,,,,,,METAR,109.0
KEUG 082054Z VRB04KT 10SM SCT007 BKN085 09/06 A3050 RMK AO2 SLP331 T00890056 58008,KEUG,2023-02-08T20:54:00Z,44.13,-123.22,8.9,5.6,0,4,,10.0,30.499016,1033.1,,,TRUE,,,,,,,SCT,700,BKN,8500,,,,,VFR,-0.8,,,,,,,,,,,METAR,109.0
KEUG 081954Z 02004KT 10SM FEW005 SCT010 BKN120 08/06 A3052 RMK AO2 SLP338 T00780056,KEUG,2023-02-08T19:54:00Z,44.13,-123.22,7.8,5.6,20,4,,10.0,30.519686,1033.8,,,TRUE,,,,,,,FEW,500,SCT,1000,BKN,12000,,,VFR,,,,,,,,,,,,METAR,109.0
KEUG 081854Z 20003KT 10SM FEW008 SCT011 BKN110 06/04 A3053 RMK AO2 SLP343 T00610044,KEUG,2023-02-08T18:54:00Z,44.13,-123.22,6.1,4.4,200,3,,10.0,30.528543,1034.3,,,TRUE,,,,,,,FEW,800,SCT,1100,BKN,11000,,,VFR,,,,,,,,,,,,METAR,109.0
KEUG 081754Z 21004KT 10SM FEW004 BKN140 04/03 A3053 RMK AO2 SLP341 I6000 T00440033 10044 21011 51008,KEUG,2023-02-08T17:54:00Z,44.13,-123.22,4.4,3.3,210,4,,10.0,30.528543,1034.1,,,TRUE,,,,,,,FEW,400,BKN,14000,,,,,VFR,0.8,4.4,-1.1,,,,,,,,,SPECI,109.0
KEUG 081654Z 20005KT 3SM BR FEW002 BKN160 02/02 A3052 RMK AO2 SLP340 I1000 T00220017,KEUG,2023-02-08T16:54:00Z,44.13,-123.22,2.2,1.7,200,5,,3.0,30.519686,1034.0,,,TRUE,,,,,,BR,FEW,200,BKN,16000,,,,,MVFR,,,,,,,,,,,,METAR,109.0
KEUG 081646Z 21006KT 2SM BR SCT002 BKN160 02/01 A3053 RMK AO2 SFC VIS 3 I1000 T00170011,KEUG,2023-02-08T16:46:00Z,44.13,-123.22,1.7,1.1,210,6,,2.0,30.528543,,,,TRUE,,,,,,BR,SCT,200,BKN,16000,,,,,IFR,,,,,,,,,,,,SPECI,109.0
KEUG 081619Z 20006KT 2SM BR OVC002 01/01 A3052 RMK AO2 I1000 T00110006,KEUG,2023-02-08T16:19:00Z,44.13,-123.22,1.1,0.6,200,6,,2.0,30.519686,,,,TRUE,,,,,,BR,OVC,200,,,,,,,LIFR,,,,,,,,,,,,SPECI,109.0
KEUG 081554Z 21006KT 1SM R16R/5500VP6000FT BR VV003 00/M01 A3052 RMK AO2 SLP337 I1000 T00001006,KEUG,2023-02-08T15:54:00Z,44.13,-123.22,0.0,-0.6,210,6,,1.0,30.519686,1033.7,,,TRUE,,,,,,BR,OVX,0,,,,,,,LIFR,,,,,,,,,,,300,METAR,109.0
KEUG 081528Z 22004KT 1/2SM R16R/2800V4000FT FZFG VV003 M01/M02 A3051 RMK AO2 TWR VIS 2 T10061017,KEUG,2023-02-08T15:28:00Z,44.13,-123.22,-0.6,-1.7,220,4,,0.5,30.510826,,,,TRUE,,,,,,FZFG,OVX,0,,,,,,,LIFR,,,,,,,,,,,300,SPECI,109.0
KEUG 081459Z 21005KT 1/2SM R16R/3500VP6000FT FZFG BKN006 BKN200 M01/M01 A3051 RMK AO2 TWR VIS 4 T10061011,KEUG,2023-02-08T14:59:00Z,44.13,-123.22,-0.6,-1.1,210,5,,0.5,30.510826,,,,TRUE,,,,,,FZFG,BKN,600,BKN,20000,,,,,LIFR,,,,,,,,,,,,SPECI,109.0
KEUG 081454Z 21005KT 1SM R16R/P6000FT BR SCT004 BKN200 M01/M01 A3050 RMK AO2 TWR VIS 4 SLP332 T10061011 50001,KEUG,2023-02-08T14:54:00Z,44.13,-123.22,-0.6,-1.1,210,5,,1.0,30.499016,1033.2,,,TRUE,,,,,,BR,SCT,400,BKN,20000,,,,,IFR,0.1,,,,,,,,,,,METAR,109.0
KEUG 081446Z 21005KT 2SM BR FEW002 SCT200 00/M01 A3051 RMK AO2 T00001011,KEUG,2023-02-08T14:46:00Z,44.13,-123.22,0.0,-1.1,210,5,,2.0,30.510826,,,,TRUE,,,,,,BR,FEW,200,SCT,20000,,,,,IFR,,,,,,,,,,,,METAR,109.0
KEUG 081427Z 22006KT 1SM R16R/P6000FT BR BKN002 M01/M02 A3050 RMK AO2 T10111017,KEUG,2023-02-08T14:27:00Z,44.13,-123.22,-1.1,-1.7,220,6,,1.0,30.499016,,,,TRUE,,,,,,BR,BKN,200,,,,,,,LIFR,,,,,,,,,,,,SPECI,109.0
KEUG 081354Z 21005KT 3/4SM R16R/P6000FT BR BKN001 00/M01 A3051 RMK AO2 SLP333 FG BKN001 T00001006,KEUG,2023-02-08T13:54:00Z,44.13,-123.22,0.0,-0.6,210,5,,0.75,30.510826,1033.3,,,TRUE,,,,,,BR,BKN,100,,,,,,,LIFR,,,,,,,,,,,,METAR,109.0
KEUG 081344Z 20003KT 3/4SM R16R/3500VP6000FT BR VV001 00/M01 A3051 RMK AO2 T00001006,KEUG,2023-02-08T13:44:00Z,44.13,-123.22,0.0,-0.6,200,3,,0.75,30.510826,,,,TRUE,,,,,,BR,OVX,0,,,,,,,LIFR,,,,,,,,,,,100,SPECI,109.0
KEUG 081334Z 20005KT 1/4SM R16R/1400V4000FT FG VV001 01/00 A3051 RMK AO2 T00060000,KEUG,2023-02-08T13:34:00Z,44.13,-123.22,0.6,0.0,200,5,,0.25,30.510826,,,,TRUE,,,,,,FG,OVX,0,,,,,,,LIFR,,,,,,,,,,,100,SPECI,109.0
KEUG 081254Z 21003KT 1/4SM R16R/1400FT FG VV001 01/00 A3051 RMK AO2 SLP333 T00060000,KEUG,2023-02-08T12:54:00Z,44.13,-123.22,0.6,0.0,210,3,,0.25,30.510826,1033.3,,,TRUE,,,,,,FG,OVX,0,,,,,,,LIFR,,,,,,,,,,,100,METAR,109.0
KEUG 081230Z 17004KT 1/4SM R16R/1200V1600FT FG VV001 01/01 A3051 RMK AO2 T00110006,KEUG,2023-02-08T12:30:00Z,44.13,-123.22,1.1,0.6,170,4,,0.25,30.510826,,,,TRUE,,,,,,FG,OVX,0,,,,,,,LIFR,,,,,,,,,,,100,SPECI,109.0
KEUG 081223Z 17004KT 1/4SM R16R/1400V2400FT FG VV002 01/01 A3050 RMK AO2 T00110006,KEUG,2023-02-08T12:23:00Z,44.13,-123.22,1.1,0.6,170,4,,0.25,30.499016,,,,TRUE,,,,,,FG,OVX,0,,,,,,,LIFR,,,,,,,,,,,200,SPECI,109.0
KEUG 081154Z 15005KT 1/2SM R16R/2200V5000FT FG VV002 01/01 A3050 RMK AO2 SLP330 60000 70011 I1000 I6000 T00110006 10039 20000 53003,KEUG,2023-02-08T11:54:00Z,44.13,-123.22,1.1,0.6,150,5,,0.5,30.499016,1033.0,,,TRUE,,,,,,FG,OVX,0,,,,,,,LIFR,0.3,3.9,0.0,,,,,0.005,0.11,,200,METAR,109.0
KEUG 081149Z 15004KT 1/4SM R16R/1800V3000FT FG VV002 01/01 A3050 RMK AO2 I1000,KEUG,2023-02-08T11:49:00Z,44.13,-123.22,1.0,1.0,150,4,,0.25,30.499016,,,,TRUE,,,,,,FG,OVX,0,,,,,,,LIFR,,,,,,,,,,,200,SPECI,109.0
KEUG 081132Z 18003KT 1/2SM R16R/3000V4500FT FG VV003 01/00 A3050 RMK AO2 I1000 T00060000,KEUG,2023-02-08T11:32:00Z,44.13,-123.22,0.6,0.0,180,3,,0.5,30.499016,,,,TRUE,,,,,,FG,OVX,0,,,,,,,LIFR,,,,,,,,,,,300,SPECI,109.0
KEUG 081118Z 23003KT 3/4SM R16R/3000V6000FT BR VV007 00/00 A3049 RMK AO2 T00000000,KEUG,2023-02-08T11:18:00Z,44.13,-123.22,0.0,0.0,230,3,,0.75,30.490158,,,,TRUE,,,,,,BR,OVX,0,,,,,,,LIFR,,,,,,,,,,,700,SPECI,109.0
KEUG 081113Z 23004KT 1 1/2SM R16R/4500VP6000FT BR OVC009 00/M01 A3049 RMK AO2 VIS 1/2 RNW 34 CIG 002 RNW 34 T00001006,KEUG,2023-02-08T11:13:00Z,44.13,-123.22,0.0,-0.6,230,4,,1.5,30.490158,,,,TRUE,,,,,,BR,OVC,900,,,,,,,IFR,,,,,,,,,,,,SPECI,109.0
KEUG 081104Z 23005KT 2SM BR OVC013 00/M01 A3049 RMK AO2 VIS 1 RNW 34 CIG 002 RNW 34 T00001006,KEUG,2023-02-08T11:04:00Z,44.13,-123.22,0.0,-0.6,230,5,,2.0,30.490158,,,,TRUE,,,,,,BR,OVC,1300,,,,,,,IFR,,,,,,,,,,,,SPECI,109.0
KEUG 081101Z 23005KT 1SM R16R/P6000FT BR FEW001 OVC013 00/M01 A3049 RMK AO2 CIG 002 RNW 34 T00001006,KEUG,2023-02-08T11:01:00Z,44.13,-123.22,0.0,-0.6,230,5,,1.0,30.490158,,,,TRUE,,,,,,BR,FEW,100,OVC,1300,,,,,IFR,,,,,,,,,,,,SPECI,109.0
KEUG 081054Z 23005KT 1/2SM R16R/3500VP6000FT FG VV013 00/M01 A3049 RMK AO2 SLP327 T00001006,KEUG,2023-02-08T10:54:00Z,44.13,-123.22,0.0,-0.6,230,5,,0.5,30.490158,1032.7,,,TRUE,,,,,,FG,OVX,0,,,,,,,LIFR,,,,,,,,,,,1300,METAR,109.0
KEUG 081043Z 21006KT 3/4SM R16R/3500V6000FT BR VV010 00/M01 A3049 RMK AO2 T00001006,KEUG,2023-02-08T10:43:00Z,44.13,-123.22,0.0,-0.6,210,6,,0.75,30.490158,,,,TRUE,,,,,,BR,OVX,0,,,,,,,LIFR,,,,,,,,,,,1000,SPECI,109.0
KEUG 081006Z 19003KT 3/4SM R16R/2600V6000FT BR VV009 00/M01 A3049 RMK AO2 T00001006,KEUG,2023-02-08T10:06:00Z,44.13,-123.22,0.0,-0.6,190,3,,0.75,30.490158,,,,TRUE,,,,,,BR,OVX,0,,,,,,,LIFR,,,,,,,,,,,900,SPECI,109.0
KEUG 080959Z 19004KT 1SM R16R/4500VP6000FT BR VV010 01/01 A3049 RMK AO2 T00110006,KEUG,2023-02-08T09:59:00Z,44.13,-123.22,1.1,0.6,190,4,,1.0,30.490158,,,,TRUE,,,,,,BR,OVX,0,,,,,,,LIFR,,,,,,,,,,,1000,SPECI,109.0
KEUG 080954Z 17005KT 1/2SM R16R/2000VP6000FT FG VV009 01/01 A3049 RMK AO2 SLP327 T00110006,KEUG,2023-02-08T09:54:00Z,44.13,-123.22,1.1,0.6,170,5,,0.5,30.490158,1032.7,,,TRUE,,,,,,FG,OVX,0,,,,,,,LIFR,,,,,,,,,,,900,METAR,109.0
KEUG 080946Z 16004KT 1/4SM R16R/1200V3000FT FG VV006 01/00 A3049 RMK AO2 T00060000,KEUG,2023-02-08T09:46:00Z,44.13,-123.22,0.6,0.0,160,4,,0.25,30.490158,,,,TRUE,,,,,,FG,OVX,0,,,,,,,LIFR,,,,,,,,,,,600,SPECI,109.0
KEUG 080940Z 15004KT 1/4SM R16R/1200V1600FT FG VV003 01/00 A3049 RMK AO2 T00060000,KEUG,2023-02-08T09:40:00Z,44.13,-123.22,0.6,0.0,150,4,,0.25,30.490158,,,,TRUE,,,,,,FG,OVX,0,,,,,,,LIFR,,,,,,,,,,,300,SPECI,109.0
KEUG 080928Z 00000KT 1/4SM R16R/1200V1800FT FG VV006 01/01 A3049 RMK AO2 T00110011,KEUG,2023-02-08T09:28:00Z,44.13,-123.22,1.1,1.1,0,0,,0.25,30.490158,,,,TRUE,,,,,,FG,OVX,0,,,,,,,LIFR,,,,,,,,,,,600,SPECI,109.0
KEUG 080919Z 16003KT 1/4SM R16R/1600V3000FT FG VV012 01/01 A3049 RMK AO2 T00110011,KEUG,2023-02-08T09:19:00Z,44.13,-123.22,1.1,1.1,160,3,,0.25,30.490158,,,,TRUE,,,,,,FG,OVX,0,,,,,,,LIFR,,,,,,,,,,,1200,SPECI,109.0
KEUG 080854Z 16004KT 3/4SM R16R/P6000FT BR BKN025 02/01 A3049 RMK AO2 SLP326 60000 I1000 I3000 T00170011 51012,KEUG,2023-02-08T08:54:00Z,44.13,-123.22,1.7,1.1,160,4,,0.75,30.490158,1032.6,,,TRUE,,,,,,BR,BKN,2500,,,,,,,LIFR,1.2,,,,,,0.005,,,,,METAR,109.0
KEUG 080844Z 17003KT 1SM R16R/P6000FT BR SCT029 02/01 A3049 RMK AO2 VIS 1/4 RNW 34 I1000 T00170006,KEUG,2023-02-08T08:44:00Z,44.13,-123.22,1.7,0.6,170,3,,1.0,30.490158,,,,TRUE,,,,,,BR,SCT,2900,,,,,,,IFR,,,,,,,,,,,,SPECI,109.0
KEUG 080835Z 00000KT 1 1/2SM BR SCT029 03/02 A3049 RMK AO2 VIS 1/2 RNW 34 T00280022,KEUG,2023-02-08T08:35:00Z,44.13,-123.22,2.8,2.2,0,0,,1.5,30.490158,,,,TRUE,,,,,,BR,SCT,2900,,,,,,,IFR,,,,,,,,,,,,METAR,109.0
KEUG 080818Z 00000KT 2SM R16R/6000VP6000FT BR SCT027 BKN031 02/02 A3048 RMK AO2 T00220017,KEUG,2023-02-08T08:18:00Z,44.13,-123.22,2.2,1.7,0,0,,2.0,30.481298,,,,TRUE,,,,,,BR,SCT,2700,BKN,3100,,,,,IFR,,,,,,,,,,,,SPECI,109.0
KEUG 080809Z 25003KT 1 1/2SM R16R/5000VP6000FT BR SCT031 02/01 A3048 RMK AO2 T00170011,KEUG,2023-02-08T08:09:00Z,44.13,-123.22,1.7,1.1,250,3,,1.5,30.481298,,,,TRUE,,,,,,BR,SCT,3100,,,,,,,IFR,,,,,,,,,,,,SPECI,109.0
KEUG 080754Z 14005KT 2 1/2SM BR CLR 02/01 A3047 RMK AO2 VIS 1 1/4 RNW 34 SLP321 T00170011 401000011,KEUG,2023-02-08T07:54:00Z,44.13,-123.22,1.7,1.1,140,5,,2.5,30.469488,1032.1,,,TRUE,,,,,,BR,CLR,,,,,,,,IFR,,,,10.0,1.1,,,,,,,METAR,109.0
KEUG 080740Z 13005KT 1 3/4SM BR FEW044 03/02 A3047 RMK AO2 VIS 1 RNW 34 T00280022,KEUG,2023-02-08T07:40:00Z,44.13,-123.22,2.8,2.2,130,5,,1.75,30.469488,,,,TRUE,,,,,,BR,FEW,4400,,,,,,,IFR,,,,,,,,,,,,METAR,109.0
KEUG 080654Z 17005KT 10SM SCT040 BKN050 03/02 A3047 RMK AO2 RAB19E42 SLP319 P0000 T00280022,KEUG,2023-02-08T06:54:00Z,44.13,-123.22,2.8,2.2,170,5,,10.0,30.469488,1031.9,,,TRUE,,,,,,,SCT,4000,BKN,5000,,,,,VFR,,,,,,0.005,,,,,,METAR,109.0
KEUG 080554Z 23004KT 10SM BKN043 03/02 A3045 RMK AO2 SLP314 60001 T00330022 10100 20033 51015,KEUG,2023-02-08T05:54:00Z,44.13,-123.22,3.3,2.2,230,4,,10.0,30.448818,1031.4,,,TRUE,,,,,,,BKN,4300,,,,,,,VFR,1.5,10.0,3.3,,,,,0.01,,,,METAR,109.0
KEUG 080454Z 19005KT 10SM SCT030 04/03 A3044 RMK AO2 SLP309 T00440033,KEUG,2023-02-08T04:54:00Z,44.13,-123.22,4.4,3.3,190,5,,10.0,30.43996,1030.9,,,TRUE,,,,,,,SCT,3000,,,,,,,VFR,,,,,,,,,,,,METAR,109.0
KEUG 080354Z 16006KT 10SM FEW031 SCT055 05/04 A3043 RMK AO2 SLP305 T00500039,KEUG,2023-02-08T03:54:00Z,44.13,-123.22,5.0,3.9,160,6,,10.0,30.431103,1030.5,,,TRUE,,,,,,,FEW,3100,SCT,5500,,,,,VFR,,,,,,,,,,,,METAR,109.0
KEUG 080254Z 21007KT 10SM FEW031 SCT055 SCT070 06/04 A3041 RMK AO2 SLP299 60001 T00560044 52023,KEUG,2023-02-08T02:54:00Z,44.13,-123.22,5.6,4.4,210,7,,10.0,30.410433,1029.9,,,TRUE,,,,,,,FEW,3100,SCT,5500,SCT,7000,,,VFR,2.3,,,,,,0.01,,,,,METAR,109.0
KEUG 080154Z 22005KT 10SM FEW029 SCT055 BKN070 07/06 A3039 RMK AO2 SLP292 T00720056,KEUG,2023-02-08T01:54:00Z,44.13,-123.22,7.2,5.6,220,5,,10.0,30.389763,1029.2,,,TRUE,,,,,,,FEW,2900,SCT,5500,BKN,7000,,,VFR,,,,,,,,,,,,METAR,109.0
KEUG 080054Z 26006KT 10SM FEW045 BKN055 BKN070 10/07 A3036 RMK AO2 RAB02E30 SLP281 P0001 T01000067,KEUG,2023-02-08T00:54:00Z,44.13,-123.22,10.0,6.7,260,6,,10.0,30.360237,1028.1,,,TRUE,,,,,,,FEW,4500,BKN,5500,BKN,7000,,,VFR,,,,,,0.01,,,,,,METAR,109.0
KEUG 080022Z 29009KT 9SM -RA SCT017 SCT024 BKN040 10/08 A3035 RMK AO2 RAB02 P0001 T01000083,KEUG,2023-02-08T00:22:00Z,44.13,-123.22,10.0,8.3,290,9,,9.0,30.351377,,,,TRUE,,,,,,-RA,SCT,1700,SCT,2400,BKN,4000,,,VFR,,,,,,0.01,,,,,,SPECI,109.0
KEUG 072354Z 19009KT 8SM SCT014 BKN022 OVC049 10/08 A3034 RMK AO2 RAE41 SLP275 VCSH P0005 60009 T01000083 10100 20072 53006,KEUG,2023-02-07T23:54:00Z,44.13,-123.22,10.0,8.3,190,9,,8.0,30.339567,1027.5,,,TRUE,,,,,,,SCT,1400,BKN,2200,OVC,4900,,,MVFR,0.6,10.0,7.2,,,0.05,,,,,,SPECI,109.0
KEUG 072339Z 19008KT 5SM -RA BR BKN013 BKN022 OVC049 10/08 A3033 RMK AO2 P0005 T01000083,KEUG,2023-02-07T23:39:00Z,44.13,-123.22,10.0,8.3,190,8,,5.0,30.33071,,,,TRUE,,,,,,-RA BR,BKN,1300,BKN,2200,OVC,4900,,,MVFR,,,,,,0.05,,,,,,SPECI,109.0
KEUG 072314Z 19010KT 2SM RA BR OVC016 09/08 A3032 RMK AO2 P0000 T00940078,KEUG,2023-02-07T23:14:00Z,44.13,-123.22,9.4,7.8,190,10,,2.0,30.318897,,,,TRUE,,,,,,RA BR,OVC,1600,,,,,,,IFR,,,,,,0.005,,,,,,SPECI,109.0
KEUG 072254Z 18012KT 6SM -RA BR BKN021 OVC025 10/08 A3031 RMK AO2 RAB16 SLP267 P0001 T01000078,KEUG,2023-02-07T22:54:00Z,44.13,-123.22,10.0,7.8,180,12,,6.0,30.31004,1026.7,,,TRUE,,,,,,-RA BR,BKN,2100,OVC,2500,,,,,MVFR,,,,,,0.01,,,,,,METAR,109.0
KEUG 072224Z 19013KT 3SM -RA BR SCT008 BKN018 OVC034 10/08 A3030 RMK AO2 RAB16 P0000 T01000083,KEUG,2023-02-07T22:24:00Z,44.13,-123.22,10.0,8.3,190,13,,3.0,30.301182,,,,TRUE,,,,,,-RA BR,SCT,800,BKN,1800,OVC,3400,,,MVFR,,,,,,0.005,,,,,,SPECI,109.0
KEUG 072154Z 19016KT 8SM BKN018 BKN029 OVC050 10/07 A3030 RMK AO2 RAB13E39 SLP264 P0000 T01000072,KEUG,2023-02-07T21:54:00Z,44.13,-123.22,10.0,7.2,190,16,,8.0,30.301182,1026.4,,,TRUE,,,,,,,BKN,1800,BKN,2900,OVC,5000,,,MVFR,,,,,,0.005,,,,,,METAR,109.0
KEUG 072054Z 18015KT 10SM SCT018 BKN029 OVC050 09/06 A3032 RMK AO2 SLP269 60003 T00940061 58014,KEUG,2023-02-07T20:54:00Z,44.13,-123.22,9.4,6.1,180,15,,10.0,30.318897,1026.9,,,TRUE,,,,,,,SCT,1800,BKN,2900,OVC,5000,,,MVFR,-1.4,,,,,,0.03,,,,,METAR,109.0
KEUG 071954Z 18014KT 10SM SCT023 BKN036 OVC060 08/05 A3035 RMK AO2 RAE53 SLP278 P0002 T00830050,KEUG,2023-02-07T19:54:00Z,44.13,-123.22,8.3,5.0,180,14,,10.0,30.351377,1027.8,,,TRUE,,,,,,,SCT,2300,BKN,3600,OVC,6000,,,VFR,,,,,,0.02,,,,,,METAR,109.0
KEUG 071937Z 19010KT 9SM -RA BKN026 BKN050 OVC075 08/06 A3035 RMK AO2 P0001 T00780056,KEUG,2023-02-07T19:37:00Z,44.13,-123.22,7.8,5.6,190,10,,9.0,30.351377,,,,TRUE,,,,,,-RA,BKN,2600,BKN,5000,OVC,7500,,,MVFR,,,,,,0.01,,,,,,METAR,109.0
KEUG 071854Z 17014KT 10SM -RA SCT030 BKN050 OVC075 08/05 A3035 RMK AO2 SLP280 P0001 T00780050,KEUG,2023-02-07T18:54:00Z,44.13,-123.22,7.8,5.0,170,14,,10.0,30.351377,1028.0,,,TRUE,,,,,,-RA,SCT,3000,BKN,5000,OVC,7500,,,VFR,,,,,,0.01,,,,,,METAR,109.0
KEUG 071754Z 18011KT 10SM -RA BKN030 BKN042 OVC080 07/04 A3036 RMK AO2 SLP283 P0001 60001 T00720039 10072 20050 55000,KEUG,2023-02-07T17:54:00Z,44.13,-123.22,7.2,3.9,180,11,,10.0,30.360237,1028.3,,,TRUE,,,,,,-RA,BKN,3000,BKN,4200,OVC,8000,,,MVFR,0.0,7.2,5.0,,,0.01,,0.01,,,,METAR,109.0
KEUG 071654Z 15006KT 10SM -RA BKN040 OVC120 06/03 A3036 RMK AO2 RAB51 SLP282 P0000 T00610028,KEUG,2023-02-07T16:54:00Z,44.13,-123.22,6.1,2.8,150,6,,10.0,30.360237,1028.2,,,TRUE,,,,,,-RA,BKN,4000,OVC,12000,,,,,VFR,,,,,,0.005,,,,,,METAR,109.0
KEUG 071554Z 14008KT 10SM BKN031 OVC120 06/03 A3036 RMK AO2 SLP284 T00560028,KEUG,2023-02-07T15:54:00Z,44.13,-123.22,5.6,2.8,140,8,,10.0,30.360237,1028.4,,,TRUE,,,,,,,BKN,3100,OVC,12000,,,,,VFR,,,,,,,,,,,,METAR,109.0
KEUG 071454Z 14007KT 10SM BKN040 BKN120 05/03 A3036 RMK AO2 SLP283 T00500028 58006,KEUG,2023-02-07T14:54:00Z,44.13,-123.22,5.0,2.8,140,7,,10.0,30.360237,1028.3,,,TRUE,,,,,,,BKN,4000,BKN,12000,,,,,VFR,-0.6,,,,,,,,,,,METAR,109.0
KEUG 071354Z 16007KT 10SM BKN038 BKN120 05/02 A3038 RMK AO2 SLP288 T00500022,KEUG,2023-02-07T13:54:00Z,44.13,-123.22,5.0,2.2,160,7,,10.0,30.380905,1028.8,,,TRUE,,,,,,,BKN,3800,BKN,12000,,,,,VFR,,,,,,,,,,,,METAR,109.0
KEUG 071254Z AUTO 15006KT 10SM BKN039 BKN120 05/02 A3037 RMK AO2 SLP286 T00500022,KEUG,2023-02-07T12:54:00Z,44.13,-123.22,5.0,2.2,150,6,,10.0,30.369095,1028.6,,TRUE,TRUE,,,,,,,BKN,3900,BKN,12000,,,,,VFR,,,,,,,,,,,,METAR,109.0
KEUG 071154Z AUTO 14011KT 10SM BKN039 OVC120 05/02 A3038 RMK AO2 SLP289 T00500022 10050 20011 58014,KEUG,2023-02-07T11:54:00Z,44.13,-123.22,5.0,2.2,140,11,,10.0,30.380905,1028.9,,TRUE,TRUE,,,,,,,BKN,3900,OVC,12000,,,,,VFR,-1.4,5.0,1.1,,,,,,,,,METAR,109.0
KEUG 071054Z AUTO 14009KT 10SM BKN120 04/03 A3040 RMK AO2 SLP296 T00440028,KEUG,2023-02-07T10:54:00Z,44.13,-123.22,4.4,2.8,140,9,,10.0,30.398623,1029.6,,TRUE,TRUE,,,,,,,BKN,12000,,,,,,,VFR,,,,,,,,,,,,SPECI,109.0
KEUG 071012Z AUTO 19005KT 10SM SCT029 02/01 A3041 RMK AO2 T00220011,KEUG,2023-02-07T10:12:00Z,44.13,-123.22,2.2,1.1,190,5,,10.0,30.410433,,,TRUE,TRUE,,,,,,,SCT,2900,,,,,,,VFR,,,,,,,,,,,,SPECI,109.0
KEUG 070954Z AUTO 20005KT 10SM OVC029 02/02 A3042 RMK AO2 SLP302 T00220017,KEUG,2023-02-07T09:54:00Z,44.13,-123.22,2.2,1.7,200,5,,10.0,30.41929,1030.2,,TRUE,TRUE,,,,,,,OVC,2900,,,,,,,MVFR,,,,,,,,,,,,METAR,109.0
KEUG 070854Z AUTO 18007KT 10SM BKN029 02/01 A3042 RMK AO2 SLP303 T00170011 58004,KEUG,2023-02-07T08:54:00Z,44.13,-123.22,1.7,1.1,180,7,,10.0,30.41929,1030.3,,TRUE,TRUE,,,,,,,BKN,2900,,,,,,,MVFR,-0.4,,,,,,,,,,,METAR,109.0
KEUG 070851Z AUTO 18007KT 10SM BKN029 02/01 A3042 RMK AO2,KEUG,2023-02-07T08:51:00Z,44.13,-123.22,2.0,1.0,180,7,,10.0,30.41929,,,TRUE,TRUE,,,,,,,BKN,2900,,,,,,,MVFR,,,,,,,,,,,,SPECI,109.0
KEUG 070754Z AUTO 21005KT 10SM CLR 02/01 A3043 RMK AO2 SLP308 T00170006 401110011,KEUG,2023-02-07T07:54:00Z,44.13,-123.22,1.7,0.6,210,5,,10.0,30.431103,1030.8,,TRUE,TRUE,,,,,,,CLR,,,,,,,,VFR,,,,11.1,1.1,,,,,,,METAR,109.0
KEUG 070654Z 22006KT 10SM FEW200 02/01 A3043 RMK AO2 SLP307 T00170006,KEUG,2023-02-07T06:54:00Z,44.13,-123.22,1.7,0.6,220,6,,10.0,30.431103,1030.7,,,TRUE,,,,,,,FEW,20000,,,,,,,VFR,,,,,,,,,,,,METAR,109.0
KEUG 070554Z 21004KT 10SM FEW150 03/02 A3043 RMK AO2 SLP307 T00330017 10106 20033 57007,KEUG,2023-02-07T05:54:00Z,44.13,-123.22,3.3,1.7,210,4,,10.0,30.431103,1030.7,,,TRUE,,,,,,,FEW,15000,,,,,,,VFR,-0.7,10.6,3.3,,,,,,,,,METAR,109.0
KEUG 070454Z 17004KT 10SM FEW060 BKN150 04/02 A3043 RMK AO2 SLP308 T00390022,KEUG,2023-02-07T04:54:00Z,44.13,-123.22,3.9,2.2,170,4,,10.0,30.431103,1030.8,,,TRUE,,,,,,,FEW,6000,BKN,15000,,,,,VFR,,,,,,,,,,,,METAR,109.0
KEUG 070354Z 17003KT 10SM FEW060 BKN150 05/02 A3045 RMK AO2 SLP314 T00500022,KEUG,2023-02-07T03:54:00Z,44.13,-123.22,5.0,2.2,170,3,,10.0,30.448818,1031.4,,,TRUE,,,,,,,FEW,6000,BKN,15000,,,,,VFR,,,,,,,,,,,,METAR,109.0
KEUG 070254Z 00000KT 10SM FEW025 BKN045 BKN200 06/03 A3045 RMK AO2 SLP314 T00610033 56014,KEUG,2023-02-07T02:54:00Z,44.13,-123.22,6.1,3.3,0,0,,10.0,30.448818,1031.4,,,TRUE,,,,,,,FEW,2500,BKN,4500,BKN,20000,,,VFR,-1.4,,,,,,,,,,,SPECI,109.0
KEUG 070154Z 17004KT 10SM FEW025 BKN039 BKN200 09/04 A3047 RMK AO2 SLP319 T00890039,KEUG,2023-02-07T01:54:00Z,44.13,-123.22,8.9,3.9,170,4,,10.0,30.469488,1031.9,,,TRUE,,,,,,,FEW,2500,BKN,3900,BKN,20000,,,VFR,,,,,,,,,,,,METAR,109.0
KEUG 070054Z 17006KT 10SM FEW025 BKN039 OVC200 10/03 A3048 RMK AO2 SLP323 T01000033,KEUG,2023-02-07T00:54:00Z,44.13,-123.22,10.0,3.3,170,6,,10.0,30.481298,1032.3,,,TRUE,,,,,,,FEW,2500,BKN,3900,OVC,20000,,,VFR,,,,,,,,,,,,METAR,109.0
KEUG 062354Z 18007KT 10SM FEW020 OVC039 11/03 A3049 RMK AO2 SLP328 T01060033 10111 20072 56010,KEUG,2023-02-06T23:54:00Z,44.13,-123.22,10.6,3.3,180,7,,10.0,30.490158,1032.8,,,TRUE,,,,,,,FEW,2000,OVC,3900,,,,,VFR,-1.0,11.1,7.2,,,,,,,,,METAR,109.0
KEUG 062254Z 18009KT 10SM BKN034 BKN050 BKN200 11/04 A3050 RMK AO2 SLP331 T01060039,KEUG,2023-02-06T22:54:00Z,44.13,-123.22,10.6,3.9,180,9,,10.0,30.499016,1033.1,,,TRUE,,,,,,,BKN,3400,BKN,5000,BKN,20000,,,VFR,,,,,,,,,,,,METAR,109.0
KEUG 062154Z 20008KT 10SM BKN032 BKN050 BKN210 11/03 A3051 RMK AO2 SLP334 T01060033,KEUG,2023-02-06T21:54:00Z,44.13,-123.22,10.6,3.3,200,8,,10.0,30.510826,1033.4,,,TRUE,,,,,,,BKN,3200,BKN,5000,BKN,21000,,,VFR,,,,,,,,,,,,METAR,109.0
KEUG 062054Z 18010KT 10SM SCT032 SCT050 BKN210 10/04 A3052 RMK AO2 SLP338 T01000044 58011,KEUG,2023-02-06T20:54:00Z,44.13,-123.22,10.0,4.4,180,10,,10.0,30.519686,1033.8,,,TRUE,,,,,,,SCT,3200,SCT,5000,BKN,21000,,,VFR,-1.1,,,,,,,,,,,METAR,109.0
KEUG 061954Z 17008KT 10SM SCT032 BKN050 BKN200 09/04 A3056 RMK AO2 SLP350 T00940044,KEUG,2023-02-06T19:54:00Z,44.13,-123.22,9.4,4.4,170,8,,10.0,30.561024,1035.0,,,TRUE,,,,,,,SCT,3200,BKN,5000,BKN,20000,,,VFR,,,,,,,,,,,,METAR,109.0
KEUG 061854Z 18010KT 10SM FEW026 BKN036 BKN070 08/04 A3057 RMK AO2 SLP355 T00830039,KEUG,2023-02-06T18:54:00Z,44.13,-123.22,8.3,3.9,180,10,,10.0,30.569881,1035.5,,,TRUE,,,,,,,FEW,2600,BKN,3600,BKN,7000,,,VFR,,,,,,,,,,,,SPECI,109.0
KEUG 061754Z 17010KT 10SM SCT027 BKN045 BKN070 07/04 A3056 RMK AO2 SLP349 60000 T00720039 10078 20039 51007,KEUG,2023-02-06T17:54:00Z,44.13,-123.22,7.2,3.9,170,10,,10.0,30.561024,1034.9,,,TRUE,,,,,,,SCT,2700,BKN,4500,BKN,7000,,,VFR,0.7,7.8,3.9,,,,,0.005,,,,METAR,109.0
KEUG 061654Z 16005KT 10SM SCT027 BKN045 BKN070 06/04 A3056 RMK AO2 SLP349 T00610039,KEUG,2023-02-06T16:54:00Z,44.13,-123.22,6.1,3.9,160,5,,10.0,30.561024,1034.9,,,TRUE,,,,,,,SCT,2700,BKN,4500,BKN,7000,,,VFR,,,,,,,,,,,,SPECI,109.0
KEUG 061554Z 17004KT 10SM SCT029 BKN038 BKN070 04/03 A3055 RMK AO2 RAE09 SLP346 P0000 T00440028,KEUG,2023-02-06T15:54:00Z,44.13,-123.22,4.4,2.8,170,4,,10.0,30.549213,1034.6,,,TRUE,,,,,,,SCT,2900,BKN,3800,BKN,7000,,,VFR,,,,,,0.005,,,,,,METAR,109.0
KEUG 061522Z 15004KT 10SM SCT027 BKN038 BKN065 05/03 A3054 RMK AO2 RAE09 P0000 T00500033,KEUG,2023-02-06T15:22:00Z,44.13,-123.22,5.0,3.3,150,4,,10.0,30.540354,,,,TRUE,,,,,,,SCT,2700,BKN,3800,BKN,6500,,,VFR,,,,,,0.005,,,,,,SPECI,109.0
KEUG 061454Z 15007KT 10SM -RA BKN024 BKN044 BKN065 05/03 A3053 RMK AO2 RAE15B44 SLP342 P0000 60000 T00500033 51014 $,KEUG,2023-02-06T14:54:00Z,44.13,-123.22,5.0,3.3,150,7,,10.0,30.528543,1034.2,,,TRUE,TRUE,,,,,-RA,BKN,2400,BKN,4400,BKN,6500,,,MVFR,1.4,,,,,0.005,0.005,,,,,METAR,109.0
KEUG 061354Z 15005KT 10SM -RA SCT025 BKN048 OVC065 04/03 A3052 RMK AO2 RAB52 SLP338 P0000 T00440028 $,KEUG,2023-02-06T13:54:00Z,44.13,-123.22,4.4,2.8,150,5,,10.0,30.519686,1033.8,,,TRUE,TRUE,,,,,-RA,SCT,2500,BKN,4800,OVC,6500,,,VFR,,,,,,0.005,,,,,,METAR,109.0
KEUG 061254Z AUTO 18005KT 10SM OVC060 04/03 A3051 RMK AO2 SLP334 T00440028 $,KEUG,2023-02-06T12:54:00Z,44.13,-123.22,4.4,2.8,180,5,,10.0,30.510826,1033.4,,TRUE,TRUE,TRUE,,,,,,OVC,6000,,,,,,,VFR,,,,,,,,,,,,METAR,109.0
KEUG 061154Z AUTO 15005KT 10SM OVC080 04/03 A3049 RMK AO2 SLP328 70009 T00440028 10056 20022 51012 $,KEUG,2023-02-06T11:54:00Z,44.13,-123.22,4.4,2.8,150,5,,10.0,30.490158,1032.8,,TRUE,TRUE,TRUE,,,,,,OVC,8000,,,,,,,VFR,1.2,5.6,2.2,,,,,,0.09,,,METAR,109.0
KEUG 061054Z AUTO 17006KT 10SM BKN037 BKN090 OVC100 04/03 A3049 RMK AO2 SLP326 T00440028 $,KEUG,2023-02-06T10:54:00Z,44.13,-123.22,4.4,2.8,170,6,,10.0,30.490158,1032.6,,TRUE,TRUE,TRUE,,,,,,BKN,3700,BKN,9000,OVC,10000,,,VFR,,,,,,,,,,,,METAR,109.0
KEUG 060954Z AUTO 22005KT 10SM SCT045 OVC110 04/03 A3048 RMK AO2 SLP323 T00440033 $,KEUG,2023-02-06T09:54:00Z,44.13,-123.22,4.4,3.3,220,5,,10.0,30.481298,1032.3,,TRUE,TRUE,TRUE,,,,,,SCT,4500,OVC,11000,,,,,VFR,,,,,,,,,,,,METAR,109.0
KEUG 060854Z AUTO 22005KT 10SM SCT120 02/01 A3046 RMK AO2 SLP316 T00220011 51022 $,KEUG,2023-02-06T08:54:00Z,44.13,-123.22,2.2,1.1,220,5,,10.0,30.46063,1031.6,,TRUE,TRUE,TRUE,,,,,,SCT,12000,,,,,,,VFR,2.2,,,,,,,,,,,METAR,109.0
KEUG 060754Z AUTO 18006KT 10SM FEW038 SCT048 04/02 A3045 RMK AO2 SLP314 T00440022 401060033 $,KEUG,2023-02-06T07:54:00Z,44.13,-123.22,4.4,2.2,180,6,,10.0,30.448818,1031.4,,TRUE,TRUE,TRUE,,,,,,FEW,3800,SCT,4800,,,,,VFR,,,,10.6,3.3,,,,,,,METAR,109.0
KEUG 060654Z 23007KT 10SM SCT045 04/02 A3043 RMK AO2 SLP305 T00440022 $,KEUG,2023-02-06T06:54:00Z,44.13,-123.22,4.4,2.2,230,7,,10.0,30.431103,1030.5,,,TRUE,TRUE,,,,,,SCT,4500,,,,,,,VFR,,,,,,,,,,,,METAR,109.0
KEUG 060554Z 23008KT 10SM FEW042 05/03 A3039 RMK AO2 SLP294 T00500028 10094 20039 51036 $,KEUG,2023-02-06T05:54:00Z,44.13,-123.22,5.0,2.8,230,8,,10.0,30.389763,1029.4,,,TRUE,TRUE,,,,,,FEW,4200,,,,,,,VFR,3.6,9.4,3.9,,,,,,,,,METAR,109.0
KEUG 060454Z 23007KT 10SM SCT035 BKN060 04/03 A3037 RMK AO2 SLP286 T00440028 $,KEUG,2023-02-06T04:54:00Z,44.13,-123.22,4.4,2.8,230,7,,10.0,30.369095,1028.6,,,TRUE,TRUE,,,,,,SCT,3500,BKN,6000,,,,,VFR,,,,,,,,,,,,METAR,109.0
KEUG 060354Z 22007KT 10SM SCT031 06/04 A3033 RMK AO2 SLP271 T00560039 $,KEUG,2023-02-06T03:54:00Z,44.13,-123.22,5.6,3.9,220,7,,10.0,30.33071,1027.1,,,TRUE,TRUE,,,,,,SCT,3100,,,,,,,VFR,,,,,,,,,,,,METAR,109.0
KEUG 060341Z 24006KT 10SM FEW028 BKN031 07/04 A3032 RMK AO2 T00720039 $,KEUG,2023-02-06T03:41:00Z,44.13,-123.22,7.2,3.9,240,6,,10.0,30.318897,,,,TRUE,TRUE,,,,,,FEW,2800,BKN,3100,,,,,VFR,,,,,,,,,,,,SPECI,109.0
KEUG 060304Z 24006KT 10SM BKN028 OVC033 07/05 A3029 RMK AO2 T00720050 $,KEUG,2023-02-06T03:04:00Z,44.13,-123.22,7.2,5.0,240,6,,10.0,30.28937,,,,TRUE,TRUE,,,,,,BKN,2800,OVC,3300,,,,,MVFR,,,,,,,,,,,,METAR,109.0
KEUG 060254Z 24008KT 10SM FEW028 OVC031 07/05 A3029 RMK AO2 SLP257 T00720050 53028 $,KEUG,2023-02-06T02:54:00Z,44.13,-123.22,7.2,5.0,240,8,,10.0,30.28937,1025.7,,,TRUE,TRUE,,,,,,FEW,2800,OVC,3100,,,,,VFR,2.8,,,,,,,,,,,METAR,109.0
KEUG 060154Z 22006KT 10SM FEW015 BKN028 BKN034 08/06 A3024 RMK AO2 SLP241 T00830056 $,KEUG,2023-02-06T01:54:00Z,44.13,-123.22,8.3,5.6,220,6,,10.0,30.239174,1024.1,,,TRUE,TRUE,,,,,,FEW,1500,BKN,2800,BKN,3400,,,MVFR,,,,,,,,,,,,METAR,109.0
KEUG 060054Z 23007KT 10SM FEW020 BKN035 BKN045 09/06 A3020 RMK AO2 SLP228 T00940061 $,KEUG,2023-02-06T00:54:00Z,44.13,-123.22,9.4,6.1,230,7,,10.0,30.200787,1022.8,,,TRUE,TRUE,,,,,,FEW,2000,BKN,3500,BKN,4500,,,VFR,,,,,,,,,,,,METAR,109.0
KEUG 052354Z 22007KT 10SM SCT020 BKN035 OVC045 09/07 A3016 RMK AO2 RAB32E48DZB39E43 SLP215 VCSH P0000 60004 T00890072 10106 20083 53031 $,KEUG,2023-02-05T23:54:00Z,44.13,-123.22,8.9,7.2,220,7,,10.0,30.159449,1021.5,,,TRUE,TRUE,,,,,,SCT,2000,BKN,3500,OVC,4500,,,VFR,3.1,10.6,8.3,,,0.005,,0.04,,,,METAR,109.0
KEUG 052254Z 21008KT 6SM BR FEW017 BKN030 OVC040 09/07 A3012 RMK AO2 RAE23 SLP201 VCSH P0000 T00940067 $,KEUG,2023-02-05T22:54:00Z,44.13,-123.22,9.4,6.7,210,8,,6.0,30.121063,1020.1,,,TRUE,TRUE,,,,,BR,FEW,1700,BKN,3000,OVC,4000,,,MVFR,,,,,,0.005,,,,,,METAR,109.0
KEUG 052154Z 23009KT 9SM -RA FEW033 BKN050 BKN075 09/07 A3009 RMK AO2 RAE2057B36 SLP191 P0000 T00940067 $,KEUG,2023-02-05T21:54:00Z,44.13,-123.22,9.4,6.7,230,9,,9.0,30.088583,1019.1,,,TRUE,TRUE,,,,,-RA,FEW,3300,BKN,5000,BKN,7500,,,VFR,,,,,,0.005,,,,,,METAR,109.0
KEUG 052054Z 21010KT 10SM -RA SCT033 BKN080 BKN120 10/07 A3007 RMK AO2 RAE15B54 SLP183 P0001 60004 T01000072 $,KEUG,2023-02-05T20:54:00Z,44.13,-123.22,10.0,7.2,210,10,,10.0,30.070866,1018.3,,,TRUE,TRUE,,,,,-RA,SCT,3300,BKN,8000,BKN,12000,,,VFR,,,,,,0.01,0.04,,,,,METAR,109.0
KEUG 052006Z 26007KT 6SM -RA BR FEW016 BKN026 BKN035 09/07 A3006 RMK AO2 P0001 T00890067,KEUG,2023-02-05T20:06:00Z,44.13,-123.22,8.9,6.7,260,7,,6.0,30.059055,,,,TRUE,,,,,,-RA BR,FEW,1600,BKN,2600,BKN,3500,,,MVFR,,,,,,0.01,,,,,,SPECI,109.0
KEUG 052000Z 24006KT 2 1/2SM -RA BR FEW016 BKN026 BKN035 09/07 A3005 RMK AO2 P0000 T00890072,KEUG,2023-02-05T20:00:00Z,44.13,-123.22,8.9,7.2,240,6,,2.5,30.050198,,,,TRUE,,,,,,-RA BR,FEW,1600,BKN,2600,BKN,3500,,,IFR,,,,,,0.005,,,,,,METAR,109.0
KEUG 051954Z 22006KT 6SM -RA BR FEW016 SCT025 BKN035 09/07 A3005 RMK AO2 SLP177 P0003 T00890072,KEUG,2023-02-05T19:54:00Z,44.13,-123.22,8.9,7.2,220,6,,6.0,30.050198,1017.7,,,TRUE,,,,,,-RA BR,FEW,1600,SCT,2500,BKN,3500,,,VFR,,,,,,0.03,,,,,,METAR,109.0
KEUG 051854Z 20012KT 10SM -RA SCT030 BKN045 BKN170 09/06 A3004 RMK AO2 RAB54 SLP173 P0000 T00940061,KEUG,2023-02-05T18:54:00Z,44.13,-123.22,9.4,6.1,200,12,,10.0,30.041338,1017.3,,,TRUE,,,,,,-RA,SCT,3000,BKN,4500,BKN,17000,,,VFR,,,,,,0.005,,,,,,SPECI,109.0
KEUG 051754Z 19012KT 10SM FEW025 BKN050 BKN070 08/06 A3000 RMK AO2 RAE1656 SLP160 P0000 60005 T00830061 10089 20072 51041,KEUG,2023-02-05T17:54:00Z,44.13,-123.22,8.3,6.1,190,12,,10.0,30.0,1016.0,,,TRUE,,,,,,,FEW,2500,BKN,5000,BKN,7000,,,VFR,4.1,8.9,7.2,,,0.005,,0.05,,,,METAR,109.0
KEUG 051654Z 18007KT 9SM -RA SCT020 BKN035 OVC060 08/06 A2996 RMK AO2 RAB50 SLP147 P0000 T00780056,KEUG,2023-02-05T16:54:00Z,44.13,-123.22,7.8,5.6,180,7,,9.0,29.958662,1014.7,,,TRUE,,,,,,-RA,SCT,2000,BKN,3500,OVC,6000,,,VFR,,,,,,0.005,,,,,,METAR,109.0
KEUG 051554Z 18008KT 9SM SCT025 BKN045 OVC055 07/05 A2992 RMK AO2 SLP133 T00720050,KEUG,2023-02-05T15:54:00Z,44.13,-123.22,7.2,5.0,180,8,,9.0,29.920275,1013.3,,,TRUE,,,,,,,SCT,2500,BKN,4500,OVC,5500,,,VFR,,,,,,,,,,,,METAR,109.0
KEUG 051542Z 18010KT 9SM SCT025 BKN041 OVC050 07/05 A2991 RMK AO2 T00720050,KEUG,2023-02-05T15:42:00Z,44.13,-123.22,7.2,5.0,180,10,,9.0,29.911417,,,,TRUE,,,,,,,SCT,2500,BKN,4100,OVC,5000,,,VFR,,,,,,,,,,,,SPECI,109.0
KEUG 051519Z 20009KT 10SM BKN026 BKN034 OVC041 07/05 A2990 RMK AO2 VCSH T00720050,KEUG,2023-02-05T15:19:00Z,44.13,-123.22,7.2,5.0,200,9,,10.0,29.899607,,,,TRUE,,,,,,,BKN,2600,BKN,3400,OVC,4100,,,MVFR,,,,,,,,,,,,SPECI,109.0
KEUG 051454Z 19010KT 10SM BKN030 BKN050 07/05 A2988 RMK AO2 SLP119 60005 T00720050 51056,KEUG,2023-02-05T14:54:00Z,44.13,-123.22,7.2,5.0,190,10,,10.0,29.878937,1011.9,,,TRUE,,,,,,,BKN,3000,BKN,5000,,,,,MVFR,5.6,,,,,,0.05,,,,,METAR,109.0
KEUG 051354Z 19012KT 10SM BKN040 BKN090 OVC110 07/05 A2984 RMK AO2 RAE46 SLP105 P0004 T00720050,KEUG,2023-02-05T13:54:00Z,44.13,-123.22,7.2,5.0,190,12,,10.0,29.840551,1010.5,,,TRUE,,,,,,,BKN,4000,BKN,9000,OVC,11000,,,VFR,,,,,,0.04,,,,,,SPECI,109.0
KEUG 051254Z AUTO 20010KT 10SM -RA FEW026 SCT034 OVC042 08/06 A2979 RMK AO2 PK WND 20032/1155 SLP089 P0001 T00780061,KEUG,2023-02-05T12:54:00Z,44.13,-123.22,7.8,6.1,200,10,,10.0,29.790354,1008.9,,TRUE,TRUE,,,,,,-RA,FEW,2600,SCT,3400,OVC,4200,,,VFR,,,,,,0.01,,,,,,METAR,109.0
KEUG 051230Z AUTO 22016G25KT 10SM -RA FEW023 BKN030 OVC038 08/06 A2977 RMK AO2 PK WND 20032/1155 PRESRR P0000 T00830061,KEUG,2023-02-05T12:30:00Z,44.13,-123.22,8.3,6.1,220,16,25,10.0,29.769686,,,TRUE,TRUE,,,,,,-RA,FEW,2300,BKN,3000,OVC,3800,,,MVFR,,,,,,0.005,,,,,,SPECI,109.0
KEUG 051154Z AUTO 20024G31KT 10SM -RA BKN025 OVC034 09/06 A2971 RMK AO2 PK WND 20032/1143 RAB01E26B33 PRESRR SLP061 P0002 60010 70010 T00890056 10089 20056 53040,KEUG,2023-02-05T11:54:00Z,44.13,-123.22,8.9,5.6,200,24,31,10.0,29.71063,1006.1,,TRUE,TRUE,,,,,,-RA,BKN,2500,OVC,3400,,,,,MVFR,4.0,8.9,5.6,,,0.02,,0.1,0.1,,,METAR,109.0
KEUG 051131Z AUTO 20022G30KT 10SM BKN027 BKN032 OVC040 09/06 A2968 RMK AO2 PK WND 20030/1130 RAB01E26 P0001 T00890061,KEUG,2023-02-05T11:31:00Z,44.13,-123.22,8.9,6.1,200,22,30,10.0,29.681103,,,TRUE,TRUE,,,,,,,BKN,2700,BKN,3200,OVC,4000,,,MVFR,,,,,,0.01,,,,,,SPECI,109.0
KEUG 051054Z AUTO 18017KT 10SM BKN030 OVC038 09/06 A2965 RMK AO2 RAE10 SLP040 P0001 T00890061,KEUG,2023-02-05T10:54:00Z,44.13,-123.22,8.9,6.1,180,17,,10.0,29.648623,1004.0,,TRUE,TRUE,,,,,,,BKN,3000,OVC,3800,,,,,MVFR,,,,,,0.01,,,,,,METAR,109.0
KEUG 050954Z AUTO 15005KT 7SM -RA FEW025 OVC044 07/06 A2964 RMK AO2 SLP036 P0005 T00670056,KEUG,2023-02-05T09:54:00Z,44.13,-123.22,6.7,5.6,150,5,,7.0,29.639763,1003.6,,TRUE,TRUE,,,,,,-RA,FEW,2500,OVC,4400,,,,,VFR,,,,,,0.05,,,,,,METAR,109.0
KEUG 050854Z AUTO 24003KT 8SM -RA OVC060 06/05 A2959 RMK AO2 SLP020 P0002 60002 T00610050 56020,KEUG,2023-02-05T08:54:00Z,44.13,-123.22,6.1,5.0,240,3,,8.0,29.589567,1002.0,,TRUE,TRUE,,,,,,-RA,OVC,6000,,,,,,,VFR,-2.0,,,,,0.02,0.02,,,,,METAR,109.0
KEUG 050754Z AUTO 30004KT 8SM -RA BKN060 BKN075 OVC090 06/05 A2959 RMK AO2 RAB40 SLP022 P0000 T00560050 401060044,KEUG,2023-02-05T07:54:00Z,44.13,-123.22,5.6,5.0,300,4,,8.0,29.589567,1002.2,,TRUE,TRUE,,,,,,-RA,BKN,6000,BKN,7500,OVC,9000,,,VFR,,,,10.6,4.4,0.005,,,,,,METAR,109.0
KEUG 050654Z 29004KT 10SM BKN095 BKN110 OVC200 06/04 A2962 RMK AO2 RAB04E19 SLP030 VCSH P0000 T00560044,KEUG,2023-02-05T06:54:00Z,44.13,-123.22,5.6,4.4,290,4,,10.0,29.619095,1003.0,,,TRUE,,,,,,,BKN,9500,BKN,11000,OVC,20000,,,VFR,,,,,,0.005,,,,,,METAR,109.0
KEUG 050554Z 20004KT 10SM BKN090 OVC200 06/04 A2965 RMK AO2 SLP042 60000 T00610044 10106 20061 56024,KEUG,2023-02-05T05:54:00Z,44.13,-123.22,6.1,4.4,200,4,,10.0,29.648623,1004.2,,,TRUE,,,,,,,BKN,9000,OVC,20000,,,,,VFR,-2.4,10.6,6.1,,,,,,,,,SPECI,109.0
KEUG 050454Z 03004KT 10SM SCT085 BKN200 07/05 A2965 RMK AO2 SLP043 T00720050,KEUG,2023-02-05T04:54:00Z,44.13,-123.22,7.2,5.0,30,4,,10.0,29.648623,1004.3,,,TRUE,,,,,,,SCT,8500,BKN,20000,,,,,VFR,,,,,,,,,,,,METAR,109.0
KEUG 050354Z 33005KT 10SM BKN150 BKN200 07/05 A2967 RMK AO2 SLP049 T00720050,KEUG,2023-02-05T03:54:00Z,44.13,-123.22,7.2,5.0,330,5,,10.0,29.66929,1004.9,,,TRUE,,,,,,,BKN,15000,BKN,20000,,,,,VFR,,,,,,,,,,,,METAR,109.0
KEUG 050254Z 33004KT 10SM FEW030 SCT090 BKN120 07/05 A2972 RMK AO2 SLP066 60000 T00720050 58036,KEUG,2023-02-05T02:54:00Z,44.13,-123.22,7.2,5.0,330,4,,10.0,29.719488,1006.6,,,TRUE,,,,,,,FEW,3000,SCT,9000,BKN,12000,,,VFR,-3.6,,,,,,0.005,,,,,METAR,109.0
KEUG 050154Z 31008KT 10SM FEW030 SCT090 OVC120 08/06 A2976 RMK AO2 SLP078 T00780056,KEUG,2023-02-05T01:54:00Z,44.13,-123.22,7.8,5.6,310,8,,10.0,29.760826,1007.8,,,TRUE,,,,,,,FEW,3000,SCT,9000,OVC,12000,,,VFR,,,,,,,,,,,,METAR,109.0
KEUG 050054Z 06007KT 10SM FEW030 SCT090 OVC110 09/06 A2980 RMK AO2 RAB09E19 SLP092 P0000 T00940061,KEUG,2023-02-05T00:54:00Z,44.13,-123.22,9.4,6.1,60,7,,10.0,29.799213,1009.2,,,TRUE,,,,,,,FEW,3000,SCT,9000,OVC,11000,,,VFR,,,,,,0.005,,,,,,METAR,109.0
KEUG 042354Z 06004KT 10SM FEW040 OVC090 09/07 A2983 RMK AO2 SLP102 T00890067 10106 20078 56028 $,KEUG,2023-02-04T23:54:00Z,44.13,-123.22,8.9,6.7,60,4,,10.0,29.828741,1010.2,,,TRUE,TRUE,,,,,,FEW,4000,OVC,9000,,,,,VFR,-2.8,10.6,7.8,,,,,,,,,METAR,109.0
KEUG 042254Z 01004KT 10SM FEW040 OVC100 10/06 A2984 RMK AO2 SLP107 T01000061 $,KEUG,2023-02-04T22:54:00Z,44.13,-123.22,10.0,6.1,10,4,,10.0,29.840551,1010.7,,,TRUE,TRUE,,,,,,FEW,4000,OVC,10000,,,,,VFR,,,,,,,,,,,,METAR,109.0
KEUG 042154Z 01004KT 10SM FEW040 OVC120 10/06 A2987 RMK AO2 SLP117 T01000061 $,KEUG,2023-02-04T21:54:00Z,44.13,-123.22,10.0,6.1,10,4,,10.0,29.870079,1011.7,,,TRUE,TRUE,,,,,,FEW,4000,OVC,12000,,,,,VFR,,,,,,,,,,,,METAR,109.0
KEUG 042054Z 00000KT 10SM SCT080 OVC110 11/06 A2991 RMK AO2 SLP130 T01060056 58030 $,KEUG,2023-02-04T20:54:00Z,44.13,-123.22,10.6,5.6,0,0,,10.0,29.911417,1013.0,,,TRUE,TRUE,,,,,,SCT,8000,OVC,11000,,,,,VFR,-3.0,,,,,,,,,,,METAR,109.0
KEUG 041954Z 00000KT 10SM SCT080 BKN100 BKN120 10/06 A2995 RMK AO2 SLP142 T01000056,KEUG,2023-02-04T19:54:00Z,44.13,-123.22,10.0,5.6,0,0,,10.0,29.949802,1014.2,,,TRUE,,,,,,,SCT,8000,BKN,10000,BKN,12000,,,VFR,,,,,,,,,,,,METAR,109.0
KEUG 041854Z 00000KT 10SM FEW040 SCT080 OVC110 09/06 A2998 RMK AO2 SLP151 T00890056 $,KEUG,2023-02-04T18:54:00Z,44.13,-123.22,8.9,5.6,0,0,,10.0,29.97933,1015.1,,,TRUE,TRUE,,,,,,FEW,4000,SCT,8000,OVC,11000,,,VFR,,,,,,,,,,,,METAR,109.0
KEUG 041754Z 17003KT 10SM FEW075 BKN095 OVC120 08/05 A3000 RMK AO2 SLP161 T00780050 10078 20044 58013,KEUG,2023-02-04T17:54:00Z,44.13,-123.22,7.8,5.0,170,3,,10.0,30.0,1016.1,,,TRUE,,,,,,,FEW,7500,BKN,9500,OVC,12000,,,VFR,-1.3,7.8,4.4,,,,,,,,,METAR,109.0
KEUG 041654Z 19004KT 10SM BKN100 OVC120 07/05 A3002 RMK AO2 SLP168 T00670050,KEUG,2023-02-04T16:54:00Z,44.13,-123.22,6.7,5.0,190,4,,10.0,30.02067,1016.8,,,TRUE,,,,,,,BKN,10000,OVC,12000,,,,,VFR,,,,,,,,,,,,METAR,109.0
KEUG 041554Z 16009KT 10SM FEW070 BKN095 OVC130 08/04 A3003 RMK AO2 SLP170 T00780039,KEUG,2023-02-04T15:54:00Z,44.13,-123.22,7.8,3.9,160,9,,10.0,30.029528,1017.0,,,TRUE,,,,,,,FEW,7000,BKN,9500,OVC,13000,,,VFR,,,,,,,,,,,,METAR,109.0
KEUG 041454Z 19006KT 10SM BKN095 OVC130 06/04 A3004 RMK AO2 SLP174 T00560044 58010,KEUG,2023-02-04T14:54:00Z,44.13,-123.22,5.6,4.4,190,6,,10.0,30.041338,1017.4,,,TRUE,,,,,,,BKN,9500,OVC,13000,,,,,VFR,-1.0,,,,,,,,,,,METAR,109.0
KEUG 041354Z 19006KT 10SM BKN120 OVC160 06/04 A3005 RMK AO2 SLP178 T00610039,KEUG,2023-02-04T13:54:00Z,44.13,-123.22,6.1,3.9,190,6,,10.0,30.050198,1017.8,,,TRUE,,,,,,,BKN,12000,OVC,16000,,,,,VFR,,,,,,,,,,,,METAR,109.0
KEUG 041254Z AUTO 22004KT 10SM FEW120 04/03 A3006 RMK AO2 SLP182 T00440033,KEUG,2023-02-04T12:54:00Z,44.13,-123.22,4.4,3.3,220,4,,10.0,30.059055,1018.2,,TRUE,TRUE,,,,,,,FEW,12000,,,,,,,VFR,,,,,,,,,,,,METAR,109.0
KEUG 041154Z AUTO 15008KT 10SM FEW075 07/04 A3007 RMK AO2 SLP183 T00720044 10089 20067 58012,KEUG,2023-02-04T11:54:00Z,44.13,-123.22,7.2,4.4,150,8,,10.0,30.070866,1018.3,,TRUE,TRUE,,,,,,,FEW,7500,,,,,,,VFR,-1.2,8.9,6.7,,,,,,,,,METAR,109.0
KEUG 041054Z AUTO 14007KT 10SM BKN080 OVC090 08/05 A3009 RMK AO2 SLP190 T00780050,KEUG,2023-02-04T10:54:00Z,44.13,-123.22,7.8,5.0,140,7,,10.0,30.088583,1019.0,,TRUE,TRUE,,,,,,,BKN,8000,OVC,9000,,,,,VFR,,,,,,,,,,,,METAR,109.0
KEUG 040954Z AUTO 14007KT 10SM BKN075 OVC095 08/06 A3010 RMK AO2 SLP192 T00780056,KEUG,2023-02-04T09:54:00Z,44.13,-123.22,7.8,5.6,140,7,,10.0,30.100393,1019.2,,TRUE,TRUE,,,,,,,BKN,7500,OVC,9500,,,,,VFR,,,,,,,,,,,,METAR,109.0
KEUG 040854Z AUTO 16003KT 10SM OVC070 07/06 A3011 RMK AO2 SLP196 T00720056 58004,KEUG,2023-02-04T08:54:00Z,44.13,-123.22,7.2,5.6,160,3,,10.0,30.109253,1019.6,,TRUE,TRUE,,,,,,,OVC,7000,,,,,,,VFR,-0.4,,,,,,,,,,,METAR,109.0
KEUG 040754Z AUTO 17004KT 10SM FEW070 OVC095 08/06 A3012 RMK AO2 SLP199 T00780056 401281017,KEUG,2023-02-04T07:54:00Z,44.13,-123.22,7.8,5.6,170,4,,10.0,30.121063,1019.9,,TRUE,TRUE,,,,,,,FEW,7000,OVC,9500,,,,,VFR,,,,12.8,-1.7,,,,,,,METAR,109.0
KEUG 040654Z 18003KT 10SM FEW050 OVC100 08/06 A3011 RMK AO2 SLP198 T00830056,KEUG,2023-02-04T06:54:00Z,44.13,-123.22,8.3,5.6,180,3,,10.0,30.109253,1019.8,,,TRUE,,,,,,,FEW,5000,OVC,10000,,,,,VFR,,,,,,,,,,,,METAR,109.0
KEUG 040554Z 17005KT 10SM SCT055 BKN070 08/06 A3012 RMK AO2 RAB0458E18 SLP200 P0000 60000 T00830061 10111 20083 50002,KEUG,2023-02-04T05:54:00Z,44.13,-123.22,8.3,6.1,170,5,,10.0,30.121063,1020.0,,,TRUE,,,,,,,SCT,5500,BKN,7000,,,,,VFR,0.2,11.1,8.3,,,0.005,,0.005,,,,METAR,109.0
KEUG 040454Z 19007KT 10SM BKN046 BKN065 08/06 A3012 RMK AO2 SLP201 T00830061,KEUG,2023-02-04T04:54:00Z,44.13,-123.22,8.3,6.1,190,7,,10.0,30.121063,1020.1,,,TRUE,,,,,,,BKN,4600,BKN,6500,,,,,VFR,,,,,,,,,,,,METAR,109.0
KEUG 040354Z 17007KT 10SM SCT060 BKN070 OVC110 09/06 A3012 RMK AO2 SLP200 T00890061,KEUG,2023-02-04T03:54:00Z,44.13,-123.22,8.9,6.1,170,7,,10.0,30.121063,1020.0,,,TRUE,,,,,,,SCT,6000,BKN,7000,OVC,11000,,,VFR,,,,,,,,,,,,METAR,109.0
KEUG 040254Z 18007KT 10SM BKN038 BKN055 BKN075 09/06 A3011 RMK AO2 SLP199 60000 T00890061 53006,KEUG,2023-02-04T02:54:00Z,44.13,-123.22,8.9,6.1,180,7,,10.0,30.109253,1019.9,,,TRUE,,,,,,,BKN,3800,BKN,5500,BKN,7500,,,VFR,0.6,,,,,,0.005,,,,,METAR,109.0
KEUG 040154Z 16008KT 10SM SCT038 BKN060 BKN250 09/07 A3010 RMK AO2 SLP195 T00940067,KEUG,2023-02-04T01:54:00Z,44.13,-123.22,9.4,6.7,160,8,,10.0,30.100393,1019.5,,,TRUE,,,,,,,SCT,3800,BKN,6000,BKN,25000,,,VFR,,,,,,,,,,,,METAR,109.0
KEUG 040054Z 18010KT 10SM SCT034 BKN060 BKN075 10/07 A3010 RMK AO2 RAB30E46 SLP196 VCSH P0000 T01000072,KEUG,2023-02-04T00:54:00Z,44.13,-123.22,10.0,7.2,180,10,,10.0,30.100393,1019.6,,,TRUE,,,,,,,SCT,3400,BKN,6000,BKN,7500,,,VFR,,,,,,0.005,,,,,,METAR,109.0
KEUG 032354Z 18013KT 10SM SCT036 BKN049 BKN070 11/07 A3010 RMK AO2 RAB22E41 SLP193 VCSH P0000 60000 T01060072 10128 20083 51016,KEUG,2023-02-03T23:54:00Z,44.13,-123.22,10.6,7.2,180,13,,10.0,30.100393,1019.3,,,TRUE,,,,,,,SCT,3600,BKN,4900,BKN,7000,,,VFR,1.6,12.8,8.3,,,0.005,,0.005,,,,METAR,109.0
KEUG 032254Z 19016G22KT 10SM SCT050 BKN070 BKN250 12/07 A3008 RMK AO2 SLP189 T01220067,KEUG,2023-02-03T22:54:00Z,44.13,-123.22,12.2,6.7,190,16,22,10.0,30.079725,1018.9,,,TRUE,,,,,,,SCT,5000,BKN,7000,BKN,25000,,,VFR,,,,,,,,,,,,METAR,109.0
KEUG 032154Z 19015KT 10SM FEW047 BKN060 13/07 A3006 RMK AO2 PK WND 18030/2111 RAE2057 SLP182 P0000 T01280067,KEUG,2023-02-03T21:54:00Z,44.13,-123.22,12.8,6.7,190,15,,10.0,30.059055,1018.2,,,TRUE,,,,,,,FEW,4700,BKN,6000,,,,,VFR,,,,,,0.005,,,,,,METAR,109.0
KEUG 032054Z 18022G27KT 10SM -RA SCT036 BKN060 BKN110 12/06 A3005 RMK AO2 PK WND 19027/2051 RAB1956E15B48 SLP177 P0000 60000 T01170061 51020,KEUG,2023-02-03T20:54:00Z,44.13,-123.22,11.7,6.1,180,22,27,10.0,30.050198,1017.7,,,TRUE,,,,,,-RA,SCT,3600,BKN,6000,BKN,11000,,,VFR,2.0,,,,,0.005,0.005,,,,,METAR,109.0
KEUG 031954Z 19020G24KT 10SM FEW042 FEW050 OVC060 11/06 A3005 RMK AO2 RAB11E25 SLP177 P0000 T01060061,KEUG,2023-02-03T19:54:00Z,44.13,-123.22,10.6,6.1,190,20,24,10.0,30.050198,1017.7,,,TRUE,,,,,,,FEW,4200,FEW,5000,OVC,6000,,,VFR,,,,,,0.005,,,,,,SPECI,109.0
KEUG 031854Z 20010KT 10SM SCT042 OVC055 10/05 A3002 RMK AO2 RAE27 SLP167 P0000 T01000050,KEUG,2023-02-03T18:54:00Z,44.13,-123.22,10.0,5.0,200,10,,10.0,30.02067,1016.7,,,TRUE,,,,,,,SCT,4200,OVC,5500,,,,,VFR,,,,,,0.005,,,,,,METAR,109.0
KEUG 031754Z 17009KT 10SM -RA OVC055 08/03 A2999 RMK AO2 RAE06B22 SLP157 P0000 60000 T00830033 10083 21006 53024,KEUG,2023-02-03T17:54:00Z,44.13,-123.22,8.3,3.3,170,9,,10.0,29.991142,1015.7,,,TRUE,,,,,,-RA,OVC,5500,,,,,,,VFR,2.4,8.3,-0.6,,,0.005,,0.005,,,,METAR,109.0
KEUG 031654Z 18012KT 10SM -RA SCT065 OVC085 07/01 A2995 RMK AO2 RAB54 CIG 070 RNW 34 SLP145 P0000 T00720011,KEUG,2023-02-03T16:54:00Z,44.13,-123.22,7.2,1.1,180,12,,10.0,29.949802,1014.5,,,TRUE,,,,,,-RA,SCT,6500,OVC,8500,,,,,VFR,,,,,,0.005,,,,,,METAR,109.0
KEUG 031554Z 29003KT 8SM BKN070 BKN085 02/00 A2993 RMK AO2 SLP138 T00170000,KEUG,2023-02-03T15:54:00Z,44.13,-123.22,1.7,0.0,290,3,,8.0,29.929134,1013.8,,,TRUE,,,,,,,BKN,7000,BKN,8500,,,,,VFR,,,,,,,,,,,,METAR,109.0
KEUG 031454Z 19005KT 6SM BR BKN090 OVC110 01/M01 A2992 RMK AO2 SLP133 T00111006 55003,KEUG,2023-02-03T14:54:00Z,44.13,-123.22,1.1,-0.6,190,5,,6.0,29.920275,1013.3,,,TRUE,,,,,,BR,BKN,9000,OVC,11000,,,,,VFR,-0.3,,,,,,,,,,,METAR,109.0
KEUG 031354Z 16004KT 5SM BR OVC090 01/M01 A2991 RMK AO2 SLP131 T00111006,KEUG,2023-02-03T13:54:00Z,44.13,-123.22,1.1,-0.6,160,4,,5.0,29.911417,1013.1,,,TRUE,,,,,,BR,OVC,9000,,,,,,,MVFR,,,,,,,,,,,,METAR,109.0
KEUG 031254Z AUTO 13005KT 5SM BR OVC100 01/M01 A2993 RMK AO2 SLP136 T00061006,KEUG,2023-02-03T12:54:00Z,44.13,-123.22,0.6,-0.6,130,5,,5.0,29.929134,1013.6,,TRUE,TRUE,,,,,,BR,OVC,10000,,,,,,,MVFR,,,,,,,,,,,,METAR,109.0
KEUG 031154Z AUTO 18004KT 5SM BR BKN120 M01/M02 A2992 RMK AO2 SLP136 T10061017 10011 21017 55008,KEUG,2023-02-03T11:54:00Z,44.13,-123.22,-0.6,-1.7,180,4,,5.0,29.920275,1013.6,,TRUE,TRUE,,,,,,BR,BKN,12000,,,,,,,MVFR,-0.8,1.1,-1.7,,,,,,,,,METAR,109.0
KEUG 031054Z AUTO 21005KT 5SM BR CLR M01/M02 A2992 RMK AO2 SLP133 T10061022,KEUG,2023-02-03T10:54:00Z,44.13,-123.22,-0.6,-2.2,210,5,,5.0,29.920275,1013.3,,TRUE,TRUE,,,,,,BR,CLR,,,,,,,,MVFR,,,,,,,,,,,,METAR,109.0
KEUG 030954Z AUTO 15003KT 6SM BR CLR 00/M01 A2993 RMK AO2 SLP136 T00001011,KEUG,2023-02-03T09:54:00Z,44.13,-123.22,0.0,-1.1,150,3,,6.0,29.929134,1013.6,,TRUE,TRUE,,,,,,BR,CLR,,,,,,,,VFR,,,,,,,,,,,,METAR,109.0
KEUG 030854Z AUTO 23004KT 6SM BR CLR 00/M01 A2995 RMK AO2 SLP144 T00001011 58014,KEUG,2023-02-03T08:54:00Z,44.13,-123.22,0.0,-1.1,230,4,,6.0,29.949802,1014.4,,TRUE,TRUE,,,,,,BR,CLR,,,,,,,,VFR,-1.4,,,,,,,,,,,METAR,109.0
KEUG 030754Z AUTO 24005KT 5SM BR CLR 01/M01 A2996 RMK AO2 SLP149 T00061006 400831039,KEUG,2023-02-03T07:54:00Z,44.13,-123.22,0.6,-0.6,240,5,,5.0,29.958662,1014.9,,TRUE,TRUE,,,,,,BR,CLR,,,,,,,,MVFR,,,,8.3,-3.9,,,,,,,METAR,109.0
KEUG 030654Z 21005KT 5SM BR BKN180 BKN220 01/00 A2998 RMK AO2 SLP156 T00110000,KEUG,2023-02-03T06:54:00Z,44.13,-123.22,1.1,0.0,210,5,,5.0,29.97933,1015.6,,,TRUE,,,,,,BR,BKN,18000,BKN,22000,,,,,MVFR,,,,,,,,,,,,METAR,109.0
KEUG 030554Z 00000KT 6SM BR BKN160 OVC220 01/M01 A2999 RMK AO2 SLP158 T00061006 10061 20006 56020,KEUG,2023-02-03T05:54:00Z,44.13,-123.22,0.6,-0.6,0,0,,6.0,29.991142,1015.8,,,TRUE,,,,,,BR,BKN,16000,OVC,22000,,,,,VFR,-2.0,6.1,0.6,,,,,,,,,METAR,109.0
KEUG 030454Z 22004KT 7SM BKN140 OVC250 02/00 A3001 RMK AO2 SLP165 T00220000,KEUG,2023-02-03T04:54:00Z,44.13,-123.22,2.2,0.0,220,4,,7.0,30.008858,1016.5,,,TRUE,,,,,,,BKN,14000,OVC,25000,,,,,VFR,,,,,,,,,,,,METAR,109.0
KEUG 030354Z 22003KT 10SM BKN170 OVC250 03/01 A3003 RMK AO2 SLP174 T00330006,KEUG,2023-02-03T03:54:00Z,44.13,-123.22,3.3,0.6,220,3,,10.0,30.029528,1017.4,,,TRUE,,,,,,,BKN,17000,OVC,25000,,,,,VFR,,,,,,,,,,,,METAR,109.0
KEUG 030254Z 00000KT 10SM OVC150 04/01 A3005 RMK AO2 SLP180 T00390011 56010,KEUG,2023-02-03T02:54:00Z,44.13,-123.22,3.9,1.1,0,0,,10.0,30.050198,1018.0,,,TRUE,,,,,,,OVC,15000,,,,,,,VFR,-1.0,,,,,,,,,,,METAR,109.0
KEUG 030154Z 00000KT 9SM BKN170 OVC250 05/02 A3006 RMK AO2 SLP181 T00500017,KEUG,2023-02-03T01:54:00Z,44.13,-123.22,5.0,1.7,0,0,,9.0,30.059055,1018.1,,,TRUE,,,,,,,BKN,17000,OVC,25000,,,,,VFR,,,,,,,,,,,,METAR,109.0
KEUG 030054Z 03003KT 10SM BKN170 OVC250 05/02 A3007 RMK AO2 SLP187 T00500017,KEUG,2023-02-03T00:54:00Z,44.13,-123.22,5.0,1.7,30,3,,10.0,30.070866,1018.7,,,TRUE,,,,,,,BKN,17000,OVC,25000,,,,,VFR,,,,,,,,,,,,METAR,109.0
KEUG 022354Z 03004KT 10SM FEW025 BKN170 OVC250 06/02 A3008 RMK AO2 SLP189 T00610017 10083 20017 56015,KEUG,2023-02-02T23:54:00Z,44.13,-123.22,6.1,1.7,30,4,,10.0,30.079725,1018.9,,,TRUE,,,,,,,FEW,2500,BKN,17000,OVC,25000,,,VFR,-1.5,8.3,1.7,,,,,,,,,METAR,109.0
KEUG 022254Z 01004KT 10SM BKN180 OVC210 07/01 A3010 RMK AO2 SLP195 T00720011,KEUG,2023-02-02T22:54:00Z,44.13,-123.22,7.2,1.1,10,4,,10.0,30.100393,1019.5,,,TRUE,,,,,,,BKN,18000,OVC,21000,,,,,VFR,,,,,,,,,,,,METAR,109.0
KEUG 022154Z 36005KT 10SM BKN180 OVC250 07/01 A3011 RMK AO2 SLP198 T00720006,KEUG,2023-02-02T21:54:00Z,44.13,-123.22,7.2,0.6,360,5,,10.0,30.109253,1019.8,,,TRUE,,,,,,,BKN,18000,OVC,25000,,,,,VFR,,,,,,,,,,,,METAR,109.0
KEUG 022054Z 34004KT 10SM BKN170 BKN250 07/00 A3013 RMK AO2 SLP205 T00670000 58018,KEUG,2023-02-02T20:54:00Z,44.13,-123.22,6.7,0.0,340,4,,10.0,30.129921,1020.5,,,TRUE,,,,,,,BKN,17000,BKN,25000,,,,,VFR,-1.8,,,,,,,,,,,METAR,109.0
KEUG 021954Z VRB03KT 10SM BKN200 07/M01 A3016 RMK AO2 SLP215 T00671006,KEUG,2023-02-02T19:54:00Z,44.13,-123.22,6.7,-0.6,0,3,,10.0,30.159449,1021.5,,,TRUE,,,,,,,BKN,20000,,,,,,,VFR,,,,,,,,,,,,METAR,109.0
KEUG 021854Z 00000KT 10SM BKN200 04/M01 A3018 RMK AO2 SLP221 T00441006,KEUG,2023-02-02T18:54:00Z,44.13,-123.22,4.4,-0.6,0,0,,10.0,30.180119,1022.1,,,TRUE,,,,,,,BKN,20000,,,,,,,VFR,,,,,,,,,,,,METAR,109.0
KEUG 021754Z 00000KT 10SM BKN210 02/M01 A3018 RMK AO2 SLP224 I6000 T00221006 10022 21039 51007,KEUG,2023-02-02T17:54:00Z,44.13,-123.22,2.2,-0.6,0,0,,10.0,30.180119,1022.4,,,TRUE,,,,,,,BKN,21000,,,,,,,VFR,0.7,2.2,-3.9,,,,,,,,,METAR,109.0
KEUG 021654Z 00000KT 10SM BKN200 M01/M02 A3018 RMK AO2 SLP222 T10111022,KEUG,2023-02-02T16:54:00Z,44.13,-123.22,-1.1,-2.2,0,0,,10.0,30.180119,1022.2,,,TRUE,,,,,,,BKN,20000,,,,,,,VFR,,,,,,,,,,,,METAR,109.0
KEUG 021554Z 00000KT 10SM MIFG BKN250 M03/M04 A3017 RMK AO2 SLP219 VIS N 2 I1000 T10331044,KEUG,2023-02-02T15:54:00Z,44.13,-123.22,-3.3,-4.4,0,0,,10.0,30.171259,1021.9,,,TRUE,,,,,,MIFG,BKN,25000,,,,,,,VFR,,,,,,,,,,,,METAR,109.0
KEUG 021454Z 00000KT 10SM FEW250 M03/M05 A3016 RMK AO2 SLP216 I1000 I3000 T10331050 53001,KEUG,2023-02-02T14:54:00Z,44.13,-123.22,-3.3,-5.0,0,0,,10.0,30.159449,1021.6,,,TRUE,,,,,,,FEW,25000,,,,,,,VFR,0.1,,,,,,,,,,,METAR,109.0
KEUG 021354Z 01003KT 10SM FEW250 M03/M04 A3015 RMK AO2 SLP213 I1000 T10281044,KEUG,2023-02-02T13:54:00Z,44.13,-123.22,-2.8,-4.4,10,3,,10.0,30.15059,1021.3,,,TRUE,,,,,,,FEW,25000,,,,,,,VFR,,,,,,,,,,,,METAR,109.0
KEUG 021254Z AUTO 21004KT 10SM CLR M03/M05 A3016 RMK AO2 SLP214 I1000 T10331050,KEUG,2023-02-02T12:54:00Z,44.13,-123.22,-3.3,-5.0,210,4,,10.0,30.159449,1021.4,,TRUE,TRUE,,,,,,,CLR,,,,,,,,VFR,,,,,,,,,,,,SPECI,109.0
KEUG 021154Z AUTO 25004KT 10SM CLR M03/M04 A3015 RMK AO2 SLP212 I1000 I6000 T10281039 10000 21033 51002,KEUG,2023-02-02T11:54:00Z,44.13,-123.22,-2.8,-3.9,250,4,,10.0,30.15059,1021.2,,TRUE,TRUE,,,,,,,CLR,,,,,,,,VFR,0.2,0.0,-3.3,,,,,,,,,METAR,109.0
KEUG 021054Z AUTO 17003KT 10SM CLR M03/M04 A3015 RMK AO2 SLP211 I1000 T10281039,KEUG,2023-02-02T10:54:00Z,44.13,-123.22,-2.8,-3.9,170,3,,10.0,30.15059,1021.1,,TRUE,TRUE,,,,,,,CLR,,,,,,,,VFR,,,,,,,,,,,,METAR,109.0
KEUG 020954Z AUTO 22003KT 10SM CLR M02/M04 A3015 RMK AO2 SLP213 T10221039,KEUG,2023-02-02T09:54:00Z,44.13,-123.22,-2.2,-3.9,220,3,,10.0,30.15059,1021.3,,TRUE,TRUE,,,,,,,CLR,,,,,,,,VFR,,,,,,,,,,,,METAR,109.0
KEUG 020854Z AUTO 22005KT 10SM CLR M02/M04 A3015 RMK AO2 SLP211 T10221039 50002,KEUG,2023-02-02T08:54:00Z,44.13,-123.22,-2.2,-3.9,220,5,,10.0,30.15059,1021.1,,TRUE,TRUE,,,,,,,CLR,,,,,,,,VFR,0.2,,,,,,,,,,,METAR,109.0
KEUG 020754Z AUTO 18003KT 10SM CLR M02/M03 A3015 RMK AO2 SLP213 T10171033 401281044,KEUG,2023-02-02T07:54:00Z,44.13,-123.22,-1.7,-3.3,180,3,,10.0,30.15059,1021.3,,TRUE,TRUE,,,,,,,CLR,,,,,,,,VFR,,,,12.8,-4.4,,,,,,,METAR,109.0
KEUG 020654Z 17005KT 10SM CLR M01/M02 A3015 RMK AO2 SLP214 T10111022,KEUG,2023-02-02T06:54:00Z,44.13,-123.22,-1.1,-2.2,170,5,,10.0,30.15059,1021.4,,,TRUE,,,,,,,CLR,,,,,,,,VFR,,,,,,,,,,,,METAR,109.0
KEUG 020554Z 21005KT 10SM CLR M01/M03 A3014 RMK AO2 SLP210 T10061028 10128 21006 53007,KEUG,2023-02-02T05:54:00Z,44.13,-123.22,-0.6,-2.8,210,5,,10.0,30.138779,1021.0,,,TRUE,,,,,,,CLR,,,,,,,,VFR,0.7,12.8,-0.6,,,,,,,,,METAR,109.0
KEUG 020454Z 00000KT 10SM CLR M01/M02 A3014 RMK AO2 SLP208 T10061022,KEUG,2023-02-02T04:54:00Z,44.13,-123.22,-0.6,-2.2,0,0,,10.0,30.138779,1020.8,,,TRUE,,,,,,,CLR,,,,,,,,VFR,,,,,,,,,,,,METAR,109.0
KEUG 020354Z 00000KT 10SM CLR 01/M02 A3012 RMK AO2 SLP204 T00111017,KEUG,2023-02-02T03:54:00Z,44.13,-123.22,1.1,-1.7,0,0,,10.0,30.121063,1020.4,,,TRUE,,,,,,,CLR,,,,,,,,VFR,,,,,,,,,,,,METAR,109.0
KEUG 020254Z 00000KT 10SM FEW250 03/00 A3012 RMK AO2 SLP203 T00280000 53006,KEUG,2023-02-02T02:54:00Z,44.13,-123.22,2.8,0.0,0,0,,10.0,30.121063,1020.3,,,TRUE,,,,,,,FEW,25000,,,,,,,VFR,0.6,,,,,,,,,,,METAR,109.0
KEUG 020154Z 36005KT 10SM FEW150 BKN250 04/01 A3011 RMK AO2 SLP199 T00440006,KEUG,2023-02-02T01:54:00Z,44.13,-123.22,4.4,0.6,360,5,,10.0,30.109253,1019.9,,,TRUE,,,,,,,FEW,15000,BKN,25000,,,,,VFR,,,,,,,,,,,,METAR,109.0
KEUG 020054Z 35008KT 10SM FEW150 BKN250 09/03 A3010 RMK AO2 SLP196 T00890033,KEUG,2023-02-02T00:54:00Z,44.13,-123.22,8.9,3.3,350,8,,10.0,30.100393,1019.6,,,TRUE,,,,,,,FEW,15000,BKN,25000,,,,,VFR,,,,,,,,,,,,METAR,109.0
KEUG 012354Z 01003KT 10SM SCT150 BKN250 12/02 A3010 RMK AO2 SLP195 T01220022 10128 20017 56012,KEUG,2023-02-01T23:54:00Z,44.13,-123.22,12.2,2.2,10,3,,10.0,30.100393,1019.5,,,TRUE,,,,,,,SCT,15000,BKN,25000,,,,,VFR,-1.2,12.8,1.7,,,,,,,,,METAR,109.0
KEUG 012254Z 00000KT 10SM SCT150 BKN250 12/01 A3011 RMK AO2 SLP197 T01220006,KEUG,2023-02-01T22:54:00Z,44.13,-123.22,12.2,0.6,0,0,,10.0,30.109253,1019.7,,,TRUE,,,,,,,SCT,15000,BKN,25000,,,,,VFR,,,,,,,,,,,,METAR,109.0
KEUG 012154Z 00000KT 10SM FEW150 SCT250 11/01 A3012 RMK AO2 SLP202 T01060006,KEUG,2023-02-01T21:54:00Z,44.13,-123.22,10.6,0.6,0,0,,10.0,30.121063,1020.2,,,TRUE,,,,,,,FEW,15000,SCT,25000,,,,,VFR,,,,,,,,,,,,METAR,109.0
KEUG 012054Z VRB03KT 10SM SCT250 09/00 A3014 RMK AO2 SLP208 T00940000 58013,KEUG,2023-02-01T20:54:00Z,44.13,-123.22,9.4,0.0,0,3,,10.0,30.138779,1020.8,,,TRUE,,,,,,,SCT,25000,,,,,,,VFR,-1.3,,,,,,,,,,,METAR,109.0
KEUG 011954Z 00000KT 10SM SCT250 08/M02 A3016 RMK AO2 SLP215 T00781017,KEUG,2023-02-01T19:54:00Z,44.13,-123.22,7.8,-1.7,0,0,,10.0,30.159449,1021.5,,,TRUE,,,,,,,SCT,25000,,,,,,,VFR,,,,,,,,,,,,METAR,109.0
KEUG 011854Z 26003KT 10SM SCT250 05/M01 A3017 RMK AO2 SLP220 T00501006,KEUG,2023-02-01T18:54:00Z,44.13,-123.22,5.0,-0.6,260,3,,10.0,30.171259,1022.0,,,TRUE,,,,,,,SCT,25000,,,,,,,VFR,,,,,,,,,,,,METAR,109.0
KEUG 011754Z 00000KT 10SM BKN250 02/M02 A3017 RMK AO2 SLP222 I6000 T00171017 10017 21044 50002,KEUG,2023-02-01T17:54:00Z,44.13,-123.22,1.7,-1.7,0,0,,10.0,30.171259,1022.2,,,TRUE,,,,,,,BKN,25000,,,,,,,VFR,0.2,1.7,-4.4,,,,,,,,,SPECI,109.0
KEUG 011654Z 00000KT 10SM BKN200 M01/M02 A3018 RMK AO2 SLP224 T10061022,KEUG,2023-02-01T16:54:00Z,44.13,-123.22,-0.6,-2.2,0,0,,10.0,30.180119,1022.4,,,TRUE,,,,,,,BKN,20000,,,,,,,VFR,,,,,,,,,,,,METAR,109.0
KEUG 011554Z 00000KT 10SM BKN200 M03/M04 A3017 RMK AO2 SLP220 T10281044,KEUG,2023-02-01T15:54:00Z,44.13,-123.22,-2.8,-4.4,0,0,,10.0,30.171259,1022.0,,,TRUE,,,,,,,BKN,20000,,,,,,,VFR,,,,,,,,,,,,SPECI,109.0
KEUG 011454Z 22005KT 10SM SCT200 M04/M06 A3017 RMK AO2 SLP220 I1000 I3000 T10391056 51002,KEUG,2023-02-01T14:54:00Z,44.13,-123.22,-3.9,-5.6,220,5,,10.0,30.171259,1022.0,,,TRUE,,,,,,,SCT,20000,,,,,,,VFR,0.2,,,,,,,,,,,METAR,109.0
KEUG 011354Z 19005KT 10SM BKN200 M04/M06 A3016 RMK AO2 SLP218 I1000 T10391056,KEUG,2023-02-01T13:54:00Z,44.13,-123.22,-3.9,-5.6,190,5,,10.0,30.159449,1021.8,,,TRUE,,,,,,,BKN,20000,,,,,,,VFR,,,,,,,,,,,,METAR,109.0
KEUG 011254Z AUTO 19003KT 10SM CLR M04/M06 A3017 RMK AO2 SLP221 I1000 T10391056,KEUG,2023-02-01T12:54:00Z,44.13,-123.22,-3.9,-5.6,190,3,,10.0,30.171259,1022.1,,TRUE,TRUE,,,,,,,CLR,,,,,,,,VFR,,,,,,,,,,,,METAR,109.0
KEUG 011154Z AUTO 00000KT 8SM CLR M03/M04 A3016 RMK AO2 SLP217 T10281039 11006 21033 58000,KEUG,2023-02-01T11:54:00Z,44.13,-123.22,-2.8,-3.9,0,0,,8.0,30.159449,1021.7,,TRUE,TRUE,,,,,,,CLR,,,,,,,,VFR,0.0,-0.6,-3.3,,,,,,,,,METAR,109.0
KEUG 011054Z AUTO 31003KT 10SM CLR M03/M04 A3017 RMK AO2 SLP218 T10281044,KEUG,2023-02-01T10:54:00Z,44.13,-123.22,-2.8,-4.4,310,3,,10.0,30.171259,1021.8,,TRUE,TRUE,,,,,,,CLR,,,,,,,,VFR,,,,,,,,,,,,METAR,109.0
KEUG 010954Z AUTO 00000KT 10SM CLR M01/M03 A3016 RMK AO2 SLP217 T10111028,KEUG,2023-02-01T09:54:00Z,44.13,-123.22,-1.1,-2.8,0,0,,10.0,30.159449,1021.7,,TRUE,TRUE,,,,,,,CLR,,,,,,,,VFR,,,,,,,,,,,,METAR,109.0
KEUG 010854Z AUTO 21007KT 10SM CLR M01/M03 A3016 RMK AO2 SLP218 T10111028 58005,KEUG,2023-02-01T08:54:00Z,44.13,-123.22,-1.1,-2.8,210,7,,10.0,30.159449,1021.8,,TRUE,TRUE,,,,,,,CLR,,,,,,,,VFR,-0.5,,,,,,,,,,,METAR,109.0
KEUG 010754Z AUTO 21005KT 10SM CLR M01/M03 A3017 RMK AO2 SLP219 T10111033 400561056,KEUG,2023-02-01T07:54:00Z,44.13,-123.22,-1.1,-3.3,210,5,,10.0,30.171259,1021.9,,TRUE,TRUE,,,,,,,CLR,,,,,,,,VFR,,,,5.6,-5.6,,,,,,,METAR,109.0
KEUG 010654Z 20006KT 10SM FEW250 M01/M03 A3018 RMK AO2 SLP223 T10111033,KEUG,2023-02-01T06:54:00Z,44.13,-123.22,-1.1,-3.3,200,6,,10.0,30.180119,1022.3,,,TRUE,,,,,,,FEW,25000,,,,,,,VFR,,,,,,,,,,,,METAR,109.0
KEUG 010554Z 22007KT 10SM FEW250 M01/M03 A3018 RMK AO2 SLP223 T10111033 10050 21022 58005,KEUG,2023-02-01T05:54:00Z,44.13,-123.22,-1.1,-3.3,220,7,,10.0,30.180119,1022.3,,,TRUE,,,,,,,FEW,25000,,,,,,,VFR,-0.5,5.0,-2.2,,,,,,,,,METAR,109.0
KEUG 010454Z 22004KT 10SM SCT200 M02/M04 A3019 RMK AO2 SLP226 T10171044,KEUG,2023-02-01T04:54:00Z,44.13,-123.22,-1.7,-4.4,220,4,,10.0,30.188976,1022.6,,,TRUE,,,,,,,SCT,20000,,,,,,,VFR,,,,,,,,,,,,METAR,109.0
KEUG 010354Z 26003KT 10SM BKN150 M01/M04 A3019 RMK AO2 SLP230 T10061039,KEUG,2023-02-01T03:54:00Z,44.13,-123.22,-0.6,-3.9,260,3,,10.0,30.188976,1023.0,,,TRUE,,,,,,,BKN,15000,,,,,,,VFR,,,,,,,,,,,,METAR,109.0
KEUG 010254Z 00000KT 10SM OVC150 01/M02 A3019 RMK AO2 SLP228 T00111022 51003,KEUG,2023-02-01T02:54:00Z,44.13,-123.22,1.1,-2.2,0,0,,10.0,30.188976,1022.8,,,TRUE,,,,,,,OVC,15000,,,,,,,VFR,0.3,,,,,,,,,,,METAR,109.0
KEUG 010154Z 35004KT 10SM OVC150 02/M03 A3019 RMK AO2 SLP228 T00221028,KEUG,2023-02-01T01:54:00Z,44.13,-123.22,2.2,-2.8,350,4,,10.0,30.188976,1022.8,,,TRUE,,,,,,,OVC,15000,,,,,,,VFR,,,,,,,,,,,,METAR,109.0
KEUG 010054Z 36005KT 10SM OVC160 03/M02 A3019 RMK AO2 SLP229 T00331017,KEUG,2023-02-01T00:54:00Z,44.13,-123.22,3.3,-1.7,360,5,,10.0,30.188976,1022.9,,,TRUE,,,,,,,OVC,16000,,,,,,,VFR,,,,,,,,,,,,METAR,109.0
KEUG 312354Z 00000KT 10SM OVC160 05/M03 A3019 RMK AO2 SLP225 T00501028 10056 21011 55019,KEUG,2023-01-31T23:54:00Z,44.13,-123.22,5.0,-2.8,0,0,,10.0,30.188976,1022.5,,,TRUE,,,,,,,OVC,16000,,,,,,,VFR,-1.9,5.6,-1.1,,,,,,,,,METAR,109.0
KEUG 312254Z 22005KT 10SM OVC250 06/M04 A3018 RMK AO2 SLP225 T00561039,KEUG,2023-01-31T22:54:00Z,44.13,-123.22,5.6,-3.9,220,5,,10.0,30.180119,1022.5,,,TRUE,,,,,,,OVC,25000,,,,,,,VFR,,,,,,,,,,,,METAR,109.0
KEUG 312154Z 07004KT 10SM BKN250 05/M04 A3021 RMK AO2 SLP234 T00501044,KEUG,2023-01-31T21:54:00Z,44.13,-123.22,5.0,-4.4,70,4,,10.0,30.209646,1023.4,,,TRUE,,,,,,,BKN,25000,,,,,,,VFR,,,,,,,,,,,,METAR,109.0
KEUG 312054Z 02007KT 10SM BKN170 BKN250 03/M03 A3024 RMK AO2 SLP245 T00281033 57009,KEUG,2023-01-31T20:54:00Z,44.13,-123.22,2.8,-3.3,20,7,,10.0,30.239174,1024.5,,,TRUE,,,,,,,BKN,17000,BKN,25000,,,,,VFR,-0.9,,,,,,,,,,,METAR,109.0
KEUG 311954Z 08003KT 10SM BKN230 02/M03 A3025 RMK AO2 SLP246 T00221033,KEUG,2023-01-31T19:54:00Z,44.13,-123.22,2.2,-3.3,80,3,,10.0,30.250984,1024.6,,,TRUE,,,,,,,BKN,23000,,,,,,,VFR,,,,,,,,,,,,METAR,109.0
KEUG 311854Z 00000KT 10SM BKN200 01/M04 A3027 RMK AO2 SLP253 T00061044,KEUG,2023-01-31T18:54:00Z,44.13,-123.22,0.6,-4.4,0,0,,10.0,30.268702,1025.3,,,TRUE,,,,,,,BKN,20000,,,,,,,VFR,,,,,,,,,,,,METAR,109.0
KEUG 311754Z 21005KT 10SM OVC200 M01/M04 A3027 RMK AO2 SLP254 T10111044 11011 21056 58009,KEUG,2023-01-31T17:54:00Z,44.13,-123.22,-1.1,-4.4,210,5,,10.0,30.268702,1025.4,,,TRUE,,,,,,,OVC,20000,,,,,,,VFR,-0.9,-1.1,-5.6,,,,,,,,,METAR,109.0
KEUG 311654Z 26003KT 10SM BKN110 OVC150 M02/M06 A3029 RMK AO2 SLP263 T10221056,KEUG,2023-01-31T16:54:00Z,44.13,-123.22,-2.2,-5.6,260,3,,10.0,30.28937,1026.3,,,TRUE,,,,,,,BKN,11000,OVC,15000,,,,,VFR,,,,,,,,,,,,METAR,109.0
KEUG 311554Z 00000KT 10SM OVC150 M04/M06 A3030 RMK AO2 SLP265 T10391061,KEUG,2023-01-31T15:54:00Z,44.13,-123.22,-3.9,-6.1,0,0,,10.0,30.301182,1026.5,,,TRUE,,,,,,,OVC,15000,,,,,,,VFR,,,,,,,,,,,,METAR,109.0
KEUG 311454Z 00000KT 10SM OVC180 M04/M06 A3030 RMK AO2 SLP265 T10391061 55002 $,KEUG,2023-01-31T14:54:00Z,44.13,-123.22,-3.9,-6.1,0,0,,10.0,30.301182,1026.5,,,TRUE,TRUE,,,,,,OVC,18000,,,,,,,VFR,-0.2,,,,,,,,,,,METAR,109.0
KEUG 311354Z 00000KT 10SM BKN190 M04/M06 A3029 RMK AO2 SLP262 T10391061,KEUG,2023-01-31T13:54:00Z,44.13,-123.22,-3.9,-6.1,0,0,,10.0,30.28937,1026.2,,,TRUE,,,,,,,BKN,19000,,,,,,,VFR,,,,,,,,,,,,METAR,109.0
KEUG 311254Z AUTO 21004KT 10SM CLR M06/M08 A3029 RMK AO2 SLP261 T10561078,KEUG,2023-01-31T12:54:00Z,44.13,-123.22,-5.6,-7.8,210,4,,10.0,30.28937,1026.1,,TRUE,TRUE,,,,,,,CLR,,,,,,,,VFR,,,,,,,,,,,,METAR,109.0
KEUG 311154Z AUTO 19005KT 10SM CLR M06/M07 A3031 RMK AO2 SLP266 7//// T10561072 11022 21056 58011,KEUG,2023-01-31T11:54:00Z,44.13,-123.22,-5.6,-7.2,190,5,,10.0,30.31004,1026.6,,TRUE,TRUE,,,,,,,CLR,,,,,,,,VFR,-1.1,-2.2,-5.6,,,,,,,,,METAR,109.0
KEUG 311054Z AUTO 20005KT 10SM CLR M05/M07 A3032 RMK AO2 SLP270 T10501072,KEUG,2023-01-31T10:54:00Z,44.13,-123.22,-5.0,-7.2,200,5,,10.0,30.318897,1027.0,,TRUE,TRUE,,,,,,,CLR,,,,,,,,VFR,,,,,,,,,,,,METAR,109.0
KEUG 310954Z AUTO 00000KT 10SM CLR M04/M07 A3033 RMK AO2 SLP275 T10441072,KEUG,2023-01-31T09:54:00Z,44.13,-123.22,-4.4,-7.2,0,0,,10.0,30.33071,1027.5,,TRUE,TRUE,,,,,,,CLR,,,,,,,,VFR,,,,,,,,,,,,METAR,109.0
KEUG 310854Z AUTO 00000KT 10SM CLR M04/M07 A3034 RMK AO2 SLP277 T10441072 58002,KEUG,2023-01-31T08:54:00Z,44.13,-123.22,-4.4,-7.2,0,0,,10.0,30.339567,1027.7,,TRUE,TRUE,,,,,,,CLR,,,,,,,,VFR,-0.2,,,,,,,,,,,METAR,109.0
KEUG 310754Z AUTO 20004KT 10SM CLR M04/M07 A3034 RMK AO2 SLP278 T10441072 400391061,KEUG,2023-01-31T07:54:00Z,44.13,-123.22,-4.4,-7.2,200,4,,10.0,30.339567,1027.8,,TRUE,TRUE,,,,,,,CLR,,,,,,,,VFR,,,,3.9,-6.1,,,,,,,METAR,109.0
KEUG 310654Z 00000KT 10SM SCT200 M03/M06 A3035 RMK AO2 SLP282 T10281061,KEUG,2023-01-31T06:54:00Z,44.13,-123.22,-2.8,-6.1,0,0,,10.0,30.351377,1028.2,,,TRUE,,,,,,,SCT,20000,,,,,,,VFR,,,,,,,,,,,,SPECI,109.0
KEUG 310554Z 22003KT 10SM BKN200 M03/M06 A3034 RMK AO2 SLP279 T10281056 10039 21033 53006,KEUG,2023-01-31T05:54:00Z,44.13,-123.22,-2.8,-5.6,220,3,,10.0,30.339567,1027.9,,,TRUE,,,,,,,BKN,20000,,,,,,,VFR,0.6,3.9,-3.3,,,,,,,,,METAR,109.0
KEUG 310454Z 00000KT 10SM BKN200 M03/M06 A3033 RMK AO2 SLP274 T10281061,KEUG,2023-01-31T04:54:00Z,44.13,-123.22,-2.8,-6.1,0,0,,10.0,30.33071,1027.4,,,TRUE,,,,,,,BKN,20000,,,,,,,VFR,,,,,,,,,,,,METAR,109.0
KEUG 310354Z 33003KT 10SM BKN200 M02/M06 A3034 RMK AO2 SLP279 T10221056,KEUG,2023-01-31T03:54:00Z,44.13,-123.22,-2.2,-5.6,330,3,,10.0,30.339567,1027.9,,,TRUE,,,,,,,BKN,20000,,,,,,,VFR,,,,,,,,,,,,METAR,109.0
KEUG 310254Z 00000KT 10SM FEW200 M02/M07 A3033 RMK AO2 SLP274 T10171067 58011,KEUG,2023-01-31T02:54:00Z,44.13,-123.22,-1.7,-6.7,0,0,,10.0,30.33071,1027.4,,,TRUE,,,,,,,FEW,20000,,,,,,,VFR,-1.1,,,,,,,,,,,METAR,109.0
KEUG 310154Z 00000KT 10SM FEW200 M01/M06 A3034 RMK AO2 SLP278 T10061056,KEUG,2023-01-31T01:54:00Z,44.13,-123.22,-0.6,-5.6,0,0,,10.0,30.339567,1027.8,,,TRUE,,,,,,,FEW,20000,,,,,,,VFR,,,,,,,,,,,,METAR,109.0
KEUG 310054Z 35005KT 10SM FEW250 02/M06 A3037 RMK AO2 SLP287 T00221056,KEUG,2023-01-31T00:54:00Z,44.13,-123.22,2.2,-5.6,350,5,,10.0,30.369095,1028.7,,,TRUE,,,,,,,FEW,25000,,,,,,,VFR,,,,,,,,,,,,METAR,109.0
KEUG 302354Z 01010KT 10SM FEW200 03/M07 A3036 RMK AO2 SLP285 6//// T00331072 10039 21011 56007,KEUG,2023-01-30T23:54:00Z,44.13,-123.22,3.3,-7.2,10,10,,10.0,30.360237,1028.5,,,TRUE,,,,,,,FEW,20000,,,,,,,VFR,-0.7,3.9,-1.1,,,,,,,,,METAR,109.0
KEUG 302254Z 36011KT 10SM FEW250 04/M08 A3037 RMK AO2 SLP289 T00391078,KEUG,2023-01-30T22:54:00Z,44.13,-123.22,3.9,-7.8,360,11,,10.0,30.369095,1028.9,,,TRUE,,,,,,,FEW,25000,,,,,,,VFR,,,,,,,,,,,,METAR,109.0
KEUG 302154Z 01008KT 10SM CLR 03/M08 A3036 RMK AO2 SLP286 T00331078,KEUG,2023-01-30T21:54:00Z,44.13,-123.22,3.3,-7.8,10,8,,10.0,30.360237,1028.6,,,TRUE,,,,,,,CLR,,,,,,,,VFR,,,,,,,,,,,,METAR,109.0
KEUG 302054Z 01010KT 10SM FEW250 02/M09 A3038 RMK AO2 SLP292 6//// T00171094 58015 PNO VISNO RNW 34 $,KEUG,2023-01-30T20:54:00Z,44.13,-123.22,1.7,-9.4,10,10,,10.0,30.380905,1029.2,,,TRUE,TRUE,,,,,,FEW,25000,,,,,,,VFR,-1.5,,,,,,,,,,,SPECI,109.0
KEUG 301954Z 01010KT 10SM FEW250 01/M10 A3040 RMK AO2 SLP299 T00111100 PNO VISNO RNW 34 $,KEUG,2023-01-30T19:54:00Z,44.13,-123.22,1.1,-10.0,10,10,,10.0,30.398623,1029.9,,,TRUE,TRUE,,,,,,FEW,25000,,,,,,,VFR,,,,,,,,,,,,METAR,109.0
KEUG 301854Z 01009KT 10SM FEW250 00/M11 A3043 RMK AO2 SLP309 T00001106 PNO VISNO RNW 34 $,KEUG,2023-01-30T18:54:00Z,44.13,-123.22,0.0,-10.6,10,9,,10.0,30.431103,1030.9,,,TRUE,TRUE,,,,,,FEW,25000,,,,,,,VFR,,,,,,,,,,,,METAR,109.0
KEUG 301754Z 01007KT 10SM FEW250 M01/M11 A3043 RMK AO2 SLP307 6//// T10111106 11011 21061 56001 PNO VISNO RNW 34 $,KEUG,2023-01-30T17:54:00Z,44.13,-123.22,-1.1,-10.6,10,7,,10.0,30.431103,1030.7,,,TRUE,TRUE,,,,,,FEW,25000,,,,,,,VFR,-0.1,-1.1,-6.1,,,,,,,,,METAR,109.0
KEUG 301654Z 02005KT 10SM FEW250 M03/M09 A3043 RMK AO2 SLP310 T10281094,KEUG,2023-01-30T16:54:00Z,44.13,-123.22,-2.8,-9.4,20,5,,10.0,30.431103,1031.0,,,TRUE,,,,,,,FEW,25000,,,,,,,VFR,,,,,,,,,,,,SPECI,109.0
KEUG 301554Z 03004KT 10SM FEW250 M05/M10 A3041 RMK AO2 SLP302 T10501100,KEUG,2023-01-30T15:54:00Z,44.13,-123.22,-5.0,-10.0,30,4,,10.0,30.410433,1030.2,,,TRUE,,,,,,,FEW,25000,,,,,,,VFR,,,,,,,,,,,,METAR,109.0
KEUG 301454Z 03005KT 10SM CLR M05/M10 A3043 RMK AO2 SLP309 T10501100 53009,KEUG,2023-01-30T14:54:00Z,44.13,-123.22,-5.0,-10.0,30,5,,10.0,30.431103,1030.9,,,TRUE,,,,,,,CLR,,,,,,,,VFR,0.9,,,,,,,,,,,METAR,109.0
KEUG 301354Z 36004KT 10SM CLR M06/M09 A3040 RMK AO2 SLP299 T10561094,KEUG,2023-01-30T13:54:00Z,44.13,-123.22,-5.6,-9.4,360,4,,10.0,30.398623,1029.9,,,TRUE,,,,,,,CLR,,,,,,,,VFR,,,,,,,,,,,,METAR,109.0
