No errors
No warnings
47 ms
data source=metars
474 results
raw_text,station_id,observation_time,latitude,longitude,temp_c,dewpoint_c,wind_dir_degrees,wind_speed_kt,wind_gust_kt,visibility_statute_mi,altim_in_hg,sea_level_pressure_mb,corrected,auto,auto_station,maintenance_indicator_on,no_signal,lightning_sensor_off,freezing_rain_sensor_off,present_weather_sensor_off,wx_string,sky_cover,cloud_base_ft_agl,sky_cover,cloud_base_ft_agl,sky_cover,cloud_base_ft_agl,sky_cover,cloud_base_ft_agl,flight_category,three_hr_pressure_tendency_mb,maxT_c,minT_c,maxT24hr_c,minT24hr_c,precip_in,pcp3hr_in,pcp6hr_in,pcp24hr_in,snow_in,vert_vis_ft,metar_type,elevation_m
KEUG 021654Z 19012KT 10SM BKN028 OVC036 04/00 A3013 RMK AO2 SLP205 T00440000,KEUG,2023-03-02T16:54:00Z,44.13,-123.22,4.4,0.0,190,12,,10.0,30.129921,1020.5,,,TRUE,,,,,,,BKN,2800,OVC,3600,,,,,MVFR,,,,,,,,,,,,METAR,109.0
KEUG 021628Z 19012KT 10SM OVC028 04/M01 A3013 RMK AO2 T00441006,KEUG,2023-03-02T16:28:00Z,44.13,-123.22,4.4,-0.6,190,12,,10.0,30.129921,,,,TRUE,,,,,,,OVC,2800,,,,,,,MVFR,,,,,,,,,,,,SPECI,109.0
KEUG 021554Z 18011KT 10SM BKN034 OVC047 04/M01 A3013 RMK AO2 SLP205 T00441006,KEUG,2023-03-02T15:54:00Z,44.13,-123.22,4.4,-0.6,180,11,,10.0,30.129921,1020.5,,,TRUE,,,,,,,BKN,3400,OVC,4700,,,,,VFR,,,,,,,,,,,,METAR,109.0
KEUG 021454Z 18010KT 10SM OVC042 04/M01 A3014 RMK AO2 SLP207 T00441006 58016,KEUG,2023-03-02T14:54:00Z,44.13,-123.22,4.4,-0.6,180,10,,10.0,30.138779,1020.7,,,TRUE,,,,,,,OVC,4200,,,,,,,VFR,-1.6,,,,,,,,,,,METAR,109.0
KEUG 021354Z 16010KT 10SM FEW035 OVC050 04/M01 A3016 RMK AO2 SLP214 T00391006,KEUG,2023-03-02T13:54:00Z,44.13,-123.22,3.9,-0.6,160,10,,10.0,30.159449,1021.4,,,TRUE,,,,,,,FEW,3500,OVC,5000,,,,,VFR,,,,,,,,,,,,METAR,109.0
KEUG 021254Z AUTO 18011KT 10SM OVC050 04/00 A3017 RMK AO2 SLP218 T00390000,KEUG,2023-03-02T12:54:00Z,44.13,-123.22,3.9,0.0,180,11,,10.0,30.171259,1021.8,,TRUE,TRUE,,,,,,,OVC,5000,,,,,,,VFR,,,,,,,,,,,,METAR,109.0
KEUG 021154Z AUTO 18007KT 10SM OVC055 04/00 A3018 RMK AO2 SLP222 T00390000 10039 20017 56007,KEUG,2023-03-02T11:54:00Z,44.13,-123.22,3.9,0.0,180,7,,10.0,30.180119,1022.2,,TRUE,TRUE,,,,,,,OVC,5500,,,,,,,VFR,-0.7,3.9,1.7,,,,,,,,,METAR,109.0
KEUG 021054Z AUTO 16007KT 10SM OVC060 04/00 A3019 RMK AO2 SLP225 T00390000,KEUG,2023-03-02T10:54:00Z,44.13,-123.22,3.9,0.0,160,7,,10.0,30.188976,1022.5,,TRUE,TRUE,,,,,,,OVC,6000,,,,,,,VFR,,,,,,,,,,,,METAR,109.0
KEUG 020954Z AUTO 17006KT 10SM BKN055 OVC065 04/01 A3019 RMK AO2 SLP226 T00390006,KEUG,2023-03-02T09:54:00Z,44.13,-123.22,3.9,0.6,170,6,,10.0,30.188976,1022.6,,TRUE,TRUE,,,,,,,BKN,5500,OVC,6500,,,,,VFR,,,,,,,,,,,,METAR,109.0
KEUG 020854Z AUTO 19004KT 10SM BKN060 OVC075 03/01 A3020 RMK AO2 SLP229 T00330006 55004,KEUG,2023-03-02T08:54:00Z,44.13,-123.22,3.3,0.6,190,4,,10.0,30.200787,1022.9,,TRUE,TRUE,,,,,,,BKN,6000,OVC,7500,,,,,VFR,-0.4,,,,,,,,,,,METAR,109.0
KEUG 020754Z AUTO 15008KT 10SM SCT065 OVC095 03/01 A3019 RMK AO2 CIG 065 RNW 34 SLP226 T00330006 400890000,KEUG,2023-03-02T07:54:00Z,44.13,-123.22,3.3,0.6,150,8,,10.0,30.188976,1022.6,,TRUE,TRUE,,,,,,,SCT,6500,OVC,9500,,,,,VFR,,,,8.9,,,,,,,,METAR,109.0
KEUG 020654Z 18004KT 10SM OVC070 03/00 A3022 RMK AO2 SLP236 T00280000,KEUG,2023-03-02T06:54:00Z,44.13,-123.22,2.8,0.0,180,4,,10.0,30.221457,1023.6,,,TRUE,,,,,,,OVC,7000,,,,,,,VFR,,,,,,,,,,,,METAR,109.0
KEUG 020554Z 21003KT 10SM BKN075 02/M01 A3021 RMK AO2 SLP234 T00171006 10089 20011 53002,KEUG,2023-03-02T05:54:00Z,44.13,-123.22,1.7,-0.6,210,3,,10.0,30.209646,1023.4,,,TRUE,,,,,,,BKN,7500,,,,,,,VFR,0.2,8.9,1.1,,,,,,,,,METAR,109.0
KEUG 020454Z 19005KT 10SM FEW050 02/M01 A3019 RMK AO2 SLP227 T00221006,KEUG,2023-03-02T04:54:00Z,44.13,-123.22,2.2,-0.6,190,5,,10.0,30.188976,1022.7,,,TRUE,,,,,,,FEW,5000,,,,,,,VFR,,,,,,,,,,,,SPECI,109.0
KEUG 020354Z 22004KT 10SM FEW045 03/M01 A3020 RMK AO2 SLP230 T00281006,KEUG,2023-03-02T03:54:00Z,44.13,-123.22,2.8,-0.6,220,4,,10.0,30.200787,1023.0,,,TRUE,,,,,,,FEW,4500,,,,,,,VFR,,,,,,,,,,,,METAR,109.0
KEUG 020254Z 25004KT 10SM FEW100 BKN250 04/M01 A3021 RMK AO2 SLP232 T00391006 53008,KEUG,2023-03-02T02:54:00Z,44.13,-123.22,3.9,-0.6,250,4,,10.0,30.209646,1023.2,,,TRUE,,,,,,,FEW,10000,BKN,25000,,,,,VFR,0.8,,,,,,,,,,,METAR,109.0
KEUG 020154Z 20003KT 10SM FEW120 BKN250 06/M01 A3019 RMK AO2 SLP227 T00611011,KEUG,2023-03-02T01:54:00Z,44.13,-123.22,6.1,-1.1,200,3,,10.0,30.188976,1022.7,,,TRUE,,,,,,,FEW,12000,BKN,25000,,,,,VFR,,,,,,,,,,,,METAR,109.0
KEUG 020054Z 21004KT 10SM FEW045 SCT120 BKN250 08/M02 A3019 RMK AO2 SLP224 T00831022,KEUG,2023-03-02T00:54:00Z,44.13,-123.22,8.3,-2.2,210,4,,10.0,30.188976,1022.4,,,TRUE,,,,,,,FEW,4500,SCT,12000,BKN,25000,,,VFR,,,,,,,,,,,,SPECI,109.0
KEUG 012354Z 00000KT 10SM SCT044 BKN250 08/M03 A3018 RMK AO2 SLP223 T00831028 10089 20044 52004,KEUG,2023-03-01T23:54:00Z,44.13,-123.22,8.3,-2.8,0,0,,10.0,30.180119,1022.3,,,TRUE,,,,,,,SCT,4400,BKN,25000,,,,,VFR,0.4,8.9,4.4,,,,,,,,,METAR,109.0
KEUG 012254Z 02003KT 10SM BKN040 BKN250 09/M02 A3018 RMK AO2 SLP221 T00891022,KEUG,2023-03-01T22:54:00Z,44.13,-123.22,8.9,-2.2,20,3,,10.0,30.180119,1022.1,,,TRUE,,,,,,,BKN,4000,BKN,25000,,,,,VFR,,,,,,,,,,,,METAR,109.0
KEUG 012154Z 28003KT 10SM BKN039 BKN250 07/M02 A3018 RMK AO2 SLP222 T00671017,KEUG,2023-03-01T21:54:00Z,44.13,-123.22,6.7,-1.7,280,3,,10.0,30.180119,1022.2,,,TRUE,,,,,,,BKN,3900,BKN,25000,,,,,VFR,,,,,,,,,,,,METAR,109.0
KEUG 012128Z VRB03KT 10SM BKN034 BKN250 07/M02 A3017 RMK AO2 T00671017,KEUG,2023-03-01T21:28:00Z,44.13,-123.22,6.7,-1.7,0,3,,10.0,30.171259,,,,TRUE,,,,,,,BKN,3400,BKN,25000,,,,,VFR,,,,,,,,,,,,METAR,109.0
KEUG 012054Z 20003KT 10SM BKN027 BKN250 07/M01 A3017 RMK AO2 SLP220 T00671006 51012,KEUG,2023-03-01T20:54:00Z,44.13,-123.22,6.7,-0.6,200,3,,10.0,30.171259,1022.0,,,TRUE,,,,,,,BKN,2700,BKN,25000,,,,,MVFR,1.2,,,,,,,,,,,METAR,109.0
KEUG 012037Z 00000KT 10SM BKN027 BKN250 06/M01 A3017 RMK AO2 T00561006,KEUG,2023-03-01T20:37:00Z,44.13,-123.22,5.6,-0.6,0,0,,10.0,30.171259,,,,TRUE,,,,,,,BKN,2700,BKN,25000,,,,,MVFR,,,,,,,,,,,,SPECI,109.0
KEUG 011954Z 00000KT 10SM BKN030 BKN250 06/M01 A3016 RMK AO2 SLP217 T00611011,KEUG,2023-03-01T19:54:00Z,44.13,-123.22,6.1,-1.1,0,0,,10.0,30.159449,1021.7,,,TRUE,,,,,,,BKN,3000,BKN,25000,,,,,MVFR,,,,,,,,,,,,METAR,109.0
KEUG 011854Z 02004KT 10SM FEW015 FEW032 BKN250 06/00 A3016 RMK AO2 SLP215 T00610000,KEUG,2023-03-01T18:54:00Z,44.13,-123.22,6.1,0.0,20,4,,10.0,30.159449,1021.5,,,TRUE,,,,,,,FEW,1500,FEW,3200,BKN,25000,,,VFR,,,,,,,,,,,,METAR,109.0
KEUG 011754Z 18003KT 10SM FEW013 SCT030 BKN250 05/01 A3014 RMK AO2 SLP208 T00500011 10050 20000 53027,KEUG,2023-03-01T17:54:00Z,44.13,-123.22,5.0,1.1,180,3,,10.0,30.138779,1020.8,,,TRUE,,,,,,,FEW,1300,SCT,3000,BKN,25000,,,VFR,2.7,5.0,0.0,,,,,,,,,METAR,109.0
KEUG 011721Z 13003KT 10SM SCT030 BKN200 04/01 A3013 RMK AO2 T00390006,KEUG,2023-03-01T17:21:00Z,44.13,-123.22,3.9,0.6,130,3,,10.0,30.129921,,,,TRUE,,,,,,,SCT,3000,BKN,20000,,,,,VFR,,,,,,,,,,,,SPECI,109.0
KEUG 011654Z 00000KT 10SM BKN028 03/01 A3011 RMK AO2 SLP199 T00330006,KEUG,2023-03-01T16:54:00Z,44.13,-123.22,3.3,0.6,0,0,,10.0,30.109253,1019.9,,,TRUE,,,,,,,BKN,2800,,,,,,,MVFR,,,,,,,,,,,,METAR,109.0
KEUG 011554Z 00000KT 10SM BKN028 01/00 A3008 RMK AO2 SLP188 T00060000,KEUG,2023-03-01T15:54:00Z,44.13,-123.22,0.6,0.0,0,0,,10.0,30.079725,1018.8,,,TRUE,,,,,,,BKN,2800,,,,,,,MVFR,,,,,,,,,,,,METAR,109.0
KEUG 011454Z 00000KT 10SM BKN028 01/M01 A3006 RMK AO2 SLP182 T00061006 51034,KEUG,2023-03-01T14:54:00Z,44.13,-123.22,0.6,-0.6,0,0,,10.0,30.059055,1018.2,,,TRUE,,,,,,,BKN,2800,,,,,,,MVFR,3.4,,,,,,,,,,,METAR,109.0
KEUG 011423Z 30003KT 10SM BKN028 00/M01 A3004 RMK AO2 T00001011,KEUG,2023-03-01T14:23:00Z,44.13,-123.22,0.0,-1.1,300,3,,10.0,30.041338,,,,TRUE,,,,,,,BKN,2800,,,,,,,MVFR,,,,,,,,,,,,SPECI,109.0
KEUG 011354Z 01004KT 10SM SCT028 01/00 A3002 RMK AO2 SLP169 T00110000,KEUG,2023-03-01T13:54:00Z,44.13,-123.22,1.1,0.0,10,4,,10.0,30.02067,1016.9,,,TRUE,,,,,,,SCT,2800,,,,,,,VFR,,,,,,,,,,,,METAR,109.0
KEUG 011347Z 36003KT 10SM SCT028 01/00 A3002 RMK AO2 T00110000,KEUG,2023-03-01T13:47:00Z,44.13,-123.22,1.1,0.0,360,3,,10.0,30.02067,,,,TRUE,,,,,,,SCT,2800,,,,,,,VFR,,,,,,,,,,,,SPECI,109.0
KEUG 011254Z AUTO 34005KT 10SM OVC026 02/00 A2999 RMK AO2 SLP159 T00170000,KEUG,2023-03-01T12:54:00Z,44.13,-123.22,1.7,0.0,340,5,,10.0,29.991142,1015.9,,TRUE,TRUE,,,,,,,OVC,2600,,,,,,,MVFR,,,,,,,,,,,,METAR,109.0
KEUG 011154Z AUTO 32006KT 10SM OVC026 02/01 A2996 RMK AO2 SLP147 60001 70031 T00170006 10022 20017 53027,KEUG,2023-03-01T11:54:00Z,44.13,-123.22,1.7,0.6,320,6,,10.0,29.958662,1014.7,,TRUE,TRUE,,,,,,,OVC,2600,,,,,,,MVFR,2.7,2.2,1.7,,,,,0.01,0.31,,,METAR,109.0
KEUG 011054Z AUTO 33003KT 10SM FEW016 OVC028 02/01 A2992 RMK AO2 SLP135 T00220006,KEUG,2023-03-01T10:54:00Z,44.13,-123.22,2.2,0.6,330,3,,10.0,29.920275,1013.5,,TRUE,TRUE,,,,,,,FEW,1600,OVC,2800,,,,,MVFR,,,,,,,,,,,,METAR,109.0
KEUG 010954Z AUTO 00000KT 10SM FEW014 BKN028 OVC034 02/01 A2990 RMK AO2 SLP127 T00220006,KEUG,2023-03-01T09:54:00Z,44.13,-123.22,2.2,0.6,0,0,,10.0,29.899607,1012.7,,TRUE,TRUE,,,,,,,FEW,1400,BKN,2800,OVC,3400,,,MVFR,,,,,,,,,,,,METAR,109.0
KEUG 010945Z AUTO 30003KT 10SM FEW023 OVC030 02/01 A2989 RMK AO2 T00220006,KEUG,2023-03-01T09:45:00Z,44.13,-123.22,2.2,0.6,300,3,,10.0,29.890747,,,TRUE,TRUE,,,,,,,FEW,2300,OVC,3000,,,,,MVFR,,,,,,,,,,,,SPECI,109.0
KEUG 010854Z AUTO 31003KT 10SM OVC028 02/01 A2988 RMK AO2 RAE0758B14E15UPB15E25 SLP119 P0001 60001 T00170006 51029,KEUG,2023-03-01T08:54:00Z,44.13,-123.22,1.7,0.6,310,3,,10.0,29.878937,1011.9,,TRUE,TRUE,,,,,,,OVC,2800,,,,,,,MVFR,2.9,,,,,0.01,0.01,,,,,METAR,109.0
KEUG 010754Z AUTO 32003KT 9SM -RA BKN021 OVC028 02/01 A2985 RMK AO2 RAB19 SLP112 P0000 T00170006 400560006,KEUG,2023-03-01T07:54:00Z,44.13,-123.22,1.7,0.6,320,3,,9.0,29.84941,1011.2,,TRUE,TRUE,,,,,,-RA,BKN,2100,OVC,2800,,,,,MVFR,,,,5.6,0.6,0.005,,,,,,METAR,109.0
KEUG 010654Z 29004KT 10SM BKN023 OVC055 02/00 A2982 RMK AO2 UPB0557E09 SLP099 P0000 T00170000,KEUG,2023-03-01T06:54:00Z,44.13,-123.22,1.7,0.0,290,4,,10.0,29.819881,1009.9,,,TRUE,,,,,,,BKN,2300,OVC,5500,,,,,MVFR,,,,,,0.005,,,,,,METAR,109.0
KEUG 010554Z 28003KT 10SM BKN025 OVC037 02/01 A2979 RMK AO2 RAB0458E10 SLP090 P0000 60008 T00170006 10028 20011 53026,KEUG,2023-03-01T05:54:00Z,44.13,-123.22,1.7,0.6,280,3,,10.0,29.790354,1009.0,,,TRUE,,,,,,,BKN,2500,OVC,3700,,,,,MVFR,2.6,2.8,1.1,,,0.005,,,,,,SPECI,109.0
KEUG 010454Z 22003KT 10SM SCT021 OVC032 02/01 A2976 RMK AO2 SLP079 T00170006,KEUG,2023-03-01T04:54:00Z,44.13,-123.22,1.7,0.6,220,3,,10.0,29.760826,1007.9,,,TRUE,,,,,,,SCT,2100,OVC,3200,,,,,VFR,,,,,,,,,,,,METAR,109.0
KEUG 010354Z 20004KT 10SM BKN028 BKN038 OVC065 01/00 A2973 RMK AO2 SLP070 T00110000,KEUG,2023-03-01T03:54:00Z,44.13,-123.22,1.1,0.0,200,4,,10.0,29.731298,1007.0,,,TRUE,,,,,,,BKN,2800,BKN,3800,OVC,6500,,,MVFR,,,,,,,,,,,,METAR,109.0
KEUG 010254Z 18004KT 10SM FEW023 BKN065 BKN080 02/01 A2971 RMK AO2 SLP063 60008 T00170006 53023,KEUG,2023-03-01T02:54:00Z,44.13,-123.22,1.7,0.6,180,4,,10.0,29.71063,1006.3,,,TRUE,,,,,,,FEW,2300,BKN,6500,BKN,8000,,,VFR,2.3,,,,,,,,,,,SPECI,109.0
KEUG 010154Z 19004KT 10SM FEW010 SCT045 BKN090 02/01 A2968 RMK AO2 SLP053 T00220006,KEUG,2023-03-01T01:54:00Z,44.13,-123.22,2.2,0.6,190,4,,10.0,29.681103,1005.3,,,TRUE,,,,,,,FEW,1000,SCT,4500,BKN,9000,,,VFR,,,,,,,,,,,,METAR,109.0
KEUG 010054Z 18007KT 9SM FEW009 SCT085 BKN150 03/02 A2966 RMK AO2 RAE02SNE24 SLP045 P0008 T00280017,KEUG,2023-03-01T00:54:00Z,44.13,-123.22,2.8,1.7,180,7,,9.0,29.660433,1004.5,,,TRUE,,,,,,,FEW,900,SCT,8500,BKN,15000,,,VFR,,,,,,0.08,,,,,,METAR,109.0
KEUG 010025Z 18007KT 7SM SCT009 BKN060 BKN150 02/01 A2965 RMK AO2 RAE02SNE24 VCSH P0008 T00170006,KEUG,2023-03-01T00:25:00Z,44.13,-123.22,1.7,0.6,180,7,,7.0,29.648623,,,,TRUE,,,,,,,SCT,900,BKN,6000,BKN,15000,,,VFR,,,,,,0.08,,,,,,SPECI,109.0
KEUG 010009Z 22008KT 1SM R16R/4000VP6000FT -SN BR FEW007 OVC013 01/00 A2965 RMK AO2 RAE02 P0004 T00110000,KEUG,2023-03-01T00:09:00Z,44.13,-123.22,1.1,0.0,220,8,,1.0,29.648623,,,,TRUE,,,,,,-SN BR,FEW,700,OVC,1300,,,,,IFR,,,,,,0.04,,,,,,SPECI,109.0
KEUG 010002Z 23011KT 1SM R16R/6000VP6000FT -SN BR FEW007 BKN017 OVC034 02/01 A2965 RMK AO2 RAE02 P0002 T00220006,KEUG,2023-03-01T00:02:00Z,44.13,-123.22,2.2,0.6,230,11,,1.0,29.648623,,,,TRUE,,,,,,-SN BR,FEW,700,BKN,1700,OVC,3400,,,IFR,,,,,,0.02,,,,,,SPECI,109.0
KEUG 282354Z 22010KT 9SM -RASN SCT011 BKN025 OVC035 03/01 A2964 RMK AO2 RAB43SNB50 SLP040 P0000 60006 T00280011 10056 20022 53009,KEUG,2023-02-28T23:54:00Z,44.13,-123.22,2.8,1.1,220,10,,9.0,29.639763,1004.0,,,TRUE,,,,,,-RA -SN,SCT,1100,BKN,2500,OVC,3500,,,MVFR,0.9,5.6,2.2,,,0.005,,0.06,,,,METAR,109.0
KEUG 282254Z 21012KT 9SM FEW011 BKN020 BKN033 04/02 A2963 RMK AO2 RAE38SNB10E29 SLP034 VCSH P0001 T00440022,KEUG,2023-02-28T22:54:00Z,44.13,-123.22,4.4,2.2,210,12,,9.0,29.630905,1003.4,,,TRUE,,,,,,,FEW,1100,BKN,2000,BKN,3300,,,MVFR,,,,,,0.01,,,,,,METAR,109.0
KEUG 282229Z 20006KT 4SM -RA BR BKN020 BKN031 03/02 A2962 RMK AO2 SNB10E29 P0001 T00280017,KEUG,2023-02-28T22:29:00Z,44.13,-123.22,2.8,1.7,200,6,,4.0,29.619095,,,,TRUE,,,,,,-RA BR,BKN,2000,BKN,3100,,,,,MVFR,,,,,,0.01,,,,,,SPECI,109.0
KEUG 282210Z 21015KT 6SM -RASN SCT016 OVC027 04/01 A2963 RMK AO2 SNB10 P0000 T00390011,KEUG,2023-02-28T22:10:00Z,44.13,-123.22,3.9,1.1,210,15,,6.0,29.630905,,,,TRUE,,,,,,-RA -SN,SCT,1600,OVC,2700,,,,,MVFR,,,,,,0.005,,,,,,SPECI,109.0
KEUG 282154Z 21013KT 8SM -RA BKN020 BKN025 OVC033 04/02 A2962 RMK AO2 RAB15 SLP033 P0001 T00440017,KEUG,2023-02-28T21:54:00Z,44.13,-123.22,4.4,1.7,210,13,,8.0,29.619095,1003.3,,,TRUE,,,,,,-RA,BKN,2000,BKN,2500,OVC,3300,,,MVFR,,,,,,0.01,,,,,,METAR,109.0
KEUG 282054Z 22012KT 6SM BR FEW014 BKN022 OVC033 05/02 A2961 RMK AO2 RAE47SNE47 SLP031 P0003 60004 T00500022 50009,KEUG,2023-02-28T20:54:00Z,44.13,-123.22,5.0,2.2,220,12,,6.0,29.610237,1003.1,,,TRUE,,,,,,BR,FEW,1400,BKN,2200,OVC,3300,,,MVFR,0.9,,,,,0.03,0.04,,,,,METAR,109.0
KEUG 282047Z 20014KT 6SM BR FEW014 BKN022 OVC033 04/02 A2962 RMK AO2 RAE47SNE47 P0003 T00440022,KEUG,2023-02-28T20:47:00Z,44.13,-123.22,4.4,2.2,200,14,,6.0,29.619095,,,,TRUE,,,,,,BR,FEW,1400,BKN,2200,OVC,3300,,,MVFR,,,,,,0.03,,,,,,SPECI,109.0
KEUG 281954Z 20014KT 8SM -RASN SCT017 BKN022 BKN030 04/02 A2962 RMK AO2 RAB27SNB27 SLP032 P0001 T00440017,KEUG,2023-02-28T19:54:00Z,44.13,-123.22,4.4,1.7,200,14,,8.0,29.619095,1003.2,,,TRUE,,,,,,-RA -SN,SCT,1700,BKN,2200,BKN,3000,,,MVFR,,,,,,0.01,,,,,,METAR,109.0
KEUG 281927Z 20013KT 8SM -RASN SCT018 BKN026 BKN040 04/02 A2961 RMK AO2 RAB27SNB27 P0000 T00440017,KEUG,2023-02-28T19:27:00Z,44.13,-123.22,4.4,1.7,200,13,,8.0,29.610237,,,,TRUE,,,,,,-RA -SN,SCT,1800,BKN,2600,BKN,4000,,,MVFR,,,,,,0.005,,,,,,SPECI,109.0
KEUG 281854Z 20012KT 10SM FEW014 FEW070 BKN140 05/02 A2960 RMK AO2 SLP027 T00500017,KEUG,2023-02-28T18:54:00Z,44.13,-123.22,5.0,1.7,200,12,,10.0,29.601377,1002.7,,,TRUE,,,,,,,FEW,1400,FEW,7000,BKN,14000,,,VFR,,,,,,,,,,,,METAR,109.0
KEUG 281754Z 20011KT 10SM FEW015 FEW090 BKN100 03/01 A2959 RMK AO2 SLP022 60016 T00330011 10033 20006 51019,KEUG,2023-02-28T17:54:00Z,44.13,-123.22,3.3,1.1,200,11,,10.0,29.589567,1002.2,,,TRUE,,,,,,,FEW,1500,FEW,9000,BKN,10000,,,VFR,1.9,3.3,0.6,,,,,0.16,,,,METAR,109.0
KEUG 281733Z 20009KT 9SM FEW015 FEW090 BKN110 03/01 A2958 RMK AO2 T00280011,KEUG,2023-02-28T17:33:00Z,44.13,-123.22,2.8,1.1,200,9,,9.0,29.58071,,,,TRUE,,,,,,,FEW,1500,FEW,9000,BKN,11000,,,VFR,,,,,,,,,,,,SPECI,109.0
KEUG 281654Z 20009KT 8SM BKN023 BKN110 02/01 A2958 RMK AO2 SLP018 T00220006,KEUG,2023-02-28T16:54:00Z,44.13,-123.22,2.2,0.6,200,9,,8.0,29.58071,1001.8,,,TRUE,,,,,,,BKN,2300,BKN,11000,,,,,MVFR,,,,,,,,,,,,METAR,109.0
KEUG 281554Z 19007KT 6SM BR FEW013 SCT018 OVC028 01/00 A2956 RMK AO2 SNE34 SLP011 P0000 T00110000 $,KEUG,2023-02-28T15:54:00Z,44.13,-123.22,1.1,0.0,190,7,,6.0,29.56004,1001.1,,,TRUE,TRUE,,,,,BR,FEW,1300,SCT,1800,OVC,2800,,,MVFR,,,,,,0.005,,,,,,METAR,109.0
KEUG 281534Z 18007KT 4SM BR SCT015 BKN021 BKN200 01/00 A2954 RMK AO2 SNE34 P0000 T00110000 $,KEUG,2023-02-28T15:34:00Z,44.13,-123.22,1.1,0.0,180,7,,4.0,29.53937,,,,TRUE,TRUE,,,,,BR,SCT,1500,BKN,2100,BKN,20000,,,MVFR,,,,,,0.005,,,,,,SPECI,109.0
KEUG 281454Z 16009KT 3SM -SN BR FEW014 BKN019 OVC024 01/00 A2953 RMK AO2 SLP002 P0003 60016 T00110000 58008 $,KEUG,2023-02-28T14:54:00Z,44.13,-123.22,1.1,0.0,160,9,,3.0,29.530512,1000.2,,,TRUE,TRUE,,,,,-SN BR,FEW,1400,BKN,1900,OVC,2400,,,MVFR,-0.8,,,,,0.03,0.16,,,,,METAR,109.0
KEUG 281417Z 15005KT 2SM -SN BR SCT007 OVC016 01/00 A2953 RMK AO2 P0002 T00060000 $,KEUG,2023-02-28T14:17:00Z,44.13,-123.22,0.6,0.0,150,5,,2.0,29.530512,,,,TRUE,TRUE,,,,,-SN BR,SCT,700,OVC,1600,,,,,IFR,,,,,,0.02,,,,,,METAR,109.0
KEUG 281354Z 10004KT 1 1/2SM -SN BR OVC011 01/00 A2953 RMK AO2 SLP003 P0010 T00060000 $,KEUG,2023-02-28T13:54:00Z,44.13,-123.22,0.6,0.0,100,4,,1.5,29.530512,1000.3,,,TRUE,TRUE,,,,,-SN BR,OVC,1100,,,,,,,IFR,,,,,,0.1,,,,,,METAR,109.0
KEUG 281343Z AUTO 09005KT 1SM R16R/P6000FT -SN BR VV010 01/00 A2953 RMK AO2 P0009 T00060000 $,KEUG,2023-02-28T13:43:00Z,44.13,-123.22,0.6,0.0,90,5,,1.0,29.530512,,,TRUE,TRUE,TRUE,,,,,-SN BR,OVX,0,,,,,,,LIFR,,,,,,0.09,,,,,1000,SPECI,109.0
KEUG 281336Z AUTO 10004KT 3/4SM R16R/5500VP6000FT -SN BR VV009 01/00 A2954 RMK AO2 P0007 T00060000 $,KEUG,2023-02-28T13:36:00Z,44.13,-123.22,0.6,0.0,100,4,,0.75,29.53937,,,TRUE,TRUE,TRUE,,,,,-SN BR,OVX,0,,,,,,,LIFR,,,,,,0.07,,,,,900,SPECI,109.0
KEUG 281334Z AUTO 11004KT 1SM R16R/5500VP6000FT -SN BR VV010 01/00 A2954 RMK AO2 P0006 T00060000 $,KEUG,2023-02-28T13:34:00Z,44.13,-123.22,0.6,0.0,110,4,,1.0,29.53937,,,TRUE,TRUE,TRUE,,,,,-SN BR,OVX,0,,,,,,,LIFR,,,,,,0.06,,,,,1000,SPECI,109.0
KEUG 281324Z AUTO 13003KT 1 1/2SM -SN BR OVC012 01/00 A2955 RMK AO2 P0005 T00060000 $,KEUG,2023-02-28T13:24:00Z,44.13,-123.22,0.6,0.0,130,3,,1.5,29.551182,,,TRUE,TRUE,TRUE,,,,,-SN BR,OVC,1200,,,,,,,IFR,,,,,,0.05,,,,,,SPECI,109.0
KEUG 281314Z AUTO 15003KT 2 1/2SM -SN BR OVC012 01/00 A2955 RMK AO2 P0003 T00110000 $,KEUG,2023-02-28T13:14:00Z,44.13,-123.22,1.1,0.0,150,3,,2.5,29.551182,,,TRUE,TRUE,TRUE,,,,,-SN BR,OVC,1200,,,,,,,IFR,,,,,,0.03,,,,,,METAR,109.0
KEUG 281307Z AUTO 16003KT 1 3/4SM -SN BR OVC012 01/00 A2955 RMK AO2 P0003 T00110000 $,KEUG,2023-02-28T13:07:00Z,44.13,-123.22,1.1,0.0,160,3,,1.75,29.551182,,,TRUE,TRUE,TRUE,,,,,-SN BR,OVC,1200,,,,,,,IFR,,,,,,0.03,,,,,,SPECI,109.0
KEUG 281254Z AUTO 16007KT 2 1/2SM -SN BR OVC014 01/00 A2956 RMK AO2 UPE28RAB28E31SNB31 SLP011 P0003 T00110000 $,KEUG,2023-02-28T12:54:00Z,44.13,-123.22,1.1,0.0,160,7,,2.5,29.56004,1001.1,,TRUE,TRUE,TRUE,,,,,-SN BR,OVC,1400,,,,,,,IFR,,,,,,0.03,,,,,,METAR,109.0
KEUG 281232Z AUTO 16010KT 7SM -SN OVC026 02/00 A2956 RMK AO2 UPE28RAB28E31SNB31 P0001 T00220000 $,KEUG,2023-02-28T12:32:00Z,44.13,-123.22,2.2,0.0,160,10,,7.0,29.56004,,,TRUE,TRUE,TRUE,,,,,-SN,OVC,2600,,,,,,,MVFR,,,,,,0.01,,,,,,METAR,109.0
KEUG 281154Z AUTO 15005KT 10SM UP FEW030 OVC036 02/01 A2957 RMK AO2 RAB1057E07UPB1058E06B50 SLP017 P0000 60004 70030 T00220006 10028 20017 58019 $,KEUG,2023-02-28T11:54:00Z,44.13,-123.22,2.2,0.6,150,5,,10.0,29.568897,1001.7,,TRUE,TRUE,TRUE,,,,,UP,FEW,3000,OVC,3600,,,,,VFR,-1.9,2.8,1.7,,,0.005,,,0.3,,,SPECI,109.0
KEUG 281054Z AUTO 19008KT 10SM SCT025 BKN036 OVC044 02/01 A2961 RMK AO2 SNB18E34 SLP029 P0000 T00220006 $,KEUG,2023-02-28T10:54:00Z,44.13,-123.22,2.2,0.6,190,8,,10.0,29.610237,1002.9,,TRUE,TRUE,TRUE,,,,,,SCT,2500,BKN,3600,OVC,4400,,,VFR,,,,,,0.005,,,,,,METAR,109.0
KEUG 281052Z AUTO 19008KT 10SM FEW025 BKN036 OVC044 02/01 A2962 RMK AO2 SNB18E34 P0000 $,KEUG,2023-02-28T10:52:00Z,44.13,-123.22,2.0,1.0,190,8,,10.0,29.619095,,,TRUE,TRUE,TRUE,,,,,,FEW,2500,BKN,3600,OVC,4400,,,VFR,,,,,,0.005,,,,,,SPECI,109.0
KEUG 281031Z AUTO 22005KT 9SM -SN FEW017 BKN027 OVC032 02/00 A2963 RMK AO2 SNB18 P0000 T00170000 $,KEUG,2023-02-28T10:31:00Z,44.13,-123.22,1.7,0.0,220,5,,9.0,29.630905,,,TRUE,TRUE,TRUE,,,,,-SN,FEW,1700,BKN,2700,OVC,3200,,,MVFR,,,,,,0.005,,,,,,SPECI,109.0
KEUG 280954Z AUTO 17008KT 10SM FEW021 SCT034 SCT110 02/00 A2963 RMK AO2 UPB20E23B32E38RAB23E32SNB26E31 SLP036 P0001 T00220000 $,KEUG,2023-02-28T09:54:00Z,44.13,-123.22,2.2,0.0,170,8,,10.0,29.630905,1003.6,,TRUE,TRUE,TRUE,,,,,,FEW,2100,SCT,3400,SCT,11000,,,VFR,,,,,,0.01,,,,,,METAR,109.0
KEUG 280939Z AUTO 18009KT 10SM SCT028 SCT044 BKN110 02/01 A2963 RMK AO2 UPB20E23B32E38RAB23E32SNB26E31 P0001 T00220006 $,KEUG,2023-02-28T09:39:00Z,44.13,-123.22,2.2,0.6,180,9,,10.0,29.630905,,,TRUE,TRUE,TRUE,,,,,,SCT,2800,SCT,4400,BKN,11000,,,VFR,,,,,,0.01,,,,,,SPECI,109.0
KEUG 280931Z AUTO 20010KT 10SM -RA BKN026 BKN044 BKN120 03/01 A2963 RMK AO2 UPB20E23RAB23SNB26E31 P0001 T00280006 $,KEUG,2023-02-28T09:31:00Z,44.13,-123.22,2.8,0.6,200,10,,10.0,29.630905,,,TRUE,TRUE,TRUE,,,,,-RA,BKN,2600,BKN,4400,BKN,12000,,,MVFR,,,,,,0.01,,,,,,SPECI,109.0
KEUG 280854Z AUTO 19011KT 10SM CLR 02/00 A2962 RMK AO2 UPB0757E06 SLP031 P0000 60003 T00220000 51023 $,KEUG,2023-02-28T08:54:00Z,44.13,-123.22,2.2,0.0,190,11,,10.0,29.619095,1003.1,,TRUE,TRUE,TRUE,,,,,,CLR,,,,,,,,VFR,2.3,,,,,0.005,0.03,,,,,METAR,109.0
KEUG 280754Z AUTO 18010KT 10SM FEW027 BKN047 OVC100 03/01 A2960 RMK AO2 UPB00E02B19E22B37E42RAB02E37 CIG 030 RNW 34 SLP026 P0001 T00280011 400830006 $,KEUG,2023-02-28T07:54:00Z,44.13,-123.22,2.8,1.1,180,10,,10.0,29.601377,1002.6,,TRUE,TRUE,TRUE,,,,,,FEW,2700,BKN,4700,OVC,10000,,,VFR,,,,8.3,0.6,0.01,,,,,,SPECI,109.0
KEUG 280734Z AUTO 18009KT 10SM -RA FEW015 SCT025 OVC039 02/01 A2960 RMK AO2 UPB00E02B19E22RAB02 CIG 019 RNW 34 P0001 T00220011 $,KEUG,2023-02-28T07:34:00Z,44.13,-123.22,2.2,1.1,180,9,,10.0,29.601377,,,TRUE,TRUE,TRUE,,,,,-RA,FEW,1500,SCT,2500,OVC,3900,,,VFR,,,,,,0.01,,,,,,SPECI,109.0
KEUG 280724Z 18006KT 10SM -RA SCT016 OVC022 03/01 A2960 RMK AO2 UPB00E02B19E22RAB02 P0000 T00280011 $,KEUG,2023-02-28T07:24:00Z,44.13,-123.22,2.8,1.1,180,6,,10.0,29.601377,,,,TRUE,TRUE,,,,,-RA,SCT,1600,OVC,2200,,,,,MVFR,,,,,,0.005,,,,,,SPECI,109.0
KEUG 280654Z 19008KT 10SM SCT039 BKN050 OVC100 02/01 A2958 RMK AO2 RAE53UPB07E09 CIG 037 RNW 34 SLP018 P0002 T00220006 $,KEUG,2023-02-28T06:54:00Z,44.13,-123.22,2.2,0.6,190,8,,10.0,29.58071,1001.8,,,TRUE,TRUE,,,,,,SCT,3900,BKN,5000,OVC,10000,,,VFR,,,,,,0.02,,,,,,METAR,109.0
KEUG 280614Z 19013KT 10SM -RA FEW015 BKN031 OVC110 03/01 A2956 RMK AO2 UPB07E09 P0001 T00280011 $,KEUG,2023-02-28T06:14:00Z,44.13,-123.22,2.8,1.1,190,13,,10.0,29.56004,,,,TRUE,TRUE,,,,,-RA,FEW,1500,BKN,3100,OVC,11000,,,VFR,,,,,,0.01,,,,,,METAR,109.0
KEUG 280554Z 21013KT 10SM -RA FEW019 OVC029 03/01 A2955 RMK AO2 RAE0455B45SNB03E28 SLP009 P0000 60026 T00280011 10067 20006 53025 $,KEUG,2023-02-28T05:54:00Z,44.13,-123.22,2.8,1.1,210,13,,10.0,29.551182,1000.9,,,TRUE,TRUE,,,,,-RA,FEW,1900,OVC,2900,,,,,MVFR,2.5,6.7,0.6,,,0.005,,0.26,,,,METAR,109.0
KEUG 280454Z 18014KT 9SM -RA SCT020 BKN028 OVC036 02/01 A2949 RMK AO2 RAB0357E12B40UPB12E40SNE0357 SLP989 P0001 T00170006 $,KEUG,2023-02-28T04:54:00Z,44.13,-123.22,1.7,0.6,180,14,,9.0,29.489174,998.9,,,TRUE,TRUE,,,,,-RA,SCT,2000,BKN,2800,OVC,3600,,,MVFR,,,,,,0.01,,,,,,SPECI,109.0
KEUG 280354Z 16006KT 9SM -SN OVC023 01/00 A2949 RMK AO2 RAE10B47E49SNB09 SLP987 SNINCR 1/1 P0023 T00110000,KEUG,2023-02-28T03:54:00Z,44.13,-123.22,1.1,0.0,160,6,,9.0,29.489174,998.7,,,TRUE,,,,,,-SN,OVC,2300,,,,,,,MVFR,,,,,,0.23,,,,1.0,,METAR,109.0
KEUG 280338Z 17005KT 3SM -SN BR OVC013 01/00 A2948 RMK AO2 RAE10SNB09 P0022 T00060000,KEUG,2023-02-28T03:38:00Z,44.13,-123.22,0.6,0.0,170,5,,3.0,29.480314,,,,TRUE,,,,,,-SN BR,OVC,1300,,,,,,,MVFR,,,,,,0.22,,,,,,METAR,109.0
KEUG 280313Z 26007KT 2 1/2SM -SN BR OVC013 02/00 A2949 RMK AO2 RAE10SNB09 P0007 T00170000,KEUG,2023-02-28T03:13:00Z,44.13,-123.22,1.7,0.0,260,7,,2.5,29.489174,,,,TRUE,,,,,,-SN BR,OVC,1300,,,,,,,IFR,,,,,,0.07,,,,,,SPECI,109.0
KEUG 280254Z 22011KT 9SM RA SCT019 OVC026 04/01 A2948 RMK AO2 RAB19 SLP983 P0002 60002 T00390011 53013,KEUG,2023-02-28T02:54:00Z,44.13,-123.22,3.9,1.1,220,11,,9.0,29.480314,998.3,,,TRUE,,,,,,RA,SCT,1900,OVC,2600,,,,,MVFR,1.3,,,,,0.02,0.02,,,,,METAR,109.0
KEUG 280239Z 20011KT 10SM -RA SCT020 BKN028 OVC040 04/01 A2946 RMK AO2 RAB19 P0001 T00440011,KEUG,2023-02-28T02:39:00Z,44.13,-123.22,4.4,1.1,200,11,,10.0,29.459646,,,,TRUE,,,,,,-RA,SCT,2000,BKN,2800,OVC,4000,,,MVFR,,,,,,0.01,,,,,,SPECI,109.0
KEUG 280154Z 18012KT 10SM SCT033 BKN042 OVC090 04/01 A2945 RMK AO2 RAB39E51 SLP973 VCSH P0000 T00440006,KEUG,2023-02-28T01:54:00Z,44.13,-123.22,4.4,0.6,180,12,,10.0,29.450787,997.3,,,TRUE,,,,,,,SCT,3300,BKN,4200,OVC,9000,,,VFR,,,,,,0.005,,,,,,METAR,109.0
KEUG 280054Z 20016G22KT 10SM SCT023 SCT029 BKN110 06/01 A2944 RMK AO2 RAE16 SLP971 VCSH P0000 T00610011,KEUG,2023-02-28T00:54:00Z,44.13,-123.22,6.1,1.1,200,16,22,10.0,29.438976,997.1,,,TRUE,,,,,,,SCT,2300,SCT,2900,BKN,11000,,,VFR,,,,,,0.005,,,,,,METAR,109.0
KEUG 280014Z 19012KT 10SM -RA FEW016 BKN027 OVC039 06/02 A2944 RMK AO2 P0000 T00610022,KEUG,2023-02-28T00:14:00Z,44.13,-123.22,6.1,2.2,190,12,,10.0,29.438976,,,,TRUE,,,,,,-RA,FEW,1600,BKN,2700,OVC,3900,,,MVFR,,,,,,0.005,,,,,,SPECI,109.0
KEUG 272354Z 22012KT 10SM -RA SCT032 BKN042 BKN200 06/02 A2944 RMK AO2 RAB19 SLP969 P0000 60000 T00610022 10083 20056 56015,KEUG,2023-02-27T23:54:00Z,44.13,-123.22,6.1,2.2,220,12,,10.0,29.438976,996.9,,,TRUE,,,,,,-RA,SCT,3200,BKN,4200,BKN,20000,,,VFR,-1.5,8.3,5.6,,,0.005,,0.005,,,,METAR,109.0
KEUG 272321Z 21019G23KT 9SM -RA BKN028 OVC037 06/01 A2944 RMK AO2 RAB19 CB DSNT E P0000 T00610011,KEUG,2023-02-27T23:21:00Z,44.13,-123.22,6.1,1.1,210,19,23,9.0,29.438976,,,,TRUE,,,,,,-RA,BKN,2800,OVC,3700,,,,,MVFR,,,,,,0.005,,,,,,SPECI,109.0
KEUG 272254Z 19010KT 10SM FEW025 BKN050 BKN120 07/01 A2944 RMK AO2 PK WND 18029/2222 RAB2156E2159 SLP970 CB DSNT E VCSH P0000 T00720011,KEUG,2023-02-27T22:54:00Z,44.13,-123.22,7.2,1.1,190,10,,10.0,29.438976,997.0,,,TRUE,,,,,,,FEW,2500,BKN,5000,BKN,12000,,,VFR,,,,,,0.005,,,,,,METAR,109.0
KEUG 272154Z 19015KT 10SM SCT022 BKN037 BKN048 07/02 A2946 RMK AO2 PK WND 19028/2127 RAB34E51 SLP979 P0000 T00670022,KEUG,2023-02-27T21:54:00Z,44.13,-123.22,6.7,2.2,190,15,,10.0,29.459646,997.9,,,TRUE,,,,,,,SCT,2200,BKN,3700,BKN,4800,,,VFR,,,,,,0.005,,,,,,METAR,109.0
KEUG 272054Z 20018G22KT 10SM SCT037 BKN047 BKN100 08/00 A2948 RMK AO2 PK WND 19027/2016 SLP984 T00830000 58024,KEUG,2023-02-27T20:54:00Z,44.13,-123.22,8.3,0.0,200,18,22,10.0,29.480314,998.4,,,TRUE,,,,,,,SCT,3700,BKN,4700,BKN,10000,,,VFR,-2.4,,,,,,,,,,,METAR,109.0
KEUG 271954Z 18017G24KT 10SM BKN032 BKN049 OVC070 08/01 A2951 RMK AO2 PK WND 19026/1917 SLP996 T00830006,KEUG,2023-02-27T19:54:00Z,44.13,-123.22,8.3,0.6,180,17,24,10.0,29.509842,999.6,,,TRUE,,,,,,,BKN,3200,BKN,4900,OVC,7000,,,VFR,,,,,,,,,,,,METAR,109.0
KEUG 271854Z 17015KT 10SM SCT029 BKN055 BKN070 07/01 A2953 RMK AO2 SLP002 T00720006,KEUG,2023-02-27T18:54:00Z,44.13,-123.22,7.2,0.6,170,15,,10.0,29.530512,1000.2,,,TRUE,,,,,,,SCT,2900,BKN,5500,BKN,7000,,,VFR,,,,,,,,,,,,METAR,109.0
KEUG 271754Z 18015G18KT 10SM FEW024 BKN050 BKN070 06/01 A2955 RMK AO2 SLP009 T00560006 10056 20028 58004,KEUG,2023-02-27T17:54:00Z,44.13,-123.22,5.6,0.6,180,15,18,10.0,29.551182,1000.9,,,TRUE,,,,,,,FEW,2400,BKN,5000,BKN,7000,,,VFR,-0.4,5.6,2.8,,,,,,,,,METAR,109.0
KEUG 271654Z 17009KT 10SM FEW023 BKN043 OVC060 04/01 A2956 RMK AO2 SLP013 T00440006,KEUG,2023-02-27T16:54:00Z,44.13,-123.22,4.4,0.6,170,9,,10.0,29.56004,1001.3,,,TRUE,,,,,,,FEW,2300,BKN,4300,OVC,6000,,,VFR,,,,,,,,,,,,SPECI,109.0
KEUG 271554Z 19011KT 10SM FEW015 BKN046 OVC060 04/00 A2956 RMK AO2 SLP014 T00390000,KEUG,2023-02-27T15:54:00Z,44.13,-123.22,3.9,0.0,190,11,,10.0,29.56004,1001.4,,,TRUE,,,,,,,FEW,1500,BKN,4600,OVC,6000,,,VFR,,,,,,,,,,,,METAR,109.0
KEUG 271454Z 19007KT 10SM FEW046 BKN060 OVC100 03/M01 A2956 RMK AO2 SLP014 T00281006 58008,KEUG,2023-02-27T14:54:00Z,44.13,-123.22,2.8,-0.6,190,7,,10.0,29.56004,1001.4,,,TRUE,,,,,,,FEW,4600,BKN,6000,OVC,10000,,,VFR,-0.8,,,,,,,,,,,METAR,109.0
KEUG 271354Z 18016G23KT 10SM SCT040 BKN060 OVC100 04/M01 A2958 RMK AO2 PK WND 19027/1315 SLP020 T00391011,KEUG,2023-02-27T13:54:00Z,44.13,-123.22,3.9,-1.1,180,16,23,10.0,29.58071,1002.0,,,TRUE,,,,,,,SCT,4000,BKN,6000,OVC,10000,,,VFR,,,,,,,,,,,,METAR,109.0
KEUG 271254Z AUTO 19010KT 10SM OVC034 04/M02 A2959 RMK AO2 PK WND 17033/1234 SLP020 T00441017,KEUG,2023-02-27T12:54:00Z,44.13,-123.22,4.4,-1.7,190,10,,10.0,29.589567,1002.0,,TRUE,TRUE,,,,,,,OVC,3400,,,,,,,VFR,,,,,,,,,,,,METAR,109.0
KEUG 271154Z AUTO 14011KT 10SM BKN065 OVC090 03/M02 A2959 RMK AO2 SLP021 70017 T00331017 10033 20022 56043,KEUG,2023-02-27T11:54:00Z,44.13,-123.22,3.3,-1.7,140,11,,10.0,29.589567,1002.1,,TRUE,TRUE,,,,,,,BKN,6500,OVC,9000,,,,,VFR,-4.3,3.3,2.2,,,,,,0.17,,,METAR,109.0
KEUG 271054Z AUTO 14011KT 10SM CLR 03/M01 A2963 RMK AO2 SLP036 T00281011,KEUG,2023-02-27T10:54:00Z,44.13,-123.22,2.8,-1.1,140,11,,10.0,29.630905,1003.6,,TRUE,TRUE,,,,,,,CLR,,,,,,,,VFR,,,,,,,,,,,,METAR,109.0
KEUG 270954Z AUTO 14011KT 10SM BKN080 BKN090 03/M01 A2967 RMK AO2 SLP050 T00281006,KEUG,2023-02-27T09:54:00Z,44.13,-123.22,2.8,-0.6,140,11,,10.0,29.66929,1005.0,,TRUE,TRUE,,,,,,,BKN,8000,BKN,9000,,,,,VFR,,,,,,,,,,,,METAR,109.0
KEUG 270854Z AUTO 14009KT 10SM BKN080 OVC095 03/00 A2972 RMK AO2 SLP064 T00280000 58025,KEUG,2023-02-27T08:54:00Z,44.13,-123.22,2.8,0.0,140,9,,10.0,29.719488,1006.4,,TRUE,TRUE,,,,,,,BKN,8000,OVC,9500,,,,,VFR,-2.5,,,,,,,,,,,METAR,109.0
KEUG 270754Z AUTO 14007KT 10SM FEW050 BKN070 02/00 A2975 RMK AO2 SLP075 T00220000 400780022,KEUG,2023-02-27T07:54:00Z,44.13,-123.22,2.2,0.0,140,7,,10.0,29.749016,1007.5,,TRUE,TRUE,,,,,,,FEW,5000,BKN,7000,,,,,VFR,,,,7.8,2.2,,,,,,,METAR,109.0
KEUG 270654Z 14007KT 10SM BKN048 OVC060 03/01 A2977 RMK AO2 SLP083 T00330006,KEUG,2023-02-27T06:54:00Z,44.13,-123.22,3.3,0.6,140,7,,10.0,29.769686,1008.3,,,TRUE,,,,,,,BKN,4800,OVC,6000,,,,,VFR,,,,,,,,,,,,METAR,109.0
KEUG 270554Z 15004KT 10SM BKN055 OVC095 02/01 A2979 RMK AO2 RAB0459E08 SLP091 P0000 60000 T00220006 10072 20022 58012,KEUG,2023-02-27T05:54:00Z,44.13,-123.22,2.2,0.6,150,4,,10.0,29.790354,1009.1,,,TRUE,,,,,,,BKN,5500,OVC,9500,,,,,VFR,-1.2,7.2,2.2,,,0.005,,0.005,,,,METAR,109.0
KEUG 270454Z 19007KT 10SM BKN048 OVC060 03/01 A2982 RMK AO2 SLP100 T00330011,KEUG,2023-02-27T04:54:00Z,44.13,-123.22,3.3,1.1,190,7,,10.0,29.819881,1010.0,,,TRUE,,,,,,,BKN,4800,OVC,6000,,,,,VFR,,,,,,,,,,,,METAR,109.0
KEUG 270354Z 17010KT 10SM BKN036 OVC070 03/01 A2982 RMK AO2 RAB28E49 SLP101 P0000 T00330011,KEUG,2023-02-27T03:54:00Z,44.13,-123.22,3.3,1.1,170,10,,10.0,29.819881,1010.1,,,TRUE,,,,,,,BKN,3600,OVC,7000,,,,,VFR,,,,,,0.005,,,,,,METAR,109.0
KEUG 270254Z 18012KT 10SM FEW035 SCT100 03/01 A2983 RMK AO2 SLP103 60000 T00330006 58004,KEUG,2023-02-27T02:54:00Z,44.13,-123.22,3.3,0.6,180,12,,10.0,29.828741,1010.3,,,TRUE,,,,,,,FEW,3500,SCT,10000,,,,,VFR,-0.4,,,,,,0.005,,,,,METAR,109.0
KEUG 270154Z 17009KT 10SM SCT037 BKN049 OVC140 04/01 A2984 RMK AO2 SLP107 T00440011 $,KEUG,2023-02-27T01:54:00Z,44.13,-123.22,4.4,1.1,170,9,,10.0,29.840551,1010.7,,,TRUE,TRUE,,,,,,SCT,3700,BKN,4900,OVC,14000,,,VFR,,,,,,,,,,,,METAR,109.0
KEUG 270054Z 20010KT 10SM SCT035 BKN085 BKN100 05/01 A2984 RMK AO2 RAB15E35GRB15E18 SLP108 P0000 T00500011 $,KEUG,2023-02-27T00:54:00Z,44.13,-123.22,5.0,1.1,200,10,,10.0,29.840551,1010.8,,,TRUE,TRUE,,,,,,SCT,3500,BKN,8500,BKN,10000,,,VFR,,,,,,0.005,,,,,,METAR,109.0
KEUG 270019Z 27011G20KT 7SM -RA SCT027 BKN039 OVC049 06/02 A2985 RMK AO2 RAB15GRB15E18 P0000 T00560017 $,KEUG,2023-02-27T00:19:00Z,44.13,-123.22,5.6,1.7,270,11,20,7.0,29.84941,,,,TRUE,TRUE,,,,,-RA,SCT,2700,BKN,3900,OVC,4900,,,VFR,,,,,,0.005,,,,,,SPECI,109.0
KEUG 270016Z 28014G19KT 7SM -RAGR FEW030 BKN049 BKN060 07/01 A2984 RMK AO2 RAB15GRB15 GR LESS THAN 1/4 P0000 T00670011 $,KEUG,2023-02-27T00:16:00Z,44.13,-123.22,6.7,1.1,280,14,19,7.0,29.840551,,,,TRUE,TRUE,,,,,-RA -GR,FEW,3000,BKN,4900,BKN,6000,,,VFR,,,,,,0.005,,,,,,SPECI,109.0
KEUG 262354Z 18007KT 10SM FEW025 SCT033 BKN048 07/02 A2984 RMK AO2 SLP106 VCSH TCU DSNT SW 60007 T00720017 10078 20028 58001 $,KEUG,2023-02-26T23:54:00Z,44.13,-123.22,7.2,1.7,180,7,,10.0,29.840551,1010.6,,,TRUE,TRUE,,,,,,FEW,2500,SCT,3300,BKN,4800,,,VFR,-0.1,7.8,2.8,,,,,0.07,,,,METAR,109.0
KEUG 262254Z 22005KT 10SM FEW045 SCT085 06/02 A2986 RMK AO2 PK WND 23030/2204 RAE23SNB05E17 SLP112 P0001 T00560017 $,KEUG,2023-02-26T22:54:00Z,44.13,-123.22,5.6,1.7,220,5,,10.0,29.861221,1011.2,,,TRUE,TRUE,,,,,,FEW,4500,SCT,8500,,,,,VFR,,,,,,0.01,,,,,,METAR,109.0
KEUG 262217Z 25014KT 7SM -RA SCT017 BKN030 BKN080 04/02 A2986 RMK AO2 PK WND 23030/2204 SNB05E17 P0001 T00390017 $,KEUG,2023-02-26T22:17:00Z,44.13,-123.22,3.9,1.7,250,14,,7.0,29.861221,,,,TRUE,TRUE,,,,,-RA,SCT,1700,BKN,3000,BKN,8000,,,MVFR,,,,,,0.01,,,,,,SPECI,109.0
KEUG 262207Z 25023G30KT 7SM -RASN SCT020 BKN033 OVC075 04/02 A2987 RMK AO2 PK WND 23030/2204 SNB05 P0000 T00440017 $,KEUG,2023-02-26T22:07:00Z,44.13,-123.22,4.4,1.7,250,23,30,7.0,29.870079,,,,TRUE,TRUE,,,,,-RA -SN,SCT,2000,BKN,3300,OVC,7500,,,VFR,,,,,,0.005,,,,,,METAR,109.0
KEUG 262154Z 23014KT 10SM -RA SCT027 BKN046 BKN075 07/02 A2985 RMK AO2 RAB53 SLP110 P0000 T00720017 $,KEUG,2023-02-26T21:54:00Z,44.13,-123.22,7.2,1.7,230,14,,10.0,29.84941,1011.0,,,TRUE,TRUE,,,,,-RA,SCT,2700,BKN,4600,BKN,7500,,,VFR,,,,,,0.005,,,,,,METAR,109.0
KEUG 262054Z 23011KT 10SM SCT019 BKN029 BKN090 07/03 A2984 RMK AO2 RAE06 SLP107 P0000 60006 T00720028 51015 $,KEUG,2023-02-26T20:54:00Z,44.13,-123.22,7.2,2.8,230,11,,10.0,29.840551,1010.7,,,TRUE,TRUE,,,,,,SCT,1900,BKN,2900,BKN,9000,,,MVFR,1.5,,,,,0.005,0.06,,,,,METAR,109.0
KEUG 262016Z 24011KT 10SM FEW012 SCT020 BKN085 05/03 A2984 RMK AO2 RAE06 P0000 T00500028 $,KEUG,2023-02-26T20:16:00Z,44.13,-123.22,5.0,2.8,240,11,,10.0,29.840551,,,,TRUE,TRUE,,,,,,FEW,1200,SCT,2000,BKN,8500,,,VFR,,,,,,0.005,,,,,,SPECI,109.0
KEUG 261954Z 24007KT 6SM -RA BR FEW010 BKN018 BKN035 03/02 A2984 RMK AO2 WSHFT 1902 RAB18GRB38E39 SLP107 P0006 T00330017 $,KEUG,2023-02-26T19:54:00Z,44.13,-123.22,3.3,1.7,240,7,,6.0,29.840551,1010.7,,,TRUE,TRUE,,,,,-RA BR,FEW,1000,BKN,1800,BKN,3500,,,MVFR,,,,,,0.06,,,,,,METAR,109.0
KEUG 261922Z 30015KT 10SM -RA SCT018 BKN026 BKN140 04/02 A2983 RMK AO2 WSHFT 1902 RAB18 P0000 T00440022 $,KEUG,2023-02-26T19:22:00Z,44.13,-123.22,4.4,2.2,300,15,,10.0,29.828741,,,,TRUE,TRUE,,,,,-RA,SCT,1800,BKN,2600,BKN,14000,,,MVFR,,,,,,0.005,,,,,,SPECI,109.0
KEUG 261854Z 22011KT 10SM SCT018 BKN029 BKN140 07/02 A2981 RMK AO2 SLP097 T00670022 $,KEUG,2023-02-26T18:54:00Z,44.13,-123.22,6.7,2.2,220,11,,10.0,29.811024,1009.7,,,TRUE,TRUE,,,,,,SCT,1800,BKN,2900,BKN,14000,,,MVFR,,,,,,,,,,,,METAR,109.0
KEUG 261754Z 20009KT 10SM FEW018 SCT028 BKN100 06/03 A2980 RMK AO2 RAB26E36 SLP093 P0000 60010 T00560033 10056 20022 51025 $,KEUG,2023-02-26T17:54:00Z,44.13,-123.22,5.6,3.3,200,9,,10.0,29.799213,1009.3,,,TRUE,TRUE,,,,,,FEW,1800,SCT,2800,BKN,10000,,,VFR,2.5,5.6,2.2,,,0.005,,0.1,,,,METAR,109.0
KEUG 261654Z 19009KT 10SM SCT023 BKN040 BKN120 03/02 A2977 RMK AO2 RAB1559E20 SLP084 P0000 T00330017 $,KEUG,2023-02-26T16:54:00Z,44.13,-123.22,3.3,1.7,190,9,,10.0,29.769686,1008.4,,,TRUE,TRUE,,,,,,SCT,2300,BKN,4000,BKN,12000,,,VFR,,,,,,0.005,,,,,,METAR,109.0
KEUG 261554Z 21007KT 10SM SCT033 BKN040 OVC090 03/02 A2975 RMK AO2 RAB15E46 SLP077 P0001 T00280017 $,KEUG,2023-02-26T15:54:00Z,44.13,-123.22,2.8,1.7,210,7,,10.0,29.749016,1007.7,,,TRUE,TRUE,,,,,,SCT,3300,BKN,4000,OVC,9000,,,VFR,,,,,,0.01,,,,,,METAR,109.0
KEUG 261454Z 21010KT 10SM SCT030 BKN047 OVC075 03/01 A2972 RMK AO2 RAE53UPB05E08 SLP068 P0001 60009 T00280011 51021 $,KEUG,2023-02-26T14:54:00Z,44.13,-123.22,2.8,1.1,210,10,,10.0,29.719488,1006.8,,,TRUE,TRUE,,,,,,SCT,3000,BKN,4700,OVC,7500,,,VFR,2.1,,,,,0.01,0.09,,,,,METAR,109.0
KEUG 261354Z 19011KT 10SM -RA BKN027 OVC034 03/01 A2971 RMK AO2 CIG 022 RNW 34 SLP061 P0004 T00280011 $,KEUG,2023-02-26T13:54:00Z,44.13,-123.22,2.8,1.1,190,11,,10.0,29.71063,1006.1,,,TRUE,TRUE,,,,,-RA,BKN,2700,OVC,3400,,,,,MVFR,,,,,,0.04,,,,,,METAR,109.0
KEUG 261254Z AUTO 20008KT 9SM -RA OVC025 03/01 A2969 RMK AO2 SLP055 P0004 T00280011 $,KEUG,2023-02-26T12:54:00Z,44.13,-123.22,2.8,1.1,200,8,,9.0,29.68996,1005.5,,TRUE,TRUE,TRUE,,,,,-RA,OVC,2500,,,,,,,MVFR,,,,,,0.04,,,,,,METAR,109.0
KEUG 261212Z AUTO 19015KT 10SM -RA SCT013 OVC025 03/01 A2967 RMK AO2 CIG 018 RNW 34 P0001 T00280011 $,KEUG,2023-02-26T12:12:00Z,44.13,-123.22,2.8,1.1,190,15,,10.0,29.66929,,,TRUE,TRUE,TRUE,,,,,-RA,SCT,1300,OVC,2500,,,,,MVFR,,,,,,0.01,,,,,,SPECI,109.0
KEUG 261154Z AUTO 19014KT 10SM -RA BKN013 OVC023 03/01 A2966 RMK AO2 RAE11B35UPB11E13B32E35 SLP045 P0002 60006 70006 T00280011 10044 20017 58015 $,KEUG,2023-02-26T11:54:00Z,44.13,-123.22,2.8,1.1,190,14,,10.0,29.660433,1004.5,,TRUE,TRUE,TRUE,,,,,-RA,BKN,1300,OVC,2300,,,,,MVFR,-1.5,4.4,1.7,,,0.02,,0.06,0.06,,,METAR,109.0
KEUG 261101Z AUTO 17011KT 10SM -RA BKN013 OVC025 03/01 A2967 RMK AO2 P0001 T00280011 $,KEUG,2023-02-26T11:01:00Z,44.13,-123.22,2.8,1.1,170,11,,10.0,29.66929,,,TRUE,TRUE,TRUE,,,,,-RA,BKN,1300,OVC,2500,,,,,MVFR,,,,,,0.01,,,,,,SPECI,109.0
KEUG 261054Z AUTO 17010KT 10SM -RA BKN015 OVC027 03/01 A2967 RMK AO2 SLP049 P0002 T00280011 $,KEUG,2023-02-26T10:54:00Z,44.13,-123.22,2.8,1.1,170,10,,10.0,29.66929,1004.9,,TRUE,TRUE,TRUE,,,,,-RA,BKN,1500,OVC,2700,,,,,MVFR,,,,,,0.02,,,,,,METAR,109.0
KEUG 260954Z AUTO 17013KT 10SM -RA OVC024 03/01 A2970 RMK AO2 SLP057 P0001 T00330006 $,KEUG,2023-02-26T09:54:00Z,44.13,-123.22,3.3,0.6,170,13,,10.0,29.698818,1005.7,,TRUE,TRUE,TRUE,,,,,-RA,OVC,2400,,,,,,,MVFR,,,,,,0.01,,,,,,METAR,109.0
KEUG 260922Z AUTO 17013KT 10SM -RA BKN024 OVC028 04/01 A2970 RMK AO2 P0001 T00390006 $,KEUG,2023-02-26T09:22:00Z,44.13,-123.22,3.9,0.6,170,13,,10.0,29.698818,,,TRUE,TRUE,TRUE,,,,,-RA,BKN,2400,OVC,2800,,,,,MVFR,,,,,,0.01,,,,,,SPECI,109.0
KEUG 260854Z AUTO 19011KT 10SM -RA OVC032 04/00 A2971 RMK AO2 RAB08 SLP061 P0001 60001 T00390000 57014 $,KEUG,2023-02-26T08:54:00Z,44.13,-123.22,3.9,0.0,190,11,,10.0,29.71063,1006.1,,TRUE,TRUE,TRUE,,,,,-RA,OVC,3200,,,,,,,VFR,-1.4,,,,,0.01,0.01,,,,,METAR,109.0
KEUG 260754Z AUTO 20012KT 10SM OVC060 04/M02 A2972 RMK AO2 SLP065 T00441017 400831067 $,KEUG,2023-02-26T07:54:00Z,44.13,-123.22,4.4,-1.7,200,12,,10.0,29.719488,1006.5,,TRUE,TRUE,TRUE,,,,,,OVC,6000,,,,,,,VFR,,,,8.3,-6.7,,,,,,,METAR,109.0
KEUG 260654Z 21009KT 10SM OVC080 03/M01 A2973 RMK AO2 SLP071 T00331011 $,KEUG,2023-02-26T06:54:00Z,44.13,-123.22,3.3,-1.1,210,9,,10.0,29.731298,1007.1,,,TRUE,TRUE,,,,,,OVC,8000,,,,,,,VFR,,,,,,,,,,,,METAR,109.0
KEUG 260554Z 00000KT 10SM OVC110 02/M02 A2975 RMK AO2 SLP076 T00221017 10083 21006 $,KEUG,2023-02-26T05:54:00Z,44.13,-123.22,2.2,-1.7,0,0,,10.0,29.749016,1007.6,,,TRUE,TRUE,,,,,,OVC,11000,,,,,,,VFR,,8.3,-0.6,,,,,,,,,METAR,109.0
KEUG 260454Z 19010KT 10SM SCT250 01/M03 A2975 RMK AO2 SLP078 T00111028 $,KEUG,2023-02-26T04:54:00Z,44.13,-123.22,1.1,-2.8,190,10,,10.0,29.749016,1007.8,,,TRUE,TRUE,,,,,,SCT,25000,,,,,,,VFR,,,,,,,,,,,,SPECI,109.0
KEUG 260354Z 21007KT 10SM SCT250 00/M03 A2976 RMK AO2 SLP080 T00001028 CHINO RNW 34 $,KEUG,2023-02-26T03:54:00Z,44.13,-123.22,0.0,-2.8,210,7,,10.0,29.760826,1008.0,,,TRUE,TRUE,,,,,,SCT,25000,,,,,,,VFR,,,,,,,,,,,,METAR,109.0
KEUG 260254Z 00000KT 10SM SCT200 BKN250 03/M02 A2977 RMK AO2 SLP083 T00281022 56008,KEUG,2023-02-26T02:54:00Z,44.13,-123.22,2.8,-2.2,0,0,,10.0,29.769686,1008.3,,,TRUE,,,,,,,SCT,20000,BKN,25000,,,,,VFR,-0.8,,,,,,,,,,,METAR,109.0
KEUG 260154Z 00000KT 10SM FEW150 SCT200 BKN250 05/M02 A2977 RMK AO2 SLP085 T00501017,KEUG,2023-02-26T01:54:00Z,44.13,-123.22,5.0,-1.7,0,0,,10.0,29.769686,1008.5,,,TRUE,,,,,,,FEW,15000,SCT,20000,BKN,25000,,,VFR,,,,,,,,,,,,METAR,109.0
KEUG 260054Z 34003KT 10SM FEW200 SCT250 08/M02 A2978 RMK AO2 SLP087 T00781022,KEUG,2023-02-26T00:54:00Z,44.13,-123.22,7.8,-2.2,340,3,,10.0,29.778543,1008.7,,,TRUE,,,,,,,FEW,20000,SCT,25000,,,,,VFR,,,,,,,,,,,,METAR,109.0
KEUG 252354Z 00000KT 10SM FEW200 SCT250 07/M02 A2979 RMK AO2 SLP091 T00721022 10083 20000 56033,KEUG,2023-02-25T23:54:00Z,44.13,-123.22,7.2,-2.2,0,0,,10.0,29.790354,1009.1,,,TRUE,,,,,,,FEW,20000,SCT,25000,,,,,VFR,-3.3,8.3,0.0,,,,,,,,,METAR,109.0
KEUG 252254Z 10003KT 10SM FEW250 07/M02 A2981 RMK AO2 SLP097 T00721022,KEUG,2023-02-25T22:54:00Z,44.13,-123.22,7.2,-2.2,100,3,,10.0,29.811024,1009.7,,,TRUE,,,,,,,FEW,25000,,,,,,,VFR,,,,,,,,,,,,METAR,109.0
KEUG 252154Z 01004KT 10SM FEW250 06/M03 A2985 RMK AO2 SLP112 T00611033,KEUG,2023-02-25T21:54:00Z,44.13,-123.22,6.1,-3.3,10,4,,10.0,29.84941,1011.2,,,TRUE,,,,,,,FEW,25000,,,,,,,VFR,,,,,,,,,,,,METAR,109.0
KEUG 252054Z VRB03KT 10SM CLR 05/M04 A2989 RMK AO2 SLP124 T00501039 58043,KEUG,2023-02-25T20:54:00Z,44.13,-123.22,5.0,-3.9,0,3,,10.0,29.890747,1012.4,,,TRUE,,,,,,,CLR,,,,,,,,VFR,-4.3,,,,,,,,,,,METAR,109.0
KEUG 251954Z 00000KT 10SM CLR 02/M06 A2994 RMK AO2 SLP141 T00221056,KEUG,2023-02-25T19:54:00Z,44.13,-123.22,2.2,-5.6,0,0,,10.0,29.940945,1014.1,,,TRUE,,,,,,,CLR,,,,,,,,VFR,,,,,,,,,,,,METAR,109.0
KEUG 251854Z 00000KT 10SM CLR 01/M07 A2999 RMK AO2 SLP159 T00111067,KEUG,2023-02-25T18:54:00Z,44.13,-123.22,1.1,-6.7,0,0,,10.0,29.991142,1015.9,,,TRUE,,,,,,,CLR,,,,,,,,VFR,,,,,,,,,,,,METAR,109.0
KEUG 251754Z 36004KT 10SM CLR 00/M07 A3002 RMK AO2 SLP168 T00001067 10000 21067 58009,KEUG,2023-02-25T17:54:00Z,44.13,-123.22,0.0,-6.7,360,4,,10.0,30.02067,1016.8,,,TRUE,,,,,,,CLR,,,,,,,,VFR,-0.9,0.0,-6.7,,,,,,,,,SPECI,109.0
KEUG 251654Z 03004KT 10SM CLR M02/M07 A3003 RMK AO2 SLP174 T10171072,KEUG,2023-02-25T16:54:00Z,44.13,-123.22,-1.7,-7.2,30,4,,10.0,30.029528,1017.4,,,TRUE,,,,,,,CLR,,,,,,,,VFR,,,,,,,,,,,,METAR,109.0
KEUG 251554Z 36005KT 10SM CLR M03/M07 A3004 RMK AO2 SLP176 T10331067,KEUG,2023-02-25T15:54:00Z,44.13,-123.22,-3.3,-6.7,360,5,,10.0,30.041338,1017.6,,,TRUE,,,,,,,CLR,,,,,,,,VFR,,,,,,,,,,,,METAR,109.0
KEUG 251454Z 34005KT 10SM CLR M06/M09 A3004 RMK AO2 SLP179 T10611089 55004,KEUG,2023-02-25T14:54:00Z,44.13,-123.22,-6.1,-8.9,340,5,,10.0,30.041338,1017.9,,,TRUE,,,,,,,CLR,,,,,,,,VFR,-0.4,,,,,,,,,,,METAR,109.0
KEUG 251354Z 33004KT 10SM CLR M06/M08 A3004 RMK AO2 SLP177 T10561083,KEUG,2023-02-25T13:54:00Z,44.13,-123.22,-5.6,-8.3,330,4,,10.0,30.041338,1017.7,,,TRUE,,,,,,,CLR,,,,,,,,VFR,,,,,,,,,,,,METAR,109.0
KEUG 251254Z AUTO 34005KT 10SM CLR M06/M08 A3005 RMK AO2 SLP180 T10561083,KEUG,2023-02-25T12:54:00Z,44.13,-123.22,-5.6,-8.3,340,5,,10.0,30.050198,1018.0,,TRUE,TRUE,,,,,,,CLR,,,,,,,,VFR,,,,,,,,,,,,METAR,109.0
KEUG 251154Z AUTO 36007KT 10SM CLR M05/M08 A3006 RMK AO2 SLP182 T10501078 11022 21056 56007,KEUG,2023-02-25T11:54:00Z,44.13,-123.22,-5.0,-7.8,360,7,,10.0,30.059055,1018.2,,TRUE,TRUE,,,,,,,CLR,,,,,,,,VFR,-0.7,-2.2,-5.6,,,,,,,,,METAR,109.0
KEUG 251054Z AUTO 35005KT 10SM CLR M04/M08 A3006 RMK AO2 SLP182 T10441078,KEUG,2023-02-25T10:54:00Z,44.13,-123.22,-4.4,-7.8,350,5,,10.0,30.059055,1018.2,,TRUE,TRUE,,,,,,,CLR,,,,,,,,VFR,,,,,,,,,,,,METAR,109.0
KEUG 250954Z AUTO 00000KT 10SM CLR M04/M07 A3007 RMK AO2 SLP185 T10441072,KEUG,2023-02-25T09:54:00Z,44.13,-123.22,-4.4,-7.2,0,0,,10.0,30.070866,1018.5,,TRUE,TRUE,,,,,,,CLR,,,,,,,,VFR,,,,,,,,,,,,METAR,109.0
KEUG 250854Z AUTO 01006KT 10SM CLR M03/M07 A3008 RMK AO2 SLP189 T10331067 50004,KEUG,2023-02-25T08:54:00Z,44.13,-123.22,-3.3,-6.7,10,6,,10.0,30.079725,1018.9,,TRUE,TRUE,,,,,,,CLR,,,,,,,,VFR,0.4,,,,,,,,,,,METAR,109.0
KEUG 250754Z AUTO 35007KT 10SM CLR M03/M07 A3008 RMK AO2 SLP190 T10331067 400441044,KEUG,2023-02-25T07:54:00Z,44.13,-123.22,-3.3,-6.7,350,7,,10.0,30.079725,1019.0,,TRUE,TRUE,,,,,,,CLR,,,,,,,,VFR,,,,4.4,-4.4,,,,,,,METAR,109.0
KEUG 250654Z 36006KT 10SM CLR M03/M06 A3007 RMK AO2 SLP185 T10331061,KEUG,2023-02-25T06:54:00Z,44.13,-123.22,-3.3,-6.1,360,6,,10.0,30.070866,1018.5,,,TRUE,,,,,,,CLR,,,,,,,,VFR,,,,,,,,,,,,METAR,109.0
KEUG 250554Z 00000KT 10SM CLR M02/M06 A3006 RMK AO2 SLP185 T10221056 10039 21028 53015,KEUG,2023-02-25T05:54:00Z,44.13,-123.22,-2.2,-5.6,0,0,,10.0,30.059055,1018.5,,,TRUE,,,,,,,CLR,,,,,,,,VFR,1.5,3.9,-2.8,,,,,,,,,METAR,109.0
KEUG 250454Z 35008KT 10SM CLR M02/M06 A3004 RMK AO2 SLP176 T10221056,KEUG,2023-02-25T04:54:00Z,44.13,-123.22,-2.2,-5.6,350,8,,10.0,30.041338,1017.6,,,TRUE,,,,,,,CLR,,,,,,,,VFR,,,,,,,,,,,,METAR,109.0
KEUG 250354Z 36011KT 10SM CLR 00/M07 A3004 RMK AO2 SLP175 T00001067,KEUG,2023-02-25T03:54:00Z,44.13,-123.22,0.0,-6.7,360,11,,10.0,30.041338,1017.5,,,TRUE,,,,,,,CLR,,,,,,,,VFR,,,,,,,,,,,,METAR,109.0
KEUG 250254Z 36012KT 10SM FEW100 00/M06 A3002 RMK AO2 SLP170 T00001061 53018,KEUG,2023-02-25T02:54:00Z,44.13,-123.22,0.0,-6.1,360,12,,10.0,30.02067,1017.0,,,TRUE,,,,,,,FEW,10000,,,,,,,VFR,1.8,,,,,,,,,,,METAR,109.0
KEUG 250154Z 36013KT 10SM FEW100 01/M06 A3000 RMK AO2 SLP161 T00111061,KEUG,2023-02-25T01:54:00Z,44.13,-123.22,1.1,-6.1,360,13,,10.0,30.0,1016.1,,,TRUE,,,,,,,FEW,10000,,,,,,,VFR,,,,,,,,,,,,METAR,109.0
KEUG 250054Z 36018G24KT 10SM FEW200 03/M06 A2998 RMK AO2 PK WND 36026/2358 SLP157 T00281056,KEUG,2023-02-25T00:54:00Z,44.13,-123.22,2.8,-5.6,360,18,24,10.0,29.97933,1015.7,,,TRUE,,,,,,,FEW,20000,,,,,,,VFR,,,,,,,,,,,,SPECI,109.0
KEUG 242354Z 01019G26KT 10SM FEW200 04/M06 A2997 RMK AO2 PK WND 36026/2338 SLP151 T00391056 10044 21006 53003,KEUG,2023-02-24T23:54:00Z,44.13,-123.22,3.9,-5.6,10,19,26,10.0,29.970472,1015.1,,,TRUE,,,,,,,FEW,20000,,,,,,,VFR,0.3,4.4,-0.6,,,,,,,,,METAR,109.0
KEUG 242254Z 01019G25KT 10SM CLR 04/M06 A2996 RMK AO2 PK WND 36027/2223 SLP148 T00391056,KEUG,2023-02-24T22:54:00Z,44.13,-123.22,3.9,-5.6,10,19,25,10.0,29.958662,1014.8,,,TRUE,,,,,,,CLR,,,,,,,,VFR,,,,,,,,,,,,METAR,109.0
KEUG 242154Z 36018G23KT 10SM CLR 04/M06 A2995 RMK AO2 PK WND 01026/2136 SLP144 T00391056,KEUG,2023-02-24T21:54:00Z,44.13,-123.22,3.9,-5.6,360,18,23,10.0,29.949802,1014.4,,,TRUE,,,,,,,CLR,,,,,,,,VFR,,,,,,,,,,,,METAR,109.0
KEUG 242054Z 36019KT 10SM CLR 03/M07 A2996 RMK AO2 PK WND 35027/2006 SLP148 T00281067 50004,KEUG,2023-02-24T20:54:00Z,44.13,-123.22,2.8,-6.7,360,19,,10.0,29.958662,1014.8,,,TRUE,,,,,,,CLR,,,,,,,,VFR,0.4,,,,,,,,,,,SPECI,109.0
KEUG 241954Z 36019KT 10SM CLR 02/M07 A2997 RMK AO2 PK WND 01027/1925 SLP151 T00171072,KEUG,2023-02-24T19:54:00Z,44.13,-123.22,1.7,-7.2,360,19,,10.0,29.970472,1015.1,,,TRUE,,,,,,,CLR,,,,,,,,VFR,,,,,,,,,,,,METAR,109.0
KEUG 241854Z 01021G28KT 10SM CLR 01/M08 A2996 RMK AO2 PK WND 01029/1828 SLP148 T00061078,KEUG,2023-02-24T18:54:00Z,44.13,-123.22,0.6,-7.8,10,21,28,10.0,29.958662,1014.8,,,TRUE,,,,,,,CLR,,,,,,,,VFR,,,,,,,,,,,,METAR,109.0
KEUG 241754Z 01022G25KT 10SM CLR M01/M08 A2995 RMK AO2 PK WND 01026/1711 SLP144 T10061083 11006 21044 51022,KEUG,2023-02-24T17:54:00Z,44.13,-123.22,-0.6,-8.3,10,22,25,10.0,29.949802,1014.4,,,TRUE,,,,,,,CLR,,,,,,,,VFR,2.2,-0.6,-4.4,,,,,,,,,METAR,109.0
KEUG 241654Z 01021G27KT 10SM CLR M02/M09 A2993 RMK AO2 PK WND 01027/1652 SLP137 T10221094,KEUG,2023-02-24T16:54:00Z,44.13,-123.22,-2.2,-9.4,10,21,27,10.0,29.929134,1013.7,,,TRUE,,,,,,,CLR,,,,,,,,VFR,,,,,,,,,,,,METAR,109.0
KEUG 241554Z 36019KT 10SM FEW150 M03/M10 A2991 RMK AO2 SLP131 T10331100,KEUG,2023-02-24T15:54:00Z,44.13,-123.22,-3.3,-10.0,360,19,,10.0,29.911417,1013.1,,,TRUE,,,,,,,FEW,15000,,,,,,,VFR,,,,,,,,,,,,SPECI,109.0
KEUG 241454Z 36017KT 10SM FEW150 FEW250 M04/M10 A2988 RMK AO2 SLP121 T10441100 53019,KEUG,2023-02-24T14:54:00Z,44.13,-123.22,-4.4,-10.0,360,17,,10.0,29.878937,1012.1,,,TRUE,,,,,,,FEW,15000,FEW,25000,,,,,VFR,1.9,,,,,,,,,,,METAR,109.0
KEUG 241354Z 01018KT 10SM SCT150 M04/M09 A2986 RMK AO2 SLP113 T10391094,KEUG,2023-02-24T13:54:00Z,44.13,-123.22,-3.9,-9.4,10,18,,10.0,29.861221,1011.3,,,TRUE,,,,,,,SCT,15000,,,,,,,VFR,,,,,,,,,,,,METAR,109.0
KEUG 241254Z AUTO 36017G24KT 10SM CLR M04/M09 A2984 RMK AO2 SLP108 T10391094,KEUG,2023-02-24T12:54:00Z,44.13,-123.22,-3.9,-9.4,360,17,24,10.0,29.840551,1010.8,,TRUE,TRUE,,,,,,,CLR,,,,,,,,VFR,,,,,,,,,,,,METAR,109.0
KEUG 241154Z AUTO 01019KT 10SM FEW100 M04/M09 A2982 RMK AO2 PK WND 36026/1055 SLP102 T10391094 11017 21039 51011,KEUG,2023-02-24T11:54:00Z,44.13,-123.22,-3.9,-9.4,10,19,,10.0,29.819881,1010.2,,TRUE,TRUE,,,,,,,FEW,10000,,,,,,,VFR,1.1,-1.7,-3.9,,,,,,,,,METAR,109.0
KEUG 241054Z AUTO 36020G27KT 10SM CLR M04/M09 A2981 RMK AO2 PK WND 36027/1052 SLP098 T10391094,KEUG,2023-02-24T10:54:00Z,44.13,-123.22,-3.9,-9.4,360,20,27,10.0,29.811024,1009.8,,TRUE,TRUE,,,,,,,CLR,,,,,,,,VFR,,,,,,,,,,,,METAR,109.0
KEUG 240954Z AUTO 36019KT 10SM CLR M04/M09 A2980 RMK AO2 SLP095 T10391094,KEUG,2023-02-24T09:54:00Z,44.13,-123.22,-3.9,-9.4,360,19,,10.0,29.799213,1009.5,,TRUE,TRUE,,,,,,,CLR,,,,,,,,VFR,,,,,,,,,,,,METAR,109.0
KEUG 240854Z AUTO 36018KT 10SM CLR M04/M09 A2979 RMK AO2 SLP091 T10391094 53016,KEUG,2023-02-24T08:54:00Z,44.13,-123.22,-3.9,-9.4,360,18,,10.0,29.790354,1009.1,,TRUE,TRUE,,,,,,,CLR,,,,,,,,VFR,1.6,,,,,,,,,,,METAR,109.0
KEUG 240754Z AUTO 36019KT 10SM CLR M03/M09 A2977 RMK AO2 SLP084 T10331089 400671033,KEUG,2023-02-24T07:54:00Z,44.13,-123.22,-3.3,-8.9,360,19,,10.0,29.769686,1008.4,,TRUE,TRUE,,,,,,,CLR,,,,,,,,VFR,,,,6.7,-3.3,,,,,,,METAR,109.0
KEUG 240654Z 36017KT 10SM BKN090 M03/M08 A2976 RMK AO2 SLP080 T10331078,KEUG,2023-02-24T06:54:00Z,44.13,-123.22,-3.3,-7.8,360,17,,10.0,29.760826,1008.0,,,TRUE,,,,,,,BKN,9000,,,,,,,VFR,,,,,,,,,,,,METAR,109.0
KEUG 240554Z 36013KT 10SM FEW045 FEW100 M02/M07 A2974 RMK AO2 SLP074 60000 T10171072 10050 21017 53026,KEUG,2023-02-24T05:54:00Z,44.13,-123.22,-1.7,-7.2,360,13,,10.0,29.740158,1007.4,,,TRUE,,,,,,,FEW,4500,FEW,10000,,,,,VFR,2.6,5.0,-1.7,,,,,0.005,,,,METAR,109.0
KEUG 240454Z 36012KT 10SM BKN030 OVC039 M01/M06 A2971 RMK AO2 SNE12 SLP064 P0000 T10111061,KEUG,2023-02-24T04:54:00Z,44.13,-123.22,-1.1,-6.1,360,12,,10.0,29.71063,1006.4,,,TRUE,,,,,,,BKN,3000,OVC,3900,,,,,MVFR,,,,,,0.005,,,,,,SPECI,109.0
KEUG 240412Z 36011KT 9SM SCT027 OVC037 00/M07 A2969 RMK AO2 SNE12 P0000 T00001067,KEUG,2023-02-24T04:12:00Z,44.13,-123.22,0.0,-6.7,360,11,,9.0,29.68996,,,,TRUE,,,,,,,SCT,2700,OVC,3700,,,,,VFR,,,,,,0.005,,,,,,METAR,109.0
KEUG 240354Z 36011KT 8SM -SN OVC035 00/M06 A2968 RMK AO2 SNB24 SLP055 P0000 T00001061,KEUG,2023-02-24T03:54:00Z,44.13,-123.22,0.0,-6.1,360,11,,8.0,29.681103,1005.5,,,TRUE,,,,,,-SN,OVC,3500,,,,,,,VFR,,,,,,0.005,,,,,,SPECI,109.0
KEUG 240324Z 36010KT 8SM -SN OVC042 00/M06 A2968 RMK AO2 SNB24 P0000 T00001056,KEUG,2023-02-24T03:24:00Z,44.13,-123.22,0.0,-5.6,360,10,,8.0,29.681103,,,,TRUE,,,,,,-SN,OVC,4200,,,,,,,VFR,,,,,,0.005,,,,,,SPECI,109.0
KEUG 240254Z 35017KT 10SM BKN055 OVC100 01/M04 A2966 RMK AO2 SNB23E34 SLP048 P0000 60000 T00061039 53028,KEUG,2023-02-24T02:54:00Z,44.13,-123.22,0.6,-3.9,350,17,,10.0,29.660433,1004.8,,,TRUE,,,,,,,BKN,5500,OVC,10000,,,,,VFR,2.8,,,,,0.005,0.005,,,,,METAR,109.0
KEUG 240234Z 35016KT 9SM SCT060 BKN095 01/M04 A2965 RMK AO2 SNB23E34 P0000 T00061039,KEUG,2023-02-24T02:34:00Z,44.13,-123.22,0.6,-3.9,350,16,,9.0,29.648623,,,,TRUE,,,,,,,SCT,6000,BKN,9500,,,,,VFR,,,,,,0.005,,,,,,SPECI,109.0
KEUG 240223Z 33012KT 10SM -SN FEW040 SCT060 OVC095 01/M03 A2964 RMK AO2 SNB23 P0000 T00061033,KEUG,2023-02-24T02:23:00Z,44.13,-123.22,0.6,-3.3,330,12,,10.0,29.639763,,,,TRUE,,,,,,-SN,FEW,4000,SCT,6000,OVC,9500,,,VFR,,,,,,0.005,,,,,,SPECI,109.0
KEUG 240154Z 35017KT 10SM SCT040 BKN060 OVC100 01/M02 A2962 RMK AO2 SLP034 VCSH T00111022,KEUG,2023-02-24T01:54:00Z,44.13,-123.22,1.1,-2.2,350,17,,10.0,29.619095,1003.4,,,TRUE,,,,,,,SCT,4000,BKN,6000,OVC,10000,,,VFR,,,,,,,,,,,,METAR,109.0
KEUG 240054Z 35008KT 10SM FEW040 SCT065 BKN100 04/M02 A2959 RMK AO2 SLP023 T00441017,KEUG,2023-02-24T00:54:00Z,44.13,-123.22,4.4,-1.7,350,8,,10.0,29.589567,1002.3,,,TRUE,,,,,,,FEW,4000,SCT,6500,BKN,10000,,,VFR,,,,,,,,,,,,METAR,109.0
KEUG 232354Z 25003KT 10SM FEW040 SCT060 BKN100 05/M03 A2958 RMK AO2 SLP019 TCU DSNT NE 60000 T00501033 10067 20028 55001,KEUG,2023-02-23T23:54:00Z,44.13,-123.22,5.0,-3.3,250,3,,10.0,29.58071,1001.9,,,TRUE,,,,,,,FEW,4000,SCT,6000,BKN,10000,,,VFR,-0.1,6.7,2.8,,,,,0.005,,,,METAR,109.0
KEUG 232254Z 15010KT 9SM SCT046 BKN065 05/M03 A2958 RMK AO2 SNB13E23B42E52 SLP019 P0000 T00501028,KEUG,2023-02-23T22:54:00Z,44.13,-123.22,5.0,-2.8,150,10,,9.0,29.58071,1001.9,,,TRUE,,,,,,,SCT,4600,BKN,6500,,,,,VFR,,,,,,0.005,,,,,,METAR,109.0
KEUG 232242Z 16018KT 10SM -SN BKN049 BKN070 BKN100 05/M04 A2958 RMK AO2 SNB13E23B42 P0000 T00501039,KEUG,2023-02-23T22:42:00Z,44.13,-123.22,5.0,-3.9,160,18,,10.0,29.58071,,,,TRUE,,,,,,-SN,BKN,4900,BKN,7000,BKN,10000,,,VFR,,,,,,0.005,,,,,,SPECI,109.0
KEUG 232223Z 20010KT 10SM FEW026 SCT070 BKN090 06/M04 A2957 RMK AO2 SNB13E23 P0000 T00611039,KEUG,2023-02-23T22:23:00Z,44.13,-123.22,6.1,-3.9,200,10,,10.0,29.568897,,,,TRUE,,,,,,,FEW,2600,SCT,7000,BKN,9000,,,VFR,,,,,,0.005,,,,,,SPECI,109.0
KEUG 232213Z 18008KT 10SM -SN FEW020 SCT060 BKN085 06/M04 A2957 RMK AO2 SNB13 P0000 T00611039,KEUG,2023-02-23T22:13:00Z,44.13,-123.22,6.1,-3.9,180,8,,10.0,29.568897,,,,TRUE,,,,,,-SN,FEW,2000,SCT,6000,BKN,8500,,,VFR,,,,,,0.005,,,,,,SPECI,109.0
KEUG 232154Z 20012KT 10SM FEW035 SCT055 BKN075 05/M03 A2958 RMK AO2 SLP018 VCSH T00501033,KEUG,2023-02-23T21:54:00Z,44.13,-123.22,5.0,-3.3,200,12,,10.0,29.58071,1001.8,,,TRUE,,,,,,,FEW,3500,SCT,5500,BKN,7500,,,VFR,,,,,,,,,,,,SPECI,109.0
KEUG 232054Z 20011KT 10SM FEW036 BKN044 BKN100 05/M03 A2958 RMK AO2 SLP020 T00501033 58006,KEUG,2023-02-23T20:54:00Z,44.13,-123.22,5.0,-3.3,200,11,,10.0,29.58071,1002.0,,,TRUE,,,,,,,FEW,3600,BKN,4400,BKN,10000,,,VFR,-0.6,,,,,,,,,,,METAR,109.0
KEUG 231954Z 20009KT 10SM FEW030 SCT040 BKN080 04/M03 A2960 RMK AO2 SLP026 T00391028,KEUG,2023-02-23T19:54:00Z,44.13,-123.22,3.9,-2.8,200,9,,10.0,29.601377,1002.6,,,TRUE,,,,,,,FEW,3000,SCT,4000,BKN,8000,,,VFR,,,,,,,,,,,,METAR,109.0
KEUG 231854Z 18014G21KT 10SM FEW026 BKN070 04/M02 A2960 RMK AO2 SLP026 T00441017,KEUG,2023-02-23T18:54:00Z,44.13,-123.22,4.4,-1.7,180,14,21,10.0,29.601377,1002.6,,,TRUE,,,,,,,FEW,2600,BKN,7000,,,,,VFR,,,,,,,,,,,,METAR,109.0
KEUG 231754Z 17014KT 10SM FEW020 BKN050 BKN065 03/M01 A2960 RMK AO2 SLP027 60000 T00331011 10033 20000 51005,KEUG,2023-02-23T17:54:00Z,44.13,-123.22,3.3,-1.1,170,14,,10.0,29.601377,1002.7,,,TRUE,,,,,,,FEW,2000,BKN,5000,BKN,6500,,,VFR,0.5,3.3,0.0,,,,,0.005,,,,METAR,109.0
KEUG 231654Z 16012KT 10SM BKN035 BKN050 BKN095 01/M02 A2960 RMK AO2 SNE24 SLP025 P0000 T00111022,KEUG,2023-02-23T16:54:00Z,44.13,-123.22,1.1,-2.2,160,12,,10.0,29.601377,1002.5,,,TRUE,,,,,,,BKN,3500,BKN,5000,BKN,9500,,,VFR,,,,,,0.005,,,,,,METAR,109.0
KEUG 231624Z 16011KT 8SM BKN033 BKN048 01/M02 A2960 RMK AO2 SNE24 P0000 T00061017,KEUG,2023-02-23T16:24:00Z,44.13,-123.22,0.6,-1.7,160,11,,8.0,29.601377,,,,TRUE,,,,,,,BKN,3300,BKN,4800,,,,,VFR,,,,,,0.005,,,,,,METAR,109.0
KEUG 231554Z 16012KT 10SM -SN OVC048 01/M02 A2959 RMK AO2 SNB54 SLP024 P0000 T00061022,KEUG,2023-02-23T15:54:00Z,44.13,-123.22,0.6,-2.2,160,12,,10.0,29.589567,1002.4,,,TRUE,,,,,,-SN,OVC,4800,,,,,,,VFR,,,,,,0.005,,,,,,METAR,109.0
KEUG 231454Z 16009KT 10SM BKN040 BKN060 OVC070 01/M02 A2959 RMK AO2 SLP022 T00061022 53003,KEUG,2023-02-23T14:54:00Z,44.13,-123.22,0.6,-2.2,160,9,,10.0,29.589567,1002.2,,,TRUE,,,,,,,BKN,4000,BKN,6000,OVC,7000,,,VFR,0.3,,,,,,,,,,,METAR,109.0
KEUG 231354Z 18011KT 10SM BKN075 00/M02 A2958 RMK AO2 SLP020 T00001022,KEUG,2023-02-23T13:54:00Z,44.13,-123.22,0.0,-2.2,180,11,,10.0,29.58071,1002.0,,,TRUE,,,,,,,BKN,7500,,,,,,,VFR,,,,,,,,,,,,METAR,109.0
KEUG 231254Z AUTO 17012KT 10SM FEW090 00/M02 A2958 RMK AO2 SLP017 T00001022,KEUG,2023-02-23T12:54:00Z,44.13,-123.22,0.0,-2.2,170,12,,10.0,29.58071,1001.7,,TRUE,TRUE,,,,,,,FEW,9000,,,,,,,VFR,,,,,,,,,,,,METAR,109.0
KEUG 231154Z AUTO 18013G20KT 10SM FEW070 01/M02 A2958 RMK AO2 SLP018 60001 70002 T00061022 10017 20000 55001,KEUG,2023-02-23T11:54:00Z,44.13,-123.22,0.6,-2.2,180,13,20,10.0,29.58071,1001.8,,TRUE,TRUE,,,,,,,FEW,7000,,,,,,,VFR,-0.1,1.7,0.0,,,,,,0.02,,,SPECI,109.0
KEUG 231054Z AUTO 17012KT 10SM FEW036 SCT042 BKN075 01/M02 A2958 RMK AO2 SNB0957E08 SLP017 P0000 T00111017,KEUG,2023-02-23T10:54:00Z,44.13,-123.22,1.1,-1.7,170,12,,10.0,29.58071,1001.7,,TRUE,TRUE,,,,,,,FEW,3600,SCT,4200,BKN,7500,,,VFR,,,,,,0.005,,,,,,METAR,109.0
KEUG 230954Z AUTO 17010KT 10SM OVC043 01/M01 A2958 RMK AO2 SLP020 T00111011,KEUG,2023-02-23T09:54:00Z,44.13,-123.22,1.1,-1.1,170,10,,10.0,29.58071,1002.0,,TRUE,TRUE,,,,,,,OVC,4300,,,,,,,VFR,,,,,,,,,,,,SPECI,109.0
KEUG 230854Z AUTO 17012KT 10SM FEW030 BKN039 OVC048 02/M01 A2958 RMK AO2 SNE34 SLP019 P0000 60001 T00171011 56005,KEUG,2023-02-23T08:54:00Z,44.13,-123.22,1.7,-1.1,170,12,,10.0,29.58071,1001.9,,TRUE,TRUE,,,,,,,FEW,3000,BKN,3900,OVC,4800,,,VFR,-0.5,,,,,0.005,,,,,,SPECI,109.0
KEUG 230843Z AUTO 17010KT 10SM OVC037 02/M01 A2958 RMK AO2 SNE34 P0000 T00171011,KEUG,2023-02-23T08:43:00Z,44.13,-123.22,1.7,-1.1,170,10,,10.0,29.58071,,,TRUE,TRUE,,,,,,,OVC,3700,,,,,,,VFR,,,,,,0.005,,,,,,SPECI,109.0
KEUG 230818Z AUTO 17011KT 4SM -SN OVC022 02/M01 A2958 RMK AO2 P0000 T00171011,KEUG,2023-02-23T08:18:00Z,44.13,-123.22,1.7,-1.1,170,11,,4.0,29.58071,,,TRUE,TRUE,,,,,,-SN,OVC,2200,,,,,,,MVFR,,,,,,0.005,,,,,,METAR,109.0
KEUG 230811Z AUTO 17010KT 2 1/2SM -SN BR OVC024 01/M01 A2958 RMK AO2 P0000 T00111011,KEUG,2023-02-23T08:11:00Z,44.13,-123.22,1.1,-1.1,170,10,,2.5,29.58071,,,TRUE,TRUE,,,,,,-SN BR,OVC,2400,,,,,,,IFR,,,,,,0.005,,,,,,SPECI,109.0
KEUG 230803Z AUTO 18012KT 3SM -SN BR BKN024 OVC035 01/M01 A2958 RMK AO2 P0000 T00111006,KEUG,2023-02-23T08:03:00Z,44.13,-123.22,1.1,-0.6,180,12,,3.0,29.58071,,,TRUE,TRUE,,,,,,-SN BR,BKN,2400,OVC,3500,,,,,MVFR,,,,,,0.005,,,,,,SPECI,109.0
KEUG 230754Z AUTO 18014KT 4SM -SN BKN030 OVC035 02/M01 A2958 RMK AO2 SLP021 P0000 T00171011 400610006,KEUG,2023-02-23T07:54:00Z,44.13,-123.22,1.7,-1.1,180,14,,4.0,29.58071,1002.1,,TRUE,TRUE,,,,,,-SN,BKN,3000,OVC,3500,,,,,MVFR,,,,6.1,0.6,0.005,,,,,,METAR,109.0
KEUG 230654Z 17009KT 7SM -SN BKN038 OVC060 01/M01 A2959 RMK AO2 SLP023 P0001 T00111006,KEUG,2023-02-23T06:54:00Z,44.13,-123.22,1.1,-0.6,170,9,,7.0,29.589567,1002.3,,,TRUE,,,,,,-SN,BKN,3800,OVC,6000,,,,,VFR,,,,,,0.01,,,,,,METAR,109.0
KEUG 230554Z 19011KT 4SM -SN BR OVC020 02/M01 A2960 RMK AO2 SNB15 SLP025 P0001 60001 T00171006 10044 20011 53001,KEUG,2023-02-23T05:54:00Z,44.13,-123.22,1.7,-0.6,190,11,,4.0,29.601377,1002.5,,,TRUE,,,,,,-SN BR,OVC,2000,,,,,,,MVFR,0.1,4.4,1.1,,,0.01,,,,,,SPECI,109.0
KEUG 230515Z 18011KT 10SM -SN FEW020 BKN029 OVC048 02/M01 A2960 RMK AO2 SNB15 P0000 T00221006,KEUG,2023-02-23T05:15:00Z,44.13,-123.22,2.2,-0.6,180,11,,10.0,29.601377,,,,TRUE,,,,,,-SN,FEW,2000,BKN,2900,OVC,4800,,,MVFR,,,,,,0.005,,,,,,SPECI,109.0
KEUG 230454Z 18011KT 10SM FEW020 BKN029 OVC048 02/M01 A2960 RMK AO2 SLP024 P0000 T00221006,KEUG,2023-02-23T04:54:00Z,44.13,-123.22,2.2,-0.6,180,11,,10.0,29.601377,1002.4,,,TRUE,,,,,,,FEW,2000,BKN,2900,OVC,4800,,,MVFR,,,,,,0.005,,,,,,METAR,109.0
KEUG 230354Z 17009KT 10SM FEW021 BKN040 02/M01 A2959 RMK AO2 SLP023 T00171006,KEUG,2023-02-23T03:54:00Z,44.13,-123.22,1.7,-0.6,170,9,,10.0,29.589567,1002.3,,,TRUE,,,,,,,FEW,2100,BKN,4000,,,,,VFR,,,,,,,,,,,,METAR,109.0
KEUG 230254Z 18009KT 10SM FEW055 SCT140 01/M01 A2959 RMK AO2 SLP025 60000 T00111011 51001,KEUG,2023-02-23T02:54:00Z,44.13,-123.22,1.1,-1.1,180,9,,10.0,29.589567,1002.5,,,TRUE,,,,,,,FEW,5500,SCT,14000,,,,,VFR,0.1,,,,,,0.005,,,,,METAR,109.0
KEUG 230154Z 20007KT 10SM SCT040 BKN060 BKN130 02/M01 A2959 RMK AO2 RAB17E27SNB18E21 SLP023 P0000 T00221006,KEUG,2023-02-23T01:54:00Z,44.13,-123.22,2.2,-0.6,200,7,,10.0,29.589567,1002.3,,,TRUE,,,,,,,SCT,4000,BKN,6000,BKN,13000,,,VFR,,,,,,0.005,,,,,,METAR,109.0
KEUG 230121Z 21011KT 10SM -RA FEW013 BKN036 BKN046 03/00 A2959 RMK AO2 RAB17SNB18E21 P0000 T00280000,KEUG,2023-02-23T01:21:00Z,44.13,-123.22,2.8,0.0,210,11,,10.0,29.589567,,,,TRUE,,,,,,-RA,FEW,1300,BKN,3600,BKN,4600,,,VFR,,,,,,0.005,,,,,,SPECI,109.0
KEUG 230118Z 21012KT 10SM -RASN FEW013 BKN036 BKN046 03/00 A2959 RMK AO2 RAB17SNB18 P0000 T00280000,KEUG,2023-02-23T01:18:00Z,44.13,-123.22,2.8,0.0,210,12,,10.0,29.589567,,,,TRUE,,,,,,-RA -SN,FEW,1300,BKN,3600,BKN,4600,,,VFR,,,,,,0.005,,,,,,SPECI,109.0
KEUG 230054Z 20010KT 10SM SCT024 BKN060 OVC070 03/01 A2959 RMK AO2 SLP023 VCSH T00330006,KEUG,2023-02-23T00:54:00Z,44.13,-123.22,3.3,0.6,200,10,,10.0,29.589567,1002.3,,,TRUE,,,,,,,SCT,2400,BKN,6000,OVC,7000,,,VFR,,,,,,,,,,,,METAR,109.0
KEUG 222354Z 21011KT 10SM SCT022 BKN055 BKN090 04/00 A2959 RMK AO2 SLP022 T00440000 10061 20033 55005,KEUG,2023-02-22T23:54:00Z,44.13,-123.22,4.4,0.0,210,11,,10.0,29.589567,1002.2,,,TRUE,,,,,,,SCT,2200,BKN,5500,BKN,9000,,,VFR,-0.5,6.1,3.3,,,,,,,,,METAR,109.0
KEUG 222254Z 23011KT 10SM FEW023 BKN055 BKN110 06/01 A2959 RMK AO2 SLP021 VCSH T00560006,KEUG,2023-02-22T22:54:00Z,44.13,-123.22,5.6,0.6,230,11,,10.0,29.589567,1002.1,,,TRUE,,,,,,,FEW,2300,BKN,5500,BKN,11000,,,VFR,,,,,,,,,,,,METAR,109.0
KEUG 222154Z 23010KT 10SM BKN022 BKN029 BKN060 06/01 A2959 RMK AO2 SLP024 T00560011,KEUG,2023-02-22T21:54:00Z,44.13,-123.22,5.6,1.1,230,10,,10.0,29.589567,1002.4,,,TRUE,,,,,,,BKN,2200,BKN,2900,BKN,6000,,,MVFR,,,,,,,,,,,,METAR,109.0
KEUG 222126Z 21014KT 10SM BKN020 BKN027 OVC060 06/01 A2960 RMK AO2 T00560011,KEUG,2023-02-22T21:26:00Z,44.13,-123.22,5.6,1.1,210,14,,10.0,29.601377,,,,TRUE,,,,,,,BKN,2000,BKN,2700,OVC,6000,,,MVFR,,,,,,,,,,,,SPECI,109.0
KEUG 222054Z 21014KT 10SM FEW018 SCT065 BKN075 05/01 A2961 RMK AO2 SLP028 T00500011 58005,KEUG,2023-02-22T20:54:00Z,44.13,-123.22,5.0,1.1,210,14,,10.0,29.610237,1002.8,,,TRUE,,,,,,,FEW,1800,SCT,6500,BKN,7500,,,VFR,-0.5,,,,,,,,,,,METAR,109.0
KEUG 221954Z 20013KT 10SM SCT020 BKN034 OVC065 04/01 A2962 RMK AO2 SLP031 T00440006,KEUG,2023-02-22T19:54:00Z,44.13,-123.22,4.4,0.6,200,13,,10.0,29.619095,1003.1,,,TRUE,,,,,,,SCT,2000,BKN,3400,OVC,6500,,,VFR,,,,,,,,,,,,METAR,109.0
KEUG 221854Z 19011KT 10SM FEW016 SCT049 BKN065 04/01 A2962 RMK AO2 SLP034 T00390006,KEUG,2023-02-22T18:54:00Z,44.13,-123.22,3.9,0.6,190,11,,10.0,29.619095,1003.4,,,TRUE,,,,,,,FEW,1600,SCT,4900,BKN,6500,,,VFR,,,,,,,,,,,,METAR,109.0
KEUG 221754Z 20011KT 10SM FEW014 SCT030 BKN060 03/01 A2962 RMK AO2 SLP033 60000 T00330006 10039 20006 51005,KEUG,2023-02-22T17:54:00Z,44.13,-123.22,3.3,0.6,200,11,,10.0,29.619095,1003.3,,,TRUE,,,,,,,FEW,1400,SCT,3000,BKN,6000,,,VFR,0.5,3.9,0.6,,,,,,,,,SPECI,109.0
KEUG 221654Z 19010KT 10SM FEW030 BKN060 BKN090 03/01 A2962 RMK AO2 SLP032 T00280006,KEUG,2023-02-22T16:54:00Z,44.13,-123.22,2.8,0.6,190,10,,10.0,29.619095,1003.2,,,TRUE,,,,,,,FEW,3000,BKN,6000,BKN,9000,,,VFR,,,,,,,,,,,,SPECI,109.0
KEUG 221554Z 20008KT 10SM BKN036 BKN048 01/00 A2961 RMK AO2 SNE06 SLP030 P0000 T00110000,KEUG,2023-02-22T15:54:00Z,44.13,-123.22,1.1,0.0,200,8,,10.0,29.610237,1003.0,,,TRUE,,,,,,,BKN,3600,BKN,4800,,,,,VFR,,,,,,0.005,,,,,,SPECI,109.0
KEUG 221517Z 19008KT 8SM FEW013 BKN100 01/00 A2961 RMK AO2 SNE06 P0000 T00060000,KEUG,2023-02-22T15:17:00Z,44.13,-123.22,0.6,0.0,190,8,,8.0,29.610237,,,,TRUE,,,,,,,FEW,1300,BKN,10000,,,,,VFR,,,,,,0.005,,,,,,SPECI,109.0
KEUG 221454Z 19009KT 6SM -SN BR BKN023 BKN035 OVC110 01/00 A2961 RMK AO2 RAE11 SLP028 P0000 60000 T00110000 56003,KEUG,2023-02-22T14:54:00Z,44.13,-123.22,1.1,0.0,190,9,,6.0,29.610237,1002.8,,,TRUE,,,,,,-SN BR,BKN,2300,BKN,3500,OVC,11000,,,MVFR,-0.3,,,,,0.005,0.005,,,,,METAR,109.0
KEUG 221354Z 21011KT 10SM -RASN SCT037 BKN075 OVC100 02/00 A2961 RMK AO2 RAB52SNB52 SLP029 P0000 T00170000,KEUG,2023-02-22T13:54:00Z,44.13,-123.22,1.7,0.0,210,11,,10.0,29.610237,1002.9,,,TRUE,,,,,,-RA -SN,SCT,3700,BKN,7500,OVC,10000,,,VFR,,,,,,0.005,,,,,,SPECI,109.0
KEUG 221254Z AUTO 19006KT 10SM BKN060 OVC120 01/00 A2961 RMK AO2 SNB17E30 SLP028 P0000 T00110000,KEUG,2023-02-22T12:54:00Z,44.13,-123.22,1.1,0.0,190,6,,10.0,29.610237,1002.8,,TRUE,TRUE,,,,,,,BKN,6000,OVC,12000,,,,,VFR,,,,,,0.005,,,,,,METAR,109.0
KEUG 221154Z AUTO 21009KT 10SM BKN042 OVC050 01/00 A2961 RMK AO2 SLP030 60002 70044 T00110000 10028 20011 56009,KEUG,2023-02-22T11:54:00Z,44.13,-123.22,1.1,0.0,210,9,,10.0,29.610237,1003.0,,TRUE,TRUE,,,,,,,BKN,4200,OVC,5000,,,,,VFR,-0.9,2.8,1.1,,,,,0.02,0.44,,,METAR,109.0
KEUG 221054Z AUTO 21009KT 10SM SCT040 BKN060 OVC080 01/00 A2962 RMK AO2 SNE03 SLP032 P0000 T00110000,KEUG,2023-02-22T10:54:00Z,44.13,-123.22,1.1,0.0,210,9,,10.0,29.619095,1003.2,,TRUE,TRUE,,,,,,,SCT,4000,BKN,6000,OVC,8000,,,VFR,,,,,,0.005,,,,,,METAR,109.0
KEUG 220954Z AUTO 20010KT 5SM -SN BR SCT028 BKN039 OVC070 01/00 A2963 RMK AO2 UPB28E31SNE05B31 CIG 017 RNW 34 SLP037 P0002 T00110000,KEUG,2023-02-22T09:54:00Z,44.13,-123.22,1.1,0.0,200,10,,5.0,29.630905,1003.7,,TRUE,TRUE,,,,,,-SN BR,SCT,2800,BKN,3900,OVC,7000,,,MVFR,,,,,,0.02,,,,,,METAR,109.0
KEUG 220946Z AUTO 22011KT 5SM -SN BR FEW008 BKN036 OVC065 01/00 A2964 RMK AO2 VIS 2 RNW 34 UPB28E31SNE05B31 CIG 019 RNW 34 P0001 T00110000,KEUG,2023-02-22T09:46:00Z,44.13,-123.22,1.1,0.0,220,11,,5.0,29.639763,,,TRUE,TRUE,,,,,,-SN BR,FEW,800,BKN,3600,OVC,6500,,,MVFR,,,,,,0.01,,,,,,SPECI,109.0
KEUG 220906Z AUTO 21010KT 9SM SCT022 BKN036 BKN075 02/01 A2964 RMK AO2 SNE05 P0001 T00170006,KEUG,2023-02-22T09:06:00Z,44.13,-123.22,1.7,0.6,210,10,,9.0,29.639763,,,TRUE,TRUE,,,,,,,SCT,2200,BKN,3600,BKN,7500,,,VFR,,,,,,0.01,,,,,,METAR,109.0
KEUG 220854Z AUTO 21009KT 7SM -SN BKN022 OVC040 02/01 A2964 RMK AO2 UPB08E25RAB46E51SNB51 SLP039 P0000 60000 T00170006 58006,KEUG,2023-02-22T08:54:00Z,44.13,-123.22,1.7,0.6,210,9,,7.0,29.639763,1003.9,,TRUE,TRUE,,,,,,-SN,BKN,2200,OVC,4000,,,,,MVFR,-0.6,,,,,0.005,0.005,,,,,METAR,109.0
KEUG 220754Z AUTO 22009KT 10SM FEW032 BKN075 OVC100 02/01 A2965 RMK AO2 SLP042 T00220006 400830011,KEUG,2023-02-22T07:54:00Z,44.13,-123.22,2.2,0.6,220,9,,10.0,29.648623,1004.2,,TRUE,TRUE,,,,,,,FEW,3200,BKN,7500,OVC,10000,,,VFR,,,,8.3,1.1,,,,,,,METAR,109.0
KEUG 220654Z 22009KT 10SM SCT027 BKN040 OVC060 02/01 A2965 RMK AO2 UPB19E27 SLP044 P0000 T00170006,KEUG,2023-02-22T06:54:00Z,44.13,-123.22,1.7,0.6,220,9,,10.0,29.648623,1004.4,,,TRUE,,,,,,,SCT,2700,BKN,4000,OVC,6000,,,VFR,,,,,,0.005,,,,,,METAR,109.0
KEUG 220554Z 22010KT 10SM FEW017 BKN037 BKN085 03/01 A2966 RMK AO2 SLP046 60017 T00280006 10050 20011 58012,KEUG,2023-02-22T05:54:00Z,44.13,-123.22,2.8,0.6,220,10,,10.0,29.660433,1004.6,,,TRUE,,,,,,,FEW,1700,BKN,3700,BKN,8500,,,VFR,-1.2,5.0,1.1,,,,,,,,,SPECI,109.0
KEUG 220454Z 18005KT 9SM FEW017 SCT038 BKN085 01/01 A2968 RMK AO2 RAE27UPB27E30SNE05 SLP051 P0005 T00110006,KEUG,2023-02-22T04:54:00Z,44.13,-123.22,1.1,0.6,180,5,,9.0,29.681103,1005.1,,,TRUE,,,,,,,FEW,1700,SCT,3800,BKN,8500,,,VFR,,,,,,0.05,,,,,,SPECI,109.0
KEUG 220359Z 27008KT 6SM -RASN BR BKN010 OVC017 02/01 A2970 RMK AO2 P0001 T00220006,KEUG,2023-02-22T03:59:00Z,44.13,-123.22,2.2,0.6,270,8,,6.0,29.698818,,,,TRUE,,,,,,-RA -SN BR,BKN,1000,OVC,1700,,,,,MVFR,,,,,,0.01,,,,,,SPECI,109.0
KEUG 220354Z 27010KT 7SM RASN SCT012 OVC021 03/01 A2970 RMK AO2 RAB19UPB20E25SNB52 SLP058 P0004 T00280011,KEUG,2023-02-22T03:54:00Z,44.13,-123.22,2.8,1.1,270,10,,7.0,29.698818,1005.8,,,TRUE,,,,,,RA SN,SCT,1200,OVC,2100,,,,,MVFR,,,,,,0.04,,,,,,METAR,109.0
KEUG 220338Z 21006KT 8SM -RA FEW014 BKN024 OVC041 03/02 A2969 RMK AO2 RAB19UPB20E25 P0000 T00280017,KEUG,2023-02-22T03:38:00Z,44.13,-123.22,2.8,1.7,210,6,,8.0,29.68996,,,,TRUE,,,,,,-RA,FEW,1400,BKN,2400,OVC,4100,,,MVFR,,,,,,0.005,,,,,,SPECI,109.0
KEUG 220254Z 22006KT 9SM SCT016 BKN034 BKN070 03/01 A2970 RMK AO2 RAE34 SLP058 VCSH P0007 60008 T00280011 56014,KEUG,2023-02-22T02:54:00Z,44.13,-123.22,2.8,1.1,220,6,,9.0,29.698818,1005.8,,,TRUE,,,,,,,SCT,1600,BKN,3400,BKN,7000,,,VFR,-1.4,,,,,0.07,0.08,,,,,METAR,109.0
KEUG 220201Z 16004KT 8SM -RA SCT019 BKN026 OVC036 04/02 A2970 RMK AO2 P0001 T00390022,KEUG,2023-02-22T02:01:00Z,44.13,-123.22,3.9,2.2,160,4,,8.0,29.698818,,,,TRUE,,,,,,-RA,SCT,1900,BKN,2600,OVC,3600,,,MVFR,,,,,,0.01,,,,,,SPECI,109.0
KEUG 220154Z 18006KT 8SM -RA SCT017 BKN036 OVC050 04/02 A2970 RMK AO2 RAB46 SLP061 P0001 T00390022,KEUG,2023-02-22T01:54:00Z,44.13,-123.22,3.9,2.2,180,6,,8.0,29.698818,1006.1,,,TRUE,,,,,,-RA,SCT,1700,BKN,3600,OVC,5000,,,VFR,,,,,,0.01,,,,,,METAR,109.0
KEUG 220054Z 21008KT 10SM BKN038 BKN050 BKN075 04/02 A2973 RMK AO2 RAE53 SLP067 P0000 T00390022,KEUG,2023-02-22T00:54:00Z,44.13,-123.22,3.9,2.2,210,8,,10.0,29.731298,1006.7,,,TRUE,,,,,,,BKN,3800,BKN,5000,BKN,7500,,,VFR,,,,,,0.005,,,,,,METAR,109.0
KEUG 220021Z 21009KT 10SM -RA FEW020 BKN028 BKN037 04/02 A2973 RMK AO2 P0000 T00440022,KEUG,2023-02-22T00:21:00Z,44.13,-123.22,4.4,2.2,210,9,,10.0,29.731298,,,,TRUE,,,,,,-RA,FEW,2000,BKN,2800,BKN,3700,,,MVFR,,,,,,0.005,,,,,,SPECI,109.0
KEUG 212354Z 23008KT 9SM -RA SCT022 BKN036 OVC045 05/02 A2974 RMK AO2 RAE14B33 SLP071 P0001 60024 T00500022 10067 20039 58019,KEUG,2023-02-21T23:54:00Z,44.13,-123.22,5.0,2.2,230,8,,9.0,29.740158,1007.1,,,TRUE,,,,,,-RA,SCT,2200,BKN,3600,OVC,4500,,,VFR,-1.9,6.7,3.9,,,0.01,,0.24,,,,METAR,109.0
KEUG 212254Z 27007KT 9SM -RA SCT016 SCT033 OVC040 06/03 A2976 RMK AO2 RAB11 SLP080 P0004 T00560028,KEUG,2023-02-21T22:54:00Z,44.13,-123.22,5.6,2.8,270,7,,9.0,29.760826,1008.0,,,TRUE,,,,,,-RA,SCT,1600,SCT,3300,OVC,4000,,,VFR,,,,,,0.04,,,,,,METAR,109.0
KEUG 212154Z 26007KT 10SM FEW014 BKN021 BKN047 06/03 A2977 RMK AO2 RAB04E48 SLP083 P0010 T00560028,KEUG,2023-02-21T21:54:00Z,44.13,-123.22,5.6,2.8,260,7,,10.0,29.769686,1008.3,,,TRUE,,,,,,,FEW,1400,BKN,2100,BKN,4700,,,MVFR,,,,,,0.1,,,,,,METAR,109.0
KEUG 212054Z 21008KT 10SM FEW016 BKN023 BKN110 06/03 A2979 RMK AO2 RAE42SNB04E17 SLP090 P0003 60009 T00560033 58022,KEUG,2023-02-21T20:54:00Z,44.13,-123.22,5.6,3.3,210,8,,10.0,29.790354,1009.0,,,TRUE,,,,,,,FEW,1600,BKN,2300,BKN,11000,,,MVFR,-2.2,,,,,0.03,0.09,,,,,METAR,109.0
KEUG 212017Z 29007KT 10SM -RA FEW016 BKN027 OVC037 04/02 A2982 RMK AO2 SNB04E17 P0003 T00440017,KEUG,2023-02-21T20:17:00Z,44.13,-123.22,4.4,1.7,290,7,,10.0,29.819881,,,,TRUE,,,,,,-RA,FEW,1600,BKN,2700,OVC,3700,,,MVFR,,,,,,0.03,,,,,,METAR,109.0
KEUG 212004Z 29010G21KT 6SM -RASN SCT017 BKN027 OVC060 04/01 A2982 RMK AO2 SNB04 P0000 T00440011,KEUG,2023-02-21T20:04:00Z,44.13,-123.22,4.4,1.1,290,10,21,6.0,29.819881,,,,TRUE,,,,,,-RA -SN,SCT,1700,BKN,2700,OVC,6000,,,MVFR,,,,,,0.005,,,,,,SPECI,109.0
KEUG 211954Z 27009KT 10SM -RA SCT018 OVC027 06/03 A2983 RMK AO2 RAB01 SLP102 P0001 T00560028,KEUG,2023-02-21T19:54:00Z,44.13,-123.22,5.6,2.8,270,9,,10.0,29.828741,1010.2,,,TRUE,,,,,,-RA,SCT,1800,OVC,2700,,,,,MVFR,,,,,,0.01,,,,,,METAR,109.0
KEUG 211854Z 24011KT 10SM BKN028 BKN200 06/04 A2984 RMK AO2 RAB07E46 SLP108 P0005 T00610039,KEUG,2023-02-21T18:54:00Z,44.13,-123.22,6.1,3.9,240,11,,10.0,29.840551,1010.8,,,TRUE,,,,,,,BKN,2800,BKN,20000,,,,,MVFR,,,,,,0.05,,,,,,SPECI,109.0
KEUG 211829Z 27008KT 5SM -RA BR SCT016 OVC023 04/02 A2986 RMK AO2 RAB07 P0003 T00440022,KEUG,2023-02-21T18:29:00Z,44.13,-123.22,4.4,2.2,270,8,,5.0,29.861221,,,,TRUE,,,,,,-RA BR,SCT,1600,OVC,2300,,,,,MVFR,,,,,,0.03,,,,,,METAR,109.0
KEUG 211754Z 22009KT 10SM FEW025 BKN032 BKN060 06/03 A2986 RMK AO2 RAE05B43E52 SLP113 P0000 60001 T00610028 10067 20033 56019,KEUG,2023-02-21T17:54:00Z,44.13,-123.22,6.1,2.8,220,9,,10.0,29.861221,1011.3,,,TRUE,,,,,,,FEW,2500,BKN,3200,BKN,6000,,,VFR,-1.9,6.7,3.3,,,0.005,,0.01,,,,METAR,109.0
KEUG 211654Z 22009KT 8SM -RA BKN027 BKN033 BKN040 05/02 A2988 RMK AO2 RAB40 SLP119 P0000 T00500022,KEUG,2023-02-21T16:54:00Z,44.13,-123.22,5.0,2.2,220,9,,8.0,29.878937,1011.9,,,TRUE,,,,,,-RA,BKN,2700,BKN,3300,BKN,4000,,,MVFR,,,,,,0.005,,,,,,METAR,109.0
KEUG 211627Z 18004KT 10SM BKN025 OVC032 04/02 A2989 RMK AO2 T00440022,KEUG,2023-02-21T16:27:00Z,44.13,-123.22,4.4,2.2,180,4,,10.0,29.890747,,,,TRUE,,,,,,,BKN,2500,OVC,3200,,,,,MVFR,,,,,,,,,,,,SPECI,109.0
KEUG 211554Z 17006KT 10SM SCT021 BKN034 BKN110 03/01 A2990 RMK AO2 RAE04B20E37 SLP125 P0001 T00330011,KEUG,2023-02-21T15:54:00Z,44.13,-123.22,3.3,1.1,170,6,,10.0,29.899607,1012.5,,,TRUE,,,,,,,SCT,2100,BKN,3400,BKN,11000,,,VFR,,,,,,0.01,,,,,,METAR,109.0
KEUG 211454Z 26009KT 10SM -RA BKN024 BKN060 OVC095 06/01 A2992 RMK AO2 RAB23 SLP132 P0000 60000 T00560011 56022,KEUG,2023-02-21T14:54:00Z,44.13,-123.22,5.6,1.1,260,9,,10.0,29.920275,1013.2,,,TRUE,,,,,,-RA,BKN,2400,BKN,6000,OVC,9500,,,MVFR,-2.2,,,,,0.005,0.005,,,,,METAR,109.0
KEUG 211354Z 23007KT 10SM BKN027 BKN033 05/02 A2992 RMK AO2 SLP135 T00500017,KEUG,2023-02-21T13:54:00Z,44.13,-123.22,5.0,1.7,230,7,,10.0,29.920275,1013.5,,,TRUE,,,,,,,BKN,2700,BKN,3300,,,,,MVFR,,,,,,,,,,,,METAR,109.0
KEUG 211254Z AUTO 26007KT 10SM OVC027 07/02 A2996 RMK AO2 SLP146 T00670022,KEUG,2023-02-21T12:54:00Z,44.13,-123.22,6.7,2.2,260,7,,10.0,29.958662,1014.6,,TRUE,TRUE,,,,,,,OVC,2700,,,,,,,MVFR,,,,,,,,,,,,SPECI,109.0
KEUG 211214Z AUTO 27008KT 10SM BKN029 OVC060 07/03 A2998 RMK AO2 T00670033,KEUG,2023-02-21T12:14:00Z,44.13,-123.22,6.7,3.3,270,8,,10.0,29.97933,,,TRUE,TRUE,,,,,,,BKN,2900,OVC,6000,,,,,MVFR,,,,,,,,,,,,METAR,109.0
KEUG 211154Z AUTO 29006KT 10SM FEW028 SCT043 BKN060 06/03 A2998 RMK AO2 CIG 038 RNW 34 SLP153 60002 70002 T00610028 10089 20061 56009,KEUG,2023-02-21T11:54:00Z,44.13,-123.22,6.1,2.8,290,6,,10.0,29.97933,1015.3,,TRUE,TRUE,,,,,,,FEW,2800,SCT,4300,BKN,6000,,,VFR,-0.9,8.9,6.1,,,,,0.02,0.02,,,METAR,109.0
KEUG 211054Z AUTO 29008KT 10SM FEW028 BKN035 OVC042 08/05 A2999 RMK AO2 CIG 022 RNW 34 SLP157 T00780050,KEUG,2023-02-21T10:54:00Z,44.13,-123.22,7.8,5.0,290,8,,10.0,29.991142,1015.7,,TRUE,TRUE,,,,,,,FEW,2800,BKN,3500,OVC,4200,,,VFR,,,,,,,,,,,,METAR,109.0
KEUG 211039Z AUTO 29010KT 10SM SCT025 OVC032 08/05 A3000 RMK AO2 CIG 022 RNW 34 T00780050,KEUG,2023-02-21T10:39:00Z,44.13,-123.22,7.8,5.0,290,10,,10.0,30.0,,,TRUE,TRUE,,,,,,,SCT,2500,OVC,3200,,,,,VFR,,,,,,,,,,,,METAR,109.0
KEUG 210954Z AUTO 21006KT 10SM FEW010 SCT015 OVC025 08/07 A3000 RMK AO2 RAE0857B28E44 CIG 014 RNW 34 SLP159 P0001 T00780067,KEUG,2023-02-21T09:54:00Z,44.13,-123.22,7.8,6.7,210,6,,10.0,30.0,1015.9,,TRUE,TRUE,,,,,,,FEW,1000,SCT,1500,OVC,2500,,,MVFR,,,,,,0.01,,,,,,METAR,109.0
KEUG 210947Z AUTO 22006KT 10SM FEW010 SCT015 OVC023 08/07 A3000 RMK AO2 RAE0857B28E44 CIG 014 RNW 34 P0001 T00780067,KEUG,2023-02-21T09:47:00Z,44.13,-123.22,7.8,6.7,220,6,,10.0,30.0,,,TRUE,TRUE,,,,,,,FEW,1000,SCT,1500,OVC,2300,,,MVFR,,,,,,0.01,,,,,,SPECI,109.0
KEUG 210939Z AUTO 20007KT 4SM -RA BR FEW007 BKN013 OVC019 08/07 A3000 RMK AO2 RAE0857B28 P0001 T00780072,KEUG,2023-02-21T09:39:00Z,44.13,-123.22,7.8,7.2,200,7,,4.0,30.0,,,TRUE,TRUE,,,,,,-RA BR,FEW,700,BKN,1300,OVC,1900,,,MVFR,,,,,,0.01,,,,,,SPECI,109.0
KEUG 210854Z AUTO 18011KT 4SM -RA BR BKN019 OVC025 08/07 A3001 RMK AO2 RAB25 SLP162 P0001 60001 T00780067 58028,KEUG,2023-02-21T08:54:00Z,44.13,-123.22,7.8,6.7,180,11,,4.0,30.008858,1016.2,,TRUE,TRUE,,,,,,-RA BR,BKN,1900,OVC,2500,,,,,MVFR,-2.8,,,,,0.01,0.01,,,,,METAR,109.0
KEUG 210754Z AUTO 18011KT 9SM OVC023 08/07 A3005 RMK AO2 SLP176 T00830067 401331006,KEUG,2023-02-21T07:54:00Z,44.13,-123.22,8.3,6.7,180,11,,9.0,30.050198,1017.6,,TRUE,TRUE,,,,,,,OVC,2300,,,,,,,MVFR,,,,13.3,-0.6,,,,,,,METAR,109.0
KEUG 210654Z 19008KT 10SM BKN020 OVC040 09/06 A3007 RMK AO2 SLP183 T00890056,KEUG,2023-02-21T06:54:00Z,44.13,-123.22,8.9,5.6,190,8,,10.0,30.070866,1018.3,,,TRUE,,,,,,,BKN,2000,OVC,4000,,,,,MVFR,,,,,,,,,,,,METAR,109.0
KEUG 210630Z 19010KT 10SM BKN022 OVC037 09/06 A3007 RMK AO2 T00890056,KEUG,2023-02-21T06:30:00Z,44.13,-123.22,8.9,5.6,190,10,,10.0,30.070866,,,,TRUE,,,,,,,BKN,2200,OVC,3700,,,,,MVFR,,,,,,,,,,,,SPECI,109.0
KEUG 210554Z 20009KT 10SM FEW017 SCT032 OVC049 08/06 A3009 RMK AO2 SLP192 T00830056 10117 20083 58017,KEUG,2023-02-21T05:54:00Z,44.13,-123.22,8.3,5.6,200,9,,10.0,30.088583,1019.2,,,TRUE,,,,,,,FEW,1700,SCT,3200,OVC,4900,,,VFR,-1.7,11.7,8.3,,,,,,,,,METAR,109.0
KEUG 210541Z 21008KT 10SM SCT017 BKN032 OVC049 08/06 A3010 RMK AO2 T00830056,KEUG,2023-02-21T05:41:00Z,44.13,-123.22,8.3,5.6,210,8,,10.0,30.100393,,,,TRUE,,,,,,,SCT,1700,BKN,3200,OVC,4900,,,VFR,,,,,,,,,,,,METAR,109.0
KEUG 210454Z 21008KT 10SM BKN017 OVC070 08/06 A3012 RMK AO2 SLP201 T00830056,KEUG,2023-02-21T04:54:00Z,44.13,-123.22,8.3,5.6,210,8,,10.0,30.121063,1020.1,,,TRUE,,,,,,,BKN,1700,OVC,7000,,,,,MVFR,,,,,,,,,,,,METAR,109.0
KEUG 210354Z 22007KT 10SM BKN027 BKN070 OVC085 09/05 A3014 RMK AO2 SLP207 T00890050,KEUG,2023-02-21T03:54:00Z,44.13,-123.22,8.9,5.0,220,7,,10.0,30.138779,1020.7,,,TRUE,,,,,,,BKN,2700,BKN,7000,OVC,8500,,,MVFR,,,,,,,,,,,,METAR,109.0
KEUG 210345Z 23008KT 10SM BKN027 BKN070 OVC085 09/05 A3014 RMK AO2 T00890050,KEUG,2023-02-21T03:45:00Z,44.13,-123.22,8.9,5.0,230,8,,10.0,30.138779,,,,TRUE,,,,,,,BKN,2700,BKN,7000,OVC,8500,,,MVFR,,,,,,,,,,,,SPECI,109.0
KEUG 210254Z 25008KT 10SM SCT055 BKN080 OVC095 09/06 A3014 RMK AO2 SLP209 T00940056 58024,KEUG,2023-02-21T02:54:00Z,44.13,-123.22,9.4,5.6,250,8,,10.0,30.138779,1020.9,,,TRUE,,,,,,,SCT,5500,BKN,8000,OVC,9500,,,VFR,-2.4,,,,,,,,,,,SPECI,109.0
KEUG 210154Z 24005KT 10SM FEW015 SCT025 OVC090 10/06 A3018 RMK AO2 SLP222 T01000056,KEUG,2023-02-21T01:54:00Z,44.13,-123.22,10.0,5.6,240,5,,10.0,30.180119,1022.2,,,TRUE,,,,,,,FEW,1500,SCT,2500,OVC,9000,,,VFR,,,,,,,,,,,,METAR,109.0
KEUG 210128Z 24005KT 10SM FEW015 BKN025 OVC110 11/06 A3019 RMK AO2 T01060056,KEUG,2023-02-21T01:28:00Z,44.13,-123.22,10.6,5.6,240,5,,10.0,30.188976,,,,TRUE,,,,,,,FEW,1500,BKN,2500,OVC,11000,,,MVFR,,,,,,,,,,,,SPECI,109.0
KEUG 210054Z 24004KT 10SM FEW030 BKN120 OVC200 11/06 A3020 RMK AO2 SLP229 T01110056,KEUG,2023-02-21T00:54:00Z,44.13,-123.22,11.1,5.6,240,4,,10.0,30.200787,1022.9,,,TRUE,,,,,,,FEW,3000,BKN,12000,OVC,20000,,,VFR,,,,,,,,,,,,METAR,109.0
KEUG 202354Z 25006KT 10SM FEW020 BKN120 OVC200 12/06 A3021 RMK AO2 SLP233 T01170056 10133 20067 56026,KEUG,2023-02-20T23:54:00Z,44.13,-123.22,11.7,5.6,250,6,,10.0,30.209646,1023.3,,,TRUE,,,,,,,FEW,2000,BKN,12000,OVC,20000,,,VFR,-2.6,13.3,6.7,,,,,,,,,METAR,109.0
KEUG 202254Z 25010KT 10SM FEW025 BKN150 OVC200 12/05 A3022 RMK AO2 SLP234 T01220050,KEUG,2023-02-20T22:54:00Z,44.13,-123.22,12.2,5.0,250,10,,10.0,30.221457,1023.4,,,TRUE,,,,,,,FEW,2500,BKN,15000,OVC,20000,,,VFR,,,,,,,,,,,,METAR,109.0
KEUG 202154Z 24010KT 10SM FEW023 BKN170 BKN210 13/05 A3024 RMK AO2 PRESFR SLP241 T01280050,KEUG,2023-02-20T21:54:00Z,44.13,-123.22,12.8,5.0,240,10,,10.0,30.239174,1024.1,,,TRUE,,,,,,,FEW,2300,BKN,17000,BKN,21000,,,VFR,,,,,,,,,,,,SPECI,109.0
KEUG 202054Z 20006KT 10SM BKN150 BKN210 11/05 A3029 RMK AO2 PRESFR SLP259 T01110050 58029,KEUG,2023-02-20T20:54:00Z,44.13,-123.22,11.1,5.0,200,6,,10.0,30.28937,1025.9,,,TRUE,,,,,,,BKN,15000,BKN,21000,,,,,VFR,-2.9,,,,,,,,,,,METAR,109.0
KEUG 201954Z 24007KT 10SM FEW020 BKN190 BKN250 11/05 A3034 RMK AO2 SLP277 T01060050,KEUG,2023-02-20T19:54:00Z,44.13,-123.22,10.6,5.0,240,7,,10.0,30.339567,1027.7,,,TRUE,,,,,,,FEW,2000,BKN,19000,BKN,25000,,,VFR,,,,,,,,,,,,METAR,109.0
KEUG 201854Z 18006KT 10SM FEW015 FEW160 OVC240 08/04 A3037 RMK AO2 SLP285 T00830044,KEUG,2023-02-20T18:54:00Z,44.13,-123.22,8.3,4.4,180,6,,10.0,30.369095,1028.5,,,TRUE,,,,,,,FEW,1500,FEW,16000,OVC,24000,,,VFR,,,,,,,,,,,,METAR,109.0
KEUG 201754Z 16006KT 10SM FEW050 SCT160 BKN250 07/03 A3038 RMK AO2 SLP289 T00670033 10067 21006 51003,KEUG,2023-02-20T17:54:00Z,44.13,-123.22,6.7,3.3,160,6,,10.0,30.380905,1028.9,,,TRUE,,,,,,,FEW,5000,SCT,16000,BKN,25000,,,VFR,0.3,6.7,-0.6,,,,,,,,,METAR,109.0
KEUG 201654Z 15007KT 10SM FEW050 BKN160 BKN250 04/02 A3037 RMK AO2 SLP286 T00440022,KEUG,2023-02-20T16:54:00Z,44.13,-123.22,4.4,2.2,150,7,,10.0,30.369095,1028.6,,,TRUE,,,,,,,FEW,5000,BKN,16000,BKN,25000,,,VFR,,,,,,,,,,,,METAR,109.0
KEUG 201554Z 21005KT 10SM SCT050 SCT170 BKN250 01/M01 A3039 RMK AO2 SLP293 T00111006,KEUG,2023-02-20T15:54:00Z,44.13,-123.22,1.1,-0.6,210,5,,10.0,30.389763,1029.3,,,TRUE,,,,,,,SCT,5000,SCT,17000,BKN,25000,,,VFR,,,,,,,,,,,,METAR,109.0
KEUG 201454Z 20005KT 10SM BKN050 BKN170 01/00 A3037 RMK AO2 SLP287 T00110000 57003,KEUG,2023-02-20T14:54:00Z,44.13,-123.22,1.1,0.0,200,5,,10.0,30.369095,1028.7,,,TRUE,,,,,,,BKN,5000,BKN,17000,,,,,VFR,-0.3,,,,,,,,,,,METAR,109.0
KEUG 201354Z 17006KT 10SM CLR 00/M01 A3037 RMK AO2 SLP289 T00001011,KEUG,2023-02-20T13:54:00Z,44.13,-123.22,0.0,-1.1,170,6,,10.0,30.369095,1028.9,,,TRUE,,,,,,,CLR,,,,,,,,VFR,,,,,,,,,,,,METAR,109.0
KEUG 201254Z AUTO 20004KT 10SM CLR 00/M01 A3038 RMK AO2 SLP289 T00001011,KEUG,2023-02-20T12:54:00Z,44.13,-123.22,0.0,-1.1,200,4,,10.0,30.380905,1028.9,,TRUE,TRUE,,,,,,,CLR,,,,,,,,VFR,,,,,,,,,,,,SPECI,109.0
KEUG 201154Z AUTO 18006KT 10SM FEW050 01/M01 A3038 RMK AO2 SLP290 T00061006 10039 20000 50005,KEUG,2023-02-20T11:54:00Z,44.13,-123.22,0.6,-0.6,180,6,,10.0,30.380905,1029.0,,TRUE,TRUE,,,,,,,FEW,5000,,,,,,,VFR,0.5,3.9,0.0,,,,,,,,,METAR,109.0
KEUG 201054Z AUTO 20004KT 10SM CLR 01/00 A3038 RMK AO2 SLP291 T00110000,KEUG,2023-02-20T10:54:00Z,44.13,-123.22,1.1,0.0,200,4,,10.0,30.380905,1029.1,,TRUE,TRUE,,,,,,,CLR,,,,,,,,VFR,,,,,,,,,,,,METAR,109.0
KEUG 200954Z AUTO 25004KT 10SM BKN050 01/00 A3039 RMK AO2 SLP293 T00110000,KEUG,2023-02-20T09:54:00Z,44.13,-123.22,1.1,0.0,250,4,,10.0,30.389763,1029.3,,TRUE,TRUE,,,,,,,BKN,5000,,,,,,,VFR,,,,,,,,,,,,METAR,109.0
KEUG 200854Z AUTO 21005KT 10SM CLR 02/00 A3037 RMK AO2 SLP285 T00170000 58002,KEUG,2023-02-20T08:54:00Z,44.13,-123.22,1.7,0.0,210,5,,10.0,30.369095,1028.5,,TRUE,TRUE,,,,,,,CLR,,,,,,,,VFR,-0.2,,,,,,,,,,,METAR,109.0
KEUG 200754Z AUTO 00000KT 10SM CLR 02/01 A3039 RMK AO2 SLP292 T00220011 401390000,KEUG,2023-02-20T07:54:00Z,44.13,-123.22,2.2,1.1,0,0,,10.0,30.389763,1029.2,,TRUE,TRUE,,,,,,,CLR,,,,,,,,VFR,,,,13.9,,,,,,,,METAR,109.0
KEUG 200654Z 24004KT 10SM CLR 03/01 A3039 RMK AO2 SLP292 T00280011,KEUG,2023-02-20T06:54:00Z,44.13,-123.22,2.8,1.1,240,4,,10.0,30.389763,1029.2,,,TRUE,,,,,,,CLR,,,,,,,,VFR,,,,,,,,,,,,METAR,109.0
KEUG 200554Z 20004KT 10SM CLR 04/02 A3037 RMK AO2 SLP287 T00390022 10133 20028 51015,KEUG,2023-02-20T05:54:00Z,44.13,-123.22,3.9,2.2,200,4,,10.0,30.369095,1028.7,,,TRUE,,,,,,,CLR,,,,,,,,VFR,1.5,13.3,2.8,,,,,,,,,METAR,109.0
KEUG 200454Z 00000KT 10SM CLR 04/02 A3037 RMK AO2 SLP287 T00390017,KEUG,2023-02-20T04:54:00Z,44.13,-123.22,3.9,1.7,0,0,,10.0,30.369095,1028.7,,,TRUE,,,,,,,CLR,,,,,,,,VFR,,,,,,,,,,,,METAR,109.0
KEUG 200354Z 35006KT 10SM CLR 07/03 A3035 RMK AO2 SLP280 T00720028,KEUG,2023-02-20T03:54:00Z,44.13,-123.22,7.2,2.8,350,6,,10.0,30.351377,1028.0,,,TRUE,,,,,,,CLR,,,,,,,,VFR,,,,,,,,,,,,METAR,109.0
KEUG 200254Z 03004KT 10SM FEW060 BKN250 08/03 A3033 RMK AO2 SLP272 T00830028 55007,KEUG,2023-02-20T02:54:00Z,44.13,-123.22,8.3,2.8,30,4,,10.0,30.33071,1027.2,,,TRUE,,,,,,,FEW,6000,BKN,25000,,,,,VFR,-0.7,,,,,,,,,,,METAR,109.0
KEUG 200154Z 07004KT 10SM FEW060 BKN250 09/03 A3032 RMK AO2 SLP270 T00890033,KEUG,2023-02-20T01:54:00Z,44.13,-123.22,8.9,3.3,70,4,,10.0,30.318897,1027.0,,,TRUE,,,,,,,FEW,6000,BKN,25000,,,,,VFR,,,,,,,,,,,,SPECI,109.0
KEUG 200054Z 04004KT 10SM FEW060 BKN250 12/03 A3033 RMK AO2 SLP274 T01220033,KEUG,2023-02-20T00:54:00Z,44.13,-123.22,12.2,3.3,40,4,,10.0,30.33071,1027.4,,,TRUE,,,,,,,FEW,6000,BKN,25000,,,,,VFR,,,,,,,,,,,,METAR,109.0
KEUG 192354Z 04006KT 10SM FEW060 BKN250 13/03 A3035 RMK AO2 SLP279 T01280033 10139 20078 55009,KEUG,2023-02-19T23:54:00Z,44.13,-123.22,12.8,3.3,40,6,,10.0,30.351377,1027.9,,,TRUE,,,,,,,FEW,6000,BKN,25000,,,,,VFR,-0.9,13.9,7.8,,,,,,,,,METAR,109.0
KEUG 192254Z VRB03KT 10SM FEW060 BKN250 13/02 A3033 RMK AO2 SLP271 T01330017,KEUG,2023-02-19T22:54:00Z,44.13,-123.22,13.3,1.7,0,3,,10.0,30.33071,1027.1,,,TRUE,,,,,,,FEW,6000,BKN,25000,,,,,VFR,,,,,,,,,,,,METAR,109.0
KEUG 192154Z 03005KT 10SM FEW060 BKN250 13/02 A3035 RMK AO2 SLP278 T01280022,KEUG,2023-02-19T21:54:00Z,44.13,-123.22,12.8,2.2,30,5,,10.0,30.351377,1027.8,,,TRUE,,,,,,,FEW,6000,BKN,25000,,,,,VFR,,,,,,,,,,,,METAR,109.0
KEUG 192054Z 03005KT 10SM FEW040 FEW060 BKN230 12/02 A3037 RMK AO2 SLP286 T01220022 58001,KEUG,2023-02-19T20:54:00Z,44.13,-123.22,12.2,2.2,30,5,,10.0,30.369095,1028.6,,,TRUE,,,,,,,FEW,4000,FEW,6000,BKN,23000,,,VFR,-0.1,,,,,,,,,,,METAR,109.0
KEUG 191954Z 03005KT 10SM FEW040 FEW060 BKN230 12/02 A3038 RMK AO2 SLP289 T01170017,KEUG,2023-02-19T19:54:00Z,44.13,-123.22,11.7,1.7,30,5,,10.0,30.380905,1028.9,,,TRUE,,,,,,,FEW,4000,FEW,6000,BKN,23000,,,VFR,,,,,,,,,,,,METAR,109.0
KEUG 191854Z 17006KT 10SM FEW040 SCT230 10/02 A3038 RMK AO2 SLP288 T01000022,KEUG,2023-02-19T18:54:00Z,44.13,-123.22,10.0,2.2,170,6,,10.0,30.380905,1028.8,,,TRUE,,,,,,,FEW,4000,SCT,23000,,,,,VFR,,,,,,,,,,,,METAR,109.0
KEUG 191754Z 20004KT 10SM FEW038 SCT230 08/04 A3038 RMK AO2 SLP289 T00780039 10078 20000 51004,KEUG,2023-02-19T17:54:00Z,44.13,-123.22,7.8,3.9,200,4,,10.0,30.380905,1028.9,,,TRUE,,,,,,,FEW,3800,SCT,23000,,,,,VFR,0.4,7.8,0.0,,,,,,,,,METAR,109.0
KEUG 191654Z 19005KT 10SM FEW038 FEW100 SCT240 06/04 A3038 RMK AO2 SLP289 T00560039,KEUG,2023-02-19T16:54:00Z,44.13,-123.22,5.6,3.9,190,5,,10.0,30.380905,1028.9,,,TRUE,,,,,,,FEW,3800,FEW,10000,SCT,24000,,,VFR,,,,,,,,,,,,METAR,109.0
KEUG 191554Z 00000KT 10SM BKN037 BKN120 03/02 A3038 RMK AO2 SLP289 T00280017,KEUG,2023-02-19T15:54:00Z,44.13,-123.22,2.8,1.7,0,0,,10.0,30.380905,1028.9,,,TRUE,,,,,,,BKN,3700,BKN,12000,,,,,VFR,,,,,,,,,,,,METAR,109.0
KEUG 191454Z 18003KT 10SM BKN037 02/01 A3037 RMK AO2 SLP285 T00220011 51010,KEUG,2023-02-19T14:54:00Z,44.13,-123.22,2.2,1.1,180,3,,10.0,30.369095,1028.5,,,TRUE,,,,,,,BKN,3700,,,,,,,VFR,1.0,,,,,,,,,,,METAR,109.0
KEUG 191354Z 00000KT 10SM OVC037 02/01 A3036 RMK AO2 SLP284 T00170011,KEUG,2023-02-19T13:54:00Z,44.13,-123.22,1.7,1.1,0,0,,10.0,30.360237,1028.4,,,TRUE,,,,,,,OVC,3700,,,,,,,VFR,,,,,,,,,,,,METAR,109.0
KEUG 191254Z AUTO 19004KT 4SM R16R/3000VP6000FT BR OVC039 01/01 A3035 RMK AO2 VIS 2 RNW 34 SLP278 T00110006,KEUG,2023-02-19T12:54:00Z,44.13,-123.22,1.1,0.6,190,4,,4.0,30.351377,1027.8,,TRUE,TRUE,,,,,,BR,OVC,3900,,,,,,,MVFR,,,,,,,,,,,,METAR,109.0
KEUG 191244Z AUTO 20003KT 4SM R16R/5000VP6000FT BR OVC039 01/01 A3035 RMK AO2 VIS 1 1/4 RNW 34 T00110006,KEUG,2023-02-19T12:44:00Z,44.13,-123.22,1.1,0.6,200,3,,4.0,30.351377,,,TRUE,TRUE,,,,,,BR,OVC,3900,,,,,,,MVFR,,,,,,,,,,,,METAR,109.0
KEUG 191242Z AUTO 19003KT 1 3/4SM R16R/3500VP6000FT BR OVC039 01/01 A3035 RMK AO2 VIS 1 RNW 34 T00110006,KEUG,2023-02-19T12:42:00Z,44.13,-123.22,1.1,0.6,190,3,,1.75,30.351377,,,TRUE,TRUE,,,,,,BR,OVC,3900,,,,,,,IFR,,,,,,,,,,,,SPECI,109.0
KEUG 191224Z AUTO 00000KT 1/2SM R16R/4000V6000FT FG OVC039 01/00 A3034 RMK AO2 T00060000,KEUG,2023-02-19T12:24:00Z,44.13,-123.22,0.6,0.0,0,0,,0.5,30.339567,,,TRUE,TRUE,,,,,,FG,OVC,3900,,,,,,,LIFR,,,,,,,,,,,,SPECI,109.0
KEUG 191206Z AUTO 10003KT 1/2SM R16R/2200V4500FT FG BKN029 OVC039 00/M01 A3034 RMK AO2 T00001006,KEUG,2023-02-19T12:06:00Z,44.13,-123.22,0.0,-0.6,100,3,,0.5,30.339567,,,TRUE,TRUE,,,,,,FG,BKN,2900,OVC,3900,,,,,LIFR,,,,,,,,,,,,SPECI,109.0
KEUG 191154Z AUTO 09003KT 1/4SM R16R/1800V4000FT FG OVC025 00/M01 A3034 RMK AO2 SLP275 T00001006 10072 20000 52010,KEUG,2023-02-19T11:54:00Z,44.13,-123.22,0.0,-0.6,90,3,,0.25,30.339567,1027.5,,TRUE,TRUE,,,,,,FG,OVC,2500,,,,,,,LIFR,1.0,7.2,0.0,,,,,,,,,METAR,109.0
KEUG 191110Z AUTO 00000KT 3/4SM R16R/P6000FT BR SCT037 01/00 A3033 RMK AO2 T00110000,KEUG,2023-02-19T11:10:00Z,44.13,-123.22,1.1,0.0,0,0,,0.75,30.33071,,,TRUE,TRUE,,,,,,BR,SCT,3700,,,,,,,LIFR,,,,,,,,,,,,SPECI,109.0
KEUG 191105Z AUTO 00000KT 1 3/4SM BR FEW037 01/00 A3033 RMK AO2 T00110000,KEUG,2023-02-19T11:05:00Z,44.13,-123.22,1.1,0.0,0,0,,1.75,30.33071,,,TRUE,TRUE,,,,,,BR,FEW,3700,,,,,,,IFR,,,,,,,,,,,,METAR,109.0
KEUG 191054Z AUTO 00000KT 10SM CLR 02/00 A3032 RMK AO2 VIS 2 1/2 RNW 34 SLP271 T00170000,KEUG,2023-02-19T10:54:00Z,44.13,-123.22,1.7,0.0,0,0,,10.0,30.318897,1027.1,,TRUE,TRUE,,,,,,,CLR,,,,,,,,VFR,,,,,,,,,,,,METAR,109.0
KEUG 190954Z AUTO 26004KT 10SM FEW040 02/01 A3032 RMK AO2 SLP269 T00220011,KEUG,2023-02-19T09:54:00Z,44.13,-123.22,2.2,1.1,260,4,,10.0,30.318897,1026.9,,TRUE,TRUE,,,,,,,FEW,4000,,,,,,,VFR,,,,,,,,,,,,METAR,109.0
KEUG 190854Z AUTO 23003KT 10SM OVC038 04/02 A3031 RMK AO2 SLP265 T00390022 51003,KEUG,2023-02-19T08:54:00Z,44.13,-123.22,3.9,2.2,230,3,,10.0,30.31004,1026.5,,TRUE,TRUE,,,,,,,OVC,3800,,,,,,,VFR,0.3,,,,,,,,,,,METAR,109.0
KEUG 190754Z AUTO 31003KT 10SM OVC038 06/03 A3030 RMK AO2 SLP263 T00560033 401221017,KEUG,2023-02-19T07:54:00Z,44.13,-123.22,5.6,3.3,310,3,,10.0,30.301182,1026.3,,TRUE,TRUE,,,,,,,OVC,3800,,,,,,,VFR,,,,12.2,-1.7,,,,,,,METAR,109.0
KEUG 190654Z 00000KT 10SM BKN035 OVC045 07/04 A3031 RMK AO2 SLP265 T00670044,KEUG,2023-02-19T06:54:00Z,44.13,-123.22,6.7,4.4,0,0,,10.0,30.31004,1026.5,,,TRUE,,,,,,,BKN,3500,OVC,4500,,,,,VFR,,,,,,,,,,,,METAR,109.0
KEUG 190554Z 03003KT 10SM OVC033 07/04 A3030 RMK AO2 SLP262 T00720039 10122 20061 53025,KEUG,2023-02-19T05:54:00Z,44.13,-123.22,7.2,3.9,30,3,,10.0,30.301182,1026.2,,,TRUE,,,,,,,OVC,3300,,,,,,,VFR,2.5,12.2,6.1,,,,,,,,,METAR,109.0
KEUG 190454Z 31005KT 10SM BKN029 BKN045 07/04 A3027 RMK AO2 SLP251 T00720039,KEUG,2023-02-19T04:54:00Z,44.13,-123.22,7.2,3.9,310,5,,10.0,30.268702,1025.1,,,TRUE,,,,,,,BKN,2900,BKN,4500,,,,,MVFR,,,,,,,,,,,,METAR,109.0
KEUG 190425Z 33009KT 10SM BKN028 BKN045 08/04 A3026 RMK AO2 T00780044,KEUG,2023-02-19T04:25:00Z,44.13,-123.22,7.8,4.4,330,9,,10.0,30.259842,,,,TRUE,,,,,,,BKN,2800,BKN,4500,,,,,MVFR,,,,,,,,,,,,SPECI,109.0
KEUG 190354Z 00000KT 10SM BKN045 07/04 A3024 RMK AO2 SLP244 T00670039,KEUG,2023-02-19T03:54:00Z,44.13,-123.22,6.7,3.9,0,0,,10.0,30.239174,1024.4,,,TRUE,,,,,,,BKN,4500,,,,,,,VFR,,,,,,,,,,,,METAR,109.0
KEUG 190254Z 27003KT 10SM SCT030 BKN044 08/04 A3022 RMK AO2 SLP238 T00780044 53008,KEUG,2023-02-19T02:54:00Z,44.13,-123.22,7.8,4.4,270,3,,10.0,30.221457,1023.8,,,TRUE,,,,,,,SCT,3000,BKN,4400,,,,,VFR,0.8,,,,,,,,,,,METAR,109.0
KEUG 190154Z 25006KT 10SM BKN030 BKN200 09/03 A3020 RMK AO2 SLP227 T00940033,KEUG,2023-02-19T01:54:00Z,44.13,-123.22,9.4,3.3,250,6,,10.0,30.200787,1022.7,,,TRUE,,,,,,,BKN,3000,BKN,20000,,,,,MVFR,,,,,,,,,,,,METAR,109.0
KEUG 190054Z 00000KT 10SM BKN035 BKN200 11/04 A3021 RMK AO2 SLP231 T01110039,KEUG,2023-02-19T00:54:00Z,44.13,-123.22,11.1,3.9,0,0,,10.0,30.209646,1023.1,,,TRUE,,,,,,,BKN,3500,BKN,20000,,,,,VFR,,,,,,,,,,,,METAR,109.0
KEUG 182354Z 00000KT 10SM BKN040 BKN200 12/03 A3020 RMK AO2 SLP228 T01170028 10117 20044 55006,KEUG,2023-02-18T23:54:00Z,44.13,-123.22,11.7,2.8,0,0,,10.0,30.200787,1022.8,,,TRUE,,,,,,,BKN,4000,BKN,20000,,,,,VFR,-0.6,11.7,4.4,,,,,,,,,METAR,109.0
KEUG 182254Z 18003KT 10SM FEW040 SCT060 BKN200 12/03 A3019 RMK AO2 SLP226 T01170028,KEUG,2023-02-18T22:54:00Z,44.13,-123.22,11.7,2.8,180,3,,10.0,30.188976,1022.6,,,TRUE,,,,,,,FEW,4000,SCT,6000,BKN,20000,,,VFR,,,,,,,,,,,,METAR,109.0
KEUG 182154Z 16005KT 10SM FEW040 SCT060 BKN200 11/03 A3020 RMK AO2 SLP230 T01110033,KEUG,2023-02-18T21:54:00Z,44.13,-123.22,11.1,3.3,160,5,,10.0,30.200787,1023.0,,,TRUE,,,,,,,FEW,4000,SCT,6000,BKN,20000,,,VFR,,,,,,,,,,,,METAR,109.0
KEUG 182054Z 14003KT 10SM FEW035 BKN055 BKN200 09/03 A3022 RMK AO2 SLP236 T00940033 58004,KEUG,2023-02-18T20:54:00Z,44.13,-123.22,9.4,3.3,140,3,,10.0,30.221457,1023.6,,,TRUE,,,,,,,FEW,3500,BKN,5500,BKN,20000,,,VFR,-0.4,,,,,,,,,,,METAR,109.0
KEUG 181954Z 09003KT 10SM FEW025 BKN044 OVC080 08/02 A3023 RMK AO2 SLP238 T00780022,KEUG,2023-02-18T19:54:00Z,44.13,-123.22,7.8,2.2,90,3,,10.0,30.230314,1023.8,,,TRUE,,,,,,,FEW,2500,BKN,4400,OVC,8000,,,VFR,,,,,,,,,,,,METAR,109.0
KEUG 181854Z 00000KT 10SM SCT025 OVC080 06/02 A3024 RMK AO2 SLP241 T00560017,KEUG,2023-02-18T18:54:00Z,44.13,-123.22,5.6,1.7,0,0,,10.0,30.239174,1024.1,,,TRUE,,,,,,,SCT,2500,OVC,8000,,,,,VFR,,,,,,,,,,,,METAR,109.0
KEUG 181754Z 16005KT 10SM SCT025 BKN080 OVC150 04/00 A3023 RMK AO2 SLP240 T00440000 10044 21006 51006,KEUG,2023-02-18T17:54:00Z,44.13,-123.22,4.4,0.0,160,5,,10.0,30.230314,1024.0,,,TRUE,,,,,,,SCT,2500,BKN,8000,OVC,15000,,,VFR,0.6,4.4,-0.6,,,,,,,,,METAR,109.0
KEUG 181654Z 15006KT 10SM FEW008 SCT029 OVC090 02/M01 A3023 RMK AO2 SLP240 T00221006,KEUG,2023-02-18T16:54:00Z,44.13,-123.22,2.2,-0.6,150,6,,10.0,30.230314,1024.0,,,TRUE,,,,,,,FEW,800,SCT,2900,OVC,9000,,,VFR,,,,,,,,,,,,METAR,109.0
KEUG 181622Z 17004KT 10SM FEW008 BKN055 OVC095 01/M01 A3023 RMK AO2 T00111006,KEUG,2023-02-18T16:22:00Z,44.13,-123.22,1.1,-0.6,170,4,,10.0,30.230314,,,,TRUE,,,,,,,FEW,800,BKN,5500,OVC,9500,,,VFR,,,,,,,,,,,,SPECI,109.0
KEUG 181554Z 19004KT 10SM FEW030 BKN060 OVC100 01/M01 A3023 RMK AO2 SLP239 T00061011,KEUG,2023-02-18T15:54:00Z,44.13,-123.22,0.6,-1.1,190,4,,10.0,30.230314,1023.9,,,TRUE,,,,,,,FEW,3000,BKN,6000,OVC,10000,,,VFR,,,,,,,,,,,,METAR,109.0
KEUG 181454Z 21005KT 10SM FEW020 BKN060 BKN150 00/M01 A3021 RMK AO2 SLP234 T00001011 57005,KEUG,2023-02-18T14:54:00Z,44.13,-123.22,0.0,-1.1,210,5,,10.0,30.209646,1023.4,,,TRUE,,,,,,,FEW,2000,BKN,6000,BKN,15000,,,VFR,-0.5,,,,,,,,,,,METAR,109.0
KEUG 181433Z 22004KT 10SM FEW017 BKN060 BKN110 01/M01 A3021 RMK AO2 T00061011,KEUG,2023-02-18T14:33:00Z,44.13,-123.22,0.6,-1.1,220,4,,10.0,30.209646,,,,TRUE,,,,,,,FEW,1700,BKN,6000,BKN,11000,,,VFR,,,,,,,,,,,,SPECI,109.0
KEUG 181354Z 20005KT 10SM BKN017 BKN065 OVC110 01/M01 A3021 RMK AO2 SLP233 T00061011,KEUG,2023-02-18T13:54:00Z,44.13,-123.22,0.6,-1.1,200,5,,10.0,30.209646,1023.3,,,TRUE,,,,,,,BKN,1700,BKN,6500,OVC,11000,,,MVFR,,,,,,,,,,,,METAR,109.0
KEUG 181254Z AUTO 24003KT 10SM BKN017 OVC075 01/M01 A3023 RMK AO2 SLP238 T00061011,KEUG,2023-02-18T12:54:00Z,44.13,-123.22,0.6,-1.1,240,3,,10.0,30.230314,1023.8,,TRUE,TRUE,,,,,,,BKN,1700,OVC,7500,,,,,MVFR,,,,,,,,,,,,METAR,109.0
KEUG 181154Z AUTO 20005KT 10SM SCT080 BKN120 M01/M02 A3022 RMK AO2 CIG 080 RNW 34 SLP234 T10061022 10022 21017 58006,KEUG,2023-02-18T11:54:00Z,44.13,-123.22,-0.6,-2.2,200,5,,10.0,30.221457,1023.4,,TRUE,TRUE,,,,,,,SCT,8000,BKN,12000,,,,,VFR,-0.6,2.2,-1.7,,,,,,,,,METAR,109.0
KEUG 181054Z AUTO 00000KT 10SM CLR M01/M03 A3023 RMK AO2 SLP239 T10111028,KEUG,2023-02-18T10:54:00Z,44.13,-123.22,-1.1,-2.8,0,0,,10.0,30.230314,1023.9,,TRUE,TRUE,,,,,,,CLR,,,,,,,,VFR,,,,,,,,,,,,METAR,109.0
KEUG 180954Z AUTO 19004KT 10SM SCT120 M01/M02 A3023 RMK AO2 SLP237 T10061017,KEUG,2023-02-18T09:54:00Z,44.13,-123.22,-0.6,-1.7,190,4,,10.0,30.230314,1023.7,,TRUE,TRUE,,,,,,,SCT,12000,,,,,,,VFR,,,,,,,,,,,,METAR,109.0
KEUG 180854Z AUTO 23004KT 10SM CLR M01/M03 A3023 RMK AO2 SLP240 T10061028 58004,KEUG,2023-02-18T08:54:00Z,44.13,-123.22,-0.6,-2.8,230,4,,10.0,30.230314,1024.0,,TRUE,TRUE,,,,,,,CLR,,,,,,,,VFR,-0.4,,,,,,,,,,,METAR,109.0
KEUG 180754Z AUTO 18003KT 10SM CLR 01/M02 A3024 RMK AO2 SLP243 T00061017 401391039,KEUG,2023-02-18T07:54:00Z,44.13,-123.22,0.6,-1.7,180,3,,10.0,30.239174,1024.3,,TRUE,TRUE,,,,,,,CLR,,,,,,,,VFR,,,,13.9,-3.9,,,,,,,METAR,109.0
KEUG 180654Z 19003KT 10SM CLR 02/M01 A3024 RMK AO2 SLP243 T00221011,KEUG,2023-02-18T06:54:00Z,44.13,-123.22,2.2,-1.1,190,3,,10.0,30.239174,1024.3,,,TRUE,,,,,,,CLR,,,,,,,,VFR,,,,,,,,,,,,METAR,109.0
KEUG 180554Z 19004KT 10SM CLR 02/M01 A3025 RMK AO2 SLP245 T00221006 10128 20011 53008,KEUG,2023-02-18T05:54:00Z,44.13,-123.22,2.2,-0.6,190,4,,10.0,30.250984,1024.5,,,TRUE,,,,,,,CLR,,,,,,,,VFR,0.8,12.8,1.1,,,,,,,,,METAR,109.0
KEUG 180454Z 00000KT 10SM CLR 03/01 A3024 RMK AO2 SLP241 T00330006,KEUG,2023-02-18T04:54:00Z,44.13,-123.22,3.3,0.6,0,0,,10.0,30.239174,1024.1,,,TRUE,,,,,,,CLR,,,,,,,,VFR,,,,,,,,,,,,METAR,109.0
KEUG 180354Z 00000KT 10SM FEW250 04/01 A3023 RMK AO2 SLP240 T00390006,KEUG,2023-02-18T03:54:00Z,44.13,-123.22,3.9,0.6,0,0,,10.0,30.230314,1024.0,,,TRUE,,,,,,,FEW,25000,,,,,,,VFR,,,,,,,,,,,,METAR,109.0
KEUG 180254Z 33006KT 10SM CLR 04/01 A3022 RMK AO2 SLP238 T00440006 55007,KEUG,2023-02-18T02:54:00Z,44.13,-123.22,4.4,0.6,330,6,,10.0,30.221457,1023.8,,,TRUE,,,,,,,CLR,,,,,,,,VFR,-0.7,,,,,,,,,,,METAR,109.0
KEUG 180154Z 33005KT 10SM FEW100 FEW250 08/01 A3022 RMK AO2 SLP235 T00780011,KEUG,2023-02-18T01:54:00Z,44.13,-123.22,7.8,1.1,330,5,,10.0,30.221457,1023.5,,,TRUE,,,,,,,FEW,10000,FEW,25000,,,,,VFR,,,,,,,,,,,,METAR,109.0
KEUG 180054Z 05004KT 10SM FEW100 SCT250 11/02 A3022 RMK AO2 SLP235 T01110017,KEUG,2023-02-18T00:54:00Z,44.13,-123.22,11.1,1.7,50,4,,10.0,30.221457,1023.5,,,TRUE,,,,,,,FEW,10000,SCT,25000,,,,,VFR,,,,,,,,,,,,METAR,109.0
KEUG 172354Z 04008KT 10SM FEW100 BKN250 13/01 A3025 RMK AO2 SLP244 T01280011 10139 20044 55009,KEUG,2023-02-17T23:54:00Z,44.13,-123.22,12.8,1.1,40,8,,10.0,30.250984,1024.4,,,TRUE,,,,,,,FEW,10000,BKN,25000,,,,,VFR,-0.9,13.9,4.4,,,,,,,,,METAR,109.0
KEUG 172254Z 04003KT 10SM FEW100 SCT250 13/00 A3023 RMK AO2 SLP239 T01280000,KEUG,2023-02-17T22:54:00Z,44.13,-123.22,12.8,0.0,40,3,,10.0,30.230314,1023.9,,,TRUE,,,,,,,FEW,10000,SCT,25000,,,,,VFR,,,,,,,,,,,,METAR,109.0
KEUG 172154Z 00000KT 10SM FEW100 SCT250 12/01 A3025 RMK AO2 SLP244 T01170006,KEUG,2023-02-17T21:54:00Z,44.13,-123.22,11.7,0.6,0,0,,10.0,30.250984,1024.4,,,TRUE,,,,,,,FEW,10000,SCT,25000,,,,,VFR,,,,,,,,,,,,METAR,109.0
KEUG 172054Z 05003KT 10SM FEW100 BKN250 11/01 A3027 RMK AO2 SLP254 T01060006 58016,KEUG,2023-02-17T20:54:00Z,44.13,-123.22,10.6,0.6,50,3,,10.0,30.268702,1025.4,,,TRUE,,,,,,,FEW,10000,BKN,25000,,,,,VFR,-1.6,,,,,,,,,,,METAR,109.0
KEUG 171954Z 00000KT 10SM FEW100 SCT250 09/01 A3030 RMK AO2 SLP263 T00890011,KEUG,2023-02-17T19:54:00Z,44.13,-123.22,8.9,1.1,0,0,,10.0,30.301182,1026.3,,,TRUE,,,,,,,FEW,10000,SCT,25000,,,,,VFR,,,,,,,,,,,,METAR,109.0
KEUG 171854Z 16005KT 10SM FEW100 SCT250 07/01 A3031 RMK AO2 SLP268 T00670006,KEUG,2023-02-17T18:54:00Z,44.13,-123.22,6.7,0.6,160,5,,10.0,30.31004,1026.8,,,TRUE,,,,,,,FEW,10000,SCT,25000,,,,,VFR,,,,,,,,,,,,METAR,109.0
KEUG 171754Z 00000KT 10SM FEW100 SCT250 04/01 A3032 RMK AO2 SLP271 I6000 T00440006 10044 21039 51013,KEUG,2023-02-17T17:54:00Z,44.13,-123.22,4.4,0.6,0,0,,10.0,30.318897,1027.1,,,TRUE,,,,,,,FEW,10000,SCT,25000,,,,,VFR,1.3,4.4,-3.9,,,,,,,,,METAR,109.0
KEUG 171654Z 22005KT 10SM FEW100 SCT250 02/00 A3032 RMK AO2 SLP269 T00170000,KEUG,2023-02-17T16:54:00Z,44.13,-123.22,1.7,0.0,220,5,,10.0,30.318897,1026.9,,,TRUE,,,,,,,FEW,10000,SCT,25000,,,,,VFR,,,,,,,,,,,,METAR,109.0
KEUG 171554Z 21004KT 10SM FEW100 SCT250 M02/M03 A3030 RMK AO2 SLP264 T10221028,KEUG,2023-02-17T15:54:00Z,44.13,-123.22,-2.2,-2.8,210,4,,10.0,30.301182,1026.4,,,TRUE,,,,,,,FEW,10000,SCT,25000,,,,,VFR,,,,,,,,,,,,METAR,109.0
KEUG 171454Z 25004KT 10SM FEW100 M03/M04 A3028 RMK AO2 SLP259 I1000 I3000 T10281039 53002,KEUG,2023-02-17T14:54:00Z,44.13,-123.22,-2.8,-3.9,250,4,,10.0,30.280512,1025.9,,,TRUE,,,,,,,FEW,10000,,,,,,,VFR,0.2,,,,,,,,,,,METAR,109.0
KEUG 171354Z 19008KT 10SM CLR M02/M03 A3028 RMK AO2 SLP257 I1000 T10221028,KEUG,2023-02-17T13:54:00Z,44.13,-123.22,-2.2,-2.8,190,8,,10.0,30.280512,1025.7,,,TRUE,,,,,,,CLR,,,,,,,,VFR,,,,,,,,,,,,METAR,109.0
KEUG 171336Z AUTO 19009KT 3SM BR SCT001 M02/M03 A3027 RMK AO2 I1000 T10171028,KEUG,2023-02-17T13:36:00Z,44.13,-123.22,-1.7,-2.8,190,9,,3.0,30.268702,,,TRUE,TRUE,,,,,,BR,SCT,100,,,,,,,MVFR,,,,,,,,,,,,METAR,109.0
KEUG 171333Z AUTO 19007KT 1 1/2SM BR SCT001 M02/M03 A3027 RMK AO2 I1000 T10221033,KEUG,2023-02-17T13:33:00Z,44.13,-123.22,-2.2,-3.3,190,7,,1.5,30.268702,,,TRUE,TRUE,,,,,,BR,SCT,100,,,,,,,IFR,,,,,,,,,,,,SPECI,109.0
KEUG 171311Z AUTO 25003KT 3/4SM R16R/1800VP6000FT BR VV001 M03/M04 A3027 RMK AO2 T10281039,KEUG,2023-02-17T13:11:00Z,44.13,-123.22,-2.8,-3.9,250,3,,0.75,30.268702,,,TRUE,TRUE,,,,,,BR,OVX,0,,,,,,,LIFR,,,,,,,,,,,100,SPECI,109.0
KEUG 171309Z AUTO 29003KT 1 3/4SM R16R/2000VP6000FT BR FEW001 M03/M04 A3027 RMK AO2 T10281039,KEUG,2023-02-17T13:09:00Z,44.13,-123.22,-2.8,-3.9,290,3,,1.75,30.268702,,,TRUE,TRUE,,,,,,BR,FEW,100,,,,,,,IFR,,,,,,,,,,,,SPECI,109.0
KEUG 171254Z AUTO 28004KT 9SM CLR M03/M04 A3027 RMK AO2 SLP253 I1000 T10281039,KEUG,2023-02-17T12:54:00Z,44.13,-123.22,-2.8,-3.9,280,4,,9.0,30.268702,1025.3,,TRUE,TRUE,,,,,,,CLR,,,,,,,,VFR,,,,,,,,,,,,METAR,109.0
KEUG 171219Z AUTO 20006KT 6SM BR FEW001 M03/M04 A3027 RMK AO2 VIS 1/2 RNW 34 T10281039,KEUG,2023-02-17T12:19:00Z,44.13,-123.22,-2.8,-3.9,200,6,,6.0,30.268702,,,TRUE,TRUE,,,,,,BR,FEW,100,,,,,,,VFR,,,,,,,,,,,,METAR,109.0
KEUG 171154Z AUTO 24003KT 7SM CLR M03/M04 A3028 RMK AO2 SLP256 I1000 I6000 T10281039 10028 21033 50005,KEUG,2023-02-17T11:54:00Z,44.13,-123.22,-2.8,-3.9,240,3,,7.0,30.280512,1025.6,,TRUE,TRUE,,,,,,,CLR,,,,,,,,VFR,0.5,2.8,-3.3,,,,,,,,,METAR,109.0
KEUG 171054Z AUTO 22006KT 8SM FEW001 M03/M04 A3028 RMK AO2 SLP258 I1000 T10281039,KEUG,2023-02-17T10:54:00Z,44.13,-123.22,-2.8,-3.9,220,6,,8.0,30.280512,1025.8,,TRUE,TRUE,,,,,,,FEW,100,,,,,,,VFR,,,,,,,,,,,,METAR,109.0
KEUG 171047Z AUTO 23007KT 3SM R16R/4500VP6000FT BR FEW001 M03/M04 A3028 RMK AO2 I1000 T10281039,KEUG,2023-02-17T10:47:00Z,44.13,-123.22,-2.8,-3.9,230,7,,3.0,30.280512,,,TRUE,TRUE,,,,,,BR,FEW,100,,,,,,,MVFR,,,,,,,,,,,,SPECI,109.0
KEUG 171041Z AUTO 21007KT 1 1/2SM R16R/4500VP6000FT BR FEW001 M02/M03 A3028 RMK AO2 I1000 T10221033,KEUG,2023-02-17T10:41:00Z,44.13,-123.22,-2.2,-3.3,210,7,,1.5,30.280512,,,TRUE,TRUE,,,,,,BR,FEW,100,,,,,,,IFR,,,,,,,,,,,,SPECI,109.0
KEUG 171033Z AUTO 21006KT 1 3/4SM R16R/5500VP6000FT BR CLR M03/M04 A3028 RMK AO2 VIS 1 RNW 34 I1000 T10281039,KEUG,2023-02-17T10:33:00Z,44.13,-123.22,-2.8,-3.9,210,6,,1.75,30.280512,,,TRUE,TRUE,,,,,,BR,CLR,,,,,,,,IFR,,,,,,,,,,,,METAR,109.0
KEUG 170954Z AUTO 21007KT 9SM CLR M02/M03 A3027 RMK AO2 VIS 2 RNW 34 SLP254 I1000 T10171028,KEUG,2023-02-17T09:54:00Z,44.13,-123.22,-1.7,-2.8,210,7,,9.0,30.268702,1025.4,,TRUE,TRUE,,,,,,,CLR,,,,,,,,VFR,,,,,,,,,,,,SPECI,109.0
KEUG 170854Z AUTO 18006KT 10SM CLR M02/M03 A3027 RMK AO2 SLP252 T10171028 51010,KEUG,2023-02-17T08:54:00Z,44.13,-123.22,-1.7,-2.8,180,6,,10.0,30.268702,1025.2,,TRUE,TRUE,,,,,,,CLR,,,,,,,,VFR,1.0,,,,,,,,,,,METAR,109.0
KEUG 170754Z AUTO 16004KT 10SM CLR 01/M01 A3026 RMK AO2 SLP250 T00111006 400941028,KEUG,2023-02-17T07:54:00Z,44.13,-123.22,1.1,-0.6,160,4,,10.0,30.259842,1025.0,,TRUE,TRUE,,,,,,,CLR,,,,,,,,VFR,,,,9.4,-2.8,,,,,,,METAR,109.0
KEUG 170654Z 15004KT 10SM FEW200 00/M01 A3025 RMK AO2 SLP245 T00001011,KEUG,2023-02-17T06:54:00Z,44.13,-123.22,0.0,-1.1,150,4,,10.0,30.250984,1024.5,,,TRUE,,,,,,,FEW,20000,,,,,,,VFR,,,,,,,,,,,,METAR,109.0
KEUG 170554Z 23004KT 10SM OVC110 01/M01 A3023 RMK AO2 SLP242 T00061011 10094 20000 53010,KEUG,2023-02-17T05:54:00Z,44.13,-123.22,0.6,-1.1,230,4,,10.0,30.230314,1024.2,,,TRUE,,,,,,,OVC,11000,,,,,,,VFR,1.0,9.4,0.0,,,,,,,,,SPECI,109.0
KEUG 170454Z 26003KT 10SM OVC110 03/01 A3021 RMK AO2 SLP233 T00280006,KEUG,2023-02-17T04:54:00Z,44.13,-123.22,2.8,0.6,260,3,,10.0,30.209646,1023.3,,,TRUE,,,,,,,OVC,11000,,,,,,,VFR,,,,,,,,,,,,METAR,109.0
KEUG 170354Z 00000KT 10SM BKN110 02/00 A3020 RMK AO2 SLP232 T00220000,KEUG,2023-02-17T03:54:00Z,44.13,-123.22,2.2,0.0,0,0,,10.0,30.200787,1023.2,,,TRUE,,,,,,,BKN,11000,,,,,,,VFR,,,,,,,,,,,,METAR,109.0
KEUG 170254Z 03005KT 10SM BKN200 04/01 A3020 RMK AO2 SLP232 T00390011 53009,KEUG,2023-02-17T02:54:00Z,44.13,-123.22,3.9,1.1,30,5,,10.0,30.200787,1023.2,,,TRUE,,,,,,,BKN,20000,,,,,,,VFR,0.9,,,,,,,,,,,METAR,109.0
KEUG 170154Z 36004KT 10SM FEW060 BKN120 04/02 A3019 RMK AO2 SLP227 T00390022,KEUG,2023-02-17T01:54:00Z,44.13,-123.22,3.9,2.2,360,4,,10.0,30.188976,1022.7,,,TRUE,,,,,,,FEW,6000,BKN,12000,,,,,VFR,,,,,,,,,,,,METAR,109.0
KEUG 170054Z 34005KT 10SM FEW060 BKN120 08/03 A3018 RMK AO2 SLP223 T00780033,KEUG,2023-02-17T00:54:00Z,44.13,-123.22,7.8,3.3,340,5,,10.0,30.180119,1022.3,,,TRUE,,,,,,,FEW,6000,BKN,12000,,,,,VFR,,,,,,,,,,,,METAR,109.0
KEUG 162354Z 03003KT 10SM OVC120 09/02 A3018 RMK AO2 SLP221 T00890022 10089 20017 56006,KEUG,2023-02-16T23:54:00Z,44.13,-123.22,8.9,2.2,30,3,,10.0,30.180119,1022.1,,,TRUE,,,,,,,OVC,12000,,,,,,,VFR,-0.6,8.9,1.7,,,,,,,,,METAR,109.0
KEUG 162254Z 00000KT 10SM OVC120 09/02 A3018 RMK AO2 SLP222 T00890017,KEUG,2023-02-16T22:54:00Z,44.13,-123.22,8.9,1.7,0,0,,10.0,30.180119,1022.2,,,TRUE,,,,,,,OVC,12000,,,,,,,VFR,,,,,,,,,,,,METAR,109.0
KEUG 162154Z 00000KT 10SM OVC120 08/02 A3018 RMK AO2 SLP223 T00780017,KEUG,2023-02-16T21:54:00Z,44.13,-123.22,7.8,1.7,0,0,,10.0,30.180119,1022.3,,,TRUE,,,,,,,OVC,12000,,,,,,,VFR,,,,,,,,,,,,METAR,109.0
KEUG 162054Z 22003KT 10SM OVC130 07/02 A3019 RMK AO2 SLP227 T00720017 58008,KEUG,2023-02-16T20:54:00Z,44.13,-123.22,7.2,1.7,220,3,,10.0,30.188976,1022.7,,,TRUE,,,,,,,OVC,13000,,,,,,,VFR,-0.8,,,,,,,,,,,METAR,109.0
KEUG 161954Z 21003KT 10SM BKN130 OVC250 06/02 A3021 RMK AO2 SLP232 T00560017,KEUG,2023-02-16T19:54:00Z,44.13,-123.22,5.6,1.7,210,3,,10.0,30.209646,1023.2,,,TRUE,,,,,,,BKN,13000,OVC,25000,,,,,VFR,,,,,,,,,,,,METAR,109.0
KEUG 161854Z 23005KT 10SM BKN140 OVC250 04/01 A3022 RMK AO2 SLP237 T00390011,KEUG,2023-02-16T18:54:00Z,44.13,-123.22,3.9,1.1,230,5,,10.0,30.221457,1023.7,,,TRUE,,,,,,,BKN,14000,OVC,25000,,,,,VFR,,,,,,,,,,,,METAR,109.0
KEUG 161754Z 23005KT 10SM BKN150 OVC220 02/00 A3022 RMK AO2 SLP237 I6000 T00170000 10017 21028 51007,KEUG,2023-02-16T17:54:00Z,44.13,-123.22,1.7,0.0,230,5,,10.0,30.221457,1023.7,,,TRUE,,,,,,,BKN,15000,OVC,22000,,,,,VFR,0.7,1.7,-2.8,,,,,,,,,METAR,109.0
KEUG 161654Z 19003KT 10SM SCT160 BKN210 00/M01 A3022 RMK AO2 SLP236 I1000 T00001006,KEUG,2023-02-16T16:54:00Z,44.13,-123.22,0.0,-0.6,190,3,,10.0,30.221457,1023.6,,,TRUE,,,,,,,SCT,16000,BKN,21000,,,,,VFR,,,,,,,,,,,,METAR,109.0
KEUG 161554Z 21004KT 10SM FEW150 BKN200 M02/M03 A3021 RMK AO2 SLP234 T10171028,KEUG,2023-02-16T15:54:00Z,44.13,-123.22,-1.7,-2.8,210,4,,10.0,30.209646,1023.4,,,TRUE,,,,,,,FEW,15000,BKN,20000,,,,,VFR,,,,,,,,,,,,METAR,109.0
KEUG 161454Z 22004KT 10SM MIFG SCT200 M02/M04 A3020 RMK AO2 SLP230 I1000 I3000 T10221039 58003,KEUG,2023-02-16T14:54:00Z,44.13,-123.22,-2.2,-3.9,220,4,,10.0,30.200787,1023.0,,,TRUE,,,,,,MIFG,SCT,20000,,,,,,,VFR,-0.3,,,,,,,,,,,METAR,109.0
KEUG 161354Z 00000KT 8SM CLR M02/M03 A3020 RMK AO2 SLP231 T10171028,KEUG,2023-02-16T13:54:00Z,44.13,-123.22,-1.7,-2.8,0,0,,8.0,30.200787,1023.1,,,TRUE,,,,,,,CLR,,,,,,,,VFR,,,,,,,,,,,,METAR,109.0
KEUG 161254Z AUTO 17004KT 8SM CLR M02/M03 A3021 RMK AO2 SLP232 T10221033,KEUG,2023-02-16T12:54:00Z,44.13,-123.22,-2.2,-3.3,170,4,,8.0,30.209646,1023.2,,TRUE,TRUE,,,,,,,CLR,,,,,,,,VFR,,,,,,,,,,,,METAR,109.0
KEUG 161154Z AUTO 20004KT 6SM BR CLR M02/M03 A3021 RMK AO2 SLP232 I1000 I6000 T10221028 11006 21028 56015,KEUG,2023-02-16T11:54:00Z,44.13,-123.22,-2.2,-2.8,200,4,,6.0,30.209646,1023.2,,TRUE,TRUE,,,,,,BR,CLR,,,,,,,,VFR,-1.5,-0.6,-2.8,,,,,,,,,METAR,109.0
KEUG 161054Z AUTO 23005KT 7SM CLR M03/M04 A3022 RMK AO2 SLP237 I1000 T10281039,KEUG,2023-02-16T10:54:00Z,44.13,-123.22,-2.8,-3.9,230,5,,7.0,30.221457,1023.7,,TRUE,TRUE,,,,,,,CLR,,,,,,,,VFR,,,,,,,,,,,,METAR,109.0
KEUG 160954Z AUTO 00000KT 6SM BR CLR M02/M03 A3024 RMK AO2 SLP242 I1000 T10171028,KEUG,2023-02-16T09:54:00Z,44.13,-123.22,-1.7,-2.8,0,0,,6.0,30.239174,1024.2,,TRUE,TRUE,,,,,,BR,CLR,,,,,,,,VFR,,,,,,,,,,,,METAR,109.0
KEUG 160854Z AUTO 24003KT 5SM BR CLR M02/M03 A3025 RMK AO2 SLP247 I3000 T10171033 57011,KEUG,2023-02-16T08:54:00Z,44.13,-123.22,-1.7,-3.3,240,3,,5.0,30.250984,1024.7,,TRUE,TRUE,,,,,,BR,CLR,,,,,,,,MVFR,-1.1,,,,,,,,,,,METAR,109.0
KEUG 160754Z AUTO 19005KT 5SM BR CLR M01/M02 A3026 RMK AO2 VIS 3/4 RNW 34 SLP252 I1000 T10111022 400781050,KEUG,2023-02-16T07:54:00Z,44.13,-123.22,-1.1,-2.2,190,5,,5.0,30.259842,1025.2,,TRUE,TRUE,,,,,,BR,CLR,,,,,,,,MVFR,,,,7.8,-5.0,,,,,,,METAR,109.0
KEUG 160654Z 17004KT 5SM BR CLR M02/M02 A3027 RMK AO2 SLP256 T10171022,KEUG,2023-02-16T06:54:00Z,44.13,-123.22,-1.7,-2.2,170,4,,5.0,30.268702,1025.6,,,TRUE,,,,,,BR,CLR,,,,,,,,MVFR,,,,,,,,,,,,METAR,109.0
KEUG 160554Z 00000KT 6SM BR CLR M01/M02 A3029 RMK AO2 SLP259 T10061022 10072 21017 58005,KEUG,2023-02-16T05:54:00Z,44.13,-123.22,-0.6,-2.2,0,0,,6.0,30.28937,1025.9,,,TRUE,,,,,,BR,CLR,,,,,,,,VFR,-0.5,7.2,-1.7,,,,,,,,,METAR,109.0
KEUG 160454Z 16003KT 7SM CLR M01/M02 A3029 RMK AO2 SLP262 T10061022,KEUG,2023-02-16T04:54:00Z,44.13,-123.22,-0.6,-2.2,160,3,,7.0,30.28937,1026.2,,,TRUE,,,,,,,CLR,,,,,,,,VFR,,,,,,,,,,,,METAR,109.0
KEUG 160354Z 00000KT 9SM CLR 01/M01 A3030 RMK AO2 SLP264 T00111011,KEUG,2023-02-16T03:54:00Z,44.13,-123.22,1.1,-1.1,0,0,,9.0,30.301182,1026.4,,,TRUE,,,,,,,CLR,,,,,,,,VFR,,,,,,,,,,,,METAR,109.0
KEUG 160254Z 35005KT 9SM FEW250 02/M01 A3030 RMK AO2 SLP265 T00171006 55008,KEUG,2023-02-16T02:54:00Z,44.13,-123.22,1.7,-0.6,350,5,,9.0,30.301182,1026.5,,,TRUE,,,,,,,FEW,25000,,,,,,,VFR,-0.8,,,,,,,,,,,METAR,109.0
KEUG 160154Z 04005KT 9SM FEW250 02/00 A3030 RMK AO2 SLP264 T00220000,KEUG,2023-02-16T01:54:00Z,44.13,-123.22,2.2,0.0,40,5,,9.0,30.301182,1026.4,,,TRUE,,,,,,,FEW,25000,,,,,,,VFR,,,,,,,,,,,,SPECI,109.0
KEUG 160054Z 01005KT 10SM SCT250 06/01 A3031 RMK AO2 SLP268 T00610011,KEUG,2023-02-16T00:54:00Z,44.13,-123.22,6.1,1.1,10,5,,10.0,30.31004,1026.8,,,TRUE,,,,,,,SCT,25000,,,,,,,VFR,,,,,,,,,,,,METAR,109.0
KEUG 152354Z 04005KT 10SM SCT250 07/02 A3033 RMK AO2 SLP272 T00720017 10078 20000 56017,KEUG,2023-02-15T23:54:00Z,44.13,-123.22,7.2,1.7,40,5,,10.0,30.33071,1027.2,,,TRUE,,,,,,,SCT,25000,,,,,,,VFR,-1.7,7.8,0.0,,,,,,,,,METAR,109.0
KEUG 152254Z 04004KT 10SM SCT250 07/01 A3034 RMK AO2 SLP278 T00720011,KEUG,2023-02-15T22:54:00Z,44.13,-123.22,7.2,1.1,40,4,,10.0,30.339567,1027.8,,,TRUE,,,,,,,SCT,25000,,,,,,,VFR,,,,,,,,,,,,METAR,109.0
KEUG 152154Z VRB03KT 10SM FEW014 SCT250 07/01 A3035 RMK AO2 SLP281 T00670011,KEUG,2023-02-15T21:54:00Z,44.13,-123.22,6.7,1.1,0,3,,10.0,30.351377,1028.1,,,TRUE,,,,,,,FEW,1400,SCT,25000,,,,,VFR,,,,,,,,,,,,METAR,109.0
KEUG 152054Z 02005KT 10SM FEW012 BKN250 06/01 A3038 RMK AO2 SLP290 T00610011 58011,KEUG,2023-02-15T20:54:00Z,44.13,-123.22,6.1,1.1,20,5,,10.0,30.380905,1029.0,,,TRUE,,,,,,,FEW,1200,BKN,25000,,,,,VFR,-1.1,,,,,,,,,,,METAR,109.0
KEUG 151954Z 00000KT 10SM SCT008 BKN250 03/M01 A3040 RMK AO2 SLP300 T00281006,KEUG,2023-02-15T19:54:00Z,44.13,-123.22,2.8,-0.6,0,0,,10.0,30.398623,1030.0,,,TRUE,,,,,,,SCT,800,BKN,25000,,,,,VFR,,,,,,,,,,,,METAR,109.0
KEUG 151854Z 00000KT 8SM BKN008 01/M01 A3042 RMK AO2 SLP305 T00111006,KEUG,2023-02-15T18:54:00Z,44.13,-123.22,1.1,-0.6,0,0,,8.0,30.41929,1030.5,,,TRUE,,,,,,,BKN,800,,,,,,,IFR,,,,,,,,,,,,METAR,109.0
KEUG 151836Z 00000KT 8SM BKN006 01/M01 A3042 RMK AO2 T00061006,KEUG,2023-02-15T18:36:00Z,44.13,-123.22,0.6,-0.6,0,0,,8.0,30.41929,,,,TRUE,,,,,,,BKN,600,,,,,,,IFR,,,,,,,,,,,,METAR,109.0
KEUG 151754Z VRB04KT 6SM BR BKN004 00/M01 A3041 RMK AO2 SLP302 I1000 I6000 T00001011 10000 21050 53004,KEUG,2023-02-15T17:54:00Z,44.13,-123.22,0.0,-1.1,0,4,,6.0,30.410433,1030.2,,,TRUE,,,,,,BR,BKN,400,,,,,,,LIFR,0.4,0.0,-5.0,,,,,,,,,METAR,109.0
KEUG 151717Z 24005KT 3SM BR BKN003 M01/M02 A3041 RMK AO2 I1000 T10111017,KEUG,2023-02-15T17:17:00Z,44.13,-123.22,-1.1,-1.7,240,5,,3.0,30.410433,,,,TRUE,,,,,,BR,BKN,300,,,,,,,LIFR,,,,,,,,,,,,SPECI,109.0
KEUG 151654Z 23006KT 2 1/2SM BR VV002 M01/M02 A3041 RMK AO2 SLP302 T10111017,KEUG,2023-02-15T16:54:00Z,44.13,-123.22,-1.1,-1.7,230,6,,2.5,30.410433,1030.2,,,TRUE,,,,,,BR,OVX,0,,,,,,,LIFR,,,,,,,,,,,200,METAR,109.0
KEUG 151639Z 21006KT 1 1/2SM BR VV002 M01/M02 A3040 RMK AO2 T10111017,KEUG,2023-02-15T16:39:00Z,44.13,-123.22,-1.1,-1.7,210,6,,1.5,30.398623,,,,TRUE,,,,,,BR,OVX,0,,,,,,,LIFR,,,,,,,,,,,200,SPECI,109.0
KEUG 151554Z 20005KT 1/2SM R16R/4000VP6000FT FZFG VV002 M01/M02 A3039 RMK AO2 SLP297 T10111022,KEUG,2023-02-15T15:54:00Z,44.13,-123.22,-1.1,-2.2,200,5,,0.5,30.389763,1029.7,,,TRUE,,,,,,FZFG,OVX,0,,,,,,,LIFR,,,,,,,,,,,200,METAR,109.0
KEUG 151520Z 16003KT 1/2SM R16R/4000V6000FT FZFG VV002 M02/M03 A3040 RMK AO2 T10171028,KEUG,2023-02-15T15:20:00Z,44.13,-123.22,-1.7,-2.8,160,3,,0.5,30.398623,,,,TRUE,,,,,,FZFG,OVX,0,,,,,,,LIFR,,,,,,,,,,,200,SPECI,109.0
KEUG 151454Z 00000KT 1SM R16R/P6000FT BR BKN002 M02/M03 A3040 RMK AO2 SLP298 I3000 T10221033 50006,KEUG,2023-02-15T14:54:00Z,44.13,-123.22,-2.2,-3.3,0,0,,1.0,30.398623,1029.8,,,TRUE,,,,,,BR,BKN,200,,,,,,,LIFR,0.6,,,,,,,,,,,METAR,109.0
KEUG 151440Z 00000KT 1SM R16R/P6000FT BR BKN002 M02/M03 A3040 RMK AO2 TWR VIS 1 1/2 T10221028,KEUG,2023-02-15T14:40:00Z,44.13,-123.22,-2.2,-2.8,0,0,,1.0,30.398623,,,,TRUE,,,,,,BR,BKN,200,,,,,,,LIFR,,,,,,,,,,,,METAR,109.0
KEUG 151416Z 12004KT 1 1/2SM R16R/3000VP6000FT BR VV002 M01/M02 A3040 RMK AO2 T10111022,KEUG,2023-02-15T14:16:00Z,44.13,-123.22,-1.1,-2.2,120,4,,1.5,30.398623,,,,TRUE,,,,,,BR,OVX,0,,,,,,,LIFR,,,,,,,,,,,200,SPECI,109.0
KEUG 151354Z 12006KT 1/4SM R16R/2000V2400FT FZFG VV002 M02/M02 A3041 RMK AO2 SLP300 I1000 T10171022,KEUG,2023-02-15T13:54:00Z,44.13,-123.22,-1.7,-2.2,120,6,,0.25,30.410433,1030.0,,,TRUE,,,,,,FZFG,OVX,0,,,,,,,LIFR,,,,,,,,,,,200,METAR,109.0
KEUG 151346Z 13004KT 1/4SM R16R/1800V2200FT FZFG VV002 M02/M02 A3041 RMK AO2 I1000 T10171022,KEUG,2023-02-15T13:46:00Z,44.13,-123.22,-1.7,-2.2,130,4,,0.25,30.410433,,,,TRUE,,,,,,FZFG,OVX,0,,,,,,,LIFR,,,,,,,,,,,200,METAR,109.0
KEUG 151344Z AUTO 14003KT 1/2SM R16R/1800V2200FT FZFG VV002 M02/M02 A3041 RMK AO2 I1000 T10171022,KEUG,2023-02-15T13:44:00Z,44.13,-123.22,-1.7,-2.2,140,3,,0.5,30.410433,,,TRUE,TRUE,,,,,,FZFG,OVX,0,,,,,,,LIFR,,,,,,,,,,,200,SPECI,109.0
KEUG 151331Z AUTO 12004KT 3/4SM R16R/2200VP6000FT BR VV002 M02/M03 A3040 RMK AO2 T10171028,KEUG,2023-02-15T13:31:00Z,44.13,-123.22,-1.7,-2.8,120,4,,0.75,30.398623,,,TRUE,TRUE,,,,,,BR,OVX,0,,,,,,,LIFR,,,,,,,,,,,200,SPECI,109.0
KEUG 151327Z AUTO 11004KT 1 1/2SM R16R/2600VP6000FT BR OVC003 M02/M03 A3040 RMK AO2 T10221028,KEUG,2023-02-15T13:27:00Z,44.13,-123.22,-2.2,-2.8,110,4,,1.5,30.398623,,,TRUE,TRUE,,,,,,BR,OVC,300,,,,,,,LIFR,,,,,,,,,,,,SPECI,109.0
KEUG 151319Z AUTO 08003KT 3SM R16R/2600VP6000FT BR OVC003 M03/M04 A3040 RMK AO2 T10281039,KEUG,2023-02-15T13:19:00Z,44.13,-123.22,-2.8,-3.9,80,3,,3.0,30.398623,,,TRUE,TRUE,,,,,,BR,OVC,300,,,,,,,LIFR,,,,,,,,,,,,METAR,109.0
KEUG 151317Z AUTO 00000KT 1 3/4SM R16R/2600VP6000FT BR OVC003 M03/M04 A3040 RMK AO2 T10281039,KEUG,2023-02-15T13:17:00Z,44.13,-123.22,-2.8,-3.9,0,0,,1.75,30.398623,,,TRUE,TRUE,,,,,,BR,OVC,300,,,,,,,LIFR,,,,,,,,,,,,SPECI,109.0
KEUG 151312Z AUTO 00000KT 1/2SM R16R/1600V3500FT FZFG VV004 M03/M04 A3040 RMK AO2 T10281044,KEUG,2023-02-15T13:12:00Z,44.13,-123.22,-2.8,-4.4,0,0,,0.5,30.398623,,,TRUE,TRUE,,,,,,FZFG,OVX,0,,,,,,,LIFR,,,,,,,,,,,400,METAR,109.0
