No errors
No warnings
25 ms
data source=metars
550 results
raw_text,station_id,observation_time,latitude,longitude,temp_c,dewpoint_c,wind_dir_degrees,wind_speed_kt,wind_gust_kt,visibility_statute_mi,altim_in_hg,sea_level_pressure_mb,corrected,auto,auto_station,maintenance_indicator_on,no_signal,lightning_sensor_off,freezing_rain_sensor_off,present_weather_sensor_off,wx_string,sky_cover,cloud_base_ft_agl,sky_cover,cloud_base_ft_agl,sky_cover,cloud_base_ft_agl,sky_cover,cloud_base_ft_agl,flight_category,three_hr_pressure_tendency_mb,maxT_c,minT_c,maxT24hr_c,minT24hr_c,precip_in,pcp3hr_in,pcp6hr_in,pcp24hr_in,snow_in,vert_vis_ft,metar_type,elevation_m
KOTH 311556Z 16009KT 6SM -RA BR SCT025 BKN034 OVC042 07/05 A3010 RMK AO2 SLP190 P0000 T00670050,KOTH,2023-03-31T15:56:00Z,43.42,-124.25,6.7,5.0,160,9,,6.0,30.100393,1019.0,,,TRUE,,,,,,-RA BR,SCT,2500,BKN,3400,OVC,4200,,,VFR,,,,,,0.005,,,,,,METAR,3.0
KOTH 311456Z 16009KT 10SM -RA SCT033 BKN047 OVC060 06/05 A3008 RMK AO2 RAB51 SLP186 P0000 60000 T00610050 53005,KOTH,2023-03-31T14:56:00Z,43.42,-124.25,6.1,5.0,160,9,,10.0,30.079725,1018.6,,,TRUE,,,,,,-RA,SCT,3300,BKN,4700,OVC,6000,,,VFR,0.5,,,,,0.005,0.005,,,,,METAR,3.0
KOTH 311356Z 16006KT 10SM FEW024 BKN036 OVC048 06/05 A3008 RMK AO2 RAE24 SLP184 P0000 T00560050,KOTH,2023-03-31T13:56:00Z,43.42,-124.25,5.6,5.0,160,6,,10.0,30.079725,1018.4,,,TRUE,,,,,,,FEW,2400,BKN,3600,OVC,4800,,,VFR,,,,,,0.005,,,,,,METAR,3.0
KOTH 311256Z AUTO 15006KT 10SM -RA SCT025 BKN034 OVC060 06/05 A3006 RMK AO2 RAE08B53 SLP179 P0000 T00610050,KOTH,2023-03-31T12:56:00Z,43.42,-124.25,6.1,5.0,150,6,,10.0,30.059055,1017.9,,TRUE,TRUE,,,,,,-RA,SCT,2500,BKN,3400,OVC,6000,,,VFR,,,,,,0.005,,,,,,METAR,3.0
KOTH 311209Z AUTO 17009KT 10SM FEW010 SCT018 BKN070 06/04 A3006 RMK AO2 RAE08 P0000,KOTH,2023-03-31T12:09:00Z,43.42,-124.25,6.0,4.0,170,9,,10.0,30.059055,,,TRUE,TRUE,,,,,,,FEW,1000,SCT,1800,BKN,7000,,,VFR,,,,,,0.005,,,,,,SPECI,3.0
KOTH 311156Z AUTO 17009KT 8SM -RA FEW010 BKN028 OVC047 06/06 A3007 RMK AO2 RAB30 SLP181 P0005 60008 70008 T00610056 10072 20061 50001,KOTH,2023-03-31T11:56:00Z,43.42,-124.25,6.1,5.6,170,9,,8.0,30.070866,1018.1,,TRUE,TRUE,,,,,,-RA,FEW,1000,BKN,2800,OVC,4700,,,MVFR,0.1,7.2,6.1,,,0.05,,0.08,0.08,,,METAR,3.0
KOTH 311144Z AUTO 25006KT 8SM RA SCT021 BKN026 OVC041 06/06 A3007 RMK AO2 RAB30 P0002,KOTH,2023-03-31T11:44:00Z,43.42,-124.25,6.0,6.0,250,6,,8.0,30.070866,,,TRUE,TRUE,,,,,,RA,SCT,2100,BKN,2600,OVC,4100,,,MVFR,,,,,,0.02,,,,,,METAR,3.0
KOTH 311056Z AUTO 17006KT 10SM SCT035 BKN050 OVC065 06/05 A3007 RMK AO2 RAE23 SLP182 P0000 T00610050,KOTH,2023-03-31T10:56:00Z,43.42,-124.25,6.1,5.0,170,6,,10.0,30.070866,1018.2,,TRUE,TRUE,,,,,,,SCT,3500,BKN,5000,OVC,6500,,,VFR,,,,,,0.005,,,,,,METAR,3.0
KOTH 310956Z AUTO 18008KT 10SM -RA FEW025 BKN036 OVC043 06/05 A3007 RMK AO2 SLP182 P0001 T00610050,KOTH,2023-03-31T09:56:00Z,43.42,-124.25,6.1,5.0,180,8,,10.0,30.070866,1018.2,,TRUE,TRUE,,,,,,-RA,FEW,2500,BKN,3600,OVC,4300,,,VFR,,,,,,0.01,,,,,,SPECI,3.0
KOTH 310936Z AUTO 18008KT 10SM -RA SCT024 OVC035 06/05 A3007 RMK AO2 P0001,KOTH,2023-03-31T09:36:00Z,43.42,-124.25,6.0,5.0,180,8,,10.0,30.070866,,,TRUE,TRUE,,,,,,-RA,SCT,2400,OVC,3500,,,,,VFR,,,,,,0.01,,,,,,SPECI,3.0
KOTH 310924Z AUTO 18010KT 10SM -RA BKN024 OVC035 07/05 A3007 RMK AO2 P0001,KOTH,2023-03-31T09:24:00Z,43.42,-124.25,7.0,5.0,180,10,,10.0,30.070866,,,TRUE,TRUE,,,,,,-RA,BKN,2400,OVC,3500,,,,,MVFR,,,,,,0.01,,,,,,METAR,3.0
KOTH 310856Z AUTO 18006KT 10SM -RA SCT024 BKN031 OVC050 07/05 A3006 RMK AO2 SLP179 P0002 60002 T00670050 53001,KOTH,2023-03-31T08:56:00Z,43.42,-124.25,6.7,5.0,180,6,,10.0,30.059055,1017.9,,TRUE,TRUE,,,,,,-RA,SCT,2400,BKN,3100,OVC,5000,,,VFR,0.1,,,,,0.02,0.02,,,,,METAR,3.0
KOTH 310820Z AUTO 21007KT 8SM -RA FEW022 BKN027 OVC036 07/05 A3006 RMK AO2 P0001,KOTH,2023-03-31T08:20:00Z,43.42,-124.25,7.0,5.0,210,7,,8.0,30.059055,,,TRUE,TRUE,,,,,,-RA,FEW,2200,BKN,2700,OVC,3600,,,MVFR,,,,,,0.01,,,,,,METAR,3.0
KOTH 310756Z AUTO 16008KT 10SM -RA SCT038 BKN048 OVC060 07/06 A3005 RMK AO2 RAB53 SLP176 P0000 T00670056 400940050,KOTH,2023-03-31T07:56:00Z,43.42,-124.25,6.7,5.6,160,8,,10.0,30.050198,1017.6,,TRUE,TRUE,,,,,,-RA,SCT,3800,BKN,4800,OVC,6000,,,VFR,,,,9.4,5.0,0.005,,,,,,SPECI,3.0
KOTH 310656Z AUTO 15007KT 10SM OVC050 07/06 A3005 RMK AO2 SLP176 T00720056,KOTH,2023-03-31T06:56:00Z,43.42,-124.25,7.2,5.6,150,7,,10.0,30.050198,1017.6,,TRUE,TRUE,,,,,,,OVC,5000,,,,,,,VFR,,,,,,,,,,,,METAR,3.0
KOTH 310556Z AUTO 16005KT 10SM OVC042 07/06 A3006 RMK AO2 RAE22 SLP178 P0000 60000 T00720056 10094 20072 51008,KOTH,2023-03-31T05:56:00Z,43.42,-124.25,7.2,5.6,160,5,,10.0,30.059055,1017.8,,TRUE,TRUE,,,,,,,OVC,4200,,,,,,,VFR,0.8,9.4,7.2,,,0.005,,0.005,,,,METAR,3.0
KOTH 310456Z AUTO 18005KT 10SM -RA BKN041 OVC050 07/05 A3006 RMK AO2 RAB16 SLP178 P0000 T00720050,KOTH,2023-03-31T04:56:00Z,43.42,-124.25,7.2,5.0,180,5,,10.0,30.059055,1017.8,,TRUE,TRUE,,,,,,-RA,BKN,4100,OVC,5000,,,,,VFR,,,,,,0.005,,,,,,SPECI,3.0
KOTH 310356Z AUTO 20003KT 10SM BKN040 OVC050 08/04 A3004 RMK AO2 SLP173 T00780044,KOTH,2023-03-31T03:56:00Z,43.42,-124.25,7.8,4.4,200,3,,10.0,30.041338,1017.3,,TRUE,TRUE,,,,,,,BKN,4000,OVC,5000,,,,,VFR,,,,,,,,,,,,METAR,3.0
KOTH 310256Z 23007KT 10SM BKN038 OVC048 08/05 A3003 RMK AO2 SLP170 T00830050 53004,KOTH,2023-03-31T02:56:00Z,43.42,-124.25,8.3,5.0,230,7,,10.0,30.029528,1017.0,,,TRUE,,,,,,,BKN,3800,OVC,4800,,,,,VFR,0.4,,,,,,,,,,,SPECI,3.0
KOTH 310239Z 23008KT 10SM FEW022 BKN036 OVC048 08/05 A3003 RMK AO2,KOTH,2023-03-31T02:39:00Z,43.42,-124.25,8.0,5.0,230,8,,10.0,30.029528,,,,TRUE,,,,,,,FEW,2200,BKN,3600,OVC,4800,,,VFR,,,,,,,,,,,,SPECI,3.0
KOTH 310228Z 24008KT 10SM BKN025 OVC036 08/04 A3003 RMK AO2,KOTH,2023-03-31T02:28:00Z,43.42,-124.25,8.0,4.0,240,8,,10.0,30.029528,,,,TRUE,,,,,,,BKN,2500,OVC,3600,,,,,MVFR,,,,,,,,,,,,SPECI,3.0
KOTH 310156Z 25008KT 10SM FEW024 OVC032 08/04 A3002 RMK AO2 SLP167 T00830044,KOTH,2023-03-31T01:56:00Z,43.42,-124.25,8.3,4.4,250,8,,10.0,30.02067,1016.7,,,TRUE,,,,,,,FEW,2400,OVC,3200,,,,,VFR,,,,,,,,,,,,METAR,3.0
KOTH 310056Z 25009KT 10SM FEW024 BKN031 OVC039 09/04 A3002 RMK AO2 SLP166 T00890044,KOTH,2023-03-31T00:56:00Z,43.42,-124.25,8.9,4.4,250,9,,10.0,30.02067,1016.6,,,TRUE,,,,,,,FEW,2400,BKN,3100,OVC,3900,,,VFR,,,,,,,,,,,,METAR,3.0
KOTH 302356Z 26010KT 10SM FEW021 BKN030 OVC035 09/05 A3002 RMK AO2 SLP166 60000 T00940050 10094 20083 50005,KOTH,2023-03-30T23:56:00Z,43.42,-124.25,9.4,5.0,260,10,,10.0,30.02067,1016.6,,,TRUE,,,,,,,FEW,2100,BKN,3000,OVC,3500,,,MVFR,0.5,9.4,8.3,,,,,0.005,,,,METAR,3.0
KOTH 302313Z 25009KT 10SM FEW020 BKN029 OVC043 09/05 A3003 RMK AO2,KOTH,2023-03-30T23:13:00Z,43.42,-124.25,9.0,5.0,250,9,,10.0,30.029528,,,,TRUE,,,,,,,FEW,2000,BKN,2900,OVC,4300,,,MVFR,,,,,,,,,,,,SPECI,3.0
KOTH 302256Z 26009KT 10SM FEW020 SCT025 OVC045 09/06 A3003 RMK AO2 SLP167 T00940056,KOTH,2023-03-30T22:56:00Z,43.42,-124.25,9.4,5.6,260,9,,10.0,30.029528,1016.7,,,TRUE,,,,,,,FEW,2000,SCT,2500,OVC,4500,,,VFR,,,,,,,,,,,,METAR,3.0
KOTH 302249Z 26011KT 10SM FEW020 SCT025 OVC045 09/06 A3003 RMK AO2,KOTH,2023-03-30T22:49:00Z,43.42,-124.25,9.0,6.0,260,11,,10.0,30.029528,,,,TRUE,,,,,,,FEW,2000,SCT,2500,OVC,4500,,,VFR,,,,,,,,,,,,SPECI,3.0
KOTH 302156Z 26008KT 10SM BKN023 BKN029 OVC035 09/06 A3002 RMK AO2 RAB33E50 SLP165 P0000 T00890056,KOTH,2023-03-30T21:56:00Z,43.42,-124.25,8.9,5.6,260,8,,10.0,30.02067,1016.5,,,TRUE,,,,,,,BKN,2300,BKN,2900,OVC,3500,,,MVFR,,,,,,0.005,,,,,,METAR,3.0
KOTH 302123Z 25007KT 10SM BKN021 BKN028 OVC037 09/05 A3001 RMK AO2,KOTH,2023-03-30T21:23:00Z,43.42,-124.25,9.0,5.0,250,7,,10.0,30.008858,,,,TRUE,,,,,,,BKN,2100,BKN,2800,OVC,3700,,,MVFR,,,,,,,,,,,,SPECI,3.0
KOTH 302114Z 25009KT 10SM SCT021 SCT025 OVC037 09/06 A3001 RMK AO2,KOTH,2023-03-30T21:14:00Z,43.42,-124.25,9.0,6.0,250,9,,10.0,30.008858,,,,TRUE,,,,,,,SCT,2100,SCT,2500,OVC,3700,,,VFR,,,,,,,,,,,,SPECI,3.0
KOTH 302056Z 26011KT 10SM SCT021 BKN029 OVC033 09/06 A3001 RMK AO2 SLP161 T00890056 51010,KOTH,2023-03-30T20:56:00Z,43.42,-124.25,8.9,5.6,260,11,,10.0,30.008858,1016.1,,,TRUE,,,,,,,SCT,2100,BKN,2900,OVC,3300,,,MVFR,1.0,,,,,,,,,,,METAR,3.0
KOTH 302044Z 24007KT 10SM FEW021 BKN029 OVC035 09/06 A3001 RMK AO2,KOTH,2023-03-30T20:44:00Z,43.42,-124.25,9.0,6.0,240,7,,10.0,30.008858,,,,TRUE,,,,,,,FEW,2100,BKN,2900,OVC,3500,,,MVFR,,,,,,,,,,,,SPECI,3.0
KOTH 302007Z 24008KT 10SM SCT022 OVC033 09/05 A3000 RMK AO2,KOTH,2023-03-30T20:07:00Z,43.42,-124.25,9.0,5.0,240,8,,10.0,30.0,,,,TRUE,,,,,,,SCT,2200,OVC,3300,,,,,VFR,,,,,,,,,,,,SPECI,3.0
KOTH 301956Z 24011G15KT 10SM BKN022 BKN029 OVC035 09/05 A3000 RMK AO2 SLP157 T00940050,KOTH,2023-03-30T19:56:00Z,43.42,-124.25,9.4,5.0,240,11,15,10.0,30.0,1015.7,,,TRUE,,,,,,,BKN,2200,BKN,2900,OVC,3500,,,MVFR,,,,,,,,,,,,METAR,3.0
KOTH 301856Z 23007KT 10SM SCT018 SCT024 OVC028 09/05 A2999 RMK AO2 SLP154 T00940050,KOTH,2023-03-30T18:56:00Z,43.42,-124.25,9.4,5.0,230,7,,10.0,29.991142,1015.4,,,TRUE,,,,,,,SCT,1800,SCT,2400,OVC,2800,,,MVFR,,,,,,,,,,,,METAR,3.0
KOTH 301756Z 20006KT 10SM OVC022 09/06 A2998 RMK AO2 SLP150 T00890056 10089 20050 53010,KOTH,2023-03-30T17:56:00Z,43.42,-124.25,8.9,5.6,200,6,,10.0,29.97933,1015.0,,,TRUE,,,,,,,OVC,2200,,,,,,,MVFR,1.0,8.9,5.0,,,,,,,,,METAR,3.0
KOTH 301656Z 15005KT 10SM BKN025 OVC033 08/06 A2997 RMK AO2 SLP147 T00830061,KOTH,2023-03-30T16:56:00Z,43.42,-124.25,8.3,6.1,150,5,,10.0,29.970472,1014.7,,,TRUE,,,,,,,BKN,2500,OVC,3300,,,,,MVFR,,,,,,,,,,,,SPECI,3.0
KOTH 301621Z 16006KT 10SM OVC031 07/06 A2996 RMK AO2,KOTH,2023-03-30T16:21:00Z,43.42,-124.25,7.0,6.0,160,6,,10.0,29.958662,,,,TRUE,,,,,,,OVC,3100,,,,,,,VFR,,,,,,,,,,,,SPECI,3.0
KOTH 301556Z 14009KT 10SM OVC029 07/06 A2995 RMK AO2 SLP142 T00670056,KOTH,2023-03-30T15:56:00Z,43.42,-124.25,6.7,5.6,140,9,,10.0,29.949802,1014.2,,,TRUE,,,,,,,OVC,2900,,,,,,,MVFR,,,,,,,,,,,,METAR,3.0
KOTH 301456Z 15006KT 10SM OVC027 06/05 A2995 RMK AO2 SLP141 T00610050 53009,KOTH,2023-03-30T14:56:00Z,43.42,-124.25,6.1,5.0,150,6,,10.0,29.949802,1014.1,,,TRUE,,,,,,,OVC,2700,,,,,,,MVFR,0.9,,,,,,,,,,,METAR,3.0
KOTH 301356Z 16006KT 10SM OVC027 06/05 A2993 RMK AO2 SLP135 T00610050,KOTH,2023-03-30T13:56:00Z,43.42,-124.25,6.1,5.0,160,6,,10.0,29.929134,1013.5,,,TRUE,,,,,,,OVC,2700,,,,,,,MVFR,,,,,,,,,,,,SPECI,3.0
KOTH 301256Z AUTO 15006KT 10SM BKN029 06/04 A2992 RMK AO2 SLP132 T00560044,KOTH,2023-03-30T12:56:00Z,43.42,-124.25,5.6,4.4,150,6,,10.0,29.920275,1013.2,,TRUE,TRUE,,,,,,,BKN,2900,,,,,,,MVFR,,,,,,,,,,,,METAR,3.0
KOTH 301156Z AUTO 15008KT 10SM OVC017 06/05 A2992 RMK AO2 SLP131 60000 T00560050 10067 20056 58002,KOTH,2023-03-30T11:56:00Z,43.42,-124.25,5.6,5.0,150,8,,10.0,29.920275,1013.1,,TRUE,TRUE,,,,,,,OVC,1700,,,,,,,MVFR,-0.2,6.7,5.6,,,,,0.005,,,,METAR,3.0
KOTH 301145Z AUTO 15007KT 10SM BKN017 OVC031 06/05 A2992 RMK AO2,KOTH,2023-03-30T11:45:00Z,43.42,-124.25,6.0,5.0,150,7,,10.0,29.920275,,,TRUE,TRUE,,,,,,,BKN,1700,OVC,3100,,,,,MVFR,,,,,,,,,,,,SPECI,3.0
KOTH 301118Z AUTO 16006KT 10SM SCT017 OVC031 06/05 A2992 RMK AO2,KOTH,2023-03-30T11:18:00Z,43.42,-124.25,6.0,5.0,160,6,,10.0,29.920275,,,TRUE,TRUE,,,,,,,SCT,1700,OVC,3100,,,,,VFR,,,,,,,,,,,,SPECI,3.0
KOTH 301056Z AUTO 15006KT 10SM SCT011 OVC017 06/06 A2993 RMK AO2 RAB17E29 SLP133 P0000 T00610056,KOTH,2023-03-30T10:56:00Z,43.42,-124.25,6.1,5.6,150,6,,10.0,29.929134,1013.3,,TRUE,TRUE,,,,,,,SCT,1100,OVC,1700,,,,,MVFR,,,,,,0.005,,,,,,METAR,3.0
KOTH 301027Z AUTO 16006KT 10SM -RA BKN013 BKN019 OVC037 06/06 A2993 RMK AO2 RAB17 P0000,KOTH,2023-03-30T10:27:00Z,43.42,-124.25,6.0,6.0,160,6,,10.0,29.929134,,,TRUE,TRUE,,,,,,-RA,BKN,1300,BKN,1900,OVC,3700,,,MVFR,,,,,,0.005,,,,,,SPECI,3.0
KOTH 300956Z AUTO 14008KT 10SM SCT017 BKN025 OVC039 06/06 A2992 RMK AO2 SLP132 T00610056,KOTH,2023-03-30T09:56:00Z,43.42,-124.25,6.1,5.6,140,8,,10.0,29.920275,1013.2,,TRUE,TRUE,,,,,,,SCT,1700,BKN,2500,OVC,3900,,,MVFR,,,,,,,,,,,,METAR,3.0
KOTH 300946Z AUTO 14007KT 10SM BKN019 BKN025 OVC041 06/06 A2992 RMK AO2,KOTH,2023-03-30T09:46:00Z,43.42,-124.25,6.0,6.0,140,7,,10.0,29.920275,,,TRUE,TRUE,,,,,,,BKN,1900,BKN,2500,OVC,4100,,,MVFR,,,,,,,,,,,,SPECI,3.0
KOTH 300856Z AUTO 16007KT 10SM FEW024 BKN030 OVC036 07/06 A2993 RMK AO2 SLP134 T00670056 51003,KOTH,2023-03-30T08:56:00Z,43.42,-124.25,6.7,5.6,160,7,,10.0,29.929134,1013.4,,TRUE,TRUE,,,,,,,FEW,2400,BKN,3000,OVC,3600,,,MVFR,0.3,,,,,,,,,,,METAR,3.0
KOTH 300839Z AUTO 14006KT 10SM BKN030 OVC035 06/05 A2993 RMK AO2,KOTH,2023-03-30T08:39:00Z,43.42,-124.25,6.0,5.0,140,6,,10.0,29.929134,,,TRUE,TRUE,,,,,,,BKN,3000,OVC,3500,,,,,MVFR,,,,,,,,,,,,SPECI,3.0
KOTH 300756Z AUTO 14006KT 10SM FEW023 OVC029 07/06 A2993 RMK AO2 SLP133 T00670056 401280039,KOTH,2023-03-30T07:56:00Z,43.42,-124.25,6.7,5.6,140,6,,10.0,29.929134,1013.3,,TRUE,TRUE,,,,,,,FEW,2300,OVC,2900,,,,,MVFR,,,,12.8,3.9,,,,,,,SPECI,3.0
KOTH 300656Z AUTO 15006KT 10SM BKN015 OVC021 07/06 A2992 RMK AO2 SLP132 T00670061,KOTH,2023-03-30T06:56:00Z,43.42,-124.25,6.7,6.1,150,6,,10.0,29.920275,1013.2,,TRUE,TRUE,,,,,,,BKN,1500,OVC,2100,,,,,MVFR,,,,,,,,,,,,METAR,3.0
KOTH 300556Z AUTO 16005KT 10SM FEW015 BKN023 06/05 A2992 RMK AO2 SLP130 T00560050 10106 20056 51008,KOTH,2023-03-30T05:56:00Z,43.42,-124.25,5.6,5.0,160,5,,10.0,29.920275,1013.0,,TRUE,TRUE,,,,,,,FEW,1500,BKN,2300,,,,,MVFR,0.8,10.6,5.6,,,,,,,,,METAR,3.0
KOTH 300549Z AUTO 16005KT 10SM FEW017 BKN023 06/05 A2992 RMK AO2,KOTH,2023-03-30T05:49:00Z,43.42,-124.25,6.0,5.0,160,5,,10.0,29.920275,,,TRUE,TRUE,,,,,,,FEW,1700,BKN,2300,,,,,MVFR,,,,,,,,,,,,SPECI,3.0
KOTH 300456Z AUTO 16004KT 10SM CLR 06/06 A2992 RMK AO2 SLP130 T00610056,KOTH,2023-03-30T04:56:00Z,43.42,-124.25,6.1,5.6,160,4,,10.0,29.920275,1013.0,,TRUE,TRUE,,,,,,,CLR,,,,,,,,VFR,,,,,,,,,,,,METAR,3.0
KOTH 300356Z AUTO 00000KT 10SM CLR 07/06 A2991 RMK AO2 SLP127 T00720061,KOTH,2023-03-30T03:56:00Z,43.42,-124.25,7.2,6.1,0,0,,10.0,29.911417,1012.7,,TRUE,TRUE,,,,,,,CLR,,,,,,,,VFR,,,,,,,,,,,,METAR,3.0
KOTH 300318Z 00000KT 10SM SCT026 09/07 A2990 RMK AO2,KOTH,2023-03-30T03:18:00Z,43.42,-124.25,9.0,7.0,0,0,,10.0,29.899607,,,,TRUE,,,,,,,SCT,2600,,,,,,,VFR,,,,,,,,,,,,SPECI,3.0
KOTH 300256Z 33003KT 10SM OVC026 09/07 A2990 RMK AO2 SLP123 T00890067 53008,KOTH,2023-03-30T02:56:00Z,43.42,-124.25,8.9,6.7,330,3,,10.0,29.899607,1012.3,,,TRUE,,,,,,,OVC,2600,,,,,,,MVFR,0.8,,,,,,,,,,,METAR,3.0
KOTH 300237Z 33004KT 10SM BKN024 09/07 A2989 RMK AO2,KOTH,2023-03-30T02:37:00Z,43.42,-124.25,9.0,7.0,330,4,,10.0,29.890747,,,,TRUE,,,,,,,BKN,2400,,,,,,,MVFR,,,,,,,,,,,,METAR,3.0
KOTH 300203Z 33007KT 10SM SCT016 09/06 A2988 RMK AO2,KOTH,2023-03-30T02:03:00Z,43.42,-124.25,9.0,6.0,330,7,,10.0,29.878937,,,,TRUE,,,,,,,SCT,1600,,,,,,,VFR,,,,,,,,,,,,SPECI,3.0
KOTH 300156Z 33007KT 10SM BKN016 09/06 A2988 RMK AO2 SLP119 T00940061,KOTH,2023-03-30T01:56:00Z,43.42,-124.25,9.4,6.1,330,7,,10.0,29.878937,1011.9,,,TRUE,,,,,,,BKN,1600,,,,,,,MVFR,,,,,,,,,,,,METAR,3.0
KOTH 300126Z 33007KT 10SM BKN016 09/07 A2988 RMK AO2,KOTH,2023-03-30T01:26:00Z,43.42,-124.25,9.0,7.0,330,7,,10.0,29.878937,,,,TRUE,,,,,,,BKN,1600,,,,,,,MVFR,,,,,,,,,,,,SPECI,3.0
KOTH 300056Z 30008KT 10SM FEW016 10/07 A2987 RMK AO2 SLP114 T01000067,KOTH,2023-03-30T00:56:00Z,43.42,-124.25,10.0,6.7,300,8,,10.0,29.870079,1011.4,,,TRUE,,,,,,,FEW,1600,,,,,,,VFR,,,,,,,,,,,,METAR,3.0
KOTH 292356Z 29009KT 10SM CLR 11/07 A2987 RMK AO2 SLP114 T01060067 10128 20100 58004,KOTH,2023-03-29T23:56:00Z,43.42,-124.25,10.6,6.7,290,9,,10.0,29.870079,1011.4,,,TRUE,,,,,,,CLR,,,,,,,,VFR,-0.4,12.8,10.0,,,,,,,,,METAR,3.0
KOTH 292256Z 27007KT 10SM CLR 11/06 A2987 RMK AO2 SLP115 T01060061,KOTH,2023-03-29T22:56:00Z,43.42,-124.25,10.6,6.1,270,7,,10.0,29.870079,1011.5,,,TRUE,,,,,,,CLR,,,,,,,,VFR,,,,,,,,,,,,METAR,3.0
KOTH 292156Z 31007KT 10SM CLR 11/06 A2988 RMK AO2 SLP119 T01060056,KOTH,2023-03-29T21:56:00Z,43.42,-124.25,10.6,5.6,310,7,,10.0,29.878937,1011.9,,,TRUE,,,,,,,CLR,,,,,,,,VFR,,,,,,,,,,,,METAR,3.0
KOTH 292056Z 32015KT 10SM CLR 11/06 A2988 RMK AO2 SLP118 T01060061 53009,KOTH,2023-03-29T20:56:00Z,43.42,-124.25,10.6,6.1,320,15,,10.0,29.878937,1011.8,,,TRUE,,,,,,,CLR,,,,,,,,VFR,0.9,,,,,,,,,,,METAR,3.0
KOTH 291956Z 30011G15KT 10SM CLR 12/06 A2987 RMK AO2 SLP115 T01170056,KOTH,2023-03-29T19:56:00Z,43.42,-124.25,11.7,5.6,300,11,15,10.0,29.870079,1011.5,,,TRUE,,,,,,,CLR,,,,,,,,VFR,,,,,,,,,,,,METAR,3.0
KOTH 291856Z 03004KT 10SM CLR 13/03 A2986 RMK AO2 SLP112 T01280033,KOTH,2023-03-29T18:56:00Z,43.42,-124.25,12.8,3.3,30,4,,10.0,29.861221,1011.2,,,TRUE,,,,,,,CLR,,,,,,,,VFR,,,,,,,,,,,,METAR,3.0
KOTH 291756Z 16004KT 10SM CLR 11/04 A2986 RMK AO2 SLP110 T01060044 10106 20039 51012,KOTH,2023-03-29T17:56:00Z,43.42,-124.25,10.6,4.4,160,4,,10.0,29.861221,1011.0,,,TRUE,,,,,,,CLR,,,,,,,,VFR,1.2,10.6,3.9,,,,,,,,,METAR,3.0
KOTH 291656Z 00000KT 10SM CLR 09/04 A2986 RMK AO2 SLP109 T00890039,KOTH,2023-03-29T16:56:00Z,43.42,-124.25,8.9,3.9,0,0,,10.0,29.861221,1010.9,,,TRUE,,,,,,,CLR,,,,,,,,VFR,,,,,,,,,,,,METAR,3.0
KOTH 291556Z 00000KT 10SM CLR 06/04 A2984 RMK AO2 SLP104 T00610039,KOTH,2023-03-29T15:56:00Z,43.42,-124.25,6.1,3.9,0,0,,10.0,29.840551,1010.4,,,TRUE,,,,,,,CLR,,,,,,,,VFR,,,,,,,,,,,,SPECI,3.0
KOTH 291456Z 00000KT 10SM CLR 04/03 A2982 RMK AO2 SLP098 T00440033 53023,KOTH,2023-03-29T14:56:00Z,43.42,-124.25,4.4,3.3,0,0,,10.0,29.819881,1009.8,,,TRUE,,,,,,,CLR,,,,,,,,VFR,2.3,,,,,,,,,,,METAR,3.0
KOTH 291356Z 15005KT 10SM CLR 04/03 A2978 RMK AO2 SLP085 T00440028,KOTH,2023-03-29T13:56:00Z,43.42,-124.25,4.4,2.8,150,5,,10.0,29.778543,1008.5,,,TRUE,,,,,,,CLR,,,,,,,,VFR,,,,,,,,,,,,METAR,3.0
KOTH 291256Z AUTO 16006KT 10SM CLR 04/02 A2977 RMK AO2 SLP081 T00440022,KOTH,2023-03-29T12:56:00Z,43.42,-124.25,4.4,2.2,160,6,,10.0,29.769686,1008.1,,TRUE,TRUE,,,,,,,CLR,,,,,,,,VFR,,,,,,,,,,,,METAR,3.0
KOTH 291156Z AUTO 15005KT 10SM CLR 04/02 A2975 RMK AO2 SLP075 70011 T00440022 10089 20044 51009,KOTH,2023-03-29T11:56:00Z,43.42,-124.25,4.4,2.2,150,5,,10.0,29.749016,1007.5,,TRUE,TRUE,,,,,,,CLR,,,,,,,,VFR,0.9,8.9,4.4,,,,,,0.11,,,METAR,3.0
KOTH 291056Z AUTO 14007KT 10SM CLR 06/03 A2974 RMK AO2 SLP071 T00560028,KOTH,2023-03-29T10:56:00Z,43.42,-124.25,5.6,2.8,140,7,,10.0,29.740158,1007.1,,TRUE,TRUE,,,,,,,CLR,,,,,,,,VFR,,,,,,,,,,,,METAR,3.0
KOTH 290956Z AUTO 12007KT 10SM CLR 06/03 A2974 RMK AO2 SLP070 T00610028,KOTH,2023-03-29T09:56:00Z,43.42,-124.25,6.1,2.8,120,7,,10.0,29.740158,1007.0,,TRUE,TRUE,,,,,,,CLR,,,,,,,,VFR,,,,,,,,,,,,METAR,3.0
KOTH 290856Z AUTO 13007KT 10SM CLR 07/03 A2973 RMK AO2 SLP065 T00670028 51015,KOTH,2023-03-29T08:56:00Z,43.42,-124.25,6.7,2.8,130,7,,10.0,29.731298,1006.5,,TRUE,TRUE,,,,,,,CLR,,,,,,,,VFR,1.5,,,,,,,,,,,METAR,3.0
KOTH 290756Z AUTO 12006KT 10SM BKN110 08/03 A2972 RMK AO2 SLP063 T00780033 401280044,KOTH,2023-03-29T07:56:00Z,43.42,-124.25,7.8,3.3,120,6,,10.0,29.719488,1006.3,,TRUE,TRUE,,,,,,,BKN,11000,,,,,,,VFR,,,,12.8,4.4,,,,,,,SPECI,3.0
KOTH 290656Z AUTO 14007KT 10SM OVC100 08/03 A2970 RMK AO2 SLP058 T00830033,KOTH,2023-03-29T06:56:00Z,43.42,-124.25,8.3,3.3,140,7,,10.0,29.698818,1005.8,,TRUE,TRUE,,,,,,,OVC,10000,,,,,,,VFR,,,,,,,,,,,,METAR,3.0
KOTH 290556Z AUTO 03008KT 10SM OVC095 08/05 A2968 RMK AO2 SLP050 T00830050 10122 20078 53005,KOTH,2023-03-29T05:56:00Z,43.42,-124.25,8.3,5.0,30,8,,10.0,29.681103,1005.0,,TRUE,TRUE,,,,,,,OVC,9500,,,,,,,VFR,0.5,12.2,7.8,,,,,,,,,METAR,3.0
KOTH 290456Z AUTO 02005KT 10SM BKN110 08/05 A2968 RMK AO2 SLP048 T00780050,KOTH,2023-03-29T04:56:00Z,43.42,-124.25,7.8,5.0,20,5,,10.0,29.681103,1004.8,,TRUE,TRUE,,,,,,,BKN,11000,,,,,,,VFR,,,,,,,,,,,,METAR,3.0
KOTH 290356Z AUTO 01009KT 10SM OVC110 08/05 A2967 RMK AO2 SLP046 T00780050,KOTH,2023-03-29T03:56:00Z,43.42,-124.25,7.8,5.0,10,9,,10.0,29.66929,1004.6,,TRUE,TRUE,,,,,,,OVC,11000,,,,,,,VFR,,,,,,,,,,,,METAR,3.0
KOTH 290256Z 02012KT 10SM OVC100 09/06 A2967 RMK AO2 SLP046 T00890056 50002,KOTH,2023-03-29T02:56:00Z,43.42,-124.25,8.9,5.6,20,12,,10.0,29.66929,1004.6,,,TRUE,,,,,,,OVC,10000,,,,,,,VFR,0.2,,,,,,,,,,,METAR,3.0
KOTH 290156Z 03008KT 10SM CLR 09/05 A2968 RMK AO2 SLP049 T00940050,KOTH,2023-03-29T01:56:00Z,43.42,-124.25,9.4,5.0,30,8,,10.0,29.681103,1004.9,,,TRUE,,,,,,,CLR,,,,,,,,VFR,,,,,,,,,,,,METAR,3.0
KOTH 290056Z 36010KT 10SM BKN095 10/04 A2968 RMK AO2 SLP048 T01000044,KOTH,2023-03-29T00:56:00Z,43.42,-124.25,10.0,4.4,360,10,,10.0,29.681103,1004.8,,,TRUE,,,,,,,BKN,9500,,,,,,,VFR,,,,,,,,,,,,METAR,3.0
KOTH 282356Z 20007KT 10SM FEW055 12/01 A2966 RMK AO2 SLP044 T01220011 10128 20078 53002,KOTH,2023-03-28T23:56:00Z,43.42,-124.25,12.2,1.1,200,7,,10.0,29.660433,1004.4,,,TRUE,,,,,,,FEW,5500,,,,,,,VFR,0.2,12.8,7.8,,,,,,,,,METAR,3.0
KOTH 282256Z 20011G17KT 10SM CLR 12/01 A2966 RMK AO2 SLP041 T01170011,KOTH,2023-03-28T22:56:00Z,43.42,-124.25,11.7,1.1,200,11,17,10.0,29.660433,1004.1,,,TRUE,,,,,,,CLR,,,,,,,,VFR,,,,,,,,,,,,METAR,3.0
KOTH 282156Z 15011KT 10SM BKN050 OVC060 12/03 A2966 RMK AO2 SLP042 T01170028,KOTH,2023-03-28T21:56:00Z,43.42,-124.25,11.7,2.8,150,11,,10.0,29.660433,1004.2,,,TRUE,,,,,,,BKN,5000,OVC,6000,,,,,VFR,,,,,,,,,,,,METAR,3.0
KOTH 282056Z 18007G15KT 130V210 10SM SCT042 BKN055 11/03 A2966 RMK AO2 SLP042 T01110033 56008,KOTH,2023-03-28T20:56:00Z,43.42,-124.25,11.1,3.3,180,7,15,10.0,29.660433,1004.2,,,TRUE,,,,,,,SCT,4200,BKN,5500,,,,,VFR,-0.8,,,,,,,,,,,METAR,3.0
KOTH 281956Z 18011KT 10SM BKN034 BKN110 10/04 A2966 RMK AO2 SLP044 T01000039,KOTH,2023-03-28T19:56:00Z,43.42,-124.25,10.0,3.9,180,11,,10.0,29.660433,1004.4,,,TRUE,,,,,,,BKN,3400,BKN,11000,,,,,VFR,,,,,,,,,,,,SPECI,3.0
KOTH 281856Z 16009KT 10SM CLR 09/04 A2967 RMK AO2 SLP046 T00940044,KOTH,2023-03-28T18:56:00Z,43.42,-124.25,9.4,4.4,160,9,,10.0,29.66929,1004.6,,,TRUE,,,,,,,CLR,,,,,,,,VFR,,,,,,,,,,,,METAR,3.0
KOTH 281756Z 13009KT 10SM CLR 08/04 A2968 RMK AO2 SLP049 60011 T00780044 10078 20044 58002,KOTH,2023-03-28T17:56:00Z,43.42,-124.25,7.8,4.4,130,9,,10.0,29.681103,1004.9,,,TRUE,,,,,,,CLR,,,,,,,,VFR,-0.2,7.8,4.4,,,,,0.11,,,,METAR,3.0
KOTH 281656Z 13010KT 10SM CLR 06/04 A2968 RMK AO2 SLP050 T00610044,KOTH,2023-03-28T16:56:00Z,43.42,-124.25,6.1,4.4,130,10,,10.0,29.681103,1005.0,,,TRUE,,,,,,,CLR,,,,,,,,VFR,,,,,,,,,,,,SPECI,3.0
KOTH 281556Z 15009KT 10SM SCT120 04/03 A2969 RMK AO2 SLP052 T00440033,KOTH,2023-03-28T15:56:00Z,43.42,-124.25,4.4,3.3,150,9,,10.0,29.68996,1005.2,,,TRUE,,,,,,,SCT,12000,,,,,,,VFR,,,,,,,,,,,,METAR,3.0
KOTH 281456Z 14013KT 10SM OVC075 05/04 A2968 RMK AO2 RAE50 SLP051 P0000 60011 T00500039 57007,KOTH,2023-03-28T14:56:00Z,43.42,-124.25,5.0,3.9,140,13,,10.0,29.681103,1005.1,,,TRUE,,,,,,,OVC,7500,,,,,,,VFR,-0.7,,,,,0.005,0.11,,,,,METAR,3.0
KOTH 281356Z 12005KT 10SM -RA FEW006 BKN034 OVC060 05/04 A2969 RMK AO2 SLP052 P0003 T00500044,KOTH,2023-03-28T13:56:00Z,43.42,-124.25,5.0,4.4,120,5,,10.0,29.68996,1005.2,,,TRUE,,,,,,-RA,FEW,600,BKN,3400,OVC,6000,,,VFR,,,,,,0.03,,,,,,METAR,3.0
KOTH 281320Z AUTO 08006KT 9SM -RA FEW008 BKN034 OVC047 05/04 A2969 RMK AO2 P0001,KOTH,2023-03-28T13:20:00Z,43.42,-124.25,5.0,4.0,80,6,,9.0,29.68996,,,TRUE,TRUE,,,,,,-RA,FEW,800,BKN,3400,OVC,4700,,,VFR,,,,,,0.01,,,,,,SPECI,3.0
KOTH 281313Z AUTO 08005KT 8SM -RA FEW010 OVC034 05/04 A2969 RMK AO2 P0000,KOTH,2023-03-28T13:13:00Z,43.42,-124.25,5.0,4.0,80,5,,8.0,29.68996,,,TRUE,TRUE,,,,,,-RA,FEW,1000,OVC,3400,,,,,VFR,,,,,,0.005,,,,,,SPECI,3.0
KOTH 281305Z AUTO 06004KT 10SM -RA FEW005 BKN028 OVC034 05/04 A2969 RMK AO2 P0000,KOTH,2023-03-28T13:05:00Z,43.42,-124.25,5.0,4.0,60,4,,10.0,29.68996,,,TRUE,TRUE,,,,,,-RA,FEW,500,BKN,2800,OVC,3400,,,MVFR,,,,,,0.005,,,,,,SPECI,3.0
KOTH 281256Z AUTO 00000KT 10SM -RA SCT005 BKN009 OVC030 05/04 A2970 RMK AO2 CIG 007V011 SLP058 P0008 T00500044,KOTH,2023-03-28T12:56:00Z,43.42,-124.25,5.0,4.4,0,0,,10.0,29.698818,1005.8,,TRUE,TRUE,,,,,,-RA,SCT,500,BKN,900,OVC,3000,,,IFR,,,,,,0.08,,,,,,METAR,3.0
KOTH 281224Z AUTO 33004KT 6SM -RA BR BKN007 BKN013 OVC020 05/04 A2970 RMK AO2 P0006,KOTH,2023-03-28T12:24:00Z,43.42,-124.25,5.0,4.0,330,4,,6.0,29.698818,,,TRUE,TRUE,,,,,,-RA BR,BKN,700,BKN,1300,OVC,2000,,,IFR,,,,,,0.06,,,,,,SPECI,3.0
KOTH 281210Z AUTO 30004KT 7SM RA FEW009 BKN013 OVC022 05/04 A2970 RMK AO2 P0003,KOTH,2023-03-28T12:10:00Z,43.42,-124.25,5.0,4.0,300,4,,7.0,29.698818,,,TRUE,TRUE,,,,,,RA,FEW,900,BKN,1300,OVC,2200,,,MVFR,,,,,,0.03,,,,,,SPECI,3.0
KOTH 281156Z AUTO 33004KT 7SM -RA SCT014 OVC022 05/04 A2971 RMK AO2 SLP058 P0004 60070 70095 T00500044 10072 20050 58017,KOTH,2023-03-28T11:56:00Z,43.42,-124.25,5.0,4.4,330,4,,7.0,29.71063,1005.8,,TRUE,TRUE,,,,,,-RA,SCT,1400,OVC,2200,,,,,MVFR,-1.7,7.2,5.0,,,0.04,,,0.95,,,SPECI,3.0
KOTH 281129Z AUTO 32003KT 10SM -RA BKN014 OVC024 05/04 A2971 RMK AO2 P0003,KOTH,2023-03-28T11:29:00Z,43.42,-124.25,5.0,4.0,320,3,,10.0,29.71063,,,TRUE,TRUE,,,,,,-RA,BKN,1400,OVC,2400,,,,,MVFR,,,,,,0.03,,,,,,METAR,3.0
KOTH 281056Z AUTO 00000KT 10SM -RA BKN021 OVC027 06/04 A2972 RMK AO2 SLP063 P0012 T00560044,KOTH,2023-03-28T10:56:00Z,43.42,-124.25,5.6,4.4,0,0,,10.0,29.719488,1006.3,,TRUE,TRUE,,,,,,-RA,BKN,2100,OVC,2700,,,,,MVFR,,,,,,0.12,,,,,,METAR,3.0
KOTH 281033Z AUTO 24003KT 10SM -RA BKN019 BKN025 OVC033 06/04 A2973 RMK AO2 P0008,KOTH,2023-03-28T10:33:00Z,43.42,-124.25,6.0,4.0,240,3,,10.0,29.731298,,,TRUE,TRUE,,,,,,-RA,BKN,1900,BKN,2500,OVC,3300,,,MVFR,,,,,,0.08,,,,,,SPECI,3.0
KOTH 281023Z AUTO 27003KT 9SM RA SCT021 BKN030 OVC035 06/05 A2973 RMK AO2 P0007,KOTH,2023-03-28T10:23:00Z,43.42,-124.25,6.0,5.0,270,3,,9.0,29.731298,,,TRUE,TRUE,,,,,,RA,SCT,2100,BKN,3000,OVC,3500,,,MVFR,,,,,,0.07,,,,,,SPECI,3.0
KOTH 280956Z AUTO 24003KT 6SM RA BR FEW010 BKN018 OVC029 06/06 A2975 RMK AO2 SLP072 P0024 T00560056,KOTH,2023-03-28T09:56:00Z,43.42,-124.25,5.6,5.6,240,3,,6.0,29.749016,1007.2,,TRUE,TRUE,,,,,,RA BR,FEW,1000,BKN,1800,OVC,2900,,,MVFR,,,,,,0.24,,,,,,METAR,3.0
KOTH 280928Z AUTO 00000KT 5SM RA BR SCT015 BKN021 OVC026 06/06 A2975 RMK AO2 P0014,KOTH,2023-03-28T09:28:00Z,43.42,-124.25,6.0,6.0,0,0,,5.0,29.749016,,,TRUE,TRUE,,,,,,RA BR,SCT,1500,BKN,2100,OVC,2600,,,MVFR,,,,,,0.14,,,,,,SPECI,3.0
KOTH 280856Z AUTO 28003KT 5SM RA BR SCT007 BKN011 OVC027 06/06 A2976 RMK AO2 SLP076 P0023 60030 T00610056 51002,KOTH,2023-03-28T08:56:00Z,43.42,-124.25,6.1,5.6,280,3,,5.0,29.760826,1007.6,,TRUE,TRUE,,,,,,RA BR,SCT,700,BKN,1100,OVC,2700,,,MVFR,0.2,,,,,0.23,0.3,,,,,METAR,3.0
KOTH 280837Z AUTO 15006KT 6SM RA BR FEW004 BKN020 OVC026 06/06 A2976 RMK AO2 P0012,KOTH,2023-03-28T08:37:00Z,43.42,-124.25,6.0,6.0,150,6,,6.0,29.760826,,,TRUE,TRUE,,,,,,RA BR,FEW,400,BKN,2000,OVC,2600,,,MVFR,,,,,,0.12,,,,,,SPECI,3.0
KOTH 280829Z AUTO 16006KT 7SM RA FEW004 BKN014 OVC024 06/06 A2976 RMK AO2 P0010,KOTH,2023-03-28T08:29:00Z,43.42,-124.25,6.0,6.0,160,6,,7.0,29.760826,,,TRUE,TRUE,,,,,,RA,FEW,400,BKN,1400,OVC,2400,,,MVFR,,,,,,0.1,,,,,,SPECI,3.0
KOTH 280756Z AUTO 16007KT 6SM RA BR SCT018 BKN025 OVC030 06/06 A2976 RMK AO2 SLP077 P0007 T00610056 400780017,KOTH,2023-03-28T07:56:00Z,43.42,-124.25,6.1,5.6,160,7,,6.0,29.760826,1007.7,,TRUE,TRUE,,,,,,RA BR,SCT,1800,BKN,2500,OVC,3000,,,MVFR,,,,7.8,1.7,0.07,,,,,,METAR,3.0
KOTH 280717Z AUTO 14010KT 10SM -RA SCT021 BKN026 OVC032 07/05 A2975 RMK AO2 P0001,KOTH,2023-03-28T07:17:00Z,43.42,-124.25,7.0,5.0,140,10,,10.0,29.749016,,,TRUE,TRUE,,,,,,-RA,SCT,2100,BKN,2600,OVC,3200,,,MVFR,,,,,,0.01,,,,,,SPECI,3.0
KOTH 280656Z AUTO 14008KT 10SM -RA OVC033 07/05 A2975 RMK AO2 RAB06 SLP073 P0000 T00670050,KOTH,2023-03-28T06:56:00Z,43.42,-124.25,6.7,5.0,140,8,,10.0,29.749016,1007.3,,TRUE,TRUE,,,,,,-RA,OVC,3300,,,,,,,VFR,,,,,,0.005,,,,,,SPECI,3.0
KOTH 280556Z AUTO 14011KT 10SM OVC037 07/04 A2975 RMK AO2 RAE25B43E55 SLP072 P0000 60012 T00670044 10067 20050 55017,KOTH,2023-03-28T05:56:00Z,43.42,-124.25,6.7,4.4,140,11,,10.0,29.749016,1007.2,,TRUE,TRUE,,,,,,,OVC,3700,,,,,,,VFR,-1.7,6.7,5.0,,,0.005,,,,,,SPECI,3.0
KOTH 280456Z AUTO 13012KT 10SM -RA OVC037 06/04 A2974 RMK AO2 RAE05B21 SLP070 P0000 T00610044,KOTH,2023-03-28T04:56:00Z,43.42,-124.25,6.1,4.4,130,12,,10.0,29.740158,1007.0,,TRUE,TRUE,,,,,,-RA,OVC,3700,,,,,,,VFR,,,,,,0.005,,,,,,SPECI,3.0
KOTH 280356Z 12008KT 10SM -RA OVC039 06/04 A2976 RMK AO2 SLP077 P0000 T00560044,KOTH,2023-03-28T03:56:00Z,43.42,-124.25,5.6,4.4,120,8,,10.0,29.760826,1007.7,,,TRUE,,,,,,-RA,OVC,3900,,,,,,,VFR,,,,,,0.005,,,,,,METAR,3.0
KOTH 280256Z 13008KT 10SM -RA OVC046 05/04 A2980 RMK AO2 SLP089 P0002 60012 T00500039 58046,KOTH,2023-03-28T02:56:00Z,43.42,-124.25,5.0,3.9,130,8,,10.0,29.799213,1008.9,,,TRUE,,,,,,-RA,OVC,4600,,,,,,,VFR,-4.6,,,,,0.02,0.12,,,,,METAR,3.0
KOTH 280156Z 11008KT 6SM -RA BR FEW026 OVC036 05/04 A2984 RMK AO2 SLP105 P0004 T00500039,KOTH,2023-03-28T01:56:00Z,43.42,-124.25,5.0,3.9,110,8,,6.0,29.840551,1010.5,,,TRUE,,,,,,-RA BR,FEW,2600,OVC,3600,,,,,VFR,,,,,,0.04,,,,,,METAR,3.0
KOTH 280056Z 12006KT 9SM -RA OVC029 05/03 A2989 RMK AO2 SLP122 P0006 T00500033,KOTH,2023-03-28T00:56:00Z,43.42,-124.25,5.0,3.3,120,6,,9.0,29.890747,1012.2,,,TRUE,,,,,,-RA,OVC,2900,,,,,,,MVFR,,,,,,0.06,,,,,,METAR,3.0
KOTH 272356Z 12009KT 6SM -RA BR SCT021 BKN025 OVC042 04/03 A2993 RMK AO2 SLP135 P0009 60013 T00440033 10078 20044 58046,KOTH,2023-03-27T23:56:00Z,43.42,-124.25,4.4,3.3,120,9,,6.0,29.929134,1013.5,,,TRUE,,,,,,-RA BR,SCT,2100,BKN,2500,OVC,4200,,,MVFR,-4.6,7.8,4.4,,,0.09,,0.13,,,,METAR,3.0
KOTH 272311Z 09006KT 6SM RA BR BKN021 OVC030 05/04 A2998 RMK AO2 P0002,KOTH,2023-03-27T23:11:00Z,43.42,-124.25,5.0,4.0,90,6,,6.0,29.97933,,,,TRUE,,,,,,RA BR,BKN,2100,OVC,3000,,,,,MVFR,,,,,,0.02,,,,,,SPECI,3.0
KOTH 272304Z 08006KT 6SM -RA BR SCT024 OVC030 06/04 A2998 RMK AO2 P0001,KOTH,2023-03-27T23:04:00Z,43.42,-124.25,6.0,4.0,80,6,,6.0,29.97933,,,,TRUE,,,,,,-RA BR,SCT,2400,OVC,3000,,,,,MVFR,,,,,,0.01,,,,,,SPECI,3.0
KOTH 272256Z 08008KT 10SM -RA BKN030 OVC035 06/04 A2999 RMK AO2 SLP154 P0002 T00560039,KOTH,2023-03-27T22:56:00Z,43.42,-124.25,5.6,3.9,80,8,,10.0,29.991142,1015.4,,,TRUE,,,,,,-RA,BKN,3000,OVC,3500,,,,,MVFR,,,,,,0.02,,,,,,METAR,3.0
KOTH 272215Z 10007KT 10SM -RA SCT021 OVC035 06/04 A3002 RMK AO2 P0001,KOTH,2023-03-27T22:15:00Z,43.42,-124.25,6.0,4.0,100,7,,10.0,30.02067,,,,TRUE,,,,,,-RA,SCT,2100,OVC,3500,,,,,VFR,,,,,,0.01,,,,,,METAR,3.0
KOTH 272156Z 10008KT 3SM -RA BR BKN023 OVC028 06/04 A3003 RMK AO2 SLP169 P0002 T00560039,KOTH,2023-03-27T21:56:00Z,43.42,-124.25,5.6,3.9,100,8,,3.0,30.029528,1016.9,,,TRUE,,,,,,-RA BR,BKN,2300,OVC,2800,,,,,MVFR,,,,,,0.02,,,,,,SPECI,3.0
KOTH 272125Z 14010KT 6SM -RA BKN027 OVC035 06/03 A3006 RMK AO2 P0000,KOTH,2023-03-27T21:25:00Z,43.42,-124.25,6.0,3.0,140,10,,6.0,30.059055,,,,TRUE,,,,,,-RA,BKN,2700,OVC,3500,,,,,MVFR,,,,,,0.005,,,,,,SPECI,3.0
KOTH 272056Z 15010KT 10SM -RA OVC040 07/02 A3007 RMK AO2 RAE10B43 SLP181 P0000 60000 T00720022 58029,KOTH,2023-03-27T20:56:00Z,43.42,-124.25,7.2,2.2,150,10,,10.0,30.070866,1018.1,,,TRUE,,,,,,-RA,OVC,4000,,,,,,,VFR,-2.9,,,,,0.005,0.005,,,,,METAR,3.0
KOTH 271956Z 15006KT 10SM -RA BKN036 OVC043 07/02 A3010 RMK AO2 RAB1859 SLP192 P0000 T00670017,KOTH,2023-03-27T19:56:00Z,43.42,-124.25,6.7,1.7,150,6,,10.0,30.100393,1019.2,,,TRUE,,,,,,-RA,BKN,3600,OVC,4300,,,,,VFR,,,,,,0.005,,,,,,METAR,3.0
KOTH 271856Z 00000KT 10SM BKN041 OVC050 07/02 A3013 RMK AO2 RAB10E44 SLP201 P0000 T00670022,KOTH,2023-03-27T18:56:00Z,43.42,-124.25,6.7,2.2,0,0,,10.0,30.129921,1020.1,,,TRUE,,,,,,,BKN,4100,OVC,5000,,,,,VFR,,,,,,0.005,,,,,,METAR,3.0
KOTH 271756Z 15009KT 10SM BKN055 OVC070 05/02 A3015 RMK AO2 SLP210 T00500022 10050 20017 56006,KOTH,2023-03-27T17:56:00Z,43.42,-124.25,5.0,2.2,150,9,,10.0,30.15059,1021.0,,,TRUE,,,,,,,BKN,5500,OVC,7000,,,,,VFR,-0.6,5.0,1.7,,,,,,,,,METAR,3.0
KOTH 271656Z 14006KT 10SM OVC095 04/02 A3015 RMK AO2 SLP210 T00440022,KOTH,2023-03-27T16:56:00Z,43.42,-124.25,4.4,2.2,140,6,,10.0,30.15059,1021.0,,,TRUE,,,,,,,OVC,9500,,,,,,,VFR,,,,,,,,,,,,METAR,3.0
KOTH 271556Z 15007KT 10SM OVC110 03/02 A3016 RMK AO2 SLP212 T00330017,KOTH,2023-03-27T15:56:00Z,43.42,-124.25,3.3,1.7,150,7,,10.0,30.159449,1021.2,,,TRUE,,,,,,,OVC,11000,,,,,,,VFR,,,,,,,,,,,,SPECI,3.0
KOTH 271456Z 15006KT 10SM CLR 03/02 A3017 RMK AO2 SLP216 T00280017 58016,KOTH,2023-03-27T14:56:00Z,43.42,-124.25,2.8,1.7,150,6,,10.0,30.171259,1021.6,,,TRUE,,,,,,,CLR,,,,,,,,VFR,-1.6,,,,,,,,,,,METAR,3.0
KOTH 271356Z 15006KT 10SM CLR 02/01 A3019 RMK AO2 SLP222 T00220011 FZRANO,KOTH,2023-03-27T13:56:00Z,43.42,-124.25,2.2,1.1,150,6,,10.0,30.188976,1022.2,,,TRUE,,,,TRUE,,,CLR,,,,,,,,VFR,,,,,,,,,,,,SPECI,3.0
KOTH 271256Z AUTO 15007KT 10SM CLR 02/01 A3020 RMK AO2 SLP227 T00220011 FZRANO,KOTH,2023-03-27T12:56:00Z,43.42,-124.25,2.2,1.1,150,7,,10.0,30.200787,1022.7,,TRUE,TRUE,,,,TRUE,,,CLR,,,,,,,,VFR,,,,,,,,,,,,METAR,3.0
KOTH 271156Z AUTO 15006KT 10SM CLR 02/01 A3022 RMK AO2 SLP232 T00220011 10033 20022 56023 FZRANO,KOTH,2023-03-27T11:56:00Z,43.42,-124.25,2.2,1.1,150,6,,10.0,30.221457,1023.2,,TRUE,TRUE,,,,TRUE,,,CLR,,,,,,,,VFR,-2.3,3.3,2.2,,,,,,,,,METAR,3.0
KOTH 271056Z AUTO 17004KT 10SM CLR 02/02 A3024 RMK AO2 SLP238 T00220017 FZRANO,KOTH,2023-03-27T10:56:00Z,43.42,-124.25,2.2,1.7,170,4,,10.0,30.239174,1023.8,,TRUE,TRUE,,,,TRUE,,,CLR,,,,,,,,VFR,,,,,,,,,,,,METAR,3.0
KOTH 270956Z AUTO 14006KT 10SM CLR 02/02 A3026 RMK AO2 SLP246 T00220017 FZRANO,KOTH,2023-03-27T09:56:00Z,43.42,-124.25,2.2,1.7,140,6,,10.0,30.259842,1024.6,,TRUE,TRUE,,,,TRUE,,,CLR,,,,,,,,VFR,,,,,,,,,,,,METAR,3.0
KOTH 270856Z AUTO 11006KT 10SM CLR 03/02 A3029 RMK AO2 SLP255 T00280022 58019,KOTH,2023-03-27T08:56:00Z,43.42,-124.25,2.8,2.2,110,6,,10.0,30.28937,1025.5,,TRUE,TRUE,,,,,,,CLR,,,,,,,,VFR,-1.9,,,,,,,,,,,METAR,3.0
KOTH 270756Z AUTO 16006KT 10SM CLR 02/02 A3031 RMK AO2 SLP264 T00220022 400890017 FZRANO,KOTH,2023-03-27T07:56:00Z,43.42,-124.25,2.2,2.2,160,6,,10.0,30.31004,1026.4,,TRUE,TRUE,,,,TRUE,,,CLR,,,,,,,,VFR,,,,8.9,1.7,,,,,,,METAR,3.0
KOTH 270656Z AUTO 13006KT 10SM CLR 03/02 A3032 RMK AO2 SLP267 T00280022,KOTH,2023-03-27T06:56:00Z,43.42,-124.25,2.8,2.2,130,6,,10.0,30.318897,1026.7,,TRUE,TRUE,,,,,,,CLR,,,,,,,,VFR,,,,,,,,,,,,METAR,3.0
KOTH 270556Z AUTO 11004KT 10SM CLR 03/03 A3034 RMK AO2 SLP274 T00330028 10083 20028 58003,KOTH,2023-03-27T05:56:00Z,43.42,-124.25,3.3,2.8,110,4,,10.0,30.339567,1027.4,,TRUE,TRUE,,,,,,,CLR,,,,,,,,VFR,-0.3,8.3,2.8,,,,,,,,,SPECI,3.0
KOTH 270456Z AUTO 15004KT 10SM CLR 03/03 A3035 RMK AO2 SLP277 T00330028,KOTH,2023-03-27T04:56:00Z,43.42,-124.25,3.3,2.8,150,4,,10.0,30.351377,1027.7,,TRUE,TRUE,,,,,,,CLR,,,,,,,,VFR,,,,,,,,,,,,METAR,3.0
KOTH 270356Z AUTO 13006KT 10SM CLR 04/03 A3035 RMK AO2 SLP277 T00440028,KOTH,2023-03-27T03:56:00Z,43.42,-124.25,4.4,2.8,130,6,,10.0,30.351377,1027.7,,TRUE,TRUE,,,,,,,CLR,,,,,,,,VFR,,,,,,,,,,,,METAR,3.0
KOTH 270256Z 00000KT 10SM CLR 06/02 A3035 RMK AO2 SLP277 T00610017 56011,KOTH,2023-03-27T02:56:00Z,43.42,-124.25,6.1,1.7,0,0,,10.0,30.351377,1027.7,,,TRUE,,,,,,,CLR,,,,,,,,VFR,-1.1,,,,,,,,,,,METAR,3.0
KOTH 270156Z 31006KT 10SM CLR 07/02 A3035 RMK AO2 SLP278 T00720017,KOTH,2023-03-27T01:56:00Z,43.42,-124.25,7.2,1.7,310,6,,10.0,30.351377,1027.8,,,TRUE,,,,,,,CLR,,,,,,,,VFR,,,,,,,,,,,,METAR,3.0
KOTH 270056Z VRB03KT 10SM CLR 08/02 A3036 RMK AO2 SLP280 T00830022,KOTH,2023-03-27T00:56:00Z,43.42,-124.25,8.3,2.2,0,3,,10.0,30.360237,1028.0,,,TRUE,,,,,,,CLR,,,,,,,,VFR,,,,,,,,,,,,METAR,3.0
KOTH 262356Z 29006KT 10SM SCT022 08/03 A3038 RMK AO2 SLP288 T00830033 10089 20067 57006,KOTH,2023-03-26T23:56:00Z,43.42,-124.25,8.3,3.3,290,6,,10.0,30.380905,1028.8,,,TRUE,,,,,,,SCT,2200,,,,,,,VFR,-0.6,8.9,6.7,,,,,,,,,SPECI,3.0
KOTH 262256Z 28009KT 10SM CLR 09/02 A3039 RMK AO2 SLP291 T00890017,KOTH,2023-03-26T22:56:00Z,43.42,-124.25,8.9,1.7,280,9,,10.0,30.389763,1029.1,,,TRUE,,,,,,,CLR,,,,,,,,VFR,,,,,,,,,,,,METAR,3.0
KOTH 262156Z 28009KT 10SM FEW050 08/03 A3039 RMK AO2 SLP291 T00830028,KOTH,2023-03-26T21:56:00Z,43.42,-124.25,8.3,2.8,280,9,,10.0,30.389763,1029.1,,,TRUE,,,,,,,FEW,5000,,,,,,,VFR,,,,,,,,,,,,METAR,3.0
KOTH 262056Z 28009KT 10SM CLR 09/02 A3040 RMK AO2 SLP294 T00890022 58008,KOTH,2023-03-26T20:56:00Z,43.42,-124.25,8.9,2.2,280,9,,10.0,30.398623,1029.4,,,TRUE,,,,,,,CLR,,,,,,,,VFR,-0.8,,,,,,,,,,,METAR,3.0
KOTH 261956Z 27007KT 10SM BKN055 08/02 A3041 RMK AO2 SLP297 T00830022,KOTH,2023-03-26T19:56:00Z,43.42,-124.25,8.3,2.2,270,7,,10.0,30.410433,1029.7,,,TRUE,,,,,,,BKN,5500,,,,,,,VFR,,,,,,,,,,,,METAR,3.0
KOTH 261856Z 30006KT 10SM FEW024 BKN035 OVC050 07/02 A3042 RMK AO2 SLP301 T00670022,KOTH,2023-03-26T18:56:00Z,43.42,-124.25,6.7,2.2,300,6,,10.0,30.41929,1030.1,,,TRUE,,,,,,,FEW,2400,BKN,3500,OVC,5000,,,VFR,,,,,,,,,,,,METAR,3.0
KOTH 261756Z VRB03KT 10SM FEW019 OVC060 07/03 A3043 RMK AO2 SLP302 T00720033 10072 20017 53005,KOTH,2023-03-26T17:56:00Z,43.42,-124.25,7.2,3.3,0,3,,10.0,30.431103,1030.2,,,TRUE,,,,,,,FEW,1900,OVC,6000,,,,,VFR,0.5,7.2,1.7,,,,,,,,,METAR,3.0
KOTH 261656Z 14007KT 10SM CLR 05/03 A3042 RMK AO2 SLP299 T00500028,KOTH,2023-03-26T16:56:00Z,43.42,-124.25,5.0,2.8,140,7,,10.0,30.41929,1029.9,,,TRUE,,,,,,,CLR,,,,,,,,VFR,,,,,,,,,,,,METAR,3.0
KOTH 261556Z 15009KT 10SM FEW050 03/02 A3041 RMK AO2 SLP298 T00330022,KOTH,2023-03-26T15:56:00Z,43.42,-124.25,3.3,2.2,150,9,,10.0,30.410433,1029.8,,,TRUE,,,,,,,FEW,5000,,,,,,,VFR,,,,,,,,,,,,METAR,3.0
KOTH 261456Z 14008KT 10SM FEW050 BKN060 02/01 A3041 RMK AO2 SLP297 T00170011 53001,KOTH,2023-03-26T14:56:00Z,43.42,-124.25,1.7,1.1,140,8,,10.0,30.410433,1029.7,,,TRUE,,,,,,,FEW,5000,BKN,6000,,,,,VFR,0.1,,,,,,,,,,,METAR,3.0
KOTH 261356Z 14008KT 10SM FEW004 OVC055 02/02 A3040 RMK AO2 SLP295 T00170017 FZRANO,KOTH,2023-03-26T13:56:00Z,43.42,-124.25,1.7,1.7,140,8,,10.0,30.398623,1029.5,,,TRUE,,,,TRUE,,,FEW,400,OVC,5500,,,,,VFR,,,,,,,,,,,,METAR,3.0
KOTH 261328Z AUTO 15007KT 10SM SCT003 OVC055 02/02 A3041 RMK AO2 FZRANO,KOTH,2023-03-26T13:28:00Z,43.42,-124.25,2.0,2.0,150,7,,10.0,30.410433,,,TRUE,TRUE,,,,TRUE,,,SCT,300,OVC,5500,,,,,VFR,,,,,,,,,,,,SPECI,3.0
KOTH 261256Z AUTO 14006KT 10SM OVC003 02/02 A3041 RMK AO2 SLP296 T00170017 FZRANO,KOTH,2023-03-26T12:56:00Z,43.42,-124.25,1.7,1.7,140,6,,10.0,30.410433,1029.6,,TRUE,TRUE,,,,TRUE,,,OVC,300,,,,,,,LIFR,,,,,,,,,,,,METAR,3.0
KOTH 261156Z AUTO 11005KT 10SM BKN003 OVC039 02/02 A3041 RMK AO2 RAB24E33UPB33E39 SLP296 P0000 60004 70009 T00220017 10033 20017 50001 FZRANO,KOTH,2023-03-26T11:56:00Z,43.42,-124.25,2.2,1.7,110,5,,10.0,30.410433,1029.6,,TRUE,TRUE,,,,TRUE,,,BKN,300,OVC,3900,,,,,LIFR,0.1,3.3,1.7,,,0.005,,0.04,0.09,,,METAR,3.0
KOTH 261141Z AUTO 13005KT 10SM BKN003 BKN009 OVC060 02/02 A3041 RMK AO2 RAB24E33UPB33E39 P0000 FZRANO,KOTH,2023-03-26T11:41:00Z,43.42,-124.25,2.0,2.0,130,5,,10.0,30.410433,,,TRUE,TRUE,,,,TRUE,,,BKN,300,BKN,900,OVC,6000,,,LIFR,,,,,,0.005,,,,,,SPECI,3.0
KOTH 261056Z AUTO 15006KT 10SM FEW004 BKN035 OVC042 02/02 A3041 RMK AO2 RAE37 SLP297 P0002 T00220017 FZRANO,KOTH,2023-03-26T10:56:00Z,43.42,-124.25,2.2,1.7,150,6,,10.0,30.410433,1029.7,,TRUE,TRUE,,,,TRUE,,,FEW,400,BKN,3500,OVC,4200,,,VFR,,,,,,0.02,,,,,,SPECI,3.0
KOTH 261022Z AUTO 15006KT 10SM SCT004 BKN032 OVC040 02/02 A3041 RMK AO2 RAE20 P0002 FZRANO,KOTH,2023-03-26T10:22:00Z,43.42,-124.25,2.0,2.0,150,6,,10.0,30.410433,,,TRUE,TRUE,,,,TRUE,,,SCT,400,BKN,3200,OVC,4000,,,VFR,,,,,,0.02,,,,,,SPECI,3.0
KOTH 260956Z AUTO 15004KT 10SM -RA BKN004 BKN009 OVC036 02/02 A3041 RMK AO2 RAB28 SLP297 P0000 T00220022 FZRANO,KOTH,2023-03-26T09:56:00Z,43.42,-124.25,2.2,2.2,150,4,,10.0,30.410433,1029.7,,TRUE,TRUE,,,,TRUE,,-RA,BKN,400,BKN,900,OVC,3600,,,LIFR,,,,,,0.005,,,,,,METAR,3.0
KOTH 260948Z AUTO 12004KT 10SM -RA BKN004 OVC034 03/02 A3041 RMK AO2 RAB28 P0000,KOTH,2023-03-26T09:48:00Z,43.42,-124.25,3.0,2.0,120,4,,10.0,30.410433,,,TRUE,TRUE,,,,,,-RA,BKN,400,OVC,3400,,,,,LIFR,,,,,,0.005,,,,,,METAR,3.0
KOTH 260929Z AUTO 14006KT 10SM -RA SCT004 OVC034 02/02 A3041 RMK AO2 RAB28 P0000 FZRANO,KOTH,2023-03-26T09:29:00Z,43.42,-124.25,2.0,2.0,140,6,,10.0,30.410433,,,TRUE,TRUE,,,,TRUE,,-RA,SCT,400,OVC,3400,,,,,VFR,,,,,,0.005,,,,,,METAR,3.0
KOTH 260920Z AUTO 14008KT 10SM BKN004 OVC036 02/02 A3041 RMK AO2 FZRANO,KOTH,2023-03-26T09:20:00Z,43.42,-124.25,2.0,2.0,140,8,,10.0,30.410433,,,TRUE,TRUE,,,,TRUE,,,BKN,400,OVC,3600,,,,,LIFR,,,,,,,,,,,,SPECI,3.0
KOTH 260856Z AUTO 14008KT 10SM SCT004 BKN036 02/02 A3041 RMK AO2 SLP295 60002 T00220022 53001 FZRANO,KOTH,2023-03-26T08:56:00Z,43.42,-124.25,2.2,2.2,140,8,,10.0,30.410433,1029.5,,TRUE,TRUE,,,,TRUE,,,SCT,400,BKN,3600,,,,,VFR,0.1,,,,,,0.02,,,,,METAR,3.0
KOTH 260841Z AUTO 14009KT 10SM SCT004 02/02 A3040 RMK AO2 FZRANO,KOTH,2023-03-26T08:41:00Z,43.42,-124.25,2.0,2.0,140,9,,10.0,30.398623,,,TRUE,TRUE,,,,TRUE,,,SCT,400,,,,,,,VFR,,,,,,,,,,,,SPECI,3.0
KOTH 260756Z AUTO 15005KT 10SM FEW025 SCT047 OVC060 03/02 A3040 RMK AO2 RAB19E53UPB30E33 SLP295 P0002 T00280017 400830022,KOTH,2023-03-26T07:56:00Z,43.42,-124.25,2.8,1.7,150,5,,10.0,30.398623,1029.5,,TRUE,TRUE,,,,,,,FEW,2500,SCT,4700,OVC,6000,,,VFR,,,,8.3,2.2,0.02,,,,,,METAR,3.0
KOTH 260748Z AUTO 16003KT 10SM -RA FEW014 BKN047 OVC055 03/02 A3041 RMK AO2 RAB19UPB30E33 P0002,KOTH,2023-03-26T07:48:00Z,43.42,-124.25,3.0,2.0,160,3,,10.0,30.410433,,,TRUE,TRUE,,,,,,-RA,FEW,1400,BKN,4700,OVC,5500,,,VFR,,,,,,0.02,,,,,,SPECI,3.0
KOTH 260728Z AUTO 00000KT 7SM -RA FEW006 SCT019 BKN026 03/02 A3041 RMK AO2 RAB19 P0002,KOTH,2023-03-26T07:28:00Z,43.42,-124.25,3.0,2.0,0,0,,7.0,30.410433,,,TRUE,TRUE,,,,,,-RA,FEW,600,SCT,1900,BKN,2600,,,MVFR,,,,,,0.02,,,,,,SPECI,3.0
KOTH 260656Z AUTO 14007KT 10SM FEW006 SCT034 BKN043 02/02 A3040 RMK AO2 SLP295 T00220017 FZRANO,KOTH,2023-03-26T06:56:00Z,43.42,-124.25,2.2,1.7,140,7,,10.0,30.398623,1029.5,,TRUE,TRUE,,,,TRUE,,,FEW,600,SCT,3400,BKN,4300,,,VFR,,,,,,,,,,,,METAR,3.0
KOTH 260623Z AUTO 12004KT 10SM FEW006 03/02 A3041 RMK AO2,KOTH,2023-03-26T06:23:00Z,43.42,-124.25,3.0,2.0,120,4,,10.0,30.410433,,,TRUE,TRUE,,,,,,,FEW,600,,,,,,,VFR,,,,,,,,,,,,SPECI,3.0
KOTH 260608Z AUTO 15006KT 10SM FEW022 03/02 A3040 RMK AO2,KOTH,2023-03-26T06:08:00Z,43.42,-124.25,3.0,2.0,150,6,,10.0,30.398623,,,TRUE,TRUE,,,,,,,FEW,2200,,,,,,,VFR,,,,,,,,,,,,SPECI,3.0
KOTH 260556Z AUTO 15006KT 10SM FEW007 BKN025 03/02 A3040 RMK AO2 RAE38 SLP295 P0000 60000 T00280022 10078 20028 53009,KOTH,2023-03-26T05:56:00Z,43.42,-124.25,2.8,2.2,150,6,,10.0,30.398623,1029.5,,TRUE,TRUE,,,,,,,FEW,700,BKN,2500,,,,,MVFR,0.9,7.8,2.8,,,0.005,,0.005,,,,METAR,3.0
KOTH 260456Z AUTO 09005KT 10SM -RA FEW012 BKN024 OVC029 04/03 A3039 RMK AO2 RAB17E29B55 SLP292 P0000 T00390028,KOTH,2023-03-26T04:56:00Z,43.42,-124.25,3.9,2.8,90,5,,10.0,30.389763,1029.2,,TRUE,TRUE,,,,,,-RA,FEW,1200,BKN,2400,OVC,2900,,,MVFR,,,,,,0.005,,,,,,METAR,3.0
KOTH 260439Z AUTO 06008KT 10SM FEW010 BKN029 OVC038 04/03 A3039 RMK AO2 RAB17E29 P0000,KOTH,2023-03-26T04:39:00Z,43.42,-124.25,4.0,3.0,60,8,,10.0,30.389763,,,TRUE,TRUE,,,,,,,FEW,1000,BKN,2900,OVC,3800,,,MVFR,,,,,,0.005,,,,,,METAR,3.0
KOTH 260356Z AUTO 29003KT 10SM FEW024 SCT042 BKN050 05/02 A3038 RMK AO2 RAB08E20 SLP285 P0000 T00500017,KOTH,2023-03-26T03:56:00Z,43.42,-124.25,5.0,1.7,290,3,,10.0,30.380905,1028.5,,TRUE,TRUE,,,,,,,FEW,2400,SCT,4200,BKN,5000,,,VFR,,,,,,0.005,,,,,,METAR,3.0
KOTH 260347Z 30004KT 10SM SCT024 OVC050 06/02 A3038 RMK AO2 RAB08E20 P0000,KOTH,2023-03-26T03:47:00Z,43.42,-124.25,6.0,2.0,300,4,,10.0,30.380905,,,,TRUE,,,,,,,SCT,2400,OVC,5000,,,,,VFR,,,,,,0.005,,,,,,SPECI,3.0
KOTH 260315Z 28009KT 10SM -RA BKN020 OVC033 06/03 A3038 RMK AO2 RAB08 P0000,KOTH,2023-03-26T03:15:00Z,43.42,-124.25,6.0,3.0,280,9,,10.0,30.380905,,,,TRUE,,,,,,-RA,BKN,2000,OVC,3300,,,,,MVFR,,,,,,0.005,,,,,,METAR,3.0
KOTH 260256Z 26004KT 10SM BKN035 06/02 A3038 RMK AO2 SLP286 60000 T00560017 53002,KOTH,2023-03-26T02:56:00Z,43.42,-124.25,5.6,1.7,260,4,,10.0,30.380905,1028.6,,,TRUE,,,,,,,BKN,3500,,,,,,,VFR,0.2,,,,,,,,,,,SPECI,3.0
KOTH 260156Z 27005KT 10SM FEW034 OVC060 06/02 A3037 RMK AO2 RAE00 SLP284 P0000 T00560017,KOTH,2023-03-26T01:56:00Z,43.42,-124.25,5.6,1.7,270,5,,10.0,30.369095,1028.4,,,TRUE,,,,,,,FEW,3400,OVC,6000,,,,,VFR,,,,,,0.005,,,,,,METAR,3.0
KOTH 260056Z 32005KT 10SM -RA FEW023 SCT032 BKN046 06/02 A3037 RMK AO2 RAB30 SLP284 P0000 T00610022,KOTH,2023-03-26T00:56:00Z,43.42,-124.25,6.1,2.2,320,5,,10.0,30.369095,1028.4,,,TRUE,,,,,,-RA,FEW,2300,SCT,3200,BKN,4600,,,VFR,,,,,,0.005,,,,,,METAR,3.0
KOTH 252356Z 34007KT 10SM FEW023 08/02 A3037 RMK AO2 SLP284 60000 T00780017 10083 20039 57010,KOTH,2023-03-25T23:56:00Z,43.42,-124.25,7.8,1.7,340,7,,10.0,30.369095,1028.4,,,TRUE,,,,,,,FEW,2300,,,,,,,VFR,-1.0,8.3,3.9,,,,,0.005,,,,METAR,3.0
KOTH 252306Z 02015KT 10SM FEW018 SCT022 BKN110 07/03 A3038 RMK AO2,KOTH,2023-03-25T23:06:00Z,43.42,-124.25,7.0,3.0,20,15,,10.0,30.380905,,,,TRUE,,,,,,,FEW,1800,SCT,2200,BKN,11000,,,VFR,,,,,,,,,,,,SPECI,3.0
KOTH 252256Z 36014KT 10SM SCT020 BKN027 BKN036 07/03 A3038 RMK AO2 SLP288 T00670028,KOTH,2023-03-25T22:56:00Z,43.42,-124.25,6.7,2.8,360,14,,10.0,30.380905,1028.8,,,TRUE,,,,,,,SCT,2000,BKN,2700,BKN,3600,,,MVFR,,,,,,,,,,,,SPECI,3.0
KOTH 252237Z 32016G21KT 10SM FEW022 BKN029 OVC041 08/03 A3038 RMK AO2,KOTH,2023-03-25T22:37:00Z,43.42,-124.25,8.0,3.0,320,16,21,10.0,30.380905,,,,TRUE,,,,,,,FEW,2200,BKN,2900,OVC,4100,,,MVFR,,,,,,,,,,,,SPECI,3.0
KOTH 252156Z 32008KT 10SM FEW024 SCT030 OVC046 07/03 A3039 RMK AO2 SLP291 T00720028,KOTH,2023-03-25T21:56:00Z,43.42,-124.25,7.2,2.8,320,8,,10.0,30.389763,1029.1,,,TRUE,,,,,,,FEW,2400,SCT,3000,OVC,4600,,,VFR,,,,,,,,,,,,METAR,3.0
KOTH 252148Z 34007KT 10SM SCT024 BKN030 OVC050 07/03 A3039 RMK AO2,KOTH,2023-03-25T21:48:00Z,43.42,-124.25,7.0,3.0,340,7,,10.0,30.389763,,,,TRUE,,,,,,,SCT,2400,BKN,3000,OVC,5000,,,MVFR,,,,,,,,,,,,SPECI,3.0
KOTH 252138Z 32007KT 10SM BKN024 BKN031 OVC041 07/03 A3040 RMK AO2,KOTH,2023-03-25T21:38:00Z,43.42,-124.25,7.0,3.0,320,7,,10.0,30.398623,,,,TRUE,,,,,,,BKN,2400,BKN,3100,OVC,4100,,,MVFR,,,,,,,,,,,,SPECI,3.0
KOTH 252056Z 27012KT 10SM FEW043 07/03 A3040 RMK AO2 RAB18E33 SLP294 P0000 60000 T00720028 58008,KOTH,2023-03-25T20:56:00Z,43.42,-124.25,7.2,2.8,270,12,,10.0,30.398623,1029.4,,,TRUE,,,,,,,FEW,4300,,,,,,,VFR,-0.8,,,,,0.005,0.005,,,,,METAR,3.0
KOTH 251956Z 29009KT 10SM SCT026 BKN055 BKN100 07/01 A3042 RMK AO2 SLP299 T00670011,KOTH,2023-03-25T19:56:00Z,43.42,-124.25,6.7,1.1,290,9,,10.0,30.41929,1029.9,,,TRUE,,,,,,,SCT,2600,BKN,5500,BKN,10000,,,VFR,,,,,,,,,,,,METAR,3.0
KOTH 251942Z 31012G18KT 10SM BKN024 BKN032 07/03 A3042 RMK AO2,KOTH,2023-03-25T19:42:00Z,43.42,-124.25,7.0,3.0,310,12,18,10.0,30.41929,,,,TRUE,,,,,,,BKN,2400,BKN,3200,,,,,MVFR,,,,,,,,,,,,SPECI,3.0
KOTH 251856Z 30007KT 10SM CLR 07/03 A3043 RMK AO2 RAE24 SLP302 P0000 T00720033,KOTH,2023-03-25T18:56:00Z,43.42,-124.25,7.2,3.3,300,7,,10.0,30.431103,1030.2,,,TRUE,,,,,,,CLR,,,,,,,,VFR,,,,,,0.005,,,,,,METAR,3.0
KOTH 251814Z 28004KT 10SM -RA FEW017 BKN038 BKN045 05/03 A3042 RMK AO2 P0000,KOTH,2023-03-25T18:14:00Z,43.42,-124.25,5.0,3.0,280,4,,10.0,30.41929,,,,TRUE,,,,,,-RA,FEW,1700,BKN,3800,BKN,4500,,,VFR,,,,,,0.005,,,,,,SPECI,3.0
KOTH 251756Z 29007KT 4SM -RA BR BKN019 OVC024 04/02 A3043 RMK AO2 SLP302 P0005 60005 T00390022 10067 20039 53008,KOTH,2023-03-25T17:56:00Z,43.42,-124.25,3.9,2.2,290,7,,4.0,30.431103,1030.2,,,TRUE,,,,,,-RA BR,BKN,1900,OVC,2400,,,,,MVFR,0.8,6.7,3.9,,,0.05,,0.05,,,,METAR,3.0
KOTH 251724Z 35004KT 10SM -RA BKN022 BKN028 OVC038 06/03 A3042 RMK AO2 P0000,KOTH,2023-03-25T17:24:00Z,43.42,-124.25,6.0,3.0,350,4,,10.0,30.41929,,,,TRUE,,,,,,-RA,BKN,2200,BKN,2800,OVC,3800,,,MVFR,,,,,,0.005,,,,,,SPECI,3.0
KOTH 251656Z 30003KT 10SM -RA FEW019 BKN033 OVC049 06/02 A3042 RMK AO2 RAB31 SLP299 P0000 T00610022,KOTH,2023-03-25T16:56:00Z,43.42,-124.25,6.1,2.2,300,3,,10.0,30.41929,1029.9,,,TRUE,,,,,,-RA,FEW,1900,BKN,3300,OVC,4900,,,VFR,,,,,,0.005,,,,,,SPECI,3.0
KOTH 251556Z VRB04KT 10SM SCT030 SCT047 07/03 A3041 RMK AO2 SLP296 T00670028,KOTH,2023-03-25T15:56:00Z,43.42,-124.25,6.7,2.8,0,4,,10.0,30.410433,1029.6,,,TRUE,,,,,,,SCT,3000,SCT,4700,,,,,VFR,,,,,,,,,,,,METAR,3.0
KOTH 251456Z 29007KT 10SM SCT060 06/02 A3040 RMK AO2 RAB02E14 SLP295 P0000 60000 T00560022 53000,KOTH,2023-03-25T14:56:00Z,43.42,-124.25,5.6,2.2,290,7,,10.0,30.398623,1029.5,,,TRUE,,,,,,,SCT,6000,,,,,,,VFR,0.0,,,,,0.005,0.005,,,,,METAR,3.0
KOTH 251356Z 32007KT 10SM SCT050 SCT065 BKN090 06/02 A3040 RMK AO2 SLP293 T00610017,KOTH,2023-03-25T13:56:00Z,43.42,-124.25,6.1,1.7,320,7,,10.0,30.398623,1029.3,,,TRUE,,,,,,,SCT,5000,SCT,6500,BKN,9000,,,VFR,,,,,,,,,,,,METAR,3.0
KOTH 251256Z AUTO 32009KT 10SM FEW030 SCT039 06/02 A3040 RMK AO2 SLP294 T00610017,KOTH,2023-03-25T12:56:00Z,43.42,-124.25,6.1,1.7,320,9,,10.0,30.398623,1029.4,,TRUE,TRUE,,,,,,,FEW,3000,SCT,3900,,,,,VFR,,,,,,,,,,,,METAR,3.0
KOTH 251156Z AUTO 32013G17KT 10SM SCT032 SCT039 BKN046 06/02 A3040 RMK AO2 RAE1058 SLP294 P0000 60006 7//// T00610017 10067 20044 56004,KOTH,2023-03-25T11:56:00Z,43.42,-124.25,6.1,1.7,320,13,17,10.0,30.398623,1029.4,,TRUE,TRUE,,,,,,,SCT,3200,SCT,3900,BKN,4600,,,VFR,-0.4,6.7,4.4,,,0.005,,0.06,,,,METAR,3.0
KOTH 251056Z AUTO 31012G19KT 10SM -RA FEW029 SCT038 OVC060 06/02 A3041 RMK AO2 RAB0959E10B48 SLP296 P0000 T00610022,KOTH,2023-03-25T10:56:00Z,43.42,-124.25,6.1,2.2,310,12,19,10.0,30.410433,1029.6,,TRUE,TRUE,,,,,,-RA,FEW,2900,SCT,3800,OVC,6000,,,VFR,,,,,,0.005,,,,,,METAR,3.0
KOTH 250956Z AUTO 29010G18KT 10SM FEW020 SCT043 OVC050 06/02 A3041 RMK AO2 RAB00E34 SLP296 P0002 T00610022,KOTH,2023-03-25T09:56:00Z,43.42,-124.25,6.1,2.2,290,10,18,10.0,30.410433,1029.6,,TRUE,TRUE,,,,,,,FEW,2000,SCT,4300,OVC,5000,,,VFR,,,,,,0.02,,,,,,SPECI,3.0
KOTH 250948Z AUTO 28015KT 10SM FEW020 BKN041 OVC048 06/02 A3041 RMK AO2 RAB00E34 P0002,KOTH,2023-03-25T09:48:00Z,43.42,-124.25,6.0,2.0,280,15,,10.0,30.410433,,,TRUE,TRUE,,,,,,,FEW,2000,BKN,4100,OVC,4800,,,VFR,,,,,,0.02,,,,,,SPECI,3.0
KOTH 250856Z AUTO 26012KT 10SM BKN020 OVC055 06/04 A3041 RMK AO2 RAB04E17 SLP299 P0000 60004 T00610039 55006,KOTH,2023-03-25T08:56:00Z,43.42,-124.25,6.1,3.9,260,12,,10.0,30.410433,1029.9,,TRUE,TRUE,,,,,,,BKN,2000,OVC,5500,,,,,MVFR,-0.6,,,,,0.005,0.04,,,,,METAR,3.0
KOTH 250851Z AUTO 24008KT 10SM BKN020 BKN060 OVC075 06/04 A3041 RMK AO2 RAB04E17 P0000,KOTH,2023-03-25T08:51:00Z,43.42,-124.25,6.0,4.0,240,8,,10.0,30.410433,,,TRUE,TRUE,,,,,,,BKN,2000,BKN,6000,OVC,7500,,,MVFR,,,,,,0.005,,,,,,METAR,3.0
KOTH 250756Z AUTO 29008KT 10SM SCT020 OVC041 06/04 A3043 RMK AO2 RAB19E48 SLP304 P0001 T00560039 400940044,KOTH,2023-03-25T07:56:00Z,43.42,-124.25,5.6,3.9,290,8,,10.0,30.431103,1030.4,,TRUE,TRUE,,,,,,,SCT,2000,OVC,4100,,,,,VFR,,,,9.4,4.4,0.01,,,,,,METAR,3.0
KOTH 250751Z AUTO 28008KT 10SM SCT020 BKN037 OVC046 06/04 A3043 RMK AO2 RAB19E48 P0001 400940044,KOTH,2023-03-25T07:51:00Z,43.42,-124.25,6.0,4.0,280,8,,10.0,30.431103,,,TRUE,TRUE,,,,,,,SCT,2000,BKN,3700,OVC,4600,,,VFR,,,,9.4,4.4,0.01,,,,,,SPECI,3.0
KOTH 250735Z AUTO 28014G24KT 5SM -RA BR BKN020 OVC035 05/03 A3044 RMK AO2 RAB19 CIG 014V028 P0001,KOTH,2023-03-25T07:35:00Z,43.42,-124.25,5.0,3.0,280,14,24,5.0,30.43996,,,TRUE,TRUE,,,,,,-RA BR,BKN,2000,OVC,3500,,,,,MVFR,,,,,,0.01,,,,,,METAR,3.0
KOTH 250656Z AUTO 25011KT 10SM FEW027 BKN044 OVC060 06/04 A3044 RMK AO2 PK WND 27027/0623 RAB23E45 SLP306 P0003 T00610039,KOTH,2023-03-25T06:56:00Z,43.42,-124.25,6.1,3.9,250,11,,10.0,30.43996,1030.6,,TRUE,TRUE,,,,,,,FEW,2700,BKN,4400,OVC,6000,,,VFR,,,,,,0.03,,,,,,METAR,3.0
KOTH 250556Z AUTO 27006KT 10SM FEW033 BKN055 OVC085 07/02 A3045 RMK AO2 SLP311 60001 T00670022 10089 20050 50003,KOTH,2023-03-25T05:56:00Z,43.42,-124.25,6.7,2.2,270,6,,10.0,30.448818,1031.1,,TRUE,TRUE,,,,,,,FEW,3300,BKN,5500,OVC,8500,,,VFR,0.3,8.9,5.0,,,,,0.01,,,,METAR,3.0
KOTH 250456Z AUTO 26007KT 10SM FEW035 BKN045 BKN050 07/02 A3046 RMK AO2 SLP314 T00670017,KOTH,2023-03-25T04:56:00Z,43.42,-124.25,6.7,1.7,260,7,,10.0,30.46063,1031.4,,TRUE,TRUE,,,,,,,FEW,3500,BKN,4500,BKN,5000,,,VFR,,,,,,,,,,,,METAR,3.0
KOTH 250356Z 28007KT 10SM FEW034 07/02 A3046 RMK AO2 SLP313 T00670017,KOTH,2023-03-25T03:56:00Z,43.42,-124.25,6.7,1.7,280,7,,10.0,30.46063,1031.3,,,TRUE,,,,,,,FEW,3400,,,,,,,VFR,,,,,,,,,,,,METAR,3.0
KOTH 250256Z 26013KT 10SM FEW031 SCT041 SCT055 06/02 A3044 RMK AO2 RAE55 SLP309 P0001 60001 T00610022 55001,KOTH,2023-03-25T02:56:00Z,43.42,-124.25,6.1,2.2,260,13,,10.0,30.43996,1030.9,,,TRUE,,,,,,,FEW,3100,SCT,4100,SCT,5500,,,VFR,-0.1,,,,,0.01,0.01,,,,,METAR,3.0
KOTH 250156Z 32010KT 10SM -RA BKN039 BKN048 OVC075 07/01 A3044 RMK AO2 RAB48 SLP307 P0000 T00670006,KOTH,2023-03-25T01:56:00Z,43.42,-124.25,6.7,0.6,320,10,,10.0,30.43996,1030.7,,,TRUE,,,,,,-RA,BKN,3900,BKN,4800,OVC,7500,,,VFR,,,,,,0.005,,,,,,METAR,3.0
KOTH 250056Z 27015KT 10SM FEW027 BKN032 08/02 A3044 RMK AO2 SLPNO T00830017,KOTH,2023-03-25T00:56:00Z,43.42,-124.25,8.3,1.7,270,15,,10.0,30.43996,,,,TRUE,,,,,,,FEW,2700,BKN,3200,,,,,VFR,,,,,,,,,,,,METAR,3.0
KOTH 250003Z 27013KT 10SM FEW027 SCT032 08/03 A3044 RMK AO2,KOTH,2023-03-25T00:03:00Z,43.42,-124.25,8.0,3.0,270,13,,10.0,30.43996,,,,TRUE,,,,,,,FEW,2700,SCT,3200,,,,,VFR,,,,,,,,,,,,SPECI,3.0
KOTH 242356Z 26012KT 10SM BKN027 BKN034 08/03 A3045 RMK AO2 RAB22E44 SLPNO P0000 60001 T00780033 10094 20056 50000,KOTH,2023-03-24T23:56:00Z,43.42,-124.25,7.8,3.3,260,12,,10.0,30.448818,,,,TRUE,,,,,,,BKN,2700,BKN,3400,,,,,MVFR,0.0,9.4,5.6,,,0.005,,0.01,,,,METAR,3.0
KOTH 242352Z 26010KT 10SM BKN027 BKN035 08/03 A3045 RMK AO2 RAB22E44 P0000,KOTH,2023-03-24T23:52:00Z,43.42,-124.25,8.0,3.0,260,10,,10.0,30.448818,,,,TRUE,,,,,,,BKN,2700,BKN,3500,,,,,MVFR,,,,,,0.005,,,,,,SPECI,3.0
KOTH 242256Z 26009KT 10SM FEW037 SCT050 OVC060 07/03 A3045 RMK AO2 RAE12B40E55 SLPNO P0000 T00720028,KOTH,2023-03-24T22:56:00Z,43.42,-124.25,7.2,2.8,260,9,,10.0,30.448818,,,,TRUE,,,,,,,FEW,3700,SCT,5000,OVC,6000,,,VFR,,,,,,0.005,,,,,,METAR,3.0
KOTH 242156Z 27017KT 10SM -RA FEW027 BKN033 OVC042 07/03 A3045 RMK AO2 WSHFT 2115 RAB35 SLPNO P0000 T00670033,KOTH,2023-03-24T21:56:00Z,43.42,-124.25,6.7,3.3,270,17,,10.0,30.448818,,,,TRUE,,,,,,-RA,FEW,2700,BKN,3300,OVC,4200,,,VFR,,,,,,0.005,,,,,,METAR,3.0
KOTH 242135Z 32009KT 10SM -RA BKN035 BKN050 07/01 A3045 RMK AO2 WSHFT 2115 RAB35 P0000,KOTH,2023-03-24T21:35:00Z,43.42,-124.25,7.0,1.0,320,9,,10.0,30.448818,,,,TRUE,,,,,,-RA,BKN,3500,BKN,5000,,,,,VFR,,,,,,0.005,,,,,,SPECI,3.0
KOTH 242056Z COR 29012G19KT 10SM SCT035 09/02 A3043 RMK AO2 SLPNO 60001 T00890022 50008,KOTH,2023-03-24T20:56:00Z,43.42,-124.25,8.9,2.2,290,12,19,10.0,30.431103,,TRUE,,TRUE,,,,,,,SCT,3500,,,,,,,VFR,0.8,,,,,,,,,,,SPECI,3.0
KOTH 241956Z 26009KT 10SM SCT024 BKN065 OVC100 06/02 A3044 RMK AO2 PK WND 29032/1933 RAB38E53 SLPNO P0001 T00610022,KOTH,2023-03-24T19:56:00Z,43.42,-124.25,6.1,2.2,260,9,,10.0,30.43996,,,,TRUE,,,,,,,SCT,2400,BKN,6500,OVC,10000,,,VFR,,,,,,0.01,,,,,,SPECI,3.0
KOTH 241856Z 27010KT 10SM FEW047 BKN060 OVC100 07/02 A3043 RMK AO2 PK WND 28028/1822 RAB33E42 SLPNO P0000 T00720017,KOTH,2023-03-24T18:56:00Z,43.42,-124.25,7.2,1.7,270,10,,10.0,30.431103,,,,TRUE,,,,,,,FEW,4700,BKN,6000,OVC,10000,,,VFR,,,,,,0.005,,,,,,METAR,3.0
KOTH 241756Z 26014KT 10SM FEW039 SCT075 BKN100 08/02 A3041 RMK AO2 SLPNO 6//// T00780017 51017,KOTH,2023-03-24T17:56:00Z,43.42,-124.25,7.8,1.7,260,14,,10.0,30.410433,,,,TRUE,,,,,,,FEW,3900,SCT,7500,BKN,10000,,,VFR,1.7,,,,,,,,,,,METAR,3.0
KOTH 241656Z 29010G16KT 10SM FEW024 BKN050 OVC090 07/02 A3040 RMK AO2 RAB1558E12 SLPNO P0000 T00670022,KOTH,2023-03-24T16:56:00Z,43.42,-124.25,6.7,2.2,290,10,16,10.0,30.398623,,,,TRUE,,,,,,,FEW,2400,BKN,5000,OVC,9000,,,VFR,,,,,,0.005,,,,,,METAR,3.0
KOTH 241556Z 29020G26KT 10SM FEW035 BKN070 OVC110 06/02 A3038 RMK AO2 PK WND 31028/1541 SLPNO T00610017,KOTH,2023-03-24T15:56:00Z,43.42,-124.25,6.1,1.7,290,20,26,10.0,30.380905,,,,TRUE,,,,,,,FEW,3500,BKN,7000,OVC,11000,,,VFR,,,,,,,,,,,,SPECI,3.0
KOTH 241456Z 29012KT 10SM FEW024 BKN070 OVC095 07/02 A3036 RMK AO2 RAE06 SLPNO P0000 6//// T00670022,KOTH,2023-03-24T14:56:00Z,43.42,-124.25,6.7,2.2,290,12,,10.0,30.360237,,,,TRUE,,,,,,,FEW,2400,BKN,7000,OVC,9500,,,VFR,,,,,,0.005,,,,,,METAR,3.0
KOTH 241356Z AUTO 30010KT 10SM -RA 06/03 A3034 RMK AO2 RAB48 SLPNO T00560028,KOTH,2023-03-24T13:56:00Z,43.42,-124.25,5.6,2.8,300,10,,10.0,30.339567,,,TRUE,TRUE,,,,,,-RA,,,,,,,,,,,,,,,,,,,,,METAR,3.0
KOTH 241335Z AUTO 30019G26KT 10SM -RA FEW023 SCT028 OVC039 07/02 A3034 RMK AO2 PK WND 30026/1334 RAB34 P0000,KOTH,2023-03-24T13:35:00Z,43.42,-124.25,7.0,2.0,300,19,26,10.0,30.339567,,,TRUE,TRUE,,,,,,-RA,FEW,2300,SCT,2800,OVC,3900,,,VFR,,,,,,0.005,,,,,,SPECI,3.0
KOTH 241314Z AUTO 30011G17KT 10SM BKN029 BKN085 07/03 A3033 RMK AO2,KOTH,2023-03-24T13:14:00Z,43.42,-124.25,7.0,3.0,300,11,17,10.0,30.33071,,,TRUE,TRUE,,,,,,,BKN,2900,BKN,8500,,,,,MVFR,,,,,,,,,,,,METAR,3.0
KOTH 241256Z AUTO 28013G19KT 10SM SCT029 OVC085 07/03 A3033 RMK AO2 WSHFT 1147 TSB19E34RAE28 SLP270 P0003 T00670028,KOTH,2023-03-24T12:56:00Z,43.42,-124.25,6.7,2.8,280,13,19,10.0,30.33071,1027.0,,TRUE,TRUE,,,,,,,SCT,2900,OVC,8500,,,,,VFR,,,,,,0.03,,,,,,METAR,3.0
KOTH 241240Z AUTO 26015KT 10SM FEW021 BKN075 OVC085 06/03 A3033 RMK AO2 WSHFT 1147 TSB19E34RAE28 P0003,KOTH,2023-03-24T12:40:00Z,43.42,-124.25,6.0,3.0,260,15,,10.0,30.33071,,,TRUE,TRUE,,,,,,,FEW,2100,BKN,7500,OVC,8500,,,VFR,,,,,,0.03,,,,,,METAR,3.0
KOTH 241225Z AUTO 27018KT 10SM VCTS -RA SCT023 BKN037 OVC075 05/02 A3032 RMK AO2 WSHFT 1147 TSB19 P0003,KOTH,2023-03-24T12:25:00Z,43.42,-124.25,5.0,2.0,270,18,,10.0,30.318897,,,TRUE,TRUE,,,,,,VCTS -RA,SCT,2300,BKN,3700,OVC,7500,,,VFR,,,,,,0.03,,,,,,SPECI,3.0
KOTH 241207Z AUTO 28016G24KT 6SM -RA BR SCT020 BKN028 OVC043 04/02 A3033 RMK AO2 WSHFT 1147 P0002,KOTH,2023-03-24T12:07:00Z,43.42,-124.25,4.0,2.0,280,16,24,6.0,30.33071,,,TRUE,TRUE,,,,,,-RA BR,SCT,2000,BKN,2800,OVC,4300,,,MVFR,,,,,,0.02,,,,,,SPECI,3.0
KOTH 241156Z AUTO 24011G23KT 10SM -RA SCT022 BKN028 OVC046 06/03 A3032 RMK AO2 RAE01B54 SLP266 P0000 60004 70049 T00610033 10072 20039 58004,KOTH,2023-03-24T11:56:00Z,43.42,-124.25,6.1,3.3,240,11,23,10.0,30.318897,1026.6,,TRUE,TRUE,,,,,,-RA,SCT,2200,BKN,2800,OVC,4600,,,MVFR,-0.4,7.2,3.9,,,0.005,,0.04,0.49,,,METAR,3.0
KOTH 241139Z AUTO 19008G23KT 10SM SCT024 BKN028 OVC042 06/03 A3032 RMK AO2 RAE01 P0000,KOTH,2023-03-24T11:39:00Z,43.42,-124.25,6.0,3.0,190,8,23,10.0,30.318897,,,TRUE,TRUE,,,,,,,SCT,2400,BKN,2800,OVC,4200,,,MVFR,,,,,,0.005,,,,,,SPECI,3.0
KOTH 241056Z AUTO 25013G18KT 10SM -RA BKN042 OVC050 06/03 A3033 RMK AO2 RAB16 SLP269 P0000 T00560033,KOTH,2023-03-24T10:56:00Z,43.42,-124.25,5.6,3.3,250,13,18,10.0,30.33071,1026.9,,TRUE,TRUE,,,,,,-RA,BKN,4200,OVC,5000,,,,,VFR,,,,,,0.005,,,,,,SPECI,3.0
KOTH 240956Z AUTO 26013KT 10SM SCT033 BKN065 OVC085 07/02 A3033 RMK AO2 SLP271 T00670022,KOTH,2023-03-24T09:56:00Z,43.42,-124.25,6.7,2.2,260,13,,10.0,30.33071,1027.1,,TRUE,TRUE,,,,,,,SCT,3300,BKN,6500,OVC,8500,,,VFR,,,,,,,,,,,,METAR,3.0
KOTH 240856Z AUTO 11008KT 10SM FEW025 BKN033 04/03 A3033 RMK AO2 RAE0758 SLP270 P0000 60004 T00440033 51006,KOTH,2023-03-24T08:56:00Z,43.42,-124.25,4.4,3.3,110,8,,10.0,30.33071,1027.0,,TRUE,TRUE,,,,,,,FEW,2500,BKN,3300,,,,,VFR,0.6,,,,,0.005,0.04,,,,,METAR,3.0
KOTH 240805Z AUTO 00000KT 10SM FEW023 SCT030 04/03 A3033 RMK AO2 RAE0758 P0000,KOTH,2023-03-24T08:05:00Z,43.42,-124.25,4.0,3.0,0,0,,10.0,30.33071,,,TRUE,TRUE,,,,,,,FEW,2300,SCT,3000,,,,,VFR,,,,,,0.005,,,,,,SPECI,3.0
KOTH 240756Z AUTO 00000KT 10SM -RA BKN023 BKN030 04/03 A3032 RMK AO2 RAB28 SLP268 P0003 T00440033 400940039,KOTH,2023-03-24T07:56:00Z,43.42,-124.25,4.4,3.3,0,0,,10.0,30.318897,1026.8,,TRUE,TRUE,,,,,,-RA,BKN,2300,BKN,3000,,,,,MVFR,,,,9.4,3.9,0.03,,,,,,METAR,3.0
KOTH 240742Z AUTO 00000KT 7SM RA BKN022 BKN034 OVC085 04/03 A3033 RMK AO2 RAB28 P0003,KOTH,2023-03-24T07:42:00Z,43.42,-124.25,4.0,3.0,0,0,,7.0,30.33071,,,TRUE,TRUE,,,,,,RA,BKN,2200,BKN,3400,OVC,8500,,,MVFR,,,,,,0.03,,,,,,SPECI,3.0
KOTH 240656Z AUTO 24010KT 10SM SCT025 OVC032 06/03 A3032 RMK AO2 RAB22E42 SLP267 P0001 T00610028,KOTH,2023-03-24T06:56:00Z,43.42,-124.25,6.1,2.8,240,10,,10.0,30.318897,1026.7,,TRUE,TRUE,,,,,,,SCT,2500,OVC,3200,,,,,VFR,,,,,,0.01,,,,,,SPECI,3.0
KOTH 240636Z AUTO 25010KT 10SM -RA BKN027 BKN037 OVC055 06/03 A3032 RMK AO2 RAB22 P0001,KOTH,2023-03-24T06:36:00Z,43.42,-124.25,6.0,3.0,250,10,,10.0,30.318897,,,TRUE,TRUE,,,,,,-RA,BKN,2700,BKN,3700,OVC,5500,,,MVFR,,,,,,0.01,,,,,,SPECI,3.0
KOTH 240556Z AUTO 24008KT 10SM FEW021 SCT035 06/02 A3031 RMK AO2 SLP264 60003 T00610022 10089 20061 51022,KOTH,2023-03-24T05:56:00Z,43.42,-124.25,6.1,2.2,240,8,,10.0,30.31004,1026.4,,TRUE,TRUE,,,,,,,FEW,2100,SCT,3500,,,,,VFR,2.2,8.9,6.1,,,,,0.03,,,,METAR,3.0
KOTH 240456Z AUTO 26013KT 10SM FEW027 BKN048 OVC070 07/03 A3030 RMK AO2 SLP260 T00720033,KOTH,2023-03-24T04:56:00Z,43.42,-124.25,7.2,3.3,260,13,,10.0,30.301182,1026.0,,TRUE,TRUE,,,,,,,FEW,2700,BKN,4800,OVC,7000,,,VFR,,,,,,,,,,,,METAR,3.0
KOTH 240356Z 27012KT 10SM FEW038 SCT046 BKN075 07/02 A3028 RMK AO2 RAE25 SLP252 P0000 T00670022,KOTH,2023-03-24T03:56:00Z,43.42,-124.25,6.7,2.2,270,12,,10.0,30.280512,1025.2,,,TRUE,,,,,,,FEW,3800,SCT,4600,BKN,7500,,,VFR,,,,,,0.005,,,,,,METAR,3.0
KOTH 240256Z 22007KT 10SM -RA FEW019 SCT034 BKN070 06/02 A3025 RMK AO2 RAB50 SLP242 P0000 60003 T00610022 50007,KOTH,2023-03-24T02:56:00Z,43.42,-124.25,6.1,2.2,220,7,,10.0,30.250984,1024.2,,,TRUE,,,,,,-RA,FEW,1900,SCT,3400,BKN,7000,,,VFR,0.7,,,,,0.005,0.03,,,,,METAR,3.0
KOTH 240156Z 26004KT 10SM BKN033 07/03 A3025 RMK AO2 PK WND 27027/0127 RAB26E42 SLP243 P0002 T00670028,KOTH,2023-03-24T01:56:00Z,43.42,-124.25,6.7,2.8,260,4,,10.0,30.250984,1024.3,,,TRUE,,,,,,,BKN,3300,,,,,,,VFR,,,,,,0.02,,,,,,METAR,3.0
KOTH 240056Z 26009KT 10SM SCT037 BKN045 08/03 A3025 RMK AO2 PK WND 26026/0015 RAB14E46 SLP241 P0001 T00780033,KOTH,2023-03-24T00:56:00Z,43.42,-124.25,7.8,3.3,260,9,,10.0,30.250984,1024.1,,,TRUE,,,,,,,SCT,3700,BKN,4500,,,,,VFR,,,,,,0.01,,,,,,METAR,3.0
KOTH 240037Z 26006KT 10SM -RA SCT029 SCT045 BKN060 07/04 A3025 RMK AO2 PK WND 26026/0015 RAB14 P0001,KOTH,2023-03-24T00:37:00Z,43.42,-124.25,7.0,4.0,260,6,,10.0,30.250984,,,,TRUE,,,,,,-RA,SCT,2900,SCT,4500,BKN,6000,,,VFR,,,,,,0.01,,,,,,SPECI,3.0
KOTH 232356Z COR 26012KT 10SM BKN033 09/03 A3023 RMK AO2 SLP235 60019 T00940033 10094 20050 51009,KOTH,2023-03-23T23:56:00Z,43.42,-124.25,9.4,3.3,260,12,,10.0,30.230314,1023.5,TRUE,,TRUE,,,,,,,BKN,3300,,,,,,,VFR,0.9,9.4,5.0,,,,,0.19,,,,METAR,3.0
KOTH 232256Z 26014KT 10SM FEW029 SCT037 09/04 A3022 RMK AO2 SLP234 T00940039,KOTH,2023-03-23T22:56:00Z,43.42,-124.25,9.4,3.9,260,14,,10.0,30.221457,1023.4,,,TRUE,,,,,,,FEW,2900,SCT,3700,,,,,VFR,,,,,,,,,,,,METAR,3.0
KOTH 232156Z 22010KT 10SM FEW020 BKN065 08/04 A3021 RMK AO2 RAB2058E13 SLP229 P0000 T00780044,KOTH,2023-03-23T21:56:00Z,43.42,-124.25,7.8,4.4,220,10,,10.0,30.209646,1022.9,,,TRUE,,,,,,,FEW,2000,BKN,6500,,,,,VFR,,,,,,0.005,,,,,,METAR,3.0
KOTH 232056Z 19007KT 10SM SCT026 BKN044 OVC065 06/04 A3020 RMK AO2 RAE18 SLP227 VIS S - SW 3SM BR P0000 60019 T00560039 51017,KOTH,2023-03-23T20:56:00Z,43.42,-124.25,5.6,3.9,190,7,,10.0,30.200787,1022.7,,,TRUE,,,,,,,SCT,2600,BKN,4400,OVC,6500,,,VFR,1.7,,,,,0.005,0.19,,,,,METAR,3.0
KOTH 232003Z 14011KT 6SM -RA BR BKN033 OVC042 06/04 A3019 RMK AO2 P0000,KOTH,2023-03-23T20:03:00Z,43.42,-124.25,6.0,4.0,140,11,,6.0,30.188976,,,,TRUE,,,,,,-RA BR,BKN,3300,OVC,4200,,,,,VFR,,,,,,0.005,,,,,,METAR,3.0
KOTH 231956Z COR VRB06KT 6SM -RA BR BKN030 OVC038 06/04 A3019 RMK AO2 SLP222 P0002 T00560039,KOTH,2023-03-23T19:56:00Z,43.42,-124.25,5.6,3.9,0,6,,6.0,30.188976,1022.2,TRUE,,TRUE,,,,,,-RA BR,BKN,3000,OVC,3800,,,,,MVFR,,,,,,0.02,,,,,,SPECI,3.0
KOTH 231932Z 19004KT 2SM -RA SCT026 OVC035 06/03 A3019 RMK AO2 P0002,KOTH,2023-03-23T19:32:00Z,43.42,-124.25,6.0,3.0,190,4,,2.0,30.188976,,,,TRUE,,,,,,-RA,SCT,2600,OVC,3500,,,,,IFR,,,,,,0.02,,,,,,SPECI,3.0
KOTH 231856Z 26006KT 2SM -RA BR SCT015 OVC021 06/04 A3018 RMK AO2 SLP221 P0017 T00560039,KOTH,2023-03-23T18:56:00Z,43.42,-124.25,5.6,3.9,260,6,,2.0,30.180119,1022.1,,,TRUE,,,,,,-RA BR,SCT,1500,OVC,2100,,,,,IFR,,,,,,0.17,,,,,,METAR,3.0
KOTH 231756Z 28014KT 2SM RA BR BKN015 BKN022 OVC030 05/04 A3015 RMK AO2 PK WND 27032/1740 WSHFT 1732 RAB27 SLP210 P0013 60023 T00500039 10072 20050 53013,KOTH,2023-03-23T17:56:00Z,43.42,-124.25,5.0,3.9,280,14,,2.0,30.15059,1021.0,,,TRUE,,,,,,RA BR,BKN,1500,BKN,2200,OVC,3000,,,IFR,1.3,7.2,5.0,,,0.13,,0.23,,,,METAR,3.0
KOTH 231746Z 28023G32KT 2SM RA BR BKN015 BKN029 OVC038 06/04 A3015 RMK AO2 PK WND 27032/1740 WSHFT 1732 RAB27 PRESRR P0010,KOTH,2023-03-23T17:46:00Z,43.42,-124.25,6.0,4.0,280,23,32,2.0,30.15059,,,,TRUE,,,,,,RA BR,BKN,1500,BKN,2900,OVC,3800,,,IFR,,,,,,0.1,,,,,,SPECI,3.0
KOTH 231738Z 24022G30KT 2SM RA BR FEW009 BKN030 OVC038 06/04 A3012 RMK AO2 PK WND 24030/1736 RAB27 PRESRR P0007,KOTH,2023-03-23T17:38:00Z,43.42,-124.25,6.0,4.0,240,22,30,2.0,30.121063,,,,TRUE,,,,,,RA BR,FEW,900,BKN,3000,OVC,3800,,,IFR,,,,,,0.07,,,,,,SPECI,3.0
KOTH 231721Z 18011KT 10SM SCT014 OVC038 07/06 A3010 RMK AO2,KOTH,2023-03-23T17:21:00Z,43.42,-124.25,7.0,6.0,180,11,,10.0,30.100393,,,,TRUE,,,,,,,SCT,1400,OVC,3800,,,,,VFR,,,,,,,,,,,,SPECI,3.0
KOTH 231704Z 17012G18KT 10SM FEW009 BKN014 OVC034 07/06 A3010 RMK AO2,KOTH,2023-03-23T17:04:00Z,43.42,-124.25,7.0,6.0,170,12,18,10.0,30.100393,,,,TRUE,,,,,,,FEW,900,BKN,1400,OVC,3400,,,MVFR,,,,,,,,,,,,SPECI,3.0
KOTH 231656Z 18011G17KT 150V210 10SM BKN011 BKN016 OVC048 07/06 A3010 RMK AO2 RAE15B37E53 SLP192 P0001 T00670056,KOTH,2023-03-23T16:56:00Z,43.42,-124.25,6.7,5.6,180,11,17,10.0,30.100393,1019.2,,,TRUE,,,,,,,BKN,1100,BKN,1600,OVC,4800,,,MVFR,,,,,,0.01,,,,,,METAR,3.0
KOTH 231630Z 17009KT 10SM BKN011 BKN021 OVC042 07/06 A3011 RMK AO2 RAE15 P0001,KOTH,2023-03-23T16:30:00Z,43.42,-124.25,7.0,6.0,170,9,,10.0,30.109253,,,,TRUE,,,,,,,BKN,1100,BKN,2100,OVC,4200,,,MVFR,,,,,,0.01,,,,,,METAR,3.0
KOTH 231556Z 18009KT 10SM -RA FEW014 SCT023 OVC030 06/05 A3011 RMK AO2 SLP196 P0000 T00610050,KOTH,2023-03-23T15:56:00Z,43.42,-124.25,6.1,5.0,180,9,,10.0,30.109253,1019.6,,,TRUE,,,,,,-RA,FEW,1400,SCT,2300,OVC,3000,,,MVFR,,,,,,0.005,,,,,,METAR,3.0
KOTH 231523Z 19012KT 10SM -RA FEW014 BKN029 OVC038 06/05 A3011 RMK AO2 P0000,KOTH,2023-03-23T15:23:00Z,43.42,-124.25,6.0,5.0,190,12,,10.0,30.109253,,,,TRUE,,,,,,-RA,FEW,1400,BKN,2900,OVC,3800,,,MVFR,,,,,,0.005,,,,,,SPECI,3.0
KOTH 231456Z 17007KT 10SM -RA SCT027 BKN041 OVC049 07/05 A3012 RMK AO2 SLP197 P0003 60009 T00670050 52002,KOTH,2023-03-23T14:56:00Z,43.42,-124.25,6.7,5.0,170,7,,10.0,30.121063,1019.7,,,TRUE,,,,,,-RA,SCT,2700,BKN,4100,OVC,4900,,,VFR,0.2,,,,,0.03,0.09,,,,,METAR,3.0
KOTH 231449Z 19008KT 10SM -RA FEW022 BKN042 OVC049 07/06 A3012 RMK AO2 P0003,KOTH,2023-03-23T14:49:00Z,43.42,-124.25,7.0,6.0,190,8,,10.0,30.121063,,,,TRUE,,,,,,-RA,FEW,2200,BKN,4200,OVC,4900,,,VFR,,,,,,0.03,,,,,,SPECI,3.0
KOTH 231356Z 17005KT 10SM RA BKN018 BKN029 OVC044 06/06 A3011 RMK AO2 SLP196 P0005 T00610056,KOTH,2023-03-23T13:56:00Z,43.42,-124.25,6.1,5.6,170,5,,10.0,30.109253,1019.6,,,TRUE,,,,,,RA,BKN,1800,BKN,2900,OVC,4400,,,MVFR,,,,,,0.05,,,,,,METAR,3.0
KOTH 231354Z 18005KT 10SM -RA BKN018 BKN029 OVC044 06/06 A3011 RMK AO2 P0005,KOTH,2023-03-23T13:54:00Z,43.42,-124.25,6.0,6.0,180,5,,10.0,30.109253,,,,TRUE,,,,,,-RA,BKN,1800,BKN,2900,OVC,4400,,,MVFR,,,,,,0.05,,,,,,SPECI,3.0
KOTH 231338Z AUTO 20006KT 10SM -RA FEW018 BKN032 OVC043 07/06 A3011 RMK AO2 P0004,KOTH,2023-03-23T13:38:00Z,43.42,-124.25,7.0,6.0,200,6,,10.0,30.109253,,,TRUE,TRUE,,,,,,-RA,FEW,1800,BKN,3200,OVC,4300,,,VFR,,,,,,0.04,,,,,,SPECI,3.0
KOTH 231313Z AUTO 16007KT 7SM -RA SCT016 BKN029 OVC044 06/06 A3011 RMK AO2 P0003,KOTH,2023-03-23T13:13:00Z,43.42,-124.25,6.0,6.0,160,7,,7.0,30.109253,,,TRUE,TRUE,,,,,,-RA,SCT,1600,BKN,2900,OVC,4400,,,MVFR,,,,,,0.03,,,,,,SPECI,3.0
KOTH 231256Z AUTO 15007KT 10SM -RA SCT033 BKN040 OVC049 06/06 A3011 RMK AO2 RAB22 SLP195 P0001 T00610061,KOTH,2023-03-23T12:56:00Z,43.42,-124.25,6.1,6.1,150,7,,10.0,30.109253,1019.5,,TRUE,TRUE,,,,,,-RA,SCT,3300,BKN,4000,OVC,4900,,,VFR,,,,,,0.01,,,,,,SPECI,3.0
KOTH 231156Z AUTO 17005KT 10SM BKN043 BKN120 06/06 A3011 RMK AO2 SLP196 60000 70005 T00610056 10083 20056 51002,KOTH,2023-03-23T11:56:00Z,43.42,-124.25,6.1,5.6,170,5,,10.0,30.109253,1019.6,,TRUE,TRUE,,,,,,,BKN,4300,BKN,12000,,,,,VFR,0.2,8.3,5.6,,,,,,0.05,,,SPECI,3.0
KOTH 231056Z AUTO 16006KT 10SM BKN045 OVC060 06/06 A3011 RMK AO2 SLP196 T00610056,KOTH,2023-03-23T10:56:00Z,43.42,-124.25,6.1,5.6,160,6,,10.0,30.109253,1019.6,,TRUE,TRUE,,,,,,,BKN,4500,OVC,6000,,,,,VFR,,,,,,,,,,,,METAR,3.0
KOTH 230956Z AUTO 18005KT 10SM FEW021 OVC060 06/06 A3011 RMK AO2 SLP195 T00610056,KOTH,2023-03-23T09:56:00Z,43.42,-124.25,6.1,5.6,180,5,,10.0,30.109253,1019.5,,TRUE,TRUE,,,,,,,FEW,2100,OVC,6000,,,,,VFR,,,,,,,,,,,,METAR,3.0
KOTH 230856Z AUTO 17005KT 10SM BKN060 06/05 A3011 RMK AO2 SLP194 60000 T00560050 53004,KOTH,2023-03-23T08:56:00Z,43.42,-124.25,5.6,5.0,170,5,,10.0,30.109253,1019.4,,TRUE,TRUE,,,,,,,BKN,6000,,,,,,,VFR,0.4,,,,,,0.005,,,,,METAR,3.0
KOTH 230840Z AUTO 18005KT 10SM SCT017 BKN060 06/06 A3010 RMK AO2,KOTH,2023-03-23T08:40:00Z,43.42,-124.25,6.0,6.0,180,5,,10.0,30.100393,,,TRUE,TRUE,,,,,,,SCT,1700,BKN,6000,,,,,VFR,,,,,,,,,,,,SPECI,3.0
KOTH 230756Z AUTO 18005KT 10SM BKN019 BKN025 OVC065 07/06 A3010 RMK AO2 RAE01 SLP193 P0000 T00670061 401000056,KOTH,2023-03-23T07:56:00Z,43.42,-124.25,6.7,6.1,180,5,,10.0,30.100393,1019.3,,TRUE,TRUE,,,,,,,BKN,1900,BKN,2500,OVC,6500,,,MVFR,,,,10.0,5.6,0.005,,,,,,METAR,3.0
KOTH 230736Z AUTO 17005KT 10SM BKN019 07/06 A3010 RMK AO2 RAE01 P0000,KOTH,2023-03-23T07:36:00Z,43.42,-124.25,7.0,6.0,170,5,,10.0,30.100393,,,TRUE,TRUE,,,,,,,BKN,1900,,,,,,,MVFR,,,,,,0.005,,,,,,METAR,3.0
KOTH 230656Z AUTO 18003KT 10SM -RA FEW018 BKN050 08/06 A3010 RMK AO2 RAE15B49 SLP191 P0000 T00830061,KOTH,2023-03-23T06:56:00Z,43.42,-124.25,8.3,6.1,180,3,,10.0,30.100393,1019.1,,TRUE,TRUE,,,,,,-RA,FEW,1800,BKN,5000,,,,,VFR,,,,,,0.005,,,,,,METAR,3.0
KOTH 230621Z AUTO 26005KT 10SM BKN018 OVC050 08/07 A3010 RMK AO2 RAE15 P0000,KOTH,2023-03-23T06:21:00Z,43.42,-124.25,8.0,7.0,260,5,,10.0,30.100393,,,TRUE,TRUE,,,,,,,BKN,1800,OVC,5000,,,,,MVFR,,,,,,0.005,,,,,,SPECI,3.0
KOTH 230610Z AUTO 26007KT 10SM -RA SCT018 BKN050 OVC070 08/07 A3010 RMK AO2 P0000,KOTH,2023-03-23T06:10:00Z,43.42,-124.25,8.0,7.0,260,7,,10.0,30.100393,,,TRUE,TRUE,,,,,,-RA,SCT,1800,BKN,5000,OVC,7000,,,VFR,,,,,,0.005,,,,,,SPECI,3.0
KOTH 230556Z AUTO 00000KT 10SM -RA BKN018 BKN022 OVC034 08/07 A3009 RMK AO2 RAE19B49 SLP190 P0002 60004 T00780072 10089 20072 51018,KOTH,2023-03-23T05:56:00Z,43.42,-124.25,7.8,7.2,0,0,,10.0,30.088583,1019.0,,TRUE,TRUE,,,,,,-RA,BKN,1800,BKN,2200,OVC,3400,,,MVFR,1.8,8.9,7.2,,,0.02,,0.04,,,,METAR,3.0
KOTH 230456Z AUTO 27006KT 7SM RA BKN016 BKN021 OVC032 08/07 A3008 RMK AO2 RAE05B44 SLP185 P0002 T00830072,KOTH,2023-03-23T04:56:00Z,43.42,-124.25,8.3,7.2,270,6,,7.0,30.079725,1018.5,,TRUE,TRUE,,,,,,RA,BKN,1600,BKN,2100,OVC,3200,,,MVFR,,,,,,0.02,,,,,,SPECI,3.0
KOTH 230356Z 29004KT 10SM -RA OVC034 09/06 A3006 RMK AO2 RAB54 SLP177 P0000 T00890061,KOTH,2023-03-23T03:56:00Z,43.42,-124.25,8.9,6.1,290,4,,10.0,30.059055,1017.7,,,TRUE,,,,,,-RA,OVC,3400,,,,,,,VFR,,,,,,0.005,,,,,,SPECI,3.0
KOTH 230256Z 30006KT 10SM OVC034 09/07 A3004 RMK AO2 SLP172 60000 T00890067 51015,KOTH,2023-03-23T02:56:00Z,43.42,-124.25,8.9,6.7,300,6,,10.0,30.041338,1017.2,,,TRUE,,,,,,,OVC,3400,,,,,,,VFR,1.5,,,,,,,,,,,SPECI,3.0
KOTH 230240Z 30005KT 10SM SCT026 BKN031 OVC050 09/07 A3004 RMK AO2,KOTH,2023-03-23T02:40:00Z,43.42,-124.25,9.0,7.0,300,5,,10.0,30.041338,,,,TRUE,,,,,,,SCT,2600,BKN,3100,OVC,5000,,,VFR,,,,,,,,,,,,SPECI,3.0
KOTH 230156Z 31005KT 10SM OVC020 09/07 A3003 RMK AO2 SLP168 T00890067,KOTH,2023-03-23T01:56:00Z,43.42,-124.25,8.9,6.7,310,5,,10.0,30.029528,1016.8,,,TRUE,,,,,,,OVC,2000,,,,,,,MVFR,,,,,,,,,,,,METAR,3.0
KOTH 230131Z 31005KT 10SM OVC016 08/07 A3002 RMK AO2,KOTH,2023-03-23T01:31:00Z,43.42,-124.25,8.0,7.0,310,5,,10.0,30.02067,,,,TRUE,,,,,,,OVC,1600,,,,,,,MVFR,,,,,,,,,,,,SPECI,3.0
KOTH 230103Z 32006KT 10SM SCT010 OVC014 08/08 A3002 RMK AO2,KOTH,2023-03-23T01:03:00Z,43.42,-124.25,8.0,8.0,320,6,,10.0,30.02067,,,,TRUE,,,,,,,SCT,1000,OVC,1400,,,,,MVFR,,,,,,,,,,,,METAR,3.0
KOTH 230056Z COR 32007KT 10SM BR SCT007 BKN011 OVC016 08/08 A3002 RMK AO2 RAE50 SLP164 P0000 T00830078,KOTH,2023-03-23T00:56:00Z,43.42,-124.25,8.3,7.8,320,7,,10.0,30.02067,1016.4,TRUE,,TRUE,,,,,,BR,SCT,700,BKN,1100,OVC,1600,,,MVFR,,,,,,0.005,,,,,,METAR,3.0
KOTH 230047Z 31009KT 3SM -RA BR BKN007 BKN011 OVC016 08/08 A3001 RMK AO2 P0000,KOTH,2023-03-23T00:47:00Z,43.42,-124.25,8.0,8.0,310,9,,3.0,30.008858,,,,TRUE,,,,,,-RA BR,BKN,700,BKN,1100,OVC,1600,,,IFR,,,,,,0.005,,,,,,METAR,3.0
KOTH 230040Z COR 32009KT 3SM -RA BR BKN007 BKN011 OVC016 08/08 A3001 RMK AO2 P0000,KOTH,2023-03-23T00:40:00Z,43.42,-124.25,8.0,8.0,320,9,,3.0,30.008858,,TRUE,,TRUE,,,,,,-RA BR,BKN,700,BKN,1100,OVC,1600,,,IFR,,,,,,0.005,,,,,,METAR,3.0
KOTH 222356Z 31010KT 1 3/4SM -RA BR OVC005 08/08 A3000 RMK AO2 RAB33 SLP157 P0001 60001 T00830078 10100 20078 51012,KOTH,2023-03-22T23:56:00Z,43.42,-124.25,8.3,7.8,310,10,,1.75,30.0,1015.7,,,TRUE,,,,,,-RA BR,OVC,500,,,,,,,IFR,1.2,10.0,7.8,,,0.01,,0.01,,,,METAR,3.0
KOTH 222351Z 31009KT 1 1/2SM -RA BR OVC005 08/08 A3000 RMK AO2 RAB33 CIG 003V008 P0001,KOTH,2023-03-22T23:51:00Z,43.42,-124.25,8.0,8.0,310,9,,1.5,30.0,,,,TRUE,,,,,,-RA BR,OVC,500,,,,,,,IFR,,,,,,0.01,,,,,,SPECI,3.0
KOTH 222344Z 31011KT 2SM -RA BR OVC005 09/08 A3000 RMK AO2 RAB33 CIG 003V008 P0000,KOTH,2023-03-22T23:44:00Z,43.42,-124.25,9.0,8.0,310,11,,2.0,30.0,,,,TRUE,,,,,,-RA BR,OVC,500,,,,,,,IFR,,,,,,0.005,,,,,,METAR,3.0
KOTH 222328Z 29009KT 2SM BR BKN007 BKN013 OVC021 09/08 A2999 RMK AO2,KOTH,2023-03-22T23:28:00Z,43.42,-124.25,9.0,8.0,290,9,,2.0,29.991142,,,,TRUE,,,,,,BR,BKN,700,BKN,1300,OVC,2100,,,IFR,,,,,,,,,,,,SPECI,3.0
KOTH 222315Z 30010KT 6SM BR FEW007 BKN013 OVC021 09/08 A2999 RMK AO2,KOTH,2023-03-22T23:15:00Z,43.42,-124.25,9.0,8.0,300,10,,6.0,29.991142,,,,TRUE,,,,,,BR,FEW,700,BKN,1300,OVC,2100,,,MVFR,,,,,,,,,,,,SPECI,3.0
KOTH 222306Z 30010KT 6SM BR SCT009 BKN015 OVC021 09/08 A2998 RMK AO2,KOTH,2023-03-22T23:06:00Z,43.42,-124.25,9.0,8.0,300,10,,6.0,29.97933,,,,TRUE,,,,,,BR,SCT,900,BKN,1500,OVC,2100,,,MVFR,,,,,,,,,,,,SPECI,3.0
KOTH 222256Z 30009KT 7SM BKN011 BKN017 OVC035 09/08 A2998 RMK AO2 SLP152 T00940083,KOTH,2023-03-22T22:56:00Z,43.42,-124.25,9.4,8.3,300,9,,7.0,29.97933,1015.2,,,TRUE,,,,,,,BKN,1100,BKN,1700,OVC,3500,,,MVFR,,,,,,,,,,,,METAR,3.0
KOTH 222156Z 30009KT 10SM BKN011 BKN015 OVC035 10/08 A2996 RMK AO2 SLP146 T01000083,KOTH,2023-03-22T21:56:00Z,43.42,-124.25,10.0,8.3,300,9,,10.0,29.958662,1014.6,,,TRUE,,,,,,,BKN,1100,BKN,1500,OVC,3500,,,MVFR,,,,,,,,,,,,METAR,3.0
KOTH 222145Z 29010KT 10SM SCT011 BKN015 OVC030 10/08 A2996 RMK AO2,KOTH,2023-03-22T21:45:00Z,43.42,-124.25,10.0,8.0,290,10,,10.0,29.958662,,,,TRUE,,,,,,,SCT,1100,BKN,1500,OVC,3000,,,MVFR,,,,,,,,,,,,SPECI,3.0
KOTH 222056Z 29008KT 10SM OVC011 10/08 A2995 RMK AO2 SLP140 T01000083 51023,KOTH,2023-03-22T20:56:00Z,43.42,-124.25,10.0,8.3,290,8,,10.0,29.949802,1014.0,,,TRUE,,,,,,,OVC,1100,,,,,,,MVFR,2.3,,,,,,,,,,,SPECI,3.0
KOTH 221956Z 31004KT 8SM BKN011 OVC025 09/08 A2993 RMK AO2 SLP133 T00940078,KOTH,2023-03-22T19:56:00Z,43.42,-124.25,9.4,7.8,310,4,,8.0,29.929134,1013.3,,,TRUE,,,,,,,BKN,1100,OVC,2500,,,,,MVFR,,,,,,,,,,,,SPECI,3.0
KOTH 221911Z 28003KT 6SM BR BKN011 OVC019 09/08 A2991 RMK AO2,KOTH,2023-03-22T19:11:00Z,43.42,-124.25,9.0,8.0,280,3,,6.0,29.911417,,,,TRUE,,,,,,BR,BKN,1100,OVC,1900,,,,,MVFR,,,,,,,,,,,,SPECI,3.0
KOTH 221903Z 00000KT 6SM BR BKN011 OVC019 09/08 A2991 RMK AO2,KOTH,2023-03-22T19:03:00Z,43.42,-124.25,9.0,8.0,0,0,,6.0,29.911417,,,,TRUE,,,,,,BR,BKN,1100,OVC,1900,,,,,MVFR,,,,,,,,,,,,METAR,3.0
KOTH 221856Z COR 00000KT 6SM BR BKN009 OVC019 09/08 A2991 RMK AO2 SLP127 T00940083,KOTH,2023-03-22T18:56:00Z,43.42,-124.25,9.4,8.3,0,0,,6.0,29.911417,1012.7,TRUE,,TRUE,,,,,,BR,BKN,900,OVC,1900,,,,,IFR,,,,,,,,,,,,METAR,3.0
KOTH 221840Z 15003KT 6SM BR FEW009 BKN015 OVC021 09/08 A2990 RMK AO2,KOTH,2023-03-22T18:40:00Z,43.42,-124.25,9.0,8.0,150,3,,6.0,29.899607,,,,TRUE,,,,,,BR,FEW,900,BKN,1500,OVC,2100,,,MVFR,,,,,,,,,,,,SPECI,3.0
KOTH 221756Z 14006KT 6SM BR OVC011 08/08 A2988 RMK AO2 SLP117 VIS NE-SE 2SM BR T00780078 10078 20056 53019,KOTH,2023-03-22T17:56:00Z,43.42,-124.25,7.8,7.8,140,6,,6.0,29.878937,1011.7,,,TRUE,,,,,,BR,OVC,1100,,,,,,,MVFR,1.9,7.8,5.6,,,,,,,,,SPECI,3.0
KOTH 221703Z 14008KT 6SM BR FEW003 BKN009 OVC018 07/07 A2985 RMK AO2 VIS NE-SE 2SM BR,KOTH,2023-03-22T17:03:00Z,43.42,-124.25,7.0,7.0,140,8,,6.0,29.84941,,,,TRUE,,,,,,BR,FEW,300,BKN,900,OVC,1800,,,IFR,,,,,,,,,,,,SPECI,3.0
KOTH 221656Z 14008KT 2SM BR FEW003 BKN009 OVC018 07/07 A2985 RMK AO2 SLP108 T00720072,KOTH,2023-03-22T16:56:00Z,43.42,-124.25,7.2,7.2,140,8,,2.0,29.84941,1010.8,,,TRUE,,,,,,BR,FEW,300,BKN,900,OVC,1800,,,IFR,,,,,,,,,,,,METAR,3.0
KOTH 221648Z 14008KT 2SM BR SCT009 OVC016 07/07 A2985 RMK AO2,KOTH,2023-03-22T16:48:00Z,43.42,-124.25,7.0,7.0,140,8,,2.0,29.84941,,,,TRUE,,,,,,BR,SCT,900,OVC,1600,,,,,IFR,,,,,,,,,,,,SPECI,3.0
KOTH 221556Z 14008KT 2SM BR FEW003 OVC007 06/06 A2982 RMK AO2 SLP099 T00610061,KOTH,2023-03-22T15:56:00Z,43.42,-124.25,6.1,6.1,140,8,,2.0,29.819881,1009.9,,,TRUE,,,,,,BR,FEW,300,OVC,700,,,,,IFR,,,,,,,,,,,,SPECI,3.0
KOTH 221551Z 13007KT 2SM BR SCT003 OVC007 07/07 A2982 RMK AO2,KOTH,2023-03-22T15:51:00Z,43.42,-124.25,7.0,7.0,130,7,,2.0,29.819881,,,,TRUE,,,,,,BR,SCT,300,OVC,700,,,,,IFR,,,,,,,,,,,,SPECI,3.0
KOTH 221543Z 15008KT 2SM BR BKN003 OVC007 06/06 A2982 RMK AO2,KOTH,2023-03-22T15:43:00Z,43.42,-124.25,6.0,6.0,150,8,,2.0,29.819881,,,,TRUE,,,,,,BR,BKN,300,OVC,700,,,,,LIFR,,,,,,,,,,,,SPECI,3.0
KOTH 221456Z 13005KT 1/2SM FG OVC003 06/06 A2979 RMK AO2 SLP088 T00560056 53028 RVRNO,KOTH,2023-03-22T14:56:00Z,43.42,-124.25,5.6,5.6,130,5,,0.5,29.790354,1008.8,,,TRUE,,,,,,FG,OVC,300,,,,,,,LIFR,2.8,,,,,,,,,,,SPECI,3.0
KOTH 221356Z 12005KT 1/4SM FG OVC003 06/06 A2976 RMK AO2 SLP076 T00560056 RVRNO,KOTH,2023-03-22T13:56:00Z,43.42,-124.25,5.6,5.6,120,5,,0.25,29.760826,1007.6,,,TRUE,,,,,,FG,OVC,300,,,,,,,LIFR,,,,,,,,,,,,METAR,3.0
KOTH 221348Z AUTO 13005KT 3/4SM BR OVC003 06/06 A2976 RMK AO2 RVRNO,KOTH,2023-03-22T13:48:00Z,43.42,-124.25,6.0,6.0,130,5,,0.75,29.760826,,,TRUE,TRUE,,,,,,BR,OVC,300,,,,,,,LIFR,,,,,,,,,,,,SPECI,3.0
KOTH 221316Z AUTO 14006KT 1/2SM FG OVC003 06/06 A2974 RMK AO2 RVRNO,KOTH,2023-03-22T13:16:00Z,43.42,-124.25,6.0,6.0,140,6,,0.5,29.740158,,,TRUE,TRUE,,,,,,FG,OVC,300,,,,,,,LIFR,,,,,,,,,,,,SPECI,3.0
KOTH 221256Z AUTO 14005KT 1/4SM FG OVC003 06/06 A2973 RMK AO2 SLP067 T00560056 RVRNO,KOTH,2023-03-22T12:56:00Z,43.42,-124.25,5.6,5.6,140,5,,0.25,29.731298,1006.7,,TRUE,TRUE,,,,,,FG,OVC,300,,,,,,,LIFR,,,,,,,,,,,,SPECI,3.0
KOTH 221156Z AUTO 13006KT 1/2SM FG OVC003 06/06 A2971 RMK AO2 SLP060 T00610061 10089 20056 51018 RVRNO,KOTH,2023-03-22T11:56:00Z,43.42,-124.25,6.1,6.1,130,6,,0.5,29.71063,1006.0,,TRUE,TRUE,,,,,,FG,OVC,300,,,,,,,LIFR,1.8,8.9,5.6,,,,,,,,,SPECI,3.0
KOTH 221056Z AUTO 12004KT 1/2SM FG OVC003 06/06 A2970 RMK AO2 SLP055 T00610061 RVRNO,KOTH,2023-03-22T10:56:00Z,43.42,-124.25,6.1,6.1,120,4,,0.5,29.698818,1005.5,,TRUE,TRUE,,,,,,FG,OVC,300,,,,,,,LIFR,,,,,,,,,,,,METAR,3.0
KOTH 220956Z AUTO 13003KT 1/2SM FG OVC003 06/06 A2968 RMK AO2 SLP049 T00610061 RVRNO,KOTH,2023-03-22T09:56:00Z,43.42,-124.25,6.1,6.1,130,3,,0.5,29.681103,1004.9,,TRUE,TRUE,,,,,,FG,OVC,300,,,,,,,LIFR,,,,,,,,,,,,METAR,3.0
KOTH 220856Z AUTO 12004KT 1/2SM FG OVC003 06/06 A2966 RMK AO2 SLP042 T00610061 53016 RVRNO,KOTH,2023-03-22T08:56:00Z,43.42,-124.25,6.1,6.1,120,4,,0.5,29.660433,1004.2,,TRUE,TRUE,,,,,,FG,OVC,300,,,,,,,LIFR,1.6,,,,,,,,,,,METAR,3.0
KOTH 220845Z AUTO 13005KT 1/2SM FG OVC003 06/06 A2965 RMK AO2 RVRNO,KOTH,2023-03-22T08:45:00Z,43.42,-124.25,6.0,6.0,130,5,,0.5,29.648623,,,TRUE,TRUE,,,,,,FG,OVC,300,,,,,,,LIFR,,,,,,,,,,,,SPECI,3.0
KOTH 220832Z AUTO 13005KT 1SM BR OVC003 06/06 A2965 RMK AO2 RVRNO,KOTH,2023-03-22T08:32:00Z,43.42,-124.25,6.0,6.0,130,5,,1.0,29.648623,,,TRUE,TRUE,,,,,,BR,OVC,300,,,,,,,LIFR,,,,,,,,,,,,SPECI,3.0
KOTH 220825Z AUTO 13005KT 1 1/4SM BR BKN003 06/06 A2965 RMK AO2,KOTH,2023-03-22T08:25:00Z,43.42,-124.25,6.0,6.0,130,5,,1.25,29.648623,,,TRUE,TRUE,,,,,,BR,BKN,300,,,,,,,LIFR,,,,,,,,,,,,SPECI,3.0
KOTH 220817Z AUTO 13004KT 2 1/2SM BR BKN003 06/06 A2965 RMK AO2,KOTH,2023-03-22T08:17:00Z,43.42,-124.25,6.0,6.0,130,4,,2.5,29.648623,,,TRUE,TRUE,,,,,,BR,BKN,300,,,,,,,LIFR,,,,,,,,,,,,METAR,3.0
KOTH 220813Z AUTO 12006KT 8SM SCT003 06/06 A2965 RMK AO2,KOTH,2023-03-22T08:13:00Z,43.42,-124.25,6.0,6.0,120,6,,8.0,29.648623,,,TRUE,TRUE,,,,,,,SCT,300,,,,,,,VFR,,,,,,,,,,,,METAR,3.0
KOTH 220756Z AUTO 16003KT 10SM CLR 06/06 A2964 RMK AO2 SLP037 T00560056 401390017,KOTH,2023-03-22T07:56:00Z,43.42,-124.25,5.6,5.6,160,3,,10.0,29.639763,1003.7,,TRUE,TRUE,,,,,,,CLR,,,,,,,,VFR,,,,13.9,1.7,,,,,,,METAR,3.0
KOTH 220656Z AUTO 00000KT 9SM CLR 06/06 A2963 RMK AO2 SLP031 T00610061,KOTH,2023-03-22T06:56:00Z,43.42,-124.25,6.1,6.1,0,0,,9.0,29.630905,1003.1,,TRUE,TRUE,,,,,,,CLR,,,,,,,,VFR,,,,,,,,,,,,METAR,3.0
KOTH 220556Z AUTO 36008KT 8SM CLR 09/08 A2961 RMK AO2 SLP026 T00890083 10117 20089 51014,KOTH,2023-03-22T05:56:00Z,43.42,-124.25,8.9,8.3,360,8,,8.0,29.610237,1002.6,,TRUE,TRUE,,,,,,,CLR,,,,,,,,VFR,1.4,11.7,8.9,,,,,,,,,METAR,3.0
KOTH 220456Z AUTO 36007KT 9SM CLR 09/08 A2960 RMK AO2 SLP024 T00890083,KOTH,2023-03-22T04:56:00Z,43.42,-124.25,8.9,8.3,360,7,,9.0,29.601377,1002.4,,TRUE,TRUE,,,,,,,CLR,,,,,,,,VFR,,,,,,,,,,,,SPECI,3.0
KOTH 220356Z 35009KT 10SM CLR 09/08 A2959 RMK AO2 SLP019 T00940078,KOTH,2023-03-22T03:56:00Z,43.42,-124.25,9.4,7.8,350,9,,10.0,29.589567,1001.9,,,TRUE,,,,,,,CLR,,,,,,,,VFR,,,,,,,,,,,,METAR,3.0
KOTH 220256Z 35010KT 10SM CLR 09/08 A2957 RMK AO2 SLP012 T00940078 53003,KOTH,2023-03-22T02:56:00Z,43.42,-124.25,9.4,7.8,350,10,,10.0,29.568897,1001.2,,,TRUE,,,,,,,CLR,,,,,,,,VFR,0.3,,,,,,,,,,,METAR,3.0
KOTH 220156Z 35018G22KT 10SM CLR 10/08 A2955 RMK AO2 PK WND 36027/0121 SLP007 T01000078,KOTH,2023-03-22T01:56:00Z,43.42,-124.25,10.0,7.8,350,18,22,10.0,29.551182,1000.7,,,TRUE,,,,,,,CLR,,,,,,,,VFR,,,,,,,,,,,,METAR,3.0
KOTH 220056Z 35018G24KT 10SM CLR 11/08 A2955 RMK AO2 SLP006 T01110078,KOTH,2023-03-22T00:56:00Z,43.42,-124.25,11.1,7.8,350,18,24,10.0,29.551182,1000.6,,,TRUE,,,,,,,CLR,,,,,,,,VFR,,,,,,,,,,,,METAR,3.0
KOTH 212356Z 35018KT 10SM CLR 11/08 A2956 RMK AO2 PK WND 34026/2351 SLP009 T01110078 10139 20094 56010,KOTH,2023-03-21T23:56:00Z,43.42,-124.25,11.1,7.8,350,18,,10.0,29.56004,1000.9,,,TRUE,,,,,,,CLR,,,,,,,,VFR,-1.0,13.9,9.4,,,,,,,,,METAR,3.0
KOTH 212256Z 35020G24KT 10SM CLR 12/08 A2957 RMK AO2 PK WND 36026/2237 SLP013 T01220078,KOTH,2023-03-21T22:56:00Z,43.42,-124.25,12.2,7.8,350,20,24,10.0,29.568897,1001.3,,,TRUE,,,,,,,CLR,,,,,,,,VFR,,,,,,,,,,,,METAR,3.0
KOTH 212156Z 34020KT 10SM CLR 12/07 A2957 RMK AO2 SLP014 T01220072,KOTH,2023-03-21T21:56:00Z,43.42,-124.25,12.2,7.2,340,20,,10.0,29.568897,1001.4,,,TRUE,,,,,,,CLR,,,,,,,,VFR,,,,,,,,,,,,METAR,3.0
KOTH 212056Z 34020G23KT 10SM CLR 12/07 A2959 RMK AO2 SLP019 T01220067 58023,KOTH,2023-03-21T20:56:00Z,43.42,-124.25,12.2,6.7,340,20,23,10.0,29.589567,1001.9,,,TRUE,,,,,,,CLR,,,,,,,,VFR,-2.3,,,,,,,,,,,METAR,3.0
KOTH 211956Z 02006KT 10SM CLR 14/03 A2963 RMK AO2 SLP032 T01390033,KOTH,2023-03-21T19:56:00Z,43.42,-124.25,13.9,3.3,20,6,,10.0,29.630905,1003.2,,,TRUE,,,,,,,CLR,,,,,,,,VFR,,,,,,,,,,,,SPECI,3.0
KOTH 211856Z 00000KT 10SM CLR 12/04 A2964 RMK AO2 SLP037 T01170039,KOTH,2023-03-21T18:56:00Z,43.42,-124.25,11.7,3.9,0,0,,10.0,29.639763,1003.7,,,TRUE,,,,,,,CLR,,,,,,,,VFR,,,,,,,,,,,,METAR,3.0
KOTH 211756Z 00000KT 10SM CLR 09/03 A2966 RMK AO2 SLP042 T00940033 10094 20017 58012,KOTH,2023-03-21T17:56:00Z,43.42,-124.25,9.4,3.3,0,0,,10.0,29.660433,1004.2,,,TRUE,,,,,,,CLR,,,,,,,,VFR,-1.2,9.4,1.7,,,,,,,,,SPECI,3.0
KOTH 211656Z 28003KT 10SM CLR 07/03 A2967 RMK AO2 SLP047 T00720033,KOTH,2023-03-21T16:56:00Z,43.42,-124.25,7.2,3.3,280,3,,10.0,29.66929,1004.7,,,TRUE,,,,,,,CLR,,,,,,,,VFR,,,,,,,,,,,,METAR,3.0
KOTH 211556Z 00000KT 10SM CLR 06/04 A2968 RMK AO2 SLP049 T00560039,KOTH,2023-03-21T15:56:00Z,43.42,-124.25,5.6,3.9,0,0,,10.0,29.681103,1004.9,,,TRUE,,,,,,,CLR,,,,,,,,VFR,,,,,,,,,,,,METAR,3.0
KOTH 211456Z 02004KT 10SM CLR 02/02 A2969 RMK AO2 SLP054 T00220022 58017,KOTH,2023-03-21T14:56:00Z,43.42,-124.25,2.2,2.2,20,4,,10.0,29.68996,1005.4,,,TRUE,,,,,,,CLR,,,,,,,,VFR,-1.7,,,,,,,,,,,SPECI,3.0
KOTH 211356Z 01003KT 10SM CLR 02/02 A2972 RMK AO2 SLP062 T00220022 FZRANO,KOTH,2023-03-21T13:56:00Z,43.42,-124.25,2.2,2.2,10,3,,10.0,29.719488,1006.2,,,TRUE,,,,TRUE,,,CLR,,,,,,,,VFR,,,,,,,,,,,,METAR,3.0
KOTH 211256Z AUTO 00000KT 10SM CLR 03/03 A2973 RMK AO2 SLP067 T00280028,KOTH,2023-03-21T12:56:00Z,43.42,-124.25,2.8,2.8,0,0,,10.0,29.731298,1006.7,,TRUE,TRUE,,,,,,,CLR,,,,,,,,VFR,,,,,,,,,,,,METAR,3.0
KOTH 211156Z AUTO 00000KT 10SM CLR 02/02 A2974 RMK AO2 SLP071 70038 T00220022 10050 20017 56015 FZRANO,KOTH,2023-03-21T11:56:00Z,43.42,-124.25,2.2,2.2,0,0,,10.0,29.740158,1007.1,,TRUE,TRUE,,,,TRUE,,,CLR,,,,,,,,VFR,-1.5,5.0,1.7,,,,,,0.38,,,METAR,3.0
KOTH 211056Z AUTO 01003KT 10SM CLR 03/02 A2975 RMK AO2 SLP075 T00280022,KOTH,2023-03-21T10:56:00Z,43.42,-124.25,2.8,2.2,10,3,,10.0,29.749016,1007.5,,TRUE,TRUE,,,,,,,CLR,,,,,,,,VFR,,,,,,,,,,,,METAR,3.0
KOTH 210956Z AUTO 01003KT 10SM CLR 03/02 A2977 RMK AO2 SLP080 T00330022,KOTH,2023-03-21T09:56:00Z,43.42,-124.25,3.3,2.2,10,3,,10.0,29.769686,1008.0,,TRUE,TRUE,,,,,,,CLR,,,,,,,,VFR,,,,,,,,,,,,METAR,3.0
KOTH 210856Z AUTO 03006KT 10SM CLR 04/03 A2979 RMK AO2 SLP086 T00390033 58018,KOTH,2023-03-21T08:56:00Z,43.42,-124.25,3.9,3.3,30,6,,10.0,29.790354,1008.6,,TRUE,TRUE,,,,,,,CLR,,,,,,,,VFR,-1.8,,,,,,,,,,,METAR,3.0
KOTH 210756Z AUTO 14004KT 10SM CLR 04/03 A2981 RMK AO2 SLP095 T00390028 401000039,KOTH,2023-03-21T07:56:00Z,43.42,-124.25,3.9,2.8,140,4,,10.0,29.811024,1009.5,,TRUE,TRUE,,,,,,,CLR,,,,,,,,VFR,,,,10.0,3.9,,,,,,,METAR,3.0
KOTH 210656Z AUTO 00000KT 10SM CLR 04/03 A2983 RMK AO2 SLP101 T00390028,KOTH,2023-03-21T06:56:00Z,43.42,-124.25,3.9,2.8,0,0,,10.0,29.828741,1010.1,,TRUE,TRUE,,,,,,,CLR,,,,,,,,VFR,,,,,,,,,,,,METAR,3.0
KOTH 210556Z AUTO VRB04KT 10SM CLR 05/04 A2984 RMK AO2 SLP105 T00500044 10100 20044 58006,KOTH,2023-03-21T05:56:00Z,43.42,-124.25,5.0,4.4,0,4,,10.0,29.840551,1010.5,,TRUE,TRUE,,,,,,,CLR,,,,,,,,VFR,-0.6,10.0,4.4,,,,,,,,,METAR,3.0
KOTH 210456Z AUTO VRB03KT 10SM CLR 05/04 A2985 RMK AO2 SLP107 T00500044,KOTH,2023-03-21T04:56:00Z,43.42,-124.25,5.0,4.4,0,3,,10.0,29.84941,1010.7,,TRUE,TRUE,,,,,,,CLR,,,,,,,,VFR,,,,,,,,,,,,METAR,3.0
KOTH 210356Z 07003KT 10SM FEW038 06/04 A2985 RMK AO2 SLP108 T00610044,KOTH,2023-03-21T03:56:00Z,43.42,-124.25,6.1,4.4,70,3,,10.0,29.84941,1010.8,,,TRUE,,,,,,,FEW,3800,,,,,,,VFR,,,,,,,,,,,,METAR,3.0
KOTH 210256Z 06004KT 10SM CLR 07/03 A2986 RMK AO2 SLP111 T00720033 58009,KOTH,2023-03-21T02:56:00Z,43.42,-124.25,7.2,3.3,60,4,,10.0,29.861221,1011.1,,,TRUE,,,,,,,CLR,,,,,,,,VFR,-0.9,,,,,,,,,,,METAR,3.0
KOTH 210156Z 28003KT 10SM BKN041 OVC049 08/04 A2987 RMK AO2 SLP115 T00830039,KOTH,2023-03-21T01:56:00Z,43.42,-124.25,8.3,3.9,280,3,,10.0,29.870079,1011.5,,,TRUE,,,,,,,BKN,4100,OVC,4900,,,,,VFR,,,,,,,,,,,,METAR,3.0
KOTH 210056Z 26010KT 10SM SCT049 09/03 A2988 RMK AO2 SLP116 T00890033,KOTH,2023-03-21T00:56:00Z,43.42,-124.25,8.9,3.3,260,10,,10.0,29.878937,1011.6,,,TRUE,,,,,,,SCT,4900,,,,,,,VFR,,,,,,,,,,,,METAR,3.0
KOTH 202356Z 26012KT 10SM BKN037 10/04 A2989 RMK AO2 SLP120 60000 T01000039 10100 20078 56009,KOTH,2023-03-20T23:56:00Z,43.42,-124.25,10.0,3.9,260,12,,10.0,29.890747,1012.0,,,TRUE,,,,,,,BKN,3700,,,,,,,VFR,-0.9,10.0,7.8,,,,,0.005,,,,METAR,3.0
KOTH 202256Z COR 25010KT 10SM BKN037 10/03 A2990 RMK AO2 SLP123 T01000033,KOTH,2023-03-20T22:56:00Z,43.42,-124.25,10.0,3.3,250,10,,10.0,29.899607,1012.3,TRUE,,TRUE,,,,,,,BKN,3700,,,,,,,VFR,,,,,,,,,,,,METAR,3.0
KOTH 202156Z 25012G16KT 10SM FEW038 BKN049 10/02 A2990 RMK AO2 SLP125 T01000022,KOTH,2023-03-20T21:56:00Z,43.42,-124.25,10.0,2.2,250,12,16,10.0,29.899607,1012.5,,,TRUE,,,,,,,FEW,3800,BKN,4900,,,,,VFR,,,,,,,,,,,,METAR,3.0
KOTH 202056Z 24010G17KT 10SM FEW030 SCT042 BKN050 10/04 A2992 RMK AO2 RAE14 SLP130 P0000 60000 T01000039 50002,KOTH,2023-03-20T20:56:00Z,43.42,-124.25,10.0,3.9,240,10,17,10.0,29.920275,1013.0,,,TRUE,,,,,,,FEW,3000,SCT,4200,BKN,5000,,,VFR,0.2,,,,,0.005,0.005,,,,,METAR,3.0
KOTH 202034Z 25010G17KT 10SM FEW024 SCT030 OVC043 09/04 A2992 RMK AO2 RAE14 P0000,KOTH,2023-03-20T20:34:00Z,43.42,-124.25,9.0,4.0,250,10,17,10.0,29.920275,,,,TRUE,,,,,,,FEW,2400,SCT,3000,OVC,4300,,,VFR,,,,,,0.005,,,,,,METAR,3.0
KOTH 202005Z 20005KT 10SM -RA FEW019 BKN029 OVC046 08/06 A2992 RMK AO2 P0000,KOTH,2023-03-20T20:05:00Z,43.42,-124.25,8.0,6.0,200,5,,10.0,29.920275,,,,TRUE,,,,,,-RA,FEW,1900,BKN,2900,OVC,4600,,,MVFR,,,,,,0.005,,,,,,METAR,3.0
KOTH 201956Z 20006KT 10SM -RA SCT027 BKN033 OVC041 08/04 A2992 RMK AO2 RAB46 SLP131 P0000 T00830044,KOTH,2023-03-20T19:56:00Z,43.42,-124.25,8.3,4.4,200,6,,10.0,29.920275,1013.1,,,TRUE,,,,,,-RA,SCT,2700,BKN,3300,OVC,4100,,,VFR,,,,,,0.005,,,,,,METAR,3.0
KOTH 201912Z 25010KT 10SM FEW024 BKN033 OVC047 09/04 A2991 RMK AO2,KOTH,2023-03-20T19:12:00Z,43.42,-124.25,9.0,4.0,250,10,,10.0,29.911417,,,,TRUE,,,,,,,FEW,2400,BKN,3300,OVC,4700,,,VFR,,,,,,,,,,,,SPECI,3.0
KOTH 201856Z 23009G15KT 10SM BKN023 BKN030 OVC036 09/05 A2992 RMK AO2 SLP130 T00890050,KOTH,2023-03-20T18:56:00Z,43.42,-124.25,8.9,5.0,230,9,15,10.0,29.920275,1013.0,,,TRUE,,,,,,,BKN,2300,BKN,3000,OVC,3600,,,MVFR,,,,,,,,,,,,METAR,3.0
KOTH 201756Z 23009KT 10SM FEW019 OVC025 08/06 A2991 RMK AO2 RAE35 SLP128 P0001 60038 T00830061 10083 20067 51017,KOTH,2023-03-20T17:56:00Z,43.42,-124.25,8.3,6.1,230,9,,10.0,29.911417,1012.8,,,TRUE,,,,,,,FEW,1900,OVC,2500,,,,,MVFR,1.7,8.3,6.7,,,0.01,,0.38,,,,METAR,3.0
KOTH 201734Z 25007G16KT 220V280 10SM -RA SCT013 BKN020 OVC055 07/06 A2991 RMK AO2 P0001,KOTH,2023-03-20T17:34:00Z,43.42,-124.25,7.0,6.0,250,7,16,10.0,29.911417,,,,TRUE,,,,,,-RA,SCT,1300,BKN,2000,OVC,5500,,,MVFR,,,,,,0.01,,,,,,METAR,3.0
KOTH 201718Z 23008KT 9SM -RA BKN013 OVC022 07/06 A2990 RMK AO2 P0001,KOTH,2023-03-20T17:18:00Z,43.42,-124.25,7.0,6.0,230,8,,9.0,29.899607,,,,TRUE,,,,,,-RA,BKN,1300,OVC,2200,,,,,MVFR,,,,,,0.01,,,,,,SPECI,3.0
KOTH 201656Z 24010G17KT 10SM -RA SCT013 OVC024 07/06 A2990 RMK AO2 SLP124 P0003 T00720061,KOTH,2023-03-20T16:56:00Z,43.42,-124.25,7.2,6.1,240,10,17,10.0,29.899607,1012.4,,,TRUE,,,,,,-RA,SCT,1300,OVC,2400,,,,,MVFR,,,,,,0.03,,,,,,METAR,3.0
KOTH 201651Z 24013G17KT 10SM -RA FEW008 BKN013 OVC028 07/06 A2990 RMK AO2 P0003,KOTH,2023-03-20T16:51:00Z,43.42,-124.25,7.0,6.0,240,13,17,10.0,29.899607,,,,TRUE,,,,,,-RA,FEW,800,BKN,1300,OVC,2800,,,MVFR,,,,,,0.03,,,,,,SPECI,3.0
KOTH 201641Z 22008KT 10SM -RA SCT010 BKN023 OVC028 07/06 A2990 RMK AO2 P0003,KOTH,2023-03-20T16:41:00Z,43.42,-124.25,7.0,6.0,220,8,,10.0,29.899607,,,,TRUE,,,,,,-RA,SCT,1000,BKN,2300,OVC,2800,,,MVFR,,,,,,0.03,,,,,,SPECI,3.0
KOTH 201617Z 23010G17KT 4SM -RA BR FEW008 BKN013 OVC029 07/06 A2989 RMK AO2 P0002,KOTH,2023-03-20T16:17:00Z,43.42,-124.25,7.0,6.0,230,10,17,4.0,29.890747,,,,TRUE,,,,,,-RA BR,FEW,800,BKN,1300,OVC,2900,,,MVFR,,,,,,0.02,,,,,,SPECI,3.0
KOTH 201556Z 24010G14KT 3SM RA BR FEW010 OVC017 07/06 A2988 RMK AO2 SLP118 P0007 T00720056,KOTH,2023-03-20T15:56:00Z,43.42,-124.25,7.2,5.6,240,10,14,3.0,29.878937,1011.8,,,TRUE,,,,,,RA BR,FEW,1000,OVC,1700,,,,,MVFR,,,,,,0.07,,,,,,METAR,3.0
KOTH 201456Z 20008KT 4SM -RA BR BKN017 BKN024 OVC031 07/06 A2986 RMK AO2 SLP111 P0010 60027 T00670056 53018,KOTH,2023-03-20T14:56:00Z,43.42,-124.25,6.7,5.6,200,8,,4.0,29.861221,1011.1,,,TRUE,,,,,,-RA BR,BKN,1700,BKN,2400,OVC,3100,,,MVFR,1.8,,,,,0.1,,,,,,SPECI,3.0
KOTH 201356Z 24014G21KT 8SM RA FEW009 BKN017 OVC030 07/06 A2984 RMK AO2 SLP103 P0005 T00720056,KOTH,2023-03-20T13:56:00Z,43.42,-124.25,7.2,5.6,240,14,21,8.0,29.840551,1010.3,,,TRUE,,,,,,RA,FEW,900,BKN,1700,OVC,3000,,,MVFR,,,,,,0.05,,,,,,METAR,3.0
KOTH 201354Z 23015G21KT 8SM RA FEW009 BKN017 OVC030 07/06 A2983 RMK AO2 P0004,KOTH,2023-03-20T13:54:00Z,43.42,-124.25,7.0,6.0,230,15,21,8.0,29.828741,,,,TRUE,,,,,,RA,FEW,900,BKN,1700,OVC,3000,,,MVFR,,,,,,0.04,,,,,,METAR,3.0
KOTH 201347Z 23015G19KT 10SM -RA SCT010 OVC017 07/06 A2983 RMK AO2 P0003,KOTH,2023-03-20T13:47:00Z,43.42,-124.25,7.0,6.0,230,15,19,10.0,29.828741,,,,TRUE,,,,,,-RA,SCT,1000,OVC,1700,,,,,MVFR,,,,,,0.03,,,,,,SPECI,3.0
KOTH 201256Z AUTO 22011G19KT 4SM -RA BR OVC007 07/07 A2981 RMK AO2 CIG 005V013 SLP093 P0012 T00720067,KOTH,2023-03-20T12:56:00Z,43.42,-124.25,7.2,6.7,220,11,19,4.0,29.811024,1009.3,,TRUE,TRUE,,,,,,-RA BR,OVC,700,,,,,,,IFR,,,,,,0.12,,,,,,METAR,3.0
KOTH 201241Z AUTO 21009KT 8SM RA BKN009 OVC014 07/06 A2980 RMK AO2 P0007,KOTH,2023-03-20T12:41:00Z,43.42,-124.25,7.0,6.0,210,9,,8.0,29.799213,,,TRUE,TRUE,,,,,,RA,BKN,900,OVC,1400,,,,,IFR,,,,,,0.07,,,,,,SPECI,3.0
KOTH 201231Z AUTO 22013G19KT 8SM RA BKN011 OVC024 07/06 A2980 RMK AO2 P0004,KOTH,2023-03-20T12:31:00Z,43.42,-124.25,7.0,6.0,220,13,19,8.0,29.799213,,,TRUE,TRUE,,,,,,RA,BKN,1100,OVC,2400,,,,,MVFR,,,,,,0.04,,,,,,SPECI,3.0
KOTH 201156Z AUTO 22013G19KT 7SM -RA OVC009 07/07 A2978 RMK AO2 CIG 006V013 SLP084 P0003 60007 70041 T00720067 10083 20067 53010,KOTH,2023-03-20T11:56:00Z,43.42,-124.25,7.2,6.7,220,13,19,7.0,29.778543,1008.4,,TRUE,TRUE,,,,,,-RA,OVC,900,,,,,,,IFR,1.0,8.3,6.7,,,0.03,,0.07,0.41,,,METAR,3.0
KOTH 201135Z AUTO 21012KT 3SM -RA BR OVC009 07/06 A2978 RMK AO2 CIG 006V011 P0002,KOTH,2023-03-20T11:35:00Z,43.42,-124.25,7.0,6.0,210,12,,3.0,29.778543,,,TRUE,TRUE,,,,,,-RA BR,OVC,900,,,,,,,IFR,,,,,,0.02,,,,,,SPECI,3.0
KOTH 201126Z AUTO 22013G18KT 2 1/2SM -RA BR OVC009 07/06 A2977 RMK AO2 CIG 006V013 P0001,KOTH,2023-03-20T11:26:00Z,43.42,-124.25,7.0,6.0,220,13,18,2.5,29.769686,,,TRUE,TRUE,,,,,,-RA BR,OVC,900,,,,,,,IFR,,,,,,0.01,,,,,,SPECI,3.0
KOTH 201056Z AUTO 23014G21KT 5SM -RA BR BKN009 BKN012 OVC034 07/07 A2977 RMK AO2 CIG 007V010 SLP080 P0001 T00720067,KOTH,2023-03-20T10:56:00Z,43.42,-124.25,7.2,6.7,230,14,21,5.0,29.769686,1008.0,,TRUE,TRUE,,,,,,-RA BR,BKN,900,BKN,1200,OVC,3400,,,IFR,,,,,,0.01,,,,,,METAR,3.0
KOTH 201039Z AUTO 23013G20KT 5SM -RA BR OVC009 07/07 A2977 RMK AO2 CIG 007V015 P0000,KOTH,2023-03-20T10:39:00Z,43.42,-124.25,7.0,7.0,230,13,20,5.0,29.769686,,,TRUE,TRUE,,,,,,-RA BR,OVC,900,,,,,,,IFR,,,,,,0.005,,,,,,METAR,3.0
KOTH 200956Z AUTO 22010KT 7SM -RA BKN012 OVC022 07/06 A2976 RMK AO2 SLP078 P0002 T00720061,KOTH,2023-03-20T09:56:00Z,43.42,-124.25,7.2,6.1,220,10,,7.0,29.760826,1007.8,,TRUE,TRUE,,,,,,-RA,BKN,1200,OVC,2200,,,,,MVFR,,,,,,0.02,,,,,,SPECI,3.0
KOTH 200856Z AUTO 22009KT 9SM -RA BKN014 BKN028 OVC035 08/07 A2975 RMK AO2 RAE0758B27 SLP074 P0000 60001 T00780067 51012,KOTH,2023-03-20T08:56:00Z,43.42,-124.25,7.8,6.7,220,9,,9.0,29.749016,1007.4,,TRUE,TRUE,,,,,,-RA,BKN,1400,BKN,2800,OVC,3500,,,MVFR,1.2,,,,,0.005,0.01,,,,,METAR,3.0
KOTH 200846Z AUTO 23010KT 10SM -RA BKN014 BKN031 OVC060 08/07 A2975 RMK AO2 RAE0758B27 P0000,KOTH,2023-03-20T08:46:00Z,43.42,-124.25,8.0,7.0,230,10,,10.0,29.749016,,,TRUE,TRUE,,,,,,-RA,BKN,1400,BKN,3100,OVC,6000,,,MVFR,,,,,,0.005,,,,,,SPECI,3.0
KOTH 200756Z AUTO 25013G18KT 10SM -RA SCT014 BKN023 OVC032 08/07 A2974 RMK AO2 RAE01B41 SLP070 P0000 T00780067 401110072,KOTH,2023-03-20T07:56:00Z,43.42,-124.25,7.8,6.7,250,13,18,10.0,29.740158,1007.0,,TRUE,TRUE,,,,,,-RA,SCT,1400,BKN,2300,OVC,3200,,,MVFR,,,,11.1,7.2,0.005,,,,,,METAR,3.0
KOTH 200743Z AUTO 24009KT 10SM -RA SCT014 OVC023 08/07 A2974 RMK AO2 RAE01B41 P0000,KOTH,2023-03-20T07:43:00Z,43.42,-124.25,8.0,7.0,240,9,,10.0,29.740158,,,TRUE,TRUE,,,,,,-RA,SCT,1400,OVC,2300,,,,,MVFR,,,,,,0.005,,,,,,SPECI,3.0
KOTH 200709Z AUTO 24008KT 10SM FEW008 BKN014 OVC043 08/07 A2974 RMK AO2 RAE01 P0000,KOTH,2023-03-20T07:09:00Z,43.42,-124.25,8.0,7.0,240,8,,10.0,29.740158,,,TRUE,TRUE,,,,,,,FEW,800,BKN,1400,OVC,4300,,,MVFR,,,,,,0.005,,,,,,SPECI,3.0
KOTH 200705Z AUTO 24009KT 10SM FEW010 BKN019 OVC043 08/07 A2973 RMK AO2 RAE01 P0000,KOTH,2023-03-20T07:05:00Z,43.42,-124.25,8.0,7.0,240,9,,10.0,29.731298,,,TRUE,TRUE,,,,,,,FEW,1000,BKN,1900,OVC,4300,,,MVFR,,,,,,0.005,,,,,,SPECI,3.0
KOTH 200656Z AUTO 23009KT 5SM -RA BR SCT010 BKN014 OVC041 08/07 A2973 RMK AO2 RAB37 SLP068 P0001 T00780072,KOTH,2023-03-20T06:56:00Z,43.42,-124.25,7.8,7.2,230,9,,5.0,29.731298,1006.8,,TRUE,TRUE,,,,,,-RA BR,SCT,1000,BKN,1400,OVC,4100,,,MVFR,,,,,,0.01,,,,,,METAR,3.0
KOTH 200631Z AUTO 24009KT 10SM FEW008 BKN012 OVC025 08/08 A2973 RMK AO2,KOTH,2023-03-20T06:31:00Z,43.42,-124.25,8.0,8.0,240,9,,10.0,29.731298,,,TRUE,TRUE,,,,,,,FEW,800,BKN,1200,OVC,2500,,,MVFR,,,,,,,,,,,,SPECI,3.0
KOTH 200618Z AUTO 24012G17KT 7SM BKN010 BKN014 OVC022 08/08 A2972 RMK AO2 CIG 006V013,KOTH,2023-03-20T06:18:00Z,43.42,-124.25,8.0,8.0,240,12,17,7.0,29.719488,,,TRUE,TRUE,,,,,,,BKN,1000,BKN,1400,OVC,2200,,,MVFR,,,,,,,,,,,,SPECI,3.0
KOTH 200556Z AUTO 25012KT 8SM BKN008 BKN016 OVC028 08/08 A2972 RMK AO2 WSHFT 0524 RAB06E49 CIG 005V012 SLP062 P0012 60012 T00830078 10111 20083 53005,KOTH,2023-03-20T05:56:00Z,43.42,-124.25,8.3,7.8,250,12,,8.0,29.719488,1006.2,,TRUE,TRUE,,,,,,,BKN,800,BKN,1600,OVC,2800,,,IFR,0.5,11.1,8.3,,,0.12,,0.12,,,,METAR,3.0
KOTH 200544Z AUTO 26017KT 9SM -RA BKN008 OVC012 08/08 A2971 RMK AO2 WSHFT 0524 RAB06 CIG 004V009 P0012,KOTH,2023-03-20T05:44:00Z,43.42,-124.25,8.0,8.0,260,17,,9.0,29.71063,,,TRUE,TRUE,,,,,,-RA,BKN,800,OVC,1200,,,,,IFR,,,,,,0.12,,,,,,SPECI,3.0
KOTH 200522Z AUTO 22008KT 4SM RA BR BKN009 OVC013 09/08 A2970 RMK AO2 RAB06 CIG 005V011 P0007,KOTH,2023-03-20T05:22:00Z,43.42,-124.25,9.0,8.0,220,8,,4.0,29.698818,,,TRUE,TRUE,,,,,,RA BR,BKN,900,OVC,1300,,,,,IFR,,,,,,0.07,,,,,,METAR,3.0
KOTH 200456Z AUTO 18006KT 10SM OVC011 09/08 A2970 RMK AO2 RAB08E56 SLP055 P0000 T00890083,KOTH,2023-03-20T04:56:00Z,43.42,-124.25,8.9,8.3,180,6,,10.0,29.698818,1005.5,,TRUE,TRUE,,,,,,,OVC,1100,,,,,,,MVFR,,,,,,0.005,,,,,,METAR,3.0
KOTH 200451Z AUTO 18005KT 10SM -RA SCT008 OVC011 09/08 A2970 RMK AO2 RAB08 P0000,KOTH,2023-03-20T04:51:00Z,43.42,-124.25,9.0,8.0,180,5,,10.0,29.698818,,,TRUE,TRUE,,,,,,-RA,SCT,800,OVC,1100,,,,,MVFR,,,,,,0.005,,,,,,SPECI,3.0
KOTH 200421Z AUTO 20006KT 10SM -RA BKN009 OVC013 09/08 A2970 RMK AO2 RAB08 P0000,KOTH,2023-03-20T04:21:00Z,43.42,-124.25,9.0,8.0,200,6,,10.0,29.698818,,,TRUE,TRUE,,,,,,-RA,BKN,900,OVC,1300,,,,,IFR,,,,,,0.005,,,,,,SPECI,3.0
KOTH 200404Z AUTO 18006KT 10SM OVC011 09/08 A2970 RMK AO2,KOTH,2023-03-20T04:04:00Z,43.42,-124.25,9.0,8.0,180,6,,10.0,29.698818,,,TRUE,TRUE,,,,,,,OVC,1100,,,,,,,MVFR,,,,,,,,,,,,METAR,3.0
KOTH 200356Z AUTO 19006KT 10SM BKN009 OVC013 09/08 A2970 RMK AO2 SLP056 T00890083,KOTH,2023-03-20T03:56:00Z,43.42,-124.25,8.9,8.3,190,6,,10.0,29.698818,1005.6,,TRUE,TRUE,,,,,,,BKN,900,OVC,1300,,,,,IFR,,,,,,,,,,,,METAR,3.0
KOTH 200333Z 20006KT 10SM OVC009 09/08 A2970 RMK AO2,KOTH,2023-03-20T03:33:00Z,43.42,-124.25,9.0,8.0,200,6,,10.0,29.698818,,,,TRUE,,,,,,,OVC,900,,,,,,,IFR,,,,,,,,,,,,SPECI,3.0
KOTH 200316Z 20009KT 10SM OVC011 09/08 A2970 RMK AO2,KOTH,2023-03-20T03:16:00Z,43.42,-124.25,9.0,8.0,200,9,,10.0,29.698818,,,,TRUE,,,,,,,OVC,1100,,,,,,,MVFR,,,,,,,,,,,,SPECI,3.0
KOTH 200256Z 23008KT 10SM OVC009 09/08 A2970 RMK AO2 CIG 006V012 SLP055 60000 T00940083 53002,KOTH,2023-03-20T02:56:00Z,43.42,-124.25,9.4,8.3,230,8,,10.0,29.698818,1005.5,,,TRUE,,,,,,,OVC,900,,,,,,,IFR,0.2,,,,,,0.005,,,,,METAR,3.0
KOTH 200156Z 22006KT 10SM OVC008 10/09 A2968 RMK AO2 CIG 006V011 SLP051 T01000094,KOTH,2023-03-20T01:56:00Z,43.42,-124.25,10.0,9.4,220,6,,10.0,29.681103,1005.1,,,TRUE,,,,,,,OVC,800,,,,,,,IFR,,,,,,,,,,,,METAR,3.0
KOTH 200126Z 23009KT 10SM OVC008 10/09 A2968 RMK AO2 CIG 007V011,KOTH,2023-03-20T01:26:00Z,43.42,-124.25,10.0,9.0,230,9,,10.0,29.681103,,,,TRUE,,,,,,,OVC,800,,,,,,,IFR,,,,,,,,,,,,SPECI,3.0
KOTH 200056Z 20011KT 10SM BKN010 OVC015 11/09 A2968 RMK AO2 RAE2358 SLP049 P0000 T01060094,KOTH,2023-03-20T00:56:00Z,43.42,-124.25,10.6,9.4,200,11,,10.0,29.681103,1004.9,,,TRUE,,,,,,,BKN,1000,OVC,1500,,,,,MVFR,,,,,,0.005,,,,,,METAR,3.0
KOTH 200007Z 21010G16KT 7SM OVC010 11/10 A2969 RMK AO2 RAE2358 CIG 007V013 P0000,KOTH,2023-03-20T00:07:00Z,43.42,-124.25,11.0,10.0,210,10,16,7.0,29.68996,,,,TRUE,,,,,,,OVC,1000,,,,,,,MVFR,,,,,,0.005,,,,,,SPECI,3.0
KOTH 192356Z 21010KT 6SM -RA BR BKN008 OVC013 11/10 A2969 RMK AO2 CIG 007V011 SLP053 P0001 60010 T01060100 10111 20094 58003,KOTH,2023-03-19T23:56:00Z,43.42,-124.25,10.6,10.0,210,10,,6.0,29.68996,1005.3,,,TRUE,,,,,,-RA BR,BKN,800,OVC,1300,,,,,IFR,-0.3,11.1,9.4,,,0.01,,0.1,,,,METAR,3.0
KOTH 192352Z 21009G19KT 5SM -RA BR BKN008 OVC015 11/10 A2969 RMK AO2 CIG 007V011 P0001,KOTH,2023-03-19T23:52:00Z,43.42,-124.25,11.0,10.0,210,9,19,5.0,29.68996,,,,TRUE,,,,,,-RA BR,BKN,800,OVC,1500,,,,,IFR,,,,,,0.01,,,,,,SPECI,3.0
KOTH 192335Z 20010KT 2 1/2SM -RA BR BKN008 OVC013 11/10 A2969 RMK AO2 CIG 007V012 P0001,KOTH,2023-03-19T23:35:00Z,43.42,-124.25,11.0,10.0,200,10,,2.5,29.68996,,,,TRUE,,,,,,-RA BR,BKN,800,OVC,1300,,,,,IFR,,,,,,0.01,,,,,,SPECI,3.0
KOTH 192256Z 19005KT 3SM -RA BR SCT006 BKN011 OVC021 11/10 A2970 RMK AO2 SLP057 P0004 T01060100,KOTH,2023-03-19T22:56:00Z,43.42,-124.25,10.6,10.0,190,5,,3.0,29.698818,1005.7,,,TRUE,,,,,,-RA BR,SCT,600,BKN,1100,OVC,2100,,,MVFR,,,,,,0.04,,,,,,METAR,3.0
KOTH 192226Z 26005KT 4SM -RA BR OVC004 10/09 A2971 RMK AO2 CIG 003V008 P0004,KOTH,2023-03-19T22:26:00Z,43.42,-124.25,10.0,9.0,260,5,,4.0,29.71063,,,,TRUE,,,,,,-RA BR,OVC,400,,,,,,,LIFR,,,,,,0.04,,,,,,SPECI,3.0
KOTH 192207Z 24006KT 3SM -RA BR BKN006 BKN012 OVC016 09/09 A2971 RMK AO2 CIG 003V010 P0002,KOTH,2023-03-19T22:07:00Z,43.42,-124.25,9.0,9.0,240,6,,3.0,29.71063,,,,TRUE,,,,,,-RA BR,BKN,600,BKN,1200,OVC,1600,,,IFR,,,,,,0.02,,,,,,SPECI,3.0
KOTH 192200Z 27005KT 2 1/2SM RA BR SCT006 BKN012 OVC017 09/09 A2971 RMK AO2 P0001,KOTH,2023-03-19T22:00:00Z,43.42,-124.25,9.0,9.0,270,5,,2.5,29.71063,,,,TRUE,,,,,,RA BR,SCT,600,BKN,1200,OVC,1700,,,IFR,,,,,,0.01,,,,,,SPECI,3.0
KOTH 192156Z 27006KT 3SM +RA BR BKN008 BKN013 OVC019 10/09 A2971 RMK AO2 RAB2057 SLP059 P0003 T01000089,KOTH,2023-03-19T21:56:00Z,43.42,-124.25,10.0,8.9,270,6,,3.0,29.71063,1005.9,,,TRUE,,,,,,+RA BR,BKN,800,BKN,1300,OVC,1900,,,IFR,,,,,,0.03,,,,,,METAR,3.0
KOTH 192153Z 26007KT 2SM -RA BR SCT008 BKN013 OVC019 10/09 A2971 RMK AO2 RAB2057 P0001,KOTH,2023-03-19T21:53:00Z,43.42,-124.25,10.0,9.0,260,7,,2.0,29.71063,,,,TRUE,,,,,,-RA BR,SCT,800,BKN,1300,OVC,1900,,,IFR,,,,,,0.01,,,,,,SPECI,3.0
KOTH 192147Z 27004KT 6SM -RA BR BKN014 OVC019 10/09 A2971 RMK AO2 RAB2057 P0000,KOTH,2023-03-19T21:47:00Z,43.42,-124.25,10.0,9.0,270,4,,6.0,29.71063,,,,TRUE,,,,,,-RA BR,BKN,1400,OVC,1900,,,,,MVFR,,,,,,0.005,,,,,,SPECI,3.0
KOTH 192110Z 30003KT 10SM -RA FEW021 BKN028 OVC046 10/09 A2972 RMK AO2 RAB2057 P0000,KOTH,2023-03-19T21:10:00Z,43.42,-124.25,10.0,9.0,300,3,,10.0,29.719488,,,,TRUE,,,,,,-RA,FEW,2100,BKN,2800,OVC,4600,,,MVFR,,,,,,0.005,,,,,,METAR,3.0
KOTH 192056Z 29004KT 10SM SCT021 BKN035 OVC044 10/09 A2973 RMK AO2 RAB31E53 SLP066 P0000 60002 T01000089 57014,KOTH,2023-03-19T20:56:00Z,43.42,-124.25,10.0,8.9,290,4,,10.0,29.731298,1006.6,,,TRUE,,,,,,,SCT,2100,BKN,3500,OVC,4400,,,VFR,-1.4,,,,,0.005,0.02,,,,,METAR,3.0
KOTH 192029Z 26003KT 10SM SCT006 SCT014 OVC024 10/09 A2973 RMK AO2,KOTH,2023-03-19T20:29:00Z,43.42,-124.25,10.0,9.0,260,3,,10.0,29.731298,,,,TRUE,,,,,,,SCT,600,SCT,1400,OVC,2400,,,MVFR,,,,,,,,,,,,METAR,3.0
KOTH 192020Z 26003KT 10SM BKN006 BKN014 OVC026 10/09 A2974 RMK AO2,KOTH,2023-03-19T20:20:00Z,43.42,-124.25,10.0,9.0,260,3,,10.0,29.740158,,,,TRUE,,,,,,,BKN,600,BKN,1400,OVC,2600,,,IFR,,,,,,,,,,,,METAR,3.0
KOTH 192007Z 24003KT 10SM SCT008 BKN014 OVC045 11/09 A2974 RMK AO2,KOTH,2023-03-19T20:07:00Z,43.42,-124.25,11.0,9.0,240,3,,10.0,29.740158,,,,TRUE,,,,,,,SCT,800,BKN,1400,OVC,4500,,,MVFR,,,,,,,,,,,,SPECI,3.0
KOTH 191956Z 25003KT 10SM FEW008 BKN016 OVC045 10/09 A2974 RMK AO2 RAE01B23E53 SLP070 P0000 T01000094,KOTH,2023-03-19T19:56:00Z,43.42,-124.25,10.0,9.4,250,3,,10.0,29.740158,1007.0,,,TRUE,,,,,,,FEW,800,BKN,1600,OVC,4500,,,MVFR,,,,,,0.005,,,,,,METAR,3.0
KOTH 191903Z 29003KT 10SM FEW005 BKN021 OVC025 09/09 A2976 RMK AO2 RAE01 P0000,KOTH,2023-03-19T19:03:00Z,43.42,-124.25,9.0,9.0,290,3,,10.0,29.760826,,,,TRUE,,,,,,,FEW,500,BKN,2100,OVC,2500,,,MVFR,,,,,,0.005,,,,,,SPECI,3.0
KOTH 191856Z 25003KT 3SM -RA BR FEW003 BKN013 OVC018 09/09 A2976 RMK AO2 SLP076 P0002 T00940094,KOTH,2023-03-19T18:56:00Z,43.42,-124.25,9.4,9.4,250,3,,3.0,29.760826,1007.6,,,TRUE,,,,,,-RA BR,FEW,300,BKN,1300,OVC,1800,,,MVFR,,,,,,0.02,,,,,,METAR,3.0
KOTH 191805Z 00000KT 3SM -RA BR FEW003 BKN013 OVC018 09/09 A2977 RMK AO2 P0001,KOTH,2023-03-19T18:05:00Z,43.42,-124.25,9.0,9.0,0,0,,3.0,29.769686,,,,TRUE,,,,,,-RA BR,FEW,300,BKN,1300,OVC,1800,,,MVFR,,,,,,0.01,,,,,,METAR,3.0
KOTH 191756Z 16005KT 3SM -RA BR FEW003 OVC018 09/09 A2977 RMK AO2 SLP080 P0001 60012 T00940089 10094 20083 56008,KOTH,2023-03-19T17:56:00Z,43.42,-124.25,9.4,8.9,160,5,,3.0,29.769686,1008.0,,,TRUE,,,,,,-RA BR,FEW,300,OVC,1800,,,,,MVFR,-0.8,9.4,8.3,,,0.01,,0.12,,,,METAR,3.0
KOTH 191738Z 16003KT 4SM -RA BR FEW010 BKN021 OVC046 09/09 A2977 RMK AO2 P0001,KOTH,2023-03-19T17:38:00Z,43.42,-124.25,9.0,9.0,160,3,,4.0,29.769686,,,,TRUE,,,,,,-RA BR,FEW,1000,BKN,2100,OVC,4600,,,MVFR,,,,,,0.01,,,,,,METAR,3.0
KOTH 191656Z 13004KT 6SM -RA BR FEW003 OVC044 09/09 A2978 RMK AO2 SLP082 P0002 T00890089,KOTH,2023-03-19T16:56:00Z,43.42,-124.25,8.9,8.9,130,4,,6.0,29.778543,1008.2,,,TRUE,,,,,,-RA BR,FEW,300,OVC,4400,,,,,VFR,,,,,,0.02,,,,,,METAR,3.0
KOTH 191641Z 00000KT 6SM -RA BR FEW003 SCT022 OVC046 09/09 A2977 RMK AO2 P0002,KOTH,2023-03-19T16:41:00Z,43.42,-124.25,9.0,9.0,0,0,,6.0,29.769686,,,,TRUE,,,,,,-RA BR,FEW,300,SCT,2200,OVC,4600,,,VFR,,,,,,0.02,,,,,,SPECI,3.0
KOTH 191556Z 14003KT 7SM -RA FEW022 SCT036 OVC047 09/08 A2978 RMK AO2 SLP085 P0003 T00890083,KOTH,2023-03-19T15:56:00Z,43.42,-124.25,8.9,8.3,140,3,,7.0,29.778543,1008.5,,,TRUE,,,,,,-RA,FEW,2200,SCT,3600,OVC,4700,,,VFR,,,,,,0.03,,,,,,METAR,3.0
KOTH 191456Z 00000KT 10SM -RA BKN037 OVC045 08/08 A2979 RMK AO2 SLP088 P0003 60006 T00830083 58009,KOTH,2023-03-19T14:56:00Z,43.42,-124.25,8.3,8.3,0,0,,10.0,29.790354,1008.8,,,TRUE,,,,,,-RA,BKN,3700,OVC,4500,,,,,VFR,-0.9,,,,,0.03,,,,,,SPECI,3.0
KOTH 191440Z 00000KT 6SM -RA BR BKN038 OVC045 08/08 A2980 RMK AO2 P0002,KOTH,2023-03-19T14:40:00Z,43.42,-124.25,8.0,8.0,0,0,,6.0,29.799213,,,,TRUE,,,,,,-RA BR,BKN,3800,OVC,4500,,,,,VFR,,,,,,0.02,,,,,,SPECI,3.0
KOTH 191356Z 00000KT 10SM -RA BKN024 BKN030 OVC044 08/08 A2981 RMK AO2 SLP094 P0003 T00830078,KOTH,2023-03-19T13:56:00Z,43.42,-124.25,8.3,7.8,0,0,,10.0,29.811024,1009.4,,,TRUE,,,,,,-RA,BKN,2400,BKN,3000,OVC,4400,,,MVFR,,,,,,0.03,,,,,,METAR,3.0
KOTH 191329Z AUTO 00000KT 10SM -RA FEW023 BKN029 OVC049 08/08 A2982 RMK AO2 P0000,KOTH,2023-03-19T13:29:00Z,43.42,-124.25,8.0,8.0,0,0,,10.0,29.819881,,,TRUE,TRUE,,,,,,-RA,FEW,2300,BKN,2900,OVC,4900,,,MVFR,,,,,,0.005,,,,,,SPECI,3.0
KOTH 191256Z AUTO 00000KT 10SM -RA BKN035 OVC060 09/07 A2982 RMK AO2 RAB31 SLP096 P0000 T00890072,KOTH,2023-03-19T12:56:00Z,43.42,-124.25,8.9,7.2,0,0,,10.0,29.819881,1009.6,,TRUE,TRUE,,,,,,-RA,BKN,3500,OVC,6000,,,,,VFR,,,,,,0.005,,,,,,SPECI,3.0
KOTH 191156Z AUTO 12004KT 10SM BKN037 OVC110 08/07 A2982 RMK AO2 SLP097 T00830072 10094 20067 55012,KOTH,2023-03-19T11:56:00Z,43.42,-124.25,8.3,7.2,120,4,,10.0,29.819881,1009.7,,TRUE,TRUE,,,,,,,BKN,3700,OVC,11000,,,,,VFR,-1.2,9.4,6.7,,,,,,,,,SPECI,3.0
KOTH 191056Z AUTO 18006KT 10SM FEW070 OVC110 09/08 A2982 RMK AO2 SLP097 T00940078,KOTH,2023-03-19T10:56:00Z,43.42,-124.25,9.4,7.8,180,6,,10.0,29.819881,1009.7,,TRUE,TRUE,,,,,,,FEW,7000,OVC,11000,,,,,VFR,,,,,,,,,,,,METAR,3.0
KOTH 190956Z AUTO VRB04KT 10SM BKN100 OVC120 08/08 A2983 RMK AO2 SLP099 T00830078,KOTH,2023-03-19T09:56:00Z,43.42,-124.25,8.3,7.8,0,4,,10.0,29.828741,1009.9,,TRUE,TRUE,,,,,,,BKN,10000,OVC,12000,,,,,VFR,,,,,,,,,,,,METAR,3.0
KOTH 190856Z AUTO 17005KT 10SM SCT120 07/07 A2986 RMK AO2 SLP109 T00720067 55007,KOTH,2023-03-19T08:56:00Z,43.42,-124.25,7.2,6.7,170,5,,10.0,29.861221,1010.9,,TRUE,TRUE,,,,,,,SCT,12000,,,,,,,VFR,-0.7,,,,,,,,,,,METAR,3.0
KOTH 190756Z AUTO 13003KT 10SM CLR 07/07 A2985 RMK AO2 SLP106 T00720067 401330033,KOTH,2023-03-19T07:56:00Z,43.42,-124.25,7.2,6.7,130,3,,10.0,29.84941,1010.6,,TRUE,TRUE,,,,,,,CLR,,,,,,,,VFR,,,,13.3,3.3,,,,,,,METAR,3.0
KOTH 190656Z AUTO 15004KT 10SM CLR 07/06 A2986 RMK AO2 SLP110 T00670061,KOTH,2023-03-19T06:56:00Z,43.42,-124.25,6.7,6.1,150,4,,10.0,29.861221,1011.0,,TRUE,TRUE,,,,,,,CLR,,,,,,,,VFR,,,,,,,,,,,,METAR,3.0
KOTH 190556Z AUTO 15004KT 10SM CLR 08/07 A2988 RMK AO2 SLP116 T00830072 10133 20078 58005,KOTH,2023-03-19T05:56:00Z,43.42,-124.25,8.3,7.2,150,4,,10.0,29.878937,1011.6,,TRUE,TRUE,,,,,,,CLR,,,,,,,,VFR,-0.5,13.3,7.8,,,,,,,,,METAR,3.0
KOTH 190456Z AUTO 14003KT 10SM CLR 09/07 A2989 RMK AO2 SLP121 T00890067,KOTH,2023-03-19T04:56:00Z,43.42,-124.25,8.9,6.7,140,3,,10.0,29.890747,1012.1,,TRUE,TRUE,,,,,,,CLR,,,,,,,,VFR,,,,,,,,,,,,METAR,3.0
KOTH 190356Z 00000KT 10SM CLR 09/08 A2990 RMK AO2 SLP123 T00940078,KOTH,2023-03-19T03:56:00Z,43.42,-124.25,9.4,7.8,0,0,,10.0,29.899607,1012.3,,,TRUE,,,,,,,CLR,,,,,,,,VFR,,,,,,,,,,,,METAR,3.0
KOTH 190256Z 00000KT 10SM CLR 12/05 A2989 RMK AO2 SLP120 T01170050 56005,KOTH,2023-03-19T02:56:00Z,43.42,-124.25,11.7,5.0,0,0,,10.0,29.890747,1012.0,,,TRUE,,,,,,,CLR,,,,,,,,VFR,-0.5,,,,,,,,,,,METAR,3.0
KOTH 190156Z 34004KT 10SM CLR 12/04 A2989 RMK AO2 SLP122 T01220044,KOTH,2023-03-19T01:56:00Z,43.42,-124.25,12.2,4.4,340,4,,10.0,29.890747,1012.2,,,TRUE,,,,,,,CLR,,,,,,,,VFR,,,,,,,,,,,,METAR,3.0
KOTH 190056Z 31005KT 10SM CLR 13/04 A2989 RMK AO2 SLP122 T01330044,KOTH,2023-03-19T00:56:00Z,43.42,-124.25,13.3,4.4,310,5,,10.0,29.890747,1012.2,,,TRUE,,,,,,,CLR,,,,,,,,VFR,,,,,,,,,,,,METAR,3.0
KOTH 182356Z 29004KT 10SM CLR 12/08 A2990 RMK AO2 SLP126 T01220078 10122 20083 56017,KOTH,2023-03-18T23:56:00Z,43.42,-124.25,12.2,7.8,290,4,,10.0,29.899607,1012.6,,,TRUE,,,,,,,CLR,,,,,,,,VFR,-1.7,12.2,8.3,,,,,,,,,METAR,3.0
KOTH 182256Z 28005KT 10SM CLR 12/07 A2992 RMK AO2 SLP131 T01170067,KOTH,2023-03-18T22:56:00Z,43.42,-124.25,11.7,6.7,280,5,,10.0,29.920275,1013.1,,,TRUE,,,,,,,CLR,,,,,,,,VFR,,,,,,,,,,,,METAR,3.0
KOTH 182156Z 28007KT 10SM CLR 12/07 A2993 RMK AO2 SLP136 T01170072,KOTH,2023-03-18T21:56:00Z,43.42,-124.25,11.7,7.2,280,7,,10.0,29.929134,1013.6,,,TRUE,,,,,,,CLR,,,,,,,,VFR,,,,,,,,,,,,SPECI,3.0
KOTH 182056Z 28005KT 10SM CLR 12/08 A2995 RMK AO2 SLP143 T01170078 58020,KOTH,2023-03-18T20:56:00Z,43.42,-124.25,11.7,7.8,280,5,,10.0,29.949802,1014.3,,,TRUE,,,,,,,CLR,,,,,,,,VFR,-2.0,,,,,,,,,,,METAR,3.0
KOTH 181956Z 26006KT 10SM CLR 12/08 A2999 RMK AO2 SLP153 T01170078,KOTH,2023-03-18T19:56:00Z,43.42,-124.25,11.7,7.8,260,6,,10.0,29.991142,1015.3,,,TRUE,,,,,,,CLR,,,,,,,,VFR,,,,,,,,,,,,METAR,3.0
KOTH 181856Z 00000KT 10SM CLR 10/07 A3000 RMK AO2 SLP159 T01000072,KOTH,2023-03-18T18:56:00Z,43.42,-124.25,10.0,7.2,0,0,,10.0,30.0,1015.9,,,TRUE,,,,,,,CLR,,,,,,,,VFR,,,,,,,,,,,,SPECI,3.0
KOTH 181756Z 04003KT 10SM CLR 08/07 A3001 RMK AO2 SLP163 60000 T00830072 10083 20033 56012,KOTH,2023-03-18T17:56:00Z,43.42,-124.25,8.3,7.2,40,3,,10.0,30.008858,1016.3,,,TRUE,,,,,,,CLR,,,,,,,,VFR,-1.2,8.3,3.3,,,,,0.005,,,,METAR,3.0
KOTH 181656Z COR 10004KT 10SM SCT003 07/07 A3003 RMK AO2 RAE22 SLP167 P0000 T00670067,KOTH,2023-03-18T16:56:00Z,43.42,-124.25,6.7,6.7,100,4,,10.0,30.029528,1016.7,TRUE,,TRUE,,,,,,,SCT,300,,,,,,,VFR,,,,,,0.005,,,,,,METAR,3.0
KOTH 181642Z 10004KT 3SM BR SCT003 06/06 A3003 RMK AO2 RAE22 VIS NW - NE 2SM BR P0000,KOTH,2023-03-18T16:42:00Z,43.42,-124.25,6.0,6.0,100,4,,3.0,30.029528,,,,TRUE,,,,,,BR,SCT,300,,,,,,,MVFR,,,,,,0.005,,,,,,SPECI,3.0
KOTH 181629Z COR 10003KT 2SM BR OVC003 06/06 A3003 RMK AO2 RAE22 P0000,KOTH,2023-03-18T16:29:00Z,43.42,-124.25,6.0,6.0,100,3,,2.0,30.029528,,TRUE,,TRUE,,,,,,BR,OVC,300,,,,,,,LIFR,,,,,,0.005,,,,,,SPECI,3.0
KOTH 181623Z 13003KT 1 1/4SM BR OVC003 05/05 A3004 RMK AO2 RAE22 P0000,KOTH,2023-03-18T16:23:00Z,43.42,-124.25,5.0,5.0,130,3,,1.25,30.041338,,,,TRUE,,,,,,BR,OVC,300,,,,,,,LIFR,,,,,,0.005,,,,,,SPECI,3.0
KOTH 181621Z 14004KT 3/4SM -RA BR OVC003 05/05 A3004 RMK AO2 P0000 RVRNO,KOTH,2023-03-18T16:21:00Z,43.42,-124.25,5.0,5.0,140,4,,0.75,30.041338,,,,TRUE,,,,,,-RA BR,OVC,300,,,,,,,LIFR,,,,,,0.005,,,,,,SPECI,3.0
KOTH 181556Z 13005KT 1/4SM -RA FG OVC003 04/04 A3003 RMK AO2 SLP169 P0000 T00440044 RVRNO,KOTH,2023-03-18T15:56:00Z,43.42,-124.25,4.4,4.4,130,5,,0.25,30.029528,1016.9,,,TRUE,,,,,,-RA FG,OVC,300,,,,,,,LIFR,,,,,,0.005,,,,,,METAR,3.0
KOTH 181456Z 15004KT 1/4SM -RA FG OVC003 04/04 A3005 RMK AO2 SLP175 P0000 60000 T00440044 58009 RVRNO,KOTH,2023-03-18T14:56:00Z,43.42,-124.25,4.4,4.4,150,4,,0.25,30.050198,1017.5,,,TRUE,,,,,,-RA FG,OVC,300,,,,,,,LIFR,-0.9,,,,,0.005,0.005,,,,,METAR,3.0
KOTH 181356Z COR 15004KT 1/4SM -RA FG OVC003 04/04 A3006 RMK AO2 RAB36 SLP177 P0000 T00440044 RVRNO,KOTH,2023-03-18T13:56:00Z,43.42,-124.25,4.4,4.4,150,4,,0.25,30.059055,1017.7,TRUE,,TRUE,,,,,,-RA FG,OVC,300,,,,,,,LIFR,,,,,,0.005,,,,,,METAR,3.0
KOTH 181343Z AUTO 15004KT 1/4SM -RA FG BKN003 04/04 A3006 RMK AO2 RAB36 P0000 RVRNO,KOTH,2023-03-18T13:43:00Z,43.42,-124.25,4.0,4.0,150,4,,0.25,30.059055,,,TRUE,TRUE,,,,,,-RA FG,BKN,300,,,,,,,LIFR,,,,,,0.005,,,,,,SPECI,3.0
KOTH 181337Z AUTO 14005KT 3/4SM -RA BR BKN003 04/04 A3006 RMK AO2 RAB36 P0000 RVRNO,KOTH,2023-03-18T13:37:00Z,43.42,-124.25,4.0,4.0,140,5,,0.75,30.059055,,,TRUE,TRUE,,,,,,-RA BR,BKN,300,,,,,,,LIFR,,,,,,0.005,,,,,,SPECI,3.0
KOTH 181334Z AUTO 14005KT 1 3/4SM BR BKN003 03/03 A3006 RMK AO2,KOTH,2023-03-18T13:34:00Z,43.42,-124.25,3.0,3.0,140,5,,1.75,30.059055,,,TRUE,TRUE,,,,,,BR,BKN,300,,,,,,,LIFR,,,,,,,,,,,,SPECI,3.0
KOTH 181324Z AUTO 16005KT 10SM SCT003 03/03 A3006 RMK AO2,KOTH,2023-03-18T13:24:00Z,43.42,-124.25,3.0,3.0,160,5,,10.0,30.059055,,,TRUE,TRUE,,,,,,,SCT,300,,,,,,,VFR,,,,,,,,,,,,SPECI,3.0
KOTH 181316Z AUTO 16004KT 3SM BR BKN003 04/04 A3007 RMK AO2,KOTH,2023-03-18T13:16:00Z,43.42,-124.25,4.0,4.0,160,4,,3.0,30.070866,,,TRUE,TRUE,,,,,,BR,BKN,300,,,,,,,LIFR,,,,,,,,,,,,SPECI,3.0
KOTH 181259Z AUTO 12003KT 2SM BR BKN003 04/04 A3007 RMK AO2 VIS 1/2V5,KOTH,2023-03-18T12:59:00Z,43.42,-124.25,4.0,4.0,120,3,,2.0,30.070866,,,TRUE,TRUE,,,,,,BR,BKN,300,,,,,,,LIFR,,,,,,,,,,,,SPECI,3.0
KOTH 181256Z AUTO 12003KT 4SM BR SCT003 04/04 A3007 RMK AO2 SLP183 T00440044,KOTH,2023-03-18T12:56:00Z,43.42,-124.25,4.4,4.4,120,3,,4.0,30.070866,1018.3,,TRUE,TRUE,,,,,,BR,SCT,300,,,,,,,MVFR,,,,,,,,,,,,SPECI,3.0
KOTH 181248Z AUTO 14003KT 9SM SCT003 05/04 A3008 RMK AO2,KOTH,2023-03-18T12:48:00Z,43.42,-124.25,5.0,4.0,140,3,,9.0,30.079725,,,TRUE,TRUE,,,,,,,SCT,300,,,,,,,VFR,,,,,,,,,,,,SPECI,3.0
KOTH 181156Z AUTO 17003KT 10SM FEW011 05/05 A3008 RMK AO2 SLP184 T00500050 10083 20050 58010,KOTH,2023-03-18T11:56:00Z,43.42,-124.25,5.0,5.0,170,3,,10.0,30.079725,1018.4,,TRUE,TRUE,,,,,,,FEW,1100,,,,,,,VFR,-1.0,8.3,5.0,,,,,,,,,METAR,3.0
KOTH 181146Z AUTO 12003KT 10SM SCT011 06/05 A3007 RMK AO2,KOTH,2023-03-18T11:46:00Z,43.42,-124.25,6.0,5.0,120,3,,10.0,30.070866,,,TRUE,TRUE,,,,,,,SCT,1100,,,,,,,VFR,,,,,,,,,,,,SPECI,3.0
KOTH 181056Z AUTO 00000KT 10SM OVC011 08/06 A3010 RMK AO2 SLP193 T00780061,KOTH,2023-03-18T10:56:00Z,43.42,-124.25,7.8,6.1,0,0,,10.0,30.100393,1019.3,,TRUE,TRUE,,,,,,,OVC,1100,,,,,,,MVFR,,,,,,,,,,,,METAR,3.0
KOTH 180956Z AUTO 12003KT 10SM OVC011 08/06 A3010 RMK AO2 SLP191 T00780061,KOTH,2023-03-18T09:56:00Z,43.42,-124.25,7.8,6.1,120,3,,10.0,30.100393,1019.1,,TRUE,TRUE,,,,,,,OVC,1100,,,,,,,MVFR,,,,,,,,,,,,METAR,3.0
KOTH 180856Z AUTO 12005KT 10SM OVC013 08/07 A3011 RMK AO2 SLP194 T00780067 58015,KOTH,2023-03-18T08:56:00Z,43.42,-124.25,7.8,6.7,120,5,,10.0,30.109253,1019.4,,TRUE,TRUE,,,,,,,OVC,1300,,,,,,,MVFR,-1.5,,,,,,,,,,,METAR,3.0
KOTH 180756Z AUTO 00000KT 10SM OVC015 08/07 A3013 RMK AO2 SLP202 T00780067 401060017,KOTH,2023-03-18T07:56:00Z,43.42,-124.25,7.8,6.7,0,0,,10.0,30.129921,1020.2,,TRUE,TRUE,,,,,,,OVC,1500,,,,,,,MVFR,,,,10.6,1.7,,,,,,,METAR,3.0
KOTH 180656Z AUTO 10004KT 10SM OVC015 08/07 A3014 RMK AO2 SLP207 T00780067,KOTH,2023-03-18T06:56:00Z,43.42,-124.25,7.8,6.7,100,4,,10.0,30.138779,1020.7,,TRUE,TRUE,,,,,,,OVC,1500,,,,,,,MVFR,,,,,,,,,,,,METAR,3.0
KOTH 180556Z AUTO 13004KT 10SM OVC017 08/07 A3015 RMK AO2 SLP210 T00780067 10100 20078 50007,KOTH,2023-03-18T05:56:00Z,43.42,-124.25,7.8,6.7,130,4,,10.0,30.15059,1021.0,,TRUE,TRUE,,,,,,,OVC,1700,,,,,,,MVFR,0.7,10.0,7.8,,,,,,,,,METAR,3.0
KOTH 180456Z AUTO 00000KT 10SM OVC019 08/07 A3016 RMK AO2 SLP211 T00830072,KOTH,2023-03-18T04:56:00Z,43.42,-124.25,8.3,7.2,0,0,,10.0,30.159449,1021.1,,TRUE,TRUE,,,,,,,OVC,1900,,,,,,,MVFR,,,,,,,,,,,,SPECI,3.0
KOTH 180356Z 00000KT 10SM BKN019 OVC100 08/07 A3014 RMK AO2 SLP206 T00830067,KOTH,2023-03-18T03:56:00Z,43.42,-124.25,8.3,6.7,0,0,,10.0,30.138779,1020.6,,,TRUE,,,,,,,BKN,1900,OVC,10000,,,,,MVFR,,,,,,,,,,,,METAR,3.0
KOTH 180349Z 00000KT 10SM BKN019 OVC100 08/07 A3014 RMK AO2,KOTH,2023-03-18T03:49:00Z,43.42,-124.25,8.0,7.0,0,0,,10.0,30.138779,,,,TRUE,,,,,,,BKN,1900,OVC,10000,,,,,MVFR,,,,,,,,,,,,SPECI,3.0
KOTH 180256Z 00000KT 10SM SCT013 BKN110 09/07 A3013 RMK AO2 SLP202 T00890067 50002,KOTH,2023-03-18T02:56:00Z,43.42,-124.25,8.9,6.7,0,0,,10.0,30.129921,1020.2,,,TRUE,,,,,,,SCT,1300,BKN,11000,,,,,VFR,0.2,,,,,,,,,,,METAR,3.0
KOTH 180156Z 30005KT 10SM CLR 09/07 A3013 RMK AO2 SLP202 T00890067,KOTH,2023-03-18T01:56:00Z,43.42,-124.25,8.9,6.7,300,5,,10.0,30.129921,1020.2,,,TRUE,,,,,,,CLR,,,,,,,,VFR,,,,,,,,,,,,SPECI,3.0
KOTH 180056Z 29006KT 10SM CLR 09/07 A3013 RMK AO2 SLP201 T00940067,KOTH,2023-03-18T00:56:00Z,43.42,-124.25,9.4,6.7,290,6,,10.0,30.129921,1020.1,,,TRUE,,,,,,,CLR,,,,,,,,VFR,,,,,,,,,,,,METAR,3.0
KOTH 172356Z 28006KT 10SM FEW120 09/06 A3012 RMK AO2 SLP200 T00940061 10106 20094 58005,KOTH,2023-03-17T23:56:00Z,43.42,-124.25,9.4,6.1,280,6,,10.0,30.121063,1020.0,,,TRUE,,,,,,,FEW,12000,,,,,,,VFR,-0.5,10.6,9.4,,,,,,,,,SPECI,3.0
KOTH 172256Z 28007KT 10SM SCT021 10/06 A3013 RMK AO2 SLP203 T01000061,KOTH,2023-03-17T22:56:00Z,43.42,-124.25,10.0,6.1,280,7,,10.0,30.129921,1020.3,,,TRUE,,,,,,,SCT,2100,,,,,,,VFR,,,,,,,,,,,,METAR,3.0
KOTH 172254Z 28007KT 10SM SCT021 10/06 A3013 RMK AO2,KOTH,2023-03-17T22:54:00Z,43.42,-124.25,10.0,6.0,280,7,,10.0,30.129921,,,,TRUE,,,,,,,SCT,2100,,,,,,,VFR,,,,,,,,,,,,SPECI,3.0
KOTH 172156Z 27008KT 10SM BKN021 10/07 A3014 RMK AO2 SLP206 T01000067,KOTH,2023-03-17T21:56:00Z,43.42,-124.25,10.0,6.7,270,8,,10.0,30.138779,1020.6,,,TRUE,,,,,,,BKN,2100,,,,,,,MVFR,,,,,,,,,,,,METAR,3.0
KOTH 172146Z 27009KT 10SM FEW021 10/06 A3015 RMK AO2,KOTH,2023-03-17T21:46:00Z,43.42,-124.25,10.0,6.0,270,9,,10.0,30.15059,,,,TRUE,,,,,,,FEW,2100,,,,,,,VFR,,,,,,,,,,,,METAR,3.0
KOTH 172117Z 27010KT 10SM BKN021 10/07 A3015 RMK AO2,KOTH,2023-03-17T21:17:00Z,43.42,-124.25,10.0,7.0,270,10,,10.0,30.15059,,,,TRUE,,,,,,,BKN,2100,,,,,,,MVFR,,,,,,,,,,,,SPECI,3.0
KOTH 172056Z 26012KT 10SM FEW030 10/07 A3015 RMK AO2 SLP210 T01000067 58006,KOTH,2023-03-17T20:56:00Z,43.42,-124.25,10.0,6.7,260,12,,10.0,30.15059,1021.0,,,TRUE,,,,,,,FEW,3000,,,,,,,VFR,-0.6,,,,,,,,,,,METAR,3.0
KOTH 171956Z COR 29007KT 10SM FEW030 10/07 A3016 RMK AO2 SLP213 T01000067,KOTH,2023-03-17T19:56:00Z,43.42,-124.25,10.0,6.7,290,7,,10.0,30.159449,1021.3,TRUE,,TRUE,,,,,,,FEW,3000,,,,,,,VFR,,,,,,,,,,,,METAR,3.0
KOTH 171917Z 00000KT 10SM SCT018 10/06 A3017 RMK AO2,KOTH,2023-03-17T19:17:00Z,43.42,-124.25,10.0,6.0,0,0,,10.0,30.171259,,,,TRUE,,,,,,,SCT,1800,,,,,,,VFR,,,,,,,,,,,,SPECI,3.0
KOTH 171903Z 00000KT 10SM BKN018 10/06 A3017 RMK AO2,KOTH,2023-03-17T19:03:00Z,43.42,-124.25,10.0,6.0,0,0,,10.0,30.171259,,,,TRUE,,,,,,,BKN,1800,,,,,,,MVFR,,,,,,,,,,,,SPECI,3.0
KOTH 171856Z 05004KT 10SM SCT018 10/06 A3017 RMK AO2 SLP215 T01000061,KOTH,2023-03-17T18:56:00Z,43.42,-124.25,10.0,6.1,50,4,,10.0,30.171259,1021.5,,,TRUE,,,,,,,SCT,1800,,,,,,,VFR,,,,,,,,,,,,METAR,3.0
KOTH 171756Z COR 10005KT 10SM BKN018 09/07 A3017 RMK AO2 SLP216 T00940067 10094 20017 51007,KOTH,2023-03-17T17:56:00Z,43.42,-124.25,9.4,6.7,100,5,,10.0,30.171259,1021.6,TRUE,,TRUE,,,,,,,BKN,1800,,,,,,,MVFR,0.7,9.4,1.7,,,,,,,,,SPECI,3.0
KOTH 171656Z 14007KT 10SM OVC016 06/05 A3017 RMK AO2 SLP215 T00610050,KOTH,2023-03-17T16:56:00Z,43.42,-124.25,6.1,5.0,140,7,,10.0,30.171259,1021.5,,,TRUE,,,,,,,OVC,1600,,,,,,,MVFR,,,,,,,,,,,,METAR,3.0
KOTH 171556Z 13008KT 10SM OVC016 04/03 A3016 RMK AO2 SLP214 T00390033,KOTH,2023-03-17T15:56:00Z,43.42,-124.25,3.9,3.3,130,8,,10.0,30.159449,1021.4,,,TRUE,,,,,,,OVC,1600,,,,,,,MVFR,,,,,,,,,,,,METAR,3.0
KOTH 171548Z 15009KT 10SM BKN016 03/03 A3016 RMK AO2,KOTH,2023-03-17T15:48:00Z,43.42,-124.25,3.0,3.0,150,9,,10.0,30.159449,,,,TRUE,,,,,,,BKN,1600,,,,,,,MVFR,,,,,,,,,,,,SPECI,3.0
KOTH 171456Z 13008KT 10SM BKN012 02/02 A3015 RMK AO2 SLP209 T00220017 53015,KOTH,2023-03-17T14:56:00Z,43.42,-124.25,2.2,1.7,130,8,,10.0,30.15059,1020.9,,,TRUE,,,,,,,BKN,1200,,,,,,,MVFR,1.5,,,,,,,,,,,METAR,3.0
KOTH 171422Z 14006KT 10SM BKN010 02/02 A3014 RMK AO2,KOTH,2023-03-17T14:22:00Z,43.42,-124.25,2.0,2.0,140,6,,10.0,30.138779,,,,TRUE,,,,,,,BKN,1000,,,,,,,MVFR,,,,,,,,,,,,SPECI,3.0
KOTH 171356Z 00000KT 10SM CLR 02/01 A3013 RMK AO2 SLP203 T00170011,KOTH,2023-03-17T13:56:00Z,43.42,-124.25,1.7,1.1,0,0,,10.0,30.129921,1020.3,,,TRUE,,,,,,,CLR,,,,,,,,VFR,,,,,,,,,,,,METAR,3.0
KOTH 171256Z AUTO 16004KT 10SM CLR 02/02 A3012 RMK AO2 SLP197 T00220017 FZRANO,KOTH,2023-03-17T12:56:00Z,43.42,-124.25,2.2,1.7,160,4,,10.0,30.121063,1019.7,,TRUE,TRUE,,,,TRUE,,,CLR,,,,,,,,VFR,,,,,,,,,,,,METAR,3.0
KOTH 171156Z AUTO 14007KT 10SM CLR 03/02 A3011 RMK AO2 SLP194 T00280022 10050 20022 50003,KOTH,2023-03-17T11:56:00Z,43.42,-124.25,2.8,2.2,140,7,,10.0,30.109253,1019.4,,TRUE,TRUE,,,,,,,CLR,,,,,,,,VFR,0.3,5.0,2.2,,,,,,,,,METAR,3.0
KOTH 171056Z AUTO 13008KT 10SM CLR 03/02 A3011 RMK AO2 SLP196 T00280022,KOTH,2023-03-17T10:56:00Z,43.42,-124.25,2.8,2.2,130,8,,10.0,30.109253,1019.6,,TRUE,TRUE,,,,,,,CLR,,,,,,,,VFR,,,,,,,,,,,,SPECI,3.0
KOTH 170956Z AUTO 14005KT 10SM CLR 03/02 A3011 RMK AO2 SLP196 T00280017,KOTH,2023-03-17T09:56:00Z,43.42,-124.25,2.8,1.7,140,5,,10.0,30.109253,1019.6,,TRUE,TRUE,,,,,,,CLR,,,,,,,,VFR,,,,,,,,,,,,METAR,3.0
KOTH 170856Z AUTO 21003KT 10SM CLR 04/03 A3010 RMK AO2 SLP191 T00440028 55007,KOTH,2023-03-17T08:56:00Z,43.42,-124.25,4.4,2.8,210,3,,10.0,30.100393,1019.1,,TRUE,TRUE,,,,,,,CLR,,,,,,,,VFR,-0.7,,,,,,,,,,,METAR,3.0
KOTH 170756Z AUTO 16006KT 10SM CLR 04/03 A3009 RMK AO2 SLP188 T00440033 401280000,KOTH,2023-03-17T07:56:00Z,43.42,-124.25,4.4,3.3,160,6,,10.0,30.088583,1018.8,,TRUE,TRUE,,,,,,,CLR,,,,,,,,VFR,,,,12.8,,,,,,,,METAR,3.0
KOTH 170656Z AUTO 14007KT 10SM CLR 04/03 A3010 RMK AO2 SLP192 T00390033,KOTH,2023-03-17T06:56:00Z,43.42,-124.25,3.9,3.3,140,7,,10.0,30.100393,1019.2,,TRUE,TRUE,,,,,,,CLR,,,,,,,,VFR,,,,,,,,,,,,METAR,3.0
KOTH 170556Z AUTO 13007KT 10SM CLR 05/04 A3012 RMK AO2 SLP198 T00500039 10117 20044 53015,KOTH,2023-03-17T05:56:00Z,43.42,-124.25,5.0,3.9,130,7,,10.0,30.121063,1019.8,,TRUE,TRUE,,,,,,,CLR,,,,,,,,VFR,1.5,11.7,4.4,,,,,,,,,METAR,3.0
KOTH 170456Z AUTO 14006KT 10SM CLR 05/04 A3010 RMK AO2 SLP193 T00500039,KOTH,2023-03-17T04:56:00Z,43.42,-124.25,5.0,3.9,140,6,,10.0,30.100393,1019.3,,TRUE,TRUE,,,,,,,CLR,,,,,,,,VFR,,,,,,,,,,,,METAR,3.0
KOTH 170356Z 15005KT 10SM CLR 06/04 A3008 RMK AO2 SLP186 T00610044,KOTH,2023-03-17T03:56:00Z,43.42,-124.25,6.1,4.4,150,5,,10.0,30.079725,1018.6,,,TRUE,,,,,,,CLR,,,,,,,,VFR,,,,,,,,,,,,METAR,3.0
KOTH 170256Z 00000KT 10SM CLR 08/05 A3008 RMK AO2 SLP184 T00830050 56001,KOTH,2023-03-17T02:56:00Z,43.42,-124.25,8.3,5.0,0,0,,10.0,30.079725,1018.4,,,TRUE,,,,,,,CLR,,,,,,,,VFR,-0.1,,,,,,,,,,,METAR,3.0
KOTH 170156Z 31003KT 10SM CLR 10/05 A3008 RMK AO2 SLP184 T01000050,KOTH,2023-03-17T01:56:00Z,43.42,-124.25,10.0,5.0,310,3,,10.0,30.079725,1018.4,,,TRUE,,,,,,,CLR,,,,,,,,VFR,,,,,,,,,,,,METAR,3.0
KOTH 170056Z 36005KT 10SM CLR 11/03 A3007 RMK AO2 SLP183 T01110033,KOTH,2023-03-17T00:56:00Z,43.42,-124.25,11.1,3.3,360,5,,10.0,30.070866,1018.3,,,TRUE,,,,,,,CLR,,,,,,,,VFR,,,,,,,,,,,,METAR,3.0
KOTH 162356Z 31007KT 10SM CLR 12/04 A3008 RMK AO2 SLP185 T01170039 10128 20083 58006,KOTH,2023-03-16T23:56:00Z,43.42,-124.25,11.7,3.9,310,7,,10.0,30.079725,1018.5,,,TRUE,,,,,,,CLR,,,,,,,,VFR,-0.6,12.8,8.3,,,,,,,,,METAR,3.0
KOTH 162256Z 34009KT 10SM CLR 12/06 A3009 RMK AO2 SLP188 T01170061,KOTH,2023-03-16T22:56:00Z,43.42,-124.25,11.7,6.1,340,9,,10.0,30.088583,1018.8,,,TRUE,,,,,,,CLR,,,,,,,,VFR,,,,,,,,,,,,METAR,3.0
KOTH 162156Z 34009KT 10SM CLR 12/06 A3009 RMK AO2 SLP189 T01220056,KOTH,2023-03-16T21:56:00Z,43.42,-124.25,12.2,5.6,340,9,,10.0,30.088583,1018.9,,,TRUE,,,,,,,CLR,,,,,,,,VFR,,,,,,,,,,,,METAR,3.0
KOTH 162056Z 32008KT 10SM CLR 12/06 A3010 RMK AO2 SLP191 T01220061 55004,KOTH,2023-03-16T20:56:00Z,43.42,-124.25,12.2,6.1,320,8,,10.0,30.100393,1019.1,,,TRUE,,,,,,,CLR,,,,,,,,VFR,-0.4,,,,,,,,,,,METAR,3.0
KOTH 161956Z 31008KT 10SM CLR 12/06 A3010 RMK AO2 SLP190 T01220056,KOTH,2023-03-16T19:56:00Z,43.42,-124.25,12.2,5.6,310,8,,10.0,30.100393,1019.0,,,TRUE,,,,,,,CLR,,,,,,,,VFR,,,,,,,,,,,,METAR,3.0
KOTH 161856Z 00000KT 10SM CLR 12/03 A3010 RMK AO2 SLP192 T01220033,KOTH,2023-03-16T18:56:00Z,43.42,-124.25,12.2,3.3,0,0,,10.0,30.100393,1019.2,,,TRUE,,,,,,,CLR,,,,,,,,VFR,,,,,,,,,,,,METAR,3.0
KOTH 161756Z 32003KT 10SM CLR 08/03 A3011 RMK AO2 SLP196 T00830028 10083 20000 58006,KOTH,2023-03-16T17:56:00Z,43.42,-124.25,8.3,2.8,320,3,,10.0,30.109253,1019.6,,,TRUE,,,,,,,CLR,,,,,,,,VFR,-0.6,8.3,0.0,,,,,,,,,SPECI,3.0
KOTH 161656Z 35005KT 10SM CLR 07/03 A3012 RMK AO2 SLP199 T00670033,KOTH,2023-03-16T16:56:00Z,43.42,-124.25,6.7,3.3,350,5,,10.0,30.121063,1019.9,,,TRUE,,,,,,,CLR,,,,,,,,VFR,,,,,,,,,,,,SPECI,3.0
KOTH 161556Z 01004KT 10SM CLR 04/03 A3013 RMK AO2 SLP202 T00390033,KOTH,2023-03-16T15:56:00Z,43.42,-124.25,3.9,3.3,10,4,,10.0,30.129921,1020.2,,,TRUE,,,,,,,CLR,,,,,,,,VFR,,,,,,,,,,,,METAR,3.0
KOTH 161456Z 01003KT 10SM CLR 02/01 A3013 RMK AO2 SLP202 T00170011 58005,KOTH,2023-03-16T14:56:00Z,43.42,-124.25,1.7,1.1,10,3,,10.0,30.129921,1020.2,,,TRUE,,,,,,,CLR,,,,,,,,VFR,-0.5,,,,,,,,,,,SPECI,3.0
KOTH 161356Z 00000KT 10SM CLR 02/01 A3013 RMK AO2 SLP204 T00170011 FZRANO,KOTH,2023-03-16T13:56:00Z,43.42,-124.25,1.7,1.1,0,0,,10.0,30.129921,1020.4,,,TRUE,,,,TRUE,,,CLR,,,,,,,,VFR,,,,,,,,,,,,METAR,3.0
KOTH 161256Z AUTO 00000KT 10SM CLR 00/00 A3014 RMK AO2 SLP207 T00000000 FZRANO,KOTH,2023-03-16T12:56:00Z,43.42,-124.25,0.0,0.0,0,0,,10.0,30.138779,1020.7,,TRUE,TRUE,,,,TRUE,,,CLR,,,,,,,,VFR,,,,,,,,,,,,METAR,3.0
