No errors
No warnings
53 ms
data source=metars
589 results
raw_text,station_id,observation_time,latitude,longitude,temp_c,dewpoint_c,wind_dir_degrees,wind_speed_kt,wind_gust_kt,visibility_statute_mi,altim_in_hg,sea_level_pressure_mb,corrected,auto,auto_station,maintenance_indicator_on,no_signal,lightning_sensor_off,freezing_rain_sensor_off,present_weather_sensor_off,wx_string,sky_cover,cloud_base_ft_agl,sky_cover,cloud_base_ft_agl,sky_cover,cloud_base_ft_agl,sky_cover,cloud_base_ft_agl,flight_category,three_hr_pressure_tendency_mb,maxT_c,minT_c,maxT24hr_c,minT24hr_c,precip_in,pcp3hr_in,pcp6hr_in,pcp24hr_in,snow_in,vert_vis_ft,metar_type,elevation_m
KOTH 021656Z 14006KT 6SM -RA BR BKN022 BKN027 OVC044 04/03 A3017 RMK AO2 RAE10B51 SLP215 P0000 T00440028,KOTH,2023-03-02T16:56:00Z,43.42,-124.25,4.4,2.8,140,6,,6.0,30.171259,1021.5,,,TRUE,,,,,,-RA BR,BKN,2200,BKN,2700,OVC,4400,,,MVFR,,,,,,0.005,,,,,,METAR,3.0
KOTH 021613Z 15008KT 10SM OVC028 04/03 A3018 RMK AO2 RAE10 P0000,KOTH,2023-03-02T16:13:00Z,43.42,-124.25,4.0,3.0,150,8,,10.0,30.180119,,,,TRUE,,,,,,,OVC,2800,,,,,,,MVFR,,,,,,0.005,,,,,,SPECI,3.0
KOTH 021556Z 15007KT 6SM -RA BR OVC030 04/02 A3018 RMK AO2 SLP219 P0000 T00390022,KOTH,2023-03-02T15:56:00Z,43.42,-124.25,3.9,2.2,150,7,,6.0,30.180119,1021.9,,,TRUE,,,,,,-RA BR,OVC,3000,,,,,,,MVFR,,,,,,0.005,,,,,,METAR,3.0
KOTH 021456Z 16008KT 10SM -RA FEW030 OVC037 04/02 A3018 RMK AO2 RAE07B31 SLP218 P0000 60000 T00390022 58015,KOTH,2023-03-02T14:56:00Z,43.42,-124.25,3.9,2.2,160,8,,10.0,30.180119,1021.8,,,TRUE,,,,,,-RA,FEW,3000,OVC,3700,,,,,VFR,-1.5,,,,,0.005,0.005,,,,,METAR,3.0
KOTH 021356Z AUTO 15008KT 10SM -RA BKN030 OVC045 03/02 A3019 RMK AO2 RAB32 SLP222 P0000 T00330017,KOTH,2023-03-02T13:56:00Z,43.42,-124.25,3.3,1.7,150,8,,10.0,30.188976,1022.2,,TRUE,TRUE,,,,,,-RA,BKN,3000,OVC,4500,,,,,MVFR,,,,,,0.005,,,,,,METAR,3.0
KOTH 021256Z AUTO 15009KT 10SM BKN036 OVC050 03/02 A3021 RMK AO2 SLP229 T00280017,KOTH,2023-03-02T12:56:00Z,43.42,-124.25,2.8,1.7,150,9,,10.0,30.209646,1022.9,,TRUE,TRUE,,,,,,,BKN,3600,OVC,5000,,,,,VFR,,,,,,,,,,,,METAR,3.0
KOTH 021156Z AUTO 15009KT 10SM BKN034 OVC050 03/02 A3022 RMK AO2 SLP233 T00280017 10028 20017 55005,KOTH,2023-03-02T11:56:00Z,43.42,-124.25,2.8,1.7,150,9,,10.0,30.221457,1023.3,,TRUE,TRUE,,,,,,,BKN,3400,OVC,5000,,,,,VFR,-0.5,2.8,1.7,,,,,,,,,METAR,3.0
KOTH 021056Z AUTO 15010KT 10SM OVC055 03/02 A3022 RMK AO2 SLP231 T00280017,KOTH,2023-03-02T10:56:00Z,43.42,-124.25,2.8,1.7,150,10,,10.0,30.221457,1023.1,,TRUE,TRUE,,,,,,,OVC,5500,,,,,,,VFR,,,,,,,,,,,,METAR,3.0
KOTH 020956Z AUTO 14008KT 10SM OVC060 02/02 A3024 RMK AO2 SLP238 T00220017 FZRANO,KOTH,2023-03-02T09:56:00Z,43.42,-124.25,2.2,1.7,140,8,,10.0,30.239174,1023.8,,TRUE,TRUE,,,,TRUE,,,OVC,6000,,,,,,,VFR,,,,,,,,,,,,METAR,3.0
KOTH 020856Z AUTO 14009KT 10SM OVC080 02/02 A3024 RMK AO2 SLP238 T00220017 57007 FZRANO,KOTH,2023-03-02T08:56:00Z,43.42,-124.25,2.2,1.7,140,9,,10.0,30.239174,1023.8,,TRUE,TRUE,,,,TRUE,,,OVC,8000,,,,,,,VFR,-0.7,,,,,,,,,,,METAR,3.0
KOTH 020756Z AUTO 16007KT 10SM OVC080 02/02 A3024 RMK AO2 SLP240 T00220017 400831011 FZRANO,KOTH,2023-03-02T07:56:00Z,43.42,-124.25,2.2,1.7,160,7,,10.0,30.239174,1024.0,,TRUE,TRUE,,,,TRUE,,,OVC,8000,,,,,,,VFR,,,,8.3,-1.1,,,,,,,METAR,3.0
KOTH 020656Z AUTO 15008KT 10SM FEW003 OVC070 02/02 A3025 RMK AO2 SLP244 T00220017 FZRANO,KOTH,2023-03-02T06:56:00Z,43.42,-124.25,2.2,1.7,150,8,,10.0,30.250984,1024.4,,TRUE,TRUE,,,,TRUE,,,FEW,300,OVC,7000,,,,,VFR,,,,,,,,,,,,SPECI,3.0
KOTH 020635Z AUTO 14008KT 10SM FEW003 OVC070 02/02 A3026 RMK AO2 FZRANO,KOTH,2023-03-02T06:35:00Z,43.42,-124.25,2.0,2.0,140,8,,10.0,30.259842,,,TRUE,TRUE,,,,TRUE,,,FEW,300,OVC,7000,,,,,VFR,,,,,,,,,,,,SPECI,3.0
KOTH 020556Z AUTO 13005KT 10SM CLR 02/01 A3026 RMK AO2 SLP245 T00170011 10078 20017 53004 FZRANO,KOTH,2023-03-02T05:56:00Z,43.42,-124.25,1.7,1.1,130,5,,10.0,30.259842,1024.5,,TRUE,TRUE,,,,TRUE,,,CLR,,,,,,,,VFR,0.4,7.8,1.7,,,,,,,,,METAR,3.0
KOTH 020456Z 14005KT 10SM CLR 02/02 A3024 RMK AO2 SLP240 T00220017 FZRANO,KOTH,2023-03-02T04:56:00Z,43.42,-124.25,2.2,1.7,140,5,,10.0,30.239174,1024.0,,,TRUE,,,,TRUE,,,CLR,,,,,,,,VFR,,,,,,,,,,,,METAR,3.0
KOTH 020356Z 12004KT 10SM CLR 03/02 A3024 RMK AO2 SLP238 T00280022,KOTH,2023-03-02T03:56:00Z,43.42,-124.25,2.8,2.2,120,4,,10.0,30.239174,1023.8,,,TRUE,,,,,,,CLR,,,,,,,,VFR,,,,,,,,,,,,METAR,3.0
KOTH 020256Z 00000KT 10SM CLR 05/02 A3025 RMK AO2 SLP241 T00500017 53006,KOTH,2023-03-02T02:56:00Z,43.42,-124.25,5.0,1.7,0,0,,10.0,30.250984,1024.1,,,TRUE,,,,,,,CLR,,,,,,,,VFR,0.6,,,,,,,,,,,METAR,3.0
KOTH 020156Z 32005KT 10SM CLR 06/01 A3023 RMK AO2 SLP238 T00610011,KOTH,2023-03-02T01:56:00Z,43.42,-124.25,6.1,1.1,320,5,,10.0,30.230314,1023.8,,,TRUE,,,,,,,CLR,,,,,,,,VFR,,,,,,,,,,,,METAR,3.0
KOTH 020056Z 31007KT 10SM CLR 08/01 A3023 RMK AO2 SLP236 T00780011,KOTH,2023-03-02T00:56:00Z,43.42,-124.25,7.8,1.1,310,7,,10.0,30.230314,1023.6,,,TRUE,,,,,,,CLR,,,,,,,,VFR,,,,,,,,,,,,METAR,3.0
KOTH 012356Z 31007KT 10SM BKN040 08/02 A3023 RMK AO2 SLP235 T00780017 10083 20028 53009,KOTH,2023-03-01T23:56:00Z,43.42,-124.25,7.8,1.7,310,7,,10.0,30.230314,1023.5,,,TRUE,,,,,,,BKN,4000,,,,,,,VFR,0.9,8.3,2.8,,,,,,,,,SPECI,3.0
KOTH 012256Z COR 27006KT 10SM BKN040 07/02 A3021 RMK AO2 SLP230 T00720017,KOTH,2023-03-01T22:56:00Z,43.42,-124.25,7.2,1.7,270,6,,10.0,30.209646,1023.0,TRUE,,TRUE,,,,,,,BKN,4000,,,,,,,VFR,,,,,,,,,,,,METAR,3.0
KOTH 012156Z 28007KT 10SM BKN040 08/03 A3021 RMK AO2 SLP231 T00780028,KOTH,2023-03-01T21:56:00Z,43.42,-124.25,7.8,2.8,280,7,,10.0,30.209646,1023.1,,,TRUE,,,,,,,BKN,4000,,,,,,,VFR,,,,,,,,,,,,SPECI,3.0
KOTH 012056Z 31004KT 10SM BKN025 07/02 A3020 RMK AO2 SLP226 T00670017 51010,KOTH,2023-03-01T20:56:00Z,43.42,-124.25,6.7,1.7,310,4,,10.0,30.200787,1022.6,,,TRUE,,,,,,,BKN,2500,,,,,,,MVFR,1.0,,,,,,,,,,,METAR,3.0
KOTH 011956Z COR 00000KT 10SM SCT025 06/02 A3020 RMK AO2 SLP226 T00610017,KOTH,2023-03-01T19:56:00Z,43.42,-124.25,6.1,1.7,0,0,,10.0,30.200787,1022.6,TRUE,,TRUE,,,,,,,SCT,2500,,,,,,,VFR,,,,,,,,,,,,METAR,3.0
KOTH 011856Z 14006KT 10SM CLR 05/03 A3019 RMK AO2 SLP223 T00500028,KOTH,2023-03-01T18:56:00Z,43.42,-124.25,5.0,2.8,140,6,,10.0,30.188976,1022.3,,,TRUE,,,,,,,CLR,,,,,,,,VFR,,,,,,,,,,,,METAR,3.0
KOTH 011756Z 14006KT 9SM CLR 03/03 A3017 RMK AO2 SLP216 T00280028 10028 21011 53026,KOTH,2023-03-01T17:56:00Z,43.42,-124.25,2.8,2.8,140,6,,9.0,30.171259,1021.6,,,TRUE,,,,,,,CLR,,,,,,,,VFR,2.6,2.8,-1.1,,,,,,,,,SPECI,3.0
KOTH 011656Z AUTO 15007KT 10SM CLR 01/01 A3015 RMK AO2 SLP208 T00110011 FZRANO,KOTH,2023-03-01T16:56:00Z,43.42,-124.25,1.1,1.1,150,7,,10.0,30.15059,1020.8,,TRUE,TRUE,,,,TRUE,,,CLR,,,,,,,,VFR,,,,,,,,,,,,METAR,3.0
KOTH 011556Z AUTO 13008KT 10SM SCT002 M01/M01 A3011 RMK AO2 SLP194 T10061006 FZRANO,KOTH,2023-03-01T15:56:00Z,43.42,-124.25,-0.6,-0.6,130,8,,10.0,30.109253,1019.4,,TRUE,TRUE,,,,TRUE,,,SCT,200,,,,,,,VFR,,,,,,,,,,,,METAR,3.0
KOTH 011456Z 15006KT 10SM OVC002 M01/M01 A3009 RMK AO2 SLP189 T10061006 52031 FZRANO,KOTH,2023-03-01T14:56:00Z,43.42,-124.25,-0.6,-0.6,150,6,,10.0,30.088583,1018.9,,,TRUE,,,,TRUE,,,OVC,200,,,,,,,LIFR,3.1,,,,,,,,,,,METAR,3.0
KOTH 011437Z 14007KT 6SM BR OVC002 M01/M01 A3008 RMK AO2 FZRANO,KOTH,2023-03-01T14:37:00Z,43.42,-124.25,-1.0,-1.0,140,7,,6.0,30.079725,,,,TRUE,,,,TRUE,,BR,OVC,200,,,,,,,LIFR,,,,,,,,,,,,SPECI,3.0
KOTH 011424Z 14007KT 2 1/2SM BR OVC002 M01/M01 A3007 RMK AO2 FZRANO,KOTH,2023-03-01T14:24:00Z,43.42,-124.25,-1.0,-1.0,140,7,,2.5,30.070866,,,,TRUE,,,,TRUE,,BR,OVC,200,,,,,,,LIFR,,,,,,,,,,,,SPECI,3.0
KOTH 011411Z 15006KT 1 1/4SM BR OVC002 M01/M01 A3007 RMK AO2 FZRANO,KOTH,2023-03-01T14:11:00Z,43.42,-124.25,-1.0,-1.0,150,6,,1.25,30.070866,,,,TRUE,,,,TRUE,,BR,OVC,200,,,,,,,LIFR,,,,,,,,,,,,SPECI,3.0
KOTH 011356Z 15006KT 3/4SM BR OVC002 M01/M01 A3006 RMK AO2 SLP179 T10061006 FZRANO RVRNO,KOTH,2023-03-01T13:56:00Z,43.42,-124.25,-0.6,-0.6,150,6,,0.75,30.059055,1017.9,,,TRUE,,,,TRUE,,BR,OVC,200,,,,,,,LIFR,,,,,,,,,,,,SPECI,3.0
KOTH 011306Z 14007KT 1/2SM FZFG OVC002 M01/M01 A3003 RMK AO2 FZRANO RVRNO,KOTH,2023-03-01T13:06:00Z,43.42,-124.25,-1.0,-1.0,140,7,,0.5,30.029528,,,,TRUE,,,,TRUE,,FZFG,OVC,200,,,,,,,LIFR,,,,,,,,,,,,SPECI,3.0
KOTH 011256Z 14008KT 3/4SM BR OVC002 M01/M01 A3003 RMK AO2 SLP168 T10061006 FZRANO RVRNO,KOTH,2023-03-01T12:56:00Z,43.42,-124.25,-0.6,-0.6,140,8,,0.75,30.029528,1016.8,,,TRUE,,,,TRUE,,BR,OVC,200,,,,,,,LIFR,,,,,,,,,,,,METAR,3.0
KOTH 011247Z 13008KT 1SM BR OVC002 M01/M01 A3002 RMK AO2 FZRANO RVRNO,KOTH,2023-03-01T12:47:00Z,43.42,-124.25,-1.0,-1.0,130,8,,1.0,30.02067,,,,TRUE,,,,TRUE,,BR,OVC,200,,,,,,,LIFR,,,,,,,,,,,,SPECI,3.0
KOTH 011238Z 15007KT 3/4SM BR OVC002 M01/M01 A3002 RMK AO2 FZRANO RVRNO,KOTH,2023-03-01T12:38:00Z,43.42,-124.25,-1.0,-1.0,150,7,,0.75,30.02067,,,,TRUE,,,,TRUE,,BR,OVC,200,,,,,,,LIFR,,,,,,,,,,,,METAR,3.0
KOTH 011156Z 13007KT 1/2SM FZFG OVC002 M01/M01 A3000 RMK AO2 SLP158 70050 T10061006 10006 21006 53027 FZRANO RVRNO,KOTH,2023-03-01T11:56:00Z,43.42,-124.25,-0.6,-0.6,130,7,,0.5,30.0,1015.8,,,TRUE,,,,TRUE,,FZFG,OVC,200,,,,,,,LIFR,2.7,0.6,-0.6,,,,,,0.5,,,METAR,3.0
KOTH 011056Z 14006KT 1/2SM FZFG OVC002 M01/M01 A2997 RMK AO2 SLP148 T10061006 FZRANO RVRNO,KOTH,2023-03-01T10:56:00Z,43.42,-124.25,-0.6,-0.6,140,6,,0.5,29.970472,1014.8,,,TRUE,,,,TRUE,,FZFG,OVC,200,,,,,,,LIFR,,,,,,,,,,,,METAR,3.0
KOTH 011041Z 14006KT 1/2SM FZFG OVC002 M01/M01 A2996 RMK AO2 FZRANO RVRNO,KOTH,2023-03-01T10:41:00Z,43.42,-124.25,-1.0,-1.0,140,6,,0.5,29.958662,,,,TRUE,,,,TRUE,,FZFG,OVC,200,,,,,,,LIFR,,,,,,,,,,,,SPECI,3.0
KOTH 011008Z 15006KT 1/4SM FZFG OVC002 M01/M01 A2995 RMK AO2 FZRANO RVRNO,KOTH,2023-03-01T10:08:00Z,43.42,-124.25,-1.0,-1.0,150,6,,0.25,29.949802,,,,TRUE,,,,TRUE,,FZFG,OVC,200,,,,,,,LIFR,,,,,,,,,,,,SPECI,3.0
KOTH 010956Z 14007KT 1/2SM FZFG OVC002 M01/M01 A2994 RMK AO2 SLP138 T10061006 FZRANO RVRNO,KOTH,2023-03-01T09:56:00Z,43.42,-124.25,-0.6,-0.6,140,7,,0.5,29.940945,1013.8,,,TRUE,,,,TRUE,,FZFG,OVC,200,,,,,,,LIFR,,,,,,,,,,,,METAR,3.0
KOTH 010856Z 14006KT 1/4SM FG OVC002 00/00 A2992 RMK AO2 SLP131 T00000000 51028 FZRANO RVRNO,KOTH,2023-03-01T08:56:00Z,43.42,-124.25,0.0,0.0,140,6,,0.25,29.920275,1013.1,,,TRUE,,,,TRUE,,FG,OVC,200,,,,,,,LIFR,2.8,,,,,,,,,,,METAR,3.0
KOTH 010847Z 14005KT 1/4SM FG OVC002 00/00 A2992 RMK AO2 FZRANO RVRNO,KOTH,2023-03-01T08:47:00Z,43.42,-124.25,0.0,0.0,140,5,,0.25,29.920275,,,,TRUE,,,,TRUE,,FG,OVC,200,,,,,,,LIFR,,,,,,,,,,,,SPECI,3.0
KOTH 010807Z 15005KT 1/2SM FG OVC002 00/00 A2990 RMK AO2 FZRANO RVRNO,KOTH,2023-03-01T08:07:00Z,43.42,-124.25,0.0,0.0,150,5,,0.5,29.899607,,,,TRUE,,,,TRUE,,FG,OVC,200,,,,,,,LIFR,,,,,,,,,,,,SPECI,3.0
KOTH 010756Z 14007KT 3/4SM BR OVC002 01/01 A2989 RMK AO2 SLP122 T00060006 400720006 FZRANO RVRNO,KOTH,2023-03-01T07:56:00Z,43.42,-124.25,0.6,0.6,140,7,,0.75,29.890747,1012.2,,,TRUE,,,,TRUE,,BR,OVC,200,,,,,,,LIFR,,,,7.2,0.6,,,,,,,METAR,3.0
KOTH 010749Z 14007KT 1/2SM FG OVC002 01/01 A2989 RMK AO2 FZRANO RVRNO,KOTH,2023-03-01T07:49:00Z,43.42,-124.25,1.0,1.0,140,7,,0.5,29.890747,,,,TRUE,,,,TRUE,,FG,OVC,200,,,,,,,LIFR,,,,,,,,,,,,METAR,3.0
KOTH 010736Z 15005KT 1/4SM FG OVC002 01/01 A2989 RMK AO2 FZRANO RVRNO,KOTH,2023-03-01T07:36:00Z,43.42,-124.25,1.0,1.0,150,5,,0.25,29.890747,,,,TRUE,,,,TRUE,,FG,OVC,200,,,,,,,LIFR,,,,,,,,,,,,METAR,3.0
KOTH 010725Z 14006KT 1/2SM FG OVC002 01/01 A2988 RMK AO2 FZRANO RVRNO,KOTH,2023-03-01T07:25:00Z,43.42,-124.25,1.0,1.0,140,6,,0.5,29.878937,,,,TRUE,,,,TRUE,,FG,OVC,200,,,,,,,LIFR,,,,,,,,,,,,SPECI,3.0
KOTH 010718Z 15007KT 3/4SM BR OVC002 01/01 A2988 RMK AO2 FZRANO RVRNO,KOTH,2023-03-01T07:18:00Z,43.42,-124.25,1.0,1.0,150,7,,0.75,29.878937,,,,TRUE,,,,TRUE,,BR,OVC,200,,,,,,,LIFR,,,,,,,,,,,,SPECI,3.0
KOTH 010708Z 14006KT 1/2SM FG OVC002 01/01 A2987 RMK AO2 FZRANO RVRNO,KOTH,2023-03-01T07:08:00Z,43.42,-124.25,1.0,1.0,140,6,,0.5,29.870079,,,,TRUE,,,,TRUE,,FG,OVC,200,,,,,,,LIFR,,,,,,,,,,,,SPECI,3.0
KOTH 010656Z 13006KT 3/4SM BR OVC002 01/01 A2987 RMK AO2 SLP114 T00060006 FZRANO RVRNO,KOTH,2023-03-01T06:56:00Z,43.42,-124.25,0.6,0.6,130,6,,0.75,29.870079,1011.4,,,TRUE,,,,TRUE,,BR,OVC,200,,,,,,,LIFR,,,,,,,,,,,,METAR,3.0
KOTH 010648Z 13006KT 3/4SM BR BKN002 01/01 A2986 RMK AO2 FZRANO RVRNO,KOTH,2023-03-01T06:48:00Z,43.42,-124.25,1.0,1.0,130,6,,0.75,29.861221,,,,TRUE,,,,TRUE,,BR,BKN,200,,,,,,,LIFR,,,,,,,,,,,,SPECI,3.0
KOTH 010638Z 14004KT 1SM BR BKN002 BKN048 01/01 A2986 RMK AO2 FZRANO RVRNO,KOTH,2023-03-01T06:38:00Z,43.42,-124.25,1.0,1.0,140,4,,1.0,29.861221,,,,TRUE,,,,TRUE,,BR,BKN,200,BKN,4800,,,,,LIFR,,,,,,,,,,,,SPECI,3.0
KOTH 010634Z 14005KT 1 1/2SM BR SCT002 BKN023 BKN048 01/01 A2985 RMK AO2 FZRANO,KOTH,2023-03-01T06:34:00Z,43.42,-124.25,1.0,1.0,140,5,,1.5,29.84941,,,,TRUE,,,,TRUE,,BR,SCT,200,BKN,2300,BKN,4800,,,IFR,,,,,,,,,,,,SPECI,3.0
KOTH 010630Z 16005KT 2 1/2SM BR FEW002 SCT023 SCT048 01/01 A2985 RMK AO2 FZRANO,KOTH,2023-03-01T06:30:00Z,43.42,-124.25,1.0,1.0,160,5,,2.5,29.84941,,,,TRUE,,,,TRUE,,BR,FEW,200,SCT,2300,SCT,4800,,,IFR,,,,,,,,,,,,SPECI,3.0
KOTH 010556Z 13003KT 10SM BKN033 01/01 A2984 RMK AO2 RAB27E36UPB36E43 SLP103 P0001 60010 T00110006 10044 20011 53019 FZRANO,KOTH,2023-03-01T05:56:00Z,43.42,-124.25,1.1,0.6,130,3,,10.0,29.840551,1010.3,,,TRUE,,,,TRUE,,,BKN,3300,,,,,,,VFR,1.9,4.4,1.1,,,0.01,,,,,,SPECI,3.0
KOTH 010505Z 15004KT 10SM FEW005 SCT029 01/01 A2981 RMK AO2 P0001 FZRANO,KOTH,2023-03-01T05:05:00Z,43.42,-124.25,1.0,1.0,150,4,,10.0,29.811024,,,,TRUE,,,,TRUE,,,FEW,500,SCT,2900,,,,,VFR,,,,,,0.01,,,,,,SPECI,3.0
KOTH 010456Z 13005KT 10SM FEW003 SCT020 BKN029 01/01 A2981 RMK AO2 RAE51 SLP093 P0001 T00110011,KOTH,2023-03-01T04:56:00Z,43.42,-124.25,1.1,1.1,130,5,,10.0,29.811024,1009.3,,,TRUE,,,,,,,FEW,300,SCT,2000,BKN,2900,,,MVFR,,,,,,0.01,,,,,,METAR,3.0
KOTH 010410Z 13006KT 10SM FEW006 SCT012 BKN024 02/01 A2979 RMK AO2 RAE08 P0000,KOTH,2023-03-01T04:10:00Z,43.42,-124.25,2.0,1.0,130,6,,10.0,29.790354,,,,TRUE,,,,,,,FEW,600,SCT,1200,BKN,2400,,,MVFR,,,,,,0.005,,,,,,SPECI,3.0
KOTH 010356Z VRB03KT 10SM -RA FEW007 BKN012 OVC028 02/01 A2978 RMK AO2 SLP084 P0001 T00170011,KOTH,2023-03-01T03:56:00Z,43.42,-124.25,1.7,1.1,0,3,,10.0,29.778543,1008.4,,,TRUE,,,,,,-RA,FEW,700,BKN,1200,OVC,2800,,,MVFR,,,,,,0.01,,,,,,METAR,3.0
KOTH 010353Z 13005KT 10SM -RA SCT005 BKN012 OVC028 02/01 A2978 RMK AO2 P0001,KOTH,2023-03-01T03:53:00Z,43.42,-124.25,2.0,1.0,130,5,,10.0,29.778543,,,,TRUE,,,,,,-RA,SCT,500,BKN,1200,OVC,2800,,,MVFR,,,,,,0.01,,,,,,SPECI,3.0
KOTH 010331Z 14007KT 10SM -RA FEW005 BKN017 OVC030 02/01 A2977 RMK AO2 P0001,KOTH,2023-03-01T03:31:00Z,43.42,-124.25,2.0,1.0,140,7,,10.0,29.769686,,,,TRUE,,,,,,-RA,FEW,500,BKN,1700,OVC,3000,,,MVFR,,,,,,0.01,,,,,,SPECI,3.0
KOTH 010256Z 15008KT 10SM -RA SCT011 BKN017 OVC025 02/01 A2976 RMK AO2 SLP077 P0002 60007 T00220011 51016,KOTH,2023-03-01T02:56:00Z,43.42,-124.25,2.2,1.1,150,8,,10.0,29.760826,1007.7,,,TRUE,,,,,,-RA,SCT,1100,BKN,1700,OVC,2500,,,MVFR,1.6,,,,,0.02,,,,,,SPECI,3.0
KOTH 010203Z 00000KT 10SM -RA OVC013 03/02 A2974 RMK AO2 P0000,KOTH,2023-03-01T02:03:00Z,43.42,-124.25,3.0,2.0,0,0,,10.0,29.740158,,,,TRUE,,,,,,-RA,OVC,1300,,,,,,,MVFR,,,,,,0.005,,,,,,SPECI,3.0
KOTH 010156Z 00000KT 6SM -RA BR SCT010 OVC016 03/01 A2974 RMK AO2 RAB28 SLP069 P0004 T00280011,KOTH,2023-03-01T01:56:00Z,43.42,-124.25,2.8,1.1,0,0,,6.0,29.740158,1006.9,,,TRUE,,,,,,-RA BR,SCT,1000,OVC,1600,,,,,MVFR,,,,,,0.04,,,,,,METAR,3.0
KOTH 010152Z 00000KT 5SM -RA BR OVC014 03/02 A2974 RMK AO2 RAB28 P0004,KOTH,2023-03-01T01:52:00Z,43.42,-124.25,3.0,2.0,0,0,,5.0,29.740158,,,,TRUE,,,,,,-RA BR,OVC,1400,,,,,,,MVFR,,,,,,0.04,,,,,,SPECI,3.0
KOTH 010056Z 00000KT 10SM FEW014 BKN020 OVC027 03/02 A2971 RMK AO2 RAB12E52 SLP061 P0001 T00330017,KOTH,2023-03-01T00:56:00Z,43.42,-124.25,3.3,1.7,0,0,,10.0,29.71063,1006.1,,,TRUE,,,,,,,FEW,1400,BKN,2000,OVC,2700,,,MVFR,,,,,,0.01,,,,,,METAR,3.0
KOTH 282356Z 28005KT 10SM BKN021 BKN040 04/02 A2969 RMK AO2 RAE28 SLP053 P0000 60009 T00440017 10072 20022 51009,KOTH,2023-02-28T23:56:00Z,43.42,-124.25,4.4,1.7,280,5,,10.0,29.68996,1005.3,,,TRUE,,,,,,,BKN,2100,BKN,4000,,,,,MVFR,0.9,7.2,2.2,,,0.005,,0.09,,,,METAR,3.0
KOTH 282323Z 34007KT 10SM -RA SCT017 BKN038 OVC055 04/02 A2969 RMK AO2 P0000,KOTH,2023-02-28T23:23:00Z,43.42,-124.25,4.0,2.0,340,7,,10.0,29.68996,,,,TRUE,,,,,,-RA,SCT,1700,BKN,3800,OVC,5500,,,VFR,,,,,,0.005,,,,,,SPECI,3.0
KOTH 282256Z 28009KT 3SM -RA BR SCT017 BKN027 OVC047 03/02 A2968 RMK AO2 RAB19UPB32E38 SLP051 P0008 T00330017,KOTH,2023-02-28T22:56:00Z,43.42,-124.25,3.3,1.7,280,9,,3.0,29.681103,1005.1,,,TRUE,,,,,,-RA BR,SCT,1700,BKN,2700,OVC,4700,,,MVFR,,,,,,0.08,,,,,,METAR,3.0
KOTH 282251Z 30010G17KT 3SM -RA BR SCT017 BKN027 OVC047 03/01 A2968 RMK AO2 RAB19UPB32E38 P0007,KOTH,2023-02-28T22:51:00Z,43.42,-124.25,3.0,1.0,300,10,17,3.0,29.681103,,,,TRUE,,,,,,-RA BR,SCT,1700,BKN,2700,OVC,4700,,,MVFR,,,,,,0.07,,,,,,SPECI,3.0
KOTH 282236Z 24007KT 6SM UP BR FEW015 BKN050 OVC120 03/01 A2967 RMK AO2 RAB19E32UPB32 P0006,KOTH,2023-02-28T22:36:00Z,43.42,-124.25,3.0,1.0,240,7,,6.0,29.66929,,,,TRUE,,,,,,BR UP,FEW,1500,BKN,5000,OVC,12000,,,VFR,,,,,,0.06,,,,,,SPECI,3.0
KOTH 282225Z 26013G21KT 6SM -RA BR FEW013 BKN029 OVC100 02/00 A2968 RMK AO2 RAB19 P0003,KOTH,2023-02-28T22:25:00Z,43.42,-124.25,2.0,0.0,260,13,21,6.0,29.681103,,,,TRUE,,,,,,-RA BR,FEW,1300,BKN,2900,OVC,10000,,,MVFR,,,,,,0.03,,,,,,SPECI,3.0
KOTH 282156Z 25013KT 10SM FEW029 SCT065 BKN120 07/02 A2966 RMK AO2 SLP044 T00670017,KOTH,2023-02-28T21:56:00Z,43.42,-124.25,6.7,1.7,250,13,,10.0,29.660433,1004.4,,,TRUE,,,,,,,FEW,2900,SCT,6500,BKN,12000,,,VFR,,,,,,,,,,,,SPECI,3.0
KOTH 282056Z 26021KT 10SM FEW023 SCT055 BKN075 06/03 A2967 RMK AO2 WSHFT 2005 RAE10 SLP046 P0000 60001 T00610028 50005,KOTH,2023-02-28T20:56:00Z,43.42,-124.25,6.1,2.8,260,21,,10.0,29.66929,1004.6,,,TRUE,,,,,,,FEW,2300,SCT,5500,BKN,7500,,,VFR,0.5,,,,,0.005,0.01,,,,,METAR,3.0
KOTH 282025Z 27021KT 10SM SCT026 BKN055 BKN070 07/01 A2967 RMK AO2 WSHFT 2005 RAE10 P0000,KOTH,2023-02-28T20:25:00Z,43.42,-124.25,7.0,1.0,270,21,,10.0,29.66929,,,,TRUE,,,,,,,SCT,2600,BKN,5500,BKN,7000,,,VFR,,,,,,0.005,,,,,,SPECI,3.0
KOTH 281956Z 23009KT 10SM RA FEW030 SCT040 BKN049 06/01 A2967 RMK AO2 RAB19E30B53 SLP046 P0001 T00560006,KOTH,2023-02-28T19:56:00Z,43.42,-124.25,5.6,0.6,230,9,,10.0,29.66929,1004.6,,,TRUE,,,,,,RA,FEW,3000,SCT,4000,BKN,4900,,,VFR,,,,,,0.01,,,,,,METAR,3.0
KOTH 281856Z 16005KT 10SM FEW024 SCT041 06/03 A2967 RMK AO2 LTG DSNT S RAB30E47 SLP046 P0000 T00560028,KOTH,2023-02-28T18:56:00Z,43.42,-124.25,5.6,2.8,160,5,,10.0,29.66929,1004.6,,,TRUE,,,,,,,FEW,2400,SCT,4100,,,,,VFR,,,,,,0.005,,,,,,METAR,3.0
KOTH 281849Z 17005KT 10SM FEW008 SCT025 BKN041 05/02 A2967 RMK AO2 RAB30E47 P0000,KOTH,2023-02-28T18:49:00Z,43.42,-124.25,5.0,2.0,170,5,,10.0,29.66929,,,,TRUE,,,,,,,FEW,800,SCT,2500,BKN,4100,,,VFR,,,,,,0.005,,,,,,SPECI,3.0
KOTH 281839Z 22009KT 10SM -RA FEW008 BKN025 OVC042 04/01 A2966 RMK AO2 RAB30 P0000,KOTH,2023-02-28T18:39:00Z,43.42,-124.25,4.0,1.0,220,9,,10.0,29.660433,,,,TRUE,,,,,,-RA,FEW,800,BKN,2500,OVC,4200,,,MVFR,,,,,,0.005,,,,,,SPECI,3.0
KOTH 281827Z VRB03KT 10SM FEW010 BKN023 OVC050 03/02 A2967 RMK AO2,KOTH,2023-02-28T18:27:00Z,43.42,-124.25,3.0,2.0,0,3,,10.0,29.66929,,,,TRUE,,,,,,,FEW,1000,BKN,2300,OVC,5000,,,MVFR,,,,,,,,,,,,SPECI,3.0
KOTH 281756Z 13010KT 10SM FEW026 BKN041 03/03 A2965 RMK AO2 UPB31E33RAB33E46 SLP041 P0000 60031 T00330028 10039 20006 51019,KOTH,2023-02-28T17:56:00Z,43.42,-124.25,3.3,2.8,130,10,,10.0,29.648623,1004.1,,,TRUE,,,,,,,FEW,2600,BKN,4100,,,,,VFR,1.9,3.9,0.6,,,0.005,,0.31,,,,METAR,3.0
KOTH 281742Z 14012KT 10SM -RA FEW008 SCT029 OVC041 03/02 A2965 RMK AO2 UPB31E33RAB33 P0000,KOTH,2023-02-28T17:42:00Z,43.42,-124.25,3.0,2.0,140,12,,10.0,29.648623,,,,TRUE,,,,,,-RA,FEW,800,SCT,2900,OVC,4100,,,VFR,,,,,,0.005,,,,,,SPECI,3.0
KOTH 281656Z 15009KT 10SM FEW021 BKN060 OVC070 02/02 A2965 RMK AO2 RAE26UPB26E32 SLP040 P0001 T00220017,KOTH,2023-02-28T16:56:00Z,43.42,-124.25,2.2,1.7,150,9,,10.0,29.648623,1004.0,,,TRUE,,,,,,,FEW,2100,BKN,6000,OVC,7000,,,VFR,,,,,,0.01,,,,,,SPECI,3.0
KOTH 281610Z 17007KT 6SM -RA BR FEW028 OVC037 02/01 A2963 RMK AO2 P0001,KOTH,2023-02-28T16:10:00Z,43.42,-124.25,2.0,1.0,170,7,,6.0,29.630905,,,,TRUE,,,,,,-RA BR,FEW,2800,OVC,3700,,,,,VFR,,,,,,0.01,,,,,,SPECI,3.0
KOTH 281556Z 18006KT 4SM -RA BR FEW018 BKN028 OVC075 02/01 A2963 RMK AO2 PK WND 27028/1512 WSHFT 1443 SLP033 P0005 T00220006,KOTH,2023-02-28T15:56:00Z,43.42,-124.25,2.2,0.6,180,6,,4.0,29.630905,1003.3,,,TRUE,,,,,,-RA BR,FEW,1800,BKN,2800,OVC,7500,,,MVFR,,,,,,0.05,,,,,,METAR,3.0
KOTH 281503Z 26013KT 4SM -RA BR FEW009 BKN019 OVC034 03/02 A2960 RMK AO2 WSHFT 1443 P0000,KOTH,2023-02-28T15:03:00Z,43.42,-124.25,3.0,2.0,260,13,,4.0,29.601377,,,,TRUE,,,,,,-RA BR,FEW,900,BKN,1900,OVC,3400,,,MVFR,,,,,,0.005,,,,,,METAR,3.0
KOTH 281456Z 25013KT 8SM -RA FEW009 BKN021 OVC029 03/02 A2960 RMK AO2 WSHFT 1441 SLP022 P0001 60025 T00280017 53002,KOTH,2023-02-28T14:56:00Z,43.42,-124.25,2.8,1.7,250,13,,8.0,29.601377,1002.2,,,TRUE,,,,,,-RA,FEW,900,BKN,2100,OVC,2900,,,MVFR,0.2,,,,,0.01,0.25,,,,,METAR,3.0
KOTH 281443Z AUTO 26019G23KT 10SM -RA FEW009 BKN015 OVC027 02/02 A2959 RMK AO2 P0000 FZRANO,KOTH,2023-02-28T14:43:00Z,43.42,-124.25,2.0,2.0,260,19,23,10.0,29.589567,,,TRUE,TRUE,,,,TRUE,,-RA,FEW,900,BKN,1500,OVC,2700,,,MVFR,,,,,,0.005,,,,,,SPECI,3.0
KOTH 281414Z AUTO 14006KT 10SM -RA SCT013 OVC019 02/01 A2959 RMK AO2 P0000 FZRANO,KOTH,2023-02-28T14:14:00Z,43.42,-124.25,2.0,1.0,140,6,,10.0,29.589567,,,TRUE,TRUE,,,,TRUE,,-RA,SCT,1300,OVC,1900,,,,,MVFR,,,,,,0.005,,,,,,SPECI,3.0
KOTH 281356Z AUTO 00000KT 10SM -RA SCT008 OVC014 01/01 A2959 RMK AO2 UPB04E07RAB18SNE04B07E18 SLP018 P0007 T00110011 FZRANO,KOTH,2023-02-28T13:56:00Z,43.42,-124.25,1.1,1.1,0,0,,10.0,29.589567,1001.8,,TRUE,TRUE,,,,TRUE,,-RA,SCT,800,OVC,1400,,,,,MVFR,,,,,,0.07,,,,,,METAR,3.0
KOTH 281313Z AUTO 14008KT 5SM -SN BR FEW006 OVC012 01/01 A2958 RMK AO2 UPB04E07SNE04B07 P0003 FZRANO,KOTH,2023-02-28T13:13:00Z,43.42,-124.25,1.0,1.0,140,8,,5.0,29.58071,,,TRUE,TRUE,,,,TRUE,,-SN BR,FEW,600,OVC,1200,,,,,MVFR,,,,,,0.03,,,,,,SPECI,3.0
KOTH 281256Z AUTO 14009KT 5SM -SN BR OVC010 01/01 A2958 RMK AO2 UPB31E55RAB39E52SNE31B55 CIG 007V014 SLP016 P0017 T00060006 FZRANO,KOTH,2023-02-28T12:56:00Z,43.42,-124.25,0.6,0.6,140,9,,5.0,29.58071,1001.6,,TRUE,TRUE,,,,TRUE,,-SN BR,OVC,1000,,,,,,,MVFR,,,,,,0.17,,,,,,METAR,3.0
KOTH 281240Z AUTO 16008KT 10SM -RA OVC010 01/00 A2958 RMK AO2 UPB31E39RAB39SNE31 P0013 FZRANO,KOTH,2023-02-28T12:40:00Z,43.42,-124.25,1.0,0.0,160,8,,10.0,29.58071,,,TRUE,TRUE,,,,TRUE,,-RA,OVC,1000,,,,,,,MVFR,,,,,,0.13,,,,,,METAR,3.0
KOTH 281229Z AUTO 16008KT 9SM -SN BKN008 OVC013 01/01 A2958 RMK AO2 CIG 007V011 P0012 FZRANO,KOTH,2023-02-28T12:29:00Z,43.42,-124.25,1.0,1.0,160,8,,9.0,29.58071,,,TRUE,TRUE,,,,TRUE,,-SN,BKN,800,OVC,1300,,,,,IFR,,,,,,0.12,,,,,,METAR,3.0
KOTH 281215Z AUTO 16005KT 4SM -SN BR OVC012 01/00 A2959 RMK AO2 P0008 FZRANO,KOTH,2023-02-28T12:15:00Z,43.42,-124.25,1.0,0.0,160,5,,4.0,29.589567,,,TRUE,TRUE,,,,TRUE,,-SN BR,OVC,1200,,,,,,,MVFR,,,,,,0.08,,,,,,SPECI,3.0
KOTH 281204Z AUTO 20005KT 3SM -SN BR BKN007 OVC012 01/00 A2959 RMK AO2 CIG 004V010 P0003 FZRANO,KOTH,2023-02-28T12:04:00Z,43.42,-124.25,1.0,0.0,200,5,,3.0,29.589567,,,TRUE,TRUE,,,,TRUE,,-SN BR,BKN,700,OVC,1200,,,,,IFR,,,,,,0.03,,,,,,SPECI,3.0
KOTH 281156Z AUTO 20009G17KT 2 1/2SM -SN BR SCT007 OVC012 01/01 A2959 RMK AO2 VIS 1 3/4V4 RAB13E42UPB42E45SNE33B45 SLP021 P0009 60031 70079 T00110006 10061 20011 58021 FZRANO,KOTH,2023-02-28T11:56:00Z,43.42,-124.25,1.1,0.6,200,9,17,2.5,29.589567,1002.1,,TRUE,TRUE,,,,TRUE,,-SN BR,SCT,700,OVC,1200,,,,,IFR,-2.1,6.1,1.1,,,0.09,,0.31,0.79,,,METAR,3.0
KOTH 281153Z AUTO 21013G17KT 2SM -SN BR SCT007 BKN012 OVC017 01/01 A2959 RMK AO2 VIS 1 1/2V3 RAB13E42UPB42E45SNE33B45 P0008 FZRANO,KOTH,2023-02-28T11:53:00Z,43.42,-124.25,1.0,1.0,210,13,17,2.0,29.589567,,,TRUE,TRUE,,,,TRUE,,-SN BR,SCT,700,BKN,1200,OVC,1700,,,IFR,,,,,,0.08,,,,,,METAR,3.0
KOTH 281150Z AUTO 20009KT 2 1/2SM -SN BR BKN005 OVC012 01/01 A2959 RMK AO2 VIS 1 1/2V5 RAB13E42UPB42E45SNE33B45 CIG 004V009 P0006 FZRANO,KOTH,2023-02-28T11:50:00Z,43.42,-124.25,1.0,1.0,200,9,,2.5,29.589567,,,TRUE,TRUE,,,,TRUE,,-SN BR,BKN,500,OVC,1200,,,,,IFR,,,,,,0.06,,,,,,SPECI,3.0
KOTH 281117Z AUTO 15009KT 8SM -RA FEW005 BKN014 OVC025 01/01 A2959 RMK AO2 RAB13SNE13 P0002 FZRANO,KOTH,2023-02-28T11:17:00Z,43.42,-124.25,1.0,1.0,150,9,,8.0,29.589567,,,TRUE,TRUE,,,,TRUE,,-RA,FEW,500,BKN,1400,OVC,2500,,,MVFR,,,,,,0.02,,,,,,SPECI,3.0
KOTH 281056Z AUTO 14012KT 7SM -SN BKN016 OVC021 02/01 A2961 RMK AO2 RAE0959UPB14E55SNB0959E14B25E35B55 PRESFR SLP025 P0014 T00170011 FZRANO,KOTH,2023-02-28T10:56:00Z,43.42,-124.25,1.7,1.1,140,12,,7.0,29.610237,1002.5,,TRUE,TRUE,,,,TRUE,,-SN,BKN,1600,OVC,2100,,,,,MVFR,,,,,,0.14,,,,,,SPECI,3.0
KOTH 281037Z AUTO 14008KT 6SM UP BR BKN015 OVC023 02/01 A2963 RMK AO2 RAE0959UPB14SNB0959E14B25E35 PRESFR P0011 FZRANO,KOTH,2023-02-28T10:37:00Z,43.42,-124.25,2.0,1.0,140,8,,6.0,29.630905,,,TRUE,TRUE,,,,TRUE,,BR UP,BKN,1500,OVC,2300,,,,,MVFR,,,,,,0.11,,,,,,METAR,3.0
KOTH 281010Z AUTO 19008KT 3SM -SN BR BKN013 BKN060 OVC110 02/01 A2966 RMK AO2 RAE0959SNB0959 CIG 009V023 P0006 FZRANO,KOTH,2023-02-28T10:10:00Z,43.42,-124.25,2.0,1.0,190,8,,3.0,29.660433,,,TRUE,TRUE,,,,TRUE,,-SN BR,BKN,1300,BKN,6000,OVC,11000,,,MVFR,,,,,,0.06,,,,,,SPECI,3.0
KOTH 280956Z AUTO 18010G18KT 6SM -RA BR BKN016 BKN033 OVC085 02/01 A2966 RMK AO2 RAB29 CIG 004V025 SLP042 P0007 T00220011 FZRANO,KOTH,2023-02-28T09:56:00Z,43.42,-124.25,2.2,1.1,180,10,18,6.0,29.660433,1004.2,,TRUE,TRUE,,,,TRUE,,-RA BR,BKN,1600,BKN,3300,OVC,8500,,,MVFR,,,,,,0.07,,,,,,METAR,3.0
KOTH 280940Z AUTO 15013G19KT 10SM -RA FEW005 BKN050 OVC090 03/02 A2964 RMK AO2 RAB29 P0001,KOTH,2023-02-28T09:40:00Z,43.42,-124.25,3.0,2.0,150,13,19,10.0,29.639763,,,TRUE,TRUE,,,,,,-RA,FEW,500,BKN,5000,OVC,9000,,,VFR,,,,,,0.01,,,,,,SPECI,3.0
KOTH 280856Z AUTO 15009KT 10SM FEW040 SCT055 03/01 A2966 RMK AO2 RAB26E43 SLP042 P0000 60001 T00280011 50005,KOTH,2023-02-28T08:56:00Z,43.42,-124.25,2.8,1.1,150,9,,10.0,29.660433,1004.2,,TRUE,TRUE,,,,,,,FEW,4000,SCT,5500,,,,,VFR,0.5,,,,,0.005,0.01,,,,,METAR,3.0
KOTH 280756Z AUTO 15008KT 10SM BKN046 03/02 A2967 RMK AO2 RAE0658B23E33 SLP046 P0000 T00280017 400670022,KOTH,2023-02-28T07:56:00Z,43.42,-124.25,2.8,1.7,150,8,,10.0,29.66929,1004.6,,TRUE,TRUE,,,,,,,BKN,4600,,,,,,,VFR,,,,6.7,2.2,0.005,,,,,,SPECI,3.0
KOTH 280656Z AUTO 17007KT 10SM -RA SCT038 BKN047 OVC085 03/02 A2966 RMK AO2 PK WND 27033/0606 RAB07 SLP045 P0001 T00330017,KOTH,2023-02-28T06:56:00Z,43.42,-124.25,3.3,1.7,170,7,,10.0,29.660433,1004.5,,TRUE,TRUE,,,,,,-RA,SCT,3800,BKN,4700,OVC,8500,,,VFR,,,,,,0.01,,,,,,METAR,3.0
KOTH 280556Z AUTO 28016KT 10SM FEW036 SCT065 BKN080 06/02 A2964 RMK AO2 PK WND 27036/0521 RAB18E40 SLP037 P0000 60006 T00610022 10067 20044 51029,KOTH,2023-02-28T05:56:00Z,43.42,-124.25,6.1,2.2,280,16,,10.0,29.639763,1003.7,,TRUE,TRUE,,,,,,,FEW,3600,SCT,6500,BKN,8000,,,VFR,2.9,6.7,4.4,,,0.005,,0.06,,,,METAR,3.0
KOTH 280456Z 30020G23KT 10SM FEW032 SCT048 BKN090 07/02 A2961 RMK AO2 PK WND 28036/0418 RAB00E31 SLP027 P0000 T00670017,KOTH,2023-02-28T04:56:00Z,43.42,-124.25,6.7,1.7,300,20,23,10.0,29.610237,1002.7,,,TRUE,,,,,,,FEW,3200,SCT,4800,BKN,9000,,,VFR,,,,,,0.005,,,,,,SPECI,3.0
KOTH 280356Z 28015G25KT 10SM FEW020 BKN033 OVC075 06/03 A2960 RMK AO2 PK WND 29036/0315 RAE50 SLP021 P0001 T00610028,KOTH,2023-02-28T03:56:00Z,43.42,-124.25,6.1,2.8,280,15,25,10.0,29.601377,1002.1,,,TRUE,,,,,,,FEW,2000,BKN,3300,OVC,7500,,,VFR,,,,,,0.01,,,,,,METAR,3.0
KOTH 280334Z 28018G32KT 9SM -RA SCT023 BKN032 OVC050 06/03 A2959 RMK AO2 PK WND 29036/0315 P0001,KOTH,2023-02-28T03:34:00Z,43.42,-124.25,6.0,3.0,280,18,32,9.0,29.589567,,,,TRUE,,,,,,-RA,SCT,2300,BKN,3200,OVC,5000,,,VFR,,,,,,0.01,,,,,,SPECI,3.0
KOTH 280256Z 27018G24KT 10SM -RA SCT022 BKN027 OVC036 06/03 A2956 RMK AO2 PK WND 28030/0235 RAB08 SLP008 P0000 60005 T00560033 53040,KOTH,2023-02-28T02:56:00Z,43.42,-124.25,5.6,3.3,270,18,24,10.0,29.56004,1000.8,,,TRUE,,,,,,-RA,SCT,2200,BKN,2700,OVC,3600,,,MVFR,4.0,,,,,0.005,,,,,,SPECI,3.0
KOTH 280242Z 30018G30KT 10SM -RA BKN026 BKN034 OVC042 06/03 A2956 RMK AO2 PK WND 28030/0235 RAB08 P0000,KOTH,2023-02-28T02:42:00Z,43.42,-124.25,6.0,3.0,300,18,30,10.0,29.56004,,,,TRUE,,,,,,-RA,BKN,2600,BKN,3400,OVC,4200,,,MVFR,,,,,,0.005,,,,,,SPECI,3.0
KOTH 280229Z 28016KT 10SM -RA SCT026 BKN034 OVC050 06/03 A2955 RMK AO2 PK WND 28027/0207 RAB08 P0000,KOTH,2023-02-28T02:29:00Z,43.42,-124.25,6.0,3.0,280,16,,10.0,29.551182,,,,TRUE,,,,,,-RA,SCT,2600,BKN,3400,OVC,5000,,,VFR,,,,,,0.005,,,,,,METAR,3.0
KOTH 280156Z 29023G28KT 10SM SCT018 BKN023 OVC038 06/04 A2952 RMK AO2 PK WND 31033/0121 WSHFT 0111 RAE54 PRESRR SLP996 P0003 T00560039,KOTH,2023-02-28T01:56:00Z,43.42,-124.25,5.6,3.9,290,23,28,10.0,29.518702,999.6,,,TRUE,,,,,,,SCT,1800,BKN,2300,OVC,3800,,,MVFR,,,,,,0.03,,,,,,METAR,3.0
KOTH 280128Z 31017G33KT 8SM -RA SCT011 BKN017 OVC026 05/04 A2947 RMK AO2 PK WND 31033/0121 WSHFT 0111 PRESRR P0003,KOTH,2023-02-28T01:28:00Z,43.42,-124.25,5.0,4.0,310,17,33,8.0,29.471457,,,,TRUE,,,,,,-RA,SCT,1100,BKN,1700,OVC,2600,,,MVFR,,,,,,0.03,,,,,,SPECI,3.0
KOTH 280120Z 29019G23KT 6SM -RA BR OVC013 05/04 A2945 RMK AO2 WSHFT 0106 P0003,KOTH,2023-02-28T01:20:00Z,43.42,-124.25,5.0,4.0,290,19,23,6.0,29.450787,,,,TRUE,,,,,,-RA BR,OVC,1300,,,,,,,MVFR,,,,,,0.03,,,,,,SPECI,3.0
KOTH 280056Z 14014KT 3SM -RA BR BKN013 OVC025 04/03 A2944 RMK AO2 RAB16 PRESFR SLP968 P0002 T00390033,KOTH,2023-02-28T00:56:00Z,43.42,-124.25,3.9,3.3,140,14,,3.0,29.438976,996.8,,,TRUE,,,,,,-RA BR,BKN,1300,OVC,2500,,,,,MVFR,,,,,,0.02,,,,,,METAR,3.0
KOTH 280041Z 16012G18KT 10SM -RA SCT016 BKN026 OVC037 04/03 A2946 RMK AO2 RAB16 P0000,KOTH,2023-02-28T00:41:00Z,43.42,-124.25,4.0,3.0,160,12,18,10.0,29.459646,,,,TRUE,,,,,,-RA,SCT,1600,BKN,2600,OVC,3700,,,MVFR,,,,,,0.005,,,,,,SPECI,3.0
KOTH 280029Z 15013G18KT 10SM -RA SCT022 BKN031 BKN042 05/04 A2946 RMK AO2 RAB16 P0000,KOTH,2023-02-28T00:29:00Z,43.42,-124.25,5.0,4.0,150,13,18,10.0,29.459646,,,,TRUE,,,,,,-RA,SCT,2200,BKN,3100,BKN,4200,,,VFR,,,,,,0.005,,,,,,SPECI,3.0
KOTH 272356Z 16013G19KT 10SM FEW011 BKN027 OVC034 05/03 A2948 RMK AO2 RAE13 SLP982 P0001 60018 T00500033 10061 20028 58005,KOTH,2023-02-27T23:56:00Z,43.42,-124.25,5.0,3.3,160,13,19,10.0,29.480314,998.2,,,TRUE,,,,,,,FEW,1100,BKN,2700,OVC,3400,,,MVFR,-0.5,6.1,2.8,,,0.01,,0.18,,,,METAR,3.0
KOTH 272330Z 17012KT 10SM BKN030 BKN036 OVC044 05/04 A2948 RMK AO2 RAE13 P0000,KOTH,2023-02-27T23:30:00Z,43.42,-124.25,5.0,4.0,170,12,,10.0,29.480314,,,,TRUE,,,,,,,BKN,3000,BKN,3600,OVC,4400,,,MVFR,,,,,,0.005,,,,,,SPECI,3.0
KOTH 272256Z 16009KT 10SM -RA FEW010 BKN025 OVC037 03/02 A2949 RMK AO2 SLP986 P0005 T00330022,KOTH,2023-02-27T22:56:00Z,43.42,-124.25,3.3,2.2,160,9,,10.0,29.489174,998.6,,,TRUE,,,,,,-RA,FEW,1000,BKN,2500,OVC,3700,,,MVFR,,,,,,0.05,,,,,,METAR,3.0
KOTH 272248Z 17010KT 10SM RA SCT009 BKN024 OVC040 03/02 A2949 RMK AO2 P0005,KOTH,2023-02-27T22:48:00Z,43.42,-124.25,3.0,2.0,170,10,,10.0,29.489174,,,,TRUE,,,,,,RA,SCT,900,BKN,2400,OVC,4000,,,MVFR,,,,,,0.05,,,,,,SPECI,3.0
KOTH 272218Z 15012KT 10SM FEW008 BKN011 OVC036 04/03 A2950 RMK AO2 RAE17 P0001,KOTH,2023-02-27T22:18:00Z,43.42,-124.25,4.0,3.0,150,12,,10.0,29.500984,,,,TRUE,,,,,,,FEW,800,BKN,1100,OVC,3600,,,MVFR,,,,,,0.01,,,,,,SPECI,3.0
KOTH 272156Z 16013KT 10SM -RA FEW012 BKN024 OVC032 03/03 A2949 RMK AO2 RAB11 SLP987 P0012 T00330028,KOTH,2023-02-27T21:56:00Z,43.42,-124.25,3.3,2.8,160,13,,10.0,29.489174,998.7,,,TRUE,,,,,,-RA,FEW,1200,BKN,2400,OVC,3200,,,MVFR,,,,,,0.12,,,,,,METAR,3.0
KOTH 272122Z 18013G23KT 8SM RA SCT013 BKN021 OVC050 05/03 A2951 RMK AO2 RAB11 P0003,KOTH,2023-02-27T21:22:00Z,43.42,-124.25,5.0,3.0,180,13,23,8.0,29.509842,,,,TRUE,,,,,,RA,SCT,1300,BKN,2100,OVC,5000,,,MVFR,,,,,,0.03,,,,,,SPECI,3.0
KOTH 272113Z 15012G20KT 10SM -RA SCT024 SCT042 BKN050 05/03 A2949 RMK AO2 RAB11 P0001,KOTH,2023-02-27T21:13:00Z,43.42,-124.25,5.0,3.0,150,12,20,10.0,29.489174,,,,TRUE,,,,,,-RA,SCT,2400,SCT,4200,BKN,5000,,,VFR,,,,,,0.01,,,,,,SPECI,3.0
KOTH 272103Z 14018G22KT 10SM FEW014 BKN024 06/03 A2949 RMK AO2,KOTH,2023-02-27T21:03:00Z,43.42,-124.25,6.0,3.0,140,18,22,10.0,29.489174,,,,TRUE,,,,,,,FEW,1400,BKN,2400,,,,,MVFR,,,,,,,,,,,,SPECI,3.0
KOTH 272056Z 14016KT 10SM FEW014 SCT024 BKN036 06/04 A2949 RMK AO2 RAB1957E50 SLP986 P0000 60000 T00560039 58022,KOTH,2023-02-27T20:56:00Z,43.42,-124.25,5.6,3.9,140,16,,10.0,29.489174,998.6,,,TRUE,,,,,,,FEW,1400,SCT,2400,BKN,3600,,,VFR,-2.2,,,,,0.005,,,,,,SPECI,3.0
KOTH 272041Z 15015KT 10SM -RA SCT012 SCT022 BKN027 06/05 A2950 RMK AO2 LTG DSNT NW RAB1957 P0000,KOTH,2023-02-27T20:41:00Z,43.42,-124.25,6.0,5.0,150,15,,10.0,29.500984,,,,TRUE,,,,,,-RA,SCT,1200,SCT,2200,BKN,2700,,,MVFR,,,,,,0.005,,,,,,SPECI,3.0
KOTH 271956Z 15017KT 10SM SCT014 BKN048 OVC075 06/03 A2953 RMK AO2 RAE42 SLP000 P0000 T00560033,KOTH,2023-02-27T19:56:00Z,43.42,-124.25,5.6,3.3,150,17,,10.0,29.530512,1000.0,,,TRUE,,,,,,,SCT,1400,BKN,4800,OVC,7500,,,VFR,,,,,,0.005,,,,,,SPECI,3.0
KOTH 271856Z 15012KT 10SM -RA FEW017 SCT026 BKN060 05/04 A2955 RMK AO2 RAB1759E11B48 SLP005 P0000 T00500039,KOTH,2023-02-27T18:56:00Z,43.42,-124.25,5.0,3.9,150,12,,10.0,29.551182,1000.5,,,TRUE,,,,,,-RA,FEW,1700,SCT,2600,BKN,6000,,,VFR,,,,,,0.005,,,,,,METAR,3.0
KOTH 271756Z 15011KT 10SM FEW011 SCT030 BKN048 04/03 A2956 RMK AO2 RAE47 SLP009 P0001 60024 T00390028 10044 20022 56007,KOTH,2023-02-27T17:56:00Z,43.42,-124.25,3.9,2.8,150,11,,10.0,29.56004,1000.9,,,TRUE,,,,,,,FEW,1100,SCT,3000,BKN,4800,,,VFR,-0.7,4.4,2.2,,,0.01,,0.24,,,,METAR,3.0
KOTH 271739Z 15013KT 10SM -RA SCT022 BKN031 OVC042 04/03 A2956 RMK AO2 P0001,KOTH,2023-02-27T17:39:00Z,43.42,-124.25,4.0,3.0,150,13,,10.0,29.56004,,,,TRUE,,,,,,-RA,SCT,2200,BKN,3100,OVC,4200,,,VFR,,,,,,0.01,,,,,,SPECI,3.0
KOTH 271708Z 14011KT 10SM SCT014 BKN020 OVC047 04/03 A2956 RMK AO2 RAE06 P0000,KOTH,2023-02-27T17:08:00Z,43.42,-124.25,4.0,3.0,140,11,,10.0,29.56004,,,,TRUE,,,,,,,SCT,1400,BKN,2000,OVC,4700,,,MVFR,,,,,,0.005,,,,,,SPECI,3.0
KOTH 271656Z 15014G19KT 10SM -RA BKN014 OVC020 03/03 A2957 RMK AO2 RAE35B52UPB35E52 SLP011 P0007 T00330028,KOTH,2023-02-27T16:56:00Z,43.42,-124.25,3.3,2.8,150,14,19,10.0,29.568897,1001.1,,,TRUE,,,,,,-RA,BKN,1400,OVC,2000,,,,,MVFR,,,,,,0.07,,,,,,METAR,3.0
KOTH 271638Z 15004KT 4SM UP BR FEW007 BKN010 OVC018 03/02 A2957 RMK AO2 RAE35UPB35 P0007,KOTH,2023-02-27T16:38:00Z,43.42,-124.25,3.0,2.0,150,4,,4.0,29.568897,,,,TRUE,,,,,,BR UP,FEW,700,BKN,1000,OVC,1800,,,MVFR,,,,,,0.07,,,,,,SPECI,3.0
KOTH 271631Z 21006KT 6SM -RA BR BKN010 OVC020 03/02 A2958 RMK AO2 CIG 006V013 P0006,KOTH,2023-02-27T16:31:00Z,43.42,-124.25,3.0,2.0,210,6,,6.0,29.58071,,,,TRUE,,,,,,-RA BR,BKN,1000,OVC,2000,,,,,MVFR,,,,,,0.06,,,,,,SPECI,3.0
KOTH 271624Z 26007KT 7SM +RA FEW006 SCT012 OVC020 03/02 A2958 RMK AO2 P0004,KOTH,2023-02-27T16:24:00Z,43.42,-124.25,3.0,2.0,260,7,,7.0,29.58071,,,,TRUE,,,,,,+RA,FEW,600,SCT,1200,OVC,2000,,,MVFR,,,,,,0.04,,,,,,SPECI,3.0
KOTH 271556Z 15007KT 10SM -RA FEW010 OVC024 03/02 A2957 RMK AO2 SLP012 P0002 T00330022,KOTH,2023-02-27T15:56:00Z,43.42,-124.25,3.3,2.2,150,7,,10.0,29.568897,1001.2,,,TRUE,,,,,,-RA,FEW,1000,OVC,2400,,,,,MVFR,,,,,,0.02,,,,,,METAR,3.0
KOTH 271456Z AUTO 16007KT 10SM -RA OVC021 03/02 A2958 RMK AO2 SLP016 P0005 60014 T00280022 58007,KOTH,2023-02-27T14:56:00Z,43.42,-124.25,2.8,2.2,160,7,,10.0,29.58071,1001.6,,TRUE,TRUE,,,,,,-RA,OVC,2100,,,,,,,MVFR,-0.7,,,,,0.05,,,,,,SPECI,3.0
KOTH 271423Z AUTO 15014KT 10SM RA SCT021 BKN029 OVC075 03/02 A2958 RMK AO2 P0002,KOTH,2023-02-27T14:23:00Z,43.42,-124.25,3.0,2.0,150,14,,10.0,29.58071,,,TRUE,TRUE,,,,,,RA,SCT,2100,BKN,2900,OVC,7500,,,MVFR,,,,,,0.02,,,,,,SPECI,3.0
KOTH 271356Z AUTO 15012KT 10SM -RA FEW010 BKN031 OVC060 02/02 A2959 RMK AO2 SLP019 P0006 T00220017 FZRANO,KOTH,2023-02-27T13:56:00Z,43.42,-124.25,2.2,1.7,150,12,,10.0,29.589567,1001.9,,TRUE,TRUE,,,,TRUE,,-RA,FEW,1000,BKN,3100,OVC,6000,,,VFR,,,,,,0.06,,,,,,METAR,3.0
KOTH 271256Z AUTO 14013KT 10SM -RA SCT009 OVC027 03/02 A2960 RMK AO2 UPB25E31 SLP024 P0003 T00280017,KOTH,2023-02-27T12:56:00Z,43.42,-124.25,2.8,1.7,140,13,,10.0,29.601377,1002.4,,TRUE,TRUE,,,,,,-RA,SCT,900,OVC,2700,,,,,MVFR,,,,,,0.03,,,,,,METAR,3.0
KOTH 271252Z AUTO 14012KT 10SM -RA SCT009 OVC027 03/02 A2960 RMK AO2 UPB25E31 P0003,KOTH,2023-02-27T12:52:00Z,43.42,-124.25,3.0,2.0,140,12,,10.0,29.601377,,,TRUE,TRUE,,,,,,-RA,SCT,900,OVC,2700,,,,,MVFR,,,,,,0.03,,,,,,SPECI,3.0
KOTH 271219Z AUTO 16015KT 10SM -RA FEW012 BKN019 OVC028 03/02 A2961 RMK AO2 P0003,KOTH,2023-02-27T12:19:00Z,43.42,-124.25,3.0,2.0,160,15,,10.0,29.610237,,,TRUE,TRUE,,,,,,-RA,FEW,1200,BKN,1900,OVC,2800,,,MVFR,,,,,,0.03,,,,,,SPECI,3.0
KOTH 271156Z AUTO 17014G23KT 10SM -RA BKN013 BKN020 OVC026 03/02 A2962 RMK AO2 SLP031 P0012 60021 70054 T00280017 10044 20028 55024,KOTH,2023-02-27T11:56:00Z,43.42,-124.25,2.8,1.7,170,14,23,10.0,29.619095,1003.1,,TRUE,TRUE,,,,,,-RA,BKN,1300,BKN,2000,OVC,2600,,,MVFR,-2.4,4.4,2.8,,,0.12,,,0.54,,,SPECI,3.0
KOTH 271147Z AUTO 17014G22KT 10SM -RA BKN013 OVC022 03/02 A2962 RMK AO2 P0011,KOTH,2023-02-27T11:47:00Z,43.42,-124.25,3.0,2.0,170,14,22,10.0,29.619095,,,TRUE,TRUE,,,,,,-RA,BKN,1300,OVC,2200,,,,,MVFR,,,,,,0.11,,,,,,SPECI,3.0
KOTH 271056Z AUTO 16018G26KT 9SM -RA OVC018 04/02 A2961 RMK AO2 PK WND 16026/1048 RAB20 SLP026 P0008 T00390017,KOTH,2023-02-27T10:56:00Z,43.42,-124.25,3.9,1.7,160,18,26,9.0,29.610237,1002.6,,TRUE,TRUE,,,,,,-RA,OVC,1800,,,,,,,MVFR,,,,,,0.08,,,,,,METAR,3.0
KOTH 271046Z AUTO 14016G22KT 8SM RA BKN017 BKN039 OVC046 04/01 A2960 RMK AO2 RAB20 P0005,KOTH,2023-02-27T10:46:00Z,43.42,-124.25,4.0,1.0,140,16,22,8.0,29.601377,,,TRUE,TRUE,,,,,,RA,BKN,1700,BKN,3900,OVC,4600,,,MVFR,,,,,,0.05,,,,,,SPECI,3.0
KOTH 270956Z AUTO 14011KT 10SM BKN047 OVC060 04/02 A2964 RMK AO2 LTG DSNT SW RAE19 SLP038 P0000 T00440017,KOTH,2023-02-27T09:56:00Z,43.42,-124.25,4.4,1.7,140,11,,10.0,29.639763,1003.8,,TRUE,TRUE,,,,,,,BKN,4700,OVC,6000,,,,,VFR,,,,,,0.005,,,,,,METAR,3.0
KOTH 270856Z AUTO 15010KT 10SM -RA FEW027 OVC036 04/02 A2969 RMK AO2 RAE12B30 SLP054 P0001 60001 T00390022 58034,KOTH,2023-02-27T08:56:00Z,43.42,-124.25,3.9,2.2,150,10,,10.0,29.68996,1005.4,,TRUE,TRUE,,,,,,-RA,FEW,2700,OVC,3600,,,,,VFR,-3.4,,,,,0.01,0.01,,,,,METAR,3.0
KOTH 270756Z AUTO 15010KT 10SM -RA FEW029 BKN036 OVC055 04/02 A2974 RMK AO2 SLP068 P0000 T00390022 400890033,KOTH,2023-02-27T07:56:00Z,43.42,-124.25,3.9,2.2,150,10,,10.0,29.740158,1006.8,,TRUE,TRUE,,,,,,-RA,FEW,2900,BKN,3600,OVC,5500,,,VFR,,,,8.9,3.3,0.005,,,,,,METAR,3.0
KOTH 270656Z AUTO 15013KT 10SM -RA FEW027 SCT044 BKN060 04/02 A2977 RMK AO2 RAB56 SLP081 P0000 T00390022,KOTH,2023-02-27T06:56:00Z,43.42,-124.25,3.9,2.2,150,13,,10.0,29.769686,1008.1,,TRUE,TRUE,,,,,,-RA,FEW,2700,SCT,4400,BKN,6000,,,VFR,,,,,,0.005,,,,,,METAR,3.0
KOTH 270556Z AUTO 15009KT 10SM CLR 03/02 A2979 RMK AO2 RAE07 SLP088 P0000 60003 T00330022 10061 20033 58021,KOTH,2023-02-27T05:56:00Z,43.42,-124.25,3.3,2.2,150,9,,10.0,29.790354,1008.8,,TRUE,TRUE,,,,,,,CLR,,,,,,,,VFR,-2.1,6.1,3.3,,,0.005,,0.03,,,,METAR,3.0
KOTH 270456Z AUTO 16011KT 10SM -RA FEW020 SCT040 BKN050 04/02 A2982 RMK AO2 RAB23 SLP098 P0000 T00390022,KOTH,2023-02-27T04:56:00Z,43.42,-124.25,3.9,2.2,160,11,,10.0,29.819881,1009.8,,TRUE,TRUE,,,,,,-RA,FEW,2000,SCT,4000,BKN,5000,,,VFR,,,,,,0.005,,,,,,METAR,3.0
KOTH 270356Z 14010KT 10SM BKN047 BKN070 BKN100 03/02 A2983 RMK AO2 RAE16 SLP102 P0000 T00330022,KOTH,2023-02-27T03:56:00Z,43.42,-124.25,3.3,2.2,140,10,,10.0,29.828741,1010.2,,,TRUE,,,,,,,BKN,4700,BKN,7000,BKN,10000,,,VFR,,,,,,0.005,,,,,,METAR,3.0
KOTH 270256Z 17010KT 9SM RA FEW021 SCT029 BKN040 04/02 A2986 RMK AO2 RAE03B51 SLP110 P0001 60003 T00390022 58014,KOTH,2023-02-27T02:56:00Z,43.42,-124.25,3.9,2.2,170,10,,9.0,29.861221,1011.0,,,TRUE,,,,,,RA,FEW,2100,SCT,2900,BKN,4000,,,VFR,-1.4,,,,,0.01,0.03,,,,,METAR,3.0
KOTH 270205Z 16010KT 10SM FEW018 BKN050 OVC090 05/03 A2987 RMK AO2 RAE03 P0000,KOTH,2023-02-27T02:05:00Z,43.42,-124.25,5.0,3.0,160,10,,10.0,29.870079,,,,TRUE,,,,,,,FEW,1800,BKN,5000,OVC,9000,,,VFR,,,,,,0.005,,,,,,SPECI,3.0
KOTH 270156Z 16009KT 10SM -RA FEW018 BKN029 OVC049 05/03 A2987 RMK AO2 RAB20 SLP115 P0002 T00500033,KOTH,2023-02-27T01:56:00Z,43.42,-124.25,5.0,3.3,160,9,,10.0,29.870079,1011.5,,,TRUE,,,,,,-RA,FEW,1800,BKN,2900,OVC,4900,,,MVFR,,,,,,0.02,,,,,,METAR,3.0
KOTH 270056Z 16006KT 10SM SCT045 BKN055 OVC070 06/03 A2988 RMK AO2 RAE14 SLP119 P0000 T00560033,KOTH,2023-02-27T00:56:00Z,43.42,-124.25,5.6,3.3,160,6,,10.0,29.878937,1011.9,,,TRUE,,,,,,,SCT,4500,BKN,5500,OVC,7000,,,VFR,,,,,,0.005,,,,,,METAR,3.0
KOTH 262356Z 23015G23KT 10SM -RA SCT027 BKN032 OVC055 06/02 A2990 RMK AO2 RAB34 SLP124 P0000 60002 T00610022 10089 20056 55007,KOTH,2023-02-26T23:56:00Z,43.42,-124.25,6.1,2.2,230,15,23,10.0,29.899607,1012.4,,,TRUE,,,,,,-RA,SCT,2700,BKN,3200,OVC,5500,,,VFR,-0.7,8.9,5.6,,,0.005,,0.02,,,,METAR,3.0
KOTH 262256Z 24010KT 10SM FEW036 BKN050 OVC090 08/02 A2990 RMK AO2 PK WND 27028/2204 RAB05E56 SLP123 P0002 T00780022,KOTH,2023-02-26T22:56:00Z,43.42,-124.25,7.8,2.2,240,10,,10.0,29.899607,1012.3,,,TRUE,,,,,,,FEW,3600,BKN,5000,OVC,9000,,,VFR,,,,,,0.02,,,,,,METAR,3.0
KOTH 262156Z 25014KT 10SM BKN044 OVC055 08/M01 A2990 RMK AO2 SLP125 T00831006,KOTH,2023-02-26T21:56:00Z,43.42,-124.25,8.3,-0.6,250,14,,10.0,29.899607,1012.5,,,TRUE,,,,,,,BKN,4400,OVC,5500,,,,,VFR,,,,,,,,,,,,METAR,3.0
KOTH 262056Z 28013G20KT 10SM FEW046 09/01 A2992 RMK AO2 SLP131 60000 T00890006 50015,KOTH,2023-02-26T20:56:00Z,43.42,-124.25,8.9,0.6,280,13,20,10.0,29.920275,1013.1,,,TRUE,,,,,,,FEW,4600,,,,,,,VFR,1.5,,,,,,0.005,,,,,METAR,3.0
KOTH 261956Z 29013KT 10SM FEW038 SCT050 BKN060 08/03 A2992 RMK AO2 PK WND 27026/1943 SLP133 T00780028,KOTH,2023-02-26T19:56:00Z,43.42,-124.25,7.8,2.8,290,13,,10.0,29.920275,1013.3,,,TRUE,,,,,,,FEW,3800,SCT,5000,BKN,6000,,,VFR,,,,,,,,,,,,METAR,3.0
KOTH 261856Z 28016G20KT 10SM SCT034 BKN055 07/03 A2990 RMK AO2 RAB19E37 SLP124 P0000 T00720028,KOTH,2023-02-26T18:56:00Z,43.42,-124.25,7.2,2.8,280,16,20,10.0,29.899607,1012.4,,,TRUE,,,,,,,SCT,3400,BKN,5500,,,,,VFR,,,,,,0.005,,,,,,METAR,3.0
KOTH 261832Z 28018G22KT 10SM -RA BKN032 OVC060 07/02 A2989 RMK AO2 RAB19 P0000,KOTH,2023-02-26T18:32:00Z,43.42,-124.25,7.0,2.0,280,18,22,10.0,29.890747,,,,TRUE,,,,,,-RA,BKN,3200,OVC,6000,,,,,VFR,,,,,,0.005,,,,,,SPECI,3.0
KOTH 261817Z 27015KT 10SM BKN029 BKN048 08/03 A2988 RMK AO2,KOTH,2023-02-26T18:17:00Z,43.42,-124.25,8.0,3.0,270,15,,10.0,29.878937,,,,TRUE,,,,,,,BKN,2900,BKN,4800,,,,,MVFR,,,,,,,,,,,,SPECI,3.0
KOTH 261756Z 27010KT 10SM FEW026 BKN031 OVC065 07/04 A2988 RMK AO2 RAE1657B18E52 SLP116 P0001 60028 T00670039 10072 20039 53024,KOTH,2023-02-26T17:56:00Z,43.42,-124.25,6.7,3.9,270,10,,10.0,29.878937,1011.6,,,TRUE,,,,,,,FEW,2600,BKN,3100,OVC,6500,,,VFR,2.4,7.2,3.9,,,0.01,,0.28,,,,METAR,3.0
KOTH 261656Z 31009KT 10SM -RA FEW017 BKN110 06/02 A2985 RMK AO2 WSHFT 1553 RAB1557E11B27 SLP108 P0000 T00610022,KOTH,2023-02-26T16:56:00Z,43.42,-124.25,6.1,2.2,310,9,,10.0,29.84941,1010.8,,,TRUE,,,,,,-RA,FEW,1700,BKN,11000,,,,,VFR,,,,,,0.005,,,,,,SPECI,3.0
KOTH 261613Z 30011KT 10SM BKN033 BKN050 06/03 A2983 RMK AO2 WSHFT 1553 RAB1557E11 P0000,KOTH,2023-02-26T16:13:00Z,43.42,-124.25,6.0,3.0,300,11,,10.0,29.828741,,,,TRUE,,,,,,,BKN,3300,BKN,5000,,,,,VFR,,,,,,0.005,,,,,,SPECI,3.0
KOTH 261556Z 32014KT 10SM BKN033 BKN050 OVC060 06/04 A2982 RMK AO2 RAE29 SLP098 P0000 T00560044,KOTH,2023-02-26T15:56:00Z,43.42,-124.25,5.6,4.4,320,14,,10.0,29.819881,1009.8,,,TRUE,,,,,,,BKN,3300,BKN,5000,OVC,6000,,,VFR,,,,,,0.005,,,,,,METAR,3.0
KOTH 261529Z 14005KT 10SM FEW022 BKN035 OVC055 04/04 A2982 RMK AO2 RAE29 P0000,KOTH,2023-02-26T15:29:00Z,43.42,-124.25,4.0,4.0,140,5,,10.0,29.819881,,,,TRUE,,,,,,,FEW,2200,BKN,3500,OVC,5500,,,VFR,,,,,,0.005,,,,,,SPECI,3.0
KOTH 261456Z AUTO 00000KT 10SM -RA SCT021 BKN027 OVC033 04/03 A2981 RMK AO2 SLP092 P0002 60027 T00440033 51026,KOTH,2023-02-26T14:56:00Z,43.42,-124.25,4.4,3.3,0,0,,10.0,29.811024,1009.2,,TRUE,TRUE,,,,,,-RA,SCT,2100,BKN,2700,OVC,3300,,,MVFR,2.6,,,,,0.02,0.27,,,,,METAR,3.0
KOTH 261420Z AUTO 30004KT 10SM -RA FEW021 BKN025 OVC033 05/03 A2979 RMK AO2 P0001,KOTH,2023-02-26T14:20:00Z,43.42,-124.25,5.0,3.0,300,4,,10.0,29.790354,,,TRUE,TRUE,,,,,,-RA,FEW,2100,BKN,2500,OVC,3300,,,MVFR,,,,,,0.01,,,,,,SPECI,3.0
KOTH 261413Z AUTO 28005KT 10SM -RA FEW017 BKN030 OVC039 05/03 A2979 RMK AO2 P0001,KOTH,2023-02-26T14:13:00Z,43.42,-124.25,5.0,3.0,280,5,,10.0,29.790354,,,TRUE,TRUE,,,,,,-RA,FEW,1700,BKN,3000,OVC,3900,,,MVFR,,,,,,0.01,,,,,,SPECI,3.0
KOTH 261356Z AUTO 31011G20KT 8SM -RA SCT016 OVC023 05/03 A2979 RMK AO2 SLP088 P0009 T00500033,KOTH,2023-02-26T13:56:00Z,43.42,-124.25,5.0,3.3,310,11,20,8.0,29.790354,1008.8,,TRUE,TRUE,,,,,,-RA,SCT,1600,OVC,2300,,,,,MVFR,,,,,,0.09,,,,,,METAR,3.0
KOTH 261256Z AUTO 29007KT 9SM RA OVC021 06/03 A2977 RMK AO2 PK WND 20029/1207 WSHFT 1209 SLP082 P0016 T00560033,KOTH,2023-02-26T12:56:00Z,43.42,-124.25,5.6,3.3,290,7,,9.0,29.769686,1008.2,,TRUE,TRUE,,,,,,RA,OVC,2100,,,,,,,MVFR,,,,,,0.16,,,,,,METAR,3.0
KOTH 261229Z AUTO 28017KT 9SM RA FEW014 BKN018 OVC026 06/04 A2977 RMK AO2 PK WND 20029/1207 WSHFT 1209 P0006,KOTH,2023-02-26T12:29:00Z,43.42,-124.25,6.0,4.0,280,17,,9.0,29.769686,,,TRUE,TRUE,,,,,,RA,FEW,1400,BKN,1800,OVC,2600,,,MVFR,,,,,,0.06,,,,,,SPECI,3.0
KOTH 261222Z AUTO 30019G28KT 6SM RA BR BKN014 BKN025 OVC031 06/04 A2976 RMK AO2 PK WND 20029/1207 WSHFT 1202 PRESRR P0005,KOTH,2023-02-26T12:22:00Z,43.42,-124.25,6.0,4.0,300,19,28,6.0,29.760826,,,TRUE,TRUE,,,,,,RA BR,BKN,1400,BKN,2500,OVC,3100,,,MVFR,,,,,,0.05,,,,,,SPECI,3.0
KOTH 261211Z AUTO 24016G29KT 10SM -RA OVC014 06/04 A2972 RMK AO2 PK WND 20029/1207 P0002,KOTH,2023-02-26T12:11:00Z,43.42,-124.25,6.0,4.0,240,16,29,10.0,29.719488,,,TRUE,TRUE,,,,,,-RA,OVC,1400,,,,,,,MVFR,,,,,,0.02,,,,,,SPECI,3.0
KOTH 261156Z AUTO 20017G25KT 10SM RA BKN016 OVC020 05/04 A2973 RMK AO2 SLP066 P0007 60012 70012 T00500039 10056 20033 55006,KOTH,2023-02-26T11:56:00Z,43.42,-124.25,5.0,3.9,200,17,25,10.0,29.731298,1006.6,,TRUE,TRUE,,,,,,RA,BKN,1600,OVC,2000,,,,,MVFR,-0.6,5.6,3.3,,,0.07,,0.12,0.12,,,METAR,3.0
KOTH 261138Z AUTO 23014G21KT 10SM -RA OVC016 05/04 A2973 RMK AO2 P0004,KOTH,2023-02-26T11:38:00Z,43.42,-124.25,5.0,4.0,230,14,21,10.0,29.731298,,,TRUE,TRUE,,,,,,-RA,OVC,1600,,,,,,,MVFR,,,,,,0.04,,,,,,SPECI,3.0
KOTH 261056Z AUTO 19013G20KT 10SM -RA OVC014 05/04 A2971 RMK AO2 RAE09B29 SLP061 P0002 T00500039,KOTH,2023-02-26T10:56:00Z,43.42,-124.25,5.0,3.9,190,13,20,10.0,29.71063,1006.1,,TRUE,TRUE,,,,,,-RA,OVC,1400,,,,,,,MVFR,,,,,,0.02,,,,,,METAR,3.0
KOTH 261038Z AUTO 19012G21KT 10SM -RA OVC014 06/04 A2972 RMK AO2 RAE09B29 P0001,KOTH,2023-02-26T10:38:00Z,43.42,-124.25,6.0,4.0,190,12,21,10.0,29.719488,,,TRUE,TRUE,,,,,,-RA,OVC,1400,,,,,,,MVFR,,,,,,0.01,,,,,,SPECI,3.0
KOTH 260956Z AUTO 20014G24KT 10SM -RA OVC018 06/04 A2973 RMK AO2 SLP066 P0002 T00560039,KOTH,2023-02-26T09:56:00Z,43.42,-124.25,5.6,3.9,200,14,24,10.0,29.731298,1006.6,,TRUE,TRUE,,,,,,-RA,OVC,1800,,,,,,,MVFR,,,,,,0.02,,,,,,METAR,3.0
KOTH 260856Z AUTO 19011G19KT 10SM -RA BKN022 OVC028 06/03 A2975 RMK AO2 SLP072 P0001 60001 T00560033 58020,KOTH,2023-02-26T08:56:00Z,43.42,-124.25,5.6,3.3,190,11,19,10.0,29.749016,1007.2,,TRUE,TRUE,,,,,,-RA,BKN,2200,OVC,2800,,,,,MVFR,-2.0,,,,,0.01,0.01,,,,,METAR,3.0
KOTH 260756Z AUTO 16006KT 10SM -RA BKN023 OVC029 04/03 A2977 RMK AO2 SLP082 P0000 T00390028 400831017,KOTH,2023-02-26T07:56:00Z,43.42,-124.25,3.9,2.8,160,6,,10.0,29.769686,1008.2,,TRUE,TRUE,,,,,,-RA,BKN,2300,OVC,2900,,,,,MVFR,,,,8.3,-1.7,0.005,,,,,,METAR,3.0
KOTH 260733Z AUTO 15008KT 10SM -RA BKN025 OVC034 04/02 A2978 RMK AO2 P0000,KOTH,2023-02-26T07:33:00Z,43.42,-124.25,4.0,2.0,150,8,,10.0,29.778543,,,TRUE,TRUE,,,,,,-RA,BKN,2500,OVC,3400,,,,,MVFR,,,,,,0.005,,,,,,SPECI,3.0
KOTH 260656Z AUTO 14009KT 10SM -RA SCT034 OVC065 04/02 A2979 RMK AO2 RAB54 SLP088 P0000 T00390017,KOTH,2023-02-26T06:56:00Z,43.42,-124.25,3.9,1.7,140,9,,10.0,29.790354,1008.8,,TRUE,TRUE,,,,,,-RA,SCT,3400,OVC,6500,,,,,VFR,,,,,,0.005,,,,,,METAR,3.0
KOTH 260556Z AUTO 15009KT 10SM OVC085 03/01 A2980 RMK AO2 SLP092 T00330011 10072 20017 58012,KOTH,2023-02-26T05:56:00Z,43.42,-124.25,3.3,1.1,150,9,,10.0,29.799213,1009.2,,TRUE,TRUE,,,,,,,OVC,8500,,,,,,,VFR,-1.2,7.2,1.7,,,,,,,,,METAR,3.0
KOTH 260511Z AUTO 14009KT 10SM SCT026 BKN090 BKN120 03/02 A2981 RMK AO2,KOTH,2023-02-26T05:11:00Z,43.42,-124.25,3.0,2.0,140,9,,10.0,29.811024,,,TRUE,TRUE,,,,,,,SCT,2600,BKN,9000,BKN,12000,,,VFR,,,,,,,,,,,,METAR,3.0
KOTH 260456Z AUTO 14007KT 10SM BKN024 03/02 A2982 RMK AO2 SLP098 T00280017,KOTH,2023-02-26T04:56:00Z,43.42,-124.25,2.8,1.7,140,7,,10.0,29.819881,1009.8,,TRUE,TRUE,,,,,,,BKN,2400,,,,,,,MVFR,,,,,,,,,,,,METAR,3.0
KOTH 260426Z 14009KT 10SM BKN024 03/01 A2982 RMK AO2,KOTH,2023-02-26T04:26:00Z,43.42,-124.25,3.0,1.0,140,9,,10.0,29.819881,,,,TRUE,,,,,,,BKN,2400,,,,,,,MVFR,,,,,,,,,,,,SPECI,3.0
KOTH 260356Z 15005KT 10SM CLR 02/01 A2983 RMK AO2 SLP101 T00170006,KOTH,2023-02-26T03:56:00Z,43.42,-124.25,1.7,0.6,150,5,,10.0,29.828741,1010.1,,,TRUE,,,,,,,CLR,,,,,,,,VFR,,,,,,,,,,,,METAR,3.0
KOTH 260256Z 17005KT 10SM CLR 04/01 A2984 RMK AO2 SLP104 T00390006 53000,KOTH,2023-02-26T02:56:00Z,43.42,-124.25,3.9,0.6,170,5,,10.0,29.840551,1010.4,,,TRUE,,,,,,,CLR,,,,,,,,VFR,0.0,,,,,,,,,,,METAR,3.0
KOTH 260156Z 33003KT 10SM CLR 06/01 A2983 RMK AO2 SLP102 T00560006,KOTH,2023-02-26T01:56:00Z,43.42,-124.25,5.6,0.6,330,3,,10.0,29.828741,1010.2,,,TRUE,,,,,,,CLR,,,,,,,,VFR,,,,,,,,,,,,METAR,3.0
KOTH 260056Z 32007KT 10SM CLR 07/01 A2984 RMK AO2 SLP104 T00670011,KOTH,2023-02-26T00:56:00Z,43.42,-124.25,6.7,1.1,320,7,,10.0,29.840551,1010.4,,,TRUE,,,,,,,CLR,,,,,,,,VFR,,,,,,,,,,,,METAR,3.0
KOTH 252356Z 31011KT 10SM CLR 07/02 A2984 RMK AO2 SLP104 T00720022 10083 20033 55012,KOTH,2023-02-25T23:56:00Z,43.42,-124.25,7.2,2.2,310,11,,10.0,29.840551,1010.4,,,TRUE,,,,,,,CLR,,,,,,,,VFR,-1.2,8.3,3.3,,,,,,,,,METAR,3.0
KOTH 252256Z 33007KT 10SM CLR 08/02 A2983 RMK AO2 SLP101 T00830017,KOTH,2023-02-25T22:56:00Z,43.42,-124.25,8.3,1.7,330,7,,10.0,29.828741,1010.1,,,TRUE,,,,,,,CLR,,,,,,,,VFR,,,,,,,,,,,,METAR,3.0
KOTH 252156Z 33012KT 10SM CLR 08/02 A2985 RMK AO2 SLP108 T00830017,KOTH,2023-02-25T21:56:00Z,43.42,-124.25,8.3,1.7,330,12,,10.0,29.84941,1010.8,,,TRUE,,,,,,,CLR,,,,,,,,VFR,,,,,,,,,,,,METAR,3.0
KOTH 252056Z 30009KT 10SM CLR 08/01 A2988 RMK AO2 SLP116 T00780011 56036,KOTH,2023-02-25T20:56:00Z,43.42,-124.25,7.8,1.1,300,9,,10.0,29.878937,1011.6,,,TRUE,,,,,,,CLR,,,,,,,,VFR,-3.6,,,,,,,,,,,METAR,3.0
KOTH 251956Z 00000KT 10SM CLR 07/M01 A2991 RMK AO2 SLP126 T00721006,KOTH,2023-02-25T19:56:00Z,43.42,-124.25,7.2,-0.6,0,0,,10.0,29.911417,1012.6,,,TRUE,,,,,,,CLR,,,,,,,,VFR,,,,,,,,,,,,METAR,3.0
KOTH 251856Z 00000KT 10SM CLR 06/M01 A2994 RMK AO2 SLP139 T00561006,KOTH,2023-02-25T18:56:00Z,43.42,-124.25,5.6,-0.6,0,0,,10.0,29.940945,1013.9,,,TRUE,,,,,,,CLR,,,,,,,,VFR,,,,,,,,,,,,METAR,3.0
KOTH 251756Z 34003KT 10SM CLR 03/M01 A2998 RMK AO2 SLP152 T00331011 10033 21017 58005,KOTH,2023-02-25T17:56:00Z,43.42,-124.25,3.3,-1.1,340,3,,10.0,29.97933,1015.2,,,TRUE,,,,,,,CLR,,,,,,,,VFR,-0.5,3.3,-1.7,,,,,,,,,METAR,3.0
KOTH 251656Z 00000KT 10SM CLR 02/M01 A2999 RMK AO2 SLP155 T00171011,KOTH,2023-02-25T16:56:00Z,43.42,-124.25,1.7,-1.1,0,0,,10.0,29.991142,1015.5,,,TRUE,,,,,,,CLR,,,,,,,,VFR,,,,,,,,,,,,METAR,3.0
KOTH 251556Z 02004KT 10SM CLR M01/M01 A3000 RMK AO2 SLP160 T10061011,KOTH,2023-02-25T15:56:00Z,43.42,-124.25,-0.6,-1.1,20,4,,10.0,30.0,1016.0,,,TRUE,,,,,,,CLR,,,,,,,,VFR,,,,,,,,,,,,METAR,3.0
KOTH 251456Z 01004KT 10SM CLR M02/M02 A3000 RMK AO2 SLP157 T10171022 56008,KOTH,2023-02-25T14:56:00Z,43.42,-124.25,-1.7,-2.2,10,4,,10.0,30.0,1015.7,,,TRUE,,,,,,,CLR,,,,,,,,VFR,-0.8,,,,,,,,,,,METAR,3.0
KOTH 251356Z AUTO 02005KT 10SM CLR M01/M02 A3000 RMK AO2 SLP157 T10111017 FZRANO,KOTH,2023-02-25T13:56:00Z,43.42,-124.25,-1.1,-1.7,20,5,,10.0,30.0,1015.7,,TRUE,TRUE,,,,TRUE,,,CLR,,,,,,,,VFR,,,,,,,,,,,,METAR,3.0
KOTH 251256Z AUTO 01005KT 10SM CLR M01/M02 A3001 RMK AO2 SLP160 T10111017 FZRANO,KOTH,2023-02-25T12:56:00Z,43.42,-124.25,-1.1,-1.7,10,5,,10.0,30.008858,1016.0,,TRUE,TRUE,,,,TRUE,,,CLR,,,,,,,,VFR,,,,,,,,,,,,METAR,3.0
KOTH 251156Z AUTO 36003KT 10SM CLR M01/M02 A3002 RMK AO2 SLP165 7//// T10111022 10006 21011 55006 FZRANO,KOTH,2023-02-25T11:56:00Z,43.42,-124.25,-1.1,-2.2,360,3,,10.0,30.02067,1016.5,,TRUE,TRUE,,,,TRUE,,,CLR,,,,,,,,VFR,-0.6,0.6,-1.1,,,,,,,,,METAR,3.0
KOTH 251056Z AUTO 01005KT 10SM CLR 00/M02 A3001 RMK AO2 SLP161 T00001022 FZRANO,KOTH,2023-02-25T10:56:00Z,43.42,-124.25,0.0,-2.2,10,5,,10.0,30.008858,1016.1,,TRUE,TRUE,,,,TRUE,,,CLR,,,,,,,,VFR,,,,,,,,,,,,METAR,3.0
KOTH 250956Z AUTO 03006KT 10SM CLR 00/M02 A3003 RMK AO2 SLP168 T00001017 FZRANO,KOTH,2023-02-25T09:56:00Z,43.42,-124.25,0.0,-1.7,30,6,,10.0,30.029528,1016.8,,TRUE,TRUE,,,,TRUE,,,CLR,,,,,,,,VFR,,,,,,,,,,,,SPECI,3.0
KOTH 250856Z AUTO 04006KT 10SM CLR 00/M02 A3004 RMK AO2 SLP171 T00001017 51002 FZRANO,KOTH,2023-02-25T08:56:00Z,43.42,-124.25,0.0,-1.7,40,6,,10.0,30.041338,1017.1,,TRUE,TRUE,,,,TRUE,,,CLR,,,,,,,,VFR,0.2,,,,,,,,,,,METAR,3.0
KOTH 250756Z AUTO 02006KT 10SM CLR 00/M02 A3004 RMK AO2 SLP171 T00001017 400831022 FZRANO,KOTH,2023-02-25T07:56:00Z,43.42,-124.25,0.0,-1.7,20,6,,10.0,30.041338,1017.1,,TRUE,TRUE,,,,TRUE,,,CLR,,,,,,,,VFR,,,,8.3,-2.2,,,,,,,METAR,3.0
KOTH 250656Z AUTO 02006KT 10SM CLR 00/M01 A3004 RMK AO2 SLP171 T00001006 FZRANO,KOTH,2023-02-25T06:56:00Z,43.42,-124.25,0.0,-0.6,20,6,,10.0,30.041338,1017.1,,TRUE,TRUE,,,,TRUE,,,CLR,,,,,,,,VFR,,,,,,,,,,,,METAR,3.0
KOTH 250556Z AUTO 11005KT 10SM CLR 01/M01 A3003 RMK AO2 SLP170 T00061011 10078 21006 51014 FZRANO,KOTH,2023-02-25T05:56:00Z,43.42,-124.25,0.6,-1.1,110,5,,10.0,30.029528,1017.0,,TRUE,TRUE,,,,TRUE,,,CLR,,,,,,,,VFR,1.4,7.8,-0.6,,,,,,,,,METAR,3.0
KOTH 250456Z AUTO 15005KT 10SM CLR 00/M01 A3002 RMK AO2 SLPNO T00001006,KOTH,2023-02-25T04:56:00Z,43.42,-124.25,0.0,-0.6,150,5,,10.0,30.02067,,,TRUE,TRUE,,,,,,,CLR,,,,,,,,VFR,,,,,,,,,,,,METAR,3.0
KOTH 250356Z 04004KT 10SM CLR 02/01 A3001 RMK AO2 SLPNO T00170006,KOTH,2023-02-25T03:56:00Z,43.42,-124.25,1.7,0.6,40,4,,10.0,30.008858,,,,TRUE,,,,,,,CLR,,,,,,,,VFR,,,,,,,,,,,,SPECI,3.0
KOTH 250256Z 02005KT 10SM CLR 04/M01 A2999 RMK AO2 SLPNO T00391006 53024,KOTH,2023-02-25T02:56:00Z,43.42,-124.25,3.9,-0.6,20,5,,10.0,29.991142,,,,TRUE,,,,,,,CLR,,,,,,,,VFR,2.4,,,,,,,,,,,SPECI,3.0
KOTH 250156Z 05006KT 10SM CLR 05/M01 A2996 RMK AO2 SLPNO T00501006,KOTH,2023-02-25T01:56:00Z,43.42,-124.25,5.0,-0.6,50,6,,10.0,29.958662,,,,TRUE,,,,,,,CLR,,,,,,,,VFR,,,,,,,,,,,,SPECI,3.0
KOTH 250056Z 03010KT 10SM CLR 07/00 A2995 RMK AO2 SLPNO T00670000,KOTH,2023-02-25T00:56:00Z,43.42,-124.25,6.7,0.0,30,10,,10.0,29.949802,,,,TRUE,,,,,,,CLR,,,,,,,,VFR,,,,,,,,,,,,METAR,3.0
KOTH 242356Z 04009KT 10SM CLR 08/01 A2992 RMK AO2 SLPNO T00780006 10083 20017 53010,KOTH,2023-02-24T23:56:00Z,43.42,-124.25,7.8,0.6,40,9,,10.0,29.920275,,,,TRUE,,,,,,,CLR,,,,,,,,VFR,1.0,8.3,1.7,,,,,,,,,METAR,3.0
KOTH 242256Z 12003KT 10SM CLR 07/00 A2991 RMK AO2 SLPNO T00720000,KOTH,2023-02-24T22:56:00Z,43.42,-124.25,7.2,0.0,120,3,,10.0,29.911417,,,,TRUE,,,,,,,CLR,,,,,,,,VFR,,,,,,,,,,,,METAR,3.0
KOTH 242156Z 12007KT 10SM CLR 07/00 A2989 RMK AO2 SLPNO T00670000,KOTH,2023-02-24T21:56:00Z,43.42,-124.25,6.7,0.0,120,7,,10.0,29.890747,,,,TRUE,,,,,,,CLR,,,,,,,,VFR,,,,,,,,,,,,METAR,3.0
KOTH 242056Z VRB04KT 10SM CLR 06/M02 A2989 RMK AO2 SLPNO T00561017 50008,KOTH,2023-02-24T20:56:00Z,43.42,-124.25,5.6,-1.7,0,4,,10.0,29.890747,,,,TRUE,,,,,,,CLR,,,,,,,,VFR,0.8,,,,,,,,,,,METAR,3.0
KOTH 241956Z 09005KT 10SM CLR 04/M02 A2989 RMK AO2 SLPNO T00441022,KOTH,2023-02-24T19:56:00Z,43.42,-124.25,4.4,-2.2,90,5,,10.0,29.890747,,,,TRUE,,,,,,,CLR,,,,,,,,VFR,,,,,,,,,,,,SPECI,3.0
KOTH 241856Z 00000KT 10SM CLR 03/M04 A2988 RMK AO2 SLPNO T00281044,KOTH,2023-02-24T18:56:00Z,43.42,-124.25,2.8,-4.4,0,0,,10.0,29.878937,,,,TRUE,,,,,,,CLR,,,,,,,,VFR,,,,,,,,,,,,METAR,3.0
KOTH 241756Z AUTO VRB03KT 10SM 02/M05 A2987 RMK AO2 SLPNO 6//// T00221050 FZRANO,KOTH,2023-02-24T17:56:00Z,43.42,-124.25,2.2,-5.0,0,3,,10.0,29.870079,,,TRUE,TRUE,,,,TRUE,,,,,,,,,,,,,,,,,,,,,,,METAR,3.0
KOTH 241556Z AUTO 13003KT 10SM CLR M02/M06 A2981 RMK AO2 SLP095 T10171056 FZRANO,KOTH,2023-02-24T15:56:00Z,43.42,-124.25,-1.7,-5.6,130,3,,10.0,29.811024,1009.5,,TRUE,TRUE,,,,TRUE,,,CLR,,,,,,,,VFR,,,,,,,,,,,,METAR,3.0
KOTH 241456Z AUTO 12007KT 10SM CLR M02/M05 A2979 RMK AO2 SLP086 T10171050 53017 FZRANO,KOTH,2023-02-24T14:56:00Z,43.42,-124.25,-1.7,-5.0,120,7,,10.0,29.790354,1008.6,,TRUE,TRUE,,,,TRUE,,,CLR,,,,,,,,VFR,1.7,,,,,,,,,,,METAR,3.0
KOTH 241356Z AUTO 13007KT 10SM CLR M02/M05 A2976 RMK AO2 SLP078 T10171050 FZRANO,KOTH,2023-02-24T13:56:00Z,43.42,-124.25,-1.7,-5.0,130,7,,10.0,29.760826,1007.8,,TRUE,TRUE,,,,TRUE,,,CLR,,,,,,,,VFR,,,,,,,,,,,,METAR,3.0
KOTH 241256Z AUTO 11007KT 10SM CLR M01/M05 A2975 RMK AO2 SLP074 T10111050 FZRANO,KOTH,2023-02-24T12:56:00Z,43.42,-124.25,-1.1,-5.0,110,7,,10.0,29.749016,1007.4,,TRUE,TRUE,,,,TRUE,,,CLR,,,,,,,,VFR,,,,,,,,,,,,METAR,3.0
KOTH 241156Z AUTO 05008KT 10SM OVC080 00/M04 A2974 RMK AO2 SLP069 7//// T00001039 10017 21006 51013 FZRANO,KOTH,2023-02-24T11:56:00Z,43.42,-124.25,0.0,-3.9,50,8,,10.0,29.740158,1006.9,,TRUE,TRUE,,,,TRUE,,,OVC,8000,,,,,,,VFR,1.3,1.7,-0.6,,,,,,,,,METAR,3.0
KOTH 241056Z AUTO 10009KT 10SM BKN080 M01/M03 A2973 RMK AO2 SLP066 T10061033 FZRANO,KOTH,2023-02-24T10:56:00Z,43.42,-124.25,-0.6,-3.3,100,9,,10.0,29.731298,1006.6,,TRUE,TRUE,,,,TRUE,,,BKN,8000,,,,,,,VFR,,,,,,,,,,,,METAR,3.0
KOTH 240956Z AUTO 10009KT 10SM CLR 00/M03 A2971 RMK AO2 SLP061 T00001028 FZRANO,KOTH,2023-02-24T09:56:00Z,43.42,-124.25,0.0,-2.8,100,9,,10.0,29.71063,1006.1,,TRUE,TRUE,,,,TRUE,,,CLR,,,,,,,,VFR,,,,,,,,,,,,METAR,3.0
KOTH 240856Z AUTO 09009KT 10SM SCT110 01/M02 A2970 RMK AO2 SLP057 T00061022 53015 FZRANO,KOTH,2023-02-24T08:56:00Z,43.42,-124.25,0.6,-2.2,90,9,,10.0,29.698818,1005.7,,TRUE,TRUE,,,,TRUE,,,SCT,11000,,,,,,,VFR,1.5,,,,,,,,,,,METAR,3.0
KOTH 240756Z AUTO 10004KT 10SM SCT017 BKN055 01/M01 A2968 RMK AO2 SLP050 T00111006 400220000 FZRANO,KOTH,2023-02-24T07:56:00Z,43.42,-124.25,1.1,-0.6,100,4,,10.0,29.681103,1005.0,,TRUE,TRUE,,,,TRUE,,,SCT,1700,BKN,5500,,,,,VFR,,,,2.2,,,,,,,,METAR,3.0
KOTH 240656Z AUTO 12006KT 10SM BKN060 OVC100 01/M01 A2966 RMK AO2 SLPNO T00111006 FZRANO,KOTH,2023-02-24T06:56:00Z,43.42,-124.25,1.1,-0.6,120,6,,10.0,29.660433,,,TRUE,TRUE,,,,TRUE,,,BKN,6000,OVC,10000,,,,,VFR,,,,,,,,,,,,SPECI,3.0
KOTH 240556Z AUTO 03004KT 10SM BKN055 OVC080 01/00 A2966 RMK AO2 SLPNO T00110000 10022 20000 53011 FZRANO,KOTH,2023-02-24T05:56:00Z,43.42,-124.25,1.1,0.0,30,4,,10.0,29.660433,,,TRUE,TRUE,,,,TRUE,,,BKN,5500,OVC,8000,,,,,VFR,1.1,2.2,0.0,,,,,,,,,METAR,3.0
KOTH 240456Z AUTO 04006KT 10SM OVC055 01/00 A2964 RMK AO2 SLPNO T00110000 FZRANO,KOTH,2023-02-24T04:56:00Z,43.42,-124.25,1.1,0.0,40,6,,10.0,29.639763,,,TRUE,TRUE,,,,TRUE,,,OVC,5500,,,,,,,VFR,,,,,,,,,,,,METAR,3.0
KOTH 240356Z AUTO 08004KT 10SM SCT060 BKN075 01/M01 A2963 RMK AO2 SLPNO T00061006 FZRANO,KOTH,2023-02-24T03:56:00Z,43.42,-124.25,0.6,-0.6,80,4,,10.0,29.630905,,,TRUE,TRUE,,,,TRUE,,,SCT,6000,BKN,7500,,,,,VFR,,,,,,,,,,,,METAR,3.0
KOTH 240256Z AUTO 00000KT 10SM BKN085 OVC110 02/00 A2962 RMK AO2 SLPNO T00170000 53012 FZRANO,KOTH,2023-02-24T02:56:00Z,43.42,-124.25,1.7,0.0,0,0,,10.0,29.619095,,,TRUE,TRUE,,,,TRUE,,,BKN,8500,OVC,11000,,,,,VFR,1.2,,,,,,,,,,,METAR,3.0
KOTH 240156Z AUTO 08005KT 10SM BKN120 02/00 A2961 RMK AO2 SLPNO T00170000 FZRANO,KOTH,2023-02-24T01:56:00Z,43.42,-124.25,1.7,0.0,80,5,,10.0,29.610237,,,TRUE,TRUE,,,,TRUE,,,BKN,12000,,,,,,,VFR,,,,,,,,,,,,METAR,3.0
KOTH 240056Z AUTO 12006KT 10SM FEW012 02/00 A2960 RMK AO2 SLPNO T00220000 FZRANO,KOTH,2023-02-24T00:56:00Z,43.42,-124.25,2.2,0.0,120,6,,10.0,29.601377,,,TRUE,TRUE,,,,TRUE,,,FEW,1200,,,,,,,VFR,,,,,,,,,,,,METAR,3.0
KOTH 240039Z AUTO 15005KT 10SM FEW012 SCT120 02/00 A2960 RMK AO2 FZRANO,KOTH,2023-02-24T00:39:00Z,43.42,-124.25,2.0,0.0,150,5,,10.0,29.601377,,,TRUE,TRUE,,,,TRUE,,,FEW,1200,SCT,12000,,,,,VFR,,,,,,,,,,,,SPECI,3.0
KOTH 240029Z AUTO 14005KT 10SM BKN012 BKN120 02/00 A2960 RMK AO2 FZRANO,KOTH,2023-02-24T00:29:00Z,43.42,-124.25,2.0,0.0,140,5,,10.0,29.601377,,,TRUE,TRUE,,,,TRUE,,,BKN,1200,BKN,12000,,,,,MVFR,,,,,,,,,,,,SPECI,3.0
KOTH 232356Z AUTO 15009KT 10SM FEW010 SCT014 BKN090 02/00 A2959 RMK AO2 SLPNO 6//// T00170000 58002 FZRANO,KOTH,2023-02-23T23:56:00Z,43.42,-124.25,1.7,0.0,150,9,,10.0,29.589567,,,TRUE,TRUE,,,,TRUE,,,FEW,1000,SCT,1400,BKN,9000,,,VFR,-0.2,,,,,,,,,,,METAR,3.0
KOTH 232342Z AUTO 13011KT 10SM BKN012 01/00 A2959 RMK AO2 FZRANO,KOTH,2023-02-23T23:42:00Z,43.42,-124.25,1.0,0.0,130,11,,10.0,29.589567,,,TRUE,TRUE,,,,TRUE,,,BKN,1200,,,,,,,MVFR,,,,,,,,,,,,SPECI,3.0
KOTH 232334Z AUTO 14011KT 10SM FEW009 SCT017 SCT045 02/00 A2959 RMK AO2 FZRANO,KOTH,2023-02-23T23:34:00Z,43.42,-124.25,2.0,0.0,140,11,,10.0,29.589567,,,TRUE,TRUE,,,,TRUE,,,FEW,900,SCT,1700,SCT,4500,,,VFR,,,,,,,,,,,,METAR,3.0
KOTH 232256Z AUTO 16009KT 10SM SCT011 BKN037 OVC055 02/M01 A2960 RMK AO2 RAE2159 SLPNO P0000 T00171006 FZRANO,KOTH,2023-02-23T22:56:00Z,43.42,-124.25,1.7,-0.6,160,9,,10.0,29.601377,,,TRUE,TRUE,,,,TRUE,,,SCT,1100,BKN,3700,OVC,5500,,,VFR,,,,,,0.005,,,,,,METAR,3.0
KOTH 232202Z AUTO 16010KT 10SM SCT013 SCT018 OVC060 02/00 A2960 RMK AO2 RAE2159 P0000 FZRANO,KOTH,2023-02-23T22:02:00Z,43.42,-124.25,2.0,0.0,160,10,,10.0,29.601377,,,TRUE,TRUE,,,,TRUE,,,SCT,1300,SCT,1800,OVC,6000,,,VFR,,,,,,0.005,,,,,,SPECI,3.0
KOTH 232156Z AUTO 15010KT 10SM -RA BKN013 OVC055 02/00 A2960 RMK AO2 RAB20 SLPNO P0000 T00170000 FZRANO,KOTH,2023-02-23T21:56:00Z,43.42,-124.25,1.7,0.0,150,10,,10.0,29.601377,,,TRUE,TRUE,,,,TRUE,,-RA,BKN,1300,OVC,5500,,,,,MVFR,,,,,,0.005,,,,,,SPECI,3.0
KOTH 232121Z AUTO 17011KT 10SM -RA FEW009 BKN013 02/00 A2960 RMK AO2 RAB20 P0000 FZRANO,KOTH,2023-02-23T21:21:00Z,43.42,-124.25,2.0,0.0,170,11,,10.0,29.601377,,,TRUE,TRUE,,,,TRUE,,-RA,FEW,900,BKN,1300,,,,,MVFR,,,,,,0.005,,,,,,SPECI,3.0
KOTH 232056Z AUTO 14011KT 10SM FEW007 02/00 A2960 RMK AO2 RAB27E40 SLPNO P0000 6//// T00170000 FZRANO,KOTH,2023-02-23T20:56:00Z,43.42,-124.25,1.7,0.0,140,11,,10.0,29.601377,,,TRUE,TRUE,,,,TRUE,,,FEW,700,,,,,,,VFR,,,,,,0.005,,,,,,METAR,3.0
KOTH 232045Z AUTO 14011KT 10SM SCT007 02/00 A2960 RMK AO2 RAB27E40 P0000 FZRANO,KOTH,2023-02-23T20:45:00Z,43.42,-124.25,2.0,0.0,140,11,,10.0,29.601377,,,TRUE,TRUE,,,,TRUE,,,SCT,700,,,,,,,VFR,,,,,,0.005,,,,,,SPECI,3.0
KOTH 232035Z AUTO 14012KT 10SM -RA BKN007 02/00 A2961 RMK AO2 RAB27 P0000 FZRANO,KOTH,2023-02-23T20:35:00Z,43.42,-124.25,2.0,0.0,140,12,,10.0,29.610237,,,TRUE,TRUE,,,,TRUE,,-RA,BKN,700,,,,,,,IFR,,,,,,0.005,,,,,,SPECI,3.0
KOTH 232015Z AUTO 14012KT 10SM FEW005 SCT065 01/00 A2961 RMK AO2 FZRANO,KOTH,2023-02-23T20:15:00Z,43.42,-124.25,1.0,0.0,140,12,,10.0,29.610237,,,TRUE,TRUE,,,,TRUE,,,FEW,500,SCT,6500,,,,,VFR,,,,,,,,,,,,SPECI,3.0
KOTH 231956Z AUTO 15011KT 10SM BKN005 BKN065 01/00 A2962 RMK AO2 UPB50E55SNB00E50 CIG 003V007 SLPNO T00060000 FZRANO,KOTH,2023-02-23T19:56:00Z,43.42,-124.25,0.6,0.0,150,11,,10.0,29.619095,,,TRUE,TRUE,,,,TRUE,,,BKN,500,BKN,6500,,,,,IFR,,,,,,,,,,,,METAR,3.0
KOTH 231946Z AUTO 14012KT 6SM -SN BR BKN005 BKN010 01/00 A2962 RMK AO2 SNB00 CIG 003V007 FZRANO,KOTH,2023-02-23T19:46:00Z,43.42,-124.25,1.0,0.0,140,12,,6.0,29.619095,,,TRUE,TRUE,,,,TRUE,,-SN BR,BKN,500,BKN,1000,,,,,IFR,,,,,,,,,,,,SPECI,3.0
KOTH 231936Z AUTO 14012KT 2SM -SN BR BKN005 01/00 A2962 RMK AO2 VIS 1V4 SNB00 CIG 003V007 FZRANO,KOTH,2023-02-23T19:36:00Z,43.42,-124.25,1.0,0.0,140,12,,2.0,29.619095,,,TRUE,TRUE,,,,TRUE,,-SN BR,BKN,500,,,,,,,IFR,,,,,,,,,,,,SPECI,3.0
KOTH 231929Z AUTO 14012KT 1SM -SN BR BKN005 OVC009 01/00 A2962 RMK AO2 SNB00 CIG 003V007 FZRANO RVRNO,KOTH,2023-02-23T19:29:00Z,43.42,-124.25,1.0,0.0,140,12,,1.0,29.619095,,,TRUE,TRUE,,,,TRUE,,-SN BR,BKN,500,OVC,900,,,,,IFR,,,,,,,,,,,,SPECI,3.0
KOTH 231923Z AUTO 14010KT 3/4SM -SN BR 00/00 A2963 RMK AO2 SNB00 FZRANO RVRNO,KOTH,2023-02-23T19:23:00Z,43.42,-124.25,0.0,0.0,140,10,,0.75,29.630905,,,TRUE,TRUE,,,,TRUE,,-SN BR,,,,,,,,,,,,,,,,,,,,,SPECI,3.0
KOTH 231914Z AUTO 15009KT 1SM -SN BR 00/00 A2963 RMK AO2 SNB00 FZRANO RVRNO,KOTH,2023-02-23T19:14:00Z,43.42,-124.25,0.0,0.0,150,9,,1.0,29.630905,,,TRUE,TRUE,,,,TRUE,,-SN BR,,,,,,,,,,,,,,,,,,,,,SPECI,3.0
KOTH 231856Z 14008KT 2SM -SN BR BKN005 OVC012 00/00 A2963 RMK AO2 VIS 1V5 CIG 003V007 SLP034 P0005 T00000000,KOTH,2023-02-23T18:56:00Z,43.42,-124.25,0.0,0.0,140,8,,2.0,29.630905,1003.4,,,TRUE,,,,,,-SN BR,BKN,500,OVC,1200,,,,,IFR,,,,,,0.05,,,,,,METAR,3.0
KOTH 231836Z 14008KT 3SM -SN BR BKN005 OVC017 00/00 A2963 RMK AO2 CIG 003V008 P0005,KOTH,2023-02-23T18:36:00Z,43.42,-124.25,0.0,0.0,140,8,,3.0,29.630905,,,,TRUE,,,,,,-SN BR,BKN,500,OVC,1700,,,,,IFR,,,,,,0.05,,,,,,METAR,3.0
KOTH 231830Z 14008KT 1 1/4SM -SN BR BKN005 OVC008 00/00 A2963 RMK AO2 CIG 003V007 P0005,KOTH,2023-02-23T18:30:00Z,43.42,-124.25,0.0,0.0,140,8,,1.25,29.630905,,,,TRUE,,,,,,-SN BR,BKN,500,OVC,800,,,,,IFR,,,,,,0.05,,,,,,METAR,3.0
KOTH 231828Z 14008KT 1SM -SN BR SCT003 OVC007 00/00 A2963 RMK AO2 P0005 RVRNO,KOTH,2023-02-23T18:28:00Z,43.42,-124.25,0.0,0.0,140,8,,1.0,29.630905,,,,TRUE,,,,,,-SN BR,SCT,300,OVC,700,,,,,IFR,,,,,,0.05,,,,,,SPECI,3.0
KOTH 231818Z 14008KT 3/4SM -SN BR OVC005 00/00 A2963 RMK AO2 CIG 003V009 P0004 RVRNO,KOTH,2023-02-23T18:18:00Z,43.42,-124.25,0.0,0.0,140,8,,0.75,29.630905,,,,TRUE,,,,,,-SN BR,OVC,500,,,,,,,LIFR,,,,,,0.04,,,,,,SPECI,3.0
KOTH 231807Z 16008KT 1SM -SN BR OVC005 00/M01 A2964 RMK AO2 CIG 003V009 P0002 RVRNO,KOTH,2023-02-23T18:07:00Z,43.42,-124.25,0.0,-1.0,160,8,,1.0,29.639763,,,,TRUE,,,,,,-SN BR,OVC,500,,,,,,,IFR,,,,,,0.02,,,,,,METAR,3.0
KOTH 231756Z 16012KT 1/2SM SN FG OVC003 00/M01 A2964 RMK AO2 SLP035 P0007 60027 T00001006 10017 21006 50003 RVRNO,KOTH,2023-02-23T17:56:00Z,43.42,-124.25,0.0,-0.6,160,12,,0.5,29.639763,1003.5,,,TRUE,,,,,,SN FG,OVC,300,,,,,,,LIFR,0.3,1.7,-0.6,,,0.07,,0.27,,,,METAR,3.0
KOTH 231743Z 15010KT 1/2SM -SN FG BKN003 OVC007 00/M01 A2963 RMK AO2 P0006 RVRNO,KOTH,2023-02-23T17:43:00Z,43.42,-124.25,0.0,-1.0,150,10,,0.5,29.630905,,,,TRUE,,,,,,-SN FG,BKN,300,OVC,700,,,,,LIFR,,,,,,0.06,,,,,,METAR,3.0
KOTH 231730Z 14007KT 3/4SM -SN BR OVC005 00/M01 A2964 RMK AO2 CIG 003V010 P0004 RVRNO,KOTH,2023-02-23T17:30:00Z,43.42,-124.25,0.0,-1.0,140,7,,0.75,29.639763,,,,TRUE,,,,,,-SN BR,OVC,500,,,,,,,LIFR,,,,,,0.04,,,,,,METAR,3.0
KOTH 231720Z 11006KT 1/2SM SN FZFG BKN007 OVC015 M01/M01 A2964 RMK AO2 CIG 004V011 P0003 RVRNO,KOTH,2023-02-23T17:20:00Z,43.42,-124.25,-1.0,-1.0,110,6,,0.5,29.639763,,,,TRUE,,,,,,SN FZFG,BKN,700,OVC,1500,,,,,LIFR,,,,,,0.03,,,,,,SPECI,3.0
KOTH 231712Z 12008KT 3/4SM -SN BR BKN005 BKN013 OVC019 M01/M01 A2964 RMK AO2 P0001 RVRNO,KOTH,2023-02-23T17:12:00Z,43.42,-124.25,-1.0,-1.0,120,8,,0.75,29.639763,,,,TRUE,,,,,,-SN BR,BKN,500,BKN,1300,OVC,1900,,,LIFR,,,,,,0.01,,,,,,SPECI,3.0
KOTH 231708Z 14008KT 1SM -SN BR SCT005 BKN013 OVC026 00/M01 A2964 RMK AO2 P0000 RVRNO,KOTH,2023-02-23T17:08:00Z,43.42,-124.25,0.0,-1.0,140,8,,1.0,29.639763,,,,TRUE,,,,,,-SN BR,SCT,500,BKN,1300,OVC,2600,,,IFR,,,,,,0.005,,,,,,SPECI,3.0
KOTH 231703Z 16010KT 1 1/2SM -SN BR FEW007 BKN018 OVC032 00/M01 A2964 RMK AO2 P0000,KOTH,2023-02-23T17:03:00Z,43.42,-124.25,0.0,-1.0,160,10,,1.5,29.639763,,,,TRUE,,,,,,-SN BR,FEW,700,BKN,1800,OVC,3200,,,IFR,,,,,,0.005,,,,,,METAR,3.0
KOTH 231700Z 17011KT 2SM -SN BR SCT012 BKN018 OVC032 00/M01 A2964 RMK AO2 P0000,KOTH,2023-02-23T17:00:00Z,43.42,-124.25,0.0,-1.0,170,11,,2.0,29.639763,,,,TRUE,,,,,,-SN BR,SCT,1200,BKN,1800,OVC,3200,,,IFR,,,,,,0.005,,,,,,METAR,3.0
KOTH 231656Z 17010KT 1 3/4SM -SN BR BKN012 BKN018 OVC034 00/M01 A2964 RMK AO2 UPB16E39SNB39 SLP036 P0001 T00001011,KOTH,2023-02-23T16:56:00Z,43.42,-124.25,0.0,-1.1,170,10,,1.75,29.639763,1003.6,,,TRUE,,,,,,-SN BR,BKN,1200,BKN,1800,OVC,3400,,,IFR,,,,,,0.01,,,,,,SPECI,3.0
KOTH 231645Z 18011KT 1 3/4SM -SN BR FEW012 BKN018 OVC050 00/M01 A2964 RMK AO2 VIS 1V3 UPB16E39SNB39 P0000,KOTH,2023-02-23T16:45:00Z,43.42,-124.25,0.0,-1.0,180,11,,1.75,29.639763,,,,TRUE,,,,,,-SN BR,FEW,1200,BKN,1800,OVC,5000,,,IFR,,,,,,0.005,,,,,,SPECI,3.0
KOTH 231556Z 15013KT 10SM SCT070 OVC100 00/M01 A2963 RMK AO2 UPB09E38 SLP031 P0000 T00001006 FZRANO,KOTH,2023-02-23T15:56:00Z,43.42,-124.25,0.0,-0.6,150,13,,10.0,29.630905,1003.1,,,TRUE,,,,TRUE,,,SCT,7000,OVC,10000,,,,,VFR,,,,,,0.005,,,,,,SPECI,3.0
KOTH 231528Z 15009KT 10SM UP FEW007 BKN060 OVC090 00/M01 A2963 RMK AO2 UPB09 P0000 FZRANO,KOTH,2023-02-23T15:28:00Z,43.42,-124.25,0.0,-1.0,150,9,,10.0,29.630905,,,,TRUE,,,,TRUE,,UP,FEW,700,BKN,6000,OVC,9000,,,VFR,,,,,,0.005,,,,,,SPECI,3.0
KOTH 231456Z 15009KT 10SM FEW065 BKN100 00/M01 A2963 RMK AO2 UPB10E16SNE10 SLP031 P0013 60019 T00001006 58002 FZRANO,KOTH,2023-02-23T14:56:00Z,43.42,-124.25,0.0,-0.6,150,9,,10.0,29.630905,1003.1,,,TRUE,,,,TRUE,,,FEW,6500,BKN,10000,,,,,VFR,-0.2,,,,,0.13,0.19,,,,,METAR,3.0
KOTH 231422Z AUTO 15006KT 10SM SCT025 BKN035 BKN055 00/M01 A2964 RMK AO2 UPB10E16SNE10 P0009 FZRANO,KOTH,2023-02-23T14:22:00Z,43.42,-124.25,0.0,-1.0,150,6,,10.0,29.639763,,,TRUE,TRUE,,,,TRUE,,,SCT,2500,BKN,3500,BKN,5500,,,VFR,,,,,,0.09,,,,,,SPECI,3.0
KOTH 231404Z AUTO 15008KT 6SM -SN BR FEW007 BKN028 OVC050 00/M01 A2963 RMK AO2 P0004 FZRANO,KOTH,2023-02-23T14:04:00Z,43.42,-124.25,0.0,-1.0,150,8,,6.0,29.630905,,,TRUE,TRUE,,,,TRUE,,-SN BR,FEW,700,BKN,2800,OVC,5000,,,MVFR,,,,,,0.04,,,,,,SPECI,3.0
KOTH 231356Z AUTO 17004KT 2 1/2SM -SN BR FEW007 BKN029 OVC038 01/M01 A2964 RMK AO2 UPB43E47SNE08B47 SLP035 P0003 T00061006 FZRANO,KOTH,2023-02-23T13:56:00Z,43.42,-124.25,0.6,-0.6,170,4,,2.5,29.639763,1003.5,,TRUE,TRUE,,,,TRUE,,-SN BR,FEW,700,BKN,2900,OVC,3800,,,IFR,,,,,,0.03,,,,,,METAR,3.0
KOTH 231349Z AUTO 36003KT 6SM -SN BR FEW007 BKN027 OVC045 00/M01 A2963 RMK AO2 UPB43E47SNE08B47 P0003 FZRANO,KOTH,2023-02-23T13:49:00Z,43.42,-124.25,0.0,-1.0,360,3,,6.0,29.630905,,,TRUE,TRUE,,,,TRUE,,-SN BR,FEW,700,BKN,2700,OVC,4500,,,MVFR,,,,,,0.03,,,,,,SPECI,3.0
KOTH 231310Z AUTO 15007KT 9SM SCT015 BKN038 OVC055 01/M01 A2963 RMK AO2 SNE08 P0003 FZRANO,KOTH,2023-02-23T13:10:00Z,43.42,-124.25,1.0,-1.0,150,7,,9.0,29.630905,,,TRUE,TRUE,,,,TRUE,,,SCT,1500,BKN,3800,OVC,5500,,,VFR,,,,,,0.03,,,,,,SPECI,3.0
KOTH 231303Z AUTO 16006KT 7SM -SN FEW008 BKN027 OVC040 01/M01 A2964 RMK AO2 P0002 FZRANO,KOTH,2023-02-23T13:03:00Z,43.42,-124.25,1.0,-1.0,160,6,,7.0,29.639763,,,TRUE,TRUE,,,,TRUE,,-SN,FEW,800,BKN,2700,OVC,4000,,,MVFR,,,,,,0.02,,,,,,SPECI,3.0
KOTH 231256Z AUTO 16008KT 2 1/2SM -SN BR FEW008 BKN027 OVC065 01/M01 A2964 RMK AO2 PK WND 28028/1208 WSHFT 1143 VIS 1 1/2V5 UPB03E04RAB04E43SNE03B16E25B43 SLP035 P0003 T00061011 FZRANO,KOTH,2023-02-23T12:56:00Z,43.42,-124.25,0.6,-1.1,160,8,,2.5,29.639763,1003.5,,TRUE,TRUE,,,,TRUE,,-SN BR,FEW,800,BKN,2700,OVC,6500,,,IFR,,,,,,0.03,,,,,,METAR,3.0
KOTH 231252Z AUTO 19007KT 2 1/2SM -SN FEW013 BKN021 OVC060 01/M02 A2964 RMK AO2 PK WND 28028/1208 WSHFT 1143 VIS 1 1/2V4 UPB03E04RAB04E43SNE03B16E25B43 P0001 FZRANO,KOTH,2023-02-23T12:52:00Z,43.42,-124.25,1.0,-2.0,190,7,,2.5,29.639763,,,TRUE,TRUE,,,,TRUE,,-SN,FEW,1300,BKN,2100,OVC,6000,,,IFR,,,,,,0.01,,,,,,METAR,3.0
KOTH 231225Z AUTO 21005KT 9SM -RA FEW016 BKN037 OVC060 01/M02 A2962 RMK AO2 PK WND 28028/1208 WSHFT 1143 UPB03E04RAB04SNE03B16E25 P0001 FZRANO,KOTH,2023-02-23T12:25:00Z,43.42,-124.25,1.0,-2.0,210,5,,9.0,29.619095,,,TRUE,TRUE,,,,TRUE,,-RA,FEW,1600,BKN,3700,OVC,6000,,,VFR,,,,,,0.01,,,,,,METAR,3.0
KOTH 231203Z AUTO 27022G28KT 9SM UP FEW010 BKN018 OVC036 02/M01 A2963 RMK AO2 PK WND 26028/1159 WSHFT 1143 UPB03SNE03 P0001 FZRANO,KOTH,2023-02-23T12:03:00Z,43.42,-124.25,2.0,-1.0,270,22,28,9.0,29.630905,,,TRUE,TRUE,,,,TRUE,,UP,FEW,1000,BKN,1800,OVC,3600,,,MVFR,,,,,,0.01,,,,,,SPECI,3.0
KOTH 231156Z AUTO 26019G23KT 4SM -SN BR SCT012 BKN018 OVC041 01/M01 A2963 RMK AO2 WSHFT 1139 RAB03E43SNE19B43 SLP033 P0005 60006 70026 T00111006 10039 20006 58005 FZRANO,KOTH,2023-02-23T11:56:00Z,43.42,-124.25,1.1,-0.6,260,19,23,4.0,29.630905,1003.3,,TRUE,TRUE,,,,TRUE,,-SN BR,SCT,1200,BKN,1800,OVC,4100,,,MVFR,-0.5,3.9,0.6,,,0.05,,0.06,0.26,,,METAR,3.0
KOTH 231153Z AUTO 25013KT 3SM -SN BR SCT012 BKN018 OVC043 01/00 A2963 RMK AO2 WSHFT 1139 RAB03E43SNE19B43 P0004 FZRANO,KOTH,2023-02-23T11:53:00Z,43.42,-124.25,1.0,0.0,250,13,,3.0,29.630905,,,TRUE,TRUE,,,,TRUE,,-SN BR,SCT,1200,BKN,1800,OVC,4300,,,MVFR,,,,,,0.04,,,,,,METAR,3.0
KOTH 231144Z AUTO 27018G21KT 5SM -SN BR FEW009 BKN018 OVC048 01/00 A2964 RMK AO2 RAB03E43SNE19B43 P0002 FZRANO,KOTH,2023-02-23T11:44:00Z,43.42,-124.25,1.0,0.0,270,18,21,5.0,29.639763,,,TRUE,TRUE,,,,TRUE,,-SN BR,FEW,900,BKN,1800,OVC,4800,,,MVFR,,,,,,0.02,,,,,,SPECI,3.0
KOTH 231130Z AUTO 16008KT 10SM -RA SCT017 BKN045 OVC050 01/M01 A2963 RMK AO2 RAB03SNE19 P0002 FZRANO,KOTH,2023-02-23T11:30:00Z,43.42,-124.25,1.0,-1.0,160,8,,10.0,29.630905,,,TRUE,TRUE,,,,TRUE,,-RA,SCT,1700,BKN,4500,OVC,5000,,,VFR,,,,,,0.02,,,,,,SPECI,3.0
KOTH 231109Z AUTO 17010KT 7SM -SN BKN015 OVC034 01/M01 A2964 RMK AO2 RAB03E07 P0001 FZRANO,KOTH,2023-02-23T11:09:00Z,43.42,-124.25,1.0,-1.0,170,10,,7.0,29.639763,,,TRUE,TRUE,,,,TRUE,,-SN,BKN,1500,OVC,3400,,,,,MVFR,,,,,,0.01,,,,,,SPECI,3.0
KOTH 231056Z AUTO 16010KT 7SM -SN FEW019 BKN035 OVC070 01/M01 A2964 RMK AO2 PK WND 30027/1003 RAB01E06B42E44UPB19E21SNB06E19B44 SLP037 P0001 T00111011 FZRANO,KOTH,2023-02-23T10:56:00Z,43.42,-124.25,1.1,-1.1,160,10,,7.0,29.639763,1003.7,,TRUE,TRUE,,,,TRUE,,-SN,FEW,1900,BKN,3500,OVC,7000,,,VFR,,,,,,0.01,,,,,,SPECI,3.0
KOTH 231019Z AUTO 00000KT 9SM UP FEW006 SCT060 BKN075 02/M03 A2964 RMK AO2 PK WND 30027/1003 RAB01E06UPB19SNB06E19 P0000 FZRANO,KOTH,2023-02-23T10:19:00Z,43.42,-124.25,2.0,-3.0,0,0,,9.0,29.639763,,,TRUE,TRUE,,,,TRUE,,UP,FEW,600,SCT,6000,BKN,7500,,,VFR,,,,,,0.005,,,,,,SPECI,3.0
KOTH 231007Z AUTO 31008G27KT 6SM -SN FEW006 BKN029 BKN043 02/M02 A2965 RMK AO2 PK WND 30027/1003 RAB01E06SNB06 CIG 021V036 P0000 FZRANO,KOTH,2023-02-23T10:07:00Z,43.42,-124.25,2.0,-2.0,310,8,27,6.0,29.648623,,,TRUE,TRUE,,,,TRUE,,-SN,FEW,600,BKN,2900,BKN,4300,,,MVFR,,,,,,0.005,,,,,,SPECI,3.0
KOTH 230956Z AUTO 30015G21KT 10SM SCT030 BKN045 OVC085 03/M02 A2965 RMK AO2 RAB41E56 SLP039 P0000 T00281022,KOTH,2023-02-23T09:56:00Z,43.42,-124.25,2.8,-2.2,300,15,21,10.0,29.648623,1003.9,,TRUE,TRUE,,,,,,,SCT,3000,BKN,4500,OVC,8500,,,VFR,,,,,,0.005,,,,,,METAR,3.0
KOTH 230856Z AUTO 29013KT 10SM FEW037 BKN060 BKN095 03/M02 A2965 RMK AO2 WSHFT 0828 RAE13UPB26E30SNB13E26 SLP038 P0000 60000 T00281022 56005,KOTH,2023-02-23T08:56:00Z,43.42,-124.25,2.8,-2.2,290,13,,10.0,29.648623,1003.8,,TRUE,TRUE,,,,,,,FEW,3700,BKN,6000,BKN,9500,,,VFR,-0.5,,,,,0.005,0.005,,,,,METAR,3.0
KOTH 230848Z AUTO 29014KT 10SM FEW037 SCT045 BKN095 03/M02 A2965 RMK AO2 WSHFT 0828 RAE13UPB26E30SNB13E26 P0000,KOTH,2023-02-23T08:48:00Z,43.42,-124.25,3.0,-2.0,290,14,,10.0,29.648623,,,TRUE,TRUE,,,,,,,FEW,3700,SCT,4500,BKN,9500,,,VFR,,,,,,0.005,,,,,,SPECI,3.0
KOTH 230756Z AUTO 28016G24KT 10SM -RA FEW031 SCT045 OVC060 03/M01 A2965 RMK AO2 RAE06B48 SLP039 P0000 T00281011 400560006,KOTH,2023-02-23T07:56:00Z,43.42,-124.25,2.8,-1.1,280,16,24,10.0,29.648623,1003.9,,TRUE,TRUE,,,,,,-RA,FEW,3100,SCT,4500,OVC,6000,,,VFR,,,,5.6,0.6,0.005,,,,,,METAR,3.0
KOTH 230656Z AUTO 31010KT 10SM -RA BKN040 BKN080 03/M02 A2965 RMK AO2 RAB45 SLP040 P0000 T00331017,KOTH,2023-02-23T06:56:00Z,43.42,-124.25,3.3,-1.7,310,10,,10.0,29.648623,1004.0,,TRUE,TRUE,,,,,,-RA,BKN,4000,BKN,8000,,,,,VFR,,,,,,0.005,,,,,,METAR,3.0
KOTH 230556Z AUTO 29009KT 10SM BKN036 BKN048 03/M02 A2966 RMK AO2 SLP043 60015 T00331017 10044 20006 58001,KOTH,2023-02-23T05:56:00Z,43.42,-124.25,3.3,-1.7,290,9,,10.0,29.660433,1004.3,,TRUE,TRUE,,,,,,,BKN,3600,BKN,4800,,,,,VFR,-0.1,4.4,0.6,,,,,0.15,,,,METAR,3.0
KOTH 230456Z AUTO 18004KT 10SM BKN036 BKN043 OVC060 02/01 A2967 RMK AO2 RAB13E21SNE13 SLP046 P0002 T00170006 FZRANO,KOTH,2023-02-23T04:56:00Z,43.42,-124.25,1.7,0.6,180,4,,10.0,29.66929,1004.6,,TRUE,TRUE,,,,TRUE,,,BKN,3600,BKN,4300,OVC,6000,,,VFR,,,,,,0.02,,,,,,METAR,3.0
KOTH 230433Z 11004KT 10SM FEW027 SCT033 OVC060 01/00 A2966 RMK AO2 RAB13E21SNE13 P0002,KOTH,2023-02-23T04:33:00Z,43.42,-124.25,1.0,0.0,110,4,,10.0,29.660433,,,,TRUE,,,,,,,FEW,2700,SCT,3300,OVC,6000,,,VFR,,,,,,0.02,,,,,,SPECI,3.0
KOTH 230409Z 00000KT 9SM -SN SCT009 BKN017 OVC028 01/01 A2966 RMK AO2 P0001,KOTH,2023-02-23T04:09:00Z,43.42,-124.25,1.0,1.0,0,0,,9.0,29.660433,,,,TRUE,,,,,,-SN,SCT,900,BKN,1700,OVC,2800,,,MVFR,,,,,,0.01,,,,,,METAR,3.0
KOTH 230359Z 15009G14KT 3SM -SN BR BKN011 OVC017 01/00 A2966 RMK AO2 P0001,KOTH,2023-02-23T03:59:00Z,43.42,-124.25,1.0,0.0,150,9,14,3.0,29.660433,,,,TRUE,,,,,,-SN BR,BKN,1100,OVC,1700,,,,,MVFR,,,,,,0.01,,,,,,SPECI,3.0
KOTH 230356Z 14006KT 2SM -SN BR BKN009 OVC017 01/00 A2966 RMK AO2 PK WND 28026/0259 VIS 1 1/2V4 RAE07SNB07 CIG 006V013 SLP044 P0012 T00060000,KOTH,2023-02-23T03:56:00Z,43.42,-124.25,0.6,0.0,140,6,,2.0,29.660433,1004.4,,,TRUE,,,,,,-SN BR,BKN,900,OVC,1700,,,,,IFR,,,,,,0.12,,,,,,METAR,3.0
KOTH 230350Z 12003KT 1 1/2SM -SN BR BKN009 OVC014 01/00 A2967 RMK AO2 PK WND 28026/0259 RAE07SNB07 CIG 006V011 P0010,KOTH,2023-02-23T03:50:00Z,43.42,-124.25,1.0,0.0,120,3,,1.5,29.66929,,,,TRUE,,,,,,-SN BR,BKN,900,OVC,1400,,,,,IFR,,,,,,0.1,,,,,,SPECI,3.0
KOTH 230345Z 00000KT 2SM -SN BR OVC011 01/00 A2967 RMK AO2 PK WND 28026/0259 VIS 1 1/4V5 RAE07SNB07 P0008,KOTH,2023-02-23T03:45:00Z,43.42,-124.25,1.0,0.0,0,0,,2.0,29.66929,,,,TRUE,,,,,,-SN BR,OVC,1100,,,,,,,IFR,,,,,,0.08,,,,,,SPECI,3.0
KOTH 230339Z 00000KT 3SM -SN BR BKN009 OVC015 01/00 A2967 RMK AO2 PK WND 28026/0259 RAE07SNB07 CIG 006V012 P0007,KOTH,2023-02-23T03:39:00Z,43.42,-124.25,1.0,0.0,0,0,,3.0,29.66929,,,,TRUE,,,,,,-SN BR,BKN,900,OVC,1500,,,,,IFR,,,,,,0.07,,,,,,SPECI,3.0
KOTH 230324Z 34004KT 5SM -SN BR BKN012 OVC018 02/01 A2967 RMK AO2 PK WND 28026/0259 RAE07SNB07 P0005,KOTH,2023-02-23T03:24:00Z,43.42,-124.25,2.0,1.0,340,4,,5.0,29.66929,,,,TRUE,,,,,,-SN BR,BKN,1200,OVC,1800,,,,,MVFR,,,,,,0.05,,,,,,SPECI,3.0
KOTH 230316Z 34005KT 2 1/2SM -SN BR BKN012 OVC018 01/01 A2967 RMK AO2 PK WND 28026/0259 RAE07SNB07 P0004,KOTH,2023-02-23T03:16:00Z,43.42,-124.25,1.0,1.0,340,5,,2.5,29.66929,,,,TRUE,,,,,,-SN BR,BKN,1200,OVC,1800,,,,,IFR,,,,,,0.04,,,,,,SPECI,3.0
KOTH 230305Z 30012G26KT 3SM RA BR BKN012 BKN018 OVC035 02/01 A2967 RMK AO2 PK WND 28026/0259 P0002,KOTH,2023-02-23T03:05:00Z,43.42,-124.25,2.0,1.0,300,12,26,3.0,29.66929,,,,TRUE,,,,,,RA BR,BKN,1200,BKN,1800,OVC,3500,,,MVFR,,,,,,0.02,,,,,,SPECI,3.0
KOTH 230256Z 28018G23KT 6SM -RA BR SCT014 BKN028 OVC037 02/01 A2966 RMK AO2 RAB27 SLP044 P0001 60001 T00220006 56005,KOTH,2023-02-23T02:56:00Z,43.42,-124.25,2.2,0.6,280,18,23,6.0,29.660433,1004.4,,,TRUE,,,,,,-RA BR,SCT,1400,BKN,2800,OVC,3700,,,MVFR,-0.5,,,,,0.01,0.01,,,,,METAR,3.0
KOTH 230156Z 29018KT 10SM SCT025 BKN060 OVC090 04/00 A2966 RMK AO2 SLP045 T00440000,KOTH,2023-02-23T01:56:00Z,43.42,-124.25,4.4,0.0,290,18,,10.0,29.660433,1004.5,,,TRUE,,,,,,,SCT,2500,BKN,6000,OVC,9000,,,VFR,,,,,,,,,,,,SPECI,3.0
KOTH 230056Z 28019G23KT 10SM SCT020 BKN060 OVC090 04/01 A2967 RMK AO2 RAE20 SLP047 P0000 T00390006,KOTH,2023-02-23T00:56:00Z,43.42,-124.25,3.9,0.6,280,19,23,10.0,29.66929,1004.7,,,TRUE,,,,,,,SCT,2000,BKN,6000,OVC,9000,,,VFR,,,,,,0.005,,,,,,SPECI,3.0
KOTH 230037Z 29016G21KT 10SM FEW022 SCT055 OVC090 04/00 A2967 RMK AO2 RAE20 P0000,KOTH,2023-02-23T00:37:00Z,43.42,-124.25,4.0,0.0,290,16,21,10.0,29.66929,,,,TRUE,,,,,,,FEW,2200,SCT,5500,OVC,9000,,,VFR,,,,,,0.005,,,,,,SPECI,3.0
KOTH 222356Z 30014KT 8SM -RA SCT017 BKN024 OVC050 03/00 A2968 RMK AO2 PK WND 29026/2310 RAB08E20B49 SLP049 P0000 60001 T00330000 10056 20028 57001,KOTH,2023-02-22T23:56:00Z,43.42,-124.25,3.3,0.0,300,14,,8.0,29.681103,1004.9,,,TRUE,,,,,,-RA,SCT,1700,BKN,2400,OVC,5000,,,MVFR,-0.1,5.6,2.8,,,0.005,,0.01,,,,METAR,3.0
KOTH 222256Z 30016G24KT 10SM FEW017 SCT049 BKN075 04/01 A2968 RMK AO2 SLP049 T00440011,KOTH,2023-02-22T22:56:00Z,43.42,-124.25,4.4,1.1,300,16,24,10.0,29.681103,1004.9,,,TRUE,,,,,,,FEW,1700,SCT,4900,BKN,7500,,,VFR,,,,,,,,,,,,METAR,3.0
KOTH 222232Z 31018KT 10SM SCT021 BKN041 BKN048 05/01 A2968 RMK AO2,KOTH,2023-02-22T22:32:00Z,43.42,-124.25,5.0,1.0,310,18,,10.0,29.681103,,,,TRUE,,,,,,,SCT,2100,BKN,4100,BKN,4800,,,VFR,,,,,,,,,,,,SPECI,3.0
KOTH 222156Z 29018KT 10SM SCT021 BKN028 OVC039 06/02 A2968 RMK AO2 RAE39 SLP049 P0000 T00560022,KOTH,2023-02-22T21:56:00Z,43.42,-124.25,5.6,2.2,290,18,,10.0,29.681103,1004.9,,,TRUE,,,,,,,SCT,2100,BKN,2800,OVC,3900,,,MVFR,,,,,,0.005,,,,,,METAR,3.0
KOTH 222140Z 29021KT 10SM FEW023 BKN030 OVC038 05/01 A2968 RMK AO2 RAE39 P0000,KOTH,2023-02-22T21:40:00Z,43.42,-124.25,5.0,1.0,290,21,,10.0,29.681103,,,,TRUE,,,,,,,FEW,2300,BKN,3000,OVC,3800,,,MVFR,,,,,,0.005,,,,,,METAR,3.0
KOTH 222128Z 29010KT 8SM -RA SCT020 BKN027 OVC038 04/01 A2968 RMK AO2 P0000,KOTH,2023-02-22T21:28:00Z,43.42,-124.25,4.0,1.0,290,10,,8.0,29.681103,,,,TRUE,,,,,,-RA,SCT,2000,BKN,2700,OVC,3800,,,MVFR,,,,,,0.005,,,,,,SPECI,3.0
KOTH 222121Z 28013KT 10SM -RA FEW019 BKN031 OVC039 04/02 A2968 RMK AO2 P0000,KOTH,2023-02-22T21:21:00Z,43.42,-124.25,4.0,2.0,280,13,,10.0,29.681103,,,,TRUE,,,,,,-RA,FEW,1900,BKN,3100,OVC,3900,,,VFR,,,,,,0.005,,,,,,SPECI,3.0
KOTH 222114Z 31008G17KT 8SM -RA FEW021 BKN029 OVC047 04/01 A2968 RMK AO2 P0000,KOTH,2023-02-22T21:14:00Z,43.42,-124.25,4.0,1.0,310,8,17,8.0,29.681103,,,,TRUE,,,,,,-RA,FEW,2100,BKN,2900,OVC,4700,,,MVFR,,,,,,0.005,,,,,,SPECI,3.0
KOTH 222056Z 32015KT 9SM -RA FEW023 BKN041 OVC090 04/01 A2969 RMK AO2 SLP053 P0000 60001 T00390011 58000,KOTH,2023-02-22T20:56:00Z,43.42,-124.25,3.9,1.1,320,15,,9.0,29.68996,1005.3,,,TRUE,,,,,,-RA,FEW,2300,BKN,4100,OVC,9000,,,VFR,0.0,,,,,0.005,0.01,,,,,METAR,3.0
KOTH 222024Z 33009KT 10SM -RA FEW014 BKN043 OVC065 03/01 A2969 RMK AO2 P0000,KOTH,2023-02-22T20:24:00Z,43.42,-124.25,3.0,1.0,330,9,,10.0,29.68996,,,,TRUE,,,,,,-RA,FEW,1400,BKN,4300,OVC,6500,,,VFR,,,,,,0.005,,,,,,SPECI,3.0
KOTH 222014Z 31017G21KT 10SM SCT012 BKN021 OVC065 03/02 A2970 RMK AO2 RAE06 P0000,KOTH,2023-02-22T20:14:00Z,43.42,-124.25,3.0,2.0,310,17,21,10.0,29.698818,,,,TRUE,,,,,,,SCT,1200,BKN,2100,OVC,6500,,,MVFR,,,,,,0.005,,,,,,METAR,3.0
KOTH 221956Z 27013KT 7SM -RA FEW007 SCT012 OVC048 03/01 A2970 RMK AO2 RAE03B48 SLP057 P0001 T00280011,KOTH,2023-02-22T19:56:00Z,43.42,-124.25,2.8,1.1,270,13,,7.0,29.698818,1005.7,,,TRUE,,,,,,-RA,FEW,700,SCT,1200,OVC,4800,,,VFR,,,,,,0.01,,,,,,METAR,3.0
KOTH 221856Z 33011G19KT 10SM -RA SCT030 BKN060 OVC090 05/01 A2969 RMK AO2 RAB50 SLP054 P0000 T00500006,KOTH,2023-02-22T18:56:00Z,43.42,-124.25,5.0,0.6,330,11,19,10.0,29.68996,1005.4,,,TRUE,,,,,,-RA,SCT,3000,BKN,6000,OVC,9000,,,VFR,,,,,,0.005,,,,,,METAR,3.0
KOTH 221756Z 13008KT 10SM BKN040 OVC050 04/02 A2969 RMK AO2 UPB1659E12 SLP054 P0000 60004 T00390022 10050 20017 51005,KOTH,2023-02-22T17:56:00Z,43.42,-124.25,3.9,2.2,130,8,,10.0,29.68996,1005.4,,,TRUE,,,,,,,BKN,4000,OVC,5000,,,,,VFR,0.5,5.0,1.7,,,0.005,,0.04,,,,METAR,3.0
KOTH 221656Z 13007KT 10SM BKN035 OVC047 03/02 A2969 RMK AO2 SLP052 T00280022,KOTH,2023-02-22T16:56:00Z,43.42,-124.25,2.8,2.2,130,7,,10.0,29.68996,1005.2,,,TRUE,,,,,,,BKN,3500,OVC,4700,,,,,VFR,,,,,,,,,,,,METAR,3.0
KOTH 221556Z 17004KT 10SM SCT024 BKN030 BKN055 02/01 A2969 RMK AO2 RAE47 SLP053 P0000 T00170006,KOTH,2023-02-22T15:56:00Z,43.42,-124.25,1.7,0.6,170,4,,10.0,29.68996,1005.3,,,TRUE,,,,,,,SCT,2400,BKN,3000,BKN,5500,,,MVFR,,,,,,0.005,,,,,,METAR,3.0
KOTH 221544Z 00000KT 10SM -RA FEW022 BKN030 BKN038 03/01 A2969 RMK AO2 P0000,KOTH,2023-02-22T15:44:00Z,43.42,-124.25,3.0,1.0,0,0,,10.0,29.68996,,,,TRUE,,,,,,-RA,FEW,2200,BKN,3000,BKN,3800,,,MVFR,,,,,,0.005,,,,,,SPECI,3.0
KOTH 221504Z 07006KT 9SM -RA BKN026 BKN034 OVC046 03/01 A2968 RMK AO2 P0000,KOTH,2023-02-22T15:04:00Z,43.42,-124.25,3.0,1.0,70,6,,9.0,29.681103,,,,TRUE,,,,,,-RA,BKN,2600,BKN,3400,OVC,4600,,,MVFR,,,,,,0.005,,,,,,SPECI,3.0
KOTH 221456Z 35005G14KT 9SM -RA FEW017 SCT026 OVC034 03/00 A2968 RMK AO2 RAB06SNB34E44 SLP048 P0004 60004 T00330000 56005,KOTH,2023-02-22T14:56:00Z,43.42,-124.25,3.3,0.0,350,5,14,9.0,29.681103,1004.8,,,TRUE,,,,,,-RA,FEW,1700,SCT,2600,OVC,3400,,,VFR,-0.5,,,,,0.04,,,,,,SPECI,3.0
KOTH 221447Z AUTO 28008KT 9SM -RA FEW015 BKN037 OVC047 03/01 A2968 RMK AO2 RAB06SNB34E44 P0003,KOTH,2023-02-22T14:47:00Z,43.42,-124.25,3.0,1.0,280,8,,9.0,29.681103,,,TRUE,TRUE,,,,,,-RA,FEW,1500,BKN,3700,OVC,4700,,,VFR,,,,,,0.03,,,,,,METAR,3.0
KOTH 221438Z AUTO 30007KT 6SM -SN BR FEW016 BKN024 OVC047 02/01 A2968 RMK AO2 RAB06E34SNB34 P0003 FZRANO,KOTH,2023-02-22T14:38:00Z,43.42,-124.25,2.0,1.0,300,7,,6.0,29.681103,,,TRUE,TRUE,,,,TRUE,,-SN BR,FEW,1600,BKN,2400,OVC,4700,,,MVFR,,,,,,0.03,,,,,,SPECI,3.0
KOTH 221356Z AUTO 32020G26KT 10SM SCT041 BKN050 BKN070 05/M01 A2968 RMK AO2 PK WND 31026/1354 WSHFT 1319 RAE39 SLP050 P0000 T00501006,KOTH,2023-02-22T13:56:00Z,43.42,-124.25,5.0,-0.6,320,20,26,10.0,29.681103,1005.0,,TRUE,TRUE,,,,,,,SCT,4100,BKN,5000,BKN,7000,,,VFR,,,,,,0.005,,,,,,METAR,3.0
KOTH 221339Z AUTO 29016KT 10SM FEW022 SCT038 BKN046 04/00 A2968 RMK AO2 WSHFT 1319 RAE39 P0000,KOTH,2023-02-22T13:39:00Z,43.42,-124.25,4.0,0.0,290,16,,10.0,29.681103,,,TRUE,TRUE,,,,,,,FEW,2200,SCT,3800,BKN,4600,,,VFR,,,,,,0.005,,,,,,SPECI,3.0
KOTH 221256Z AUTO 11007KT 10SM -RA SCT032 SCT046 OVC060 03/01 A2969 RMK AO2 RAE04B21 SLP051 P0000 T00330011,KOTH,2023-02-22T12:56:00Z,43.42,-124.25,3.3,1.1,110,7,,10.0,29.68996,1005.1,,TRUE,TRUE,,,,,,-RA,SCT,3200,SCT,4600,OVC,6000,,,VFR,,,,,,0.005,,,,,,METAR,3.0
KOTH 221156Z AUTO 30004KT 10SM -RA FEW015 BKN031 OVC060 03/01 A2969 RMK AO2 PK WND 33026/1123 RAE00B25 SLP054 P0000 60004 70024 T00280011 10061 20028 56014,KOTH,2023-02-22T11:56:00Z,43.42,-124.25,2.8,1.1,300,4,,10.0,29.68996,1005.4,,TRUE,TRUE,,,,,,-RA,FEW,1500,BKN,3100,OVC,6000,,,VFR,-1.4,6.1,2.8,,,0.005,,0.04,0.24,,,METAR,3.0
KOTH 221056Z AUTO 35015G22KT 10SM -RA SCT021 BKN042 OVC075 04/01 A2970 RMK AO2 PK WND 31034/1035 RAB01E12B37 SLP056 P0003 T00390011,KOTH,2023-02-22T10:56:00Z,43.42,-124.25,3.9,1.1,350,15,22,10.0,29.698818,1005.6,,TRUE,TRUE,,,,,,-RA,SCT,2100,BKN,4200,OVC,7500,,,VFR,,,,,,0.03,,,,,,METAR,3.0
KOTH 220956Z AUTO 31011G22KT 10SM FEW037 BKN080 OVC100 05/01 A2971 RMK AO2 PK WND 31029/0925 SLP061 T00500006,KOTH,2023-02-22T09:56:00Z,43.42,-124.25,5.0,0.6,310,11,22,10.0,29.71063,1006.1,,TRUE,TRUE,,,,,,,FEW,3700,BKN,8000,OVC,10000,,,VFR,,,,,,,,,,,,METAR,3.0
KOTH 220927Z AUTO 31022G29KT 10SM FEW027 SCT037 OVC070 05/01 A2973 RMK AO2 PK WND 31029/0925,KOTH,2023-02-22T09:27:00Z,43.42,-124.25,5.0,1.0,310,22,29,10.0,29.731298,,,TRUE,TRUE,,,,,,,FEW,2700,SCT,3700,OVC,7000,,,VFR,,,,,,,,,,,,SPECI,3.0
KOTH 220903Z AUTO 33017KT 10SM BKN029 BKN034 OVC045 05/01 A2973 RMK AO2,KOTH,2023-02-22T09:03:00Z,43.42,-124.25,5.0,1.0,330,17,,10.0,29.731298,,,TRUE,TRUE,,,,,,,BKN,2900,BKN,3400,OVC,4500,,,MVFR,,,,,,,,,,,,METAR,3.0
KOTH 220856Z AUTO 32010KT 10SM SCT027 BKN033 BKN045 05/01 A2973 RMK AO2 RAE12 SLP068 P0000 60001 T00500011 50000,KOTH,2023-02-22T08:56:00Z,43.42,-124.25,5.0,1.1,320,10,,10.0,29.731298,1006.8,,TRUE,TRUE,,,,,,,SCT,2700,BKN,3300,BKN,4500,,,VFR,0.0,,,,,0.005,0.01,,,,,METAR,3.0
KOTH 220756Z AUTO 33020G32KT 9SM -RA FEW022 BKN040 OVC070 04/01 A2975 RMK AO2 PK WND 32032/0751 RAE07B51 SLP072 P0000 T00440011 400940039,KOTH,2023-02-22T07:56:00Z,43.42,-124.25,4.4,1.1,330,20,32,9.0,29.749016,1007.2,,TRUE,TRUE,,,,,,-RA,FEW,2200,BKN,4000,OVC,7000,,,VFR,,,,9.4,3.9,0.005,,,,,,METAR,3.0
KOTH 220656Z AUTO 32014G21KT 10SM -RA FEW024 BKN034 OVC065 04/01 A2975 RMK AO2 PK WND 35030/0612 RAB02 SLP072 P0001 T00390011,KOTH,2023-02-22T06:56:00Z,43.42,-124.25,3.9,1.1,320,14,21,10.0,29.749016,1007.2,,TRUE,TRUE,,,,,,-RA,FEW,2400,BKN,3400,OVC,6500,,,VFR,,,,,,0.01,,,,,,METAR,3.0
KOTH 220556Z AUTO 33018G26KT 10SM SCT039 SCT055 07/00 A2973 RMK AO2 PK WND 32027/0513 LTG DSNT SE AND S RAB14E27 SLP068 P0000 60000 T00670000 10078 20056 58018,KOTH,2023-02-22T05:56:00Z,43.42,-124.25,6.7,0.0,330,18,26,10.0,29.731298,1006.8,,TRUE,TRUE,,,,,,,SCT,3900,SCT,5500,,,,,VFR,-1.8,7.8,5.6,,,0.005,,,,,,SPECI,3.0
KOTH 220456Z 33019G28KT 10SM SCT047 BKN060 OVC075 07/01 A2976 RMK AO2 PK WND 31028/0447 SLP076 T00670006,KOTH,2023-02-22T04:56:00Z,43.42,-124.25,6.7,0.6,330,19,28,10.0,29.760826,1007.6,,,TRUE,,,,,,,SCT,4700,BKN,6000,OVC,7500,,,VFR,,,,,,,,,,,,SPECI,3.0
KOTH 220356Z 32015G22KT 10SM SCT038 BKN080 07/01 A2977 RMK AO2 RAB02E14 SLP079 P0000 T00670011,KOTH,2023-02-22T03:56:00Z,43.42,-124.25,6.7,1.1,320,15,22,10.0,29.769686,1007.9,,,TRUE,,,,,,,SCT,3800,BKN,8000,,,,,VFR,,,,,,0.005,,,,,,METAR,3.0
KOTH 220320Z 31019G23KT 10SM SCT028 BKN034 OVC060 07/02 A2978 RMK AO2 RAB02E14 P0000,KOTH,2023-02-22T03:20:00Z,43.42,-124.25,7.0,2.0,310,19,23,10.0,29.778543,,,,TRUE,,,,,,,SCT,2800,BKN,3400,OVC,6000,,,VFR,,,,,,0.005,,,,,,SPECI,3.0
KOTH 220306Z 31015KT 10SM -RA BKN028 OVC060 06/02 A2978 RMK AO2 RAB02 P0000,KOTH,2023-02-22T03:06:00Z,43.42,-124.25,6.0,2.0,310,15,,10.0,29.778543,,,,TRUE,,,,,,-RA,BKN,2800,OVC,6000,,,,,MVFR,,,,,,0.005,,,,,,SPECI,3.0
KOTH 220256Z 32013G20KT 10SM SCT028 SCT041 OVC060 06/02 A2978 RMK AO2 PK WND 31028/0230 RAB03E49 SLP085 P0000 60000 T00610022 56015,KOTH,2023-02-22T02:56:00Z,43.42,-124.25,6.1,2.2,320,13,20,10.0,29.778543,1008.5,,,TRUE,,,,,,,SCT,2800,SCT,4100,OVC,6000,,,VFR,-1.5,,,,,0.005,0.005,,,,,METAR,3.0
KOTH 220156Z 30018G26KT 10SM SCT029 BKN034 BKN042 06/02 A2980 RMK AO2 PK WND 31030/0103 SLP090 T00610022,KOTH,2023-02-22T01:56:00Z,43.42,-124.25,6.1,2.2,300,18,26,10.0,29.799213,1009.0,,,TRUE,,,,,,,SCT,2900,BKN,3400,BKN,4200,,,VFR,,,,,,,,,,,,SPECI,3.0
KOTH 220056Z 32017G20KT 10SM BKN038 07/02 A2981 RMK AO2 RAE09 SLP092 P0000 T00720017,KOTH,2023-02-22T00:56:00Z,43.42,-124.25,7.2,1.7,320,17,20,10.0,29.811024,1009.2,,,TRUE,,,,,,,BKN,3800,,,,,,,VFR,,,,,,0.005,,,,,,METAR,3.0
KOTH 212356Z 32022G32KT 9SM -RA SCT035 BKN043 OVC070 07/01 A2983 RMK AO2 PK WND 30032/2348 WSHFT 2300 RAE2259B54 SLP101 P0000 60016 T00670006 10083 20039 56027,KOTH,2023-02-21T23:56:00Z,43.42,-124.25,6.7,0.6,320,22,32,9.0,29.828741,1010.1,,,TRUE,,,,,,-RA,SCT,3500,BKN,4300,OVC,7000,,,VFR,-2.7,8.3,3.9,,,0.005,,0.16,,,,METAR,3.0
KOTH 212320Z 33015G22KT 10SM BKN041 BKN055 OVC090 07/02 A2983 RMK AO2 WSHFT 2300 RAE2259 P0000,KOTH,2023-02-21T23:20:00Z,43.42,-124.25,7.0,2.0,330,15,22,10.0,29.828741,,,,TRUE,,,,,,,BKN,4100,BKN,5500,OVC,9000,,,VFR,,,,,,0.005,,,,,,SPECI,3.0
KOTH 212256Z 22003KT 10SM -RA FEW015 BKN035 OVC044 05/03 A2984 RMK AO2 RAE19B39 SLP105 P0004 T00500033,KOTH,2023-02-21T22:56:00Z,43.42,-124.25,5.0,3.3,220,3,,10.0,29.840551,1010.5,,,TRUE,,,,,,-RA,FEW,1500,BKN,3500,OVC,4400,,,VFR,,,,,,0.04,,,,,,METAR,3.0
KOTH 212215Z 35006KT 10SM -RA SCT018 BKN060 OVC080 05/03 A2986 RMK AO2 P0001,KOTH,2023-02-21T22:15:00Z,43.42,-124.25,5.0,3.0,350,6,,10.0,29.861221,,,,TRUE,,,,,,-RA,SCT,1800,BKN,6000,OVC,8000,,,VFR,,,,,,0.01,,,,,,METAR,3.0
KOTH 212156Z 34012G22KT 6SM -RA BR FEW014 BKN020 OVC026 04/03 A2988 RMK AO2 PK WND 33026/2134 SLP118 P0007 T00390028,KOTH,2023-02-21T21:56:00Z,43.42,-124.25,3.9,2.8,340,12,22,6.0,29.878937,1011.8,,,TRUE,,,,,,-RA BR,FEW,1400,BKN,2000,OVC,2600,,,MVFR,,,,,,0.07,,,,,,METAR,3.0
KOTH 212118Z 32014G24KT 8SM RA BKN019 BKN025 OVC045 05/03 A2989 RMK AO2 P0002,KOTH,2023-02-21T21:18:00Z,43.42,-124.25,5.0,3.0,320,14,24,8.0,29.890747,,,,TRUE,,,,,,RA,BKN,1900,BKN,2500,OVC,4500,,,MVFR,,,,,,0.02,,,,,,SPECI,3.0
KOTH 212109Z 32013G18KT 10SM -RA SCT021 BKN034 OVC045 05/03 A2989 RMK AO2 P0001,KOTH,2023-02-21T21:09:00Z,43.42,-124.25,5.0,3.0,320,13,18,10.0,29.890747,,,,TRUE,,,,,,-RA,SCT,2100,BKN,3400,OVC,4500,,,VFR,,,,,,0.01,,,,,,SPECI,3.0
KOTH 212056Z 33017G25KT 9SM RA BKN017 BKN029 OVC055 05/03 A2991 RMK AO2 PK WND 35027/2046 SLP128 P0004 60005 T00500028 55016,KOTH,2023-02-21T20:56:00Z,43.42,-124.25,5.0,2.8,330,17,25,9.0,29.911417,1012.8,,,TRUE,,,,,,RA,BKN,1700,BKN,2900,OVC,5500,,,MVFR,-1.6,,,,,0.04,0.05,,,,,METAR,3.0
KOTH 212023Z 35014G18KT 8SM -RA FEW017 BKN023 OVC038 06/04 A2990 RMK AO2 P0004,KOTH,2023-02-21T20:23:00Z,43.42,-124.25,6.0,4.0,350,14,18,8.0,29.899607,,,,TRUE,,,,,,-RA,FEW,1700,BKN,2300,OVC,3800,,,MVFR,,,,,,0.04,,,,,,METAR,3.0
KOTH 211956Z 35014G29KT 10SM -RA FEW023 BKN037 OVC046 07/03 A2990 RMK AO2 PK WND 35029/1947 LTG DSNT NE RAE12B28 SLP125 P0000 T00670028,KOTH,2023-02-21T19:56:00Z,43.42,-124.25,6.7,2.8,350,14,29,10.0,29.899607,1012.5,,,TRUE,,,,,,-RA,FEW,2300,BKN,3700,OVC,4600,,,VFR,,,,,,0.005,,,,,,METAR,3.0
KOTH 211945Z 35017G24KT 10SM SCT026 BKN036 OVC050 07/03 A2991 RMK AO2 PK WND 30028/1927 RAE12B28E41 P0000,KOTH,2023-02-21T19:45:00Z,43.42,-124.25,7.0,3.0,350,17,24,10.0,29.911417,,,,TRUE,,,,,,,SCT,2600,BKN,3600,OVC,5000,,,VFR,,,,,,0.005,,,,,,METAR,3.0
KOTH 211856Z 32024G29KT 4SM RA FEW021 BKN028 OVC048 06/03 A2993 RMK AO2 PK WND 32029/1855 RAB12 SLP134 P0001 T00610033,KOTH,2023-02-21T18:56:00Z,43.42,-124.25,6.1,3.3,320,24,29,4.0,29.929134,1013.4,,,TRUE,,,,,,RA,FEW,2100,BKN,2800,OVC,4800,,,MVFR,,,,,,0.01,,,,,,METAR,3.0
KOTH 211845Z 31013G24KT 10SM SCT027 SCT033 BKN047 08/04 A2992 RMK AO2 PK WND 29026/1811 RAB12E36 P0000,KOTH,2023-02-21T18:45:00Z,43.42,-124.25,8.0,4.0,310,13,24,10.0,29.920275,,,,TRUE,,,,,,,SCT,2700,SCT,3300,BKN,4700,,,VFR,,,,,,0.005,,,,,,SPECI,3.0
KOTH 211838Z 30019G24KT 10SM BKN025 BKN033 OVC049 07/03 A2993 RMK AO2 PK WND 29026/1811 RAB12E36 P0000,KOTH,2023-02-21T18:38:00Z,43.42,-124.25,7.0,3.0,300,19,24,10.0,29.929134,,,,TRUE,,,,,,,BKN,2500,BKN,3300,OVC,4900,,,MVFR,,,,,,0.005,,,,,,SPECI,3.0
KOTH 211756Z 29017KT 10SM FEW025 SCT038 BKN046 06/03 A2996 RMK AO2 PK WND 30026/1742 RAB38E56 SLP143 P0000 60004 T00610033 10083 20050 56020,KOTH,2023-02-21T17:56:00Z,43.42,-124.25,6.1,3.3,290,17,,10.0,29.958662,1014.3,,,TRUE,,,,,,,FEW,2500,SCT,3800,BKN,4600,,,VFR,-2.0,8.3,5.0,,,0.005,,0.04,,,,METAR,3.0
KOTH 211656Z 33005KT 10SM FEW029 07/04 A2998 RMK AO2 PK WND 33030/1605 RAE29 SLP151 P0001 T00670039,KOTH,2023-02-21T16:56:00Z,43.42,-124.25,6.7,3.9,330,5,,10.0,29.97933,1015.1,,,TRUE,,,,,,,FEW,2900,,,,,,,VFR,,,,,,0.01,,,,,,METAR,3.0
KOTH 211556Z 33014G27KT 10SM -RA FEW024 BKN032 OVC044 06/03 A2999 RMK AO2 PK WND 34027/1550 SLP155 P0000 T00610028,KOTH,2023-02-21T15:56:00Z,43.42,-124.25,6.1,2.8,330,14,27,10.0,29.991142,1015.5,,,TRUE,,,,,,-RA,FEW,2400,BKN,3200,OVC,4400,,,VFR,,,,,,0.005,,,,,,METAR,3.0
KOTH 211549Z 33018G24KT 10SM -RA FEW024 BKN029 OVC046 06/03 A2999 RMK AO2 P0000,KOTH,2023-02-21T15:49:00Z,43.42,-124.25,6.0,3.0,330,18,24,10.0,29.991142,,,,TRUE,,,,,,-RA,FEW,2400,BKN,2900,OVC,4600,,,MVFR,,,,,,0.005,,,,,,SPECI,3.0
KOTH 211516Z 30007KT 10SM FEW015 BKN035 OVC060 06/03 A3000 RMK AO2 RAE15 P0000,KOTH,2023-02-21T15:16:00Z,43.42,-124.25,6.0,3.0,300,7,,10.0,30.0,,,,TRUE,,,,,,,FEW,1500,BKN,3500,OVC,6000,,,VFR,,,,,,0.005,,,,,,METAR,3.0
KOTH 211456Z 31020G28KT 9SM -RA SCT019 BKN026 OVC033 06/04 A3002 RMK AO2 PK WND 32032/1444 RAE13B47 SLP163 P0001 60003 T00610044 56013,KOTH,2023-02-21T14:56:00Z,43.42,-124.25,6.1,4.4,310,20,28,9.0,30.02067,1016.3,,,TRUE,,,,,,-RA,SCT,1900,BKN,2600,OVC,3300,,,MVFR,-1.3,,,,,0.01,0.03,,,,,METAR,3.0
KOTH 211452Z 31019G32KT 9SM -RA FEW017 BKN023 OVC039 06/04 A3002 RMK AO2 PK WND 32032/1444 RAE13B47 P0001,KOTH,2023-02-21T14:52:00Z,43.42,-124.25,6.0,4.0,310,19,32,9.0,30.02067,,,,TRUE,,,,,,-RA,FEW,1700,BKN,2300,OVC,3900,,,MVFR,,,,,,0.01,,,,,,METAR,3.0
KOTH 211445Z 31026G32KT 10SM FEW017 BKN030 OVC040 07/04 A3002 RMK AO2 PK WND 32032/1444 RAE13 P0001,KOTH,2023-02-21T14:45:00Z,43.42,-124.25,7.0,4.0,310,26,32,10.0,30.02067,,,,TRUE,,,,,,,FEW,1700,BKN,3000,OVC,4000,,,MVFR,,,,,,0.01,,,,,,METAR,3.0
KOTH 211434Z 30006KT 10SM BKN025 BKN034 OVC045 07/04 A3002 RMK AO2 RAE13 P0001,KOTH,2023-02-21T14:34:00Z,43.42,-124.25,7.0,4.0,300,6,,10.0,30.02067,,,,TRUE,,,,,,,BKN,2500,BKN,3400,OVC,4500,,,MVFR,,,,,,0.01,,,,,,SPECI,3.0
KOTH 211356Z 32015G23KT 10SM -RA FEW019 SCT026 OVC035 07/04 A3005 RMK AO2 PK WND 29026/1340 SLP173 P0002 T00670039,KOTH,2023-02-21T13:56:00Z,43.42,-124.25,6.7,3.9,320,15,23,10.0,30.050198,1017.3,,,TRUE,,,,,,-RA,FEW,1900,SCT,2600,OVC,3500,,,VFR,,,,,,0.02,,,,,,METAR,3.0
KOTH 211303Z 31008KT 10SM SCT029 BKN049 OVC065 07/04 A3005 RMK AO2 RAE02 P0000,KOTH,2023-02-21T13:03:00Z,43.42,-124.25,7.0,4.0,310,8,,10.0,30.050198,,,,TRUE,,,,,,,SCT,2900,BKN,4900,OVC,6500,,,VFR,,,,,,0.005,,,,,,SPECI,3.0
KOTH 211256Z 33009KT 10SM -RA BKN029 BKN040 OVC049 07/04 A3005 RMK AO2 RAB28 SLP176 P0000 T00720044,KOTH,2023-02-21T12:56:00Z,43.42,-124.25,7.2,4.4,330,9,,10.0,30.050198,1017.6,,,TRUE,,,,,,-RA,BKN,2900,BKN,4000,OVC,4900,,,MVFR,,,,,,0.005,,,,,,METAR,3.0
KOTH 211252Z 33009KT 10SM -RA BKN029 BKN037 OVC044 07/04 A3006 RMK AO2 RAB28 P0000,KOTH,2023-02-21T12:52:00Z,43.42,-124.25,7.0,4.0,330,9,,10.0,30.059055,,,,TRUE,,,,,,-RA,BKN,2900,BKN,3700,OVC,4400,,,MVFR,,,,,,0.005,,,,,,SPECI,3.0
KOTH 211156Z 33013KT 10SM SCT024 OVC041 08/04 A3007 RMK AO2 SLP183 60010 70014 T00830044 10094 20078 58015,KOTH,2023-02-21T11:56:00Z,43.42,-124.25,8.3,4.4,330,13,,10.0,30.070866,1018.3,,,TRUE,,,,,,,SCT,2400,OVC,4100,,,,,VFR,-1.5,9.4,7.8,,,,,0.1,0.14,,,METAR,3.0
KOTH 211123Z 32012KT 10SM FEW024 OVC032 08/06 A3009 RMK AO2,KOTH,2023-02-21T11:23:00Z,43.42,-124.25,8.0,6.0,320,12,,10.0,30.088583,,,,TRUE,,,,,,,FEW,2400,OVC,3200,,,,,VFR,,,,,,,,,,,,SPECI,3.0
KOTH 211056Z 32013KT 9SM BKN022 OVC029 08/06 A3009 RMK AO2 RAE28 SLP190 P0000 T00830061,KOTH,2023-02-21T10:56:00Z,43.42,-124.25,8.3,6.1,320,13,,9.0,30.088583,1019.0,,,TRUE,,,,,,,BKN,2200,OVC,2900,,,,,MVFR,,,,,,0.005,,,,,,METAR,3.0
KOTH 211022Z 33011KT 6SM -RA BR SCT005 OVC015 08/08 A3010 RMK AO2 P0000,KOTH,2023-02-21T10:22:00Z,43.42,-124.25,8.0,8.0,330,11,,6.0,30.100393,,,,TRUE,,,,,,-RA BR,SCT,500,OVC,1500,,,,,MVFR,,,,,,0.005,,,,,,METAR,3.0
KOTH 210956Z 32012KT 4SM -RA BR OVC005 08/08 A3010 RMK AO2 CIG 004V009 SLP192 P0004 T00830078,KOTH,2023-02-21T09:56:00Z,43.42,-124.25,8.3,7.8,320,12,,4.0,30.100393,1019.2,,,TRUE,,,,,,-RA BR,OVC,500,,,,,,,IFR,,,,,,0.04,,,,,,METAR,3.0
KOTH 210950Z 33014KT 2 1/2SM -RA BR BKN005 OVC012 08/08 A3011 RMK AO2 CIG 003V009 P0004,KOTH,2023-02-21T09:50:00Z,43.42,-124.25,8.0,8.0,330,14,,2.5,30.109253,,,,TRUE,,,,,,-RA BR,BKN,500,OVC,1200,,,,,IFR,,,,,,0.04,,,,,,SPECI,3.0
KOTH 210934Z 31013G18KT 1 3/4SM -RA BR OVC003 09/09 A3011 RMK AO2 P0003,KOTH,2023-02-21T09:34:00Z,43.42,-124.25,9.0,9.0,310,13,18,1.75,30.109253,,,,TRUE,,,,,,-RA BR,OVC,300,,,,,,,LIFR,,,,,,0.03,,,,,,METAR,3.0
KOTH 210913Z 30010KT 3SM -RA BR BKN003 BKN010 OVC016 09/09 A3011 RMK AO2 P0001,KOTH,2023-02-21T09:13:00Z,43.42,-124.25,9.0,9.0,300,10,,3.0,30.109253,,,,TRUE,,,,,,-RA BR,BKN,300,BKN,1000,OVC,1600,,,LIFR,,,,,,0.01,,,,,,SPECI,3.0
KOTH 210908Z 30010KT 4SM -RA BR SCT005 BKN010 OVC016 09/09 A3011 RMK AO2 CIG 008V014 P0001,KOTH,2023-02-21T09:08:00Z,43.42,-124.25,9.0,9.0,300,10,,4.0,30.109253,,,,TRUE,,,,,,-RA BR,SCT,500,BKN,1000,OVC,1600,,,MVFR,,,,,,0.01,,,,,,SPECI,3.0
KOTH 210856Z 32014KT 2 1/2SM -RA BR SCT005 BKN010 OVC016 09/09 A3012 RMK AO2 RAB02 SLP198 P0000 60006 T00890089 58012,KOTH,2023-02-21T08:56:00Z,43.42,-124.25,8.9,8.9,320,14,,2.5,30.121063,1019.8,,,TRUE,,,,,,-RA BR,SCT,500,BKN,1000,OVC,1600,,,IFR,-1.2,,,,,0.005,0.06,,,,,METAR,3.0
KOTH 210844Z 29010KT 6SM BR SCT005 BKN010 OVC021 09/09 A3011 RMK AO2 RAB02E40 P0000,KOTH,2023-02-21T08:44:00Z,43.42,-124.25,9.0,9.0,290,10,,6.0,30.109253,,,,TRUE,,,,,,BR,SCT,500,BKN,1000,OVC,2100,,,MVFR,,,,,,0.005,,,,,,SPECI,3.0
KOTH 210824Z 28011KT 4SM -RA BR BKN005 BKN013 OVC027 09/09 A3013 RMK AO2 RAB02 CIG 003V008 P0000,KOTH,2023-02-21T08:24:00Z,43.42,-124.25,9.0,9.0,280,11,,4.0,30.129921,,,,TRUE,,,,,,-RA BR,BKN,500,BKN,1300,OVC,2700,,,IFR,,,,,,0.005,,,,,,SPECI,3.0
KOTH 210821Z 28011KT 3SM -RA BR SCT005 BKN021 OVC027 09/09 A3014 RMK AO2 RAB02 P0000,KOTH,2023-02-21T08:21:00Z,43.42,-124.25,9.0,9.0,280,11,,3.0,30.138779,,,,TRUE,,,,,,-RA BR,SCT,500,BKN,2100,OVC,2700,,,MVFR,,,,,,0.005,,,,,,SPECI,3.0
KOTH 210816Z 29011KT 4SM -RA BR BKN005 BKN009 OVC023 09/09 A3014 RMK AO2 RAB02 P0000,KOTH,2023-02-21T08:16:00Z,43.42,-124.25,9.0,9.0,290,11,,4.0,30.138779,,,,TRUE,,,,,,-RA BR,BKN,500,BKN,900,OVC,2300,,,IFR,,,,,,0.005,,,,,,SPECI,3.0
KOTH 210807Z 28012KT 2 1/2SM -RA BR OVC005 09/09 A3013 RMK AO2 VIS 1 3/4V4 RAB02 CIG 003V009 P0000,KOTH,2023-02-21T08:07:00Z,43.42,-124.25,9.0,9.0,280,12,,2.5,30.129921,,,,TRUE,,,,,,-RA BR,OVC,500,,,,,,,IFR,,,,,,0.005,,,,,,SPECI,3.0
KOTH 210756Z 28012KT 5SM BR BKN005 OVC008 09/09 A3014 RMK AO2 RAE55 CIG 003V006 SLP206 P0004 T00940094 401000022,KOTH,2023-02-21T07:56:00Z,43.42,-124.25,9.4,9.4,280,12,,5.0,30.138779,1020.6,,,TRUE,,,,,,BR,BKN,500,OVC,800,,,,,IFR,,,,10.0,2.2,0.04,,,,,,METAR,3.0
KOTH 210752Z 27011KT 7SM -RA BKN003 OVC007 09/09 A3014 RMK AO2 CIG 003V006 P0004 401000022,KOTH,2023-02-21T07:52:00Z,43.42,-124.25,9.0,9.0,270,11,,7.0,30.138779,,,,TRUE,,,,,,-RA,BKN,300,OVC,700,,,,,LIFR,,,,10.0,2.2,0.04,,,,,,SPECI,3.0
KOTH 210712Z 24007KT 2SM -RA BR OVC003 09/08 A3015 RMK AO2 P0001,KOTH,2023-02-21T07:12:00Z,43.42,-124.25,9.0,8.0,240,7,,2.0,30.15059,,,,TRUE,,,,,,-RA BR,OVC,300,,,,,,,LIFR,,,,,,0.01,,,,,,SPECI,3.0
KOTH 210656Z 22006KT 4SM -RA BR OVC005 08/08 A3015 RMK AO2 CIG 004V009 SLP210 P0002 T00830083,KOTH,2023-02-21T06:56:00Z,43.42,-124.25,8.3,8.3,220,6,,4.0,30.15059,1021.0,,,TRUE,,,,,,-RA BR,OVC,500,,,,,,,IFR,,,,,,0.02,,,,,,METAR,3.0
KOTH 210620Z 20006KT 4SM -RA BR OVC005 08/08 A3016 RMK AO2 CIG 003V009 P0001,KOTH,2023-02-21T06:20:00Z,43.42,-124.25,8.0,8.0,200,6,,4.0,30.159449,,,,TRUE,,,,,,-RA BR,OVC,500,,,,,,,IFR,,,,,,0.01,,,,,,METAR,3.0
KOTH 210556Z 21008KT 3SM -RA BR OVC003 08/08 A3017 RMK AO2 CIG 003V007 SLP217 P0003 60004 T00830083 10094 20078 56015,KOTH,2023-02-21T05:56:00Z,43.42,-124.25,8.3,8.3,210,8,,3.0,30.171259,1021.7,,,TRUE,,,,,,-RA BR,OVC,300,,,,,,,LIFR,-1.5,9.4,7.8,,,0.03,,0.04,,,,METAR,3.0
KOTH 210551Z 22008KT 3SM -RA BR OVC003 08/08 A3018 RMK AO2 CIG 003V007 PRESFR P0003,KOTH,2023-02-21T05:51:00Z,43.42,-124.25,8.0,8.0,220,8,,3.0,30.180119,,,,TRUE,,,,,,-RA BR,OVC,300,,,,,,,LIFR,,,,,,0.03,,,,,,METAR,3.0
KOTH 210536Z 23006KT 2 1/2SM -RA BR OVC003 08/08 A3020 RMK AO2 P0003,KOTH,2023-02-21T05:36:00Z,43.42,-124.25,8.0,8.0,230,6,,2.5,30.200787,,,,TRUE,,,,,,-RA BR,OVC,300,,,,,,,LIFR,,,,,,0.03,,,,,,SPECI,3.0
KOTH 210516Z 19003KT 2 1/2SM -RA BR OVC006 08/08 A3021 RMK AO2 CIG 004V010 P0002,KOTH,2023-02-21T05:16:00Z,43.42,-124.25,8.0,8.0,190,3,,2.5,30.209646,,,,TRUE,,,,,,-RA BR,OVC,600,,,,,,,IFR,,,,,,0.02,,,,,,SPECI,3.0
KOTH 210456Z 18004KT 6SM -RA BR OVC008 08/08 A3021 RMK AO2 RAB18 CIG 004V010 SLP229 P0001 T00780078,KOTH,2023-02-21T04:56:00Z,43.42,-124.25,7.8,7.8,180,4,,6.0,30.209646,1022.9,,,TRUE,,,,,,-RA BR,OVC,800,,,,,,,IFR,,,,,,0.01,,,,,,METAR,3.0
KOTH 210437Z 19007KT 4SM -RA BR OVC008 08/08 A3021 RMK AO2 RAB18 P0000,KOTH,2023-02-21T04:37:00Z,43.42,-124.25,8.0,8.0,190,7,,4.0,30.209646,,,,TRUE,,,,,,-RA BR,OVC,800,,,,,,,IFR,,,,,,0.005,,,,,,SPECI,3.0
KOTH 210356Z 18006KT 8SM OVC012 08/07 A3022 RMK AO2 SLP232 T00830072,KOTH,2023-02-21T03:56:00Z,43.42,-124.25,8.3,7.2,180,6,,8.0,30.221457,1023.2,,,TRUE,,,,,,,OVC,1200,,,,,,,MVFR,,,,,,,,,,,,METAR,3.0
KOTH 210335Z 18006KT 10SM OVC014 08/07 A3022 RMK AO2,KOTH,2023-02-21T03:35:00Z,43.42,-124.25,8.0,7.0,180,6,,10.0,30.221457,,,,TRUE,,,,,,,OVC,1400,,,,,,,MVFR,,,,,,,,,,,,SPECI,3.0
KOTH 210256Z 17005KT 9SM FEW007 OVC016 08/07 A3024 RMK AO2 RAB09E21 SLP238 P0000 60000 T00830072 58014,KOTH,2023-02-21T02:56:00Z,43.42,-124.25,8.3,7.2,170,5,,9.0,30.239174,1023.8,,,TRUE,,,,,,,FEW,700,OVC,1600,,,,,MVFR,-1.4,,,,,0.005,0.005,,,,,METAR,3.0
KOTH 210253Z 17008KT 9SM FEW007 SCT014 OVC019 08/07 A3024 RMK AO2 RAB09E21 P0000,KOTH,2023-02-21T02:53:00Z,43.42,-124.25,8.0,7.0,170,8,,9.0,30.239174,,,,TRUE,,,,,,,FEW,700,SCT,1400,OVC,1900,,,MVFR,,,,,,0.005,,,,,,SPECI,3.0
KOTH 210225Z 23006KT 10SM OVC014 09/07 A3026 RMK AO2 RAB09E21 P0000,KOTH,2023-02-21T02:25:00Z,43.42,-124.25,9.0,7.0,230,6,,10.0,30.259842,,,,TRUE,,,,,,,OVC,1400,,,,,,,MVFR,,,,,,0.005,,,,,,SPECI,3.0
KOTH 210156Z 26006KT 10SM OVC018 09/07 A3027 RMK AO2 SLP249 T00890067,KOTH,2023-02-21T01:56:00Z,43.42,-124.25,8.9,6.7,260,6,,10.0,30.268702,1024.9,,,TRUE,,,,,,,OVC,1800,,,,,,,MVFR,,,,,,,,,,,,METAR,3.0
KOTH 210124Z 27005KT 10SM OVC016 09/07 A3026 RMK AO2,KOTH,2023-02-21T01:24:00Z,43.42,-124.25,9.0,7.0,270,5,,10.0,30.259842,,,,TRUE,,,,,,,OVC,1600,,,,,,,MVFR,,,,,,,,,,,,SPECI,3.0
KOTH 210056Z 28006KT 10SM OVC014 09/07 A3027 RMK AO2 SLP250 T00890067,KOTH,2023-02-21T00:56:00Z,43.42,-124.25,8.9,6.7,280,6,,10.0,30.268702,1025.0,,,TRUE,,,,,,,OVC,1400,,,,,,,MVFR,,,,,,,,,,,,METAR,3.0
KOTH 202356Z 29007KT 10SM OVC010 09/07 A3028 RMK AO2 SLP252 T00940072 10100 20072 56028,KOTH,2023-02-20T23:56:00Z,43.42,-124.25,9.4,7.2,290,7,,10.0,30.280512,1025.2,,,TRUE,,,,,,,OVC,1000,,,,,,,MVFR,-2.8,10.0,7.2,,,,,,,,,METAR,3.0
KOTH 202315Z 29008KT 10SM BKN010 09/07 A3030 RMK AO2,KOTH,2023-02-20T23:15:00Z,43.42,-124.25,9.0,7.0,290,8,,10.0,30.301182,,,,TRUE,,,,,,,BKN,1000,,,,,,,MVFR,,,,,,,,,,,,SPECI,3.0
KOTH 202256Z 28009KT 10SM FEW010 09/07 A3029 RMK AO2 SLP258 T00940072,KOTH,2023-02-20T22:56:00Z,43.42,-124.25,9.4,7.2,280,9,,10.0,30.28937,1025.8,,,TRUE,,,,,,,FEW,1000,,,,,,,VFR,,,,,,,,,,,,METAR,3.0
KOTH 202156Z 27006KT 10SM CLR 09/07 A3031 RMK AO2 SLP262 T00940067,KOTH,2023-02-20T21:56:00Z,43.42,-124.25,9.4,6.7,270,6,,10.0,30.31004,1026.2,,,TRUE,,,,,,,CLR,,,,,,,,VFR,,,,,,,,,,,,SPECI,3.0
KOTH 202056Z 27009KT 10SM CLR 09/07 A3036 RMK AO2 SLP280 T00940072 58014,KOTH,2023-02-20T20:56:00Z,43.42,-124.25,9.4,7.2,270,9,,10.0,30.360237,1028.0,,,TRUE,,,,,,,CLR,,,,,,,,VFR,-1.4,,,,,,,,,,,METAR,3.0
KOTH 201956Z 28004KT 10SM CLR 10/07 A3038 RMK AO2 PRESFR SLP286 T01000067,KOTH,2023-02-20T19:56:00Z,43.42,-124.25,10.0,6.7,280,4,,10.0,30.380905,1028.6,,,TRUE,,,,,,,CLR,,,,,,,,VFR,,,,,,,,,,,,METAR,3.0
KOTH 201856Z VRB03KT 10SM CLR 09/06 A3040 RMK AO2 SLP293 T00940061,KOTH,2023-02-20T18:56:00Z,43.42,-124.25,9.4,6.1,0,3,,10.0,30.398623,1029.3,,,TRUE,,,,,,,CLR,,,,,,,,VFR,,,,,,,,,,,,METAR,3.0
KOTH 201756Z 13005KT 10SM CLR 07/05 A3040 RMK AO2 SLP294 T00670050 10067 20022 55000,KOTH,2023-02-20T17:56:00Z,43.42,-124.25,6.7,5.0,130,5,,10.0,30.398623,1029.4,,,TRUE,,,,,,,CLR,,,,,,,,VFR,0.0,6.7,2.2,,,,,,,,,METAR,3.0
KOTH 201656Z 14005KT 10SM CLR 04/04 A3040 RMK AO2 SLP294 T00440039,KOTH,2023-02-20T16:56:00Z,43.42,-124.25,4.4,3.9,140,5,,10.0,30.398623,1029.4,,,TRUE,,,,,,,CLR,,,,,,,,VFR,,,,,,,,,,,,METAR,3.0
KOTH 201620Z 15005KT 10SM SCT012 04/04 A3040 RMK AO2,KOTH,2023-02-20T16:20:00Z,43.42,-124.25,4.0,4.0,150,5,,10.0,30.398623,,,,TRUE,,,,,,,SCT,1200,,,,,,,VFR,,,,,,,,,,,,SPECI,3.0
KOTH 201556Z 15006KT 10SM OVC012 04/03 A3040 RMK AO2 SLP294 T00390033,KOTH,2023-02-20T15:56:00Z,43.42,-124.25,3.9,3.3,150,6,,10.0,30.398623,1029.4,,,TRUE,,,,,,,OVC,1200,,,,,,,MVFR,,,,,,,,,,,,METAR,3.0
KOTH 201456Z AUTO 15005KT 10SM OVC014 04/03 A3040 RMK AO2 SLP294 T00390033 58003,KOTH,2023-02-20T14:56:00Z,43.42,-124.25,3.9,3.3,150,5,,10.0,30.398623,1029.4,,TRUE,TRUE,,,,,,,OVC,1400,,,,,,,MVFR,-0.3,,,,,,,,,,,METAR,3.0
KOTH 201434Z AUTO 14006KT 10SM OVC014 04/03 A3040 RMK AO2,KOTH,2023-02-20T14:34:00Z,43.42,-124.25,4.0,3.0,140,6,,10.0,30.398623,,,TRUE,TRUE,,,,,,,OVC,1400,,,,,,,MVFR,,,,,,,,,,,,SPECI,3.0
KOTH 201356Z AUTO 14005KT 10SM OVC016 03/03 A3041 RMK AO2 SLP296 T00330033,KOTH,2023-02-20T13:56:00Z,43.42,-124.25,3.3,3.3,140,5,,10.0,30.410433,1029.6,,TRUE,TRUE,,,,,,,OVC,1600,,,,,,,MVFR,,,,,,,,,,,,METAR,3.0
KOTH 201307Z AUTO 14004KT 10SM BKN016 03/03 A3042 RMK AO2,KOTH,2023-02-20T13:07:00Z,43.42,-124.25,3.0,3.0,140,4,,10.0,30.41929,,,TRUE,TRUE,,,,,,,BKN,1600,,,,,,,MVFR,,,,,,,,,,,,SPECI,3.0
KOTH 201256Z AUTO 13005KT 10SM BKN014 03/03 A3041 RMK AO2 SLP298 T00280028,KOTH,2023-02-20T12:56:00Z,43.42,-124.25,2.8,2.8,130,5,,10.0,30.410433,1029.8,,TRUE,TRUE,,,,,,,BKN,1400,,,,,,,MVFR,,,,,,,,,,,,METAR,3.0
KOTH 201207Z AUTO 15004KT 5SM BR FEW001 BKN014 03/02 A3041 RMK AO2,KOTH,2023-02-20T12:07:00Z,43.42,-124.25,3.0,2.0,150,4,,5.0,30.410433,,,TRUE,TRUE,,,,,,BR,FEW,100,BKN,1400,,,,,MVFR,,,,,,,,,,,,SPECI,3.0
KOTH 201156Z AUTO 15005KT 8SM SCT014 03/02 A3041 RMK AO2 SLP297 T00280022 10067 20022 50003,KOTH,2023-02-20T11:56:00Z,43.42,-124.25,2.8,2.2,150,5,,8.0,30.410433,1029.7,,TRUE,TRUE,,,,,,,SCT,1400,,,,,,,VFR,0.3,6.7,2.2,,,,,,,,,METAR,3.0
KOTH 201153Z AUTO 15005KT 9SM SCT014 03/03 A3041 RMK AO2,KOTH,2023-02-20T11:53:00Z,43.42,-124.25,3.0,3.0,150,5,,9.0,30.410433,,,TRUE,TRUE,,,,,,,SCT,1400,,,,,,,VFR,,,,,,,,,,,,SPECI,3.0
KOTH 201119Z AUTO 00000KT 10SM OVC011 04/04 A3042 RMK AO2 CIG 005V014,KOTH,2023-02-20T11:19:00Z,43.42,-124.25,4.0,4.0,0,0,,10.0,30.41929,,,TRUE,TRUE,,,,,,,OVC,1100,,,,,,,MVFR,,,,,,,,,,,,SPECI,3.0
KOTH 201103Z AUTO 00000KT 10SM OVC009 04/04 A3042 RMK AO2 CIG 005V012,KOTH,2023-02-20T11:03:00Z,43.42,-124.25,4.0,4.0,0,0,,10.0,30.41929,,,TRUE,TRUE,,,,,,,OVC,900,,,,,,,IFR,,,,,,,,,,,,SPECI,3.0
KOTH 201056Z AUTO 14003KT 10SM OVC005 04/04 A3042 RMK AO2 CIG 004V009 SLP300 T00390039,KOTH,2023-02-20T10:56:00Z,43.42,-124.25,3.9,3.9,140,3,,10.0,30.41929,1030.0,,TRUE,TRUE,,,,,,,OVC,500,,,,,,,IFR,,,,,,,,,,,,METAR,3.0
KOTH 201007Z AUTO 16003KT 8SM OVC005 04/03 A3042 RMK AO2,KOTH,2023-02-20T10:07:00Z,43.42,-124.25,4.0,3.0,160,3,,8.0,30.41929,,,TRUE,TRUE,,,,,,,OVC,500,,,,,,,IFR,,,,,,,,,,,,SPECI,3.0
KOTH 200956Z AUTO 00000KT 8SM OVC007 03/03 A3042 RMK AO2 SLP300 T00330033,KOTH,2023-02-20T09:56:00Z,43.42,-124.25,3.3,3.3,0,0,,8.0,30.41929,1030.0,,TRUE,TRUE,,,,,,,OVC,700,,,,,,,IFR,,,,,,,,,,,,METAR,3.0
KOTH 200903Z AUTO 00000KT 8SM BKN009 05/04 A3041 RMK AO2,KOTH,2023-02-20T09:03:00Z,43.42,-124.25,5.0,4.0,0,0,,8.0,30.410433,,,TRUE,TRUE,,,,,,,BKN,900,,,,,,,IFR,,,,,,,,,,,,SPECI,3.0
KOTH 200856Z AUTO 00000KT 8SM SCT009 04/03 A3040 RMK AO2 SLP294 T00390033 56003,KOTH,2023-02-20T08:56:00Z,43.42,-124.25,3.9,3.3,0,0,,8.0,30.398623,1029.4,,TRUE,TRUE,,,,,,,SCT,900,,,,,,,VFR,-0.3,,,,,,,,,,,METAR,3.0
KOTH 200845Z AUTO 34003KT 9SM FEW009 04/04 A3041 RMK AO2,KOTH,2023-02-20T08:45:00Z,43.42,-124.25,4.0,4.0,340,3,,9.0,30.410433,,,TRUE,TRUE,,,,,,,FEW,900,,,,,,,VFR,,,,,,,,,,,,SPECI,3.0
KOTH 200756Z AUTO 00000KT 9SM CLR 05/04 A3041 RMK AO2 SLP296 T00500044 401170011,KOTH,2023-02-20T07:56:00Z,43.42,-124.25,5.0,4.4,0,0,,9.0,30.410433,1029.6,,TRUE,TRUE,,,,,,,CLR,,,,,,,,VFR,,,,11.7,1.1,,,,,,,METAR,3.0
KOTH 200656Z AUTO 00000KT 9SM CLR 06/04 A3040 RMK AO2 SLP294 T00560039,KOTH,2023-02-20T06:56:00Z,43.42,-124.25,5.6,3.9,0,0,,9.0,30.398623,1029.4,,TRUE,TRUE,,,,,,,CLR,,,,,,,,VFR,,,,,,,,,,,,METAR,3.0
KOTH 200556Z AUTO 02004KT 9SM CLR 07/04 A3041 RMK AO2 SLP297 T00670044 10100 20061 51017,KOTH,2023-02-20T05:56:00Z,43.42,-124.25,6.7,4.4,20,4,,9.0,30.410433,1029.7,,TRUE,TRUE,,,,,,,CLR,,,,,,,,VFR,1.7,10.0,6.1,,,,,,,,,METAR,3.0
KOTH 200456Z AUTO 36007KT 9SM CLR 07/04 A3040 RMK AO2 SLP293 T00670044,KOTH,2023-02-20T04:56:00Z,43.42,-124.25,6.7,4.4,360,7,,9.0,30.398623,1029.3,,TRUE,TRUE,,,,,,,CLR,,,,,,,,VFR,,,,,,,,,,,,METAR,3.0
KOTH 200356Z 35004KT 10SM CLR 07/04 A3038 RMK AO2 SLP285 T00720044,KOTH,2023-02-20T03:56:00Z,43.42,-124.25,7.2,4.4,350,4,,10.0,30.380905,1028.5,,,TRUE,,,,,,,CLR,,,,,,,,VFR,,,,,,,,,,,,METAR,3.0
KOTH 200256Z 01011KT 9SM CLR 08/05 A3036 RMK AO2 SLP280 T00780050 55001,KOTH,2023-02-20T02:56:00Z,43.42,-124.25,7.8,5.0,10,11,,9.0,30.360237,1028.0,,,TRUE,,,,,,,CLR,,,,,,,,VFR,-0.1,,,,,,,,,,,METAR,3.0
KOTH 200156Z 36014KT 7SM CLR 08/06 A3035 RMK AO2 SLP278 T00830056,KOTH,2023-02-20T01:56:00Z,43.42,-124.25,8.3,5.6,360,14,,7.0,30.351377,1027.8,,,TRUE,,,,,,,CLR,,,,,,,,VFR,,,,,,,,,,,,METAR,3.0
KOTH 200056Z 36017KT 9SM CLR 09/06 A3036 RMK AO2 SLP281 T00940056,KOTH,2023-02-20T00:56:00Z,43.42,-124.25,9.4,5.6,360,17,,9.0,30.360237,1028.1,,,TRUE,,,,,,,CLR,,,,,,,,VFR,,,,,,,,,,,,METAR,3.0
KOTH 192356Z 36020G26KT 9SM CLR 10/06 A3037 RMK AO2 PK WND 36026/2347 SLP282 T01000056 10117 20072 55004,KOTH,2023-02-19T23:56:00Z,43.42,-124.25,10.0,5.6,360,20,26,9.0,30.369095,1028.2,,,TRUE,,,,,,,CLR,,,,,,,,VFR,-0.4,11.7,7.2,,,,,,,,,METAR,3.0
KOTH 192256Z 35019G23KT 8SM CLR 11/06 A3034 RMK AO2 SLP274 T01060061,KOTH,2023-02-19T22:56:00Z,43.42,-124.25,10.6,6.1,350,19,23,8.0,30.339567,1027.4,,,TRUE,,,,,,,CLR,,,,,,,,VFR,,,,,,,,,,,,METAR,3.0
KOTH 192156Z 36016KT 8SM CLR 11/06 A3034 RMK AO2 SLP274 T01110056,KOTH,2023-02-19T21:56:00Z,43.42,-124.25,11.1,5.6,360,16,,8.0,30.339567,1027.4,,,TRUE,,,,,,,CLR,,,,,,,,VFR,,,,,,,,,,,,METAR,3.0
KOTH 192056Z 35015G20KT 9SM CLR 11/06 A3038 RMK AO2 SLP286 T01110056 56008,KOTH,2023-02-19T20:56:00Z,43.42,-124.25,11.1,5.6,350,15,20,9.0,30.380905,1028.6,,,TRUE,,,,,,,CLR,,,,,,,,VFR,-0.8,,,,,,,,,,,METAR,3.0
KOTH 191956Z 35012KT 9SM CLR 11/05 A3038 RMK AO2 SLP287 T01110050,KOTH,2023-02-19T19:56:00Z,43.42,-124.25,11.1,5.0,350,12,,9.0,30.380905,1028.7,,,TRUE,,,,,,,CLR,,,,,,,,VFR,,,,,,,,,,,,METAR,3.0
KOTH 191856Z 00000KT 10SM CLR 10/05 A3039 RMK AO2 SLP290 T01000050,KOTH,2023-02-19T18:56:00Z,43.42,-124.25,10.0,5.0,0,0,,10.0,30.389763,1029.0,,,TRUE,,,,,,,CLR,,,,,,,,VFR,,,,,,,,,,,,METAR,3.0
KOTH 191756Z 00000KT 10SM CLR 07/05 A3040 RMK AO2 SLP293 T00720050 10072 20011 50003,KOTH,2023-02-19T17:56:00Z,43.42,-124.25,7.2,5.0,0,0,,10.0,30.398623,1029.3,,,TRUE,,,,,,,CLR,,,,,,,,VFR,0.3,7.2,1.1,,,,,,,,,METAR,3.0
KOTH 191656Z 15003KT 10SM CLR 04/04 A3040 RMK AO2 SLP294 T00440039,KOTH,2023-02-19T16:56:00Z,43.42,-124.25,4.4,3.9,150,3,,10.0,30.398623,1029.4,,,TRUE,,,,,,,CLR,,,,,,,,VFR,,,,,,,,,,,,METAR,3.0
KOTH 191556Z 14003KT 10SM CLR 02/02 A3040 RMK AO2 SLP294 T00170017,KOTH,2023-02-19T15:56:00Z,43.42,-124.25,1.7,1.7,140,3,,10.0,30.398623,1029.4,,,TRUE,,,,,,,CLR,,,,,,,,VFR,,,,,,,,,,,,METAR,3.0
KOTH 191456Z 16004KT 10SM OVC031 01/01 A3039 RMK AO2 SLP290 T00110011 51010,KOTH,2023-02-19T14:56:00Z,43.42,-124.25,1.1,1.1,160,4,,10.0,30.389763,1029.0,,,TRUE,,,,,,,OVC,3100,,,,,,,VFR,1.0,,,,,,,,,,,METAR,3.0
KOTH 191356Z AUTO 14004KT 10SM CLR 02/02 A3038 RMK AO2 SLP288 T00170017 FZRANO,KOTH,2023-02-19T13:56:00Z,43.42,-124.25,1.7,1.7,140,4,,10.0,30.380905,1028.8,,TRUE,TRUE,,,,TRUE,,,CLR,,,,,,,,VFR,,,,,,,,,,,,METAR,3.0
KOTH 191315Z AUTO 15005KT 3SM BR CLR 02/02 A3037 RMK AO2 FZRANO,KOTH,2023-02-19T13:15:00Z,43.42,-124.25,2.0,2.0,150,5,,3.0,30.369095,,,TRUE,TRUE,,,,TRUE,,BR,CLR,,,,,,,,MVFR,,,,,,,,,,,,SPECI,3.0
KOTH 191305Z AUTO 16004KT 1 3/4SM BR CLR 02/02 A3038 RMK AO2 VIS 3/4V4 FZRANO,KOTH,2023-02-19T13:05:00Z,43.42,-124.25,2.0,2.0,160,4,,1.75,30.380905,,,TRUE,TRUE,,,,TRUE,,BR,CLR,,,,,,,,IFR,,,,,,,,,,,,METAR,3.0
KOTH 191256Z AUTO 16004KT 5SM BR CLR 02/01 A3037 RMK AO2 SLP285 T00170011 FZRANO,KOTH,2023-02-19T12:56:00Z,43.42,-124.25,1.7,1.1,160,4,,5.0,30.369095,1028.5,,TRUE,TRUE,,,,TRUE,,BR,CLR,,,,,,,,MVFR,,,,,,,,,,,,METAR,3.0
KOTH 191156Z AUTO 00000KT 9SM BKN037 03/03 A3036 RMK AO2 SLP279 T00280028 10067 20022 52007,KOTH,2023-02-19T11:56:00Z,43.42,-124.25,2.8,2.8,0,0,,9.0,30.360237,1027.9,,TRUE,TRUE,,,,,,,BKN,3700,,,,,,,VFR,0.7,6.7,2.2,,,,,,,,,METAR,3.0
KOTH 191123Z AUTO 17003KT 8SM OVC037 02/02 A3035 RMK AO2 FZRANO,KOTH,2023-02-19T11:23:00Z,43.42,-124.25,2.0,2.0,170,3,,8.0,30.351377,,,TRUE,TRUE,,,,TRUE,,,OVC,3700,,,,,,,VFR,,,,,,,,,,,,METAR,3.0
KOTH 191115Z AUTO 15004KT 2 1/2SM BR BKN037 02/02 A3035 RMK AO2 FZRANO,KOTH,2023-02-19T11:15:00Z,43.42,-124.25,2.0,2.0,150,4,,2.5,30.351377,,,TRUE,TRUE,,,,TRUE,,BR,BKN,3700,,,,,,,IFR,,,,,,,,,,,,METAR,3.0
KOTH 191056Z AUTO 00000KT 10SM CLR 04/03 A3036 RMK AO2 SLP278 T00390033,KOTH,2023-02-19T10:56:00Z,43.42,-124.25,3.9,3.3,0,0,,10.0,30.360237,1027.8,,TRUE,TRUE,,,,,,,CLR,,,,,,,,VFR,,,,,,,,,,,,METAR,3.0
KOTH 190956Z AUTO 15003KT 8SM CLR 04/03 A3034 RMK AO2 SLP274 T00390033,KOTH,2023-02-19T09:56:00Z,43.42,-124.25,3.9,3.3,150,3,,8.0,30.339567,1027.4,,TRUE,TRUE,,,,,,,CLR,,,,,,,,VFR,,,,,,,,,,,,METAR,3.0
KOTH 190856Z AUTO 02006KT 10SM CLR 05/04 A3034 RMK AO2 SLP273 T00500044 51008,KOTH,2023-02-19T08:56:00Z,43.42,-124.25,5.0,4.4,20,6,,10.0,30.339567,1027.3,,TRUE,TRUE,,,,,,,CLR,,,,,,,,VFR,0.8,,,,,,,,,,,METAR,3.0
KOTH 190756Z AUTO 02006KT 10SM CLR 06/05 A3033 RMK AO2 SLP270 T00560050 401170028,KOTH,2023-02-19T07:56:00Z,43.42,-124.25,5.6,5.0,20,6,,10.0,30.33071,1027.0,,TRUE,TRUE,,,,,,,CLR,,,,,,,,VFR,,,,11.7,2.8,,,,,,,METAR,3.0
KOTH 190656Z AUTO 36005KT 10SM CLR 06/05 A3033 RMK AO2 SLP271 T00610050,KOTH,2023-02-19T06:56:00Z,43.42,-124.25,6.1,5.0,360,5,,10.0,30.33071,1027.1,,TRUE,TRUE,,,,,,,CLR,,,,,,,,VFR,,,,,,,,,,,,METAR,3.0
KOTH 190556Z AUTO 01005KT 10SM OVC031 07/05 A3032 RMK AO2 SLP265 60000 T00670050 10100 20067 53011,KOTH,2023-02-19T05:56:00Z,43.42,-124.25,6.7,5.0,10,5,,10.0,30.318897,1026.5,,TRUE,TRUE,,,,,,,OVC,3100,,,,,,,VFR,1.1,10.0,6.7,,,,,0.005,,,,METAR,3.0
KOTH 190530Z AUTO 03006KT 10SM OVC031 07/06 A3031 RMK AO2,KOTH,2023-02-19T05:30:00Z,43.42,-124.25,7.0,6.0,30,6,,10.0,30.31004,,,TRUE,TRUE,,,,,,,OVC,3100,,,,,,,VFR,,,,,,,,,,,,SPECI,3.0
KOTH 190456Z AUTO 02006KT 10SM OVC027 08/06 A3031 RMK AO2 RAE08 SLP261 P0000 T00780061,KOTH,2023-02-19T04:56:00Z,43.42,-124.25,7.8,6.1,20,6,,10.0,30.31004,1026.1,,TRUE,TRUE,,,,,,,OVC,2700,,,,,,,MVFR,,,,,,0.005,,,,,,METAR,3.0
KOTH 190416Z 02007KT 10SM SCT007 OVC023 08/07 A3029 RMK AO2 RAE08 P0000,KOTH,2023-02-19T04:16:00Z,43.42,-124.25,8.0,7.0,20,7,,10.0,30.28937,,,,TRUE,,,,,,,SCT,700,OVC,2300,,,,,MVFR,,,,,,0.005,,,,,,SPECI,3.0
KOTH 190356Z 01010KT 3SM -RA BR SCT007 OVC012 08/07 A3028 RMK AO2 RAB49 SLP254 P0000 T00780072,KOTH,2023-02-19T03:56:00Z,43.42,-124.25,7.8,7.2,10,10,,3.0,30.280512,1025.4,,,TRUE,,,,,,-RA BR,SCT,700,OVC,1200,,,,,MVFR,,,,,,0.005,,,,,,METAR,3.0
KOTH 190324Z 02008KT 10SM BKN010 BKN028 OVC034 08/07 A3027 RMK AO2,KOTH,2023-02-19T03:24:00Z,43.42,-124.25,8.0,7.0,20,8,,10.0,30.268702,,,,TRUE,,,,,,,BKN,1000,BKN,2800,OVC,3400,,,MVFR,,,,,,,,,,,,SPECI,3.0
KOTH 190304Z 36006KT 10SM FEW020 BKN028 BKN034 08/06 A3027 RMK AO2,KOTH,2023-02-19T03:04:00Z,43.42,-124.25,8.0,6.0,360,6,,10.0,30.268702,,,,TRUE,,,,,,,FEW,2000,BKN,2800,BKN,3400,,,MVFR,,,,,,,,,,,,SPECI,3.0
KOTH 190256Z 36006KT 10SM FEW023 SCT028 08/06 A3026 RMK AO2 SLP248 T00780061 53010,KOTH,2023-02-19T02:56:00Z,43.42,-124.25,7.8,6.1,360,6,,10.0,30.259842,1024.8,,,TRUE,,,,,,,FEW,2300,SCT,2800,,,,,VFR,1.0,,,,,,,,,,,METAR,3.0
KOTH 190156Z 34011KT 10SM FEW021 SCT027 08/06 A3024 RMK AO2 SLP240 T00830061,KOTH,2023-02-19T01:56:00Z,43.42,-124.25,8.3,6.1,340,11,,10.0,30.239174,1024.0,,,TRUE,,,,,,,FEW,2100,SCT,2700,,,,,VFR,,,,,,,,,,,,METAR,3.0
KOTH 190129Z 34008KT 10SM SCT028 09/06 A3024 RMK AO2,KOTH,2023-02-19T01:29:00Z,43.42,-124.25,9.0,6.0,340,8,,10.0,30.239174,,,,TRUE,,,,,,,SCT,2800,,,,,,,VFR,,,,,,,,,,,,SPECI,3.0
KOTH 190105Z 34009KT 10SM BKN028 BKN036 09/06 A3024 RMK AO2,KOTH,2023-02-19T01:05:00Z,43.42,-124.25,9.0,6.0,340,9,,10.0,30.239174,,,,TRUE,,,,,,,BKN,2800,BKN,3600,,,,,MVFR,,,,,,,,,,,,SPECI,3.0
KOTH 190056Z 35008KT 10SM SCT028 BKN036 09/06 A3024 RMK AO2 SLP239 T00940061,KOTH,2023-02-19T00:56:00Z,43.42,-124.25,9.4,6.1,350,8,,10.0,30.239174,1023.9,,,TRUE,,,,,,,SCT,2800,BKN,3600,,,,,VFR,,,,,,,,,,,,METAR,3.0
KOTH 182356Z 33010KT 10SM CLR 10/06 A3023 RMK AO2 SLP237 T01000056 10117 20067 53000,KOTH,2023-02-18T23:56:00Z,43.42,-124.25,10.0,5.6,330,10,,10.0,30.230314,1023.7,,,TRUE,,,,,,,CLR,,,,,,,,VFR,0.0,11.7,6.7,,,,,,,,,METAR,3.0
KOTH 182256Z 32010KT 10SM CLR 11/04 A3023 RMK AO2 SLP236 T01060039,KOTH,2023-02-18T22:56:00Z,43.42,-124.25,10.6,3.9,320,10,,10.0,30.230314,1023.6,,,TRUE,,,,,,,CLR,,,,,,,,VFR,,,,,,,,,,,,METAR,3.0
KOTH 182156Z 33009KT 10SM BKN055 11/05 A3023 RMK AO2 SLP237 T01060050,KOTH,2023-02-18T21:56:00Z,43.42,-124.25,10.6,5.0,330,9,,10.0,30.230314,1023.7,,,TRUE,,,,,,,BKN,5500,,,,,,,VFR,,,,,,,,,,,,METAR,3.0
KOTH 182056Z 33007KT 10SM FEW043 11/05 A3023 RMK AO2 SLP237 T01060050 58003,KOTH,2023-02-18T20:56:00Z,43.42,-124.25,10.6,5.0,330,7,,10.0,30.230314,1023.7,,,TRUE,,,,,,,FEW,4300,,,,,,,VFR,-0.3,,,,,,,,,,,METAR,3.0
KOTH 181956Z 01007KT 10SM FEW020 OVC050 10/06 A3025 RMK AO2 SLP244 T01000056,KOTH,2023-02-18T19:56:00Z,43.42,-124.25,10.0,5.6,10,7,,10.0,30.250984,1024.4,,,TRUE,,,,,,,FEW,2000,OVC,5000,,,,,VFR,,,,,,,,,,,,METAR,3.0
KOTH 181856Z 00000KT 10SM FEW060 09/06 A3025 RMK AO2 SLP243 T00890056,KOTH,2023-02-18T18:56:00Z,43.42,-124.25,8.9,5.6,0,0,,10.0,30.250984,1024.3,,,TRUE,,,,,,,FEW,6000,,,,,,,VFR,,,,,,,,,,,,METAR,3.0
KOTH 181756Z 15006KT 10SM CLR 07/04 A3024 RMK AO2 SLP240 60000 T00670044 10067 20039 50002,KOTH,2023-02-18T17:56:00Z,43.42,-124.25,6.7,4.4,150,6,,10.0,30.239174,1024.0,,,TRUE,,,,,,,CLR,,,,,,,,VFR,0.2,6.7,3.9,,,,,0.005,,,,METAR,3.0
KOTH 181656Z 15004KT 10SM BKN060 06/04 A3025 RMK AO2 SLP242 T00560039,KOTH,2023-02-18T16:56:00Z,43.42,-124.25,5.6,3.9,150,4,,10.0,30.250984,1024.2,,,TRUE,,,,,,,BKN,6000,,,,,,,VFR,,,,,,,,,,,,METAR,3.0
KOTH 181556Z 15003KT 10SM OVC075 04/03 A3025 RMK AO2 SLP243 T00440033,KOTH,2023-02-18T15:56:00Z,43.42,-124.25,4.4,3.3,150,3,,10.0,30.250984,1024.3,,,TRUE,,,,,,,OVC,7500,,,,,,,VFR,,,,,,,,,,,,METAR,3.0
KOTH 181456Z 14003KT 10SM FEW065 OVC100 04/03 A3024 RMK AO2 SLP238 60000 T00390033 53000,KOTH,2023-02-18T14:56:00Z,43.42,-124.25,3.9,3.3,140,3,,10.0,30.239174,1023.8,,,TRUE,,,,,,,FEW,6500,OVC,10000,,,,,VFR,0.0,,,,,,0.005,,,,,METAR,3.0
KOTH 181443Z AUTO 14004KT 10SM FEW013 BKN060 OVC110 04/03 A3024 RMK AO2,KOTH,2023-02-18T14:43:00Z,43.42,-124.25,4.0,3.0,140,4,,10.0,30.239174,,,TRUE,TRUE,,,,,,,FEW,1300,BKN,6000,OVC,11000,,,VFR,,,,,,,,,,,,SPECI,3.0
KOTH 181356Z AUTO 13003KT 10SM OVC015 04/04 A3024 RMK AO2 SLP238 T00440039,KOTH,2023-02-18T13:56:00Z,43.42,-124.25,4.4,3.9,130,3,,10.0,30.239174,1023.8,,TRUE,TRUE,,,,,,,OVC,1500,,,,,,,MVFR,,,,,,,,,,,,METAR,3.0
KOTH 181256Z AUTO 13003KT 10SM OVC015 04/04 A3023 RMK AO2 RAE09 SLP236 P0000 T00440039,KOTH,2023-02-18T12:56:00Z,43.42,-124.25,4.4,3.9,130,3,,10.0,30.230314,1023.6,,TRUE,TRUE,,,,,,,OVC,1500,,,,,,,MVFR,,,,,,0.005,,,,,,METAR,3.0
KOTH 181215Z AUTO 15004KT 10SM SCT011 OVC019 04/03 A3023 RMK AO2 RAE09 P0000,KOTH,2023-02-18T12:15:00Z,43.42,-124.25,4.0,3.0,150,4,,10.0,30.230314,,,TRUE,TRUE,,,,,,,SCT,1100,OVC,1900,,,,,MVFR,,,,,,0.005,,,,,,METAR,3.0
KOTH 181156Z AUTO 15005KT 7SM -RA OVC013 04/03 A3024 RMK AO2 RAB20 SLP238 P0000 60000 T00440033 10044 20028 58006,KOTH,2023-02-18T11:56:00Z,43.42,-124.25,4.4,3.3,150,5,,7.0,30.239174,1023.8,,TRUE,TRUE,,,,,,-RA,OVC,1300,,,,,,,MVFR,-0.6,4.4,2.8,,,0.005,,0.005,,,,METAR,3.0
KOTH 181138Z AUTO 00000KT 7SM -RA OVC013 04/03 A3025 RMK AO2 RAB20 P0000,KOTH,2023-02-18T11:38:00Z,43.42,-124.25,4.0,3.0,0,0,,7.0,30.250984,,,TRUE,TRUE,,,,,,-RA,OVC,1300,,,,,,,MVFR,,,,,,0.005,,,,,,SPECI,3.0
KOTH 181056Z AUTO 14004KT 10SM OVC015 04/03 A3025 RMK AO2 SLP242 T00390028,KOTH,2023-02-18T10:56:00Z,43.42,-124.25,3.9,2.8,140,4,,10.0,30.250984,1024.2,,TRUE,TRUE,,,,,,,OVC,1500,,,,,,,MVFR,,,,,,,,,,,,METAR,3.0
KOTH 180956Z AUTO 15003KT 10SM OVC019 04/03 A3026 RMK AO2 SLP245 T00440033,KOTH,2023-02-18T09:56:00Z,43.42,-124.25,4.4,3.3,150,3,,10.0,30.259842,1024.5,,TRUE,TRUE,,,,,,,OVC,1900,,,,,,,MVFR,,,,,,,,,,,,METAR,3.0
KOTH 180856Z AUTO 14004KT 10SM FEW013 OVC021 04/03 A3025 RMK AO2 SLP244 T00390028 58006,KOTH,2023-02-18T08:56:00Z,43.42,-124.25,3.9,2.8,140,4,,10.0,30.250984,1024.4,,TRUE,TRUE,,,,,,,FEW,1300,OVC,2100,,,,,MVFR,-0.6,,,,,,,,,,,METAR,3.0
KOTH 180756Z AUTO 14005KT 10SM SCT012 OVC019 03/03 A3027 RMK AO2 SLP251 T00330028 401280006,KOTH,2023-02-18T07:56:00Z,43.42,-124.25,3.3,2.8,140,5,,10.0,30.268702,1025.1,,TRUE,TRUE,,,,,,,SCT,1200,OVC,1900,,,,,MVFR,,,,12.8,0.6,,,,,,,METAR,3.0
KOTH 180656Z AUTO 16004KT 10SM OVC015 03/03 A3027 RMK AO2 SLP251 T00330033,KOTH,2023-02-18T06:56:00Z,43.42,-124.25,3.3,3.3,160,4,,10.0,30.268702,1025.1,,TRUE,TRUE,,,,,,,OVC,1500,,,,,,,MVFR,,,,,,,,,,,,METAR,3.0
KOTH 180644Z AUTO 16005KT 10SM OVC015 03/03 A3027 RMK AO2,KOTH,2023-02-18T06:44:00Z,43.42,-124.25,3.0,3.0,160,5,,10.0,30.268702,,,TRUE,TRUE,,,,,,,OVC,1500,,,,,,,MVFR,,,,,,,,,,,,SPECI,3.0
KOTH 180630Z AUTO 16005KT 10SM BKN013 03/03 A3027 RMK AO2,KOTH,2023-02-18T06:30:00Z,43.42,-124.25,3.0,3.0,160,5,,10.0,30.268702,,,TRUE,TRUE,,,,,,,BKN,1300,,,,,,,MVFR,,,,,,,,,,,,METAR,3.0
KOTH 180556Z AUTO 14004KT 9SM CLR 04/03 A3027 RMK AO2 SLP251 T00390033 10106 20039 53002,KOTH,2023-02-18T05:56:00Z,43.42,-124.25,3.9,3.3,140,4,,9.0,30.268702,1025.1,,TRUE,TRUE,,,,,,,CLR,,,,,,,,VFR,0.2,10.6,3.9,,,,,,,,,METAR,3.0
KOTH 180538Z AUTO 15003KT 7SM SCT013 04/03 A3027 RMK AO2,KOTH,2023-02-18T05:38:00Z,43.42,-124.25,4.0,3.0,150,3,,7.0,30.268702,,,TRUE,TRUE,,,,,,,SCT,1300,,,,,,,VFR,,,,,,,,,,,,SPECI,3.0
KOTH 180515Z AUTO 15004KT 10SM BKN013 05/04 A3027 RMK AO2,KOTH,2023-02-18T05:15:00Z,43.42,-124.25,5.0,4.0,150,4,,10.0,30.268702,,,TRUE,TRUE,,,,,,,BKN,1300,,,,,,,MVFR,,,,,,,,,,,,METAR,3.0
KOTH 180456Z AUTO 00000KT 10SM CLR 04/03 A3027 RMK AO2 SLP250 T00440033,KOTH,2023-02-18T04:56:00Z,43.42,-124.25,4.4,3.3,0,0,,10.0,30.268702,1025.0,,TRUE,TRUE,,,,,,,CLR,,,,,,,,VFR,,,,,,,,,,,,METAR,3.0
KOTH 180356Z 00000KT 10SM CLR 07/05 A3027 RMK AO2 SLP249 T00670050,KOTH,2023-02-18T03:56:00Z,43.42,-124.25,6.7,5.0,0,0,,10.0,30.268702,1024.9,,,TRUE,,,,,,,CLR,,,,,,,,VFR,,,,,,,,,,,,METAR,3.0
KOTH 180256Z 02007KT 6SM BR CLR 08/06 A3027 RMK AO2 SLP248 T00780061 53001,KOTH,2023-02-18T02:56:00Z,43.42,-124.25,7.8,6.1,20,7,,6.0,30.268702,1024.8,,,TRUE,,,,,,BR,CLR,,,,,,,,VFR,0.1,,,,,,,,,,,METAR,3.0
KOTH 180156Z 35008KT 8SM CLR 08/06 A3025 RMK AO2 SLP241 T00830056,KOTH,2023-02-18T01:56:00Z,43.42,-124.25,8.3,5.6,350,8,,8.0,30.250984,1024.1,,,TRUE,,,,,,,CLR,,,,,,,,VFR,,,,,,,,,,,,METAR,3.0
KOTH 180056Z 36012KT 10SM CLR 10/05 A3024 RMK AO2 SLP240 T01000050,KOTH,2023-02-18T00:56:00Z,43.42,-124.25,10.0,5.0,360,12,,10.0,30.239174,1024.0,,,TRUE,,,,,,,CLR,,,,,,,,VFR,,,,,,,,,,,,METAR,3.0
KOTH 172356Z 35016KT 10SM CLR 11/04 A3026 RMK AO2 SLP248 T01060039 10128 20056 55004,KOTH,2023-02-17T23:56:00Z,43.42,-124.25,10.6,3.9,350,16,,10.0,30.259842,1024.8,,,TRUE,,,,,,,CLR,,,,,,,,VFR,-0.4,12.8,5.6,,,,,,,,,METAR,3.0
KOTH 172256Z 35016KT 10SM CLR 12/02 A3024 RMK AO2 SLP241 T01170022,KOTH,2023-02-17T22:56:00Z,43.42,-124.25,11.7,2.2,350,16,,10.0,30.239174,1024.1,,,TRUE,,,,,,,CLR,,,,,,,,VFR,,,,,,,,,,,,METAR,3.0
KOTH 172156Z 33010KT 10SM CLR 13/02 A3025 RMK AO2 SLP243 T01280022,KOTH,2023-02-17T21:56:00Z,43.42,-124.25,12.8,2.2,330,10,,10.0,30.250984,1024.3,,,TRUE,,,,,,,CLR,,,,,,,,VFR,,,,,,,,,,,,METAR,3.0
KOTH 172056Z 33008KT 10SM CLR 12/02 A3028 RMK AO2 SLP252 T01220022 58012,KOTH,2023-02-17T20:56:00Z,43.42,-124.25,12.2,2.2,330,8,,10.0,30.280512,1025.2,,,TRUE,,,,,,,CLR,,,,,,,,VFR,-1.2,,,,,,,,,,,METAR,3.0
KOTH 171956Z 27005KT 10SM CLR 11/03 A3030 RMK AO2 SLP259 T01060028,KOTH,2023-02-17T19:56:00Z,43.42,-124.25,10.6,2.8,270,5,,10.0,30.301182,1025.9,,,TRUE,,,,,,,CLR,,,,,,,,VFR,,,,,,,,,,,,METAR,3.0
KOTH 171856Z 00000KT 9SM CLR 08/03 A3031 RMK AO2 SLP263 T00830028,KOTH,2023-02-17T18:56:00Z,43.42,-124.25,8.3,2.8,0,0,,9.0,30.31004,1026.3,,,TRUE,,,,,,,CLR,,,,,,,,VFR,,,,,,,,,,,,METAR,3.0
KOTH 171756Z 00000KT 10SM CLR 06/01 A3031 RMK AO2 SLP264 T00560011 10061 20006 51016,KOTH,2023-02-17T17:56:00Z,43.42,-124.25,5.6,1.1,0,0,,10.0,30.31004,1026.4,,,TRUE,,,,,,,CLR,,,,,,,,VFR,1.6,6.1,0.6,,,,,,,,,METAR,3.0
KOTH 171656Z 14003KT 10SM CLR 04/01 A3030 RMK AO2 SLP259 T00440006,KOTH,2023-02-17T16:56:00Z,43.42,-124.25,4.4,0.6,140,3,,10.0,30.301182,1025.9,,,TRUE,,,,,,,CLR,,,,,,,,VFR,,,,,,,,,,,,METAR,3.0
KOTH 171556Z 13005KT 10SM CLR 02/00 A3029 RMK AO2 SLP255 T00170000,KOTH,2023-02-17T15:56:00Z,43.42,-124.25,1.7,0.0,130,5,,10.0,30.28937,1025.5,,,TRUE,,,,,,,CLR,,,,,,,,VFR,,,,,,,,,,,,METAR,3.0
KOTH 171456Z 14009KT 10SM CLR 01/M01 A3026 RMK AO2 SLP248 T00111006 55002,KOTH,2023-02-17T14:56:00Z,43.42,-124.25,1.1,-0.6,140,9,,10.0,30.259842,1024.8,,,TRUE,,,,,,,CLR,,,,,,,,VFR,-0.2,,,,,,,,,,,METAR,3.0
KOTH 171356Z AUTO 14010KT 10SM CLR 02/M01 A3026 RMK AO2 SLP245 T00171006 FZRANO,KOTH,2023-02-17T13:56:00Z,43.42,-124.25,1.7,-0.6,140,10,,10.0,30.259842,1024.5,,TRUE,TRUE,,,,TRUE,,,CLR,,,,,,,,VFR,,,,,,,,,,,,METAR,3.0
KOTH 171256Z AUTO 14011KT 10SM CLR 02/00 A3026 RMK AO2 SLP246 T00220000 FZRANO,KOTH,2023-02-17T12:56:00Z,43.42,-124.25,2.2,0.0,140,11,,10.0,30.259842,1024.6,,TRUE,TRUE,,,,TRUE,,,CLR,,,,,,,,VFR,,,,,,,,,,,,METAR,3.0
KOTH 171156Z AUTO 15009KT 10SM CLR 02/01 A3027 RMK AO2 SLP250 T00220006 10056 20011 51004 FZRANO,KOTH,2023-02-17T11:56:00Z,43.42,-124.25,2.2,0.6,150,9,,10.0,30.268702,1025.0,,TRUE,TRUE,,,,TRUE,,,CLR,,,,,,,,VFR,0.4,5.6,1.1,,,,,,,,,METAR,3.0
KOTH 171056Z AUTO 14011KT 10SM CLR 02/01 A3027 RMK AO2 SLP250 T00220006 FZRANO,KOTH,2023-02-17T10:56:00Z,43.42,-124.25,2.2,0.6,140,11,,10.0,30.268702,1025.0,,TRUE,TRUE,,,,TRUE,,,CLR,,,,,,,,VFR,,,,,,,,,,,,METAR,3.0
KOTH 170956Z AUTO 15003KT 10SM CLR 02/01 A3027 RMK AO2 SLP249 T00170006 FZRANO,KOTH,2023-02-17T09:56:00Z,43.42,-124.25,1.7,0.6,150,3,,10.0,30.268702,1024.9,,TRUE,TRUE,,,,TRUE,,,CLR,,,,,,,,VFR,,,,,,,,,,,,SPECI,3.0
KOTH 170856Z AUTO 14006KT 10SM CLR 02/01 A3026 RMK AO2 SLP246 T00220011 51012 FZRANO,KOTH,2023-02-17T08:56:00Z,43.42,-124.25,2.2,1.1,140,6,,10.0,30.259842,1024.6,,TRUE,TRUE,,,,TRUE,,,CLR,,,,,,,,VFR,1.2,,,,,,,,,,,METAR,3.0
KOTH 170756Z AUTO 15005KT 10SM CLR 04/02 A3025 RMK AO2 SLP244 T00390022 401000011,KOTH,2023-02-17T07:56:00Z,43.42,-124.25,3.9,2.2,150,5,,10.0,30.250984,1024.4,,TRUE,TRUE,,,,,,,CLR,,,,,,,,VFR,,,,10.0,1.1,,,,,,,METAR,3.0
KOTH 170656Z AUTO 13006KT 10SM FEW100 04/03 A3024 RMK AO2 SLP240 T00390028,KOTH,2023-02-17T06:56:00Z,43.42,-124.25,3.9,2.8,130,6,,10.0,30.239174,1024.0,,TRUE,TRUE,,,,,,,FEW,10000,,,,,,,VFR,,,,,,,,,,,,METAR,3.0
KOTH 170556Z AUTO 16004KT 10SM OVC100 06/03 A3023 RMK AO2 SLP234 T00560033 10100 20056 53014,KOTH,2023-02-17T05:56:00Z,43.42,-124.25,5.6,3.3,160,4,,10.0,30.230314,1023.4,,TRUE,TRUE,,,,,,,OVC,10000,,,,,,,VFR,1.4,10.0,5.6,,,,,,,,,METAR,3.0
KOTH 170456Z 16004KT 9SM OVC100 06/04 A3021 RMK AO2 SLP229 T00610039,KOTH,2023-02-17T04:56:00Z,43.42,-124.25,6.1,3.9,160,4,,9.0,30.209646,1022.9,,,TRUE,,,,,,,OVC,10000,,,,,,,VFR,,,,,,,,,,,,METAR,3.0
KOTH 170356Z 00000KT 10SM OVC100 07/04 A3019 RMK AO2 SLP223 T00670039,KOTH,2023-02-17T03:56:00Z,43.42,-124.25,6.7,3.9,0,0,,10.0,30.188976,1022.3,,,TRUE,,,,,,,OVC,10000,,,,,,,VFR,,,,,,,,,,,,METAR,3.0
KOTH 170256Z 09003KT 10SM FEW075 OVC095 07/04 A3018 RMK AO2 SLP220 T00670039 53004,KOTH,2023-02-17T02:56:00Z,43.42,-124.25,6.7,3.9,90,3,,10.0,30.180119,1022.0,,,TRUE,,,,,,,FEW,7500,OVC,9500,,,,,VFR,0.4,,,,,,,,,,,METAR,3.0
KOTH 170156Z 00000KT 10SM OVC090 09/02 A3017 RMK AO2 SLP215 T00890022,KOTH,2023-02-17T01:56:00Z,43.42,-124.25,8.9,2.2,0,0,,10.0,30.171259,1021.5,,,TRUE,,,,,,,OVC,9000,,,,,,,VFR,,,,,,,,,,,,SPECI,3.0
KOTH 170056Z 22007KT 10SM SCT060 OVC080 09/03 A3018 RMK AO2 SLP219 T00940028,KOTH,2023-02-17T00:56:00Z,43.42,-124.25,9.4,2.8,220,7,,10.0,30.180119,1021.9,,,TRUE,,,,,,,SCT,6000,OVC,8000,,,,,VFR,,,,,,,,,,,,METAR,3.0
KOTH 162356Z 14008KT 10SM OVC070 09/01 A3017 RMK AO2 SLP216 T00940006 10100 20039 58009,KOTH,2023-02-16T23:56:00Z,43.42,-124.25,9.4,0.6,140,8,,10.0,30.171259,1021.6,,,TRUE,,,,,,,OVC,7000,,,,,,,VFR,-0.9,10.0,3.9,,,,,,,,,METAR,3.0
KOTH 162256Z 10006KT 10SM OVC070 08/02 A3019 RMK AO2 SLP223 T00830022,KOTH,2023-02-16T22:56:00Z,43.42,-124.25,8.3,2.2,100,6,,10.0,30.188976,1022.3,,,TRUE,,,,,,,OVC,7000,,,,,,,VFR,,,,,,,,,,,,METAR,3.0
KOTH 162156Z 04003KT 10SM BKN090 08/03 A3019 RMK AO2 SLP221 T00780033,KOTH,2023-02-16T21:56:00Z,43.42,-124.25,7.8,3.3,40,3,,10.0,30.188976,1022.1,,,TRUE,,,,,,,BKN,9000,,,,,,,VFR,,,,,,,,,,,,METAR,3.0
KOTH 162056Z 26004KT 10SM OVC100 07/04 A3020 RMK AO2 SLP225 T00720039 58006,KOTH,2023-02-16T20:56:00Z,43.42,-124.25,7.2,3.9,260,4,,10.0,30.200787,1022.5,,,TRUE,,,,,,,OVC,10000,,,,,,,VFR,-0.6,,,,,,,,,,,METAR,3.0
KOTH 161956Z 00000KT 10SM BKN100 07/02 A3021 RMK AO2 SLP231 T00720017,KOTH,2023-02-16T19:56:00Z,43.42,-124.25,7.2,1.7,0,0,,10.0,30.209646,1023.1,,,TRUE,,,,,,,BKN,10000,,,,,,,VFR,,,,,,,,,,,,SPECI,3.0
KOTH 161856Z 16006KT 10SM CLR 06/02 A3022 RMK AO2 SLP232 T00610017,KOTH,2023-02-16T18:56:00Z,43.42,-124.25,6.1,1.7,160,6,,10.0,30.221457,1023.2,,,TRUE,,,,,,,CLR,,,,,,,,VFR,,,,,,,,,,,,METAR,3.0
KOTH 161756Z 16006KT 10SM CLR 04/02 A3021 RMK AO2 SLP231 T00390017 10039 20011 50003,KOTH,2023-02-16T17:56:00Z,43.42,-124.25,3.9,1.7,160,6,,10.0,30.209646,1023.1,,,TRUE,,,,,,,CLR,,,,,,,,VFR,0.3,3.9,1.1,,,,,,,,,METAR,3.0
KOTH 161656Z 15007KT 10SM CLR 03/02 A3022 RMK AO2 SLP231 T00330017,KOTH,2023-02-16T16:56:00Z,43.42,-124.25,3.3,1.7,150,7,,10.0,30.221457,1023.1,,,TRUE,,,,,,,CLR,,,,,,,,VFR,,,,,,,,,,,,METAR,3.0
KOTH 161556Z 14008KT 10SM CLR 02/01 A3021 RMK AO2 SLP230 T00170006,KOTH,2023-02-16T15:56:00Z,43.42,-124.25,1.7,0.6,140,8,,10.0,30.209646,1023.0,,,TRUE,,,,,,,CLR,,,,,,,,VFR,,,,,,,,,,,,METAR,3.0
KOTH 161456Z 14006KT 10SM CLR 01/00 A3021 RMK AO2 SLP228 T00110000 55000 FZRANO,KOTH,2023-02-16T14:56:00Z,43.42,-124.25,1.1,0.0,140,6,,10.0,30.209646,1022.8,,,TRUE,,,,TRUE,,,CLR,,,,,,,,VFR,0.0,,,,,,,,,,,METAR,3.0
KOTH 161356Z AUTO 14008KT 10SM CLR 02/01 A3020 RMK AO2 SLP227 T00170006 FZRANO,KOTH,2023-02-16T13:56:00Z,43.42,-124.25,1.7,0.6,140,8,,10.0,30.200787,1022.7,,TRUE,TRUE,,,,TRUE,,,CLR,,,,,,,,VFR,,,,,,,,,,,,SPECI,3.0
KOTH 161256Z AUTO 15009KT 10SM CLR 02/01 A3020 RMK AO2 SLP227 T00170006 FZRANO,KOTH,2023-02-16T12:56:00Z,43.42,-124.25,1.7,0.6,150,9,,10.0,30.200787,1022.7,,TRUE,TRUE,,,,TRUE,,,CLR,,,,,,,,VFR,,,,,,,,,,,,METAR,3.0
KOTH 161156Z AUTO 15007KT 10SM CLR 01/01 A3021 RMK AO2 SLP228 7//// T00110006 10033 20011 56007 FZRANO,KOTH,2023-02-16T11:56:00Z,43.42,-124.25,1.1,0.6,150,7,,10.0,30.209646,1022.8,,TRUE,TRUE,,,,TRUE,,,CLR,,,,,,,,VFR,-0.7,3.3,1.1,,,,,,,,,METAR,3.0
KOTH 161056Z AUTO 14004KT 10SM CLR 02/00 A3022 RMK AO2 SLP231 T00170000 FZRANO,KOTH,2023-02-16T10:56:00Z,43.42,-124.25,1.7,0.0,140,4,,10.0,30.221457,1023.1,,TRUE,TRUE,,,,TRUE,,,CLR,,,,,,,,VFR,,,,,,,,,,,,METAR,3.0
KOTH 160956Z AUTO 13006KT 10SM CLR 02/01 A3022 RMK AO2 SLP232 T00170006 FZRANO,KOTH,2023-02-16T09:56:00Z,43.42,-124.25,1.7,0.6,130,6,,10.0,30.221457,1023.2,,TRUE,TRUE,,,,TRUE,,,CLR,,,,,,,,VFR,,,,,,,,,,,,METAR,3.0
KOTH 160856Z AUTO 14006KT 10SM CLR 02/01 A3023 RMK AO2 SLP236 T00220006 58010 FZRANO,KOTH,2023-02-16T08:56:00Z,43.42,-124.25,2.2,0.6,140,6,,10.0,30.230314,1023.6,,TRUE,TRUE,,,,TRUE,,,CLR,,,,,,,,VFR,-1.0,,,,,,,,,,,METAR,3.0
KOTH 160756Z AUTO 16007KT 10SM CLR 03/01 A3024 RMK AO2 SLP240 T00280011 401221017,KOTH,2023-02-16T07:56:00Z,43.42,-124.25,2.8,1.1,160,7,,10.0,30.239174,1024.0,,TRUE,TRUE,,,,,,,CLR,,,,,,,,VFR,,,,12.2,-1.7,,,,,,,METAR,3.0
KOTH 160656Z AUTO 15008KT 10SM CLR 03/02 A3025 RMK AO2 SLP243 T00330017,KOTH,2023-02-16T06:56:00Z,43.42,-124.25,3.3,1.7,150,8,,10.0,30.250984,1024.3,,TRUE,TRUE,,,,,,,CLR,,,,,,,,VFR,,,,,,,,,,,,METAR,3.0
KOTH 160556Z AUTO 14009KT 10SM CLR 03/02 A3026 RMK AO2 SLP246 T00330022 10100 20028 58007,KOTH,2023-02-16T05:56:00Z,43.42,-124.25,3.3,2.2,140,9,,10.0,30.259842,1024.6,,TRUE,TRUE,,,,,,,CLR,,,,,,,,VFR,-0.7,10.0,2.8,,,,,,,,,SPECI,3.0
KOTH 160456Z 15008KT 10SM CLR 04/03 A3027 RMK AO2 SLP249 T00390028,KOTH,2023-02-16T04:56:00Z,43.42,-124.25,3.9,2.8,150,8,,10.0,30.268702,1024.9,,,TRUE,,,,,,,CLR,,,,,,,,VFR,,,,,,,,,,,,METAR,3.0
KOTH 160356Z 15007KT 10SM CLR 03/02 A3027 RMK AO2 SLP250 T00330022,KOTH,2023-02-16T03:56:00Z,43.42,-124.25,3.3,2.2,150,7,,10.0,30.268702,1025.0,,,TRUE,,,,,,,CLR,,,,,,,,VFR,,,,,,,,,,,,SPECI,3.0
KOTH 160256Z 17005KT 10SM FEW008 06/04 A3028 RMK AO2 SLP253 T00610039 55001,KOTH,2023-02-16T02:56:00Z,43.42,-124.25,6.1,3.9,170,5,,10.0,30.280512,1025.3,,,TRUE,,,,,,,FEW,800,,,,,,,VFR,-0.1,,,,,,,,,,,METAR,3.0
KOTH 160253Z 18004KT 9SM FEW008 06/04 A3028 RMK AO2,KOTH,2023-02-16T02:53:00Z,43.42,-124.25,6.0,4.0,180,4,,9.0,30.280512,,,,TRUE,,,,,,,FEW,800,,,,,,,VFR,,,,,,,,,,,,SPECI,3.0
KOTH 160156Z 30003KT 7SM CLR 08/04 A3028 RMK AO2 SLP254 T00830044,KOTH,2023-02-16T01:56:00Z,43.42,-124.25,8.3,4.4,300,3,,7.0,30.280512,1025.4,,,TRUE,,,,,,,CLR,,,,,,,,VFR,,,,,,,,,,,,METAR,3.0
KOTH 160056Z 31005KT 10SM CLR 09/04 A3028 RMK AO2 SLP254 T00940039,KOTH,2023-02-16T00:56:00Z,43.42,-124.25,9.4,3.9,310,5,,10.0,30.280512,1025.4,,,TRUE,,,,,,,CLR,,,,,,,,VFR,,,,,,,,,,,,SPECI,3.0
KOTH 152356Z 31008KT 10SM CLR 10/04 A3029 RMK AO2 SLP258 6//// T01000044 10122 20044 56017,KOTH,2023-02-15T23:56:00Z,43.42,-124.25,10.0,4.4,310,8,,10.0,30.28937,1025.8,,,TRUE,,,,,,,CLR,,,,,,,,VFR,-1.7,12.2,4.4,,,,,,,,,METAR,3.0
KOTH 152256Z 16005KT 10SM CLR 12/02 A3030 RMK AO2 SLP261 T01170017,KOTH,2023-02-15T22:56:00Z,43.42,-124.25,11.7,1.7,160,5,,10.0,30.301182,1026.1,,,TRUE,,,,,,,CLR,,,,,,,,VFR,,,,,,,,,,,,METAR,3.0
KOTH 152156Z 30003KT 10SM CLR 10/03 A3032 RMK AO2 SLP267 T01000028,KOTH,2023-02-15T21:56:00Z,43.42,-124.25,10.0,2.8,300,3,,10.0,30.318897,1026.7,,,TRUE,,,,,,,CLR,,,,,,,,VFR,,,,,,,,,,,,METAR,3.0
KOTH 152056Z 32003KT 10SM CLR 08/02 A3035 RMK AO2 SLP275 T00830017 58010,KOTH,2023-02-15T20:56:00Z,43.42,-124.25,8.3,1.7,320,3,,10.0,30.351377,1027.5,,,TRUE,,,,,,,CLR,,,,,,,,VFR,-1.0,,,,,,,,,,,METAR,3.0
KOTH 151956Z 28005KT 10SM CLR 07/02 A3038 RMK AO2 SLP286 T00670017,KOTH,2023-02-15T19:56:00Z,43.42,-124.25,6.7,1.7,280,5,,10.0,30.380905,1028.6,,,TRUE,,,,,,,CLR,,,,,,,,VFR,,,,,,,,,,,,METAR,3.0
KOTH 151856Z 00000KT 10SM CLR 06/00 A3038 RMK AO2 SLP288 T00560000,KOTH,2023-02-15T18:56:00Z,43.42,-124.25,5.6,0.0,0,0,,10.0,30.380905,1028.8,,,TRUE,,,,,,,CLR,,,,,,,,VFR,,,,,,,,,,,,METAR,3.0
KOTH 151756Z 06005KT 10SM CLR 05/01 A3038 RMK AO2 SLP285 T00500011 10050 21017 50001,KOTH,2023-02-15T17:56:00Z,43.42,-124.25,5.0,1.1,60,5,,10.0,30.380905,1028.5,,,TRUE,,,,,,,CLR,,,,,,,,VFR,0.1,5.0,-1.7,,,,,,,,,METAR,3.0
KOTH 151656Z 13004KT 10SM CLR 02/00 A3039 RMK AO2 SLP289 T00170000,KOTH,2023-02-15T16:56:00Z,43.42,-124.25,1.7,0.0,130,4,,10.0,30.389763,1028.9,,,TRUE,,,,,,,CLR,,,,,,,,VFR,,,,,,,,,,,,METAR,3.0
KOTH 151556Z 10009KT 10SM CLR 01/M01 A3039 RMK AO2 SLP289 T00061006,KOTH,2023-02-15T15:56:00Z,43.42,-124.25,0.6,-0.6,100,9,,10.0,30.389763,1028.9,,,TRUE,,,,,,,CLR,,,,,,,,VFR,,,,,,,,,,,,METAR,3.0
KOTH 151456Z AUTO 10009KT 10SM CLR 00/M01 A3037 RMK AO2 SLP284 T00001006 58007 FZRANO,KOTH,2023-02-15T14:56:00Z,43.42,-124.25,0.0,-0.6,100,9,,10.0,30.369095,1028.4,,TRUE,TRUE,,,,TRUE,,,CLR,,,,,,,,VFR,-0.7,,,,,,,,,,,SPECI,3.0
KOTH 151356Z AUTO 14006KT 10SM CLR M01/M01 A3039 RMK AO2 SLP289 T10061011 FZRANO,KOTH,2023-02-15T13:56:00Z,43.42,-124.25,-0.6,-1.1,140,6,,10.0,30.389763,1028.9,,TRUE,TRUE,,,,TRUE,,,CLR,,,,,,,,VFR,,,,,,,,,,,,METAR,3.0
KOTH 151256Z AUTO 12005KT 10SM CLR M01/M01 A3039 RMK AO2 SLP291 T10061011 FZRANO,KOTH,2023-02-15T12:56:00Z,43.42,-124.25,-0.6,-1.1,120,5,,10.0,30.389763,1029.1,,TRUE,TRUE,,,,TRUE,,,CLR,,,,,,,,VFR,,,,,,,,,,,,METAR,3.0
