No errors
No warnings
21 ms
data source=metars
504 results
raw_text,station_id,observation_time,latitude,longitude,temp_c,dewpoint_c,wind_dir_degrees,wind_speed_kt,wind_gust_kt,visibility_statute_mi,altim_in_hg,sea_level_pressure_mb,corrected,auto,auto_station,maintenance_indicator_on,no_signal,lightning_sensor_off,freezing_rain_sensor_off,present_weather_sensor_off,wx_string,sky_cover,cloud_base_ft_agl,sky_cover,cloud_base_ft_agl,sky_cover,cloud_base_ft_agl,sky_cover,cloud_base_ft_agl,flight_category,three_hr_pressure_tendency_mb,maxT_c,minT_c,maxT24hr_c,minT24hr_c,precip_in,pcp3hr_in,pcp6hr_in,pcp24hr_in,snow_in,vert_vis_ft,metar_type,elevation_m
KPDX 152053Z 12003KT 10SM FEW035 SCT050 BKN070 10/00 A3025 RMK AO2 RAE1957 SLP241 P0000 60000 T01000000 51009,KPDX,2023-03-15T20:53:00Z,45.6,-122.62,10.0,0.0,120,3,,10.0,30.250984,1024.1,,,TRUE,,,,,,,FEW,3500,SCT,5000,BKN,7000,,,VFR,0.9,,,,,0.005,0.005,,,,,METAR,7.0
KPDX 151953Z 00000KT 10SM -RA SCT042 BKN050 08/02 A3024 RMK AO2 RAB13 SLP241 P0000 T00830017,KPDX,2023-03-15T19:53:00Z,45.6,-122.62,8.3,1.7,0,0,,10.0,30.239174,1024.1,,,TRUE,,,,,,-RA,SCT,4200,BKN,5000,,,,,VFR,,,,,,0.005,,,,,,METAR,7.0
KPDX 151853Z VRB03KT 10SM BKN031 BKN047 09/01 A3023 RMK AO2 SLP237 T00890011,KPDX,2023-03-15T18:53:00Z,45.6,-122.62,8.9,1.1,0,3,,10.0,30.230314,1023.7,,,TRUE,,,,,,,BKN,3100,BKN,4700,,,,,VFR,,,,,,,,,,,,METAR,7.0
KPDX 151832Z VRB03KT 10SM SCT021 BKN050 09/02 A3023 RMK AO2 T00940017,KPDX,2023-03-15T18:32:00Z,45.6,-122.62,9.4,1.7,0,3,,10.0,30.230314,,,,TRUE,,,,,,,SCT,2100,BKN,5000,,,,,VFR,,,,,,,,,,,,METAR,7.0
KPDX 151753Z 00000KT 10SM BKN021 09/02 A3022 RMK AO2 SLP233 60000 T00890017 10089 20050 51025,KPDX,2023-03-15T17:53:00Z,45.6,-122.62,8.9,1.7,0,0,,10.0,30.221457,1023.3,,,TRUE,,,,,,,BKN,2100,,,,,,,MVFR,2.5,8.9,5.0,,,,,0.005,,,,METAR,7.0
KPDX 151653Z 22003KT 10SM FEW030 FEW065 07/03 A3020 RMK AO2 SLP226 T00720033,KPDX,2023-03-15T16:53:00Z,45.6,-122.62,7.2,3.3,220,3,,10.0,30.200787,1022.6,,,TRUE,,,,,,,FEW,3000,FEW,6500,,,,,VFR,,,,,,,,,,,,METAR,7.0
KPDX 151553Z 20005KT 10SM FEW015 SCT039 BKN065 06/03 A3018 RMK AO2 RAB05E17 SLP217 P0000 T00610033,KPDX,2023-03-15T15:53:00Z,45.6,-122.62,6.1,3.3,200,5,,10.0,30.180119,1021.7,,,TRUE,,,,,,,FEW,1500,SCT,3900,BKN,6500,,,VFR,,,,,,0.005,,,,,,METAR,7.0
KPDX 151453Z 00000KT 10SM FEW031 SCT042 BKN050 06/02 A3015 RMK AO2 SLP207 T00560022 51033,KPDX,2023-03-15T14:53:00Z,45.6,-122.62,5.6,2.2,0,0,,10.0,30.15059,1020.7,,,TRUE,,,,,,,FEW,3100,SCT,4200,BKN,5000,,,VFR,3.3,,,,,,,,,,,METAR,7.0
KPDX 151353Z 20005KT 10SM SCT034 BKN080 05/02 A3012 RMK AO2 SLP198 T00500022,KPDX,2023-03-15T13:53:00Z,45.6,-122.62,5.0,2.2,200,5,,10.0,30.121063,1019.8,,,TRUE,,,,,,,SCT,3400,BKN,8000,,,,,VFR,,,,,,,,,,,,METAR,7.0
KPDX 151253Z 00000KT 10SM FEW033 OVC070 06/03 A3009 RMK AO2 SLP187 T00560028,KPDX,2023-03-15T12:53:00Z,45.6,-122.62,5.6,2.8,0,0,,10.0,30.088583,1018.7,,,TRUE,,,,,,,FEW,3300,OVC,7000,,,,,VFR,,,,,,,,,,,,METAR,7.0
KPDX 151227Z 22005KT 10SM SCT033 BKN050 OVC065 06/03 A3007 RMK AO2 T00560028,KPDX,2023-03-15T12:27:00Z,45.6,-122.62,5.6,2.8,220,5,,10.0,30.070866,,,,TRUE,,,,,,,SCT,3300,BKN,5000,OVC,6500,,,VFR,,,,,,,,,,,,SPECI,7.0
KPDX 151153Z 20008KT 10SM OVC028 06/03 A3005 RMK AO2 RAE28 SLP174 P0002 60003 70003 T00560028 10072 20050 51031,KPDX,2023-03-15T11:53:00Z,45.6,-122.62,5.6,2.8,200,8,,10.0,30.050198,1017.4,,,TRUE,,,,,,,OVC,2800,,,,,,,MVFR,3.1,7.2,5.0,,,0.02,,0.03,0.03,,,METAR,7.0
KPDX 151053Z 22005KT 10SM -RA OVC038 06/02 A3002 RMK AO2 RAB22 SLP165 P0001 T00560022,KPDX,2023-03-15T10:53:00Z,45.6,-122.62,5.6,2.2,220,5,,10.0,30.02067,1016.5,,,TRUE,,,,,,-RA,OVC,3800,,,,,,,VFR,,,,,,0.01,,,,,,METAR,7.0
KPDX 150953Z 17006KT 10SM FEW080 OVC095 06/02 A2999 RMK AO2 SLP155 T00560017,KPDX,2023-03-15T09:53:00Z,45.6,-122.62,5.6,1.7,170,6,,10.0,29.991142,1015.5,,,TRUE,,,,,,,FEW,8000,OVC,9500,,,,,VFR,,,,,,,,,,,,METAR,7.0
KPDX 150853Z 18003KT 10SM FEW060 SCT080 06/01 A2996 RMK AO2 SLP143 T00560011 53037,KPDX,2023-03-15T08:53:00Z,45.6,-122.62,5.6,1.1,180,3,,10.0,29.958662,1014.3,,,TRUE,,,,,,,FEW,6000,SCT,8000,,,,,VFR,3.7,,,,,,,,,,,METAR,7.0
KPDX 150753Z 15003KT 10SM SCT060 BKN080 06/01 A2992 RMK AO2 SLP131 T00610011 401280017,KPDX,2023-03-15T07:53:00Z,45.6,-122.62,6.1,1.1,150,3,,10.0,29.920275,1013.1,,,TRUE,,,,,,,SCT,6000,BKN,8000,,,,,VFR,,,,12.8,1.7,,,,,,,METAR,7.0
KPDX 150653Z 00000KT 10SM FEW065 BKN080 07/01 A2988 RMK AO2 SLP117 T00670006,KPDX,2023-03-15T06:53:00Z,45.6,-122.62,6.7,0.6,0,0,,10.0,29.878937,1011.7,,,TRUE,,,,,,,FEW,6500,BKN,8000,,,,,VFR,,,,,,,,,,,,METAR,7.0
KPDX 150553Z 00000KT 10SM SCT050 SCT250 07/01 A2985 RMK AO2 SLP106 T00670011 10122 20061 53047,KPDX,2023-03-15T05:53:00Z,45.6,-122.62,6.7,1.1,0,0,,10.0,29.84941,1010.6,,,TRUE,,,,,,,SCT,5000,SCT,25000,,,,,VFR,4.7,12.2,6.1,,,,,,,,,METAR,7.0
KPDX 150453Z 31006KT 10SM FEW050 BKN250 07/01 A2980 RMK AO2 SLP090 T00720011,KPDX,2023-03-15T04:53:00Z,45.6,-122.62,7.2,1.1,310,6,,10.0,29.799213,1009.0,,,TRUE,,,,,,,FEW,5000,BKN,25000,,,,,VFR,,,,,,,,,,,,SPECI,7.0
KPDX 150353Z 33008KT 10SM FEW050 BKN250 08/01 A2975 RMK AO2 SLP073 T00780011,KPDX,2023-03-15T03:53:00Z,45.6,-122.62,7.8,1.1,330,8,,10.0,29.749016,1007.3,,,TRUE,,,,,,,FEW,5000,BKN,25000,,,,,VFR,,,,,,,,,,,,METAR,7.0
KPDX 150253Z 29005KT 10SM SCT050 BKN250 10/M01 A2971 RMK AO2 SLP059 T01001011 53015,KPDX,2023-03-15T02:53:00Z,45.6,-122.62,10.0,-1.1,290,5,,10.0,29.71063,1005.9,,,TRUE,,,,,,,SCT,5000,BKN,25000,,,,,VFR,1.5,,,,,,,,,,,METAR,7.0
KPDX 150153Z 31008KT 10SM SCT050 BKN250 11/01 A2967 RMK AO2 SLP048 T01110006,KPDX,2023-03-15T01:53:00Z,45.6,-122.62,11.1,0.6,310,8,,10.0,29.66929,1004.8,,,TRUE,,,,,,,SCT,5000,BKN,25000,,,,,VFR,,,,,,,,,,,,METAR,7.0
KPDX 150053Z 30008KT 10SM SCT050 BKN250 12/01 A2966 RMK AO2 SLP043 T01170006,KPDX,2023-03-15T00:53:00Z,45.6,-122.62,11.7,0.6,300,8,,10.0,29.660433,1004.3,,,TRUE,,,,,,,SCT,5000,BKN,25000,,,,,VFR,,,,,,,,,,,,METAR,7.0
KPDX 142353Z 30008KT 10SM SCT050 BKN250 12/01 A2966 RMK AO2 SLP044 T01170011 10128 20067 56022,KPDX,2023-03-14T23:53:00Z,45.6,-122.62,11.7,1.1,300,8,,10.0,29.660433,1004.4,,,TRUE,,,,,,,SCT,5000,BKN,25000,,,,,VFR,-2.2,12.8,6.7,,,,,,,,,METAR,7.0
KPDX 142253Z 00000KT 10SM SCT050 SCT250 13/01 A2967 RMK AO2 SLP046 T01280006,KPDX,2023-03-14T22:53:00Z,45.6,-122.62,12.8,0.6,0,0,,10.0,29.66929,1004.6,,,TRUE,,,,,,,SCT,5000,SCT,25000,,,,,VFR,,,,,,,,,,,,SPECI,7.0
KPDX 142153Z 29007KT 10SM FEW049 SCT250 12/01 A2970 RMK AO2 SLP055 T01220011,KPDX,2023-03-14T21:53:00Z,45.6,-122.62,12.2,1.1,290,7,,10.0,29.698818,1005.5,,,TRUE,,,,,,,FEW,4900,SCT,25000,,,,,VFR,,,,,,,,,,,,METAR,7.0
KPDX 142053Z 33004KT 10SM FEW010 FEW030 SCT250 12/02 A2973 RMK AO2 SLP066 T01170022 57031,KPDX,2023-03-14T20:53:00Z,45.6,-122.62,11.7,2.2,330,4,,10.0,29.731298,1006.6,,,TRUE,,,,,,,FEW,1000,FEW,3000,SCT,25000,,,VFR,-3.1,,,,,,,,,,,METAR,7.0
KPDX 141953Z 31004KT 10SM FEW010 FEW029 BKN250 10/03 A2976 RMK AO2 SLP076 T01000028,KPDX,2023-03-14T19:53:00Z,45.6,-122.62,10.0,2.8,310,4,,10.0,29.760826,1007.6,,,TRUE,,,,,,,FEW,1000,FEW,2900,BKN,25000,,,VFR,,,,,,,,,,,,METAR,7.0
KPDX 141853Z 29006KT 10SM SCT015 BKN250 08/03 A2979 RMK AO2 SLP086 T00830033,KPDX,2023-03-14T18:53:00Z,45.6,-122.62,8.3,3.3,290,6,,10.0,29.790354,1008.6,,,TRUE,,,,,,,SCT,1500,BKN,25000,,,,,VFR,,,,,,,,,,,,METAR,7.0
KPDX 141753Z 27005KT 10SM FEW008 BKN250 07/03 A2982 RMK AO2 SLP097 T00670028 10067 20017 56027,KPDX,2023-03-14T17:53:00Z,45.6,-122.62,6.7,2.8,270,5,,10.0,29.819881,1009.7,,,TRUE,,,,,,,FEW,800,BKN,25000,,,,,VFR,-2.7,6.7,1.7,,,,,,,,,METAR,7.0
KPDX 141653Z 29005KT 10SM SCT008 BKN250 06/03 A2985 RMK AO2 SLP107 T00560028,KPDX,2023-03-14T16:53:00Z,45.6,-122.62,5.6,2.8,290,5,,10.0,29.84941,1010.7,,,TRUE,,,,,,,SCT,800,BKN,25000,,,,,VFR,,,,,,,,,,,,SPECI,7.0
KPDX 141553Z 00000KT 10SM FEW008 BKN250 04/02 A2987 RMK AO2 SLP116 T00440022,KPDX,2023-03-14T15:53:00Z,45.6,-122.62,4.4,2.2,0,0,,10.0,29.870079,1011.6,,,TRUE,,,,,,,FEW,800,BKN,25000,,,,,VFR,,,,,,,,,,,,METAR,7.0
KPDX 141549Z 32003KT 10SM SCT006 BKN250 04/03 A2987 RMK AO2,KPDX,2023-03-14T15:49:00Z,45.6,-122.62,4.0,3.0,320,3,,10.0,29.870079,,,,TRUE,,,,,,,SCT,600,BKN,25000,,,,,VFR,,,,,,,,,,,,SPECI,7.0
KPDX 141517Z 00000KT 10SM BKN006 03/02 A2989 RMK AO2 T00330017,KPDX,2023-03-14T15:17:00Z,45.6,-122.62,3.3,1.7,0,0,,10.0,29.890747,,,,TRUE,,,,,,,BKN,600,,,,,,,IFR,,,,,,,,,,,,SPECI,7.0
KPDX 141453Z 00000KT 10SM FEW004 FEW040 BKN250 02/01 A2990 RMK AO2 SLP126 T00220006 56015,KPDX,2023-03-14T14:53:00Z,45.6,-122.62,2.2,0.6,0,0,,10.0,29.899607,1012.6,,,TRUE,,,,,,,FEW,400,FEW,4000,BKN,25000,,,VFR,-1.5,,,,,,,,,,,METAR,7.0
KPDX 141353Z 12004KT 10SM FEW030 SCT250 03/02 A2991 RMK AO2 SLP129 T00330017,KPDX,2023-03-14T13:53:00Z,45.6,-122.62,3.3,1.7,120,4,,10.0,29.911417,1012.9,,,TRUE,,,,,,,FEW,3000,SCT,25000,,,,,VFR,,,,,,,,,,,,METAR,7.0
KPDX 141253Z 09005KT 10SM BKN031 04/02 A2993 RMK AO2 SLP136 T00390022,KPDX,2023-03-14T12:53:00Z,45.6,-122.62,3.9,2.2,90,5,,10.0,29.929134,1013.6,,,TRUE,,,,,,,BKN,3100,,,,,,,VFR,,,,,,,,,,,,METAR,7.0
KPDX 141153Z 11004KT 10SM SCT013 OVC045 04/02 A2995 RMK AO2 SLP141 70107 T00390017 10056 20039 58005,KPDX,2023-03-14T11:53:00Z,45.6,-122.62,3.9,1.7,110,4,,10.0,29.949802,1014.1,,,TRUE,,,,,,,SCT,1300,OVC,4500,,,,,VFR,-0.5,5.6,3.9,,,,,,1.07,,,METAR,7.0
KPDX 141100Z 13003KT 10SM SCT013 OVC045 04/02 A2996 RMK AO2 T00440022,KPDX,2023-03-14T11:00:00Z,45.6,-122.62,4.4,2.2,130,3,,10.0,29.958662,,,,TRUE,,,,,,,SCT,1300,OVC,4500,,,,,VFR,,,,,,,,,,,,METAR,7.0
KPDX 141053Z 00000KT 10SM BKN013 BKN036 OVC045 05/02 A2995 RMK AO2 SLP142 T00500022,KPDX,2023-03-14T10:53:00Z,45.6,-122.62,5.0,2.2,0,0,,10.0,29.949802,1014.2,,,TRUE,,,,,,,BKN,1300,BKN,3600,OVC,4500,,,MVFR,,,,,,,,,,,,METAR,7.0
KPDX 140953Z 17004KT 10SM BKN013 OVC034 05/02 A2997 RMK AO2 SLP148 T00500022,KPDX,2023-03-14T09:53:00Z,45.6,-122.62,5.0,2.2,170,4,,10.0,29.970472,1014.8,,,TRUE,,,,,,,BKN,1300,OVC,3400,,,,,MVFR,,,,,,,,,,,,METAR,7.0
KPDX 140910Z 13003KT 10SM BKN012 OVC041 05/02 A2997 RMK AO2 T00500022,KPDX,2023-03-14T09:10:00Z,45.6,-122.62,5.0,2.2,130,3,,10.0,29.970472,,,,TRUE,,,,,,,BKN,1200,OVC,4100,,,,,MVFR,,,,,,,,,,,,SPECI,7.0
KPDX 140853Z 00000KT 10SM SCT014 SCT033 BKN041 05/02 A2996 RMK AO2 SLP145 T00500022 50003,KPDX,2023-03-14T08:53:00Z,45.6,-122.62,5.0,2.2,0,0,,10.0,29.958662,1014.5,,,TRUE,,,,,,,SCT,1400,SCT,3300,BKN,4100,,,VFR,0.3,,,,,,,,,,,METAR,7.0
KPDX 140753Z 19006KT 10SM BKN013 05/02 A2996 RMK AO2 SLP145 T00500022 400830050,KPDX,2023-03-14T07:53:00Z,45.6,-122.62,5.0,2.2,190,6,,10.0,29.958662,1014.5,,,TRUE,,,,,,,BKN,1300,,,,,,,MVFR,,,,8.3,5.0,,,,,,,METAR,7.0
KPDX 140722Z 19006KT 10SM BKN013 BKN017 06/02 A2997 RMK AO2 T00560022,KPDX,2023-03-14T07:22:00Z,45.6,-122.62,5.6,2.2,190,6,,10.0,29.970472,,,,TRUE,,,,,,,BKN,1300,BKN,1700,,,,,MVFR,,,,,,,,,,,,SPECI,7.0
KPDX 140653Z 16003KT 10SM BKN016 06/02 A2996 RMK AO2 SLP145 T00560022,KPDX,2023-03-14T06:53:00Z,45.6,-122.62,5.6,2.2,160,3,,10.0,29.958662,1014.5,,,TRUE,,,,,,,BKN,1600,,,,,,,MVFR,,,,,,,,,,,,METAR,7.0
KPDX 140553Z 19006KT 10SM BKN014 BKN040 06/03 A2995 RMK AO2 SLP141 60004 T00560028 10072 20050 51023,KPDX,2023-03-14T05:53:00Z,45.6,-122.62,5.6,2.8,190,6,,10.0,29.949802,1014.1,,,TRUE,,,,,,,BKN,1400,BKN,4000,,,,,MVFR,2.3,7.2,5.0,,,,,,,,,SPECI,7.0
KPDX 140453Z 15006KT 10SM BKN012 BKN050 BKN110 06/03 A2993 RMK AO2 SLP134 T00560028,KPDX,2023-03-14T04:53:00Z,45.6,-122.62,5.6,2.8,150,6,,10.0,29.929134,1013.4,,,TRUE,,,,,,,BKN,1200,BKN,5000,BKN,11000,,,MVFR,,,,,,,,,,,,METAR,7.0
KPDX 140416Z 14006KT 10SM BKN012 BKN050 BKN110 06/03 A2992 RMK AO2 T00560028,KPDX,2023-03-14T04:16:00Z,45.6,-122.62,5.6,2.8,140,6,,10.0,29.920275,,,,TRUE,,,,,,,BKN,1200,BKN,5000,BKN,11000,,,MVFR,,,,,,,,,,,,METAR,7.0
KPDX 140353Z 13006KT 10SM SCT016 SCT050 06/03 A2991 RMK AO2 SLP126 T00560028,KPDX,2023-03-14T03:53:00Z,45.6,-122.62,5.6,2.8,130,6,,10.0,29.911417,1012.6,,,TRUE,,,,,,,SCT,1600,SCT,5000,,,,,VFR,,,,,,,,,,,,METAR,7.0
KPDX 140253Z 20007KT 10SM FEW015 SCT037 SCT045 06/03 A2988 RMK AO2 SLP118 60004 T00560028 53016,KPDX,2023-03-14T02:53:00Z,45.6,-122.62,5.6,2.8,200,7,,10.0,29.878937,1011.8,,,TRUE,,,,,,,FEW,1500,SCT,3700,SCT,4500,,,VFR,1.6,,,,,,0.04,,,,,METAR,7.0
KPDX 140233Z 19006KT 10SM SCT017 BKN030 BKN045 06/03 A2987 RMK AO2 T00610033,KPDX,2023-03-14T02:33:00Z,45.6,-122.62,6.1,3.3,190,6,,10.0,29.870079,,,,TRUE,,,,,,,SCT,1700,BKN,3000,BKN,4500,,,MVFR,,,,,,,,,,,,SPECI,7.0
KPDX 140153Z 00000KT 10SM BKN015 BKN019 BKN070 06/03 A2986 RMK AO2 RAB10E45 SLP112 P0004 T00610033,KPDX,2023-03-14T01:53:00Z,45.6,-122.62,6.1,3.3,0,0,,10.0,29.861221,1011.2,,,TRUE,,,,,,,BKN,1500,BKN,1900,BKN,7000,,,MVFR,,,,,,0.04,,,,,,SPECI,7.0
KPDX 140139Z 00000KT 10SM -RA BKN013 BKN019 BKN065 06/03 A2986 RMK AO2 RAB10 P0004 T00560033,KPDX,2023-03-14T01:39:00Z,45.6,-122.62,5.6,3.3,0,0,,10.0,29.861221,,,,TRUE,,,,,,-RA,BKN,1300,BKN,1900,BKN,6500,,,MVFR,,,,,,0.04,,,,,,SPECI,7.0
KPDX 140109Z 25009KT 220V280 10SM BKN015 BKN032 BKN041 BKN250 07/04 A2985 RMK AO2 T00670039,KPDX,2023-03-14T01:09:00Z,45.6,-122.62,6.7,3.9,250,9,,10.0,29.84941,,,,TRUE,,,,,,,BKN,1500,BKN,3200,BKN,4100,BKN,25000,MVFR,,,,,,,,,,,,SPECI,7.0
KPDX 140053Z 20011KT 10SM SCT016 BKN031 BKN048 07/04 A2984 RMK AO2 RAB2355E13B17E26B40E51 SLP104 P0000 T00670039,KPDX,2023-03-14T00:53:00Z,45.6,-122.62,6.7,3.9,200,11,,10.0,29.840551,1010.4,,,TRUE,,,,,,,SCT,1600,BKN,3100,BKN,4800,,,VFR,,,,,,0.005,,,,,,METAR,7.0
KPDX 140044Z 19007KT 10SM -RA SCT016 BKN031 BKN048 07/04 A2984 RMK AO2 RAB2355E13B17E26B40 P0000 T00720044,KPDX,2023-03-14T00:44:00Z,45.6,-122.62,7.2,4.4,190,7,,10.0,29.840551,,,,TRUE,,,,,,-RA,SCT,1600,BKN,3100,BKN,4800,,,VFR,,,,,,0.005,,,,,,SPECI,7.0
KPDX 140026Z 19007KT 10SM SCT011 BKN018 OVC024 07/04 A2984 RMK AO2 RAB2355E13B17E26 P0000 T00670039,KPDX,2023-03-14T00:26:00Z,45.6,-122.62,6.7,3.9,190,7,,10.0,29.840551,,,,TRUE,,,,,,,SCT,1100,BKN,1800,OVC,2400,,,MVFR,,,,,,0.005,,,,,,SPECI,7.0
KPDX 140015Z 19008KT 10SM BKN011 OVC016 06/04 A2984 RMK AO2 RAB2355E13 P0000 T00610039,KPDX,2023-03-14T00:15:00Z,45.6,-122.62,6.1,3.9,190,8,,10.0,29.840551,,,,TRUE,,,,,,,BKN,1100,OVC,1600,,,,,MVFR,,,,,,0.005,,,,,,SPECI,7.0
KPDX 132353Z 16008KT 10SM BKN008 BKN013 OVC020 06/04 A2983 RMK AO2 RAE2258 SLP102 P0000 60037 T00610039 10072 20050 53007,KPDX,2023-03-13T23:53:00Z,45.6,-122.62,6.1,3.9,160,8,,10.0,29.828741,1010.2,,,TRUE,,,,,,,BKN,800,BKN,1300,OVC,2000,,,IFR,0.7,7.2,5.0,,,0.005,,0.37,,,,METAR,7.0
KPDX 132332Z 09012KT 10SM OVC009 05/03 A2983 RMK AO2 RAE2258 CIG 007V012 P0000 T00500033,KPDX,2023-03-13T23:32:00Z,45.6,-122.62,5.0,3.3,90,12,,10.0,29.828741,,,,TRUE,,,,,,,OVC,900,,,,,,,IFR,,,,,,0.005,,,,,,METAR,7.0
KPDX 132300Z 16004KT 10SM OVC012 07/04 A2983 RMK AO2 RAE2258 P0000 T00670039,KPDX,2023-03-13T23:00:00Z,45.6,-122.62,6.7,3.9,160,4,,10.0,29.828741,,,,TRUE,,,,,,,OVC,1200,,,,,,,MVFR,,,,,,0.005,,,,,,SPECI,7.0
KPDX 132253Z 14006KT 10SM -RA SCT011 OVC016 07/04 A2982 RMK AO2 SLP097 P0002 T00670044,KPDX,2023-03-13T22:53:00Z,45.6,-122.62,6.7,4.4,140,6,,10.0,29.819881,1009.7,,,TRUE,,,,,,-RA,SCT,1100,OVC,1600,,,,,MVFR,,,,,,0.02,,,,,,METAR,7.0
KPDX 132250Z 15005KT 10SM -RA SCT011 OVC016 07/04 A2982 RMK AO2 P0002,KPDX,2023-03-13T22:50:00Z,45.6,-122.62,7.0,4.0,150,5,,10.0,29.819881,,,,TRUE,,,,,,-RA,SCT,1100,OVC,1600,,,,,MVFR,,,,,,0.02,,,,,,METAR,7.0
KPDX 132218Z 10010KT 9SM -RA BKN013 OVC019 06/04 A2982 RMK AO2 P0001 T00560039,KPDX,2023-03-13T22:18:00Z,45.6,-122.62,5.6,3.9,100,10,,9.0,29.819881,,,,TRUE,,,,,,-RA,BKN,1300,OVC,1900,,,,,MVFR,,,,,,0.01,,,,,,SPECI,7.0
KPDX 132153Z 11008KT 9SM -RA FEW015 BKN029 OVC036 06/03 A2982 RMK AO2 SLP095 P0007 T00610033,KPDX,2023-03-13T21:53:00Z,45.6,-122.62,6.1,3.3,110,8,,9.0,29.819881,1009.5,,,TRUE,,,,,,-RA,FEW,1500,BKN,2900,OVC,3600,,,MVFR,,,,,,0.07,,,,,,METAR,7.0
KPDX 132053Z 10009KT 9SM -RA BKN016 BKN022 OVC040 06/04 A2981 RMK AO2 SLP094 P0008 60028 T00610039 51024,KPDX,2023-03-13T20:53:00Z,45.6,-122.62,6.1,3.9,100,9,,9.0,29.811024,1009.4,,,TRUE,,,,,,-RA,BKN,1600,BKN,2200,OVC,4000,,,MVFR,2.4,,,,,0.08,0.28,,,,,METAR,7.0
KPDX 131953Z 07003KT 8SM -RA FEW019 OVC029 07/03 A2980 RMK AO2 SLP090 P0010 T00670033,KPDX,2023-03-13T19:53:00Z,45.6,-122.62,6.7,3.3,70,3,,8.0,29.799213,1009.0,,,TRUE,,,,,,-RA,FEW,1900,OVC,2900,,,,,MVFR,,,,,,0.1,,,,,,METAR,7.0
KPDX 131853Z 00000KT 4SM -RA BR FEW010 BKN022 OVC028 07/05 A2978 RMK AO2 SLP082 P0010 T00720050,KPDX,2023-03-13T18:53:00Z,45.6,-122.62,7.2,5.0,0,0,,4.0,29.778543,1008.2,,,TRUE,,,,,,-RA BR,FEW,1000,BKN,2200,OVC,2800,,,MVFR,,,,,,0.1,,,,,,METAR,7.0
KPDX 131829Z 31004KT 4SM -RA BR FEW019 OVC026 07/05 A2976 RMK AO2 P0006 T00670050,KPDX,2023-03-13T18:29:00Z,45.6,-122.62,6.7,5.0,310,4,,4.0,29.760826,,,,TRUE,,,,,,-RA BR,FEW,1900,OVC,2600,,,,,MVFR,,,,,,0.06,,,,,,SPECI,7.0
KPDX 131753Z 32006KT 7SM -RA FEW019 BKN036 OVC045 07/05 A2974 RMK AO2 SLP069 P0007 60066 T00720050 10083 20067 53016,KPDX,2023-03-13T17:53:00Z,45.6,-122.62,7.2,5.0,320,6,,7.0,29.740158,1006.9,,,TRUE,,,,,,-RA,FEW,1900,BKN,3600,OVC,4500,,,VFR,1.6,8.3,6.7,,,0.07,,0.66,,,,METAR,7.0
KPDX 131653Z 32005KT 3SM RA BR FEW023 OVC036 07/06 A2971 RMK AO2 TWR VIS 4 SLP061 P0018 T00720056,KPDX,2023-03-13T16:53:00Z,45.6,-122.62,7.2,5.6,320,5,,3.0,29.71063,1006.1,,,TRUE,,,,,,RA BR,FEW,2300,OVC,3600,,,,,MVFR,,,,,,0.18,,,,,,METAR,7.0
KPDX 131644Z 35005KT 3SM RA BR FEW023 BKN034 OVC050 07/05 A2970 RMK AO2 TWR VIS 4 P0016 T00720050,KPDX,2023-03-13T16:44:00Z,45.6,-122.62,7.2,5.0,350,5,,3.0,29.698818,,,,TRUE,,,,,,RA BR,FEW,2300,BKN,3400,OVC,5000,,,MVFR,,,,,,0.16,,,,,,SPECI,7.0
KPDX 131634Z 30006KT 2 1/2SM RA BR FEW009 BKN023 OVC034 07/05 A2972 RMK AO2 TWR VIS 4 P0012 T00720050,KPDX,2023-03-13T16:34:00Z,45.6,-122.62,7.2,5.0,300,6,,2.5,29.719488,,,,TRUE,,,,,,RA BR,FEW,900,BKN,2300,OVC,3400,,,IFR,,,,,,0.12,,,,,,SPECI,7.0
KPDX 131600Z VRB05KT 4SM RA BR FEW009 OVC020 07/05 A2969 RMK AO2 P0002 T00720050,KPDX,2023-03-13T16:00:00Z,45.6,-122.62,7.2,5.0,0,5,,4.0,29.68996,,,,TRUE,,,,,,RA BR,FEW,900,OVC,2000,,,,,MVFR,,,,,,0.02,,,,,,SPECI,7.0
KPDX 131553Z 33007KT 2 1/2SM RA BR FEW009 OVC020 07/05 A2969 RMK AO2 SFC VIS 3 SLP054 P0011 T00720050,KPDX,2023-03-13T15:53:00Z,45.6,-122.62,7.2,5.0,330,7,,2.5,29.68996,1005.4,,,TRUE,,,,,,RA BR,FEW,900,OVC,2000,,,,,IFR,,,,,,0.11,,,,,,METAR,7.0
KPDX 131546Z 33009KT 2 1/2SM RA BR SCT009 OVC018 07/05 A2969 RMK AO2 SFC VIS 3 P0009 T00720050,KPDX,2023-03-13T15:46:00Z,45.6,-122.62,7.2,5.0,330,9,,2.5,29.68996,,,,TRUE,,,,,,RA BR,SCT,900,OVC,1800,,,,,IFR,,,,,,0.09,,,,,,SPECI,7.0
KPDX 131515Z VRB05KT 2 1/2SM RA BR BKN009 OVC033 08/06 A2969 RMK AO2 SFC VIS 4 CIG 003V011 P0002 T00780061,KPDX,2023-03-13T15:15:00Z,45.6,-122.62,7.8,6.1,0,5,,2.5,29.68996,,,,TRUE,,,,,,RA BR,BKN,900,OVC,3300,,,,,IFR,,,,,,0.02,,,,,,SPECI,7.0
KPDX 131504Z VRB04KT 9SM -RA FEW006 SCT014 OVC035 08/07 A2969 RMK AO2 P0000 T00780067,KPDX,2023-03-13T15:04:00Z,45.6,-122.62,7.8,6.7,0,4,,9.0,29.68996,,,,TRUE,,,,,,-RA,FEW,600,SCT,1400,OVC,3500,,,VFR,,,,,,0.005,,,,,,SPECI,7.0
KPDX 131453Z 09007KT 6SM -RA BR FEW017 BKN035 OVC044 07/06 A2969 RMK AO2 RAE02B26 SLP053 P0004 60030 T00720061 50003,KPDX,2023-03-13T14:53:00Z,45.6,-122.62,7.2,6.1,90,7,,6.0,29.68996,1005.3,,,TRUE,,,,,,-RA BR,FEW,1700,BKN,3500,OVC,4400,,,VFR,0.3,,,,,0.04,0.3,,,,,METAR,7.0
KPDX 131449Z 09007KT 6SM RA BR SCT017 BKN035 OVC044 07/06 A2969 RMK AO2 RAE02B26 P0003,KPDX,2023-03-13T14:49:00Z,45.6,-122.62,7.0,6.0,90,7,,6.0,29.68996,,,,TRUE,,,,,,RA BR,SCT,1700,BKN,3500,OVC,4400,,,VFR,,,,,,0.03,,,,,,SPECI,7.0
KPDX 131421Z 09007KT 10SM SCT018 BKN024 OVC055 08/06 A2969 RMK AO2 RAE02 P0000 T00780061,KPDX,2023-03-13T14:21:00Z,45.6,-122.62,7.8,6.1,90,7,,10.0,29.68996,,,,TRUE,,,,,,,SCT,1800,BKN,2400,OVC,5500,,,MVFR,,,,,,0.005,,,,,,SPECI,7.0
KPDX 131353Z 09008KT 10SM -RA FEW010 SCT019 OVC055 07/06 A2969 RMK AO2 SLP053 P0010 T00670056,KPDX,2023-03-13T13:53:00Z,45.6,-122.62,6.7,5.6,90,8,,10.0,29.68996,1005.3,,,TRUE,,,,,,-RA,FEW,1000,SCT,1900,OVC,5500,,,VFR,,,,,,0.1,,,,,,METAR,7.0
KPDX 131253Z 12009KT 7SM -RA FEW016 SCT024 OVC049 07/05 A2968 RMK AO2 SLP050 P0016 T00720050,KPDX,2023-03-13T12:53:00Z,45.6,-122.62,7.2,5.0,120,9,,7.0,29.681103,1005.0,,,TRUE,,,,,,-RA,FEW,1600,SCT,2400,OVC,4900,,,VFR,,,,,,0.16,,,,,,METAR,7.0
KPDX 131153Z 13008KT 4SM RA BR FEW014 OVC023 07/05 A2968 RMK AO2 SLP048 P0005 60018 70035 T00670050 10072 20067 58013,KPDX,2023-03-13T11:53:00Z,45.6,-122.62,6.7,5.0,130,8,,4.0,29.681103,1004.8,,,TRUE,,,,,,RA BR,FEW,1400,OVC,2300,,,,,MVFR,-1.3,7.2,6.7,,,0.05,,0.18,0.35,,,METAR,7.0
KPDX 131053Z 12012KT 5SM -RA BR FEW009 BKN028 OVC042 07/05 A2969 RMK AO2 SLP054 P0003 T00670050,KPDX,2023-03-13T10:53:00Z,45.6,-122.62,6.7,5.0,120,12,,5.0,29.68996,1005.4,,,TRUE,,,,,,-RA BR,FEW,900,BKN,2800,OVC,4200,,,MVFR,,,,,,0.03,,,,,,METAR,7.0
KPDX 130953Z 11014KT 7SM -RA SCT020 OVC027 07/05 A2971 RMK AO2 SLP059 P0003 T00670050,KPDX,2023-03-13T09:53:00Z,45.6,-122.62,6.7,5.0,110,14,,7.0,29.71063,1005.9,,,TRUE,,,,,,-RA,SCT,2000,OVC,2700,,,,,MVFR,,,,,,0.03,,,,,,SPECI,7.0
KPDX 130938Z 12012KT 9SM -RA BKN025 OVC033 07/04 A2971 RMK AO2 P0003 T00670044,KPDX,2023-03-13T09:38:00Z,45.6,-122.62,6.7,4.4,120,12,,9.0,29.71063,,,,TRUE,,,,,,-RA,BKN,2500,OVC,3300,,,,,MVFR,,,,,,0.03,,,,,,SPECI,7.0
KPDX 130853Z 12013KT 10SM -RA SCT026 OVC034 07/04 A2971 RMK AO2 SLP061 P0001 60007 T00720044 56012,KPDX,2023-03-13T08:53:00Z,45.6,-122.62,7.2,4.4,120,13,,10.0,29.71063,1006.1,,,TRUE,,,,,,-RA,SCT,2600,OVC,3400,,,,,VFR,-1.2,,,,,0.01,0.07,,,,,METAR,7.0
KPDX 130753Z 11014KT 10SM -RA FEW012 OVC041 07/04 A2972 RMK AO2 SLP063 P0001 T00720044 400830006,KPDX,2023-03-13T07:53:00Z,45.6,-122.62,7.2,4.4,110,14,,10.0,29.719488,1006.3,,,TRUE,,,,,,-RA,FEW,1200,OVC,4100,,,,,VFR,,,,8.3,0.6,0.01,,,,,,METAR,7.0
KPDX 130653Z 11012KT 10SM -RA FEW023 BKN032 OVC045 07/05 A2973 RMK AO2 SLP068 P0005 T00670050,KPDX,2023-03-13T06:53:00Z,45.6,-122.62,6.7,5.0,110,12,,10.0,29.731298,1006.8,,,TRUE,,,,,,-RA,FEW,2300,BKN,3200,OVC,4500,,,VFR,,,,,,0.05,,,,,,METAR,7.0
KPDX 130553Z 11017G21KT 7SM -RA SCT040 OVC055 07/05 A2975 RMK AO2 SLP072 P0001 60004 T00720050 10083 20072 58001,KPDX,2023-03-13T05:53:00Z,45.6,-122.62,7.2,5.0,110,17,21,7.0,29.749016,1007.2,,,TRUE,,,,,,-RA,SCT,4000,OVC,5500,,,,,VFR,-0.1,8.3,7.2,,,0.01,,0.04,,,,METAR,7.0
KPDX 130453Z 12014KT 7SM -RA SCT035 BKN050 OVC075 07/04 A2976 RMK AO2 SLP075 P0001 T00720044,KPDX,2023-03-13T04:53:00Z,45.6,-122.62,7.2,4.4,120,14,,7.0,29.760826,1007.5,,,TRUE,,,,,,-RA,SCT,3500,BKN,5000,OVC,7500,,,VFR,,,,,,0.01,,,,,,METAR,7.0
KPDX 130353Z 12012KT 10SM -RA FEW033 OVC050 07/05 A2975 RMK AO2 RAB01 SLP074 P0002 T00720050,KPDX,2023-03-13T03:53:00Z,45.6,-122.62,7.2,5.0,120,12,,10.0,29.749016,1007.4,,,TRUE,,,,,,-RA,FEW,3300,OVC,5000,,,,,VFR,,,,,,0.02,,,,,,METAR,7.0
KPDX 130253Z 12012KT 10SM SCT034 BKN050 OVC070 08/04 A2975 RMK AO2 SLP074 60000 T00780044 57011,KPDX,2023-03-13T02:53:00Z,45.6,-122.62,7.8,4.4,120,12,,10.0,29.749016,1007.4,,,TRUE,,,,,,,SCT,3400,BKN,5000,OVC,7000,,,VFR,-1.1,,,,,,0.005,,,,,METAR,7.0
KPDX 130153Z 12012KT 10SM SCT036 BKN042 OVC055 08/04 A2976 RMK AO2 SLP079 T00780044,KPDX,2023-03-13T01:53:00Z,45.6,-122.62,7.8,4.4,120,12,,10.0,29.760826,1007.9,,,TRUE,,,,,,,SCT,3600,BKN,4200,OVC,5500,,,VFR,,,,,,,,,,,,METAR,7.0
KPDX 130053Z 12013KT 10SM SCT027 BKN032 OVC060 07/05 A2977 RMK AO2 RAE22 SLP081 P0000 T00720050,KPDX,2023-03-13T00:53:00Z,45.6,-122.62,7.2,5.0,120,13,,10.0,29.769686,1008.1,,,TRUE,,,,,,,SCT,2700,BKN,3200,OVC,6000,,,VFR,,,,,,0.005,,,,,,METAR,7.0
KPDX 130033Z 12013KT 10SM BKN027 BKN033 OVC042 07/05 A2977 RMK AO2 RAE22 P0000 T00720050,KPDX,2023-03-13T00:33:00Z,45.6,-122.62,7.2,5.0,120,13,,10.0,29.769686,,,,TRUE,,,,,,,BKN,2700,BKN,3300,OVC,4200,,,MVFR,,,,,,0.005,,,,,,SPECI,7.0
KPDX 122353Z 12011KT 6SM -RA FEW017 BKN035 OVC047 07/04 A2978 RMK AO2 SLP086 P0003 60009 T00720044 10072 20050 57010,KPDX,2023-03-12T23:53:00Z,45.6,-122.62,7.2,4.4,120,11,,6.0,29.778543,1008.6,,,TRUE,,,,,,-RA,FEW,1700,BKN,3500,OVC,4700,,,VFR,-1.0,7.2,5.0,,,0.03,,0.09,,,,METAR,7.0
KPDX 122253Z 13009KT 10SM -RA SCT022 BKN032 OVC045 07/04 A2980 RMK AO2 RAB12 SLP090 P0003 T00720044,KPDX,2023-03-12T22:53:00Z,45.6,-122.62,7.2,4.4,130,9,,10.0,29.799213,1009.0,,,TRUE,,,,,,-RA,SCT,2200,BKN,3200,OVC,4500,,,VFR,,,,,,0.03,,,,,,METAR,7.0
KPDX 122153Z 12013KT 10SM FEW028 BKN036 OVC044 07/04 A2980 RMK AO2 RAB25E47 SLP092 P0000 T00720039,KPDX,2023-03-12T21:53:00Z,45.6,-122.62,7.2,3.9,120,13,,10.0,29.799213,1009.2,,,TRUE,,,,,,,FEW,2800,BKN,3600,OVC,4400,,,VFR,,,,,,0.005,,,,,,METAR,7.0
KPDX 122053Z 12010KT 10SM FEW025 BKN037 OVC047 07/04 A2982 RMK AO2 SLP096 60003 T00720039 56007,KPDX,2023-03-12T20:53:00Z,45.6,-122.62,7.2,3.9,120,10,,10.0,29.819881,1009.6,,,TRUE,,,,,,,FEW,2500,BKN,3700,OVC,4700,,,VFR,-0.7,,,,,,0.03,,,,,METAR,7.0
KPDX 121953Z 12011KT 10SM BKN030 OVC040 07/04 A2982 RMK AO2 RAE1854B18E51 SLP098 P0000 T00720039,KPDX,2023-03-12T19:53:00Z,45.6,-122.62,7.2,3.9,120,11,,10.0,29.819881,1009.8,,,TRUE,,,,,,,BKN,3000,OVC,4000,,,,,MVFR,,,,,,0.005,,,,,,METAR,7.0
KPDX 121901Z 12010KT 10SM SCT027 BKN033 OVC042 07/04 A2982 RMK AO2 RAE1854 P0000 T00670039,KPDX,2023-03-12T19:01:00Z,45.6,-122.62,6.7,3.9,120,10,,10.0,29.819881,,,,TRUE,,,,,,,SCT,2700,BKN,3300,OVC,4200,,,VFR,,,,,,0.005,,,,,,SPECI,7.0
KPDX 121853Z 12008KT 7SM -RA BKN029 BKN035 OVC045 07/04 A2982 RMK AO2 SLP096 P0003 T00670044,KPDX,2023-03-12T18:53:00Z,45.6,-122.62,6.7,4.4,120,8,,7.0,29.819881,1009.6,,,TRUE,,,,,,-RA,BKN,2900,BKN,3500,OVC,4500,,,MVFR,,,,,,0.03,,,,,,METAR,7.0
KPDX 121804Z VRB03KT 3SM -RA BR BKN025 BKN033 OVC041 06/03 A2983 RMK AO2 P0000 T00560033,KPDX,2023-03-12T18:04:00Z,45.6,-122.62,5.6,3.3,0,3,,3.0,29.828741,,,,TRUE,,,,,,-RA BR,BKN,2500,BKN,3300,OVC,4100,,,MVFR,,,,,,0.005,,,,,,METAR,7.0
KPDX 121753Z 31003KT 4SM -RA BR SCT025 OVC037 05/03 A2984 RMK AO2 RAB01 SLP104 P0002 60004 T00500028 10050 20011 58006,KPDX,2023-03-12T17:53:00Z,45.6,-122.62,5.0,2.8,310,3,,4.0,29.840551,1010.4,,,TRUE,,,,,,-RA BR,SCT,2500,OVC,3700,,,,,MVFR,-0.6,5.0,1.1,,,0.02,,0.04,,,,METAR,7.0
KPDX 121653Z 31004KT 10SM OVC039 04/02 A2985 RMK AO2 RAE14 SLP107 P0000 T00440022,KPDX,2023-03-12T16:53:00Z,45.6,-122.62,4.4,2.2,310,4,,10.0,29.84941,1010.7,,,TRUE,,,,,,,OVC,3900,,,,,,,VFR,,,,,,0.005,,,,,,METAR,7.0
KPDX 121553Z 00000KT 10SM -RA BKN050 OVC065 04/02 A2985 RMK AO2 SLP108 P0001 T00390017,KPDX,2023-03-12T15:53:00Z,45.6,-122.62,3.9,1.7,0,0,,10.0,29.84941,1010.8,,,TRUE,,,,,,-RA,BKN,5000,OVC,6500,,,,,VFR,,,,,,0.01,,,,,,METAR,7.0
KPDX 121453Z 00000KT 10SM -RA BKN045 OVC070 04/02 A2986 RMK AO2 RAB22 SLP109 P0001 60001 T00390017 56010,KPDX,2023-03-12T14:53:00Z,45.6,-122.62,3.9,1.7,0,0,,10.0,29.861221,1010.9,,,TRUE,,,,,,-RA,BKN,4500,OVC,7000,,,,,VFR,-1.0,,,,,0.01,0.01,,,,,METAR,7.0
KPDX 121353Z 00000KT 10SM FEW002 BKN075 BKN100 03/01 A2986 RMK AO2 SLP110 T00280011,KPDX,2023-03-12T13:53:00Z,45.6,-122.62,2.8,1.1,0,0,,10.0,29.861221,1011.0,,,TRUE,,,,,,,FEW,200,BKN,7500,BKN,10000,,,VFR,,,,,,,,,,,,METAR,7.0
KPDX 121308Z 27004KT 8SM FEW002 SCT065 BKN120 02/01 A2987 RMK AO2 T00220011,KPDX,2023-03-12T13:08:00Z,45.6,-122.62,2.2,1.1,270,4,,8.0,29.870079,,,,TRUE,,,,,,,FEW,200,SCT,6500,BKN,12000,,,VFR,,,,,,,,,,,,SPECI,7.0
KPDX 121253Z 00000KT 8SM FEW020 BKN140 02/01 A2987 RMK AO2 SLP113 T00170006,KPDX,2023-03-12T12:53:00Z,45.6,-122.62,1.7,0.6,0,0,,8.0,29.870079,1011.3,,,TRUE,,,,,,,FEW,2000,BKN,14000,,,,,VFR,,,,,,,,,,,,METAR,7.0
KPDX 121153Z 00000KT 10SM R10R/5000VP6000FT FEW020 FEW075 01/M01 A2989 RMK AO2 SLP119 T00111006 10061 20006 58014,KPDX,2023-03-12T11:53:00Z,45.6,-122.62,1.1,-0.6,0,0,,10.0,29.890747,1011.9,,,TRUE,,,,,,,FEW,2000,FEW,7500,,,,,VFR,-1.4,6.1,0.6,,,,,,,,,METAR,7.0
KPDX 121053Z 00000KT 10SM FEW020 FEW075 02/01 A2990 RMK AO2 SLP125 T00220006,KPDX,2023-03-12T10:53:00Z,45.6,-122.62,2.2,0.6,0,0,,10.0,29.899607,1012.5,,,TRUE,,,,,,,FEW,2000,FEW,7500,,,,,VFR,,,,,,,,,,,,METAR,7.0
KPDX 120953Z 09003KT 10SM FEW015 04/01 A2992 RMK AO2 SLP130 T00390011,KPDX,2023-03-12T09:53:00Z,45.6,-122.62,3.9,1.1,90,3,,10.0,29.920275,1013.0,,,TRUE,,,,,,,FEW,1500,,,,,,,VFR,,,,,,,,,,,,METAR,7.0
KPDX 120853Z 00000KT 10SM CLR 04/02 A2993 RMK AO2 SLP132 T00390017 56003,KPDX,2023-03-12T08:53:00Z,45.6,-122.62,3.9,1.7,0,0,,10.0,29.929134,1013.2,,,TRUE,,,,,,,CLR,,,,,,,,VFR,-0.3,,,,,,,,,,,METAR,7.0
KPDX 120753Z 10004KT 10SM CLR 04/01 A2993 RMK AO2 SLP133 T00390011 401220039,KPDX,2023-03-12T07:53:00Z,45.6,-122.62,3.9,1.1,100,4,,10.0,29.929134,1013.3,,,TRUE,,,,,,,CLR,,,,,,,,VFR,,,,12.2,3.9,,,,,,,METAR,7.0
KPDX 120653Z 11012KT 10SM CLR 06/02 A2993 RMK AO2 SLP133 T00610022,KPDX,2023-03-12T06:53:00Z,45.6,-122.62,6.1,2.2,110,12,,10.0,29.929134,1013.3,,,TRUE,,,,,,,CLR,,,,,,,,VFR,,,,,,,,,,,,METAR,7.0
KPDX 120553Z 08005KT 10SM CLR 06/02 A2993 RMK AO2 SLP135 T00610022 10117 20056 53004,KPDX,2023-03-12T05:53:00Z,45.6,-122.62,6.1,2.2,80,5,,10.0,29.929134,1013.5,,,TRUE,,,,,,,CLR,,,,,,,,VFR,0.4,11.7,5.6,,,,,,,,,METAR,7.0
KPDX 120453Z 10005KT 10SM CLR 06/02 A2992 RMK AO2 SLP132 T00610022,KPDX,2023-03-12T04:53:00Z,45.6,-122.62,6.1,2.2,100,5,,10.0,29.920275,1013.2,,,TRUE,,,,,,,CLR,,,,,,,,VFR,,,,,,,,,,,,METAR,7.0
KPDX 120353Z 11004KT 10SM CLR 07/02 A2992 RMK AO2 SLP131 T00720022,KPDX,2023-03-12T03:53:00Z,45.6,-122.62,7.2,2.2,110,4,,10.0,29.920275,1013.1,,,TRUE,,,,,,,CLR,,,,,,,,VFR,,,,,,,,,,,,METAR,7.0
KPDX 120253Z 12005KT 10SM FEW075 09/02 A2992 RMK AO2 SLP131 T00890017 55002,KPDX,2023-03-12T02:53:00Z,45.6,-122.62,8.9,1.7,120,5,,10.0,29.920275,1013.1,,,TRUE,,,,,,,FEW,7500,,,,,,,VFR,-0.2,,,,,,,,,,,METAR,7.0
KPDX 120153Z 07003KT 10SM FEW050 FEW080 10/02 A2992 RMK AO2 SLP130 T01000017,KPDX,2023-03-12T01:53:00Z,45.6,-122.62,10.0,1.7,70,3,,10.0,29.920275,1013.0,,,TRUE,,,,,,,FEW,5000,FEW,8000,,,,,VFR,,,,,,,,,,,,METAR,7.0
KPDX 120053Z 05003KT 10SM FEW055 SCT065 BKN075 12/02 A2992 RMK AO2 SLP131 T01170017,KPDX,2023-03-12T00:53:00Z,45.6,-122.62,11.7,1.7,50,3,,10.0,29.920275,1013.1,,,TRUE,,,,,,,FEW,5500,SCT,6500,BKN,7500,,,VFR,,,,,,,,,,,,SPECI,7.0
KPDX 112353Z 08005KT 10SM FEW040 SCT055 BKN080 12/02 A2993 RMK AO2 SLP133 T01170022 10122 20072 56009,KPDX,2023-03-11T23:53:00Z,45.6,-122.62,11.7,2.2,80,5,,10.0,29.929134,1013.3,,,TRUE,,,,,,,FEW,4000,SCT,5500,BKN,8000,,,VFR,-0.9,12.2,7.2,,,,,,,,,METAR,7.0
KPDX 112253Z 08007KT 10SM SCT050 BKN070 11/03 A2993 RMK AO2 SLP136 T01110028,KPDX,2023-03-11T22:53:00Z,45.6,-122.62,11.1,2.8,80,7,,10.0,29.929134,1013.6,,,TRUE,,,,,,,SCT,5000,BKN,7000,,,,,VFR,,,,,,,,,,,,METAR,7.0
KPDX 112153Z 09008KT 10SM SCT040 SCT055 BKN075 11/03 A2994 RMK AO2 SLP138 T01110033,KPDX,2023-03-11T21:53:00Z,45.6,-122.62,11.1,3.3,90,8,,10.0,29.940945,1013.8,,,TRUE,,,,,,,SCT,4000,SCT,5500,BKN,7500,,,VFR,,,,,,,,,,,,METAR,7.0
KPDX 112053Z 08007KT 10SM FEW032 SCT047 BKN070 10/03 A2996 RMK AO2 SLP143 T01000033 58006,KPDX,2023-03-11T20:53:00Z,45.6,-122.62,10.0,3.3,80,7,,10.0,29.958662,1014.3,,,TRUE,,,,,,,FEW,3200,SCT,4700,BKN,7000,,,VFR,-0.6,,,,,,,,,,,METAR,7.0
KPDX 111953Z 07006KT 10SM FEW028 SCT055 BKN070 09/04 A2997 RMK AO2 SLP146 T00940039,KPDX,2023-03-11T19:53:00Z,45.6,-122.62,9.4,3.9,70,6,,10.0,29.970472,1014.6,,,TRUE,,,,,,,FEW,2800,SCT,5500,BKN,7000,,,VFR,,,,,,,,,,,,METAR,7.0
KPDX 111853Z 08009KT 10SM FEW030 BKN050 BKN110 09/04 A2997 RMK AO2 SLP148 T00890039,KPDX,2023-03-11T18:53:00Z,45.6,-122.62,8.9,3.9,80,9,,10.0,29.970472,1014.8,,,TRUE,,,,,,,FEW,3000,BKN,5000,BKN,11000,,,VFR,,,,,,,,,,,,METAR,7.0
KPDX 111753Z 11007KT 10SM FEW018 SCT028 BKN050 07/04 A2997 RMK AO2 RAB30E48 SLP149 P0000 60000 T00720039 10072 20044 51009,KPDX,2023-03-11T17:53:00Z,45.6,-122.62,7.2,3.9,110,7,,10.0,29.970472,1014.9,,,TRUE,,,,,,,FEW,1800,SCT,2800,BKN,5000,,,VFR,0.9,7.2,4.4,,,0.005,,0.005,,,,METAR,7.0
KPDX 111719Z 13008KT 10SM FEW018 BKN028 BKN060 07/03 A2997 RMK AO2 T00720028,KPDX,2023-03-11T17:19:00Z,45.6,-122.62,7.2,2.8,130,8,,10.0,29.970472,,,,TRUE,,,,,,,FEW,1800,BKN,2800,BKN,6000,,,MVFR,,,,,,,,,,,,METAR,7.0
KPDX 111653Z 11006KT 10SM FEW024 OVC060 07/03 A2997 RMK AO2 SLP147 T00670033,KPDX,2023-03-11T16:53:00Z,45.6,-122.62,6.7,3.3,110,6,,10.0,29.970472,1014.7,,,TRUE,,,,,,,FEW,2400,OVC,6000,,,,,VFR,,,,,,,,,,,,METAR,7.0
KPDX 111553Z 12005KT 10SM FEW017 BKN060 06/03 A2996 RMK AO2 SLP144 T00610033,KPDX,2023-03-11T15:53:00Z,45.6,-122.62,6.1,3.3,120,5,,10.0,29.958662,1014.4,,,TRUE,,,,,,,FEW,1700,BKN,6000,,,,,VFR,,,,,,,,,,,,METAR,7.0
KPDX 111453Z 11007KT 10SM BKN044 BKN060 05/02 A2995 RMK AO2 SLP140 T00500022 53003,KPDX,2023-03-11T14:53:00Z,45.6,-122.62,5.0,2.2,110,7,,10.0,29.949802,1014.0,,,TRUE,,,,,,,BKN,4400,BKN,6000,,,,,VFR,0.3,,,,,,,,,,,METAR,7.0
KPDX 111353Z 12003KT 10SM FEW040 BKN070 05/02 A2995 RMK AO2 SLP140 T00500022,KPDX,2023-03-11T13:53:00Z,45.6,-122.62,5.0,2.2,120,3,,10.0,29.949802,1014.0,,,TRUE,,,,,,,FEW,4000,BKN,7000,,,,,VFR,,,,,,,,,,,,METAR,7.0
KPDX 111253Z 11006KT 10SM FEW040 BKN065 BKN110 06/02 A2994 RMK AO2 SLP137 T00560022,KPDX,2023-03-11T12:53:00Z,45.6,-122.62,5.6,2.2,110,6,,10.0,29.940945,1013.7,,,TRUE,,,,,,,FEW,4000,BKN,6500,BKN,11000,,,VFR,,,,,,,,,,,,METAR,7.0
KPDX 111153Z 16004KT 10SM SCT043 BKN055 BKN070 07/03 A2994 RMK AO2 SLP137 70011 T00670028 10078 20061 50003,KPDX,2023-03-11T11:53:00Z,45.6,-122.62,6.7,2.8,160,4,,10.0,29.940945,1013.7,,,TRUE,,,,,,,SCT,4300,BKN,5500,BKN,7000,,,VFR,0.3,7.8,6.1,,,,,,0.11,,,METAR,7.0
KPDX 111053Z 18007KT 10SM SCT040 BKN060 BKN120 06/02 A2994 RMK AO2 SLP137 T00610022,KPDX,2023-03-11T10:53:00Z,45.6,-122.62,6.1,2.2,180,7,,10.0,29.940945,1013.7,,,TRUE,,,,,,,SCT,4000,BKN,6000,BKN,12000,,,VFR,,,,,,,,,,,,METAR,7.0
KPDX 110953Z 18005KT 10SM BKN048 BKN070 07/03 A2994 RMK AO2 SLP137 T00670028,KPDX,2023-03-11T09:53:00Z,45.6,-122.62,6.7,2.8,180,5,,10.0,29.940945,1013.7,,,TRUE,,,,,,,BKN,4800,BKN,7000,,,,,VFR,,,,,,,,,,,,METAR,7.0
KPDX 110853Z 19006KT 10SM FEW020 BKN060 BKN080 07/03 A2993 RMK AO2 SLP134 T00670028 51020,KPDX,2023-03-11T08:53:00Z,45.6,-122.62,6.7,2.8,190,6,,10.0,29.929134,1013.4,,,TRUE,,,,,,,FEW,2000,BKN,6000,BKN,8000,,,VFR,2.0,,,,,,,,,,,METAR,7.0
KPDX 110753Z 18007KT 10SM BKN070 07/03 A2991 RMK AO2 SLP128 T00720028 401000028,KPDX,2023-03-11T07:53:00Z,45.6,-122.62,7.2,2.8,180,7,,10.0,29.911417,1012.8,,,TRUE,,,,,,,BKN,7000,,,,,,,VFR,,,,10.0,2.8,,,,,,,METAR,7.0
KPDX 110653Z 19009KT 10SM FEW040 BKN075 07/03 A2989 RMK AO2 SLP120 T00720033,KPDX,2023-03-11T06:53:00Z,45.6,-122.62,7.2,3.3,190,9,,10.0,29.890747,1012.0,,,TRUE,,,,,,,FEW,4000,BKN,7500,,,,,VFR,,,,,,,,,,,,SPECI,7.0
KPDX 110553Z 19003KT 10SM FEW041 BKN080 07/03 A2987 RMK AO2 RAE17 SLP114 P0000 60000 T00720028 10089 20067 51029,KPDX,2023-03-11T05:53:00Z,45.6,-122.62,7.2,2.8,190,3,,10.0,29.870079,1011.4,,,TRUE,,,,,,,FEW,4100,BKN,8000,,,,,VFR,2.9,8.9,6.7,,,0.005,,0.005,,,,METAR,7.0
KPDX 110453Z 23009KT 10SM -RA FEW041 SCT048 OVC065 07/03 A2986 RMK AO2 RAB50 SLP110 P0000 T00720028,KPDX,2023-03-11T04:53:00Z,45.6,-122.62,7.2,2.8,230,9,,10.0,29.861221,1011.0,,,TRUE,,,,,,-RA,FEW,4100,SCT,4800,OVC,6500,,,VFR,,,,,,0.005,,,,,,METAR,7.0
KPDX 110353Z 22009KT 10SM FEW030 BKN041 BKN090 08/03 A2982 RMK AO2 SLP099 T00780028,KPDX,2023-03-11T03:53:00Z,45.6,-122.62,7.8,2.8,220,9,,10.0,29.819881,1009.9,,,TRUE,,,,,,,FEW,3000,BKN,4100,BKN,9000,,,VFR,,,,,,,,,,,,METAR,7.0
KPDX 110253Z 20011KT 10SM SCT035 BKN046 OVC065 08/03 A2978 RMK AO2 SLP085 T00830033 53029,KPDX,2023-03-11T02:53:00Z,45.6,-122.62,8.3,3.3,200,11,,10.0,29.778543,1008.5,,,TRUE,,,,,,,SCT,3500,BKN,4600,OVC,6500,,,VFR,2.9,,,,,,,,,,,METAR,7.0
KPDX 110153Z 20006KT 10SM FEW020 SCT070 BKN085 08/04 A2975 RMK AO2 SLP072 T00830039,KPDX,2023-03-11T01:53:00Z,45.6,-122.62,8.3,3.9,200,6,,10.0,29.749016,1007.2,,,TRUE,,,,,,,FEW,2000,SCT,7000,BKN,8500,,,VFR,,,,,,,,,,,,METAR,7.0
KPDX 110053Z 19010KT 10SM FEW023 FEW030 OVC045 09/03 A2972 RMK AO2 SLP062 T00890033,KPDX,2023-03-11T00:53:00Z,45.6,-122.62,8.9,3.3,190,10,,10.0,29.719488,1006.2,,,TRUE,,,,,,,FEW,2300,FEW,3000,OVC,4500,,,VFR,,,,,,,,,,,,METAR,7.0
KPDX 102353Z 17010G18KT 10SM SCT030 BKN050 BKN070 08/02 A2970 RMK AO2 SLP055 T00830022 10100 20050 53025,KPDX,2023-03-10T23:53:00Z,45.6,-122.62,8.3,2.2,170,10,18,10.0,29.698818,1005.5,,,TRUE,,,,,,,SCT,3000,BKN,5000,BKN,7000,,,VFR,2.5,10.0,5.0,,,,,,,,,METAR,7.0
KPDX 102253Z 18009KT 10SM FEW028 BKN055 BKN070 09/01 A2967 RMK AO2 SLP046 T00940011,KPDX,2023-03-10T22:53:00Z,45.6,-122.62,9.4,1.1,180,9,,10.0,29.66929,1004.6,,,TRUE,,,,,,,FEW,2800,BKN,5500,BKN,7000,,,VFR,,,,,,,,,,,,METAR,7.0
KPDX 102153Z 18008KT 10SM SCT025 BKN040 08/02 A2965 RMK AO2 SLP038 T00830017,KPDX,2023-03-10T21:53:00Z,45.6,-122.62,8.3,1.7,180,8,,10.0,29.648623,1003.8,,,TRUE,,,,,,,SCT,2500,BKN,4000,,,,,VFR,,,,,,,,,,,,METAR,7.0
KPDX 102121Z 20008KT 10SM FEW025 BKN039 08/02 A2964 RMK AO2 T00780022,KPDX,2023-03-10T21:21:00Z,45.6,-122.62,7.8,2.2,200,8,,10.0,29.639763,,,,TRUE,,,,,,,FEW,2500,BKN,3900,,,,,VFR,,,,,,,,,,,,SPECI,7.0
KPDX 102053Z 20012G17KT 10SM BKN023 BKN034 08/02 A2962 RMK AO2 SLP030 T00780022 51022,KPDX,2023-03-10T20:53:00Z,45.6,-122.62,7.8,2.2,200,12,17,10.0,29.619095,1003.0,,,TRUE,,,,,,,BKN,2300,BKN,3400,,,,,MVFR,2.2,,,,,,,,,,,METAR,7.0
KPDX 102049Z 18010KT 10SM BKN023 BKN034 08/02 A2962 RMK AO2,KPDX,2023-03-10T20:49:00Z,45.6,-122.62,8.0,2.0,180,10,,10.0,29.619095,,,,TRUE,,,,,,,BKN,2300,BKN,3400,,,,,MVFR,,,,,,,,,,,,SPECI,7.0
KPDX 101953Z 21009KT 10SM SCT022 BKN150 08/03 A2959 RMK AO2 SLP017 T00780028,KPDX,2023-03-10T19:53:00Z,45.6,-122.62,7.8,2.8,210,9,,10.0,29.589567,1001.7,,,TRUE,,,,,,,SCT,2200,BKN,15000,,,,,VFR,,,,,,,,,,,,METAR,7.0
KPDX 101946Z 21008KT 10SM SCT022 BKN150 07/02 A2958 RMK AO2 T00720022,KPDX,2023-03-10T19:46:00Z,45.6,-122.62,7.2,2.2,210,8,,10.0,29.58071,,,,TRUE,,,,,,,SCT,2200,BKN,15000,,,,,VFR,,,,,,,,,,,,SPECI,7.0
KPDX 101853Z 28006KT 10SM BKN017 BKN023 OVC055 06/02 A2956 RMK AO2 SLP008 T00610022,KPDX,2023-03-10T18:53:00Z,45.6,-122.62,6.1,2.2,280,6,,10.0,29.56004,1000.8,,,TRUE,,,,,,,BKN,1700,BKN,2300,OVC,5500,,,MVFR,,,,,,,,,,,,METAR,7.0
KPDX 101753Z 24008KT 10SM BKN015 BKN023 05/02 A2951 RMK AO2 SLP991 60011 T00500017 10056 20028 53030,KPDX,2023-03-10T17:53:00Z,45.6,-122.62,5.0,1.7,240,8,,10.0,29.509842,999.1,,,TRUE,,,,,,,BKN,1500,BKN,2300,,,,,MVFR,3.0,5.6,2.8,,,,,0.11,,,,METAR,7.0
KPDX 101731Z 23011KT 10SM SCT010 BKN018 BKN023 05/02 A2949 RMK AO2 T00500017,KPDX,2023-03-10T17:31:00Z,45.6,-122.62,5.0,1.7,230,11,,10.0,29.489174,,,,TRUE,,,,,,,SCT,1000,BKN,1800,BKN,2300,,,MVFR,,,,,,,,,,,,SPECI,7.0
KPDX 101653Z 00000KT 10SM OVC012 04/01 A2948 RMK AO2 RAE19 SLP981 P0000 T00390011,KPDX,2023-03-10T16:53:00Z,45.6,-122.62,3.9,1.1,0,0,,10.0,29.480314,998.1,,,TRUE,,,,,,,OVC,1200,,,,,,,MVFR,,,,,,0.005,,,,,,METAR,7.0
KPDX 101633Z 00000KT 10SM OVC014 04/01 A2946 RMK AO2 RAE19 P0000 T00390011,KPDX,2023-03-10T16:33:00Z,45.6,-122.62,3.9,1.1,0,0,,10.0,29.459646,,,,TRUE,,,,,,,OVC,1400,,,,,,,MVFR,,,,,,0.005,,,,,,METAR,7.0
KPDX 101553Z 00000KT 8SM -RA SCT013 OVC022 03/01 A2945 RMK AO2 SLP971 P0005 T00330011,KPDX,2023-03-10T15:53:00Z,45.6,-122.62,3.3,1.1,0,0,,8.0,29.450787,997.1,,,TRUE,,,,,,-RA,SCT,1300,OVC,2200,,,,,MVFR,,,,,,0.05,,,,,,METAR,7.0
KPDX 101535Z 00000KT 7SM -RA BKN014 OVC018 03/01 A2944 RMK AO2 P0004 T00330006,KPDX,2023-03-10T15:35:00Z,45.6,-122.62,3.3,0.6,0,0,,7.0,29.438976,,,,TRUE,,,,,,-RA,BKN,1400,OVC,1800,,,,,MVFR,,,,,,0.04,,,,,,SPECI,7.0
KPDX 101453Z 00000KT 7SM -RA OVC020 03/02 A2942 RMK AO2 SLP962 P0005 60006 T00330017 51018,KPDX,2023-03-10T14:53:00Z,45.6,-122.62,3.3,1.7,0,0,,7.0,29.421259,996.2,,,TRUE,,,,,,-RA,OVC,2000,,,,,,,MVFR,1.8,,,,,0.05,0.06,,,,,METAR,7.0
KPDX 101406Z 17004KT 8SM -RA BKN029 OVC040 04/01 A2941 RMK AO2 P0001 T00390011,KPDX,2023-03-10T14:06:00Z,45.6,-122.62,3.9,1.1,170,4,,8.0,29.409449,,,,TRUE,,,,,,-RA,BKN,2900,OVC,4000,,,,,MVFR,,,,,,0.01,,,,,,SPECI,7.0
KPDX 101353Z 18009G18KT 9SM -RA FEW025 OVC040 04/01 A2941 RMK AO2 RAB38 SLP957 P0001 T00440011,KPDX,2023-03-10T13:53:00Z,45.6,-122.62,4.4,1.1,180,9,18,9.0,29.409449,995.7,,,TRUE,,,,,,-RA,FEW,2500,OVC,4000,,,,,VFR,,,,,,0.01,,,,,,SPECI,7.0
KPDX 101253Z 00000KT 10SM FEW030 SCT050 BKN110 05/01 A2939 RMK AO2 SLP951 T00500011,KPDX,2023-03-10T12:53:00Z,45.6,-122.62,5.0,1.1,0,0,,10.0,29.388779,995.1,,,TRUE,,,,,,,FEW,3000,SCT,5000,BKN,11000,,,VFR,,,,,,,,,,,,METAR,7.0
KPDX 101153Z 19005KT 10SM FEW022 SCT032 BKN050 06/01 A2937 RMK AO2 SLP944 60009 70028 T00560011 10072 20056 50006,KPDX,2023-03-10T11:53:00Z,45.6,-122.62,5.6,1.1,190,5,,10.0,29.371063,994.4,,,TRUE,,,,,,,FEW,2200,SCT,3200,BKN,5000,,,VFR,0.6,7.2,5.6,,,,,,0.28,,,SPECI,7.0
KPDX 101138Z 18008KT 10SM FEW022 SCT032 BKN050 06/02 A2937 RMK AO2 T00560017,KPDX,2023-03-10T11:38:00Z,45.6,-122.62,5.6,1.7,180,8,,10.0,29.371063,,,,TRUE,,,,,,,FEW,2200,SCT,3200,BKN,5000,,,VFR,,,,,,,,,,,,SPECI,7.0
KPDX 101053Z 17005KT 10SM SCT020 BKN029 06/02 A2938 RMK AO2 SLP946 T00610022,KPDX,2023-03-10T10:53:00Z,45.6,-122.62,6.1,2.2,170,5,,10.0,29.379921,994.6,,,TRUE,,,,,,,SCT,2000,BKN,2900,,,,,MVFR,,,,,,,,,,,,METAR,7.0
KPDX 100953Z 16012KT 10SM FEW017 BKN023 OVC030 07/03 A2937 RMK AO2 SLP945 T00670033,KPDX,2023-03-10T09:53:00Z,45.6,-122.62,6.7,3.3,160,12,,10.0,29.371063,994.5,,,TRUE,,,,,,,FEW,1700,BKN,2300,OVC,3000,,,MVFR,,,,,,,,,,,,METAR,7.0
KPDX 100853Z 12019KT 10SM BKN023 BKN036 OVC110 06/03 A2935 RMK AO2 PK WND 12026/0824 RAE31 SLP937 P0003 60009 T00610028 53009,KPDX,2023-03-10T08:53:00Z,45.6,-122.62,6.1,2.8,120,19,,10.0,29.350393,993.7,,,TRUE,,,,,,,BKN,2300,BKN,3600,OVC,11000,,,MVFR,0.9,,,,,0.03,,,,,,SPECI,7.0
KPDX 100838Z 12017KT 10SM BKN026 BKN036 OVC110 06/03 A2933 RMK AO2 PK WND 12026/0824 RAE31 P0003 T00610028,KPDX,2023-03-10T08:38:00Z,45.6,-122.62,6.1,2.8,120,17,,10.0,29.329725,,,,TRUE,,,,,,,BKN,2600,BKN,3600,OVC,11000,,,MVFR,,,,,,0.03,,,,,,METAR,7.0
KPDX 100753Z 13014KT 9SM -RA OVC040 06/02 A2931 RMK AO2 RAB0655 PRESRR SLP925 P0004 T00610022 400720044,KPDX,2023-03-10T07:53:00Z,45.6,-122.62,6.1,2.2,130,14,,9.0,29.309055,992.5,,,TRUE,,,,,,-RA,OVC,4000,,,,,,,VFR,,,,7.2,4.4,0.04,,,,,,METAR,7.0
KPDX 100653Z 11019G26KT 10SM OVC050 06/02 A2928 RMK AO2 PK WND 10027/0556 RAE45 SLP914 P0002 T00610022,KPDX,2023-03-10T06:53:00Z,45.6,-122.62,6.1,2.2,110,19,26,10.0,29.279528,991.4,,,TRUE,,,,,,,OVC,5000,,,,,,,VFR,,,,,,0.02,,,,,,METAR,7.0
KPDX 100553Z 11021KT 10SM -RA OVC042 07/02 A2932 RMK AO2 PK WND 11029/0529 SLP928 P0005 60017 T00670022 10067 20056 56047,KPDX,2023-03-10T05:53:00Z,45.6,-122.62,6.7,2.2,110,21,,10.0,29.320866,992.8,,,TRUE,,,,,,-RA,OVC,4200,,,,,,,VFR,-4.7,6.7,5.6,,,0.05,,0.17,,,,METAR,7.0
KPDX 100453Z 10019G27KT 8SM -RA OVC036 06/02 A2936 RMK AO2 PK WND 10027/0445 SLP942 P0003 T00610022,KPDX,2023-03-10T04:53:00Z,45.6,-122.62,6.1,2.2,100,19,27,8.0,29.359253,994.2,,,TRUE,,,,,,-RA,OVC,3600,,,,,,,VFR,,,,,,0.03,,,,,,METAR,7.0
KPDX 100353Z 10019G25KT 10SM -RA FEW028 OVC042 07/02 A2941 RMK AO2 SLP957 P0002 T00670017,KPDX,2023-03-10T03:53:00Z,45.6,-122.62,6.7,1.7,100,19,25,10.0,29.409449,995.7,,,TRUE,,,,,,-RA,FEW,2800,OVC,4200,,,,,VFR,,,,,,0.02,,,,,,METAR,7.0
KPDX 100253Z 11018G24KT 10SM -RA OVC038 06/02 A2946 RMK AO2 SLP975 P0002 60007 T00610022 58055,KPDX,2023-03-10T02:53:00Z,45.6,-122.62,6.1,2.2,110,18,24,10.0,29.459646,997.5,,,TRUE,,,,,,-RA,OVC,3800,,,,,,,VFR,-5.5,,,,,0.02,0.07,,,,,METAR,7.0
KPDX 100153Z 10013KT 10SM -RA OVC036 06/02 A2952 RMK AO2 SLP996 P0003 T00610022,KPDX,2023-03-10T01:53:00Z,45.6,-122.62,6.1,2.2,100,13,,10.0,29.518702,999.6,,,TRUE,,,,,,-RA,OVC,3600,,,,,,,VFR,,,,,,0.03,,,,,,SPECI,7.0
KPDX 100053Z 10016KT 10SM -RA OVC039 06/02 A2957 RMK AO2 SLP013 P0002 T00610017,KPDX,2023-03-10T00:53:00Z,45.6,-122.62,6.1,1.7,100,16,,10.0,29.568897,1001.3,,,TRUE,,,,,,-RA,OVC,3900,,,,,,,VFR,,,,,,0.02,,,,,,METAR,7.0
KPDX 092353Z 10019KT 10SM -RA BKN047 OVC055 06/02 A2962 RMK AO2 PK WND 10029/2328 SLP031 P0001 60002 T00610017 10072 20050 56043,KPDX,2023-03-09T23:53:00Z,45.6,-122.62,6.1,1.7,100,19,,10.0,29.619095,1003.1,,,TRUE,,,,,,-RA,BKN,4700,OVC,5500,,,,,VFR,-4.3,7.2,5.0,,,0.01,,,,,,SPECI,7.0
KPDX 092253Z 11014KT 10SM -RA BKN050 OVC075 06/02 A2966 RMK AO2 RAB51 SLP043 P0000 T00610017,KPDX,2023-03-09T22:53:00Z,45.6,-122.62,6.1,1.7,110,14,,10.0,29.660433,1004.3,,,TRUE,,,,,,-RA,BKN,5000,OVC,7500,,,,,VFR,,,,,,0.005,,,,,,METAR,7.0
KPDX 092153Z 12014KT 10SM SCT049 BKN150 OVC250 07/02 A2969 RMK AO2 RAE03 SLP054 P0000 T00720022,KPDX,2023-03-09T21:53:00Z,45.6,-122.62,7.2,2.2,120,14,,10.0,29.68996,1005.4,,,TRUE,,,,,,,SCT,4900,BKN,15000,OVC,25000,,,VFR,,,,,,0.005,,,,,,METAR,7.0
KPDX 092053Z 10016KT 10SM -RA BKN048 OVC055 06/02 A2975 RMK AO2 PK WND 10027/2003 SLP075 P0001 60001 T00610022 58033,KPDX,2023-03-09T20:53:00Z,45.6,-122.62,6.1,2.2,100,16,,10.0,29.749016,1007.5,,,TRUE,,,,,,-RA,BKN,4800,OVC,5500,,,,,VFR,-3.3,,,,,0.01,0.01,,,,,METAR,7.0
KPDX 091953Z 10021G27KT 10SM -RA BKN037 OVC048 06/02 A2980 RMK AO2 PK WND 11027/1950 SLP090 P0000 T00560017,KPDX,2023-03-09T19:53:00Z,45.6,-122.62,5.6,1.7,100,21,27,10.0,29.799213,1009.0,,,TRUE,,,,,,-RA,BKN,3700,OVC,4800,,,,,VFR,,,,,,0.005,,,,,,METAR,7.0
KPDX 091853Z 11016KT 10SM -RA BKN045 OVC055 06/01 A2983 RMK AO2 RAB03 SLP100 P0000 T00610011,KPDX,2023-03-09T18:53:00Z,45.6,-122.62,6.1,1.1,110,16,,10.0,29.828741,1010.0,,,TRUE,,,,,,-RA,BKN,4500,OVC,5500,,,,,VFR,,,,,,0.005,,,,,,METAR,7.0
KPDX 091753Z 12013KT 10SM FEW043 BKN050 OVC065 06/01 A2985 RMK AO2 SLP107 60000 T00560011 10061 20044 58010,KPDX,2023-03-09T17:53:00Z,45.6,-122.62,5.6,1.1,120,13,,10.0,29.84941,1010.7,,,TRUE,,,,,,,FEW,4300,BKN,5000,OVC,6500,,,VFR,-1.0,6.1,4.4,,,,,0.005,,,,METAR,7.0
KPDX 091653Z 10015G20KT 10SM BKN055 OVC070 06/01 A2985 RMK AO2 SLP108 T00610011,KPDX,2023-03-09T16:53:00Z,45.6,-122.62,6.1,1.1,100,15,20,10.0,29.84941,1010.8,,,TRUE,,,,,,,BKN,5500,OVC,7000,,,,,VFR,,,,,,,,,,,,METAR,7.0
KPDX 091553Z 11014KT 10SM OVC055 06/01 A2987 RMK AO2 RAB28E31 SLP115 P0000 T00560006,KPDX,2023-03-09T15:53:00Z,45.6,-122.62,5.6,0.6,110,14,,10.0,29.870079,1011.5,,,TRUE,,,,,,,OVC,5500,,,,,,,VFR,,,,,,0.005,,,,,,METAR,7.0
KPDX 091453Z 13010KT 10SM BKN065 OVC085 06/00 A2988 RMK AO2 SLP116 T00560000 56020 $,KPDX,2023-03-09T14:53:00Z,45.6,-122.62,5.6,0.0,130,10,,10.0,29.878937,1011.6,,,TRUE,TRUE,,,,,,BKN,6500,OVC,8500,,,,,VFR,-2.0,,,,,,,,,,,METAR,7.0
KPDX 091353Z 12015KT 10SM BKN075 OVC100 04/01 A2990 RMK AO2 SLP124 T00440006 /,KPDX,2023-03-09T13:53:00Z,45.6,-122.62,4.4,0.6,120,15,,10.0,29.899607,1012.4,,,TRUE,,,,,,,BKN,7500,OVC,10000,,,,,VFR,,,,,,,,,,,,METAR,7.0
KPDX 091253Z 12015KT 10SM SCT070 OVC090 06/00 A2991 RMK AO2 SLP128 T00560000 $,KPDX,2023-03-09T12:53:00Z,45.6,-122.62,5.6,0.0,120,15,,10.0,29.911417,1012.8,,,TRUE,TRUE,,,,,,SCT,7000,OVC,9000,,,,,VFR,,,,,,,,,,,,SPECI,7.0
KPDX 091153Z 11018G23KT 10SM OVC055 05/01 A2994 RMK AO2 PK WND 10026/1121 SLP137 60000 70006 T00500006 10056 20044 58017 $,KPDX,2023-03-09T11:53:00Z,45.6,-122.62,5.0,0.6,110,18,23,10.0,29.940945,1013.7,,,TRUE,TRUE,,,,,,OVC,5500,,,,,,,VFR,-1.7,5.6,4.4,,,,,0.005,0.06,,,METAR,7.0
KPDX 091053Z 10016KT 10SM OVC049 06/01 A2996 RMK AO2 RAE44 SLP143 P0000 T00560006 /,KPDX,2023-03-09T10:53:00Z,45.6,-122.62,5.6,0.6,100,16,,10.0,29.958662,1014.3,,,TRUE,,,,,,,OVC,4900,,,,,,,VFR,,,,,,0.005,,,,,,METAR,7.0
KPDX 090953Z 11010KT 10SM -RA OVC037 05/01 A2999 RMK AO2 RAB28 SLP155 P0000 T00500011 $,KPDX,2023-03-09T09:53:00Z,45.6,-122.62,5.0,1.1,110,10,,10.0,29.991142,1015.5,,,TRUE,TRUE,,,,,-RA,OVC,3700,,,,,,,VFR,,,,,,0.005,,,,,,SPECI,7.0
KPDX 090853Z 12011KT 10SM OVC048 05/01 A2999 RMK AO2 SLP154 60000 T00500011 56012 $,KPDX,2023-03-09T08:53:00Z,45.6,-122.62,5.0,1.1,120,11,,10.0,29.991142,1015.4,,,TRUE,TRUE,,,,,,OVC,4800,,,,,,,VFR,-1.2,,,,,,0.005,,,,,METAR,7.0
KPDX 090753Z 12014KT 10SM FEW046 OVC065 04/01 A3000 RMK AO2 SLP157 T00440011 400720011 $,KPDX,2023-03-09T07:53:00Z,45.6,-122.62,4.4,1.1,120,14,,10.0,30.0,1015.7,,,TRUE,TRUE,,,,,,FEW,4600,OVC,6500,,,,,VFR,,,,7.2,1.1,,,,,,,METAR,7.0
KPDX 090653Z 11008KT 10SM FEW046 SCT055 OVC075 05/02 A3001 RMK AO2 RAE53 SLP161 P0000 T00500017 $,KPDX,2023-03-09T06:53:00Z,45.6,-122.62,5.0,1.7,110,8,,10.0,30.008858,1016.1,,,TRUE,TRUE,,,,,,FEW,4600,SCT,5500,OVC,7500,,,VFR,,,,,,0.005,,,,,,METAR,7.0
KPDX 090553Z 11008KT 10SM -RA BKN045 BKN055 OVC100 05/02 A3002 RMK AO2 RAE27B43 SLP166 P0000 60003 T00500017 10072 20050 50008 $,KPDX,2023-03-09T05:53:00Z,45.6,-122.62,5.0,1.7,110,8,,10.0,30.02067,1016.6,,,TRUE,TRUE,,,,,-RA,BKN,4500,BKN,5500,OVC,10000,,,VFR,0.8,7.2,5.0,,,0.005,,0.03,,,,METAR,7.0
KPDX 090453Z 15007KT 10SM -RA FEW025 SCT048 OVC065 06/01 A3002 RMK AO2 RAB50 SLP167 P0000 T00560011 $,KPDX,2023-03-09T04:53:00Z,45.6,-122.62,5.6,1.1,150,7,,10.0,30.02067,1016.7,,,TRUE,TRUE,,,,,-RA,FEW,2500,SCT,4800,OVC,6500,,,VFR,,,,,,0.005,,,,,,METAR,7.0
KPDX 090353Z 16007KT 10SM FEW023 SCT046 OVC060 06/02 A3001 RMK AO2 SLP163 T00610017 $,KPDX,2023-03-09T03:53:00Z,45.6,-122.62,6.1,1.7,160,7,,10.0,30.008858,1016.3,,,TRUE,TRUE,,,,,,FEW,2300,SCT,4600,OVC,6000,,,VFR,,,,,,,,,,,,METAR,7.0
KPDX 090341Z 17010KT 10SM SCT024 BKN045 OVC060 06/01 A3001 RMK AO2 T00610011 $,KPDX,2023-03-09T03:41:00Z,45.6,-122.62,6.1,1.1,170,10,,10.0,30.008858,,,,TRUE,TRUE,,,,,,SCT,2400,BKN,4500,OVC,6000,,,VFR,,,,,,,,,,,,SPECI,7.0
KPDX 090315Z 17012G16KT 10SM BKN026 BKN032 OVC065 07/01 A3000 RMK AO2 T00670011 $,KPDX,2023-03-09T03:15:00Z,45.6,-122.62,6.7,1.1,170,12,16,10.0,30.0,,,,TRUE,TRUE,,,,,,BKN,2600,BKN,3200,OVC,6500,,,MVFR,,,,,,,,,,,,METAR,7.0
KPDX 090253Z 12007KT 10SM FEW028 SCT036 BKN070 06/02 A3000 RMK AO2 SLP158 60003 T00610017 53004 $,KPDX,2023-03-09T02:53:00Z,45.6,-122.62,6.1,1.7,120,7,,10.0,30.0,1015.8,,,TRUE,TRUE,,,,,,FEW,2800,SCT,3600,BKN,7000,,,VFR,0.4,,,,,,0.03,,,,,METAR,7.0
KPDX 090153Z 10006KT 10SM FEW025 SCT037 BKN065 07/02 A2998 RMK AO2 SLP153 T00670017 $,KPDX,2023-03-09T01:53:00Z,45.6,-122.62,6.7,1.7,100,6,,10.0,29.97933,1015.3,,,TRUE,TRUE,,,,,,FEW,2500,SCT,3700,BKN,6500,,,VFR,,,,,,,,,,,,METAR,7.0
KPDX 090053Z 10008KT 10SM FEW022 SCT040 BKN060 BKN250 07/02 A2998 RMK AO2 RAB14E27GSB20E24 SLP154 P0003 T00720022 $,KPDX,2023-03-09T00:53:00Z,45.6,-122.62,7.2,2.2,100,8,,10.0,29.97933,1015.4,,,TRUE,TRUE,,,,,,FEW,2200,SCT,4000,BKN,6000,BKN,25000,VFR,,,,,,0.03,,,,,,METAR,7.0
KPDX 090027Z 10005KT 10SM FEW022 BKN036 BKN049 06/02 A2999 RMK AO2 RAB14E27GSB20E24 P0003 T00560017 $,KPDX,2023-03-09T00:27:00Z,45.6,-122.62,5.6,1.7,100,5,,10.0,29.991142,,,,TRUE,TRUE,,,,,,FEW,2200,BKN,3600,BKN,4900,,,VFR,,,,,,0.03,,,,,,SPECI,7.0
KPDX 090020Z 12010KT 7SM -RAGS FEW022 BKN036 BKN049 06/02 A2999 RMK AO2 RAB14GSB20 GS LGT T00610017 PNO,KPDX,2023-03-09T00:20:00Z,45.6,-122.62,6.1,1.7,120,10,,7.0,29.991142,,,,TRUE,,,,,,-RA -GS,FEW,2200,BKN,3600,BKN,4900,,,VFR,,,,,,,,,,,,SPECI,7.0
KPDX 082353Z 10008KT 10SM FEW018 FEW035 FEW055 07/02 A2999 RMK AO2 RAB11E28 SLP154 P0000 60003 T00720017 10072 20017 56010,KPDX,2023-03-08T23:53:00Z,45.6,-122.62,7.2,1.7,100,8,,10.0,29.991142,1015.4,,,TRUE,,,,,,,FEW,1800,FEW,3500,FEW,5500,,,VFR,-1.0,7.2,1.7,,,0.005,,0.03,,,,METAR,7.0
KPDX 082253Z 11006KT 10SM FEW014 BKN038 BKN055 07/02 A3000 RMK AO2 RAB29E39 SLP158 P0000 T00670022,KPDX,2023-03-08T22:53:00Z,45.6,-122.62,6.7,2.2,110,6,,10.0,30.0,1015.8,,,TRUE,,,,,,,FEW,1400,BKN,3800,BKN,5500,,,VFR,,,,,,0.005,,,,,,SPECI,7.0
KPDX 082241Z 09006KT 10SM FEW014 BKN038 BKN055 06/02 A3000 RMK AO2 RAB29E39 P0000 T00610022,KPDX,2023-03-08T22:41:00Z,45.6,-122.62,6.1,2.2,90,6,,10.0,30.0,,,,TRUE,,,,,,,FEW,1400,BKN,3800,BKN,5500,,,VFR,,,,,,0.005,,,,,,SPECI,7.0
KPDX 082153Z 09006KT 10SM SCT014 BKN020 BKN038 06/02 A3000 RMK AO2 SLP159 T00560022,KPDX,2023-03-08T21:53:00Z,45.6,-122.62,5.6,2.2,90,6,,10.0,30.0,1015.9,,,TRUE,,,,,,,SCT,1400,BKN,2000,BKN,3800,,,MVFR,,,,,,,,,,,,SPECI,7.0
KPDX 082053Z 08006KT 10SM SCT014 OVC019 04/02 A3002 RMK AO2 SLP164 60003 T00440022 50006,KPDX,2023-03-08T20:53:00Z,45.6,-122.62,4.4,2.2,80,6,,10.0,30.02067,1016.4,,,TRUE,,,,,,,SCT,1400,OVC,1900,,,,,MVFR,0.6,,,,,,0.03,,,,,METAR,7.0
KPDX 082004Z 10006KT 10SM BKN011 OVC014 03/01 A3002 RMK AO2 T00330011,KPDX,2023-03-08T20:04:00Z,45.6,-122.62,3.3,1.1,100,6,,10.0,30.02067,,,,TRUE,,,,,,,BKN,1100,OVC,1400,,,,,MVFR,,,,,,,,,,,,SPECI,7.0
KPDX 081953Z 11007KT 10SM BKN009 OVC014 03/01 A3002 RMK AO2 SNE42 CIG 007V013 SLP166 P0000 T00330011,KPDX,2023-03-08T19:53:00Z,45.6,-122.62,3.3,1.1,110,7,,10.0,30.02067,1016.6,,,TRUE,,,,,,,BKN,900,OVC,1400,,,,,IFR,,,,,,0.005,,,,,,METAR,7.0
KPDX 081918Z 10008KT 8SM -SN BKN006 OVC011 02/01 A3002 RMK AO2 P0000 T00220006,KPDX,2023-03-08T19:18:00Z,45.6,-122.62,2.2,0.6,100,8,,8.0,30.02067,,,,TRUE,,,,,,-SN,BKN,600,OVC,1100,,,,,IFR,,,,,,0.005,,,,,,SPECI,7.0
KPDX 081853Z 10008KT 1 1/2SM -SN BR BKN005 OVC010 02/00 A3001 RMK AO2 SFC VIS 3 RAE10SNB10 SLP162 P0003 T00170000,KPDX,2023-03-08T18:53:00Z,45.6,-122.62,1.7,0.0,100,8,,1.5,30.008858,1016.2,,,TRUE,,,,,,-SN BR,BKN,500,OVC,1000,,,,,IFR,,,,,,0.03,,,,,,METAR,7.0
KPDX 081808Z 14006KT 9SM -RA OVC008 03/01 A3000 RMK AO2 CIG 006V010 P0000 T00280006 $,KPDX,2023-03-08T18:08:00Z,45.6,-122.62,2.8,0.6,140,6,,9.0,30.0,,,,TRUE,TRUE,,,,,-RA,OVC,800,,,,,,,IFR,,,,,,0.005,,,,,,SPECI,7.0
KPDX 081753Z 14006KT 8SM -RA OVC004 03/01 A3000 RMK AO2 SLP158 RAB1655 P0000 60000 T00280006 10028 20017 $,KPDX,2023-03-08T17:53:00Z,45.6,-122.62,2.8,0.6,140,6,,8.0,30.0,1015.8,,,TRUE,TRUE,,,,,-RA,OVC,400,,,,,,,LIFR,,2.8,1.7,,,0.005,,,,,,SPECI,7.0
KPDX 081710Z 09004KT 2SM RA BR OVC004 02/01 A2999 RMK AO2 SFC VIS 4 RAB1655 P0000 T00220011,KPDX,2023-03-08T17:10:00Z,45.6,-122.62,2.2,1.1,90,4,,2.0,29.991142,,,,TRUE,,,,,,RA BR,OVC,400,,,,,,,LIFR,,,,,,0.005,,,,,,METAR,7.0
KPDX 081653Z 10004KT 1SM R10R/P6000FT BR OVC004 02/01 A2998 RMK AO2 SFC VIS 2 SLP153 T00220006,KPDX,2023-03-08T16:53:00Z,45.6,-122.62,2.2,0.6,100,4,,1.0,29.97933,1015.3,,,TRUE,,,,,,BR,OVC,400,,,,,,,LIFR,,,,,,,,,,,,METAR,7.0
KPDX 081632Z 12003KT 3/4SM R10R/P6000FT BR OVC003 02/01 A2998 RMK AO2 SFC VIS 2 T00220006,KPDX,2023-03-08T16:32:00Z,45.6,-122.62,2.2,0.6,120,3,,0.75,29.97933,,,,TRUE,,,,,,BR,OVC,300,,,,,,,LIFR,,,,,,,,,,,,SPECI,7.0
KPDX 081602Z 06003KT 1/4SM R10R/P6000FT BR OVC003 02/01 A2998 RMK AO2 SFC VIS 2 T00220006,KPDX,2023-03-08T16:02:00Z,45.6,-122.62,2.2,0.6,60,3,,0.25,29.97933,,,,TRUE,,,,,,BR,OVC,300,,,,,,,LIFR,,,,,,,,,,,,SPECI,7.0
KPDX 081553Z 08003KT 3/4SM R10R/P6000FT BR OVC003 02/00 A2998 RMK AO2 SFC VIS 2 SLP151 T00220000,KPDX,2023-03-08T15:53:00Z,45.6,-122.62,2.2,0.0,80,3,,0.75,29.97933,1015.1,,,TRUE,,,,,,BR,OVC,300,,,,,,,LIFR,,,,,,,,,,,,METAR,7.0
KPDX 081545Z 00000KT 3/4SM R10R/P6000FT BR OVC003 02/01 A2998 RMK AO2 SFC VIS 4 T00170006,KPDX,2023-03-08T15:45:00Z,45.6,-122.62,1.7,0.6,0,0,,0.75,29.97933,,,,TRUE,,,,,,BR,OVC,300,,,,,,,LIFR,,,,,,,,,,,,SPECI,7.0
KPDX 081526Z 00000KT 3/4SM R10R/P6000FT BR OVC002 02/01 A2998 RMK AO2 SFC VIS 4 T00170006,KPDX,2023-03-08T15:26:00Z,45.6,-122.62,1.7,0.6,0,0,,0.75,29.97933,,,,TRUE,,,,,,BR,OVC,200,,,,,,,LIFR,,,,,,,,,,,,SPECI,7.0
KPDX 081453Z 00000KT 1/4SM R10R/P6000FT BR OVC003 02/01 A2997 RMK AO2 SFC VIS 4 SLP147 T00170006 53004,KPDX,2023-03-08T14:53:00Z,45.6,-122.62,1.7,0.6,0,0,,0.25,29.970472,1014.7,,,TRUE,,,,,,BR,OVC,300,,,,,,,LIFR,0.4,,,,,,,,,,,SPECI,7.0
KPDX 081443Z 00000KT 1/4SM R10R/P6000FT BR BKN004 02/01 A2996 RMK AO2 SFC VIS 4 T00170006,KPDX,2023-03-08T14:43:00Z,45.6,-122.62,1.7,0.6,0,0,,0.25,29.958662,,,,TRUE,,,,,,BR,BKN,400,,,,,,,LIFR,,,,,,,,,,,,SPECI,7.0
KPDX 081353Z 01003KT 7SM OVC004 02/01 A2996 RMK AO2 SLP144 T00170006,KPDX,2023-03-08T13:53:00Z,45.6,-122.62,1.7,0.6,10,3,,7.0,29.958662,1014.4,,,TRUE,,,,,,,OVC,400,,,,,,,LIFR,,,,,,,,,,,,METAR,7.0
KPDX 081253Z 00000KT 10SM OVC006 02/01 A2996 RMK AO2 SLP144 T00220006,KPDX,2023-03-08T12:53:00Z,45.6,-122.62,2.2,0.6,0,0,,10.0,29.958662,1014.4,,,TRUE,,,,,,,OVC,600,,,,,,,IFR,,,,,,,,,,,,METAR,7.0
KPDX 081153Z 00000KT 10SM OVC006 02/01 A2995 RMK AO2 SLP141 60004 70023 T00220006 10039 20011 56011,KPDX,2023-03-08T11:53:00Z,45.6,-122.62,2.2,0.6,0,0,,10.0,29.949802,1014.1,,,TRUE,,,,,,,OVC,600,,,,,,,IFR,-1.1,3.9,1.1,,,,,0.04,0.23,,,METAR,7.0
KPDX 081116Z 00000KT 10SM OVC005 02/01 A2996 RMK AO2 T00170006,KPDX,2023-03-08T11:16:00Z,45.6,-122.62,1.7,0.6,0,0,,10.0,29.958662,,,,TRUE,,,,,,,OVC,500,,,,,,,IFR,,,,,,,,,,,,SPECI,7.0
KPDX 081053Z 25003KT 10SM OVC004 02/01 A2996 RMK AO2 SLP144 T00170006,KPDX,2023-03-08T10:53:00Z,45.6,-122.62,1.7,0.6,250,3,,10.0,29.958662,1014.4,,,TRUE,,,,,,,OVC,400,,,,,,,LIFR,,,,,,,,,,,,METAR,7.0
KPDX 080953Z 00000KT 10SM BKN004 OVC024 02/00 A2997 RMK AO2 SLP148 T00170000,KPDX,2023-03-08T09:53:00Z,45.6,-122.62,1.7,0.0,0,0,,10.0,29.970472,1014.8,,,TRUE,,,,,,,BKN,400,OVC,2400,,,,,LIFR,,,,,,,,,,,,SPECI,7.0
KPDX 080943Z 00000KT 10SM BKN004 OVC024 02/00 A2997 RMK AO2 T00170000,KPDX,2023-03-08T09:43:00Z,45.6,-122.62,1.7,0.0,0,0,,10.0,29.970472,,,,TRUE,,,,,,,BKN,400,OVC,2400,,,,,LIFR,,,,,,,,,,,,SPECI,7.0
KPDX 080901Z 00000KT 10SM SCT007 BKN024 02/01 A2998 RMK AO2 T00220006,KPDX,2023-03-08T09:01:00Z,45.6,-122.62,2.2,0.6,0,0,,10.0,29.97933,,,,TRUE,,,,,,,SCT,700,BKN,2400,,,,,MVFR,,,,,,,,,,,,METAR,7.0
KPDX 080853Z 00000KT 10SM BKN007 OVC025 02/01 A2999 RMK AO2 SLP154 60004 T00220006 58002,KPDX,2023-03-08T08:53:00Z,45.6,-122.62,2.2,0.6,0,0,,10.0,29.991142,1015.4,,,TRUE,,,,,,,BKN,700,OVC,2500,,,,,IFR,-0.2,,,,,,0.04,,,,,METAR,7.0
KPDX 080848Z 16003KT 10SM BKN007 BKN025 02/01 A2999 RMK AO2,KPDX,2023-03-08T08:48:00Z,45.6,-122.62,2.0,1.0,160,3,,10.0,29.991142,,,,TRUE,,,,,,,BKN,700,BKN,2500,,,,,IFR,,,,,,,,,,,,SPECI,7.0
KPDX 080837Z 16004KT 10SM SCT007 BKN025 02/01 A2999 RMK AO2 T00170006,KPDX,2023-03-08T08:37:00Z,45.6,-122.62,1.7,0.6,160,4,,10.0,29.991142,,,,TRUE,,,,,,,SCT,700,BKN,2500,,,,,MVFR,,,,,,,,,,,,SPECI,7.0
KPDX 080800Z 12003KT 10SM SCT006 02/01 A2999 RMK AO2 T00220006,KPDX,2023-03-08T08:00:00Z,45.6,-122.62,2.2,0.6,120,3,,10.0,29.991142,,,,TRUE,,,,,,,SCT,600,,,,,,,VFR,,,,,,,,,,,,METAR,7.0
KPDX 080753Z 11004KT 10SM BKN029 OVC036 02/01 A2999 RMK AO2 RAE07 SLP156 P0001 T00220006 400940022,KPDX,2023-03-08T07:53:00Z,45.6,-122.62,2.2,0.6,110,4,,10.0,29.991142,1015.6,,,TRUE,,,,,,,BKN,2900,OVC,3600,,,,,MVFR,,,,9.4,2.2,0.01,,,,,,METAR,7.0
KPDX 080653Z 08010KT 10SM -RA BKN029 OVC039 03/01 A2999 RMK AO2 RAE33B50 SLP156 P0003 T00280011,KPDX,2023-03-08T06:53:00Z,45.6,-122.62,2.8,1.1,80,10,,10.0,29.991142,1015.6,,,TRUE,,,,,,-RA,BKN,2900,OVC,3900,,,,,MVFR,,,,,,0.03,,,,,,METAR,7.0
KPDX 080553Z 10008KT 10SM -RA FEW011 BKN022 OVC031 03/01 A3001 RMK AO2 SLP162 P0002 60019 T00330011 10094 20022 50019,KPDX,2023-03-08T05:53:00Z,45.6,-122.62,3.3,1.1,100,8,,10.0,30.008858,1016.2,,,TRUE,,,,,,-RA,FEW,1100,BKN,2200,OVC,3100,,,MVFR,1.9,9.4,2.2,,,0.02,,0.19,,,,METAR,7.0
KPDX 080510Z 12005KT 10SM -RA FEW009 OVC023 03/01 A3001 RMK AO2 P0001 T00330011,KPDX,2023-03-08T05:10:00Z,45.6,-122.62,3.3,1.1,120,5,,10.0,30.008858,,,,TRUE,,,,,,-RA,FEW,900,OVC,2300,,,,,MVFR,,,,,,0.01,,,,,,SPECI,7.0
KPDX 080453Z 13004KT 10SM -RA OVC022 03/01 A3001 RMK AO2 SLP163 P0017 T00280006,KPDX,2023-03-08T04:53:00Z,45.6,-122.62,2.8,0.6,130,4,,10.0,30.008858,1016.3,,,TRUE,,,,,,-RA,OVC,2200,,,,,,,MVFR,,,,,,0.17,,,,,,SPECI,7.0
KPDX 080353Z 19013KT 8SM -RA SCT016 BKN024 OVC039 03/01 A3000 RMK AO2 RAB18 SLP157 P0000 T00330011,KPDX,2023-03-08T03:53:00Z,45.6,-122.62,3.3,1.1,190,13,,8.0,30.0,1015.7,,,TRUE,,,,,,-RA,SCT,1600,BKN,2400,OVC,3900,,,MVFR,,,,,,0.005,,,,,,METAR,7.0
KPDX 080345Z 17014G21KT 7SM -RA SCT016 BKN027 OVC039 04/02 A3000 RMK AO2 RAB18 P0000 T00390017,KPDX,2023-03-08T03:45:00Z,45.6,-122.62,3.9,1.7,170,14,21,7.0,30.0,,,,TRUE,,,,,,-RA,SCT,1600,BKN,2700,OVC,3900,,,MVFR,,,,,,0.005,,,,,,SPECI,7.0
KPDX 080253Z 09004KT 10SM FEW030 BKN080 BKN100 BKN200 06/02 A2995 RMK AO2 SLP143 T00610022 56010,KPDX,2023-03-08T02:53:00Z,45.6,-122.62,6.1,2.2,90,4,,10.0,29.949802,1014.3,,,TRUE,,,,,,,FEW,3000,BKN,8000,BKN,10000,BKN,20000,VFR,-1.0,,,,,,,,,,,METAR,7.0
KPDX 080153Z 12004KT 10SM FEW030 SCT050 BKN080 BKN170 07/01 A2996 RMK AO2 SLP145 T00720011,KPDX,2023-03-08T01:53:00Z,45.6,-122.62,7.2,1.1,120,4,,10.0,29.958662,1014.5,,,TRUE,,,,,,,FEW,3000,SCT,5000,BKN,8000,BKN,17000,VFR,,,,,,,,,,,,METAR,7.0
KPDX 080053Z 11009KT 10SM FEW030 BKN050 BKN070 BKN200 08/02 A2997 RMK AO2 LTG DSNT W SLP149 TCU W T00780017,KPDX,2023-03-08T00:53:00Z,45.6,-122.62,7.8,1.7,110,9,,10.0,29.970472,1014.9,,,TRUE,,,,,,,FEW,3000,BKN,5000,BKN,7000,BKN,20000,VFR,,,,,,,,,,,,METAR,7.0
KPDX 072353Z 10012KT 10SM FEW030 BKN045 BKN065 BKN200 09/02 A2998 RMK AO2 SLP152 60000 T00940017 10094 20067 56017,KPDX,2023-03-07T23:53:00Z,45.6,-122.62,9.4,1.7,100,12,,10.0,29.97933,1015.2,,,TRUE,,,,,,,FEW,3000,BKN,4500,BKN,6500,BKN,20000,VFR,-1.7,9.4,6.7,,,,,0.005,,,,METAR,7.0
KPDX 072253Z 10010KT 10SM SCT030 SCT045 BKN060 09/01 A3000 RMK AO2 RAB33E47 SLP157 P0000 T00890006,KPDX,2023-03-07T22:53:00Z,45.6,-122.62,8.9,0.6,100,10,,10.0,30.0,1015.7,,,TRUE,,,,,,,SCT,3000,SCT,4500,BKN,6000,,,VFR,,,,,,0.005,,,,,,METAR,7.0
KPDX 072153Z 08005KT 10SM FEW025 BKN045 BKN055 09/02 A3001 RMK AO2 SLP162 T00890017,KPDX,2023-03-07T21:53:00Z,45.6,-122.62,8.9,1.7,80,5,,10.0,30.008858,1016.2,,,TRUE,,,,,,,FEW,2500,BKN,4500,BKN,5500,,,VFR,,,,,,,,,,,,METAR,7.0
KPDX 072053Z VRB03KT 10SM FEW024 BKN043 BKN055 08/02 A3003 RMK AO2 SLP170 T00830017 58003,KPDX,2023-03-07T20:53:00Z,45.6,-122.62,8.3,1.7,0,3,,10.0,30.029528,1017.0,,,TRUE,,,,,,,FEW,2400,BKN,4300,BKN,5500,,,VFR,-0.3,,,,,,,,,,,METAR,7.0
KPDX 072000Z 00000KT 10SM SCT026 BKN080 08/02 A3005 RMK AO2 T00830017,KPDX,2023-03-07T20:00:00Z,45.6,-122.62,8.3,1.7,0,0,,10.0,30.050198,,,,TRUE,,,,,,,SCT,2600,BKN,8000,,,,,VFR,,,,,,,,,,,,SPECI,7.0
KPDX 071953Z VRB03KT 10SM BKN026 BKN075 BKN090 08/02 A3005 RMK AO2 SLP176 T00780017,KPDX,2023-03-07T19:53:00Z,45.6,-122.62,7.8,1.7,0,3,,10.0,30.050198,1017.6,,,TRUE,,,,,,,BKN,2600,BKN,7500,BKN,9000,,,MVFR,,,,,,,,,,,,METAR,7.0
KPDX 071853Z 14010KT 10SM FEW015 BKN070 BKN085 07/01 A3005 RMK AO2 SLP175 T00720011,KPDX,2023-03-07T18:53:00Z,45.6,-122.62,7.2,1.1,140,10,,10.0,30.050198,1017.5,,,TRUE,,,,,,,FEW,1500,BKN,7000,BKN,8500,,,VFR,,,,,,,,,,,,SPECI,7.0
KPDX 071753Z 14005KT 10SM FEW015 BKN075 BKN110 07/01 A3004 RMK AO2 SLP174 T00670011 10067 20028 53001,KPDX,2023-03-07T17:53:00Z,45.6,-122.62,6.7,1.1,140,5,,10.0,30.041338,1017.4,,,TRUE,,,,,,,FEW,1500,BKN,7500,BKN,11000,,,VFR,0.1,6.7,2.8,,,,,,,,,METAR,7.0
KPDX 071653Z 00000KT 10SM BKN070 05/02 A3004 RMK AO2 SLP173 T00500017,KPDX,2023-03-07T16:53:00Z,45.6,-122.62,5.0,1.7,0,0,,10.0,30.041338,1017.3,,,TRUE,,,,,,,BKN,7000,,,,,,,VFR,,,,,,,,,,,,METAR,7.0
KPDX 071553Z 10008KT 10SM BKN065 BKN085 BKN250 03/01 A3004 RMK AO2 SLP171 T00330011,KPDX,2023-03-07T15:53:00Z,45.6,-122.62,3.3,1.1,100,8,,10.0,30.041338,1017.1,,,TRUE,,,,,,,BKN,6500,BKN,8500,BKN,25000,,,VFR,,,,,,,,,,,,METAR,7.0
KPDX 071453Z 12006KT 10SM FEW005 SCT037 BKN055 BKN250 03/01 A3004 RMK AO2 SLP173 T00280011 57002,KPDX,2023-03-07T14:53:00Z,45.6,-122.62,2.8,1.1,120,6,,10.0,30.041338,1017.3,,,TRUE,,,,,,,FEW,500,SCT,3700,BKN,5500,BKN,25000,VFR,-0.2,,,,,,,,,,,METAR,7.0
KPDX 071353Z 11004KT 10SM FEW005 SCT044 BKN065 03/02 A3004 RMK AO2 SLP173 T00330017,KPDX,2023-03-07T13:53:00Z,45.6,-122.62,3.3,1.7,110,4,,10.0,30.041338,1017.3,,,TRUE,,,,,,,FEW,500,SCT,4400,BKN,6500,,,VFR,,,,,,,,,,,,METAR,7.0
KPDX 071316Z 12005KT 10SM FEW005 SCT042 OVC070 03/02 A3004 RMK AO2 T00330017,KPDX,2023-03-07T13:16:00Z,45.6,-122.62,3.3,1.7,120,5,,10.0,30.041338,,,,TRUE,,,,,,,FEW,500,SCT,4200,OVC,7000,,,VFR,,,,,,,,,,,,SPECI,7.0
KPDX 071253Z 12007KT 10SM FEW020 FEW044 OVC080 03/02 A3005 RMK AO2 SLP174 T00330017,KPDX,2023-03-07T12:53:00Z,45.6,-122.62,3.3,1.7,120,7,,10.0,30.050198,1017.4,,,TRUE,,,,,,,FEW,2000,FEW,4400,OVC,8000,,,VFR,,,,,,,,,,,,SPECI,7.0
KPDX 071153Z 11005KT 10SM SCT016 BKN050 OVC080 03/01 A3005 RMK AO2 RAE16 SLP174 P0001 60002 70019 T00280011 10044 20028 58005,KPDX,2023-03-07T11:53:00Z,45.6,-122.62,2.8,1.1,110,5,,10.0,30.050198,1017.4,,,TRUE,,,,,,,SCT,1600,BKN,5000,OVC,8000,,,VFR,-0.5,4.4,2.8,,,0.01,,0.02,0.19,,,METAR,7.0
KPDX 071124Z 09005KT 10SM SCT016 BKN050 OVC080 03/02 A3005 RMK AO2 RAE16 P0001 T00330017,KPDX,2023-03-07T11:24:00Z,45.6,-122.62,3.3,1.7,90,5,,10.0,30.050198,,,,TRUE,,,,,,,SCT,1600,BKN,5000,OVC,8000,,,VFR,,,,,,0.01,,,,,,SPECI,7.0
KPDX 071053Z 11004KT 8SM -RA OVC018 03/02 A3006 RMK AO2 RAB27 SLP178 P0001 T00330022,KPDX,2023-03-07T10:53:00Z,45.6,-122.62,3.3,2.2,110,4,,8.0,30.059055,1017.8,,,TRUE,,,,,,-RA,OVC,1800,,,,,,,MVFR,,,,,,0.01,,,,,,METAR,7.0
KPDX 071042Z 10005KT 10SM -RA OVC020 03/02 A3006 RMK AO2 RAB27 P0000 T00330017,KPDX,2023-03-07T10:42:00Z,45.6,-122.62,3.3,1.7,100,5,,10.0,30.059055,,,,TRUE,,,,,,-RA,OVC,2000,,,,,,,MVFR,,,,,,0.005,,,,,,SPECI,7.0
KPDX 070853Z 08003KT 10SM BKN045 BKN060 OVC075 03/02 A3006 RMK AO2 SLP180 T00330017 53001,KPDX,2023-03-07T08:53:00Z,45.6,-122.62,3.3,1.7,80,3,,10.0,30.059055,1018.0,,,TRUE,,,,,,,BKN,4500,BKN,6000,OVC,7500,,,VFR,0.1,,,,,,,,,,,METAR,7.0
KPDX 070753Z 12003KT 10SM SCT055 BKN070 03/01 A3006 RMK AO2 SLP178 T00330011 400940022,KPDX,2023-03-07T07:53:00Z,45.6,-122.62,3.3,1.1,120,3,,10.0,30.059055,1017.8,,,TRUE,,,,,,,SCT,5500,BKN,7000,,,,,VFR,,,,9.4,2.2,,,,,,,METAR,7.0
KPDX 070653Z 12006KT 10SM SCT040 BKN055 04/02 A3006 RMK AO2 SLP178 T00390017,KPDX,2023-03-07T06:53:00Z,45.6,-122.62,3.9,1.7,120,6,,10.0,30.059055,1017.8,,,TRUE,,,,,,,SCT,4000,BKN,5500,,,,,VFR,,,,,,,,,,,,METAR,7.0
KPDX 070553Z 11007KT 10SM SCT055 BKN070 BKN110 04/02 A3006 RMK AO2 RAE42 SLP179 P0003 60012 T00440022 10083 20044 51006,KPDX,2023-03-07T05:53:00Z,45.6,-122.62,4.4,2.2,110,7,,10.0,30.059055,1017.9,,,TRUE,,,,,,,SCT,5500,BKN,7000,BKN,11000,,,VFR,0.6,8.3,4.4,,,0.03,,0.12,,,,METAR,7.0
KPDX 070515Z 14007KT 10SM -RA FEW025 OVC035 05/02 A3006 RMK AO2 P0003 T00500022,KPDX,2023-03-07T05:15:00Z,45.6,-122.62,5.0,2.2,140,7,,10.0,30.059055,,,,TRUE,,,,,,-RA,FEW,2500,OVC,3500,,,,,VFR,,,,,,0.03,,,,,,SPECI,7.0
KPDX 070453Z 15006KT 9SM -RA BKN027 OVC040 05/02 A3006 RMK AO2 SLP179 P0005 T00500022,KPDX,2023-03-07T04:53:00Z,45.6,-122.62,5.0,2.2,150,6,,9.0,30.059055,1017.9,,,TRUE,,,,,,-RA,BKN,2700,OVC,4000,,,,,MVFR,,,,,,0.05,,,,,,METAR,7.0
KPDX 070438Z 16009KT 9SM -RA BKN029 OVC042 06/03 A3006 RMK AO2 P0002 T00560028,KPDX,2023-03-07T04:38:00Z,45.6,-122.62,5.6,2.8,160,9,,9.0,30.059055,,,,TRUE,,,,,,-RA,BKN,2900,OVC,4200,,,,,MVFR,,,,,,0.02,,,,,,SPECI,7.0
KPDX 070353Z 08006KT 10SM -RA SCT026 BKN035 OVC055 05/03 A3005 RMK AO2 RAB19 SLP174 P0003 T00500028,KPDX,2023-03-07T03:53:00Z,45.6,-122.62,5.0,2.8,80,6,,10.0,30.050198,1017.4,,,TRUE,,,,,,-RA,SCT,2600,BKN,3500,OVC,5500,,,VFR,,,,,,0.03,,,,,,METAR,7.0
KPDX 070329Z 06003KT 9SM -RA BKN026 BKN038 OVC043 06/03 A3005 RMK AO2 RAB19 P0001 T00560028,KPDX,2023-03-07T03:29:00Z,45.6,-122.62,5.6,2.8,60,3,,9.0,30.050198,,,,TRUE,,,,,,-RA,BKN,2600,BKN,3800,OVC,4300,,,MVFR,,,,,,0.01,,,,,,SPECI,7.0
KPDX 070253Z 08003KT 10SM BKN045 BKN085 BKN200 06/02 A3004 RMK AO2 SLP173 60001 T00560022 51010,KPDX,2023-03-07T02:53:00Z,45.6,-122.62,5.6,2.2,80,3,,10.0,30.041338,1017.3,,,TRUE,,,,,,,BKN,4500,BKN,8500,BKN,20000,,,VFR,1.0,,,,,,0.01,,,,,METAR,7.0
KPDX 070153Z 01003KT 10SM FEW035 SCT070 BKN085 BKN200 05/03 A3003 RMK AO2 WSHFT 0040 RAE0055B06E40 SLP170 P0001 T00500028,KPDX,2023-03-07T01:53:00Z,45.6,-122.62,5.0,2.8,10,3,,10.0,30.029528,1017.0,,,TRUE,,,,,,,FEW,3500,SCT,7000,BKN,8500,BKN,20000,VFR,,,,,,0.01,,,,,,METAR,7.0
KPDX 070124Z 32006KT 9SM -RA BKN033 BKN048 BKN080 BKN200 05/02 A3003 RMK AO2 WSHFT 0040 RAE0055B06 P0000 T00500022,KPDX,2023-03-07T01:24:00Z,45.6,-122.62,5.0,2.2,320,6,,9.0,30.029528,,,,TRUE,,,,,,-RA,BKN,3300,BKN,4800,BKN,8000,BKN,20000,VFR,,,,,,0.005,,,,,,SPECI,7.0
KPDX 070117Z 32006KT 9SM -RA BKN029 BKN041 BKN080 BKN200 06/02 A3004 RMK AO2 WSHFT 0040 RAE0055B06 P0000 T00560022,KPDX,2023-03-07T01:17:00Z,45.6,-122.62,5.6,2.2,320,6,,9.0,30.041338,,,,TRUE,,,,,,-RA,BKN,2900,BKN,4100,BKN,8000,BKN,20000,MVFR,,,,,,0.005,,,,,,SPECI,7.0
KPDX 070100Z 27010KT 10SM SCT029 BKN042 BKN080 BKN200 06/02 A3003 RMK AO2 WSHFT 0040 RAE0055 P0000 T00610017,KPDX,2023-03-07T01:00:00Z,45.6,-122.62,6.1,1.7,270,10,,10.0,30.029528,,,,TRUE,,,,,,,SCT,2900,BKN,4200,BKN,8000,BKN,20000,VFR,,,,,,0.005,,,,,,SPECI,7.0
KPDX 070053Z 28012KT 10SM -RA SCT025 BKN047 BKN080 BKN200 06/02 A3002 RMK AO2 WSHFT 0038 RAB41 SLP167 P0000 T00610022,KPDX,2023-03-07T00:53:00Z,45.6,-122.62,6.1,2.2,280,12,,10.0,30.02067,1016.7,,,TRUE,,,,,,-RA,SCT,2500,BKN,4700,BKN,8000,BKN,20000,VFR,,,,,,0.005,,,,,,METAR,7.0
KPDX 062353Z 13008KT 10SM SCT040 SCT055 BKN075 BKN200 08/03 A3001 RMK AO2 SLP163 60000 T00830028 10094 20044 56011,KPDX,2023-03-06T23:53:00Z,45.6,-122.62,8.3,2.8,130,8,,10.0,30.008858,1016.3,,,TRUE,,,,,,,SCT,4000,SCT,5500,BKN,7500,BKN,20000,VFR,-1.1,9.4,4.4,,,,,0.005,,,,METAR,7.0
KPDX 062253Z 10012KT 10SM SCT044 BKN060 BKN075 BKN200 08/03 A3002 RMK AO2 SLP165 T00830028,KPDX,2023-03-06T22:53:00Z,45.6,-122.62,8.3,2.8,100,12,,10.0,30.02067,1016.5,,,TRUE,,,,,,,SCT,4400,BKN,6000,BKN,7500,BKN,20000,VFR,,,,,,,,,,,,METAR,7.0
KPDX 062153Z 10013KT 10SM BKN040 BKN110 BKN200 08/02 A3003 RMK AO2 SLP168 T00830022,KPDX,2023-03-06T21:53:00Z,45.6,-122.62,8.3,2.2,100,13,,10.0,30.029528,1016.8,,,TRUE,,,,,,,BKN,4000,BKN,11000,BKN,20000,,,VFR,,,,,,,,,,,,METAR,7.0
KPDX 062053Z 11012KT 10SM SCT041 BKN050 OVC080 08/03 A3004 RMK AO2 RAE1957 SLP174 P0000 60000 T00780033 50001,KPDX,2023-03-06T20:53:00Z,45.6,-122.62,7.8,3.3,110,12,,10.0,30.041338,1017.4,,,TRUE,,,,,,,SCT,4100,BKN,5000,OVC,8000,,,VFR,0.1,,,,,0.005,0.005,,,,,METAR,7.0
KPDX 061953Z 11009KT 10SM -RA FEW025 FEW030 BKN037 07/04 A3005 RMK AO2 RAB15 SLP176 P0000 T00670039,KPDX,2023-03-06T19:53:00Z,45.6,-122.62,6.7,3.9,110,9,,10.0,30.050198,1017.6,,,TRUE,,,,,,-RA,FEW,2500,FEW,3000,BKN,3700,,,VFR,,,,,,0.005,,,,,,METAR,7.0
KPDX 061919Z 11010KT 10SM -RA SCT024 OVC040 06/03 A3006 RMK AO2 RAB15 P0000 T00610028,KPDX,2023-03-06T19:19:00Z,45.6,-122.62,6.1,2.8,110,10,,10.0,30.059055,,,,TRUE,,,,,,-RA,SCT,2400,OVC,4000,,,,,VFR,,,,,,0.005,,,,,,SPECI,7.0
KPDX 061853Z VRB06KT 10SM BKN028 OVC036 06/02 A3006 RMK AO2 RAB20E32 SLP178 P0000 T00560022,KPDX,2023-03-06T18:53:00Z,45.6,-122.62,5.6,2.2,0,6,,10.0,30.059055,1017.8,,,TRUE,,,,,,,BKN,2800,OVC,3600,,,,,MVFR,,,,,,0.005,,,,,,METAR,7.0
KPDX 061753Z 12010KT 10SM SCT024 BKN036 OVC055 04/02 A3004 RMK AO2 RAB00E11 SLP173 P0000 60005 T00440017 10044 20022 51013,KPDX,2023-03-06T17:53:00Z,45.6,-122.62,4.4,1.7,120,10,,10.0,30.041338,1017.3,,,TRUE,,,,,,,SCT,2400,BKN,3600,OVC,5500,,,VFR,1.3,4.4,2.2,,,0.005,,0.05,,,,METAR,7.0
KPDX 061653Z 12010KT 10SM BKN025 OVC033 03/01 A3003 RMK AO2 RAE1555 SLP169 P0000 T00330011,KPDX,2023-03-06T16:53:00Z,45.6,-122.62,3.3,1.1,120,10,,10.0,30.029528,1016.9,,,TRUE,,,,,,,BKN,2500,OVC,3300,,,,,MVFR,,,,,,0.005,,,,,,METAR,7.0
KPDX 061630Z 11010KT 10SM BKN027 OVC036 03/01 A3003 RMK AO2 RAE1555 P0000 T00280011,KPDX,2023-03-06T16:30:00Z,45.6,-122.62,2.8,1.1,110,10,,10.0,30.029528,,,,TRUE,,,,,,,BKN,2700,OVC,3600,,,,,MVFR,,,,,,0.005,,,,,,SPECI,7.0
KPDX 061600Z 11011KT 10SM FEW016 SCT023 BKN036 03/01 A3002 RMK AO2 RAE1555 P0000 T00280011,KPDX,2023-03-06T16:00:00Z,45.6,-122.62,2.8,1.1,110,11,,10.0,30.02067,,,,TRUE,,,,,,,FEW,1600,SCT,2300,BKN,3600,,,VFR,,,,,,0.005,,,,,,METAR,7.0
KPDX 061553Z 11011KT 10SM -RA SCT016 BKN023 BKN034 03/01 A3002 RMK AO2 SLP165 P0001 T00280006,KPDX,2023-03-06T15:53:00Z,45.6,-122.62,2.8,0.6,110,11,,10.0,30.02067,1016.5,,,TRUE,,,,,,-RA,SCT,1600,BKN,2300,BKN,3400,,,MVFR,,,,,,0.01,,,,,,METAR,7.0
KPDX 061453Z 10014KT 10SM -RA BKN015 OVC023 02/01 A3000 RMK AO2 UPB08E10 SLP159 P0001 60004 T00220006 51014,KPDX,2023-03-06T14:53:00Z,45.6,-122.62,2.2,0.6,100,14,,10.0,30.0,1015.9,,,TRUE,,,,,,-RA,BKN,1500,OVC,2300,,,,,MVFR,1.4,,,,,0.01,0.04,,,,,METAR,7.0
KPDX 061353Z 10010KT 9SM -RA OVC016 03/01 A2999 RMK AO2 RAE23B44 SLP155 P0002 T00280006,KPDX,2023-03-06T13:53:00Z,45.6,-122.62,2.8,0.6,100,10,,9.0,29.991142,1015.5,,,TRUE,,,,,,-RA,OVC,1600,,,,,,,MVFR,,,,,,0.02,,,,,,METAR,7.0
KPDX 061253Z 12009KT 10SM -RA OVC022 03/01 A2997 RMK AO2 RAB1158 SLP150 P0001 T00330006,KPDX,2023-03-06T12:53:00Z,45.6,-122.62,3.3,0.6,120,9,,10.0,29.970472,1015.0,,,TRUE,,,,,,-RA,OVC,2200,,,,,,,MVFR,,,,,,0.01,,,,,,METAR,7.0
KPDX 061205Z 12011KT 10SM -RA BKN026 BKN035 OVC055 03/01 A2996 RMK AO2 RAB1158 P0000 T00280006,KPDX,2023-03-06T12:05:00Z,45.6,-122.62,2.8,0.6,120,11,,10.0,29.958662,,,,TRUE,,,,,,-RA,BKN,2600,BKN,3500,OVC,5500,,,MVFR,,,,,,0.005,,,,,,SPECI,7.0
KPDX 061153Z 12011KT 10SM FEW035 BKN055 BKN080 03/01 A2996 RMK AO2 SLP145 60000 70005 T00280006 10033 20028 51005,KPDX,2023-03-06T11:53:00Z,45.6,-122.62,2.8,0.6,120,11,,10.0,29.958662,1014.5,,,TRUE,,,,,,,FEW,3500,BKN,5500,BKN,8000,,,VFR,0.5,3.3,2.8,,,,,0.005,0.05,,,METAR,7.0
KPDX 061053Z 10009KT 10SM FEW035 BKN075 BKN100 03/01 A2996 RMK AO2 SLP144 T00280006,KPDX,2023-03-06T10:53:00Z,45.6,-122.62,2.8,0.6,100,9,,10.0,29.958662,1014.4,,,TRUE,,,,,,,FEW,3500,BKN,7500,BKN,10000,,,VFR,,,,,,,,,,,,METAR,7.0
KPDX 060953Z 11006KT 10SM BKN046 03/01 A2996 RMK AO2 SLP144 T00280006,KPDX,2023-03-06T09:53:00Z,45.6,-122.62,2.8,0.6,110,6,,10.0,29.958662,1014.4,,,TRUE,,,,,,,BKN,4600,,,,,,,VFR,,,,,,,,,,,,METAR,7.0
KPDX 060853Z 12008KT 10SM BKN041 03/01 A2995 RMK AO2 RAE07 SLP140 P0000 60000 T00330011 53010,KPDX,2023-03-06T08:53:00Z,45.6,-122.62,3.3,1.1,120,8,,10.0,29.949802,1014.0,,,TRUE,,,,,,,BKN,4100,,,,,,,VFR,1.0,,,,,0.005,0.005,,,,,METAR,7.0
KPDX 060753Z 11007KT 10SM -RA BKN043 OVC055 03/01 A2994 RMK AO2 RAB41 SLP137 P0000 T00330011 400780011,KPDX,2023-03-06T07:53:00Z,45.6,-122.62,3.3,1.1,110,7,,10.0,29.940945,1013.7,,,TRUE,,,,,,-RA,BKN,4300,OVC,5500,,,,,VFR,,,,7.8,1.1,0.005,,,,,,METAR,7.0
KPDX 060653Z 12009KT 10SM BKN060 BKN070 03/01 A2992 RMK AO2 SLP132 T00330011,KPDX,2023-03-06T06:53:00Z,45.6,-122.62,3.3,1.1,120,9,,10.0,29.920275,1013.2,,,TRUE,,,,,,,BKN,6000,BKN,7000,,,,,VFR,,,,,,,,,,,,METAR,7.0
KPDX 060553Z 11007KT 10SM SCT070 03/01 A2991 RMK AO2 SLP130 60005 T00280011 10072 20028 51011,KPDX,2023-03-06T05:53:00Z,45.6,-122.62,2.8,1.1,110,7,,10.0,29.911417,1013.0,,,TRUE,,,,,,,SCT,7000,,,,,,,VFR,1.1,7.2,2.8,,,,,0.05,,,,METAR,7.0
KPDX 060453Z 11008KT 10SM BKN070 04/01 A2990 RMK AO2 SLP126 T00390011,KPDX,2023-03-06T04:53:00Z,45.6,-122.62,3.9,1.1,110,8,,10.0,29.899607,1012.6,,,TRUE,,,,,,,BKN,7000,,,,,,,VFR,,,,,,,,,,,,METAR,7.0
KPDX 060353Z 10010KT 10SM FEW045 FEW200 04/01 A2989 RMK AO2 SLP123 T00390011,KPDX,2023-03-06T03:53:00Z,45.6,-122.62,3.9,1.1,100,10,,10.0,29.890747,1012.3,,,TRUE,,,,,,,FEW,4500,FEW,20000,,,,,VFR,,,,,,,,,,,,METAR,7.0
KPDX 060253Z 12006KT 10SM FEW041 SCT055 SCT200 04/02 A2988 RMK AO2 SLP119 60005 T00440022 51024,KPDX,2023-03-06T02:53:00Z,45.6,-122.62,4.4,2.2,120,6,,10.0,29.878937,1011.9,,,TRUE,,,,,,,FEW,4100,SCT,5500,SCT,20000,,,VFR,2.4,,,,,,0.05,,,,,METAR,7.0
KPDX 060153Z 14006KT 10SM SCT030 BKN045 BKN100 04/02 A2987 RMK AO2 RAE50 SLP114 P0005 T00440017,KPDX,2023-03-06T01:53:00Z,45.6,-122.62,4.4,1.7,140,6,,10.0,29.870079,1011.4,,,TRUE,,,,,,,SCT,3000,BKN,4500,BKN,10000,,,VFR,,,,,,0.05,,,,,,METAR,7.0
KPDX 060142Z 13005KT 10SM -RA BKN030 BKN045 BKN060 05/02 A2986 RMK AO2 P0005 T00500022,KPDX,2023-03-06T01:42:00Z,45.6,-122.62,5.0,2.2,130,5,,10.0,29.861221,,,,TRUE,,,,,,-RA,BKN,3000,BKN,4500,BKN,6000,,,MVFR,,,,,,0.05,,,,,,METAR,7.0
KPDX 060104Z 23013KT 5SM -RA BKN022 BKN036 OVC065 04/02 A2985 RMK AO2 P0001 T00440017,KPDX,2023-03-06T01:04:00Z,45.6,-122.62,4.4,1.7,230,13,,5.0,29.84941,,,,TRUE,,,,,,-RA,BKN,2200,BKN,3600,OVC,6500,,,MVFR,,,,,,0.01,,,,,,SPECI,7.0
KPDX 060053Z 23017KT 10SM -RA FEW022 BKN035 OVC065 06/02 A2984 RMK AO2 RAE17B53 SLP104 P0000 T00610017,KPDX,2023-03-06T00:53:00Z,45.6,-122.62,6.1,1.7,230,17,,10.0,29.840551,1010.4,,,TRUE,,,,,,-RA,FEW,2200,BKN,3500,OVC,6500,,,VFR,,,,,,0.005,,,,,,METAR,7.0
KPDX 060020Z 18007KT 10SM BKN026 BKN032 OVC041 07/02 A2982 RMK AO2 RAE17 P0000 T00720017,KPDX,2023-03-06T00:20:00Z,45.6,-122.62,7.2,1.7,180,7,,10.0,29.819881,,,,TRUE,,,,,,,BKN,2600,BKN,3200,OVC,4100,,,MVFR,,,,,,0.005,,,,,,SPECI,7.0
KPDX 052353Z 17007KT 10SM -RA SCT027 BKN039 OVC065 07/02 A2981 RMK AO2 RAB48 SLP095 P0000 60000 T00720017 10078 20033 53022,KPDX,2023-03-05T23:53:00Z,45.6,-122.62,7.2,1.7,170,7,,10.0,29.811024,1009.5,,,TRUE,,,,,,-RA,SCT,2700,BKN,3900,OVC,6500,,,VFR,2.2,7.8,3.3,,,0.005,,0.005,,,,METAR,7.0
KPDX 052312Z 22007KT 10SM SCT027 BKN031 OVC045 08/01 A2979 RMK AO2 T00780011,KPDX,2023-03-05T23:12:00Z,45.6,-122.62,7.8,1.1,220,7,,10.0,29.790354,,,,TRUE,,,,,,,SCT,2700,BKN,3100,OVC,4500,,,VFR,,,,,,,,,,,,SPECI,7.0
KPDX 052253Z 21008KT 10SM BKN024 BKN029 OVC038 08/01 A2978 RMK AO2 SLP085 T00780011,KPDX,2023-03-05T22:53:00Z,45.6,-122.62,7.8,1.1,210,8,,10.0,29.778543,1008.5,,,TRUE,,,,,,,BKN,2400,BKN,2900,OVC,3800,,,MVFR,,,,,,,,,,,,METAR,7.0
KPDX 052220Z 22006KT 10SM SCT027 OVC036 07/01 A2977 RMK AO2 T00720011,KPDX,2023-03-05T22:20:00Z,45.6,-122.62,7.2,1.1,220,6,,10.0,29.769686,,,,TRUE,,,,,,,SCT,2700,OVC,3600,,,,,VFR,,,,,,,,,,,,SPECI,7.0
KPDX 052153Z 28004KT 10SM BKN029 OVC036 07/02 A2976 RMK AO2 SLP078 T00720017,KPDX,2023-03-05T21:53:00Z,45.6,-122.62,7.2,1.7,280,4,,10.0,29.760826,1007.8,,,TRUE,,,,,,,BKN,2900,OVC,3600,,,,,MVFR,,,,,,,,,,,,METAR,7.0
KPDX 052053Z VRB03KT 10SM FEW020 OVC043 07/01 A2974 RMK AO2 SLP072 60000 T00720006 51015,KPDX,2023-03-05T20:53:00Z,45.6,-122.62,7.2,0.6,0,3,,10.0,29.740158,1007.2,,,TRUE,,,,,,,FEW,2000,OVC,4300,,,,,VFR,1.5,,,,,,0.005,,,,,METAR,7.0
KPDX 051953Z 13004KT 10SM FEW020 OVC041 06/01 A2973 RMK AO2 RAB21E24 SLP069 P0000 T00560006,KPDX,2023-03-05T19:53:00Z,45.6,-122.62,5.6,0.6,130,4,,10.0,29.731298,1006.9,,,TRUE,,,,,,,FEW,2000,OVC,4100,,,,,VFR,,,,,,0.005,,,,,,METAR,7.0
KPDX 051853Z 12006KT 10SM FEW036 BKN049 OVC065 05/01 A2971 RMK AO2 RAE30 SLP062 P0000 T00500006,KPDX,2023-03-05T18:53:00Z,45.6,-122.62,5.0,0.6,120,6,,10.0,29.71063,1006.2,,,TRUE,,,,,,,FEW,3600,BKN,4900,OVC,6500,,,VFR,,,,,,0.005,,,,,,METAR,7.0
KPDX 051753Z 06003KT 10SM -RA FEW008 OVC040 03/01 A2970 RMK AO2 RAB22E23B31UPB23E30 SLP057 P0000 60000 T00330006 10033 20011 53017,KPDX,2023-03-05T17:53:00Z,45.6,-122.62,3.3,0.6,60,3,,10.0,29.698818,1005.7,,,TRUE,,,,,,-RA,FEW,800,OVC,4000,,,,,VFR,1.7,3.3,1.1,,,0.005,,,,,,SPECI,7.0
KPDX 051732Z 00000KT 8SM -RA FEW004 SCT008 OVC034 03/01 A2970 RMK AO2 RAB22E23B31UPB23E30 P0000 T00280011,KPDX,2023-03-05T17:32:00Z,45.6,-122.62,2.8,1.1,0,0,,8.0,29.698818,,,,TRUE,,,,,,-RA,FEW,400,SCT,800,OVC,3400,,,VFR,,,,,,0.005,,,,,,SPECI,7.0
KPDX 051725Z 00000KT 8SM UP FEW004 BKN034 OVC065 03/01 A2970 RMK AO2 RAB22E23UPB23 P0000 T00280011,KPDX,2023-03-05T17:25:00Z,45.6,-122.62,2.8,1.1,0,0,,8.0,29.698818,,,,TRUE,,,,,,UP,FEW,400,BKN,3400,OVC,6500,,,VFR,,,,,,0.005,,,,,,SPECI,7.0
KPDX 051704Z 00000KT 9SM BKN004 OVC060 02/01 A2969 RMK AO2 T00220011,KPDX,2023-03-05T17:04:00Z,45.6,-122.62,2.2,1.1,0,0,,9.0,29.68996,,,,TRUE,,,,,,,BKN,400,OVC,6000,,,,,LIFR,,,,,,,,,,,,METAR,7.0
KPDX 051653Z 17005KT 1/2SM R10R/P6000FT BR OVC004 02/01 A2969 RMK AO2 SFC VIS 4 SLP052 T00220011,KPDX,2023-03-05T16:53:00Z,45.6,-122.62,2.2,1.1,170,5,,0.5,29.68996,1005.2,,,TRUE,,,,,,BR,OVC,400,,,,,,,LIFR,,,,,,,,,,,,METAR,7.0
KPDX 051633Z 00000KT 1/2SM R10R/P6000FT BR OVC003 02/01 A2967 RMK AO2 SFC VIS 3 T00220011,KPDX,2023-03-05T16:33:00Z,45.6,-122.62,2.2,1.1,0,0,,0.5,29.66929,,,,TRUE,,,,,,BR,OVC,300,,,,,,,LIFR,,,,,,,,,,,,SPECI,7.0
KPDX 051553Z 33003KT 1/2SM R10R/1800V2400FT BR BKN002 OVC110 02/01 A2966 RMK AO2 SFC VIS 1 SLP042 T00170006,KPDX,2023-03-05T15:53:00Z,45.6,-122.62,1.7,0.6,330,3,,0.5,29.660433,1004.2,,,TRUE,,,,,,BR,BKN,200,OVC,11000,,,,,LIFR,,,,,,,,,,,,METAR,7.0
KPDX 051542Z 33004KT 1/2SM R10R/1800V2800FT BR OVC002 02/01 A2965 RMK AO2 SFC VIS 1 T00170006,KPDX,2023-03-05T15:42:00Z,45.6,-122.62,1.7,0.6,330,4,,0.5,29.648623,,,,TRUE,,,,,,BR,OVC,200,,,,,,,LIFR,,,,,,,,,,,,METAR,7.0
KPDX 051534Z 00000KT 1/2SM R10R/1800V2000FT BR OVC002 02/01 A2965 RMK AO2 SFC VIS 1 T00170006,KPDX,2023-03-05T15:34:00Z,45.6,-122.62,1.7,0.6,0,0,,0.5,29.648623,,,,TRUE,,,,,,BR,OVC,200,,,,,,,LIFR,,,,,,,,,,,,SPECI,7.0
KPDX 051527Z 00000KT 1/4SM R10R/1800V2200FT FG VV002 02/01 A2965 RMK AO2 SFC VIS 1/2 T00170006,KPDX,2023-03-05T15:27:00Z,45.6,-122.62,1.7,0.6,0,0,,0.25,29.648623,,,,TRUE,,,,,,FG,OVX,0,,,,,,,LIFR,,,,,,,,,,,200,SPECI,7.0
KPDX 051520Z 34003KT 1/4SM R10R/2000V2600FT BR BKN002 BKN008 OVC110 01/01 A2965 RMK AO2 SFC VIS 1 T00110006,KPDX,2023-03-05T15:20:00Z,45.6,-122.62,1.1,0.6,340,3,,0.25,29.648623,,,,TRUE,,,,,,BR,BKN,200,BKN,800,OVC,11000,,,LIFR,,,,,,,,,,,,SPECI,7.0
KPDX 051511Z 35003KT 1/4SM R10R/2600V4000FT BCFG SCT002 BKN110 01/01 A2965 RMK AO2 SFC VIS 7 VIS W 1 T00110006,KPDX,2023-03-05T15:11:00Z,45.6,-122.62,1.1,0.6,350,3,,0.25,29.648623,,,,TRUE,,,,,,BCFG,SCT,200,BKN,11000,,,,,LIFR,,,,,,,,,,,,SPECI,7.0
KPDX 051453Z VRB04KT 7SM R10R/6000VP6000FT BCFG SCT004 BKN110 02/00 A2965 RMK AO2 SLP040 T00170000 58001,KPDX,2023-03-05T14:53:00Z,45.6,-122.62,1.7,0.0,0,4,,7.0,29.648623,1004.0,,,TRUE,,,,,,BCFG,SCT,400,BKN,11000,,,,,VFR,-0.1,,,,,,,,,,,METAR,7.0
KPDX 051353Z 33003KT 10SM FEW004 BKN140 02/00 A2966 RMK AO2 SLP043 T00170000,KPDX,2023-03-05T13:53:00Z,45.6,-122.62,1.7,0.0,330,3,,10.0,29.660433,1004.3,,,TRUE,,,,,,,FEW,400,BKN,14000,,,,,VFR,,,,,,,,,,,,METAR,7.0
KPDX 051301Z 34003KT 8SM SCT006 BKN150 02/00 A2965 RMK AO2 T00170000,KPDX,2023-03-05T13:01:00Z,45.6,-122.62,1.7,0.0,340,3,,8.0,29.648623,,,,TRUE,,,,,,,SCT,600,BKN,15000,,,,,VFR,,,,,,,,,,,,METAR,7.0
KPDX 051253Z 35004KT 8SM BKN006 BKN150 02/01 A2965 RMK AO2 SLP040 T00170006,KPDX,2023-03-05T12:53:00Z,45.6,-122.62,1.7,0.6,350,4,,8.0,29.648623,1004.0,,,TRUE,,,,,,,BKN,600,BKN,15000,,,,,IFR,,,,,,,,,,,,METAR,7.0
KPDX 051234Z 02004KT 5SM BR BKN006 02/01 A2965 RMK AO2 T00220006,KPDX,2023-03-05T12:34:00Z,45.6,-122.62,2.2,0.6,20,4,,5.0,29.648623,,,,TRUE,,,,,,BR,BKN,600,,,,,,,IFR,,,,,,,,,,,,SPECI,7.0
KPDX 051209Z 11004KT 1/2SM R10R/P6000FT BR BKN004 02/01 A2965 RMK AO2 SFC VIS 5 T00170006,KPDX,2023-03-05T12:09:00Z,45.6,-122.62,1.7,0.6,110,4,,0.5,29.648623,,,,TRUE,,,,,,BR,BKN,400,,,,,,,LIFR,,,,,,,,,,,,SPECI,7.0
KPDX 051153Z 10006KT 1/2SM R10R/P6000FT BR BKN002 02/01 A2966 RMK AO2 SFC VIS 2 SLP041 60003 70021 T00170006 10039 20017 56008,KPDX,2023-03-05T11:53:00Z,45.6,-122.62,1.7,0.6,100,6,,0.5,29.660433,1004.1,,,TRUE,,,,,,BR,BKN,200,,,,,,,LIFR,-0.8,3.9,1.7,,,,,0.03,0.21,,,METAR,7.0
KPDX 051111Z 12007KT 1/2SM R10R/P6000FT BR BKN002 02/01 A2966 RMK AO2 SFC VIS 2 T00170006,KPDX,2023-03-05T11:11:00Z,45.6,-122.62,1.7,0.6,120,7,,0.5,29.660433,,,,TRUE,,,,,,BR,BKN,200,,,,,,,LIFR,,,,,,,,,,,,SPECI,7.0
KPDX 051059Z 11005KT 1 1/2SM BR BKN004 02/01 A2966 RMK AO2 SFC VIS 3 T00170006,KPDX,2023-03-05T10:59:00Z,45.6,-122.62,1.7,0.6,110,5,,1.5,29.660433,,,,TRUE,,,,,,BR,BKN,400,,,,,,,LIFR,,,,,,,,,,,,METAR,7.0
KPDX 051053Z 11006KT 10SM BKN004 02/01 A2966 RMK AO2 SLP043 T00170006,KPDX,2023-03-05T10:53:00Z,45.6,-122.62,1.7,0.6,110,6,,10.0,29.660433,1004.3,,,TRUE,,,,,,,BKN,400,,,,,,,LIFR,,,,,,,,,,,,SPECI,7.0
KPDX 051051Z 11007KT 10SM BKN004 02/01 A2966 RMK AO2,KPDX,2023-03-05T10:51:00Z,45.6,-122.62,2.0,1.0,110,7,,10.0,29.660433,,,,TRUE,,,,,,,BKN,400,,,,,,,LIFR,,,,,,,,,,,,SPECI,7.0
KPDX 051040Z 12007KT 10SM SCT005 02/01 A2966 RMK AO2 T00220006,KPDX,2023-03-05T10:40:00Z,45.6,-122.62,2.2,0.6,120,7,,10.0,29.660433,,,,TRUE,,,,,,,SCT,500,,,,,,,VFR,,,,,,,,,,,,SPECI,7.0
KPDX 050953Z 12006KT 10SM FEW045 02/01 A2967 RMK AO2 SLP046 T00220006,KPDX,2023-03-05T09:53:00Z,45.6,-122.62,2.2,0.6,120,6,,10.0,29.66929,1004.6,,,TRUE,,,,,,,FEW,4500,,,,,,,VFR,,,,,,,,,,,,METAR,7.0
KPDX 050853Z 11007KT 10SM SCT021 BKN110 03/01 A2968 RMK AO2 SLP049 60003 T00280006 50008,KPDX,2023-03-05T08:53:00Z,45.6,-122.62,2.8,0.6,110,7,,10.0,29.681103,1004.9,,,TRUE,,,,,,,SCT,2100,BKN,11000,,,,,VFR,0.8,,,,,,0.03,,,,,METAR,7.0
KPDX 050753Z 14006KT 10SM BKN021 04/02 A2968 RMK AO2 RAE45 SLP049 P0001 T00390017 400890039,KPDX,2023-03-05T07:53:00Z,45.6,-122.62,3.9,1.7,140,6,,10.0,29.681103,1004.9,,,TRUE,,,,,,,BKN,2100,,,,,,,MVFR,,,,8.9,3.9,0.01,,,,,,METAR,7.0
KPDX 050653Z 14006KT 9SM -RA SCT019 BKN026 OVC035 04/02 A2967 RMK AO2 RAE01B24 SLP047 P0002 T00390017,KPDX,2023-03-05T06:53:00Z,45.6,-122.62,3.9,1.7,140,6,,9.0,29.66929,1004.7,,,TRUE,,,,,,-RA,SCT,1900,BKN,2600,OVC,3500,,,MVFR,,,,,,0.02,,,,,,METAR,7.0
KPDX 050636Z 19003KT 10SM -RA BKN026 BKN035 OVC080 04/02 A2967 RMK AO2 RAE01B24 P0000 T00390022,KPDX,2023-03-05T06:36:00Z,45.6,-122.62,3.9,2.2,190,3,,10.0,29.66929,,,,TRUE,,,,,,-RA,BKN,2600,BKN,3500,OVC,8000,,,MVFR,,,,,,0.005,,,,,,METAR,7.0
KPDX 050553Z 15005KT 10SM -RA FEW018 SCT032 OVC050 04/01 A2965 RMK AO2 SLP041 P0001 60003 T00390011 10083 20039 51018,KPDX,2023-03-05T05:53:00Z,45.6,-122.62,3.9,1.1,150,5,,10.0,29.648623,1004.1,,,TRUE,,,,,,-RA,FEW,1800,SCT,3200,OVC,5000,,,VFR,1.8,8.3,3.9,,,0.01,,0.03,,,,METAR,7.0
KPDX 050512Z 15006KT 10SM -RA FEW018 BKN032 OVC065 04/01 A2964 RMK AO2 P0001 T00390011,KPDX,2023-03-05T05:12:00Z,45.6,-122.62,3.9,1.1,150,6,,10.0,29.639763,,,,TRUE,,,,,,-RA,FEW,1800,BKN,3200,OVC,6500,,,VFR,,,,,,0.01,,,,,,METAR,7.0
KPDX 050453Z 19006KT 6SM RA BR BKN016 BKN022 OVC034 04/02 A2964 RMK AO2 RAE03B32 SLP037 P0002 T00390017,KPDX,2023-03-05T04:53:00Z,45.6,-122.62,3.9,1.7,190,6,,6.0,29.639763,1003.7,,,TRUE,,,,,,RA BR,BKN,1600,BKN,2200,OVC,3400,,,MVFR,,,,,,0.02,,,,,,METAR,7.0
KPDX 050353Z 18006KT 10SM -RA BKN040 BKN055 OVC070 06/01 A2961 RMK AO2 RAB50 SLP028 P0000 T00560006,KPDX,2023-03-05T03:53:00Z,45.6,-122.62,5.6,0.6,180,6,,10.0,29.610237,1002.8,,,TRUE,,,,,,-RA,BKN,4000,BKN,5500,OVC,7000,,,VFR,,,,,,0.005,,,,,,METAR,7.0
KPDX 050253Z 16005KT 10SM FEW027 BKN040 BKN075 06/01 A2960 RMK AO2 RAE05 SLP023 P0000 60000 T00560011 53023,KPDX,2023-03-05T02:53:00Z,45.6,-122.62,5.6,1.1,160,5,,10.0,29.601377,1002.3,,,TRUE,,,,,,,FEW,2700,BKN,4000,BKN,7500,,,VFR,2.3,,,,,0.005,0.005,,,,,METAR,7.0
KPDX 050220Z 17007KT 10SM SCT027 BKN035 BKN075 06/01 A2958 RMK AO2 RAE05 P0000 T00610011,KPDX,2023-03-05T02:20:00Z,45.6,-122.62,6.1,1.1,170,7,,10.0,29.58071,,,,TRUE,,,,,,,SCT,2700,BKN,3500,BKN,7500,,,VFR,,,,,,0.005,,,,,,SPECI,7.0
KPDX 050203Z 17006KT 10SM -RA BKN027 OVC036 07/02 A2958 RMK AO2 P0000 T00670017,KPDX,2023-03-05T02:03:00Z,45.6,-122.62,6.7,1.7,170,6,,10.0,29.58071,,,,TRUE,,,,,,-RA,BKN,2700,OVC,3600,,,,,MVFR,,,,,,0.005,,,,,,SPECI,7.0
KPDX 050153Z 14004KT 10SM -RA SCT027 BKN045 OVC060 06/02 A2957 RMK AO2 RAB46 SLP014 P0000 T00610022,KPDX,2023-03-05T01:53:00Z,45.6,-122.62,6.1,2.2,140,4,,10.0,29.568897,1001.4,,,TRUE,,,,,,-RA,SCT,2700,BKN,4500,OVC,6000,,,VFR,,,,,,0.005,,,,,,METAR,7.0
KPDX 050053Z 21008KT 10SM FEW028 FEW040 FEW085 SCT250 07/01 A2955 RMK AO2 PK WND 20026/0003 SLP005 TCU DSNT NE T00670011,KPDX,2023-03-05T00:53:00Z,45.6,-122.62,6.7,1.1,210,8,,10.0,29.551182,1000.5,,,TRUE,,,,,,,FEW,2800,FEW,4000,FEW,8500,SCT,25000,VFR,,,,,,,,,,,,METAR,7.0
KPDX 042353Z 21015G18KT 10SM SCT037 BKN048 BKN080 BKN250 08/01 A2953 RMK AO2 SLP998 60001 T00830006 10089 20050 50010,KPDX,2023-03-04T23:53:00Z,45.6,-122.62,8.3,0.6,210,15,18,10.0,29.530512,999.8,,,TRUE,,,,,,,SCT,3700,BKN,4800,BKN,8000,BKN,25000,VFR,1.0,8.9,5.0,,,,,0.01,,,,METAR,7.0
KPDX 042253Z 19010G19KT 10SM SCT033 BKN043 BKN050 08/01 A2953 RMK AO2 SLP999 T00830011,KPDX,2023-03-04T22:53:00Z,45.6,-122.62,8.3,1.1,190,10,19,10.0,29.530512,999.9,,,TRUE,,,,,,,SCT,3300,BKN,4300,BKN,5000,,,VFR,,,,,,,,,,,,METAR,7.0
KPDX 042153Z 20016G21KT 10SM SCT033 BKN044 BKN110 BKN250 08/01 A2951 RMK AO2 PK WND 21029/2055 SLP992 T00830011,KPDX,2023-03-04T21:53:00Z,45.6,-122.62,8.3,1.1,200,16,21,10.0,29.509842,999.2,,,TRUE,,,,,,,SCT,3300,BKN,4400,BKN,11000,BKN,25000,VFR,,,,,,,,,,,,METAR,7.0
KPDX 042053Z 19015G22KT 10SM BKN038 OVC048 08/01 A2950 RMK AO2 SLP989 60001 T00830011 50004,KPDX,2023-03-04T20:53:00Z,45.6,-122.62,8.3,1.1,190,15,22,10.0,29.500984,998.9,,,TRUE,,,,,,,BKN,3800,OVC,4800,,,,,VFR,0.4,,,,,,0.01,,,,,METAR,7.0
KPDX 041953Z 18015G22KT 10SM BKN027 BKN033 08/02 A2950 RMK AO2 RAE00 SLP990 P0000 T00830017,KPDX,2023-03-04T19:53:00Z,45.6,-122.62,8.3,1.7,180,15,22,10.0,29.500984,999.0,,,TRUE,,,,,,,BKN,2700,BKN,3300,,,,,MVFR,,,,,,0.005,,,,,,METAR,7.0
KPDX 041853Z 11014KT 10SM -RA OVC027 05/01 A2950 RMK AO2 RAB1756 SLP989 P0001 T00500011,KPDX,2023-03-04T18:53:00Z,45.6,-122.62,5.0,1.1,110,14,,10.0,29.500984,998.9,,,TRUE,,,,,,-RA,OVC,2700,,,,,,,MVFR,,,,,,0.01,,,,,,METAR,7.0
KPDX 041753Z 13006KT 10SM BKN024 OVC039 05/01 A2949 RMK AO2 RAE52 SLP986 P0002 60014 T00500006 10056 20044 55009,KPDX,2023-03-04T17:53:00Z,45.6,-122.62,5.0,0.6,130,6,,10.0,29.489174,998.6,,,TRUE,,,,,,,BKN,2400,OVC,3900,,,,,MVFR,-0.9,5.6,4.4,,,0.02,,0.14,,,,METAR,7.0
KPDX 041731Z 14012KT 8SM -RA BKN024 OVC033 04/01 A2949 RMK AO2 P0002 T00440006,KPDX,2023-03-04T17:31:00Z,45.6,-122.62,4.4,0.6,140,12,,8.0,29.489174,,,,TRUE,,,,,,-RA,BKN,2400,OVC,3300,,,,,MVFR,,,,,,0.02,,,,,,SPECI,7.0
KPDX 041653Z 12010KT 10SM -RA OVC041 04/01 A2948 RMK AO2 SLP983 P0003 T00440011,KPDX,2023-03-04T16:53:00Z,45.6,-122.62,4.4,1.1,120,10,,10.0,29.480314,998.3,,,TRUE,,,,,,-RA,OVC,4100,,,,,,,VFR,,,,,,0.03,,,,,,METAR,7.0
KPDX 041553Z 10012KT 8SM -RA OVC026 04/01 A2950 RMK AO2 SLP988 P0004 T00440011,KPDX,2023-03-04T15:53:00Z,45.6,-122.62,4.4,1.1,100,12,,8.0,29.500984,998.8,,,TRUE,,,,,,-RA,OVC,2600,,,,,,,MVFR,,,,,,0.04,,,,,,SPECI,7.0
KPDX 041453Z 11011KT 9SM -RA BKN028 OVC033 05/01 A2952 RMK AO2 SLP995 P0004 60005 T00500011 56021,KPDX,2023-03-04T14:53:00Z,45.6,-122.62,5.0,1.1,110,11,,9.0,29.518702,999.5,,,TRUE,,,,,,-RA,BKN,2800,OVC,3300,,,,,MVFR,-2.1,,,,,0.04,0.05,,,,,METAR,7.0
KPDX 041353Z 11012KT 10SM -RA BKN027 OVC033 05/01 A2953 RMK AO2 SLP001 P0001 T00500011,KPDX,2023-03-04T13:53:00Z,45.6,-122.62,5.0,1.1,110,12,,10.0,29.530512,1000.1,,,TRUE,,,,,,-RA,BKN,2700,OVC,3300,,,,,MVFR,,,,,,0.01,,,,,,METAR,7.0
KPDX 041327Z 14007KT 10SM -RA BKN027 OVC036 05/01 A2955 RMK AO2 P0001 T00500006,KPDX,2023-03-04T13:27:00Z,45.6,-122.62,5.0,0.6,140,7,,10.0,29.551182,,,,TRUE,,,,,,-RA,BKN,2700,OVC,3600,,,,,MVFR,,,,,,0.01,,,,,,SPECI,7.0
KPDX 041253Z 12010KT 10SM -RA FEW033 OVC048 05/01 A2955 RMK AO2 RAB49 SLP006 P0000 T00500011,KPDX,2023-03-04T12:53:00Z,45.6,-122.62,5.0,1.1,120,10,,10.0,29.551182,1000.6,,,TRUE,,,,,,-RA,FEW,3300,OVC,4800,,,,,VFR,,,,,,0.005,,,,,,METAR,7.0
KPDX 041153Z 12008KT 10SM SCT033 BKN047 OVC055 04/02 A2958 RMK AO2 RAE30 SLP015 P0000 60006 70017 T00440022 10061 20044 58040,KPDX,2023-03-04T11:53:00Z,45.6,-122.62,4.4,2.2,120,8,,10.0,29.58071,1001.5,,,TRUE,,,,,,,SCT,3300,BKN,4700,OVC,5500,,,VFR,-4.0,6.1,4.4,,,0.005,,0.06,0.17,,,METAR,7.0
KPDX 041053Z 12009KT 10SM -RA BKN035 OVC043 04/02 A2962 RMK AO2 SLP027 P0001 T00440017,KPDX,2023-03-04T10:53:00Z,45.6,-122.62,4.4,1.7,120,9,,10.0,29.619095,1002.7,,,TRUE,,,,,,-RA,BKN,3500,OVC,4300,,,,,VFR,,,,,,0.01,,,,,,METAR,7.0
KPDX 040953Z 10008KT 10SM -RA OVC033 05/02 A2966 RMK AO2 RAE0857B36 SLP044 P0001 T00500017,KPDX,2023-03-04T09:53:00Z,45.6,-122.62,5.0,1.7,100,8,,10.0,29.660433,1004.4,,,TRUE,,,,,,-RA,OVC,3300,,,,,,,VFR,,,,,,0.01,,,,,,METAR,7.0
KPDX 040921Z 11009KT 10SM SCT028 BKN040 OVC060 05/02 A2968 RMK AO2 RAE0857 P0000 T00500017,KPDX,2023-03-04T09:21:00Z,45.6,-122.62,5.0,1.7,110,9,,10.0,29.681103,,,,TRUE,,,,,,,SCT,2800,BKN,4000,OVC,6000,,,VFR,,,,,,0.005,,,,,,SPECI,7.0
KPDX 040853Z 11011KT 10SM -RA BKN024 OVC032 04/02 A2970 RMK AO2 SLP055 P0000 60004 T00440017 58019,KPDX,2023-03-04T08:53:00Z,45.6,-122.62,4.4,1.7,110,11,,10.0,29.698818,1005.5,,,TRUE,,,,,,-RA,BKN,2400,OVC,3200,,,,,MVFR,-1.9,,,,,0.005,0.04,,,,,METAR,7.0
KPDX 040828Z 12011KT 10SM -RA BKN024 OVC032 05/02 A2971 RMK AO2 P0000 T00500017,KPDX,2023-03-04T08:28:00Z,45.6,-122.62,5.0,1.7,120,11,,10.0,29.71063,,,,TRUE,,,,,,-RA,BKN,2400,OVC,3200,,,,,MVFR,,,,,,0.005,,,,,,SPECI,7.0
KPDX 040753Z 12009KT 10SM -RA SCT025 SCT033 OVC045 05/02 A2972 RMK AO2 SLP062 P0003 T00500022 400890028,KPDX,2023-03-04T07:53:00Z,45.6,-122.62,5.0,2.2,120,9,,10.0,29.719488,1006.2,,,TRUE,,,,,,-RA,SCT,2500,SCT,3300,OVC,4500,,,VFR,,,,8.9,2.8,0.03,,,,,,METAR,7.0
KPDX 040653Z 18012G19KT 10SM -RA BKN022 BKN033 OVC044 06/02 A2975 RMK AO2 SLP074 P0001 T00560017,KPDX,2023-03-04T06:53:00Z,45.6,-122.62,5.6,1.7,180,12,19,10.0,29.749016,1007.4,,,TRUE,,,,,,-RA,BKN,2200,BKN,3300,OVC,4400,,,MVFR,,,,,,0.01,,,,,,METAR,7.0
KPDX 040647Z 17013G17KT 10SM -RA BKN022 BKN033 OVC044 06/02 A2975 RMK AO2 P0001,KPDX,2023-03-04T06:47:00Z,45.6,-122.62,6.0,2.0,170,13,17,10.0,29.749016,,,,TRUE,,,,,,-RA,BKN,2200,BKN,3300,OVC,4400,,,MVFR,,,,,,0.01,,,,,,METAR,7.0
KPDX 040553Z 17012KT 10SM -RA SCT025 BKN046 OVC080 06/02 A2978 RMK AO2 RAB20 SLP084 P0000 60005 T00610017 10061 20050 56023,KPDX,2023-03-04T05:53:00Z,45.6,-122.62,6.1,1.7,170,12,,10.0,29.778543,1008.4,,,TRUE,,,,,,-RA,SCT,2500,BKN,4600,OVC,8000,,,VFR,-2.3,6.1,5.0,,,0.005,,0.05,,,,METAR,7.0
KPDX 040453Z 18009KT 10SM SCT030 BKN060 BKN100 OVC130 06/02 A2980 RMK AO2 RAE33 SLP091 P0000 T00560017,KPDX,2023-03-04T04:53:00Z,45.6,-122.62,5.6,1.7,180,9,,10.0,29.799213,1009.1,,,TRUE,,,,,,,SCT,3000,BKN,6000,BKN,10000,OVC,13000,VFR,,,,,,0.005,,,,,,METAR,7.0
KPDX 040353Z 18009KT 10SM -RA SCT025 BKN050 OVC065 06/02 A2982 RMK AO2 RAB50 SLP097 P0000 T00610022,KPDX,2023-03-04T03:53:00Z,45.6,-122.62,6.1,2.2,180,9,,10.0,29.819881,1009.7,,,TRUE,,,,,,-RA,SCT,2500,BKN,5000,OVC,6500,,,VFR,,,,,,0.005,,,,,,METAR,7.0
KPDX 040253Z 14005KT 10SM BKN025 BKN055 OVC095 05/03 A2985 RMK AO2 RAE06 SLP108 P0000 60005 T00500028 56028,KPDX,2023-03-04T02:53:00Z,45.6,-122.62,5.0,2.8,140,5,,10.0,29.84941,1010.8,,,TRUE,,,,,,,BKN,2500,BKN,5500,OVC,9500,,,MVFR,-2.8,,,,,0.005,0.05,,,,,METAR,7.0
KPDX 040206Z 17004KT 10SM FEW011 BKN030 OVC065 06/03 A2986 RMK AO2 RAE06 P0000 T00560028,KPDX,2023-03-04T02:06:00Z,45.6,-122.62,5.6,2.8,170,4,,10.0,29.861221,,,,TRUE,,,,,,,FEW,1100,BKN,3000,OVC,6500,,,MVFR,,,,,,0.005,,,,,,SPECI,7.0
KPDX 040200Z 17006KT 10SM -RA BKN014 BKN022 OVC070 06/03 A2987 RMK AO2 P0000 T00560028,KPDX,2023-03-04T02:00:00Z,45.6,-122.62,5.6,2.8,170,6,,10.0,29.870079,,,,TRUE,,,,,,-RA,BKN,1400,BKN,2200,OVC,7000,,,MVFR,,,,,,0.005,,,,,,SPECI,7.0
KPDX 040153Z 14006KT 10SM -RA SCT014 BKN025 OVC034 05/03 A2987 RMK AO2 RAB16 SLP115 P0001 T00500028,KPDX,2023-03-04T01:53:00Z,45.6,-122.62,5.0,2.8,140,6,,10.0,29.870079,1011.5,,,TRUE,,,,,,-RA,SCT,1400,BKN,2500,OVC,3400,,,MVFR,,,,,,0.01,,,,,,METAR,7.0
KPDX 040145Z 13004KT 5SM -RA SCT017 BKN028 OVC034 05/02 A2988 RMK AO2 RAB16 P0001 T00500022,KPDX,2023-03-04T01:45:00Z,45.6,-122.62,5.0,2.2,130,4,,5.0,29.878937,,,,TRUE,,,,,,-RA,SCT,1700,BKN,2800,OVC,3400,,,MVFR,,,,,,0.01,,,,,,SPECI,7.0
KPDX 040131Z 12003KT 10SM -RA SCT017 BKN031 OVC060 05/02 A2988 RMK AO2 RAB16 P0000 T00500022,KPDX,2023-03-04T01:31:00Z,45.6,-122.62,5.0,2.2,120,3,,10.0,29.878937,,,,TRUE,,,,,,-RA,SCT,1700,BKN,3100,OVC,6000,,,VFR,,,,,,0.005,,,,,,SPECI,7.0
KPDX 040109Z 15004KT 10SM BKN025 BKN042 OVC070 06/03 A2989 RMK AO2 T00560028,KPDX,2023-03-04T01:09:00Z,45.6,-122.62,5.6,2.8,150,4,,10.0,29.890747,,,,TRUE,,,,,,,BKN,2500,BKN,4200,OVC,7000,,,MVFR,,,,,,,,,,,,SPECI,7.0
KPDX 040053Z 16004KT 10SM BKN030 BKN055 OVC090 06/03 A2989 RMK AO2 RAE53 SLP123 P0004 T00560028,KPDX,2023-03-04T00:53:00Z,45.6,-122.62,5.6,2.8,160,4,,10.0,29.890747,1012.3,,,TRUE,,,,,,,BKN,3000,BKN,5500,OVC,9000,,,MVFR,,,,,,0.04,,,,,,METAR,7.0
KPDX 040029Z 23004KT 10SM -RA BKN030 BKN055 OVC095 05/02 A2990 RMK AO2 P0004 T00500022,KPDX,2023-03-04T00:29:00Z,45.6,-122.62,5.0,2.2,230,4,,10.0,29.899607,,,,TRUE,,,,,,-RA,BKN,3000,BKN,5500,OVC,9500,,,MVFR,,,,,,0.04,,,,,,SPECI,7.0
KPDX 032353Z 25010KT 4SM RA BKN016 BKN025 OVC038 05/02 A2993 RMK AO2 RAB03 SLP135 P0006 60006 T00500022 10089 20050 56028,KPDX,2023-03-03T23:53:00Z,45.6,-122.62,5.0,2.2,250,10,,4.0,29.929134,1013.5,,,TRUE,,,,,,RA,BKN,1600,BKN,2500,OVC,3800,,,MVFR,-2.8,8.9,5.0,,,0.06,,0.06,,,,METAR,7.0
KPDX 032321Z 23012KT 7SM -RA BKN021 BKN030 OVC042 07/02 A2994 RMK AO2 RAB03 P0000 T00670022,KPDX,2023-03-03T23:21:00Z,45.6,-122.62,6.7,2.2,230,12,,7.0,29.940945,,,,TRUE,,,,,,-RA,BKN,2100,BKN,3000,OVC,4200,,,MVFR,,,,,,0.005,,,,,,SPECI,7.0
KPDX 032253Z 22010KT 10SM SCT045 SCT075 BKN090 OVC250 08/02 A2995 RMK AO2 RAB2158E40 SLP141 P0000 T00780017,KPDX,2023-03-03T22:53:00Z,45.6,-122.62,7.8,1.7,220,10,,10.0,29.949802,1014.1,,,TRUE,,,,,,,SCT,4500,SCT,7500,BKN,9000,OVC,25000,VFR,,,,,,0.005,,,,,,METAR,7.0
KPDX 032221Z 20013KT 10SM -RA SCT026 BKN055 OVC070 08/02 A2996 RMK AO2 RAB2158 P0000 T00780017,KPDX,2023-03-03T22:21:00Z,45.6,-122.62,7.8,1.7,200,13,,10.0,29.958662,,,,TRUE,,,,,,-RA,SCT,2600,BKN,5500,OVC,7000,,,VFR,,,,,,0.005,,,,,,SPECI,7.0
KPDX 032153Z 19013G18KT 10SM BKN026 BKN032 OVC049 08/02 A2997 RMK AO2 SLP150 T00830017,KPDX,2023-03-03T21:53:00Z,45.6,-122.62,8.3,1.7,190,13,18,10.0,29.970472,1015.0,,,TRUE,,,,,,,BKN,2600,BKN,3200,OVC,4900,,,MVFR,,,,,,,,,,,,SPECI,7.0
KPDX 032144Z 21008KT 10SM BKN026 BKN032 OVC049 08/02 A2998 RMK AO2 T00830017,KPDX,2023-03-03T21:44:00Z,45.6,-122.62,8.3,1.7,210,8,,10.0,29.97933,,,,TRUE,,,,,,,BKN,2600,BKN,3200,OVC,4900,,,MVFR,,,,,,,,,,,,METAR,7.0
KPDX 032053Z 19011G17KT 10SM SCT023 BKN030 OVC036 08/02 A3001 RMK AO2 RAB1954E15 SLP162 P0000 60000 T00830017 58027,KPDX,2023-03-03T20:53:00Z,45.6,-122.62,8.3,1.7,190,11,17,10.0,30.008858,1016.2,,,TRUE,,,,,,,SCT,2300,BKN,3000,OVC,3600,,,MVFR,-2.7,,,,,0.005,0.005,,,,,METAR,7.0
KPDX 031953Z 21014KT 10SM BKN023 BKN034 07/02 A3005 RMK AO2 SLP177 T00670017,KPDX,2023-03-03T19:53:00Z,45.6,-122.62,6.7,1.7,210,14,,10.0,30.050198,1017.7,,,TRUE,,,,,,,BKN,2300,BKN,3400,,,,,MVFR,,,,,,,,,,,,METAR,7.0
KPDX 031853Z 20009KT 10SM BKN020 BKN034 BKN060 07/02 A3007 RMK AO2 SLP183 T00720017,KPDX,2023-03-03T18:53:00Z,45.6,-122.62,7.2,1.7,200,9,,10.0,30.070866,1018.3,,,TRUE,,,,,,,BKN,2000,BKN,3400,BKN,6000,,,MVFR,,,,,,,,,,,,METAR,7.0
KPDX 031845Z 21010KT 10SM SCT017 SCT060 BKN090 07/02 A3008 RMK AO2 T00670017,KPDX,2023-03-03T18:45:00Z,45.6,-122.62,6.7,1.7,210,10,,10.0,30.079725,,,,TRUE,,,,,,,SCT,1700,SCT,6000,BKN,9000,,,VFR,,,,,,,,,,,,SPECI,7.0
KPDX 031753Z 20010KT 10SM BKN017 BKN027 BKN039 06/02 A3009 RMK AO2 RAB05E16 SLP190 P0000 60000 T00560017 10056 20028 58012,KPDX,2023-03-03T17:53:00Z,45.6,-122.62,5.6,1.7,200,10,,10.0,30.088583,1019.0,,,TRUE,,,,,,,BKN,1700,BKN,2700,BKN,3900,,,MVFR,-1.2,5.6,2.8,,,0.005,,0.005,,,,METAR,7.0
KPDX 031725Z 21009KT 10SM SCT017 BKN027 BKN055 05/02 A3010 RMK AO2 RAB05E16 P0000 T00500017,KPDX,2023-03-03T17:25:00Z,45.6,-122.62,5.0,1.7,210,9,,10.0,30.100393,,,,TRUE,,,,,,,SCT,1700,BKN,2700,BKN,5500,,,MVFR,,,,,,0.005,,,,,,SPECI,7.0
KPDX 031653Z 21010KT 10SM SCT014 BKN060 BKN080 05/01 A3011 RMK AO2 SLP195 T00500011,KPDX,2023-03-03T16:53:00Z,45.6,-122.62,5.0,1.1,210,10,,10.0,30.109253,1019.5,,,TRUE,,,,,,,SCT,1400,BKN,6000,BKN,8000,,,VFR,,,,,,,,,,,,METAR,7.0
KPDX 031553Z 20008KT 10SM FEW013 BKN065 BKN100 04/01 A3012 RMK AO2 SLP198 T00390011,KPDX,2023-03-03T15:53:00Z,45.6,-122.62,3.9,1.1,200,8,,10.0,30.121063,1019.8,,,TRUE,,,,,,,FEW,1300,BKN,6500,BKN,10000,,,VFR,,,,,,,,,,,,METAR,7.0
KPDX 031535Z 22008KT 10SM SCT013 BKN047 BKN070 04/01 A3012 RMK AO2 T00390011,KPDX,2023-03-03T15:35:00Z,45.6,-122.62,3.9,1.1,220,8,,10.0,30.121063,,,,TRUE,,,,,,,SCT,1300,BKN,4700,BKN,7000,,,VFR,,,,,,,,,,,,SPECI,7.0
KPDX 031521Z 20007KT 10SM BKN013 BKN034 OVC060 04/01 A3012 RMK AO2 T00390011,KPDX,2023-03-03T15:21:00Z,45.6,-122.62,3.9,1.1,200,7,,10.0,30.121063,,,,TRUE,,,,,,,BKN,1300,BKN,3400,OVC,6000,,,MVFR,,,,,,,,,,,,SPECI,7.0
KPDX 031453Z VRB04KT 10SM FEW013 BKN025 OVC055 04/01 A3013 RMK AO2 SLP202 T00390011 56006,KPDX,2023-03-03T14:53:00Z,45.6,-122.62,3.9,1.1,0,4,,10.0,30.129921,1020.2,,,TRUE,,,,,,,FEW,1300,BKN,2500,OVC,5500,,,MVFR,-0.6,,,,,,,,,,,METAR,7.0
KPDX 031353Z 19005KT 10SM FEW015 SCT043 OVC080 03/01 A3014 RMK AO2 SLP206 T00330011,KPDX,2023-03-03T13:53:00Z,45.6,-122.62,3.3,1.1,190,5,,10.0,30.138779,1020.6,,,TRUE,,,,,,,FEW,1500,SCT,4300,OVC,8000,,,VFR,,,,,,,,,,,,METAR,7.0
KPDX 031253Z 20007KT 10SM FEW013 SCT060 BKN090 03/01 A3015 RMK AO2 SLP207 T00330006,KPDX,2023-03-03T12:53:00Z,45.6,-122.62,3.3,0.6,200,7,,10.0,30.15059,1020.7,,,TRUE,,,,,,,FEW,1300,SCT,6000,BKN,9000,,,VFR,,,,,,,,,,,,METAR,7.0
KPDX 031153Z 12003KT 10SM FEW013 BKN075 BKN110 03/01 A3015 RMK AO2 SLP209 70004 T00280006 10039 20022 58004,KPDX,2023-03-03T11:53:00Z,45.6,-122.62,2.8,0.6,120,3,,10.0,30.15059,1020.9,,,TRUE,,,,,,,FEW,1300,BKN,7500,BKN,11000,,,VFR,-0.4,3.9,2.2,,,,,,0.04,,,METAR,7.0
KPDX 031053Z 17003KT 10SM SCT065 BKN085 BKN110 03/01 A3016 RMK AO2 SLP210 T00330006,KPDX,2023-03-03T10:53:00Z,45.6,-122.62,3.3,0.6,170,3,,10.0,30.159449,1021.0,,,TRUE,,,,,,,SCT,6500,BKN,8500,BKN,11000,,,VFR,,,,,,,,,,,,METAR,7.0
KPDX 030953Z 14004KT 10SM FEW055 BKN190 03/01 A3016 RMK AO2 SLP211 T00280006,KPDX,2023-03-03T09:53:00Z,45.6,-122.62,2.8,0.6,140,4,,10.0,30.159449,1021.1,,,TRUE,,,,,,,FEW,5500,BKN,19000,,,,,VFR,,,,,,,,,,,,METAR,7.0
KPDX 030853Z 19004KT 10SM SCT050 BKN190 03/01 A3016 RMK AO2 SLP213 T00330006 53003,KPDX,2023-03-03T08:53:00Z,45.6,-122.62,3.3,0.6,190,4,,10.0,30.159449,1021.3,,,TRUE,,,,,,,SCT,5000,BKN,19000,,,,,VFR,0.3,,,,,,,,,,,METAR,7.0
KPDX 030753Z 18004KT 10SM BKN050 04/01 A3015 RMK AO2 SLP209 T00390011 400940022,KPDX,2023-03-03T07:53:00Z,45.6,-122.62,3.9,1.1,180,4,,10.0,30.15059,1020.9,,,TRUE,,,,,,,BKN,5000,,,,,,,VFR,,,,9.4,2.2,,,,,,,METAR,7.0
KPDX 030653Z 09003KT 10SM FEW035 FEW110 03/01 A3015 RMK AO2 SLP209 T00330011,KPDX,2023-03-03T06:53:00Z,45.6,-122.62,3.3,1.1,90,3,,10.0,30.15059,1020.9,,,TRUE,,,,,,,FEW,3500,FEW,11000,,,,,VFR,,,,,,,,,,,,SPECI,7.0
KPDX 030553Z 00000KT 10SM FEW035 SCT060 BKN110 BKN220 04/01 A3015 RMK AO2 SLP210 T00390011 10094 20033 52008,KPDX,2023-03-03T05:53:00Z,45.6,-122.62,3.9,1.1,0,0,,10.0,30.15059,1021.0,,,TRUE,,,,,,,FEW,3500,SCT,6000,BKN,11000,BKN,22000,VFR,0.8,9.4,3.3,,,,,,,,,METAR,7.0
KPDX 030453Z 00000KT 10SM FEW060 OVC200 04/01 A3014 RMK AO2 SLP207 T00440011,KPDX,2023-03-03T04:53:00Z,45.6,-122.62,4.4,1.1,0,0,,10.0,30.138779,1020.7,,,TRUE,,,,,,,FEW,6000,OVC,20000,,,,,VFR,,,,,,,,,,,,METAR,7.0
KPDX 030353Z 26003KT 10SM FEW035 SCT060 BKN100 04/01 A3014 RMK AO2 SLP205 T00390011,KPDX,2023-03-03T03:53:00Z,45.6,-122.62,3.9,1.1,260,3,,10.0,30.138779,1020.5,,,TRUE,,,,,,,FEW,3500,SCT,6000,BKN,10000,,,VFR,,,,,,,,,,,,METAR,7.0
KPDX 030253Z 32007KT 10SM FEW035 SCT070 BKN110 05/01 A3013 RMK AO2 SLP202 T00500011 53018,KPDX,2023-03-03T02:53:00Z,45.6,-122.62,5.0,1.1,320,7,,10.0,30.129921,1020.2,,,TRUE,,,,,,,FEW,3500,SCT,7000,BKN,11000,,,VFR,1.8,,,,,,,,,,,METAR,7.0
KPDX 030153Z 31008KT 10SM FEW036 FEW049 FEW090 06/01 A3010 RMK AO2 SLP193 CB DSNT NE-E T00610011,KPDX,2023-03-03T01:53:00Z,45.6,-122.62,6.1,1.1,310,8,,10.0,30.100393,1019.3,,,TRUE,,,,,,,FEW,3600,FEW,4900,FEW,9000,,,VFR,,,,,,,,,,,,METAR,7.0
KPDX 030053Z 27005KT 10SM FEW030 FEW050 FEW095 09/02 A3009 RMK AO2 SLP187 T00940017,KPDX,2023-03-03T00:53:00Z,45.6,-122.62,9.4,1.7,270,5,,10.0,30.088583,1018.7,,,TRUE,,,,,,,FEW,3000,FEW,5000,FEW,9500,,,VFR,,,,,,,,,,,,METAR,7.0
KPDX 022353Z 27007KT 10SM FEW025 FEW055 BKN095 08/03 A3007 RMK AO2 PK WND 25031/2304 LTG DSNT S RAB00E22 SLP183 CB DSNT SE-S P0001 60003 T00780028 10094 20050 53003,KPDX,2023-03-02T23:53:00Z,45.6,-122.62,7.8,2.8,270,7,,10.0,30.070866,1018.3,,,TRUE,,,,,,,FEW,2500,FEW,5500,BKN,9500,,,VFR,0.3,9.4,5.0,,,0.01,,0.03,,,,METAR,7.0
KPDX 022253Z 22012KT 10SM FEW025 SCT055 BKN080 09/03 A3005 RMK AO2 RAB21E34 SLP176 P0000 T00940033,KPDX,2023-03-02T22:53:00Z,45.6,-122.62,9.4,3.3,220,12,,10.0,30.050198,1017.6,,,TRUE,,,,,,,FEW,2500,SCT,5500,BKN,8000,,,VFR,,,,,,0.005,,,,,,METAR,7.0
KPDX 022153Z 20012KT 10SM FEW018 SCT042 BKN090 08/03 A3005 RMK AO2 RAE2057B00E21 SLP175 P0000 T00780033,KPDX,2023-03-02T21:53:00Z,45.6,-122.62,7.8,3.3,200,12,,10.0,30.050198,1017.5,,,TRUE,,,,,,,FEW,1800,SCT,4200,BKN,9000,,,VFR,,,,,,0.005,,,,,,METAR,7.0
KPDX 022132Z 21012KT 10SM SCT022 SCT032 BKN080 08/04 A3006 RMK AO2 RAE2057B00E21 P0000 T00780039,KPDX,2023-03-02T21:32:00Z,45.6,-122.62,7.8,3.9,210,12,,10.0,30.059055,,,,TRUE,,,,,,,SCT,2200,SCT,3200,BKN,8000,,,VFR,,,,,,0.005,,,,,,SPECI,7.0
KPDX 022109Z 21012KT 10SM -RA SCT015 BKN022 BKN042 07/03 A3007 RMK AO2 RAE2057B00 P0000 T00670033,KPDX,2023-03-02T21:09:00Z,45.6,-122.62,6.7,3.3,210,12,,10.0,30.070866,,,,TRUE,,,,,,-RA,SCT,1500,BKN,2200,BKN,4200,,,MVFR,,,,,,0.005,,,,,,METAR,7.0
KPDX 022059Z 21014G21KT 10SM SCT015 BKN032 BKN043 07/03 A3007 RMK AO2 RAE57 P0000 T00720033,KPDX,2023-03-02T20:59:00Z,45.6,-122.62,7.2,3.3,210,14,21,10.0,30.070866,,,,TRUE,,,,,,,SCT,1500,BKN,3200,BKN,4300,,,VFR,,,,,,0.005,,,,,,METAR,7.0
KPDX 022053Z 21010KT 10SM -RA BKN015 BKN032 BKN044 07/03 A3006 RMK AO2 RAB44 SLP180 P0000 60002 T00670033 50000,KPDX,2023-03-02T20:53:00Z,45.6,-122.62,6.7,3.3,210,10,,10.0,30.059055,1018.0,,,TRUE,,,,,,-RA,BKN,1500,BKN,3200,BKN,4400,,,MVFR,0.0,,,,,0.005,0.02,,,,,METAR,7.0
KPDX 022048Z 20010G16KT 10SM -RA BKN013 BKN032 OVC055 07/03 A3007 RMK AO2 RAB44 P0000,KPDX,2023-03-02T20:48:00Z,45.6,-122.62,7.0,3.0,200,10,16,10.0,30.070866,,,,TRUE,,,,,,-RA,BKN,1300,BKN,3200,OVC,5500,,,MVFR,,,,,,0.005,,,,,,SPECI,7.0
KPDX 021953Z 20015KT 10SM SCT014 BKN070 BKN100 06/03 A3007 RMK AO2 SLP182 T00610033,KPDX,2023-03-02T19:53:00Z,45.6,-122.62,6.1,3.3,200,15,,10.0,30.070866,1018.2,,,TRUE,,,,,,,SCT,1400,BKN,7000,BKN,10000,,,VFR,,,,,,,,,,,,METAR,7.0
KPDX 021933Z 21012KT 10SM SCT016 BKN035 BKN100 06/03 A3008 RMK AO2 T00560028,KPDX,2023-03-02T19:33:00Z,45.6,-122.62,5.6,2.8,210,12,,10.0,30.079725,,,,TRUE,,,,,,,SCT,1600,BKN,3500,BKN,10000,,,VFR,,,,,,,,,,,,METAR,7.0
KPDX 021853Z 22014KT 10SM BKN016 BKN029 OVC037 06/02 A3006 RMK AO2 RAE47 SLP179 P0002 T00560022,KPDX,2023-03-02T18:53:00Z,45.6,-122.62,5.6,2.2,220,14,,10.0,30.059055,1017.9,,,TRUE,,,,,,,BKN,1600,BKN,2900,OVC,3700,,,MVFR,,,,,,0.02,,,,,,METAR,7.0
KPDX 021753Z 20016G22KT 5SM -RA OVC020 05/02 A3005 RMK AO2 SLP176 P0001 60001 T00500017 10061 20050 53002,KPDX,2023-03-02T17:53:00Z,45.6,-122.62,5.0,1.7,200,16,22,5.0,30.050198,1017.6,,,TRUE,,,,,,-RA,OVC,2000,,,,,,,MVFR,0.2,6.1,5.0,,,0.01,,,,,,SPECI,7.0
KPDX 021703Z 20012KT 10SM -RA BKN021 BKN028 OVC040 05/01 A3004 RMK AO2 P0000 T00500011,KPDX,2023-03-02T17:03:00Z,45.6,-122.62,5.0,1.1,200,12,,10.0,30.041338,,,,TRUE,,,,,,-RA,BKN,2100,BKN,2800,OVC,4000,,,MVFR,,,,,,0.005,,,,,,SPECI,7.0
KPDX 021653Z 20015G24KT 10SM -RA FEW019 SCT023 OVC044 05/01 A3003 RMK AO2 PK WND 21026/1642 SLP169 P0000 T00500011,KPDX,2023-03-02T16:53:00Z,45.6,-122.62,5.0,1.1,200,15,24,10.0,30.029528,1016.9,,,TRUE,,,,,,-RA,FEW,1900,SCT,2300,OVC,4400,,,VFR,,,,,,0.005,,,,,,METAR,7.0
KPDX 021630Z 20017KT 10SM -RA SCT023 BKN049 OVC080 05/01 A3004 RMK AO2 PK WND 20026/1616 P0000 T00500006,KPDX,2023-03-02T16:30:00Z,45.6,-122.62,5.0,0.6,200,17,,10.0,30.041338,,,,TRUE,,,,,,-RA,SCT,2300,BKN,4900,OVC,8000,,,VFR,,,,,,0.005,,,,,,SPECI,7.0
KPDX 021553Z 21014G22KT 10SM -RA BKN023 BKN031 OVC044 05/01 A3004 RMK AO2 SLP171 P0000 T00500006,KPDX,2023-03-02T15:53:00Z,45.6,-122.62,5.0,0.6,210,14,22,10.0,30.041338,1017.1,,,TRUE,,,,,,-RA,BKN,2300,BKN,3100,OVC,4400,,,MVFR,,,,,,0.005,,,,,,METAR,7.0
KPDX 021544Z 20013KT 10SM -RA BKN023 BKN031 OVC042 06/01 A3004 RMK AO2 P0000 T00560006,KPDX,2023-03-02T15:44:00Z,45.6,-122.62,5.6,0.6,200,13,,10.0,30.041338,,,,TRUE,,,,,,-RA,BKN,2300,BKN,3100,OVC,4200,,,MVFR,,,,,,0.005,,,,,,SPECI,7.0
KPDX 021453Z 20017G23KT 10SM -RA SCT033 BKN039 OVC080 06/01 A3005 RMK AO2 PK WND 20026/1431 RAB50 SLP174 P0000 60000 T00560006 58019,KPDX,2023-03-02T14:53:00Z,45.6,-122.62,5.6,0.6,200,17,23,10.0,30.050198,1017.4,,,TRUE,,,,,,-RA,SCT,3300,BKN,3900,OVC,8000,,,VFR,-1.9,,,,,0.005,0.005,,,,,METAR,7.0
KPDX 021353Z 20013G20KT 10SM SCT046 OVC070 06/00 A3007 RMK AO2 RAE06 SLP181 P0000 T00560000,KPDX,2023-03-02T13:53:00Z,45.6,-122.62,5.6,0.0,200,13,20,10.0,30.070866,1018.1,,,TRUE,,,,,,,SCT,4600,OVC,7000,,,,,VFR,,,,,,0.005,,,,,,METAR,7.0
KPDX 021253Z VRB06KT 10SM -RA OVC048 06/00 A3009 RMK AO2 RAB53 SLP187 P0000 T00610000,KPDX,2023-03-02T12:53:00Z,45.6,-122.62,6.1,0.0,0,6,,10.0,30.088583,1018.7,,,TRUE,,,,,,-RA,OVC,4800,,,,,,,VFR,,,,,,0.005,,,,,,METAR,7.0
KPDX 021153Z 17008KT 10SM BKN035 OVC048 06/00 A3010 RMK AO2 RAE00 SLP193 P0000 60001 70001 T00560000 10067 20056 58016,KPDX,2023-03-02T11:53:00Z,45.6,-122.62,5.6,0.0,170,8,,10.0,30.100393,1019.3,,,TRUE,,,,,,,BKN,3500,OVC,4800,,,,,VFR,-1.6,6.7,5.6,,,0.005,,0.01,0.01,,,METAR,7.0
KPDX 021053Z 17009KT 10SM -RA FEW049 OVC060 06/00 A3013 RMK AO2 RAB13 SLP202 P0001 T00610000,KPDX,2023-03-02T10:53:00Z,45.6,-122.62,6.1,0.0,170,9,,10.0,30.129921,1020.2,,,TRUE,,,,,,-RA,FEW,4900,OVC,6000,,,,,VFR,,,,,,0.01,,,,,,METAR,7.0
KPDX 020953Z 18006KT 10SM BKN048 OVC065 06/00 A3015 RMK AO2 SLP210 T00610000,KPDX,2023-03-02T09:53:00Z,45.6,-122.62,6.1,0.0,180,6,,10.0,30.15059,1021.0,,,TRUE,,,,,,,BKN,4800,OVC,6500,,,,,VFR,,,,,,,,,,,,METAR,7.0
KPDX 020853Z 17006KT 10SM OVC065 06/00 A3015 RMK AO2 SLP209 T00610000 58005,KPDX,2023-03-02T08:53:00Z,45.6,-122.62,6.1,0.0,170,6,,10.0,30.15059,1020.9,,,TRUE,,,,,,,OVC,6500,,,,,,,VFR,-0.5,,,,,,,,,,,METAR,7.0
KPDX 020753Z 15005KT 10SM FEW046 OVC070 06/M01 A3016 RMK AO2 SLP213 T00611006 400830000,KPDX,2023-03-02T07:53:00Z,45.6,-122.62,6.1,-0.6,150,5,,10.0,30.159449,1021.3,,,TRUE,,,,,,,FEW,4600,OVC,7000,,,,,VFR,,,,8.3,,,,,,,,METAR,7.0
KPDX 020653Z 19005KT 10SM OVC065 06/M01 A3017 RMK AO2 SLP215 T00611006,KPDX,2023-03-02T06:53:00Z,45.6,-122.62,6.1,-0.6,190,5,,10.0,30.171259,1021.5,,,TRUE,,,,,,,OVC,6500,,,,,,,VFR,,,,,,,,,,,,METAR,7.0
KPDX 020553Z 21006KT 10SM SCT070 OVC085 06/M01 A3017 RMK AO2 SLP215 T00611006 10083 20061 56004,KPDX,2023-03-02T05:53:00Z,45.6,-122.62,6.1,-0.6,210,6,,10.0,30.171259,1021.5,,,TRUE,,,,,,,SCT,7000,OVC,8500,,,,,VFR,-0.4,8.3,6.1,,,,,,,,,METAR,7.0
KPDX 020453Z 22006KT 10SM BKN038 OVC050 07/M01 A3017 RMK AO2 SLP217 T00671011,KPDX,2023-03-02T04:53:00Z,45.6,-122.62,6.7,-1.1,220,6,,10.0,30.171259,1021.7,,,TRUE,,,,,,,BKN,3800,OVC,5000,,,,,VFR,,,,,,,,,,,,METAR,7.0
KPDX 020353Z 21005KT 10SM SCT040 OVC050 07/M01 A3016 RMK AO2 SLP213 T00671006,KPDX,2023-03-02T03:53:00Z,45.6,-122.62,6.7,-0.6,210,5,,10.0,30.159449,1021.3,,,TRUE,,,,,,,SCT,4000,OVC,5000,,,,,VFR,,,,,,,,,,,,METAR,7.0
KPDX 020253Z 20005KT 10SM SCT048 BKN060 BKN250 07/M01 A3018 RMK AO2 SLP219 T00721011 53000,KPDX,2023-03-02T02:53:00Z,45.6,-122.62,7.2,-1.1,200,5,,10.0,30.180119,1021.9,,,TRUE,,,,,,,SCT,4800,BKN,6000,BKN,25000,,,VFR,0.0,,,,,,,,,,,METAR,7.0
KPDX 020153Z 21003KT 10SM FEW060 SCT090 BKN250 07/M02 A3017 RMK AO2 SLP217 T00721017,KPDX,2023-03-02T01:53:00Z,45.6,-122.62,7.2,-1.7,210,3,,10.0,30.171259,1021.7,,,TRUE,,,,,,,FEW,6000,SCT,9000,BKN,25000,,,VFR,,,,,,,,,,,,METAR,7.0
KPDX 020053Z 09005KT 10SM FEW030 BKN060 BKN250 08/M01 A3017 RMK AO2 SLP217 T00781011,KPDX,2023-03-02T00:53:00Z,45.6,-122.62,7.8,-1.1,90,5,,10.0,30.171259,1021.7,,,TRUE,,,,,,,FEW,3000,BKN,6000,BKN,25000,,,VFR,,,,,,,,,,,,METAR,7.0
KPDX 012353Z 08007KT 10SM SCT050 BKN250 08/M01 A3018 RMK AO2 SLP219 T00781006 10083 20033 50001,KPDX,2023-03-01T23:53:00Z,45.6,-122.62,7.8,-0.6,80,7,,10.0,30.180119,1021.9,,,TRUE,,,,,,,SCT,5000,BKN,25000,,,,,VFR,0.1,8.3,3.3,,,,,,,,,METAR,7.0
KPDX 012253Z 05004KT 10SM FEW025 BKN250 07/M01 A3018 RMK AO2 SLP221 T00721011,KPDX,2023-03-01T22:53:00Z,45.6,-122.62,7.2,-1.1,50,4,,10.0,30.180119,1022.1,,,TRUE,,,,,,,FEW,2500,BKN,25000,,,,,VFR,,,,,,,,,,,,METAR,7.0
KPDX 012153Z 03004KT 10SM FEW025 BKN250 07/M01 A3018 RMK AO2 SLP219 T00721006,KPDX,2023-03-01T21:53:00Z,45.6,-122.62,7.2,-0.6,30,4,,10.0,30.180119,1021.9,,,TRUE,,,,,,,FEW,2500,BKN,25000,,,,,VFR,,,,,,,,,,,,SPECI,7.0
KPDX 012053Z 03003KT 10SM SCT022 BKN250 06/M01 A3017 RMK AO2 SLP218 T00611006 51013,KPDX,2023-03-01T20:53:00Z,45.6,-122.62,6.1,-0.6,30,3,,10.0,30.171259,1021.8,,,TRUE,,,,,,,SCT,2200,BKN,25000,,,,,VFR,1.3,,,,,,,,,,,METAR,7.0
KPDX 012028Z 06005KT 10SM SCT022 BKN250 05/M01 A3017 RMK AO2 T00501006,KPDX,2023-03-01T20:28:00Z,45.6,-122.62,5.0,-0.6,60,5,,10.0,30.171259,,,,TRUE,,,,,,,SCT,2200,BKN,25000,,,,,VFR,,,,,,,,,,,,SPECI,7.0
KPDX 011953Z 04004KT 10SM BKN022 BKN250 06/M01 A3017 RMK AO2 SLP216 T00561006,KPDX,2023-03-01T19:53:00Z,45.6,-122.62,5.6,-0.6,40,4,,10.0,30.171259,1021.6,,,TRUE,,,,,,,BKN,2200,BKN,25000,,,,,MVFR,,,,,,,,,,,,METAR,7.0
KPDX 011853Z 29003KT 10SM FEW014 BKN021 04/00 A3016 RMK AO2 SLP214 T00440000,KPDX,2023-03-01T18:53:00Z,45.6,-122.62,4.4,0.0,290,3,,10.0,30.159449,1021.4,,,TRUE,,,,,,,FEW,1400,BKN,2100,,,,,MVFR,,,,,,,,,,,,METAR,7.0
KPDX 011753Z 00000KT 10SM SCT011 BKN024 03/00 A3014 RMK AO2 SLP205 I6000 T00330000 10033 20006 51028,KPDX,2023-03-01T17:53:00Z,45.6,-122.62,3.3,0.0,0,0,,10.0,30.138779,1020.5,,,TRUE,,,,,,,SCT,1100,BKN,2400,,,,,MVFR,2.8,3.3,0.6,,,,,,,,,METAR,7.0
KPDX 011742Z 00000KT 10SM SCT011 BKN024 03/00 A3014 RMK AO2 T00330000,KPDX,2023-03-01T17:42:00Z,45.6,-122.62,3.3,0.0,0,0,,10.0,30.138779,,,,TRUE,,,,,,,SCT,1100,BKN,2400,,,,,MVFR,,,,,,,,,,,,SPECI,7.0
KPDX 011700Z 31004KT 10SM BKN011 BKN029 03/00 A3012 RMK AO2 T00280000,KPDX,2023-03-01T17:00:00Z,45.6,-122.62,2.8,0.0,310,4,,10.0,30.121063,,,,TRUE,,,,,,,BKN,1100,BKN,2900,,,,,MVFR,,,,,,,,,,,,SPECI,7.0
KPDX 011653Z 32004KT 10SM SCT011 BKN029 03/00 A3012 RMK AO2 SLP197 T00280000,KPDX,2023-03-01T16:53:00Z,45.6,-122.62,2.8,0.0,320,4,,10.0,30.121063,1019.7,,,TRUE,,,,,,,SCT,1100,BKN,2900,,,,,MVFR,,,,,,,,,,,,METAR,7.0
KPDX 011553Z 32004KT 7SM SCT024 BKN250 01/M01 A3008 RMK AO2 SLP186 T00111006,KPDX,2023-03-01T15:53:00Z,45.6,-122.62,1.1,-0.6,320,4,,7.0,30.079725,1018.6,,,TRUE,,,,,,,SCT,2400,BKN,25000,,,,,VFR,,,,,,,,,,,,METAR,7.0
KPDX 011453Z 00000KT 7SM FEW007 BKN023 BKN250 01/M01 A3005 RMK AO2 SLP177 I3000 T00061006 51033,KPDX,2023-03-01T14:53:00Z,45.6,-122.62,0.6,-0.6,0,0,,7.0,30.050198,1017.7,,,TRUE,,,,,,,FEW,700,BKN,2300,BKN,25000,,,MVFR,3.3,,,,,,,,,,,METAR,7.0
KPDX 011408Z 00000KT 7SM FEW003 BKN023 01/00 A3005 RMK AO2 T00110000,KPDX,2023-03-01T14:08:00Z,45.6,-122.62,1.1,0.0,0,0,,7.0,30.050198,,,,TRUE,,,,,,,FEW,300,BKN,2300,,,,,MVFR,,,,,,,,,,,,SPECI,7.0
KPDX 011353Z 28003KT 8SM BKN023 01/M01 A3004 RMK AO2 SLP170 T00111006,KPDX,2023-03-01T13:53:00Z,45.6,-122.62,1.1,-0.6,280,3,,8.0,30.041338,1017.0,,,TRUE,,,,,,,BKN,2300,,,,,,,MVFR,,,,,,,,,,,,METAR,7.0
KPDX 011253Z 00000KT 6SM BR OVC022 01/00 A3001 RMK AO2 SLP161 I1000 T00110000,KPDX,2023-03-01T12:53:00Z,45.6,-122.62,1.1,0.0,0,0,,6.0,30.008858,1016.1,,,TRUE,,,,,,BR,OVC,2200,,,,,,,MVFR,,,,,,,,,,,,METAR,7.0
KPDX 011153Z 26004KT 4SM BR FEW005 OVC018 01/M01 A2996 RMK AO2 SLP144 70015 I6000 T00061006 10022 20000 53025,KPDX,2023-03-01T11:53:00Z,45.6,-122.62,0.6,-0.6,260,4,,4.0,29.958662,1014.4,,,TRUE,,,,,,BR,FEW,500,OVC,1800,,,,,MVFR,2.5,2.2,0.0,,,,,,0.15,,,METAR,7.0
KPDX 011112Z 25003KT 6SM BR BKN005 OVC018 00/M01 A2995 RMK AO2 T00001011,KPDX,2023-03-01T11:12:00Z,45.6,-122.62,0.0,-1.1,250,3,,6.0,29.949802,,,,TRUE,,,,,,BR,BKN,500,OVC,1800,,,,,IFR,,,,,,,,,,,,SPECI,7.0
KPDX 011053Z 00000KT 6SM BR OVC004 01/M01 A2994 RMK AO2 SLP137 I1000 T00061006,KPDX,2023-03-01T10:53:00Z,45.6,-122.62,0.6,-0.6,0,0,,6.0,29.940945,1013.7,,,TRUE,,,,,,BR,OVC,400,,,,,,,LIFR,,,,,,,,,,,,METAR,7.0
KPDX 011019Z 00000KT 5SM BR BKN003 OVC024 01/M01 A2992 RMK AO2 I1000 T00061006,KPDX,2023-03-01T10:19:00Z,45.6,-122.62,0.6,-0.6,0,0,,5.0,29.920275,,,,TRUE,,,,,,BR,BKN,300,OVC,2400,,,,,LIFR,,,,,,,,,,,,SPECI,7.0
KPDX 011006Z 00000KT 5SM BR SCT004 OVC024 00/M01 A2991 RMK AO2 T00001011,KPDX,2023-03-01T10:06:00Z,45.6,-122.62,0.0,-1.1,0,0,,5.0,29.911417,,,,TRUE,,,,,,BR,SCT,400,OVC,2400,,,,,MVFR,,,,,,,,,,,,SPECI,7.0
KPDX 010953Z 00000KT 5SM R10R/4500VP6000FT BR BKN023 00/M01 A2990 RMK AO2 SLP125 I1000 T00001011,KPDX,2023-03-01T09:53:00Z,45.6,-122.62,0.0,-1.1,0,0,,5.0,29.899607,1012.5,,,TRUE,,,,,,BR,BKN,2300,,,,,,,MVFR,,,,,,,,,,,,METAR,7.0
KPDX 010853Z 00000KT 3SM BR SCT010 01/M01 A2988 RMK AO2 SLP119 I1000 I3000 T00061011 51030,KPDX,2023-03-01T08:53:00Z,45.6,-122.62,0.6,-1.1,0,0,,3.0,29.878937,1011.9,,,TRUE,,,,,,BR,SCT,1000,,,,,,,MVFR,3.0,,,,,,,,,,,METAR,7.0
KPDX 010800Z 00000KT 9SM SCT010 01/M01 A2987 RMK AO2 T00061006,KPDX,2023-03-01T08:00:00Z,45.6,-122.62,0.6,-0.6,0,0,,9.0,29.870079,,,,TRUE,,,,,,,SCT,1000,,,,,,,VFR,,,,,,,,,,,,METAR,7.0
KPDX 010753Z 31003KT 9SM BKN010 01/M01 A2987 RMK AO2 SLP113 T00111006 400390006,KPDX,2023-03-01T07:53:00Z,45.6,-122.62,1.1,-0.6,310,3,,9.0,29.870079,1011.3,,,TRUE,,,,,,,BKN,1000,,,,,,,MVFR,,,,3.9,0.6,,,,,,,METAR,7.0
KPDX 010653Z 00000KT 6SM BR BKN012 OVC020 01/00 A2982 RMK AO2 SLP098 T00110000,KPDX,2023-03-01T06:53:00Z,45.6,-122.62,1.1,0.0,0,0,,6.0,29.819881,1009.8,,,TRUE,,,,,,BR,BKN,1200,OVC,2000,,,,,MVFR,,,,,,,,,,,,METAR,7.0
KPDX 010624Z 00000KT 8SM BKN012 OVC020 02/01 A2981 RMK AO2 T00170006,KPDX,2023-03-01T06:24:00Z,45.6,-122.62,1.7,0.6,0,0,,8.0,29.811024,,,,TRUE,,,,,,,BKN,1200,OVC,2000,,,,,MVFR,,,,,,,,,,,,SPECI,7.0
KPDX 010553Z 00000KT 10SM SCT009 BKN023 BKN040 02/00 A2979 RMK AO2 SLP088 60001 T00170000 10033 20017 53024,KPDX,2023-03-01T05:53:00Z,45.6,-122.62,1.7,0.0,0,0,,10.0,29.790354,1008.8,,,TRUE,,,,,,,SCT,900,BKN,2300,BKN,4000,,,MVFR,2.4,3.3,1.7,,,,,0.01,,,,METAR,7.0
KPDX 010531Z 00000KT 10SM FEW009 SCT023 BKN040 02/01 A2978 RMK AO2 T00220006,KPDX,2023-03-01T05:31:00Z,45.6,-122.62,2.2,0.6,0,0,,10.0,29.778543,,,,TRUE,,,,,,,FEW,900,SCT,2300,BKN,4000,,,VFR,,,,,,,,,,,,SPECI,7.0
KPDX 010453Z 00000KT 10SM FEW009 BKN023 OVC060 03/01 A2977 RMK AO2 SLP079 T00280011,KPDX,2023-03-01T04:53:00Z,45.6,-122.62,2.8,1.1,0,0,,10.0,29.769686,1007.9,,,TRUE,,,,,,,FEW,900,BKN,2300,OVC,6000,,,MVFR,,,,,,,,,,,,METAR,7.0
KPDX 010416Z 29003KT 10SM FEW009 BKN023 OVC060 03/02 A2975 RMK AO2 T00280017,KPDX,2023-03-01T04:16:00Z,45.6,-122.62,2.8,1.7,290,3,,10.0,29.749016,,,,TRUE,,,,,,,FEW,900,BKN,2300,OVC,6000,,,MVFR,,,,,,,,,,,,SPECI,7.0
KPDX 010353Z 28003KT 10SM FEW009 SCT022 OVC050 03/02 A2974 RMK AO2 RAE10 SLP070 P0000 T00280017,KPDX,2023-03-01T03:53:00Z,45.6,-122.62,2.8,1.7,280,3,,10.0,29.740158,1007.0,,,TRUE,,,,,,,FEW,900,SCT,2200,OVC,5000,,,VFR,,,,,,0.005,,,,,,METAR,7.0
KPDX 010310Z 00000KT 10SM FEW009 SCT019 BKN049 03/01 A2972 RMK AO2 RAE10 P0000 T00330011,KPDX,2023-03-01T03:10:00Z,45.6,-122.62,3.3,1.1,0,0,,10.0,29.719488,,,,TRUE,,,,,,,FEW,900,SCT,1900,BKN,4900,,,VFR,,,,,,0.005,,,,,,SPECI,7.0
KPDX 010253Z 00000KT 8SM -RA SCT009 SCT017 OVC023 03/02 A2972 RMK AO2 RAB25 SLP064 P0001 60001 T00330017 53029,KPDX,2023-03-01T02:53:00Z,45.6,-122.62,3.3,1.7,0,0,,8.0,29.719488,1006.4,,,TRUE,,,,,,-RA,SCT,900,SCT,1700,OVC,2300,,,MVFR,2.9,,,,,0.01,0.01,,,,,METAR,7.0
KPDX 010153Z 32005KT 10SM FEW007 BKN022 OVC034 03/01 A2969 RMK AO2 RAE13 SLP053 P0000 T00330011,KPDX,2023-03-01T01:53:00Z,45.6,-122.62,3.3,1.1,320,5,,10.0,29.68996,1005.3,,,TRUE,,,,,,,FEW,700,BKN,2200,OVC,3400,,,MVFR,,,,,,0.005,,,,,,METAR,7.0
KPDX 010134Z 32004KT 10SM FEW007 BKN022 OVC034 03/01 A2968 RMK AO2 RAE13 P0000 T00330011,KPDX,2023-03-01T01:34:00Z,45.6,-122.62,3.3,1.1,320,4,,10.0,29.681103,,,,TRUE,,,,,,,FEW,700,BKN,2200,OVC,3400,,,MVFR,,,,,,0.005,,,,,,SPECI,7.0
KPDX 010053Z 29004KT 10SM -RA BKN007 BKN014 OVC038 03/01 A2966 RMK AO2 RAE08B33 SLP044 P0000 T00330011,KPDX,2023-03-01T00:53:00Z,45.6,-122.62,3.3,1.1,290,4,,10.0,29.660433,1004.4,,,TRUE,,,,,,-RA,BKN,700,BKN,1400,OVC,3800,,,IFR,,,,,,0.005,,,,,,METAR,7.0
KPDX 282353Z 33003KT 10SM -RA FEW007 BKN017 OVC038 03/01 A2964 RMK AO2 RAE17B34SNE17 SLP035 P0000 60012 T00330011 10039 20028 53014,KPDX,2023-02-28T23:53:00Z,45.6,-122.62,3.3,1.1,330,3,,10.0,29.639763,1003.5,,,TRUE,,,,,,-RA,FEW,700,BKN,1700,OVC,3800,,,MVFR,1.4,3.9,2.8,,,0.005,,0.12,,,,METAR,7.0
KPDX 282320Z 00000KT 10SM SCT007 BKN022 OVC038 03/01 A2963 RMK AO2 RAE17SNE17 P0000 T00330011,KPDX,2023-02-28T23:20:00Z,45.6,-122.62,3.3,1.1,0,0,,10.0,29.630905,,,,TRUE,,,,,,,SCT,700,BKN,2200,OVC,3800,,,MVFR,,,,,,0.005,,,,,,SPECI,7.0
KPDX 282253Z 11004KT 9SM -RASN SCT008 BKN013 OVC020 03/01 A2962 RMK AO2 SNB37 SLP029 P0005 T00280011,KPDX,2023-02-28T22:53:00Z,45.6,-122.62,2.8,1.1,110,4,,9.0,29.619095,1002.9,,,TRUE,,,,,,-RA -SN,SCT,800,BKN,1300,OVC,2000,,,MVFR,,,,,,0.05,,,,,,METAR,7.0
KPDX 282153Z 13006KT 9SM -RA SCT008 BKN013 OVC020 04/02 A2960 RMK AO2 SLP023 P0001 T00390017,KPDX,2023-02-28T21:53:00Z,45.6,-122.62,3.9,1.7,130,6,,9.0,29.601377,1002.3,,,TRUE,,,,,,-RA,SCT,800,BKN,1300,OVC,2000,,,MVFR,,,,,,0.01,,,,,,METAR,7.0
KPDX 282053Z 12006KT 6SM -RA BR SCT008 BKN013 OVC020 03/01 A2959 RMK AO2 SLP021 P0003 60006 T00330011 52007,KPDX,2023-02-28T20:53:00Z,45.6,-122.62,3.3,1.1,120,6,,6.0,29.589567,1002.1,,,TRUE,,,,,,-RA BR,SCT,800,BKN,1300,OVC,2000,,,MVFR,0.7,,,,,0.03,0.06,,,,,METAR,7.0
KPDX 281953Z 10004KT 10SM -RA FEW013 BKN028 BKN038 03/01 A2959 RMK AO2 SLP020 P0002 T00330011,KPDX,2023-02-28T19:53:00Z,45.6,-122.62,3.3,1.1,100,4,,10.0,29.589567,1002.0,,,TRUE,,,,,,-RA,FEW,1300,BKN,2800,BKN,3800,,,MVFR,,,,,,0.02,,,,,,METAR,7.0
