No errors
No warnings
24 ms
data source=metars
425 results
raw_text,station_id,observation_time,latitude,longitude,temp_c,dewpoint_c,wind_dir_degrees,wind_speed_kt,wind_gust_kt,visibility_statute_mi,altim_in_hg,sea_level_pressure_mb,corrected,auto,auto_station,maintenance_indicator_on,no_signal,lightning_sensor_off,freezing_rain_sensor_off,present_weather_sensor_off,wx_string,sky_cover,cloud_base_ft_agl,sky_cover,cloud_base_ft_agl,sky_cover,cloud_base_ft_agl,sky_cover,cloud_base_ft_agl,flight_category,three_hr_pressure_tendency_mb,maxT_c,minT_c,maxT24hr_c,minT24hr_c,precip_in,pcp3hr_in,pcp6hr_in,pcp24hr_in,snow_in,vert_vis_ft,metar_type,elevation_m
KPDX 141753Z 30004KT 10SM BKN007 BKN012 03/01 A3011 RMK AO2 SLP197 60000 T00280006 10028 20017 53040,KPDX,2023-02-14T17:53:00Z,45.6,-122.62,2.8,0.6,300,4,,10.0,30.109253,1019.7,,,TRUE,,,,,,,BKN,700,BKN,1200,,,,,IFR,4.0,2.8,1.7,,,,,0.005,,,,METAR,7.0
KPDX 141745Z 30004KT 10SM BKN007 BKN012 02/01 A3011 RMK AO2 T00220006,KPDX,2023-02-14T17:45:00Z,45.6,-122.62,2.2,0.6,300,4,,10.0,30.109253,,,,TRUE,,,,,,,BKN,700,BKN,1200,,,,,IFR,,,,,,,,,,,,METAR,7.0
KPDX 141653Z 29004KT 10SM SCT007 BKN012 BKN030 02/00 A3008 RMK AO2 SLP184 T00220000,KPDX,2023-02-14T16:53:00Z,45.6,-122.62,2.2,0.0,290,4,,10.0,30.079725,1018.4,,,TRUE,,,,,,,SCT,700,BKN,1200,BKN,3000,,,MVFR,,,,,,,,,,,,METAR,7.0
KPDX 141553Z 25005KT 10SM FEW010 BKN021 BKN031 02/00 A3003 RMK AO2 SLP167 T00220000,KPDX,2023-02-14T15:53:00Z,45.6,-122.62,2.2,0.0,250,5,,10.0,30.029528,1016.7,,,TRUE,,,,,,,FEW,1000,BKN,2100,BKN,3100,,,MVFR,,,,,,,,,,,,METAR,7.0
KPDX 141453Z 00000KT 10SM BKN025 02/01 A2999 RMK AO2 SLP156 60000 T00220006 53017,KPDX,2023-02-14T14:53:00Z,45.6,-122.62,2.2,0.6,0,0,,10.0,29.991142,1015.6,,,TRUE,,,,,,,BKN,2500,,,,,,,MVFR,1.7,,,,,,0.005,,,,,METAR,7.0
KPDX 141353Z 22004KT 10SM FEW011 SCT035 BKN095 02/00 A2997 RMK AO2 SLP148 T00220000,KPDX,2023-02-14T13:53:00Z,45.6,-122.62,2.2,0.0,220,4,,10.0,29.970472,1014.8,,,TRUE,,,,,,,FEW,1100,SCT,3500,BKN,9500,,,VFR,,,,,,,,,,,,SPECI,7.0
KPDX 141336Z 22004KT 10SM SCT011 SCT027 OVC095 02/00 A2996 RMK AO2 T00220000,KPDX,2023-02-14T13:36:00Z,45.6,-122.62,2.2,0.0,220,4,,10.0,29.958662,,,,TRUE,,,,,,,SCT,1100,SCT,2700,OVC,9500,,,VFR,,,,,,,,,,,,SPECI,7.0
KPDX 141300Z 22004KT 10SM BKN011 OVC021 02/00 A2995 RMK AO2 T00220000,KPDX,2023-02-14T13:00:00Z,45.6,-122.62,2.2,0.0,220,4,,10.0,29.949802,,,,TRUE,,,,,,,BKN,1100,OVC,2100,,,,,MVFR,,,,,,,,,,,,METAR,7.0
KPDX 141253Z 22007KT 10SM BKN009 OVC021 02/00 A2995 RMK AO2 RAE11SNE11 SLP141 P0000 T00220000,KPDX,2023-02-14T12:53:00Z,45.6,-122.62,2.2,0.0,220,7,,10.0,29.949802,1014.1,,,TRUE,,,,,,,BKN,900,OVC,2100,,,,,IFR,,,,,,0.005,,,,,,METAR,7.0
KPDX 141153Z 19006KT 10SM -SNRA BKN009 OVC014 02/01 A2994 RMK AO2 RAB24 SLP139 P0002 60004 70014 T00220006 10028 20017 56018,KPDX,2023-02-14T11:53:00Z,45.6,-122.62,2.2,0.6,190,6,,10.0,29.940945,1013.9,,,TRUE,,,,,,-SN -RA,BKN,900,OVC,1400,,,,,IFR,-1.8,2.8,1.7,,,0.02,,0.04,0.14,,,METAR,7.0
KPDX 141053Z VRB05KT 10SM -SN BKN009 OVC027 03/01 A2995 RMK AO2 RAE50 SLP142 P0000 T00280006,KPDX,2023-02-14T10:53:00Z,45.6,-122.62,2.8,0.6,0,5,,10.0,29.949802,1014.2,,,TRUE,,,,,,-SN,BKN,900,OVC,2700,,,,,IFR,,,,,,0.005,,,,,,METAR,7.0
KPDX 141033Z 13005KT 10SM -RASN BKN010 BKN027 OVC033 03/00 A2997 RMK AO2 P0000 T00280000,KPDX,2023-02-14T10:33:00Z,45.6,-122.62,2.8,0.0,130,5,,10.0,29.970472,,,,TRUE,,,,,,-RA -SN,BKN,1000,BKN,2700,OVC,3300,,,MVFR,,,,,,0.005,,,,,,SPECI,7.0
KPDX 140953Z 18005KT 10SM -RASN FEW014 BKN030 OVC042 02/01 A2998 RMK AO2 RAB32SNB32 SLP152 P0002 T00220006,KPDX,2023-02-14T09:53:00Z,45.6,-122.62,2.2,0.6,180,5,,10.0,29.97933,1015.2,,,TRUE,,,,,,-RA -SN,FEW,1400,BKN,3000,OVC,4200,,,MVFR,,,,,,0.02,,,,,,METAR,7.0
KPDX 140933Z 19008KT 9SM -RASN FEW009 FEW013 OVC028 02/00 A2999 RMK AO2 RAB32SNB32 P0000 T00220000,KPDX,2023-02-14T09:33:00Z,45.6,-122.62,2.2,0.0,190,8,,9.0,29.991142,,,,TRUE,,,,,,-RA -SN,FEW,900,FEW,1300,OVC,2800,,,MVFR,,,,,,0.005,,,,,,SPECI,7.0
KPDX 140853Z 18007KT 10SM FEW015 OVC043 02/00 A3000 RMK AO2 SLP157 60000 T00220000 58015,KPDX,2023-02-14T08:53:00Z,45.6,-122.62,2.2,0.0,180,7,,10.0,30.0,1015.7,,,TRUE,,,,,,,FEW,1500,OVC,4300,,,,,VFR,-1.5,,,,,,0.005,,,,,METAR,7.0
KPDX 140753Z 20008KT 10SM FEW015 BKN040 OVC070 02/00 A3002 RMK AO2 RAE49 SLP166 P0000 T00220000 400890017,KPDX,2023-02-14T07:53:00Z,45.6,-122.62,2.2,0.0,200,8,,10.0,30.02067,1016.6,,,TRUE,,,,,,,FEW,1500,BKN,4000,OVC,7000,,,VFR,,,,8.9,1.7,0.005,,,,,,METAR,7.0
KPDX 140653Z 20007KT 9SM -RA SCT022 BKN034 OVC043 02/00 A3004 RMK AO2 RAB19SNE19 SLP171 P0000 T00170000,KPDX,2023-02-14T06:53:00Z,45.6,-122.62,1.7,0.0,200,7,,9.0,30.041338,1017.1,,,TRUE,,,,,,-RA,SCT,2200,BKN,3400,OVC,4300,,,VFR,,,,,,0.005,,,,,,METAR,7.0
KPDX 140553Z 23003KT 9SM -SN FEW023 BKN033 OVC043 02/00 A3004 RMK AO2 SLP173 P0001 60003 T00220000 10067 20017 51017,KPDX,2023-02-14T05:53:00Z,45.6,-122.62,2.2,0.0,230,3,,9.0,30.041338,1017.3,,,TRUE,,,,,,-SN,FEW,2300,BKN,3300,OVC,4300,,,VFR,1.7,6.7,1.7,,,0.01,,0.03,,,,METAR,7.0
KPDX 140522Z 28006KT 9SM -SN SCT028 BKN037 OVC095 02/00 A3003 RMK AO2 P0001 T00220000,KPDX,2023-02-14T05:22:00Z,45.6,-122.62,2.2,0.0,280,6,,9.0,30.029528,,,,TRUE,,,,,,-SN,SCT,2800,BKN,3700,OVC,9500,,,VFR,,,,,,0.01,,,,,,SPECI,7.0
KPDX 140453Z 28010KT 4SM -SN FEW009 BKN017 OVC026 02/M01 A3004 RMK AO2 RAB32E49SNB49 SLP171 P0002 T00221006,KPDX,2023-02-14T04:53:00Z,45.6,-122.62,2.2,-0.6,280,10,,4.0,30.041338,1017.1,,,TRUE,,,,,,-SN,FEW,900,BKN,1700,OVC,2600,,,MVFR,,,,,,0.02,,,,,,METAR,7.0
KPDX 140442Z 29011G23KT 8SM -RA FEW012 BKN023 OVC040 03/M01 A3004 RMK AO2 RAB32 P0000 T00331011,KPDX,2023-02-14T04:42:00Z,45.6,-122.62,3.3,-1.1,290,11,23,8.0,30.041338,,,,TRUE,,,,,,-RA,FEW,1200,BKN,2300,OVC,4000,,,MVFR,,,,,,0.005,,,,,,METAR,7.0
KPDX 140353Z 29013G22KT 10SM SCT050 BKN075 BKN090 03/M01 A3002 RMK AO2 SLP165 T00331011,KPDX,2023-02-14T03:53:00Z,45.6,-122.62,3.3,-1.1,290,13,22,10.0,30.02067,1016.5,,,TRUE,,,,,,,SCT,5000,BKN,7500,BKN,9000,,,VFR,,,,,,,,,,,,METAR,7.0
KPDX 140253Z 22006KT 10SM FEW045 FEW120 BKN140 OVC160 04/M01 A2999 RMK AO2 SLP154 60000 T00441006 53013,KPDX,2023-02-14T02:53:00Z,45.6,-122.62,4.4,-0.6,220,6,,10.0,29.991142,1015.4,,,TRUE,,,,,,,FEW,4500,FEW,12000,BKN,14000,OVC,16000,VFR,1.3,,,,,,0.005,,,,,METAR,7.0
KPDX 140153Z 28013KT 10SM SCT030 BKN040 BKN070 OVC140 05/M01 A2998 RMK AO2 PK WND 29034/0138 RAB37E50 SLP149 P0000 T00501006,KPDX,2023-02-14T01:53:00Z,45.6,-122.62,5.0,-0.6,280,13,,10.0,29.97933,1014.9,,,TRUE,,,,,,,SCT,3000,BKN,4000,BKN,7000,OVC,14000,VFR,,,,,,0.005,,,,,,METAR,7.0
KPDX 140053Z 30010KT 10SM SCT028 BKN037 BKN110 06/02 A2996 RMK AO2 PK WND 30026/2354 RAE07B23E48 SLP143 P0000 T00610017,KPDX,2023-02-14T00:53:00Z,45.6,-122.62,6.1,1.7,300,10,,10.0,29.958662,1014.3,,,TRUE,,,,,,,SCT,2800,BKN,3700,BKN,11000,,,VFR,,,,,,0.005,,,,,,METAR,7.0
KPDX 132353Z 30018KT 10SM -RA BKN030 BKN042 OVC070 07/02 A2995 RMK AO2 RAE28B46 SLP141 P0002 60003 T00670017 10089 20067 55003,KPDX,2023-02-13T23:53:00Z,45.6,-122.62,6.7,1.7,300,18,,10.0,29.949802,1014.1,,,TRUE,,,,,,-RA,BKN,3000,BKN,4200,OVC,7000,,,MVFR,-0.3,8.9,6.7,,,0.02,,0.03,,,,METAR,7.0
KPDX 132320Z 25014KT 10SM -RA FEW024 BKN030 OVC035 07/03 A2993 RMK AO2 P0001 T00670028,KPDX,2023-02-13T23:20:00Z,45.6,-122.62,6.7,2.8,250,14,,10.0,29.929134,,,,TRUE,,,,,,-RA,FEW,2400,BKN,3000,OVC,3500,,,MVFR,,,,,,0.01,,,,,,SPECI,7.0
KPDX 132311Z 26015G22KT 5SM -RA BKN025 OVC035 07/02 A2993 RMK AO2 P0001 T00670022,KPDX,2023-02-13T23:11:00Z,45.6,-122.62,6.7,2.2,260,15,22,5.0,29.929134,,,,TRUE,,,,,,-RA,BKN,2500,OVC,3500,,,,,MVFR,,,,,,0.01,,,,,,SPECI,7.0
KPDX 132253Z 27013KT 10SM -RA BKN031 OVC045 08/02 A2992 RMK AO2 RAB36 SLP130 P0000 T00830017,KPDX,2023-02-13T22:53:00Z,45.6,-122.62,8.3,1.7,270,13,,10.0,29.920275,1013.0,,,TRUE,,,,,,-RA,BKN,3100,OVC,4500,,,,,VFR,,,,,,0.005,,,,,,METAR,7.0
KPDX 132153Z 30010KT 10SM FEW031 SCT060 SCT100 BKN140 08/02 A2994 RMK AO2 RAB2055E07 SLP137 P0000 T00830017,KPDX,2023-02-13T21:53:00Z,45.6,-122.62,8.3,1.7,300,10,,10.0,29.940945,1013.7,,,TRUE,,,,,,,FEW,3100,SCT,6000,SCT,10000,BKN,14000,VFR,,,,,,0.005,,,,,,METAR,7.0
KPDX 132053Z 28010KT 10SM SCT025 SCT055 BKN120 08/02 A2996 RMK AO2 RAE04 SLP145 P0000 60001 T00830017 58008,KPDX,2023-02-13T20:53:00Z,45.6,-122.62,8.3,1.7,280,10,,10.0,29.958662,1014.5,,,TRUE,,,,,,,SCT,2500,SCT,5500,BKN,12000,,,VFR,-0.8,,,,,0.005,0.01,,,,,METAR,7.0
KPDX 132017Z 27012KT 10SM SCT023 SCT030 BKN055 08/03 A2997 RMK AO2 RAE04 P0000 T00780028,KPDX,2023-02-13T20:17:00Z,45.6,-122.62,7.8,2.8,270,12,,10.0,29.970472,,,,TRUE,,,,,,,SCT,2300,SCT,3000,BKN,5500,,,VFR,,,,,,0.005,,,,,,SPECI,7.0
KPDX 132000Z 26014KT 10SM -RA BKN023 BKN030 OVC055 07/03 A2998 RMK AO2 P0000 T00720028,KPDX,2023-02-13T20:00:00Z,45.6,-122.62,7.2,2.8,260,14,,10.0,29.97933,,,,TRUE,,,,,,-RA,BKN,2300,BKN,3000,OVC,5500,,,MVFR,,,,,,0.005,,,,,,SPECI,7.0
KPDX 131953Z 24014KT 10SM -RA SCT024 BKN032 OVC043 07/03 A2998 RMK AO2 RAB09 SLP151 P0001 T00720028,KPDX,2023-02-13T19:53:00Z,45.6,-122.62,7.2,2.8,240,14,,10.0,29.97933,1015.1,,,TRUE,,,,,,-RA,SCT,2400,BKN,3200,OVC,4300,,,VFR,,,,,,0.01,,,,,,METAR,7.0
KPDX 131948Z 24011KT 10SM -RA SCT024 BKN032 OVC043 08/03 A2998 RMK AO2 RAB09 P0000,KPDX,2023-02-13T19:48:00Z,45.6,-122.62,8.0,3.0,240,11,,10.0,29.97933,,,,TRUE,,,,,,-RA,SCT,2400,BKN,3200,OVC,4300,,,VFR,,,,,,0.005,,,,,,SPECI,7.0
KPDX 131920Z 27009KT 10SM -RA SCT021 BKN026 BKN032 08/03 A2998 RMK AO2 RAB09 P0000 T00780028,KPDX,2023-02-13T19:20:00Z,45.6,-122.62,7.8,2.8,270,9,,10.0,29.97933,,,,TRUE,,,,,,-RA,SCT,2100,BKN,2600,BKN,3200,,,MVFR,,,,,,0.005,,,,,,SPECI,7.0
KPDX 131853Z 22007KT 10SM FEW022 SCT043 OVC050 08/03 A2999 RMK AO2 RAE02 SLP153 P0000 T00780033,KPDX,2023-02-13T18:53:00Z,45.6,-122.62,7.8,3.3,220,7,,10.0,29.991142,1015.3,,,TRUE,,,,,,,FEW,2200,SCT,4300,OVC,5000,,,VFR,,,,,,0.005,,,,,,SPECI,7.0
KPDX 131753Z 25008KT 10SM -RA FEW015 BKN038 BKN047 07/03 A2999 RMK AO2 RAB44 SLP155 P0000 60004 T00720028 10072 20050 51003,KPDX,2023-02-13T17:53:00Z,45.6,-122.62,7.2,2.8,250,8,,10.0,29.991142,1015.5,,,TRUE,,,,,,-RA,FEW,1500,BKN,3800,BKN,4700,,,VFR,0.3,7.2,5.0,,,0.005,,0.04,,,,METAR,7.0
KPDX 131653Z 22006KT 10SM FEW015 SCT040 BKN080 BKN150 06/03 A2999 RMK AO2 RAB11E31 SLP155 P0000 T00610028,KPDX,2023-02-13T16:53:00Z,45.6,-122.62,6.1,2.8,220,6,,10.0,29.991142,1015.5,,,TRUE,,,,,,,FEW,1500,SCT,4000,BKN,8000,BKN,15000,VFR,,,,,,0.005,,,,,,METAR,7.0
KPDX 131630Z 25007KT 10SM -RA SCT027 BKN036 BKN090 06/02 A3000 RMK AO2 RAB11 P0000 T00610022,KPDX,2023-02-13T16:30:00Z,45.6,-122.62,6.1,2.2,250,7,,10.0,30.0,,,,TRUE,,,,,,-RA,SCT,2700,BKN,3600,BKN,9000,,,VFR,,,,,,0.005,,,,,,METAR,7.0
KPDX 131616Z 28012G22KT 7SM -RA BKN027 BKN038 OVC055 06/02 A3001 RMK AO2 RAB11 P0000 T00610022,KPDX,2023-02-13T16:16:00Z,45.6,-122.62,6.1,2.2,280,12,22,7.0,30.008858,,,,TRUE,,,,,,-RA,BKN,2700,BKN,3800,OVC,5500,,,MVFR,,,,,,0.005,,,,,,SPECI,7.0
KPDX 131553Z 25007KT 10SM SCT055 SCT090 BKN110 06/03 A2999 RMK AO2 RAE21 SLP154 P0004 T00610033,KPDX,2023-02-13T15:53:00Z,45.6,-122.62,6.1,3.3,250,7,,10.0,29.991142,1015.4,,,TRUE,,,,,,,SCT,5500,SCT,9000,BKN,11000,,,VFR,,,,,,0.04,,,,,,METAR,7.0
KPDX 131453Z 25007KT 10SM -RA BKN041 OVC100 07/03 A2998 RMK AO2 RAB28 SLP152 P0000 60000 T00720033 56015,KPDX,2023-02-13T14:53:00Z,45.6,-122.62,7.2,3.3,250,7,,10.0,29.97933,1015.2,,,TRUE,,,,,,-RA,BKN,4100,OVC,10000,,,,,VFR,-1.5,,,,,0.005,,,,,,SPECI,7.0
KPDX 131353Z 15004KT 10SM BKN080 OVC100 07/03 A2998 RMK AO2 SLP152 T00720033,KPDX,2023-02-13T13:53:00Z,45.6,-122.62,7.2,3.3,150,4,,10.0,29.97933,1015.2,,,TRUE,,,,,,,BKN,8000,OVC,10000,,,,,VFR,,,,,,,,,,,,METAR,7.0
KPDX 131253Z 13003KT 7SM FEW035 06/04 A3001 RMK AO2 SLP161 T00560039,KPDX,2023-02-13T12:53:00Z,45.6,-122.62,5.6,3.9,130,3,,7.0,30.008858,1016.1,,,TRUE,,,,,,,FEW,3500,,,,,,,VFR,,,,,,,,,,,,METAR,7.0
KPDX 131153Z 00000KT 10SM SCT017 OVC037 07/04 A3003 RMK AO2 RAE03 SLP166 P0000 60000 T00670044 10083 20067 56007,KPDX,2023-02-13T11:53:00Z,45.6,-122.62,6.7,4.4,0,0,,10.0,30.029528,1016.6,,,TRUE,,,,,,,SCT,1700,OVC,3700,,,,,VFR,-0.7,8.3,6.7,,,0.005,,0.005,,,,METAR,7.0
KPDX 131053Z 30005KT 7SM -RA BKN016 OVC028 07/04 A3003 RMK AO2 RAB47 SLP169 P0000 T00720044,KPDX,2023-02-13T10:53:00Z,45.6,-122.62,7.2,4.4,300,5,,7.0,30.029528,1016.9,,,TRUE,,,,,,-RA,BKN,1600,OVC,2800,,,,,MVFR,,,,,,0.005,,,,,,METAR,7.0
KPDX 130953Z 21008KT 10SM BKN029 OVC075 08/03 A3003 RMK AO2 SLP168 T00830033,KPDX,2023-02-13T09:53:00Z,45.6,-122.62,8.3,3.3,210,8,,10.0,30.029528,1016.8,,,TRUE,,,,,,,BKN,2900,OVC,7500,,,,,MVFR,,,,,,,,,,,,METAR,7.0
KPDX 130853Z 00000KT 10SM BKN029 BKN045 OVC070 08/03 A3005 RMK AO2 SLP173 T00780033 58017,KPDX,2023-02-13T08:53:00Z,45.6,-122.62,7.8,3.3,0,0,,10.0,30.050198,1017.3,,,TRUE,,,,,,,BKN,2900,BKN,4500,OVC,7000,,,MVFR,-1.7,,,,,,,,,,,METAR,7.0
KPDX 130753Z 15006KT 10SM BKN038 OVC050 08/04 A3007 RMK AO2 SLP181 T00780039 401060000,KPDX,2023-02-13T07:53:00Z,45.6,-122.62,7.8,3.9,150,6,,10.0,30.070866,1018.1,,,TRUE,,,,,,,BKN,3800,OVC,5000,,,,,VFR,,,,10.6,,,,,,,,METAR,7.0
KPDX 130653Z 00000KT 10SM OVC038 08/04 A3009 RMK AO2 SLP188 T00780039,KPDX,2023-02-13T06:53:00Z,45.6,-122.62,7.8,3.9,0,0,,10.0,30.088583,1018.8,,,TRUE,,,,,,,OVC,3800,,,,,,,VFR,,,,,,,,,,,,METAR,7.0
KPDX 130553Z 16004KT 9SM OVC042 07/04 A3010 RMK AO2 RAB0459E20 SLP191 P0000 60000 T00720039 10106 20072 58007,KPDX,2023-02-13T05:53:00Z,45.6,-122.62,7.2,3.9,160,4,,9.0,30.100393,1019.1,,,TRUE,,,,,,,OVC,4200,,,,,,,VFR,-0.7,10.6,7.2,,,0.005,,0.005,,,,METAR,7.0
KPDX 130453Z 16003KT 10SM OVC047 07/03 A3012 RMK AO2 SLP200 T00720033,KPDX,2023-02-13T04:53:00Z,45.6,-122.62,7.2,3.3,160,3,,10.0,30.121063,1020.0,,,TRUE,,,,,,,OVC,4700,,,,,,,VFR,,,,,,,,,,,,METAR,7.0
KPDX 130353Z 14004KT 10SM BKN045 OVC075 07/03 A3011 RMK AO2 SLP196 T00720028,KPDX,2023-02-13T03:53:00Z,45.6,-122.62,7.2,2.8,140,4,,10.0,30.109253,1019.6,,,TRUE,,,,,,,BKN,4500,OVC,7500,,,,,VFR,,,,,,,,,,,,METAR,7.0
KPDX 130253Z 16004KT 10SM FEW049 FEW120 BKN250 08/03 A3012 RMK AO2 SLP198 T00830028 56013,KPDX,2023-02-13T02:53:00Z,45.6,-122.62,8.3,2.8,160,4,,10.0,30.121063,1019.8,,,TRUE,,,,,,,FEW,4900,FEW,12000,BKN,25000,,,VFR,-1.3,,,,,,,,,,,METAR,7.0
KPDX 130153Z 00000KT 10SM FEW120 FEW180 BKN250 09/03 A3012 RMK AO2 SLP198 T00890028,KPDX,2023-02-13T01:53:00Z,45.6,-122.62,8.9,2.8,0,0,,10.0,30.121063,1019.8,,,TRUE,,,,,,,FEW,12000,FEW,18000,BKN,25000,,,VFR,,,,,,,,,,,,METAR,7.0
KPDX 130053Z 24004KT 10SM FEW120 BKN250 10/03 A3014 RMK AO2 SLP207 ACSL DSNT E CCSL DSNT NE T01000033,KPDX,2023-02-13T00:53:00Z,45.6,-122.62,10.0,3.3,240,4,,10.0,30.138779,1020.7,,,TRUE,,,,,,,FEW,12000,BKN,25000,,,,,VFR,,,,,,,,,,,,METAR,7.0
KPDX 122353Z 22005KT 10SM FEW050 FEW120 BKN250 11/03 A3015 RMK AO2 SLP210 CCSL DSNT NE T01060028 10106 20022 56031,KPDX,2023-02-12T23:53:00Z,45.6,-122.62,10.6,2.8,220,5,,10.0,30.15059,1021.0,,,TRUE,,,,,,,FEW,5000,FEW,12000,BKN,25000,,,VFR,-3.1,10.6,2.2,,,,,,,,,METAR,7.0
KPDX 122253Z VRB04KT 10SM FEW120 BKN250 10/03 A3018 RMK AO2 SLP219 T01000033,KPDX,2023-02-12T22:53:00Z,45.6,-122.62,10.0,3.3,0,4,,10.0,30.180119,1021.9,,,TRUE,,,,,,,FEW,12000,BKN,25000,,,,,VFR,,,,,,,,,,,,METAR,7.0
KPDX 122153Z 05003KT 10SM FEW040 FEW120 BKN250 08/03 A3022 RMK AO2 SLP232 T00830028,KPDX,2023-02-12T21:53:00Z,45.6,-122.62,8.3,2.8,50,3,,10.0,30.221457,1023.2,,,TRUE,,,,,,,FEW,4000,FEW,12000,BKN,25000,,,VFR,,,,,,,,,,,,METAR,7.0
KPDX 122053Z 13003KT 10SM FEW005 SCT250 06/03 A3025 RMK AO2 SLP242 T00610028 58013,KPDX,2023-02-12T20:53:00Z,45.6,-122.62,6.1,2.8,130,3,,10.0,30.250984,1024.2,,,TRUE,,,,,,,FEW,500,SCT,25000,,,,,VFR,-1.3,,,,,,,,,,,METAR,7.0
KPDX 122019Z 00000KT 8SM BKN005 05/02 A3026 RMK AO2 T00500022,KPDX,2023-02-12T20:19:00Z,45.6,-122.62,5.0,2.2,0,0,,8.0,30.259842,,,,TRUE,,,,,,,BKN,500,,,,,,,IFR,,,,,,,,,,,,SPECI,7.0
KPDX 121953Z 00000KT 3SM OVC004 04/02 A3027 RMK AO2 SFC VIS 8 SLP250 T00390022,KPDX,2023-02-12T19:53:00Z,45.6,-122.62,3.9,2.2,0,0,,3.0,30.268702,1025.0,,,TRUE,,,,,,,OVC,400,,,,,,,LIFR,,,,,,,,,,,,METAR,7.0
KPDX 121941Z 00000KT 3SM OVC004 04/02 A3027 RMK AO2 SFC VIS 7 T00390022,KPDX,2023-02-12T19:41:00Z,45.6,-122.62,3.9,2.2,0,0,,3.0,30.268702,,,,TRUE,,,,,,,OVC,400,,,,,,,LIFR,,,,,,,,,,,,SPECI,7.0
KPDX 121920Z 00000KT 2SM BR OVC002 03/02 A3028 RMK AO2 T00330022,KPDX,2023-02-12T19:20:00Z,45.6,-122.62,3.3,2.2,0,0,,2.0,30.280512,,,,TRUE,,,,,,BR,OVC,200,,,,,,,LIFR,,,,,,,,,,,,SPECI,7.0
KPDX 121903Z 00000KT 1/2SM R10R/P6000FT BR OVC002 03/02 A3029 RMK AO2 SFC VIS 2 VIS 1 1/4V2 1/2 T00280017,KPDX,2023-02-12T19:03:00Z,45.6,-122.62,2.8,1.7,0,0,,0.5,30.28937,,,,TRUE,,,,,,BR,OVC,200,,,,,,,LIFR,,,,,,,,,,,,METAR,7.0
KPDX 121853Z 33003KT 1/8SM R10R/6000VP6000FT BR OVC002 03/02 A3029 RMK AO2 SFC VIS 1 SLP255 T00280017,KPDX,2023-02-12T18:53:00Z,45.6,-122.62,2.8,1.7,330,3,,0.13,30.28937,1025.5,,,TRUE,,,,,,BR,OVC,200,,,,,,,LIFR,,,,,,,,,,,,METAR,7.0
KPDX 121753Z 19003KT 1/8SM R10R/3500VP6000FT FG VV002 02/01 A3029 RMK AO2 SFC VIS 1/2 SLP255 I6000 T00220011 10022 20011 56002,KPDX,2023-02-12T17:53:00Z,45.6,-122.62,2.2,1.1,190,3,,0.13,30.28937,1025.5,,,TRUE,,,,,,FG,OVX,0,,,,,,,LIFR,-0.2,2.2,1.1,,,,,,,,200,SPECI,7.0
KPDX 121745Z 00000KT 1/8SM R10R/2000V6000FT FG VV002 02/02 A3029 RMK AO2 SFC VIS 1/4 T00220017,KPDX,2023-02-12T17:45:00Z,45.6,-122.62,2.2,1.7,0,0,,0.13,30.28937,,,,TRUE,,,,,,FG,OVX,0,,,,,,,LIFR,,,,,,,,,,,200,SPECI,7.0
KPDX 121733Z 16004KT 1/8SM R10R/1600V2200FT FG VV002 02/02 A3029 RMK AO2 SFC VIS 1/4 T00220017,KPDX,2023-02-12T17:33:00Z,45.6,-122.62,2.2,1.7,160,4,,0.13,30.28937,,,,TRUE,,,,,,FG,OVX,0,,,,,,,LIFR,,,,,,,,,,,200,SPECI,7.0
KPDX 121702Z 20003KT 1/8SM R10R/1800VP6000FT FG VV002 02/01 A3030 RMK AO2 SFC VIS 1/4 T00170011,KPDX,2023-02-12T17:02:00Z,45.6,-122.62,1.7,1.1,200,3,,0.13,30.301182,,,,TRUE,,,,,,FG,OVX,0,,,,,,,LIFR,,,,,,,,,,,200,SPECI,7.0
KPDX 121653Z 00000KT 1/8SM R10R/1600V1800FT FG VV002 02/01 A3029 RMK AO2 SFC VIS 1/4 SLP258 T00170011,KPDX,2023-02-12T16:53:00Z,45.6,-122.62,1.7,1.1,0,0,,0.13,30.28937,1025.8,,,TRUE,,,,,,FG,OVX,0,,,,,,,LIFR,,,,,,,,,,,200,SPECI,7.0
KPDX 121636Z 00000KT 1/8SM R10R/1400V1800FT FG VV002 02/01 A3030 RMK AO2 SFC VIS 1/4 T00170011,KPDX,2023-02-12T16:36:00Z,45.6,-122.62,1.7,1.1,0,0,,0.13,30.301182,,,,TRUE,,,,,,FG,OVX,0,,,,,,,LIFR,,,,,,,,,,,200,SPECI,7.0
KPDX 121627Z 00000KT 1/4SM R10R/1600V2400FT FG VV002 02/01 A3029 RMK AO2 TWR VIS 1/4 T00170011,KPDX,2023-02-12T16:27:00Z,45.6,-122.62,1.7,1.1,0,0,,0.25,30.28937,,,,TRUE,,,,,,FG,OVX,0,,,,,,,LIFR,,,,,,,,,,,200,SPECI,7.0
KPDX 121553Z 00000KT 1/4SM R10R/1600FT FG VV002 02/01 A3028 RMK AO2 TWR VIS 1/4 SLP254 T00170006,KPDX,2023-02-12T15:53:00Z,45.6,-122.62,1.7,0.6,0,0,,0.25,30.280512,1025.4,,,TRUE,,,,,,FG,OVX,0,,,,,,,LIFR,,,,,,,,,,,200,METAR,7.0
KPDX 121517Z 00000KT 1/4SM R10R/1600V2800FT FG VV002 01/01 A3029 RMK AO2 T00110006 $,KPDX,2023-02-12T15:17:00Z,45.6,-122.62,1.1,0.6,0,0,,0.25,30.28937,,,,TRUE,TRUE,,,,,FG,OVX,0,,,,,,,LIFR,,,,,,,,,,,200,SPECI,7.0
KPDX 121453Z 00000KT 1/4SM R10R/1800V2200FT FG VV002 01/00 A3029 RMK AO2 SLP258 I3000 T00110000 53005 $,KPDX,2023-02-12T14:53:00Z,45.6,-122.62,1.1,0.0,0,0,,0.25,30.28937,1025.8,,,TRUE,TRUE,,,,,FG,OVX,0,,,,,,,LIFR,0.5,,,,,,,,,,200,METAR,7.0
KPDX 121353Z 09004KT 1/4SM R10R/1600V2800FT FG VV002 02/01 A3028 RMK AO2 SLP253 T00170006 $,KPDX,2023-02-12T13:53:00Z,45.6,-122.62,1.7,0.6,90,4,,0.25,30.280512,1025.3,,,TRUE,TRUE,,,,,FG,OVX,0,,,,,,,LIFR,,,,,,,,,,,200,METAR,7.0
KPDX 121351Z 09004KT 1/4SM R10R/1600V2400FT FG VV002 02/01 A3028 RMK AO2 $,KPDX,2023-02-12T13:51:00Z,45.6,-122.62,2.0,1.0,90,4,,0.25,30.280512,,,,TRUE,TRUE,,,,,FG,OVX,0,,,,,,,LIFR,,,,,,,,,,,200,SPECI,7.0
KPDX 121348Z 10004KT 1/16SM R10R/1600V2000FT FG VV002 02/01 A3028 RMK AO2 TWR VIS 1/4 $,KPDX,2023-02-12T13:48:00Z,45.6,-122.62,2.0,1.0,100,4,,0.06,30.280512,,,,TRUE,TRUE,,,,,FG,OVX,0,,,,,,,LIFR,,,,,,,,,,,200,METAR,7.0
KPDX 121329Z 11006KT 1/16SM R10R/1800V2600FT FG VV002 02/01 A3028 RMK AO2 TWR VIS 1/4 T00170011 $,KPDX,2023-02-12T13:29:00Z,45.6,-122.62,1.7,1.1,110,6,,0.06,30.280512,,,,TRUE,TRUE,,,,,FG,OVX,0,,,,,,,LIFR,,,,,,,,,,,200,SPECI,7.0
KPDX 121307Z 12003KT 1/16SM R10R/1800V2000FT FG VV002 02/01 A3028 RMK AO2 TWR VIS 1 T00170011 $,KPDX,2023-02-12T13:07:00Z,45.6,-122.62,1.7,1.1,120,3,,0.06,30.280512,,,,TRUE,TRUE,,,,,FG,OVX,0,,,,,,,LIFR,,,,,,,,,,,200,SPECI,7.0
KPDX 121253Z 13003KT 1/8SM R10R/2600VP6000FT FG VV002 02/01 A3028 RMK AO2 TWR VIS 1 SLP253 I1000 T00170006 $,KPDX,2023-02-12T12:53:00Z,45.6,-122.62,1.7,0.6,130,3,,0.13,30.280512,1025.3,,,TRUE,TRUE,,,,,FG,OVX,0,,,,,,,LIFR,,,,,,,,,,,200,METAR,7.0
KPDX 121242Z 00000KT 1/8SM R10R/P6000FT FG VV002 02/01 A3029 RMK AO2 TWR VIS 1 I1000 T00170006 $,KPDX,2023-02-12T12:42:00Z,45.6,-122.62,1.7,0.6,0,0,,0.13,30.28937,,,,TRUE,TRUE,,,,,FG,OVX,0,,,,,,,LIFR,,,,,,,,,,,200,SPECI,7.0
KPDX 121227Z 16003KT 1/4SM R10R/P6000FT FG BKN000 OVC007 02/00 A3028 RMK AO2 TWR VIS 1 FG BKN000 I1000 T00170000 $,KPDX,2023-02-12T12:27:00Z,45.6,-122.62,1.7,0.0,160,3,,0.25,30.280512,,,,TRUE,TRUE,,,,,FG,BKN,0,OVC,700,,,,,LIFR,,,,,,,,,,,,SPECI,7.0
KPDX 121218Z 00000KT 1/2SM R10R/P6000FT FG SCT002 BKN007 02/00 A3029 RMK AO2 TWR VIS 2 I1000 T00170000,KPDX,2023-02-12T12:18:00Z,45.6,-122.62,1.7,0.0,0,0,,0.5,30.28937,,,,TRUE,,,,,,FG,SCT,200,BKN,700,,,,,LIFR,,,,,,,,,,,,SPECI,7.0
KPDX 121153Z 00000KT 5SM BR FEW002 BKN007 01/00 A3029 RMK AO2 SLP256 VIS E 2 T00110000 10044 20000 52003,KPDX,2023-02-12T11:53:00Z,45.6,-122.62,1.1,0.0,0,0,,5.0,30.28937,1025.6,,,TRUE,,,,,,BR,FEW,200,BKN,700,,,,,IFR,0.3,4.4,0.0,,,,,,,,,METAR,7.0
KPDX 121102Z 00000KT 10SM R10R/4000VP6000FT FEW007 SCT250 00/M02 A3030 RMK AO2 T00001017,KPDX,2023-02-12T11:02:00Z,45.6,-122.62,0.0,-1.7,0,0,,10.0,30.301182,,,,TRUE,,,,,,,FEW,700,SCT,25000,,,,,VFR,,,,,,,,,,,,SPECI,7.0
KPDX 121053Z 00000KT 9SM R10R/1400VP6000FT FEW010 SCT250 01/M01 A3030 RMK AO2 SLP258 T00061011,KPDX,2023-02-12T10:53:00Z,45.6,-122.62,0.6,-1.1,0,0,,9.0,30.301182,1025.8,,,TRUE,,,,,,,FEW,1000,SCT,25000,,,,,VFR,,,,,,,,,,,,SPECI,7.0
KPDX 120953Z 00000KT 10SM CLR 02/00 A3028 RMK AO2 SLP253 T00170000,KPDX,2023-02-12T09:53:00Z,45.6,-122.62,1.7,0.0,0,0,,10.0,30.280512,1025.3,,,TRUE,,,,,,,CLR,,,,,,,,VFR,,,,,,,,,,,,METAR,7.0
KPDX 120853Z 00000KT 10SM CLR 03/02 A3028 RMK AO2 SLP254 T00330017 51006,KPDX,2023-02-12T08:53:00Z,45.6,-122.62,3.3,1.7,0,0,,10.0,30.280512,1025.4,,,TRUE,,,,,,,CLR,,,,,,,,VFR,0.6,,,,,,,,,,,METAR,7.0
KPDX 120753Z 00000KT 10SM CLR 03/01 A3027 RMK AO2 SLP251 T00280006 401110022,KPDX,2023-02-12T07:53:00Z,45.6,-122.62,2.8,0.6,0,0,,10.0,30.268702,1025.1,,,TRUE,,,,,,,CLR,,,,,,,,VFR,,,,11.1,2.2,,,,,,,METAR,7.0
KPDX 120653Z 32004KT 10SM CLR 03/01 A3028 RMK AO2 SLP254 T00280006,KPDX,2023-02-12T06:53:00Z,45.6,-122.62,2.8,0.6,320,4,,10.0,30.280512,1025.4,,,TRUE,,,,,,,CLR,,,,,,,,VFR,,,,,,,,,,,,METAR,7.0
KPDX 120553Z 33003KT 10SM CLR 04/02 A3027 RMK AO2 SLP249 T00390017 10111 20039 53008,KPDX,2023-02-12T05:53:00Z,45.6,-122.62,3.9,1.7,330,3,,10.0,30.268702,1024.9,,,TRUE,,,,,,,CLR,,,,,,,,VFR,0.8,11.1,3.9,,,,,,,,,METAR,7.0
KPDX 120453Z 00000KT 10SM CLR 05/02 A3026 RMK AO2 SLP245 T00500017,KPDX,2023-02-12T04:53:00Z,45.6,-122.62,5.0,1.7,0,0,,10.0,30.259842,1024.5,,,TRUE,,,,,,,CLR,,,,,,,,VFR,,,,,,,,,,,,METAR,7.0
KPDX 120353Z 30006KT 10SM CLR 07/02 A3025 RMK AO2 SLP243 T00720022,KPDX,2023-02-12T03:53:00Z,45.6,-122.62,7.2,2.2,300,6,,10.0,30.250984,1024.3,,,TRUE,,,,,,,CLR,,,,,,,,VFR,,,,,,,,,,,,METAR,7.0
KPDX 120253Z 30003KT 10SM FEW230 08/03 A3024 RMK AO2 SLP239 T00780028 53002,KPDX,2023-02-12T02:53:00Z,45.6,-122.62,7.8,2.8,300,3,,10.0,30.239174,1023.9,,,TRUE,,,,,,,FEW,23000,,,,,,,VFR,0.2,,,,,,,,,,,METAR,7.0
KPDX 120153Z 31007KT 10SM FEW150 BKN230 08/03 A3024 RMK AO2 SLP239 T00830028,KPDX,2023-02-12T01:53:00Z,45.6,-122.62,8.3,2.8,310,7,,10.0,30.239174,1023.9,,,TRUE,,,,,,,FEW,15000,BKN,23000,,,,,VFR,,,,,,,,,,,,METAR,7.0
KPDX 120053Z 33007KT 10SM FEW030 FEW150 BKN250 09/02 A3023 RMK AO2 SLP237 T00940022,KPDX,2023-02-12T00:53:00Z,45.6,-122.62,9.4,2.2,330,7,,10.0,30.230314,1023.7,,,TRUE,,,,,,,FEW,3000,FEW,15000,BKN,25000,,,VFR,,,,,,,,,,,,METAR,7.0
KPDX 112353Z 30009KT 10SM FEW025 FEW150 SCT250 11/03 A3023 RMK AO2 SLP238 T01060028 10111 20050 56018,KPDX,2023-02-11T23:53:00Z,45.6,-122.62,10.6,2.8,300,9,,10.0,30.230314,1023.8,,,TRUE,,,,,,,FEW,2500,FEW,15000,SCT,25000,,,VFR,-1.8,11.1,5.0,,,,,,,,,METAR,7.0
KPDX 112253Z 28007KT 10SM FEW025 FEW150 FEW250 11/02 A3025 RMK AO2 SLP242 T01060022,KPDX,2023-02-11T22:53:00Z,45.6,-122.62,10.6,2.2,280,7,,10.0,30.250984,1024.2,,,TRUE,,,,,,,FEW,2500,FEW,15000,FEW,25000,,,VFR,,,,,,,,,,,,METAR,7.0
KPDX 112153Z 29006KT 10SM FEW020 FEW140 FEW250 10/03 A3026 RMK AO2 SLP246 T01000028,KPDX,2023-02-11T21:53:00Z,45.6,-122.62,10.0,2.8,290,6,,10.0,30.259842,1024.6,,,TRUE,,,,,,,FEW,2000,FEW,14000,FEW,25000,,,VFR,,,,,,,,,,,,METAR,7.0
KPDX 112053Z 30005KT 10SM FEW018 08/03 A3029 RMK AO2 SLP255 T00830028 55010,KPDX,2023-02-11T20:53:00Z,45.6,-122.62,8.3,2.8,300,5,,10.0,30.28937,1025.5,,,TRUE,,,,,,,FEW,1800,,,,,,,VFR,-1.0,,,,,,,,,,,METAR,7.0
KPDX 111953Z 29006KT 10SM BKN017 07/03 A3030 RMK AO2 SLP258 T00720028,KPDX,2023-02-11T19:53:00Z,45.6,-122.62,7.2,2.8,290,6,,10.0,30.301182,1025.8,,,TRUE,,,,,,,BKN,1700,,,,,,,MVFR,,,,,,,,,,,,METAR,7.0
KPDX 111853Z 32006KT 10SM OVC020 07/03 A3032 RMK AO2 SLP265 T00720028,KPDX,2023-02-11T18:53:00Z,45.6,-122.62,7.2,2.8,320,6,,10.0,30.318897,1026.5,,,TRUE,,,,,,,OVC,2000,,,,,,,MVFR,,,,,,,,,,,,SPECI,7.0
KPDX 111753Z 33004KT 10SM OVC019 06/02 A3032 RMK AO2 SLP265 T00560017 10056 20022 51012,KPDX,2023-02-11T17:53:00Z,45.6,-122.62,5.6,1.7,330,4,,10.0,30.318897,1026.5,,,TRUE,,,,,,,OVC,1900,,,,,,,MVFR,1.2,5.6,2.2,,,,,,,,,SPECI,7.0
KPDX 111653Z 30004KT 10SM FEW008 OVC019 04/02 A3031 RMK AO2 SLP264 T00440022,KPDX,2023-02-11T16:53:00Z,45.6,-122.62,4.4,2.2,300,4,,10.0,30.31004,1026.4,,,TRUE,,,,,,,FEW,800,OVC,1900,,,,,MVFR,,,,,,,,,,,,METAR,7.0
KPDX 111553Z 00000KT 10SM SCT008 BKN019 04/02 A3030 RMK AO2 SLP260 T00390022,KPDX,2023-02-11T15:53:00Z,45.6,-122.62,3.9,2.2,0,0,,10.0,30.301182,1026.0,,,TRUE,,,,,,,SCT,800,BKN,1900,,,,,MVFR,,,,,,,,,,,,METAR,7.0
KPDX 111453Z 00000KT 10SM SCT008 OVC019 05/02 A3028 RMK AO2 SLP254 T00500022 52003,KPDX,2023-02-11T14:53:00Z,45.6,-122.62,5.0,2.2,0,0,,10.0,30.280512,1025.4,,,TRUE,,,,,,,SCT,800,OVC,1900,,,,,MVFR,0.3,,,,,,,,,,,METAR,7.0
KPDX 111437Z 28003KT 10SM FEW008 OVC019 04/02 A3028 RMK AO2 T00440022,KPDX,2023-02-11T14:37:00Z,45.6,-122.62,4.4,2.2,280,3,,10.0,30.280512,,,,TRUE,,,,,,,FEW,800,OVC,1900,,,,,MVFR,,,,,,,,,,,,SPECI,7.0
KPDX 111353Z 33006KT 10SM OVC020 05/03 A3028 RMK AO2 SLP252 T00500028,KPDX,2023-02-11T13:53:00Z,45.6,-122.62,5.0,2.8,330,6,,10.0,30.280512,1025.2,,,TRUE,,,,,,,OVC,2000,,,,,,,MVFR,,,,,,,,,,,,METAR,7.0
KPDX 111253Z 30003KT 10SM BKN020 02/01 A3028 RMK AO2 SLP252 T00220006,KPDX,2023-02-11T12:53:00Z,45.6,-122.62,2.2,0.6,300,3,,10.0,30.280512,1025.2,,,TRUE,,,,,,,BKN,2000,,,,,,,MVFR,,,,,,,,,,,,METAR,7.0
KPDX 111153Z 27005KT 10SM FEW020 02/01 A3027 RMK AO2 SLP250 70013 T00220006 10078 20022 53008,KPDX,2023-02-11T11:53:00Z,45.6,-122.62,2.2,0.6,270,5,,10.0,30.268702,1025.0,,,TRUE,,,,,,,FEW,2000,,,,,,,VFR,0.8,7.8,2.2,,,,,,0.13,,,METAR,7.0
KPDX 111053Z 29006KT 10SM FEW020 04/02 A3026 RMK AO2 SLP247 T00440017,KPDX,2023-02-11T10:53:00Z,45.6,-122.62,4.4,1.7,290,6,,10.0,30.259842,1024.7,,,TRUE,,,,,,,FEW,2000,,,,,,,VFR,,,,,,,,,,,,METAR,7.0
KPDX 110953Z 30005KT 10SM FEW025 06/03 A3026 RMK AO2 SLP244 T00560028,KPDX,2023-02-11T09:53:00Z,45.6,-122.62,5.6,2.8,300,5,,10.0,30.259842,1024.4,,,TRUE,,,,,,,FEW,2500,,,,,,,VFR,,,,,,,,,,,,METAR,7.0
KPDX 110853Z 00000KT 10SM CLR 06/03 A3025 RMK AO2 SLP242 T00560028 51013,KPDX,2023-02-11T08:53:00Z,45.6,-122.62,5.6,2.8,0,0,,10.0,30.250984,1024.2,,,TRUE,,,,,,,CLR,,,,,,,,VFR,1.3,,,,,,,,,,,METAR,7.0
KPDX 110753Z 28004KT 10SM CLR 06/03 A3024 RMK AO2 SLP240 T00610033 401280056,KPDX,2023-02-11T07:53:00Z,45.6,-122.62,6.1,3.3,280,4,,10.0,30.239174,1024.0,,,TRUE,,,,,,,CLR,,,,,,,,VFR,,,,12.8,5.6,,,,,,,METAR,7.0
KPDX 110653Z 31010KT 10SM CLR 07/03 A3023 RMK AO2 SLP235 T00720033,KPDX,2023-02-11T06:53:00Z,45.6,-122.62,7.2,3.3,310,10,,10.0,30.230314,1023.5,,,TRUE,,,,,,,CLR,,,,,,,,VFR,,,,,,,,,,,,SPECI,7.0
KPDX 110553Z 31010KT 10SM CLR 08/04 A3021 RMK AO2 SLP230 T00780039 10128 20078 52010,KPDX,2023-02-11T05:53:00Z,45.6,-122.62,7.8,3.9,310,10,,10.0,30.209646,1023.0,,,TRUE,,,,,,,CLR,,,,,,,,VFR,1.0,12.8,7.8,,,,,,,,,METAR,7.0
KPDX 110453Z 32010KT 10SM CLR 08/04 A3020 RMK AO2 SLP226 T00830044,KPDX,2023-02-11T04:53:00Z,45.6,-122.62,8.3,4.4,320,10,,10.0,30.200787,1022.6,,,TRUE,,,,,,,CLR,,,,,,,,VFR,,,,,,,,,,,,METAR,7.0
KPDX 110353Z 31007KT 10SM CLR 09/04 A3019 RMK AO2 SLP223 T00890044,KPDX,2023-02-11T03:53:00Z,45.6,-122.62,8.9,4.4,310,7,,10.0,30.188976,1022.3,,,TRUE,,,,,,,CLR,,,,,,,,VFR,,,,,,,,,,,,METAR,7.0
KPDX 110253Z 31008KT 10SM SCT095 09/05 A3018 RMK AO2 SLP220 T00940050 51010,KPDX,2023-02-11T02:53:00Z,45.6,-122.62,9.4,5.0,310,8,,10.0,30.180119,1022.0,,,TRUE,,,,,,,SCT,9500,,,,,,,VFR,1.0,,,,,,,,,,,METAR,7.0
KPDX 110153Z 33007KT 10SM FEW025 BKN095 11/05 A3017 RMK AO2 SLP217 T01060050,KPDX,2023-02-11T01:53:00Z,45.6,-122.62,10.6,5.0,330,7,,10.0,30.171259,1021.7,,,TRUE,,,,,,,FEW,2500,BKN,9500,,,,,VFR,,,,,,,,,,,,METAR,7.0
KPDX 110053Z 32010KT 10SM FEW025 FEW070 12/06 A3016 RMK AO2 SLP213 T01170056,KPDX,2023-02-11T00:53:00Z,45.6,-122.62,11.7,5.6,320,10,,10.0,30.159449,1021.3,,,TRUE,,,,,,,FEW,2500,FEW,7000,,,,,VFR,,,,,,,,,,,,METAR,7.0
KPDX 102353Z 28009KT 10SM FEW020 FEW130 FEW250 12/07 A3015 RMK AO2 SLP210 T01220067 10122 20067 56011,KPDX,2023-02-10T23:53:00Z,45.6,-122.62,12.2,6.7,280,9,,10.0,30.15059,1021.0,,,TRUE,,,,,,,FEW,2000,FEW,13000,FEW,25000,,,VFR,-1.1,12.2,6.7,,,,,,,,,METAR,7.0
KPDX 102253Z 28008KT 10SM FEW020 FEW090 SCT140 SCT250 12/07 A3016 RMK AO2 SLP212 T01220072,KPDX,2023-02-10T22:53:00Z,45.6,-122.62,12.2,7.2,280,8,,10.0,30.159449,1021.2,,,TRUE,,,,,,,FEW,2000,FEW,9000,SCT,14000,SCT,25000,VFR,,,,,,,,,,,,METAR,7.0
KPDX 102153Z 29007KT 10SM SCT018 SCT040 SCT070 BKN130 BKN250 12/07 A3017 RMK AO2 SLP216 T01170072,KPDX,2023-02-10T21:53:00Z,45.6,-122.62,11.7,7.2,290,7,,10.0,30.171259,1021.6,,,TRUE,,,,,,,SCT,1800,SCT,4000,SCT,7000,BKN,13000,VFR,,,,,,,,,,,,METAR,7.0
KPDX 102053Z 29006KT 10SM SCT015 BKN040 BKN080 BKN250 11/07 A3018 RMK AO2 SLP221 T01060072 58012,KPDX,2023-02-10T20:53:00Z,45.6,-122.62,10.6,7.2,290,6,,10.0,30.180119,1022.1,,,TRUE,,,,,,,SCT,1500,BKN,4000,BKN,8000,BKN,25000,VFR,-1.2,,,,,,,,,,,METAR,7.0
KPDX 101953Z 00000KT 10SM FEW039 BKN080 BKN095 BKN250 09/06 A3021 RMK AO2 SLP229 T00890056,KPDX,2023-02-10T19:53:00Z,45.6,-122.62,8.9,5.6,0,0,,10.0,30.209646,1022.9,,,TRUE,,,,,,,FEW,3900,BKN,8000,BKN,9500,BKN,25000,VFR,,,,,,,,,,,,METAR,7.0
KPDX 101853Z 11004KT 10SM FEW015 BKN041 BKN075 08/06 A3022 RMK AO2 SLP234 T00780056,KPDX,2023-02-10T18:53:00Z,45.6,-122.62,7.8,5.6,110,4,,10.0,30.221457,1023.4,,,TRUE,,,,,,,FEW,1500,BKN,4100,BKN,7500,,,VFR,,,,,,,,,,,,SPECI,7.0
KPDX 101753Z 13005KT 10SM FEW019 OVC080 07/04 A3022 RMK AO2 RAB1658E45 SLP233 P0001 60013 T00670044 10067 20056 51009,KPDX,2023-02-10T17:53:00Z,45.6,-122.62,6.7,4.4,130,5,,10.0,30.221457,1023.3,,,TRUE,,,,,,,FEW,1900,OVC,8000,,,,,VFR,0.9,6.7,5.6,,,0.01,,0.13,,,,METAR,7.0
KPDX 101653Z 11007KT 10SM SCT014 BKN045 OVC075 06/04 A3022 RMK AO2 RAE52 SLP231 P0005 T00610044,KPDX,2023-02-10T16:53:00Z,45.6,-122.62,6.1,4.4,110,7,,10.0,30.221457,1023.1,,,TRUE,,,,,,,SCT,1400,BKN,4500,OVC,7500,,,VFR,,,,,,0.05,,,,,,METAR,7.0
KPDX 101553Z 11008KT 7SM RA FEW015 SCT032 OVC040 06/04 A3021 RMK AO2 RAB18 SLP228 P0002 T00610039,KPDX,2023-02-10T15:53:00Z,45.6,-122.62,6.1,3.9,110,8,,7.0,30.209646,1022.8,,,TRUE,,,,,,RA,FEW,1500,SCT,3200,OVC,4000,,,VFR,,,,,,0.02,,,,,,METAR,7.0
KPDX 101453Z 11008KT 10SM FEW015 BKN030 OVC075 06/04 A3020 RMK AO2 RAE20 SLP224 P0001 60005 T00610039 51001,KPDX,2023-02-10T14:53:00Z,45.6,-122.62,6.1,3.9,110,8,,10.0,30.200787,1022.4,,,TRUE,,,,,,,FEW,1500,BKN,3000,OVC,7500,,,MVFR,0.1,,,,,0.01,0.05,,,,,METAR,7.0
KPDX 101428Z 12008KT 10SM FEW014 BKN041 OVC075 06/04 A3019 RMK AO2 RAE20 P0001 T00610039,KPDX,2023-02-10T14:28:00Z,45.6,-122.62,6.1,3.9,120,8,,10.0,30.188976,,,,TRUE,,,,,,,FEW,1400,BKN,4100,OVC,7500,,,VFR,,,,,,0.01,,,,,,SPECI,7.0
KPDX 101353Z 12007KT 10SM -RA FEW017 BKN023 OVC046 06/04 A3020 RMK AO2 RAE08B26 SLP224 P0004 T00610044,KPDX,2023-02-10T13:53:00Z,45.6,-122.62,6.1,4.4,120,7,,10.0,30.200787,1022.4,,,TRUE,,,,,,-RA,FEW,1700,BKN,2300,OVC,4600,,,MVFR,,,,,,0.04,,,,,,SPECI,7.0
KPDX 101253Z 12005KT 7SM -RA BKN016 BKN027 OVC039 07/04 A3020 RMK AO2 RAB46 SLP224 P0000 T00670044,KPDX,2023-02-10T12:53:00Z,45.6,-122.62,6.7,4.4,120,5,,7.0,30.200787,1022.4,,,TRUE,,,,,,-RA,BKN,1600,BKN,2700,OVC,3900,,,MVFR,,,,,,0.005,,,,,,METAR,7.0
KPDX 101153Z 09005KT 10SM SCT016 BKN027 BKN045 07/05 A3019 RMK AO2 RAB01E16 SLP223 P0001 60003 70003 T00670050 10106 20067 56001,KPDX,2023-02-10T11:53:00Z,45.6,-122.62,6.7,5.0,90,5,,10.0,30.188976,1022.3,,,TRUE,,,,,,,SCT,1600,BKN,2700,BKN,4500,,,MVFR,-0.1,10.6,6.7,,,0.01,,0.03,0.03,,,METAR,7.0
KPDX 101135Z 10009KT 10SM FEW016 BKN027 BKN045 07/04 A3019 RMK AO2 RAB01E16 P0001 T00670044,KPDX,2023-02-10T11:35:00Z,45.6,-122.62,6.7,4.4,100,9,,10.0,30.188976,,,,TRUE,,,,,,,FEW,1600,BKN,2700,BKN,4500,,,MVFR,,,,,,0.01,,,,,,SPECI,7.0
KPDX 101053Z 11008KT 10SM FEW025 BKN035 BKN050 07/05 A3019 RMK AO2 SLP223 T00720050,KPDX,2023-02-10T10:53:00Z,45.6,-122.62,7.2,5.0,110,8,,10.0,30.188976,1022.3,,,TRUE,,,,,,,FEW,2500,BKN,3500,BKN,5000,,,VFR,,,,,,,,,,,,METAR,7.0
KPDX 100953Z 16007KT 10SM SCT028 BKN040 BKN060 08/06 A3019 RMK AO2 RAE02 SLP223 P0000 T00780056,KPDX,2023-02-10T09:53:00Z,45.6,-122.62,7.8,5.6,160,7,,10.0,30.188976,1022.3,,,TRUE,,,,,,,SCT,2800,BKN,4000,BKN,6000,,,VFR,,,,,,0.005,,,,,,METAR,7.0
KPDX 100853Z 11007KT 7SM -RA BKN028 OVC038 08/04 A3020 RMK AO2 SLP224 P0001 60002 T00830044 53004,KPDX,2023-02-10T08:53:00Z,45.6,-122.62,8.3,4.4,110,7,,7.0,30.200787,1022.4,,,TRUE,,,,,,-RA,BKN,2800,OVC,3800,,,,,MVFR,0.4,,,,,0.01,0.02,,,,,METAR,7.0
KPDX 100753Z 12008KT 10SM -RA SCT038 BKN050 BKN070 09/04 A3019 RMK AO2 RAB50 SLP221 P0000 T00940039 401390006,KPDX,2023-02-10T07:53:00Z,45.6,-122.62,9.4,3.9,120,8,,10.0,30.188976,1022.1,,,TRUE,,,,,,-RA,SCT,3800,BKN,5000,BKN,7000,,,VFR,,,,13.9,0.6,0.005,,,,,,METAR,7.0
KPDX 100653Z 15008KT 10SM SCT040 BKN050 BKN075 10/05 A3018 RMK AO2 RAE25 SLP218 P0001 T01000050,KPDX,2023-02-10T06:53:00Z,45.6,-122.62,10.0,5.0,150,8,,10.0,30.180119,1021.8,,,TRUE,,,,,,,SCT,4000,BKN,5000,BKN,7500,,,VFR,,,,,,0.01,,,,,,METAR,7.0
KPDX 100553Z 13007KT 9SM -RA BKN050 OVC075 09/03 A3018 RMK AO2 RAB33 SLP220 P0000 60000 T00940028 10139 20094 53023,KPDX,2023-02-10T05:53:00Z,45.6,-122.62,9.4,2.8,130,7,,9.0,30.180119,1022.0,,,TRUE,,,,,,-RA,BKN,5000,OVC,7500,,,,,VFR,2.3,13.9,9.4,,,0.005,,0.005,,,,METAR,7.0
KPDX 100453Z 12012KT 10SM FEW050 SCT075 OVC120 11/M01 A3015 RMK AO2 SLP209 T01061006,KPDX,2023-02-10T04:53:00Z,45.6,-122.62,10.6,-0.6,120,12,,10.0,30.15059,1020.9,,,TRUE,,,,,,,FEW,5000,SCT,7500,OVC,12000,,,VFR,,,,,,,,,,,,METAR,7.0
KPDX 100353Z 12015G22KT 10SM FEW050 SCT120 11/M01 A3012 RMK AO2 SLP199 T01061011,KPDX,2023-02-10T03:53:00Z,45.6,-122.62,10.6,-1.1,120,15,22,10.0,30.121063,1019.9,,,TRUE,,,,,,,FEW,5000,SCT,12000,,,,,VFR,,,,,,,,,,,,METAR,7.0
KPDX 100253Z 12011KT 10SM FEW050 FEW170 SCT250 11/M01 A3011 RMK AO2 SLP197 T01111006 53001,KPDX,2023-02-10T02:53:00Z,45.6,-122.62,11.1,-0.6,120,11,,10.0,30.109253,1019.7,,,TRUE,,,,,,,FEW,5000,FEW,17000,SCT,25000,,,VFR,0.1,,,,,,,,,,,METAR,7.0
KPDX 100153Z 12013KT 10SM FEW050 FEW170 SCT250 12/M01 A3011 RMK AO2 SLP195 T01171006,KPDX,2023-02-10T01:53:00Z,45.6,-122.62,11.7,-0.6,120,13,,10.0,30.109253,1019.5,,,TRUE,,,,,,,FEW,5000,FEW,17000,SCT,25000,,,VFR,,,,,,,,,,,,METAR,7.0
KPDX 100053Z 12009KT 10SM BKN170 BKN250 13/M01 A3011 RMK AO2 SLP194 T01281006,KPDX,2023-02-10T00:53:00Z,45.6,-122.62,12.8,-0.6,120,9,,10.0,30.109253,1019.4,,,TRUE,,,,,,,BKN,17000,BKN,25000,,,,,VFR,,,,,,,,,,,,METAR,7.0
KPDX 092353Z 13013KT 10SM FEW150 FEW250 14/M01 A3011 RMK AO2 SLP196 T01391006 10139 20078 56026,KPDX,2023-02-09T23:53:00Z,45.6,-122.62,13.9,-0.6,130,13,,10.0,30.109253,1019.6,,,TRUE,,,,,,,FEW,15000,FEW,25000,,,,,VFR,-2.6,13.9,7.8,,,,,,,,,METAR,7.0
KPDX 092253Z 12015KT 10SM FEW130 FEW250 13/M01 A3012 RMK AO2 SLP200 T01331006,KPDX,2023-02-09T22:53:00Z,45.6,-122.62,13.3,-0.6,120,15,,10.0,30.121063,1020.0,,,TRUE,,,,,,,FEW,13000,FEW,25000,,,,,VFR,,,,,,,,,,,,METAR,7.0
KPDX 092153Z 12014KT 10SM FEW130 FEW250 13/00 A3016 RMK AO2 SLP212 T01330000,KPDX,2023-02-09T21:53:00Z,45.6,-122.62,13.3,0.0,120,14,,10.0,30.159449,1021.2,,,TRUE,,,,,,,FEW,13000,FEW,25000,,,,,VFR,,,,,,,,,,,,METAR,7.0
KPDX 092053Z 13012KT 10SM FEW130 FEW250 13/00 A3019 RMK AO2 SLP222 T01280000 58017,KPDX,2023-02-09T20:53:00Z,45.6,-122.62,12.8,0.0,130,12,,10.0,30.188976,1022.2,,,TRUE,,,,,,,FEW,13000,FEW,25000,,,,,VFR,-1.7,,,,,,,,,,,METAR,7.0
KPDX 091953Z 12014KT 10SM FEW130 SCT240 12/00 A3020 RMK AO2 SLP226 ACSL N T01170000,KPDX,2023-02-09T19:53:00Z,45.6,-122.62,11.7,0.0,120,14,,10.0,30.200787,1022.6,,,TRUE,,,,,,,FEW,13000,SCT,24000,,,,,VFR,,,,,,,,,,,,SPECI,7.0
KPDX 091853Z 13010KT 10SM FEW130 BKN220 BKN240 10/01 A3023 RMK AO2 SLP237 ACSL N AND E T01000006,KPDX,2023-02-09T18:53:00Z,45.6,-122.62,10.0,0.6,130,10,,10.0,30.230314,1023.7,,,TRUE,,,,,,,FEW,13000,BKN,22000,BKN,24000,,,VFR,,,,,,,,,,,,METAR,7.0
KPDX 091753Z 36003KT 10SM FEW130 SCT220 BKN250 08/02 A3024 RMK AO2 SLP239 ACSL E T00780022 10078 20006 58014,KPDX,2023-02-09T17:53:00Z,45.6,-122.62,7.8,2.2,360,3,,10.0,30.239174,1023.9,,,TRUE,,,,,,,FEW,13000,SCT,22000,BKN,25000,,,VFR,-1.4,7.8,0.6,,,,,,,,,METAR,7.0
KPDX 091653Z 00000KT 10SM BKN130 BKN250 06/03 A3026 RMK AO2 SLP245 T00560028,KPDX,2023-02-09T16:53:00Z,45.6,-122.62,5.6,2.8,0,0,,10.0,30.259842,1024.5,,,TRUE,,,,,,,BKN,13000,BKN,25000,,,,,VFR,,,,,,,,,,,,METAR,7.0
KPDX 091553Z 00000KT 10SM SCT120 SCT250 03/02 A3028 RMK AO2 SLP252 ACSL N T00330017,KPDX,2023-02-09T15:53:00Z,45.6,-122.62,3.3,1.7,0,0,,10.0,30.280512,1025.2,,,TRUE,,,,,,,SCT,12000,SCT,25000,,,,,VFR,,,,,,,,,,,,METAR,7.0
KPDX 091453Z 00000KT 10SM FEW004 BKN130 BKN250 03/01 A3028 RMK AO2 SLP253 T00280011 56022,KPDX,2023-02-09T14:53:00Z,45.6,-122.62,2.8,1.1,0,0,,10.0,30.280512,1025.3,,,TRUE,,,,,,,FEW,400,BKN,13000,BKN,25000,,,VFR,-2.2,,,,,,,,,,,METAR,7.0
KPDX 091400Z 29004KT 10SM R10R/5500VP6000FT FEW002 SCT120 SCT250 01/00 A3030 RMK AO2 T00060000,KPDX,2023-02-09T14:00:00Z,45.6,-122.62,0.6,0.0,290,4,,10.0,30.301182,,,,TRUE,,,,,,,FEW,200,SCT,12000,SCT,25000,,,VFR,,,,,,,,,,,,SPECI,7.0
KPDX 091353Z 28003KT 10SM R10R/4500VP6000FT SCT120 SCT250 02/00 A3030 RMK AO2 SLP260 T00170000,KPDX,2023-02-09T13:53:00Z,45.6,-122.62,1.7,0.0,280,3,,10.0,30.301182,1026.0,,,TRUE,,,,,,,SCT,12000,SCT,25000,,,,,VFR,,,,,,,,,,,,METAR,7.0
KPDX 091253Z 00000KT 10SM CLR 02/01 A3032 RMK AO2 SLP267 T00220011,KPDX,2023-02-09T12:53:00Z,45.6,-122.62,2.2,1.1,0,0,,10.0,30.318897,1026.7,,,TRUE,,,,,,,CLR,,,,,,,,VFR,,,,,,,,,,,,METAR,7.0
KPDX 091153Z 00000KT 10SM FEW100 02/01 A3034 RMK AO2 SLP274 T00220006 10072 20017 58024,KPDX,2023-02-09T11:53:00Z,45.6,-122.62,2.2,0.6,0,0,,10.0,30.339567,1027.4,,,TRUE,,,,,,,FEW,10000,,,,,,,VFR,-2.4,7.2,1.7,,,,,,,,,METAR,7.0
KPDX 091053Z 00000KT 10SM BKN100 03/01 A3037 RMK AO2 SLP284 T00280011,KPDX,2023-02-09T10:53:00Z,45.6,-122.62,2.8,1.1,0,0,,10.0,30.369095,1028.4,,,TRUE,,,,,,,BKN,10000,,,,,,,VFR,,,,,,,,,,,,METAR,7.0
KPDX 090953Z 08003KT 10SM FEW085 04/02 A3039 RMK AO2 SLP291 T00390022,KPDX,2023-02-09T09:53:00Z,45.6,-122.62,3.9,2.2,80,3,,10.0,30.389763,1029.1,,,TRUE,,,,,,,FEW,8500,,,,,,,VFR,,,,,,,,,,,,METAR,7.0
KPDX 090853Z 31003KT 10SM FEW085 05/02 A3041 RMK AO2 SLP298 T00500022 56009,KPDX,2023-02-09T08:53:00Z,45.6,-122.62,5.0,2.2,310,3,,10.0,30.410433,1029.8,,,TRUE,,,,,,,FEW,8500,,,,,,,VFR,-0.9,,,,,,,,,,,SPECI,7.0
KPDX 090753Z 06003KT 10SM SCT100 06/02 A3042 RMK AO2 SLP298 T00610017 401220028,KPDX,2023-02-09T07:53:00Z,45.6,-122.62,6.1,1.7,60,3,,10.0,30.41929,1029.8,,,TRUE,,,,,,,SCT,10000,,,,,,,VFR,,,,12.2,2.8,,,,,,,METAR,7.0
KPDX 090653Z 13003KT 10SM BKN100 OVC130 07/02 A3044 RMK AO2 SLP306 T00720022,KPDX,2023-02-09T06:53:00Z,45.6,-122.62,7.2,2.2,130,3,,10.0,30.43996,1030.6,,,TRUE,,,,,,,BKN,10000,OVC,13000,,,,,VFR,,,,,,,,,,,,METAR,7.0
KPDX 090553Z 11003KT 10SM SCT090 SCT130 BKN250 07/02 A3044 RMK AO2 SLP307 T00720022 10117 20067 58007,KPDX,2023-02-09T05:53:00Z,45.6,-122.62,7.2,2.2,110,3,,10.0,30.43996,1030.7,,,TRUE,,,,,,,SCT,9000,SCT,13000,BKN,25000,,,VFR,-0.7,11.7,6.7,,,,,,,,,METAR,7.0
KPDX 090453Z 00000KT 10SM BKN110 BKN250 08/03 A3045 RMK AO2 SLP311 T00780028,KPDX,2023-02-09T04:53:00Z,45.6,-122.62,7.8,2.8,0,0,,10.0,30.448818,1031.1,,,TRUE,,,,,,,BKN,11000,BKN,25000,,,,,VFR,,,,,,,,,,,,METAR,7.0
KPDX 090353Z 00000KT 10SM BKN130 BKN250 07/02 A3046 RMK AO2 SLP314 T00720022,KPDX,2023-02-09T03:53:00Z,45.6,-122.62,7.2,2.2,0,0,,10.0,30.46063,1031.4,,,TRUE,,,,,,,BKN,13000,BKN,25000,,,,,VFR,,,,,,,,,,,,METAR,7.0
KPDX 090253Z 00000KT 10SM SCT110 BKN250 08/03 A3046 RMK AO2 SLP315 T00780028 56008,KPDX,2023-02-09T02:53:00Z,45.6,-122.62,7.8,2.8,0,0,,10.0,30.46063,1031.5,,,TRUE,,,,,,,SCT,11000,BKN,25000,,,,,VFR,-0.8,,,,,,,,,,,METAR,7.0
KPDX 090153Z 00000KT 10SM FEW030 FEW120 SCT250 09/02 A3046 RMK AO2 SLP315 T00940017,KPDX,2023-02-09T01:53:00Z,45.6,-122.62,9.4,1.7,0,0,,10.0,30.46063,1031.5,,,TRUE,,,,,,,FEW,3000,FEW,12000,SCT,25000,,,VFR,,,,,,,,,,,,METAR,7.0
KPDX 090053Z 00000KT 10SM FEW030 FEW100 SCT250 10/02 A3048 RMK AO2 SLP321 T01000022,KPDX,2023-02-09T00:53:00Z,45.6,-122.62,10.0,2.2,0,0,,10.0,30.481298,1032.1,,,TRUE,,,,,,,FEW,3000,FEW,10000,SCT,25000,,,VFR,,,,,,,,,,,,METAR,7.0
KPDX 082353Z 00000KT 10SM FEW030 FEW100 FEW250 12/02 A3048 RMK AO2 SLP322 T01170017 10122 20072 58012,KPDX,2023-02-08T23:53:00Z,45.6,-122.62,11.7,1.7,0,0,,10.0,30.481298,1032.2,,,TRUE,,,,,,,FEW,3000,FEW,10000,FEW,25000,,,VFR,-1.2,12.2,7.2,,,,,,,,,METAR,7.0
KPDX 082253Z 01003KT 10SM FEW030 BKN100 BKN250 11/02 A3050 RMK AO2 SLP326 T01110022,KPDX,2023-02-08T22:53:00Z,45.6,-122.62,11.1,2.2,10,3,,10.0,30.499016,1032.6,,,TRUE,,,,,,,FEW,3000,BKN,10000,BKN,25000,,,VFR,,,,,,,,,,,,METAR,7.0
KPDX 082153Z 31004KT 10SM FEW020 BKN100 BKN250 10/03 A3051 RMK AO2 SLP331 T01000033,KPDX,2023-02-08T21:53:00Z,45.6,-122.62,10.0,3.3,310,4,,10.0,30.510826,1033.1,,,TRUE,,,,,,,FEW,2000,BKN,10000,BKN,25000,,,VFR,,,,,,,,,,,,SPECI,7.0
KPDX 082053Z 05005KT 10SM FEW020 SCT110 BKN250 11/04 A3052 RMK AO2 SLP334 T01060039 58006,KPDX,2023-02-08T20:53:00Z,45.6,-122.62,10.6,3.9,50,5,,10.0,30.519686,1033.4,,,TRUE,,,,,,,FEW,2000,SCT,11000,BKN,25000,,,VFR,-0.6,,,,,,,,,,,METAR,7.0
KPDX 081953Z 06004KT 10SM FEW019 BKN110 09/04 A3054 RMK AO2 SLP340 T00940044,KPDX,2023-02-08T19:53:00Z,45.6,-122.62,9.4,4.4,60,4,,10.0,30.540354,1034.0,,,TRUE,,,,,,,FEW,1900,BKN,11000,,,,,VFR,,,,,,,,,,,,METAR,7.0
KPDX 081853Z 09008KT 10SM FEW015 SCT130 SCT220 08/04 A3054 RMK AO2 SLP341 T00830044,KPDX,2023-02-08T18:53:00Z,45.6,-122.62,8.3,4.4,90,8,,10.0,30.540354,1034.1,,,TRUE,,,,,,,FEW,1500,SCT,13000,SCT,22000,,,VFR,,,,,,,,,,,,METAR,7.0
KPDX 081753Z 11008KT 10SM FEW010 FEW060 BKN140 07/04 A3054 RMK AO2 SLP340 T00720039 10072 20028 51009,KPDX,2023-02-08T17:53:00Z,45.6,-122.62,7.2,3.9,110,8,,10.0,30.540354,1034.0,,,TRUE,,,,,,,FEW,1000,FEW,6000,BKN,14000,,,VFR,0.9,7.2,2.8,,,,,,,,,SPECI,7.0
KPDX 081653Z 08003KT 10SM FEW020 SCT060 05/03 A3054 RMK AO2 SLP339 T00500028,KPDX,2023-02-08T16:53:00Z,45.6,-122.62,5.0,2.8,80,3,,10.0,30.540354,1033.9,,,TRUE,,,,,,,FEW,2000,SCT,6000,,,,,VFR,,,,,,,,,,,,METAR,7.0
KPDX 081553Z 00000KT 10SM FEW020 FEW060 SCT250 03/02 A3052 RMK AO2 SLP333 T00330017,KPDX,2023-02-08T15:53:00Z,45.6,-122.62,3.3,1.7,0,0,,10.0,30.519686,1033.3,,,TRUE,,,,,,,FEW,2000,FEW,6000,SCT,25000,,,VFR,,,,,,,,,,,,METAR,7.0
KPDX 081453Z 00000KT 10SM FEW020 FEW060 BKN250 03/02 A3051 RMK AO2 SLP330 T00330022 51011,KPDX,2023-02-08T14:53:00Z,45.6,-122.62,3.3,2.2,0,0,,10.0,30.510826,1033.0,,,TRUE,,,,,,,FEW,2000,FEW,6000,BKN,25000,,,VFR,1.1,,,,,,,,,,,METAR,7.0
KPDX 081353Z 34003KT 10SM FEW017 SCT060 BKN250 04/02 A3050 RMK AO2 SLP328 T00440022,KPDX,2023-02-08T13:53:00Z,45.6,-122.62,4.4,2.2,340,3,,10.0,30.499016,1032.8,,,TRUE,,,,,,,FEW,1700,SCT,6000,BKN,25000,,,VFR,,,,,,,,,,,,METAR,7.0
KPDX 081253Z 00000KT 10SM FEW050 OVC065 05/03 A3050 RMK AO2 SLP326 T00500028,KPDX,2023-02-08T12:53:00Z,45.6,-122.62,5.0,2.8,0,0,,10.0,30.499016,1032.6,,,TRUE,,,,,,,FEW,5000,OVC,6500,,,,,VFR,,,,,,,,,,,,METAR,7.0
KPDX 081153Z 09007KT 10SM FEW050 FEW080 04/02 A3048 RMK AO2 SLP319 60000 70007 T00440022 10072 20044 51010,KPDX,2023-02-08T11:53:00Z,45.6,-122.62,4.4,2.2,90,7,,10.0,30.481298,1031.9,,,TRUE,,,,,,,FEW,5000,FEW,8000,,,,,VFR,1.0,7.2,4.4,,,,,0.005,0.07,,,METAR,7.0
KPDX 081053Z 29005KT 10SM FEW050 FEW080 06/02 A3047 RMK AO2 RAE09 SLP316 P0000 T00610022,KPDX,2023-02-08T10:53:00Z,45.6,-122.62,6.1,2.2,290,5,,10.0,30.469488,1031.6,,,TRUE,,,,,,,FEW,5000,FEW,8000,,,,,VFR,,,,,,0.005,,,,,,METAR,7.0
KPDX 080953Z 25008KT 10SM -RA FEW044 BKN050 OVC080 06/03 A3046 RMK AO2 RAB52 SLP313 P0000 T00610028,KPDX,2023-02-08T09:53:00Z,45.6,-122.62,6.1,2.8,250,8,,10.0,30.46063,1031.3,,,TRUE,,,,,,-RA,FEW,4400,BKN,5000,OVC,8000,,,VFR,,,,,,0.005,,,,,,METAR,7.0
KPDX 080853Z 00000KT 10SM BKN055 06/02 A3045 RMK AO2 SLP309 T00560022 51015,KPDX,2023-02-08T08:53:00Z,45.6,-122.62,5.6,2.2,0,0,,10.0,30.448818,1030.9,,,TRUE,,,,,,,BKN,5500,,,,,,,VFR,1.5,,,,,,,,,,,METAR,7.0
KPDX 080753Z 00000KT 10SM FEW060 06/03 A3044 RMK AO2 SLP305 T00610028 401060050,KPDX,2023-02-08T07:53:00Z,45.6,-122.62,6.1,2.8,0,0,,10.0,30.43996,1030.5,,,TRUE,,,,,,,FEW,6000,,,,,,,VFR,,,,10.6,5.0,,,,,,,SPECI,7.0
KPDX 080653Z 21006KT 10SM SCT050 BKN060 06/03 A3042 RMK AO2 SLP300 T00610033,KPDX,2023-02-08T06:53:00Z,45.6,-122.62,6.1,3.3,210,6,,10.0,30.41929,1030.0,,,TRUE,,,,,,,SCT,5000,BKN,6000,,,,,VFR,,,,,,,,,,,,METAR,7.0
KPDX 080553Z 21008KT 10SM BKN045 OVC060 07/04 A3040 RMK AO2 SLP294 T00720039 10106 20061 53020,KPDX,2023-02-08T05:53:00Z,45.6,-122.62,7.2,3.9,210,8,,10.0,30.398623,1029.4,,,TRUE,,,,,,,BKN,4500,OVC,6000,,,,,VFR,2.0,10.6,6.1,,,,,,,,,METAR,7.0
KPDX 080453Z 21004KT 10SM FEW049 07/03 A3039 RMK AO2 SLP288 T00720028,KPDX,2023-02-08T04:53:00Z,45.6,-122.62,7.2,2.8,210,4,,10.0,30.389763,1028.8,,,TRUE,,,,,,,FEW,4900,,,,,,,VFR,,,,,,,,,,,,METAR,7.0
KPDX 080353Z 17004KT 10SM FEW040 08/03 A3036 RMK AO2 SLP279 T00830033,KPDX,2023-02-08T03:53:00Z,45.6,-122.62,8.3,3.3,170,4,,10.0,30.360237,1027.9,,,TRUE,,,,,,,FEW,4000,,,,,,,VFR,,,,,,,,,,,,METAR,7.0
KPDX 080253Z 22003KT 10SM FEW040 08/04 A3034 RMK AO2 SLP274 T00830039 53023,KPDX,2023-02-08T02:53:00Z,45.6,-122.62,8.3,3.9,220,3,,10.0,30.339567,1027.4,,,TRUE,,,,,,,FEW,4000,,,,,,,VFR,2.3,,,,,,,,,,,METAR,7.0
KPDX 080153Z 26008KT 10SM FEW015 FEW041 09/04 A3031 RMK AO2 SLP264 T00940044,KPDX,2023-02-08T01:53:00Z,45.6,-122.62,9.4,4.4,260,8,,10.0,30.31004,1026.4,,,TRUE,,,,,,,FEW,1500,FEW,4100,,,,,VFR,,,,,,,,,,,,METAR,7.0
KPDX 080053Z 27005KT 10SM FEW015 SCT030 BKN060 09/07 A3029 RMK AO2 SLP257 T00940067,KPDX,2023-02-08T00:53:00Z,45.6,-122.62,9.4,6.7,270,5,,10.0,30.28937,1025.7,,,TRUE,,,,,,,FEW,1500,SCT,3000,BKN,6000,,,VFR,,,,,,,,,,,,METAR,7.0
KPDX 072353Z 28004KT 10SM BKN014 BKN030 BKN043 11/07 A3027 RMK AO2 RAE26 SLP250 P0000 60004 T01060072 10106 20089 53012,KPDX,2023-02-07T23:53:00Z,45.6,-122.62,10.6,7.2,280,4,,10.0,30.268702,1025.0,,,TRUE,,,,,,,BKN,1400,BKN,3000,BKN,4300,,,MVFR,1.2,10.6,8.9,,,0.005,,0.04,,,,METAR,7.0
KPDX 072253Z 29004KT 10SM -RA BKN014 BKN024 OVC046 10/07 A3025 RMK AO2 RAB10 SLP244 P0001 T01000072,KPDX,2023-02-07T22:53:00Z,45.6,-122.62,10.0,7.2,290,4,,10.0,30.250984,1024.4,,,TRUE,,,,,,-RA,BKN,1400,BKN,2400,OVC,4600,,,MVFR,,,,,,0.01,,,,,,METAR,7.0
KPDX 072153Z 21011G20KT 10SM BKN014 BKN039 BKN060 11/07 A3022 RMK AO2 RAE47 SLP233 P0001 T01060072,KPDX,2023-02-07T21:53:00Z,45.6,-122.62,10.6,7.2,210,11,20,10.0,30.221457,1023.3,,,TRUE,,,,,,,BKN,1400,BKN,3900,BKN,6000,,,MVFR,,,,,,0.01,,,,,,METAR,7.0
KPDX 072053Z 19009G19KT 10SM -RA SCT017 BKN048 BKN060 09/06 A3024 RMK AO2 RAB39 SLP238 P0000 60002 T00940061 58014,KPDX,2023-02-07T20:53:00Z,45.6,-122.62,9.4,6.1,190,9,19,10.0,30.239174,1023.8,,,TRUE,,,,,,-RA,SCT,1700,BKN,4800,BKN,6000,,,VFR,-1.4,,,,,0.005,0.02,,,,,METAR,7.0
KPDX 072045Z 18011KT 10SM -RA BKN017 OVC045 09/06 A3024 RMK AO2 RAB39 P0000 T00940061,KPDX,2023-02-07T20:45:00Z,45.6,-122.62,9.4,6.1,180,11,,10.0,30.239174,,,,TRUE,,,,,,-RA,BKN,1700,OVC,4500,,,,,MVFR,,,,,,0.005,,,,,,SPECI,7.0
KPDX 071953Z 20015G21KT 10SM FEW038 BKN055 OVC090 09/06 A3025 RMK AO2 RAE35 SLP244 P0001 T00940056,KPDX,2023-02-07T19:53:00Z,45.6,-122.62,9.4,5.6,200,15,21,10.0,30.250984,1024.4,,,TRUE,,,,,,,FEW,3800,BKN,5500,OVC,9000,,,VFR,,,,,,0.01,,,,,,METAR,7.0
KPDX 071853Z 18010KT 10SM -RA SCT022 OVC031 09/05 A3028 RMK AO2 SLP253 P0001 T00890050,KPDX,2023-02-07T18:53:00Z,45.6,-122.62,8.9,5.0,180,10,,10.0,30.280512,1025.3,,,TRUE,,,,,,-RA,SCT,2200,OVC,3100,,,,,VFR,,,,,,0.01,,,,,,METAR,7.0
KPDX 071840Z 18007KT 10SM -RA BKN022 OVC031 09/05 A3028 RMK AO2 P0000 T00890050,KPDX,2023-02-07T18:40:00Z,45.6,-122.62,8.9,5.0,180,7,,10.0,30.280512,,,,TRUE,,,,,,-RA,BKN,2200,OVC,3100,,,,,MVFR,,,,,,0.005,,,,,,SPECI,7.0
KPDX 071753Z 17009G19KT 10SM -RA SCT033 OVC055 09/05 A3028 RMK AO2 SLP252 P0002 60003 T00890050 10100 20083 58002,KPDX,2023-02-07T17:53:00Z,45.6,-122.62,8.9,5.0,170,9,19,10.0,30.280512,1025.2,,,TRUE,,,,,,-RA,SCT,3300,OVC,5500,,,,,VFR,-0.2,10.0,8.3,,,0.02,,0.03,,,,METAR,7.0
KPDX 071653Z 19011KT 10SM -RA OVC035 09/04 A3029 RMK AO2 RAB04 SLP255 P0001 T00890044,KPDX,2023-02-07T16:53:00Z,45.6,-122.62,8.9,4.4,190,11,,10.0,30.28937,1025.5,,,TRUE,,,,,,-RA,OVC,3500,,,,,,,VFR,,,,,,0.01,,,,,,METAR,7.0
KPDX 071553Z 19014G21KT 10SM BKN049 OVC060 10/03 A3028 RMK AO2 SLP252 T01000028,KPDX,2023-02-07T15:53:00Z,45.6,-122.62,10.0,2.8,190,14,21,10.0,30.280512,1025.2,,,TRUE,,,,,,,BKN,4900,OVC,6000,,,,,VFR,,,,,,,,,,,,METAR,7.0
KPDX 071453Z 20011G21KT 10SM OVC050 09/03 A3028 RMK AO2 SLP254 T00940033 58014,KPDX,2023-02-07T14:53:00Z,45.6,-122.62,9.4,3.3,200,11,21,10.0,30.280512,1025.4,,,TRUE,,,,,,,OVC,5000,,,,,,,VFR,-1.4,,,,,,,,,,,METAR,7.0
KPDX 071353Z 20009KT 10SM OVC049 09/03 A3031 RMK AO2 SLP262 T00890033,KPDX,2023-02-07T13:53:00Z,45.6,-122.62,8.9,3.3,200,9,,10.0,30.31004,1026.2,,,TRUE,,,,,,,OVC,4900,,,,,,,VFR,,,,,,,,,,,,METAR,7.0
KPDX 071253Z VRB06KT 10SM OVC048 09/03 A3031 RMK AO2 SLP264 T00890033,KPDX,2023-02-07T12:53:00Z,45.6,-122.62,8.9,3.3,0,6,,10.0,30.31004,1026.4,,,TRUE,,,,,,,OVC,4800,,,,,,,VFR,,,,,,,,,,,,METAR,7.0
KPDX 071153Z 12007KT 10SM OVC050 09/03 A3033 RMK AO2 SLP269 70004 T00890028 10100 20089 58018,KPDX,2023-02-07T11:53:00Z,45.6,-122.62,8.9,2.8,120,7,,10.0,30.33071,1026.9,,,TRUE,,,,,,,OVC,5000,,,,,,,VFR,-1.8,10.0,8.9,,,,,,0.04,,,METAR,7.0
KPDX 071053Z 15007KT 10SM FEW039 OVC047 09/03 A3035 RMK AO2 SLP278 T00940033,KPDX,2023-02-07T10:53:00Z,45.6,-122.62,9.4,3.3,150,7,,10.0,30.351377,1027.8,,,TRUE,,,,,,,FEW,3900,OVC,4700,,,,,VFR,,,,,,,,,,,,METAR,7.0
KPDX 070953Z 16009KT 10SM OVC046 09/03 A3037 RMK AO2 SLP283 T00940033,KPDX,2023-02-07T09:53:00Z,45.6,-122.62,9.4,3.3,160,9,,10.0,30.369095,1028.3,,,TRUE,,,,,,,OVC,4600,,,,,,,VFR,,,,,,,,,,,,METAR,7.0
KPDX 070853Z 15007KT 10SM BKN050 OVC060 09/03 A3038 RMK AO2 SLP287 T00940033 58007,KPDX,2023-02-07T08:53:00Z,45.6,-122.62,9.4,3.3,150,7,,10.0,30.380905,1028.7,,,TRUE,,,,,,,BKN,5000,OVC,6000,,,,,VFR,-0.7,,,,,,,,,,,METAR,7.0
KPDX 070753Z 18008KT 10SM OVC050 09/03 A3039 RMK AO2 SLP291 T00940033 401060061,KPDX,2023-02-07T07:53:00Z,45.6,-122.62,9.4,3.3,180,8,,10.0,30.389763,1029.1,,,TRUE,,,,,,,OVC,5000,,,,,,,VFR,,,,10.6,6.1,,,,,,,METAR,7.0
KPDX 070653Z 16007KT 10SM OVC050 09/04 A3040 RMK AO2 SLP294 T00940039,KPDX,2023-02-07T06:53:00Z,45.6,-122.62,9.4,3.9,160,7,,10.0,30.398623,1029.4,,,TRUE,,,,,,,OVC,5000,,,,,,,VFR,,,,,,,,,,,,METAR,7.0
KPDX 070553Z 15006KT 10SM FEW035 OVC048 09/04 A3040 RMK AO2 SLP294 T00940039 10100 20089 56013,KPDX,2023-02-07T05:53:00Z,45.6,-122.62,9.4,3.9,150,6,,10.0,30.398623,1029.4,,,TRUE,,,,,,,FEW,3500,OVC,4800,,,,,VFR,-1.3,10.0,8.9,,,,,,,,,METAR,7.0
KPDX 070453Z 18007KT 10SM FEW031 BKN050 OVC065 09/04 A3041 RMK AO2 SLP298 T00940044,KPDX,2023-02-07T04:53:00Z,45.6,-122.62,9.4,4.4,180,7,,10.0,30.410433,1029.8,,,TRUE,,,,,,,FEW,3100,BKN,5000,OVC,6500,,,VFR,,,,,,,,,,,,METAR,7.0
KPDX 070424Z 19007KT 10SM BKN031 BKN045 OVC060 09/04 A3042 RMK AO2 T00940044,KPDX,2023-02-07T04:24:00Z,45.6,-122.62,9.4,4.4,190,7,,10.0,30.41929,,,,TRUE,,,,,,,BKN,3100,BKN,4500,OVC,6000,,,VFR,,,,,,,,,,,,SPECI,7.0
KPDX 070353Z 18006KT 10SM BKN028 BKN038 OVC055 09/05 A3043 RMK AO2 SLP303 T00940050,KPDX,2023-02-07T03:53:00Z,45.6,-122.62,9.4,5.0,180,6,,10.0,30.431103,1030.3,,,TRUE,,,,,,,BKN,2800,BKN,3800,OVC,5500,,,MVFR,,,,,,,,,,,,METAR,7.0
KPDX 070329Z 19005KT 10SM BKN028 BKN045 OVC060 09/05 A3043 RMK AO2 T00890050,KPDX,2023-02-07T03:29:00Z,45.6,-122.62,8.9,5.0,190,5,,10.0,30.431103,,,,TRUE,,,,,,,BKN,2800,BKN,4500,OVC,6000,,,MVFR,,,,,,,,,,,,SPECI,7.0
KPDX 070253Z 18009KT 10SM SCT025 BKN034 OVC045 09/05 A3044 RMK AO2 SLP307 T00890050 58009,KPDX,2023-02-07T02:53:00Z,45.6,-122.62,8.9,5.0,180,9,,10.0,30.43996,1030.7,,,TRUE,,,,,,,SCT,2500,BKN,3400,OVC,4500,,,VFR,-0.9,,,,,,,,,,,METAR,7.0
KPDX 070153Z 18007KT 10SM BKN050 OVC065 09/05 A3045 RMK AO2 SLP311 T00940050,KPDX,2023-02-07T01:53:00Z,45.6,-122.62,9.4,5.0,180,7,,10.0,30.448818,1031.1,,,TRUE,,,,,,,BKN,5000,OVC,6500,,,,,VFR,,,,,,,,,,,,METAR,7.0
KPDX 070053Z 19008KT 10SM FEW033 BKN045 OVC060 09/05 A3046 RMK AO2 SLP315 T00940050,KPDX,2023-02-07T00:53:00Z,45.6,-122.62,9.4,5.0,190,8,,10.0,30.46063,1031.5,,,TRUE,,,,,,,FEW,3300,BKN,4500,OVC,6000,,,VFR,,,,,,,,,,,,METAR,7.0
KPDX 062353Z 19010G18KT 10SM FEW025 BKN042 BKN065 OVC250 10/05 A3047 RMK AO2 SLP316 60000 T01000050 10106 20083 58007,KPDX,2023-02-06T23:53:00Z,45.6,-122.62,10.0,5.0,190,10,18,10.0,30.469488,1031.6,,,TRUE,,,,,,,FEW,2500,BKN,4200,BKN,6500,OVC,25000,VFR,-0.7,10.6,8.3,,,,,0.005,,,,METAR,7.0
KPDX 062302Z 19007KT 10SM SCT023 BKN031 OVC055 10/06 A3047 RMK AO2 T01000056,KPDX,2023-02-06T23:02:00Z,45.6,-122.62,10.0,5.6,190,7,,10.0,30.469488,,,,TRUE,,,,,,,SCT,2300,BKN,3100,OVC,5500,,,VFR,,,,,,,,,,,,SPECI,7.0
KPDX 062253Z 20008KT 10SM BKN021 BKN033 OVC047 10/06 A3048 RMK AO2 RAB03E24 SLP319 P0000 T01000056,KPDX,2023-02-06T22:53:00Z,45.6,-122.62,10.0,5.6,200,8,,10.0,30.481298,1031.9,,,TRUE,,,,,,,BKN,2100,BKN,3300,OVC,4700,,,MVFR,,,,,,0.005,,,,,,METAR,7.0
KPDX 062217Z 21009KT 10SM -RA SCT024 BKN030 OVC039 10/06 A3048 RMK AO2 RAB03 P0000 T01000056,KPDX,2023-02-06T22:17:00Z,45.6,-122.62,10.0,5.6,210,9,,10.0,30.481298,,,,TRUE,,,,,,-RA,SCT,2400,BKN,3000,OVC,3900,,,MVFR,,,,,,0.005,,,,,,SPECI,7.0
KPDX 062153Z 21011KT 10SM BKN025 OVC031 11/05 A3048 RMK AO2 SLP322 T01060050,KPDX,2023-02-06T21:53:00Z,45.6,-122.62,10.6,5.0,210,11,,10.0,30.481298,1032.2,,,TRUE,,,,,,,BKN,2500,OVC,3100,,,,,MVFR,,,,,,,,,,,,METAR,7.0
KPDX 062143Z 21010KT 9SM BKN022 BKN035 OVC047 11/06 A3048 RMK AO2 T01060056,KPDX,2023-02-06T21:43:00Z,45.6,-122.62,10.6,5.6,210,10,,9.0,30.481298,,,,TRUE,,,,,,,BKN,2200,BKN,3500,OVC,4700,,,MVFR,,,,,,,,,,,,SPECI,7.0
KPDX 062053Z 21011KT 10SM FEW026 FEW035 BKN060 11/05 A3049 RMK AO2 SLP323 60000 T01060050 58010,KPDX,2023-02-06T20:53:00Z,45.6,-122.62,10.6,5.0,210,11,,10.0,30.490158,1032.3,,,TRUE,,,,,,,FEW,2600,FEW,3500,BKN,6000,,,VFR,-1.0,,,,,,0.005,,,,,METAR,7.0
KPDX 061953Z 20009KT 10SM SCT040 BKN050 BKN070 10/05 A3051 RMK AO2 RAB02E14 SLP331 P0000 T01000050,KPDX,2023-02-06T19:53:00Z,45.6,-122.62,10.0,5.0,200,9,,10.0,30.510826,1033.1,,,TRUE,,,,,,,SCT,4000,BKN,5000,BKN,7000,,,VFR,,,,,,0.005,,,,,,METAR,7.0
KPDX 061853Z 20011KT 10SM FEW032 BKN044 BKN050 09/04 A3053 RMK AO2 RAB12E21 SLP336 P0000 T00890044,KPDX,2023-02-06T18:53:00Z,45.6,-122.62,8.9,4.4,200,11,,10.0,30.528543,1033.6,,,TRUE,,,,,,,FEW,3200,BKN,4400,BKN,5000,,,VFR,,,,,,0.005,,,,,,METAR,7.0
KPDX 061753Z 18004KT 10SM FEW017 BKN035 BKN043 08/04 A3052 RMK AO2 RAB21E38 SLP333 P0000 60004 T00780044 10078 20061 51009,KPDX,2023-02-06T17:53:00Z,45.6,-122.62,7.8,4.4,180,4,,10.0,30.519686,1033.3,,,TRUE,,,,,,,FEW,1700,BKN,3500,BKN,4300,,,VFR,0.9,7.8,6.1,,,0.005,,0.04,,,,METAR,7.0
KPDX 061653Z VRB03KT 10SM FEW017 SCT028 OVC034 07/04 A3051 RMK AO2 RAE19 SLP331 P0001 T00720039,KPDX,2023-02-06T16:53:00Z,45.6,-122.62,7.2,3.9,0,3,,10.0,30.510826,1033.1,,,TRUE,,,,,,,FEW,1700,SCT,2800,OVC,3400,,,VFR,,,,,,0.01,,,,,,METAR,7.0
KPDX 061647Z 12004KT 10SM FEW017 SCT028 OVC034 07/04 A3051 RMK AO2 RAE19 P0001,KPDX,2023-02-06T16:47:00Z,45.6,-122.62,7.0,4.0,120,4,,10.0,30.510826,,,,TRUE,,,,,,,FEW,1700,SCT,2800,OVC,3400,,,VFR,,,,,,0.01,,,,,,SPECI,7.0
KPDX 061553Z 11005KT 10SM -RA SCT017 OVC028 07/04 A3051 RMK AO2 RAB41 SLP329 P0000 T00670039,KPDX,2023-02-06T15:53:00Z,45.6,-122.62,6.7,3.9,110,5,,10.0,30.510826,1032.9,,,TRUE,,,,,,-RA,SCT,1700,OVC,2800,,,,,MVFR,,,,,,0.005,,,,,,METAR,7.0
KPDX 061544Z VRB03KT 10SM -RA SCT017 OVC028 07/03 A3051 RMK AO2 RAB41 P0000 T00670033,KPDX,2023-02-06T15:44:00Z,45.6,-122.62,6.7,3.3,0,3,,10.0,30.510826,,,,TRUE,,,,,,-RA,SCT,1700,OVC,2800,,,,,MVFR,,,,,,0.005,,,,,,SPECI,7.0
KPDX 061453Z 16005KT 10SM OVC034 07/03 A3049 RMK AO2 RAE18B41E51 SLP324 P0000 60003 T00670033 51012,KPDX,2023-02-06T14:53:00Z,45.6,-122.62,6.7,3.3,160,5,,10.0,30.490158,1032.4,,,TRUE,,,,,,,OVC,3400,,,,,,,VFR,1.2,,,,,0.005,0.03,,,,,METAR,7.0
KPDX 061353Z 13004KT 10SM -RA OVC032 06/03 A3048 RMK AO2 RAB05 SLP322 P0002 T00610033,KPDX,2023-02-06T13:53:00Z,45.6,-122.62,6.1,3.3,130,4,,10.0,30.481298,1032.2,,,TRUE,,,,,,-RA,OVC,3200,,,,,,,VFR,,,,,,0.02,,,,,,METAR,7.0
KPDX 061253Z 16005KT 10SM OVC036 07/03 A3047 RMK AO2 RAB01E51 SLP317 P0001 T00670028,KPDX,2023-02-06T12:53:00Z,45.6,-122.62,6.7,2.8,160,5,,10.0,30.469488,1031.7,,,TRUE,,,,,,,OVC,3600,,,,,,,VFR,,,,,,0.01,,,,,,METAR,7.0
KPDX 061153Z VRB03KT 10SM OVC055 07/03 A3046 RMK AO2 SLP312 60000 70015 T00670028 10078 20061 51015,KPDX,2023-02-06T11:53:00Z,45.6,-122.62,6.7,2.8,0,3,,10.0,30.46063,1031.2,,,TRUE,,,,,,,OVC,5500,,,,,,,VFR,1.5,7.8,6.1,,,,,0.005,0.15,,,METAR,7.0
KPDX 061053Z 00000KT 10SM OVC085 07/03 A3045 RMK AO2 SLP312 T00670028,KPDX,2023-02-06T10:53:00Z,45.6,-122.62,6.7,2.8,0,0,,10.0,30.448818,1031.2,,,TRUE,,,,,,,OVC,8500,,,,,,,VFR,,,,,,,,,,,,METAR,7.0
KPDX 060953Z 22004KT 10SM BKN050 BKN085 06/03 A3044 RMK AO2 SLP307 T00610028,KPDX,2023-02-06T09:53:00Z,45.6,-122.62,6.1,2.8,220,4,,10.0,30.43996,1030.7,,,TRUE,,,,,,,BKN,5000,BKN,8500,,,,,VFR,,,,,,,,,,,,METAR,7.0
KPDX 060853Z 00000KT 10SM SCT042 BKN050 BKN110 07/03 A3041 RMK AO2 SLP297 60000 T00670028 51027,KPDX,2023-02-06T08:53:00Z,45.6,-122.62,6.7,2.8,0,0,,10.0,30.410433,1029.7,,,TRUE,,,,,,,SCT,4200,BKN,5000,BKN,11000,,,VFR,2.7,,,,,,0.005,,,,,METAR,7.0
KPDX 060753Z 00000KT 10SM BKN050 07/03 A3040 RMK AO2 SLP293 T00720033 401060061,KPDX,2023-02-06T07:53:00Z,45.6,-122.62,7.2,3.3,0,0,,10.0,30.398623,1029.3,,,TRUE,,,,,,,BKN,5000,,,,,,,VFR,,,,10.6,6.1,,,,,,,METAR,7.0
KPDX 060653Z 00000KT 10SM BKN045 BKN060 07/03 A3037 RMK AO2 RAB06E16 SLP284 P0000 T00720028,KPDX,2023-02-06T06:53:00Z,45.6,-122.62,7.2,2.8,0,0,,10.0,30.369095,1028.4,,,TRUE,,,,,,,BKN,4500,BKN,6000,,,,,VFR,,,,,,0.005,,,,,,METAR,7.0
KPDX 060553Z 25007KT 10SM BKN045 BKN060 08/03 A3033 RMK AO2 SLP271 60000 T00780028 10106 20072 51044,KPDX,2023-02-06T05:53:00Z,45.6,-122.62,7.8,2.8,250,7,,10.0,30.33071,1027.1,,,TRUE,,,,,,,BKN,4500,BKN,6000,,,,,VFR,4.4,10.6,7.2,,,,,0.005,,,,METAR,7.0
KPDX 060453Z 27009KT 10SM BKN055 08/03 A3030 RMK AO2 SLP259 T00780033,KPDX,2023-02-06T04:53:00Z,45.6,-122.62,7.8,3.3,270,9,,10.0,30.301182,1025.9,,,TRUE,,,,,,,BKN,5500,,,,,,,VFR,,,,,,,,,,,,METAR,7.0
KPDX 060353Z 28009KT 10SM SCT028 BKN045 OVC065 09/04 A3025 RMK AO2 SLP242 T00890044,KPDX,2023-02-06T03:53:00Z,45.6,-122.62,8.9,4.4,280,9,,10.0,30.250984,1024.2,,,TRUE,,,,,,,SCT,2800,BKN,4500,OVC,6500,,,VFR,,,,,,,,,,,,METAR,7.0
KPDX 060329Z 28007KT 10SM SCT027 SCT036 OVC060 09/04 A3023 RMK AO2 T00890044,KPDX,2023-02-06T03:29:00Z,45.6,-122.62,8.9,4.4,280,7,,10.0,30.230314,,,,TRUE,,,,,,,SCT,2700,SCT,3600,OVC,6000,,,VFR,,,,,,,,,,,,METAR,7.0
KPDX 060307Z 27008KT 10SM BKN026 BKN036 OVC065 09/05 A3022 RMK AO2 T00890050,KPDX,2023-02-06T03:07:00Z,45.6,-122.62,8.9,5.0,270,8,,10.0,30.221457,,,,TRUE,,,,,,,BKN,2600,BKN,3600,OVC,6500,,,MVFR,,,,,,,,,,,,METAR,7.0
KPDX 060253Z 27007KT 10SM BKN030 BKN049 OVC060 09/05 A3020 RMK AO2 SLP226 60000 T00890050 53054,KPDX,2023-02-06T02:53:00Z,45.6,-122.62,8.9,5.0,270,7,,10.0,30.200787,1022.6,,,TRUE,,,,,,,BKN,3000,BKN,4900,OVC,6000,,,MVFR,5.4,,,,,,0.005,,,,,METAR,7.0
KPDX 060153Z 29009KT 10SM SCT025 BKN032 BKN065 09/05 A3015 RMK AO2 SLP207 T00940050,KPDX,2023-02-06T01:53:00Z,45.6,-122.62,9.4,5.0,290,9,,10.0,30.15059,1020.7,,,TRUE,,,,,,,SCT,2500,BKN,3200,BKN,6500,,,VFR,,,,,,,,,,,,METAR,7.0
KPDX 060119Z 28013KT 10SM SCT025 BKN030 BKN042 11/06 A3012 RMK AO2 T01060056,KPDX,2023-02-06T01:19:00Z,45.6,-122.62,10.6,5.6,280,13,,10.0,30.121063,,,,TRUE,,,,,,,SCT,2500,BKN,3000,BKN,4200,,,MVFR,,,,,,,,,,,,SPECI,7.0
KPDX 060053Z 29008KT 10SM BKN024 BKN033 10/06 A3010 RMK AO2 RAE10 SLP191 P0000 T01000061,KPDX,2023-02-06T00:53:00Z,45.6,-122.62,10.0,6.1,290,8,,10.0,30.100393,1019.1,,,TRUE,,,,,,,BKN,2400,BKN,3300,,,,,MVFR,,,,,,0.005,,,,,,METAR,7.0
KPDX 052353Z 25011KT 10SM -RA FEW022 BKN026 OVC036 11/07 A3004 RMK AO2 SLP172 P0002 60003 T01060067 10106 20094 53040,KPDX,2023-02-05T23:53:00Z,45.6,-122.62,10.6,6.7,250,11,,10.0,30.041338,1017.2,,,TRUE,,,,,,-RA,FEW,2200,BKN,2600,OVC,3600,,,MVFR,4.0,10.6,9.4,,,0.02,,0.03,,,,METAR,7.0
KPDX 052253Z 23013G23KT 10SM -RA BKN025 OVC038 10/07 A2998 RMK AO2 RAB2157 SLP150 P0001 T01000067,KPDX,2023-02-05T22:53:00Z,45.6,-122.62,10.0,6.7,230,13,23,10.0,29.97933,1015.0,,,TRUE,,,,,,-RA,BKN,2500,OVC,3800,,,,,MVFR,,,,,,0.01,,,,,,METAR,7.0
KPDX 052243Z 20017G24KT 10SM -RA BKN025 OVC038 10/07 A2997 RMK AO2 RAB2157 P0000 T01000067,KPDX,2023-02-05T22:43:00Z,45.6,-122.62,10.0,6.7,200,17,24,10.0,29.970472,,,,TRUE,,,,,,-RA,BKN,2500,OVC,3800,,,,,MVFR,,,,,,0.005,,,,,,SPECI,7.0
KPDX 052153Z 21017KT 10SM FEW024 BKN050 OVC065 10/06 A2994 RMK AO2 PK WND 21027/2055 RAB10E51 SLP138 P0000 T01000061,KPDX,2023-02-05T21:53:00Z,45.6,-122.62,10.0,6.1,210,17,,10.0,29.940945,1013.8,,,TRUE,,,,,,,FEW,2400,BKN,5000,OVC,6500,,,VFR,,,,,,0.005,,,,,,METAR,7.0
KPDX 052127Z 20017G23KT 10SM -RA FEW036 BKN060 OVC075 11/06 A2993 RMK AO2 PK WND 21027/2055 RAB10 P0000 T01060061,KPDX,2023-02-05T21:27:00Z,45.6,-122.62,10.6,6.1,200,17,23,10.0,29.929134,,,,TRUE,,,,,,-RA,FEW,3600,BKN,6000,OVC,7500,,,VFR,,,,,,0.005,,,,,,SPECI,7.0
KPDX 052053Z 20016G26KT 10SM BKN029 OVC049 11/06 A2992 RMK AO2 PK WND 20026/2045 SLP132 T01060061 51012,KPDX,2023-02-05T20:53:00Z,45.6,-122.62,10.6,6.1,200,16,26,10.0,29.920275,1013.2,,,TRUE,,,,,,,BKN,2900,OVC,4900,,,,,MVFR,1.2,,,,,,,,,,,METAR,7.0
KPDX 051953Z 19012G19KT 10SM BKN028 BKN033 OVC043 11/06 A2992 RMK AO2 SLP130 T01060056,KPDX,2023-02-05T19:53:00Z,45.6,-122.62,10.6,5.6,190,12,19,10.0,29.920275,1013.0,,,TRUE,,,,,,,BKN,2800,BKN,3300,OVC,4300,,,MVFR,,,,,,,,,,,,METAR,7.0
KPDX 051934Z 18015G21KT 10SM SCT027 BKN033 OVC095 11/06 A2992 RMK AO2 T01060056,KPDX,2023-02-05T19:34:00Z,45.6,-122.62,10.6,5.6,180,15,21,10.0,29.920275,,,,TRUE,,,,,,,SCT,2700,BKN,3300,OVC,9500,,,VFR,,,,,,,,,,,,SPECI,7.0
KPDX 051901Z 18014G20KT 10SM SCT021 BKN027 BKN110 10/06 A2992 RMK AO2 T01000061,KPDX,2023-02-05T19:01:00Z,45.6,-122.62,10.0,6.1,180,14,20,10.0,29.920275,,,,TRUE,,,,,,,SCT,2100,BKN,2700,BKN,11000,,,MVFR,,,,,,,,,,,,SPECI,7.0
KPDX 051853Z 19012G18KT 10SM FEW017 SCT023 BKN110 10/06 A2992 RMK AO2 SLP131 T01000061,KPDX,2023-02-05T18:53:00Z,45.6,-122.62,10.0,6.1,190,12,18,10.0,29.920275,1013.1,,,TRUE,,,,,,,FEW,1700,SCT,2300,BKN,11000,,,VFR,,,,,,,,,,,,METAR,7.0
KPDX 051753Z 19011G19KT 10SM FEW010 SCT016 BKN110 09/07 A2989 RMK AO2 SLP121 60012 T00940067 10094 20067 51045,KPDX,2023-02-05T17:53:00Z,45.6,-122.62,9.4,6.7,190,11,19,10.0,29.890747,1012.1,,,TRUE,,,,,,,FEW,1000,SCT,1600,BKN,11000,,,VFR,4.5,9.4,6.7,,,,,0.12,,,,METAR,7.0
KPDX 051653Z 20013G21KT 10SM SCT035CB SCT049 OVC110 08/06 A2985 RMK AO2 RAE30 SLP108 CBMAM OHD MOV E P0000 T00830056,KPDX,2023-02-05T16:53:00Z,45.6,-122.62,8.3,5.6,200,13,21,10.0,29.84941,1010.8,,,TRUE,,,,,,,SCT,3500,SCT,4900,OVC,11000,,,VFR,,,,,,0.005,,,,,,METAR,7.0
KPDX 051553Z 20008KT 10SM -RA SCT021 OVC042 08/06 A2981 RMK AO2 SLP095 P0002 T00830061,KPDX,2023-02-05T15:53:00Z,45.6,-122.62,8.3,6.1,200,8,,10.0,29.811024,1009.5,,,TRUE,,,,,,-RA,SCT,2100,OVC,4200,,,,,VFR,,,,,,0.02,,,,,,METAR,7.0
KPDX 051542Z 21008KT 10SM -RA FEW012 SCT018 OVC040 08/06 A2980 RMK AO2 P0001 T00830061,KPDX,2023-02-05T15:42:00Z,45.6,-122.62,8.3,6.1,210,8,,10.0,29.799213,,,,TRUE,,,,,,-RA,FEW,1200,SCT,1800,OVC,4000,,,VFR,,,,,,0.01,,,,,,METAR,7.0
KPDX 051502Z 21010KT 10SM -RA SCT010 BKN015 OVC035 08/06 A2976 RMK AO2 P0000 T00780061,KPDX,2023-02-05T15:02:00Z,45.6,-122.62,7.8,6.1,210,10,,10.0,29.760826,,,,TRUE,,,,,,-RA,SCT,1000,BKN,1500,OVC,3500,,,MVFR,,,,,,0.005,,,,,,SPECI,7.0
KPDX 051453Z 20007KT 10SM -RA BKN013 OVC021 08/06 A2976 RMK AO2 SLP075 P0001 60010 T00780061 53041,KPDX,2023-02-05T14:53:00Z,45.6,-122.62,7.8,6.1,200,7,,10.0,29.760826,1007.5,,,TRUE,,,,,,-RA,BKN,1300,OVC,2100,,,,,MVFR,4.1,,,,,0.01,0.1,,,,,METAR,7.0
KPDX 051426Z 19004KT 10SM -RA FEW017 BKN021 OVC043 08/06 A2973 RMK AO2 P0000 T00780061,KPDX,2023-02-05T14:26:00Z,45.6,-122.62,7.8,6.1,190,4,,10.0,29.731298,,,,TRUE,,,,,,-RA,FEW,1700,BKN,2100,OVC,4300,,,MVFR,,,,,,0.005,,,,,,SPECI,7.0
KPDX 051353Z 19006KT 10SM -RA FEW011 SCT017 OVC045 08/06 A2970 RMK AO2 SLP057 P0003 T00780056,KPDX,2023-02-05T13:53:00Z,45.6,-122.62,7.8,5.6,190,6,,10.0,29.698818,1005.7,,,TRUE,,,,,,-RA,FEW,1100,SCT,1700,OVC,4500,,,VFR,,,,,,0.03,,,,,,METAR,7.0
KPDX 051344Z 17006KT 10SM -RA FEW011 SCT017 OVC045 08/06 A2969 RMK AO2 P0003 T00830056,KPDX,2023-02-05T13:44:00Z,45.6,-122.62,8.3,5.6,170,6,,10.0,29.68996,,,,TRUE,,,,,,-RA,FEW,1100,SCT,1700,OVC,4500,,,VFR,,,,,,0.03,,,,,,SPECI,7.0
KPDX 051253Z 10006KT 10SM -RA BKN019 BKN025 OVC032 07/05 A2967 RMK AO2 SLP045 P0006 T00720050,KPDX,2023-02-05T12:53:00Z,45.6,-122.62,7.2,5.0,100,6,,10.0,29.66929,1004.5,,,TRUE,,,,,,-RA,BKN,1900,BKN,2500,OVC,3200,,,MVFR,,,,,,0.06,,,,,,METAR,7.0
KPDX 051245Z 11007KT 9SM -RA BKN025 BKN032 OVC045 08/05 A2966 RMK AO2 P0005 T00780050,KPDX,2023-02-05T12:45:00Z,45.6,-122.62,7.8,5.0,110,7,,9.0,29.660433,,,,TRUE,,,,,,-RA,BKN,2500,BKN,3200,OVC,4500,,,MVFR,,,,,,0.05,,,,,,METAR,7.0
KPDX 051153Z 27004KT 10SM -RA SCT050 OVC060 07/05 A2963 RMK AO2 RAB10 SLP034 P0001 60003 70007 T00670050 10083 20061 53003,KPDX,2023-02-05T11:53:00Z,45.6,-122.62,6.7,5.0,270,4,,10.0,29.630905,1003.4,,,TRUE,,,,,,-RA,SCT,5000,OVC,6000,,,,,VFR,0.3,8.3,6.1,,,0.01,,0.03,0.07,,,METAR,7.0
KPDX 051053Z 31004KT 10SM BKN060 OVC070 07/04 A2962 RMK AO2 RAE10 SLP030 P0001 T00720044,KPDX,2023-02-05T10:53:00Z,45.6,-122.62,7.2,4.4,310,4,,10.0,29.619095,1003.0,,,TRUE,,,,,,,BKN,6000,OVC,7000,,,,,VFR,,,,,,0.01,,,,,,METAR,7.0
KPDX 050953Z 12007KT 10SM -RA OVC060 08/05 A2962 RMK AO2 SLP029 P0001 T00830050,KPDX,2023-02-05T09:53:00Z,45.6,-122.62,8.3,5.0,120,7,,10.0,29.619095,1002.9,,,TRUE,,,,,,-RA,OVC,6000,,,,,,,VFR,,,,,,0.01,,,,,,METAR,7.0
KPDX 050853Z 10005KT 10SM -RA OVC055 08/04 A2963 RMK AO2 RAB30 SLP031 P0000 60000 T00830044 56025,KPDX,2023-02-05T08:53:00Z,45.6,-122.62,8.3,4.4,100,5,,10.0,29.630905,1003.1,,,TRUE,,,,,,-RA,OVC,5500,,,,,,,VFR,-2.5,,,,,0.005,0.005,,,,,METAR,7.0
KPDX 050753Z 29004KT 10SM OVC100 07/05 A2964 RMK AO2 SLP037 T00670050 401000056,KPDX,2023-02-05T07:53:00Z,45.6,-122.62,6.7,5.0,290,4,,10.0,29.639763,1003.7,,,TRUE,,,,,,,OVC,10000,,,,,,,VFR,,,,10.0,5.6,,,,,,,METAR,7.0
KPDX 050653Z 29003KT 8SM BKN100 BKN110 BKN150 06/05 A2967 RMK AO2 SLP046 T00610050,KPDX,2023-02-05T06:53:00Z,45.6,-122.62,6.1,5.0,290,3,,8.0,29.66929,1004.6,,,TRUE,,,,,,,BKN,10000,BKN,11000,BKN,15000,,,VFR,,,,,,,,,,,,METAR,7.0
KPDX 050553Z 29004KT 10SM SCT100 BKN150 BKN210 07/06 A2970 RMK AO2 SLP056 60002 T00720056 10094 20061 56046,KPDX,2023-02-05T05:53:00Z,45.6,-122.62,7.2,5.6,290,4,,10.0,29.698818,1005.6,,,TRUE,,,,,,,SCT,10000,BKN,15000,BKN,21000,,,VFR,-4.6,9.4,6.1,,,,,0.02,,,,METAR,7.0
KPDX 050453Z 00000KT 10SM BKN150 BKN200 07/04 A2973 RMK AO2 SLP066 T00670039,KPDX,2023-02-05T04:53:00Z,45.6,-122.62,6.7,3.9,0,0,,10.0,29.731298,1006.6,,,TRUE,,,,,,,BKN,15000,BKN,20000,,,,,VFR,,,,,,,,,,,,METAR,7.0
KPDX 050353Z 08003KT 10SM FEW110 OVC130 08/04 A2978 RMK AO2 RAE07 SLP083 P0000 T00830044,KPDX,2023-02-05T03:53:00Z,45.6,-122.62,8.3,4.4,80,3,,10.0,29.778543,1008.3,,,TRUE,,,,,,,FEW,11000,OVC,13000,,,,,VFR,,,,,,0.005,,,,,,METAR,7.0
KPDX 050253Z 07010KT 10SM -RA BKN045 OVC060 08/05 A2984 RMK AO2 PRESFR SLP103 P0002 60002 T00830050 58012,KPDX,2023-02-05T02:53:00Z,45.6,-122.62,8.3,5.0,70,10,,10.0,29.840551,1010.3,,,TRUE,,,,,,-RA,BKN,4500,OVC,6000,,,,,VFR,-1.2,,,,,0.02,0.02,,,,,METAR,7.0
KPDX 050153Z 00000KT 10SM -RA BKN055 OVC075 08/06 A2988 RMK AO2 RAB23 SLP117 P0000 T00830061,KPDX,2023-02-05T01:53:00Z,45.6,-122.62,8.3,6.1,0,0,,10.0,29.878937,1011.7,,,TRUE,,,,,,-RA,BKN,5500,OVC,7500,,,,,VFR,,,,,,0.005,,,,,,SPECI,7.0
KPDX 050053Z 20005KT 10SM FEW020 BKN085 OVC110 08/06 A2986 RMK AO2 SLP111 T00830061,KPDX,2023-02-05T00:53:00Z,45.6,-122.62,8.3,6.1,200,5,,10.0,29.861221,1011.1,,,TRUE,,,,,,,FEW,2000,BKN,8500,OVC,11000,,,VFR,,,,,,,,,,,,METAR,7.0
KPDX 042353Z 31006KT 10SM FEW020 BKN085 OVC120 09/06 A2987 RMK AO2 SLP114 60001 T00890056 10100 20067 56021,KPDX,2023-02-04T23:53:00Z,45.6,-122.62,8.9,5.6,310,6,,10.0,29.870079,1011.4,,,TRUE,,,,,,,FEW,2000,BKN,8500,OVC,12000,,,VFR,-2.1,10.0,6.7,,,,,0.01,,,,METAR,7.0
KPDX 042253Z 33005KT 10SM FEW020 BKN075 BKN095 OVC130 09/06 A2988 RMK AO2 SLP119 T00890061,KPDX,2023-02-04T22:53:00Z,45.6,-122.62,8.9,6.1,330,5,,10.0,29.878937,1011.9,,,TRUE,,,,,,,FEW,2000,BKN,7500,BKN,9500,OVC,13000,VFR,,,,,,,,,,,,METAR,7.0
KPDX 042153Z 34003KT 10SM FEW020 BKN100 BKN130 OVC250 09/06 A2991 RMK AO2 SLP128 T00890056,KPDX,2023-02-04T21:53:00Z,45.6,-122.62,8.9,5.6,340,3,,10.0,29.911417,1012.8,,,TRUE,,,,,,,FEW,2000,BKN,10000,BKN,13000,OVC,25000,VFR,,,,,,,,,,,,SPECI,7.0
KPDX 042053Z 16004KT 10SM BKN100 OVC250 09/06 A2993 RMK AO2 SLP135 60001 T00940056 58039,KPDX,2023-02-04T20:53:00Z,45.6,-122.62,9.4,5.6,160,4,,10.0,29.929134,1013.5,,,TRUE,,,,,,,BKN,10000,OVC,25000,,,,,VFR,-3.9,,,,,,0.01,,,,,METAR,7.0
KPDX 041953Z 11010KT 10SM SCT070 SCT080 BKN110 07/05 A3000 RMK AO2 RAE45 SLP158 P0000 T00720050,KPDX,2023-02-04T19:53:00Z,45.6,-122.62,7.2,5.0,110,10,,10.0,30.0,1015.8,,,TRUE,,,,,,,SCT,7000,SCT,8000,BKN,11000,,,VFR,,,,,,0.005,,,,,,METAR,7.0
KPDX 041853Z 11010KT 10SM -RA OVC050 08/05 A3005 RMK AO2 RAB15 SLP173 P0001 T00780050,KPDX,2023-02-04T18:53:00Z,45.6,-122.62,7.8,5.0,110,10,,10.0,30.050198,1017.3,,,TRUE,,,,,,-RA,OVC,5000,,,,,,,VFR,,,,,,0.01,,,,,,METAR,7.0
KPDX 041753Z 08013KT 10SM FEW010 SCT060 OVC080 07/04 A3005 RMK AO2 RAE45 SLP174 P0001 60001 T00670044 10072 20056 58002,KPDX,2023-02-04T17:53:00Z,45.6,-122.62,6.7,4.4,80,13,,10.0,30.050198,1017.4,,,TRUE,,,,,,,FEW,1000,SCT,6000,OVC,8000,,,VFR,-0.2,7.2,5.6,,,0.01,,0.01,,,,METAR,7.0
KPDX 041653Z 12008KT 10SM -RA OVC055 07/04 A3006 RMK AO2 RAB22 SLP177 P0000 T00670044,KPDX,2023-02-04T16:53:00Z,45.6,-122.62,6.7,4.4,120,8,,10.0,30.059055,1017.7,,,TRUE,,,,,,-RA,OVC,5500,,,,,,,VFR,,,,,,0.005,,,,,,METAR,7.0
KPDX 041553Z 12007KT 10SM OVC080 06/04 A3005 RMK AO2 SLP174 T00610039,KPDX,2023-02-04T15:53:00Z,45.6,-122.62,6.1,3.9,120,7,,10.0,30.050198,1017.4,,,TRUE,,,,,,,OVC,8000,,,,,,,VFR,,,,,,,,,,,,METAR,7.0
KPDX 041453Z 11009KT 10SM BKN070 OVC095 06/04 A3005 RMK AO2 SLP176 T00610039 58013,KPDX,2023-02-04T14:53:00Z,45.6,-122.62,6.1,3.9,110,9,,10.0,30.050198,1017.6,,,TRUE,,,,,,,BKN,7000,OVC,9500,,,,,VFR,-1.3,,,,,,,,,,,METAR,7.0
KPDX 041353Z 12011KT 10SM BKN055 BKN070 OVC090 06/04 A3007 RMK AO2 SLP181 T00610039,KPDX,2023-02-04T13:53:00Z,45.6,-122.62,6.1,3.9,120,11,,10.0,30.070866,1018.1,,,TRUE,,,,,,,BKN,5500,BKN,7000,OVC,9000,,,VFR,,,,,,,,,,,,METAR,7.0
KPDX 041253Z 12009KT 10SM BKN055 BKN070 OVC090 06/04 A3008 RMK AO2 SLP184 T00610039,KPDX,2023-02-04T12:53:00Z,45.6,-122.62,6.1,3.9,120,9,,10.0,30.079725,1018.4,,,TRUE,,,,,,,BKN,5500,BKN,7000,OVC,9000,,,VFR,,,,,,,,,,,,METAR,7.0
KPDX 041153Z 11007KT 6SM BR BKN048 OVC065 06/04 A3009 RMK AO2 RAB17E46 SLP189 P0000 60001 70012 T00610044 10106 20056 58005,KPDX,2023-02-04T11:53:00Z,45.6,-122.62,6.1,4.4,110,7,,6.0,30.088583,1018.9,,,TRUE,,,,,,BR,BKN,4800,OVC,6500,,,,,VFR,-0.5,10.6,5.6,,,0.005,,0.01,0.12,,,METAR,7.0
KPDX 041053Z 12009KT 8SM OVC047 07/04 A3010 RMK AO2 RAE12 SLP191 P0000 T00670044,KPDX,2023-02-04T10:53:00Z,45.6,-122.62,6.7,4.4,120,9,,8.0,30.100393,1019.1,,,TRUE,,,,,,,OVC,4700,,,,,,,VFR,,,,,,0.005,,,,,,METAR,7.0
KPDX 040953Z 14007KT 8SM -RA BKN039 OVC049 08/06 A3011 RMK AO2 SLP194 P0001 T00780061,KPDX,2023-02-04T09:53:00Z,45.6,-122.62,7.8,6.1,140,7,,8.0,30.109253,1019.4,,,TRUE,,,,,,-RA,BKN,3900,OVC,4900,,,,,VFR,,,,,,0.01,,,,,,METAR,7.0
KPDX 040853Z 13006KT 10SM -RA BKN060 OVC085 09/07 A3010 RMK AO2 SLP194 P0000 60000 T00890067 58000,KPDX,2023-02-04T08:53:00Z,45.6,-122.62,8.9,6.7,130,6,,10.0,30.100393,1019.4,,,TRUE,,,,,,-RA,BKN,6000,OVC,8500,,,,,VFR,0.0,,,,,0.005,0.005,,,,,METAR,7.0
KPDX 040753Z 12005KT 10SM -RA BKN045 OVC090 09/07 A3011 RMK AO2 RAB43 SLP195 P0000 T00890067 401220022,KPDX,2023-02-04T07:53:00Z,45.6,-122.62,8.9,6.7,120,5,,10.0,30.109253,1019.5,,,TRUE,,,,,,-RA,BKN,4500,OVC,9000,,,,,VFR,,,,12.2,2.2,0.005,,,,,,METAR,7.0
KPDX 040653Z 15005KT 10SM FEW020 SCT050 OVC060 10/07 A3011 RMK AO2 RAB26E52 SLP195 P0000 T01000067,KPDX,2023-02-04T06:53:00Z,45.6,-122.62,10.0,6.7,150,5,,10.0,30.109253,1019.5,,,TRUE,,,,,,,FEW,2000,SCT,5000,OVC,6000,,,VFR,,,,,,0.005,,,,,,METAR,7.0
KPDX 040553Z 17006KT 10SM SCT041 SCT065 OVC100 11/06 A3011 RMK AO2 SLP194 60001 T01060061 10111 20100 51008,KPDX,2023-02-04T05:53:00Z,45.6,-122.62,10.6,6.1,170,6,,10.0,30.109253,1019.4,,,TRUE,,,,,,,SCT,4100,SCT,6500,OVC,10000,,,VFR,0.8,11.1,10.0,,,,,0.01,,,,METAR,7.0
KPDX 040453Z 17003KT 10SM SCT040 SCT065 OVC110 11/06 A3010 RMK AO2 RAE13 SLP192 P0001 T01060061,KPDX,2023-02-04T04:53:00Z,45.6,-122.62,10.6,6.1,170,3,,10.0,30.100393,1019.2,,,TRUE,,,,,,,SCT,4000,SCT,6500,OVC,11000,,,VFR,,,,,,0.01,,,,,,METAR,7.0
KPDX 040353Z 20009KT 10SM -RA BKN040 BKN065 OVC080 11/06 A3010 RMK AO2 RAB42 SLP191 P0000 T01060061,KPDX,2023-02-04T03:53:00Z,45.6,-122.62,10.6,6.1,200,9,,10.0,30.100393,1019.1,,,TRUE,,,,,,-RA,BKN,4000,BKN,6500,OVC,8000,,,VFR,,,,,,0.005,,,,,,METAR,7.0
KPDX 040253Z 19008KT 10SM BKN070 BKN110 OVC160 11/06 A3008 RMK AO2 SLP186 60000 T01060056 53008,KPDX,2023-02-04T02:53:00Z,45.6,-122.62,10.6,5.6,190,8,,10.0,30.079725,1018.6,,,TRUE,,,,,,,BKN,7000,BKN,11000,OVC,16000,,,VFR,0.8,,,,,,0.005,,,,,METAR,7.0
KPDX 040153Z 18007KT 10SM SCT055 BKN120 BKN160 11/06 A3007 RMK AO2 SLP182 T01060056,KPDX,2023-02-04T01:53:00Z,45.6,-122.62,10.6,5.6,180,7,,10.0,30.070866,1018.2,,,TRUE,,,,,,,SCT,5500,BKN,12000,BKN,16000,,,VFR,,,,,,,,,,,,METAR,7.0
KPDX 040053Z 17007KT 10SM FEW025 FEW060 BKN110 BKN160 11/06 A3007 RMK AO2 RAE19 SLP181 P0000 T01060061,KPDX,2023-02-04T00:53:00Z,45.6,-122.62,10.6,6.1,170,7,,10.0,30.070866,1018.1,,,TRUE,,,,,,,FEW,2500,FEW,6000,BKN,11000,BKN,16000,VFR,,,,,,0.005,,,,,,METAR,7.0
KPDX 032353Z 22010KT 10SM -RA SCT038 BKN044 OVC060 11/06 A3006 RMK AO2 RAB2256E18B30 SLP178 P0001 60009 T01110061 10122 20056 53019,KPDX,2023-02-03T23:53:00Z,45.6,-122.62,11.1,6.1,220,10,,10.0,30.059055,1017.8,,,TRUE,,,,,,-RA,SCT,3800,BKN,4400,OVC,6000,,,VFR,1.9,12.2,5.6,,,0.01,,0.09,,,,METAR,7.0
KPDX 032325Z 20010G19KT 10SM SCT029 BKN055 BKN120 11/06 A3004 RMK AO2 RAB2256E18 P0001 T01110061,KPDX,2023-02-03T23:25:00Z,45.6,-122.62,11.1,6.1,200,10,19,10.0,30.041338,,,,TRUE,,,,,,,SCT,2900,BKN,5500,BKN,12000,,,VFR,,,,,,0.01,,,,,,SPECI,7.0
KPDX 032307Z 19015G22KT 8SM -RA BKN029 BKN035 BKN060 12/07 A3003 RMK AO2 RAB2256 P0000 T01170067,KPDX,2023-02-03T23:07:00Z,45.6,-122.62,11.7,6.7,190,15,22,8.0,30.029528,,,,TRUE,,,,,,-RA,BKN,2900,BKN,3500,BKN,6000,,,MVFR,,,,,,0.005,,,,,,SPECI,7.0
KPDX 032253Z 20016G25KT 10SM SCT025 BKN031 BKN055 12/06 A3003 RMK AO2 RAB37E53 SLP167 P0000 T01170061,KPDX,2023-02-03T22:53:00Z,45.6,-122.62,11.7,6.1,200,16,25,10.0,30.029528,1016.7,,,TRUE,,,,,,,SCT,2500,BKN,3100,BKN,5500,,,VFR,,,,,,0.005,,,,,,METAR,7.0
KPDX 032153Z 12014KT 10SM FEW025 SCT110 SCT140 09/04 A2999 RMK AO2 SLP154 T00890044,KPDX,2023-02-03T21:53:00Z,45.6,-122.62,8.9,4.4,120,14,,10.0,29.991142,1015.4,,,TRUE,,,,,,,FEW,2500,SCT,11000,SCT,14000,,,VFR,,,,,,,,,,,,METAR,7.0
KPDX 032053Z 12015KT 10SM FEW028 BKN041 OVC065 06/02 A3000 RMK AO2 RAB1958E32 SLP159 P0003 60008 T00610022 51014,KPDX,2023-02-03T20:53:00Z,45.6,-122.62,6.1,2.2,120,15,,10.0,30.0,1015.9,,,TRUE,,,,,,,FEW,2800,BKN,4100,OVC,6500,,,VFR,1.4,,,,,0.03,0.08,,,,,METAR,7.0
KPDX 031953Z 12012KT 10SM OVC035 06/01 A3000 RMK AO2 RAE49 SLP159 P0002 T00560006,KPDX,2023-02-03T19:53:00Z,45.6,-122.62,5.6,0.6,120,12,,10.0,30.0,1015.9,,,TRUE,,,,,,,OVC,3500,,,,,,,VFR,,,,,,0.02,,,,,,SPECI,7.0
KPDX 031853Z 10013KT 10SM -RA BKN045 OVC055 07/02 A2998 RMK AO2 SLP153 P0003 T00670022,KPDX,2023-02-03T18:53:00Z,45.6,-122.62,6.7,2.2,100,13,,10.0,29.97933,1015.3,,,TRUE,,,,,,-RA,BKN,4500,OVC,5500,,,,,VFR,,,,,,0.03,,,,,,METAR,7.0
KPDX 031753Z 12011KT 10SM -RA BKN047 OVC055 07/M01 A2996 RMK AO2 RAB24 SLP145 P0001 60001 T00671011 10067 20039 53021,KPDX,2023-02-03T17:53:00Z,45.6,-122.62,6.7,-1.1,120,11,,10.0,29.958662,1014.5,,,TRUE,,,,,,-RA,BKN,4700,OVC,5500,,,,,VFR,2.1,6.7,3.9,,,0.01,,0.01,,,,METAR,7.0
KPDX 031653Z 13010KT 10SM SCT080 BKN095 OVC120 06/M02 A2993 RMK AO2 SLP135 T00611022,KPDX,2023-02-03T16:53:00Z,45.6,-122.62,6.1,-2.2,130,10,,10.0,29.929134,1013.5,,,TRUE,,,,,,,SCT,8000,BKN,9500,OVC,12000,,,VFR,,,,,,,,,,,,METAR,7.0
KPDX 031553Z VRB03KT 10SM OVC100 06/M02 A2992 RMK AO2 SLP129 T00561017,KPDX,2023-02-03T15:53:00Z,45.6,-122.62,5.6,-1.7,0,3,,10.0,29.920275,1012.9,,,TRUE,,,,,,,OVC,10000,,,,,,,VFR,,,,,,,,,,,,METAR,7.0
KPDX 031453Z 14007KT 10SM OVC110 05/M02 A2990 RMK AO2 SLP125 T00501017 53003,KPDX,2023-02-03T14:53:00Z,45.6,-122.62,5.0,-1.7,140,7,,10.0,29.899607,1012.5,,,TRUE,,,,,,,OVC,11000,,,,,,,VFR,0.3,,,,,,,,,,,METAR,7.0
KPDX 031353Z 12017G26KT 10SM OVC120 06/M03 A2988 RMK AO2 PK WND 11026/1348 SLP116 T00561033,KPDX,2023-02-03T13:53:00Z,45.6,-122.62,5.6,-3.3,120,17,26,10.0,29.878937,1011.6,,,TRUE,,,,,,,OVC,12000,,,,,,,VFR,,,,,,,,,,,,METAR,7.0
KPDX 031253Z 14007KT 10SM BKN160 06/M03 A2990 RMK AO2 SLP123 T00561028,KPDX,2023-02-03T12:53:00Z,45.6,-122.62,5.6,-2.8,140,7,,10.0,29.899607,1012.3,,,TRUE,,,,,,,BKN,16000,,,,,,,VFR,,,,,,,,,,,,METAR,7.0
KPDX 031153Z 00000KT 10SM BKN170 03/00 A2989 RMK AO2 SLP121 T00330000 10050 20022 56019,KPDX,2023-02-03T11:53:00Z,45.6,-122.62,3.3,0.0,0,0,,10.0,29.890747,1012.1,,,TRUE,,,,,,,BKN,17000,,,,,,,VFR,-1.9,5.0,2.2,,,,,,,,,METAR,7.0
KPDX 031053Z 00000KT 10SM BKN170 03/00 A2991 RMK AO2 SLP126 T00280000,KPDX,2023-02-03T10:53:00Z,45.6,-122.62,2.8,0.0,0,0,,10.0,29.911417,1012.6,,,TRUE,,,,,,,BKN,17000,,,,,,,VFR,,,,,,,,,,,,METAR,7.0
KPDX 030953Z 30003KT 10SM BKN150 BKN210 03/M01 A2993 RMK AO2 SLP133 T00281006,KPDX,2023-02-03T09:53:00Z,45.6,-122.62,2.8,-0.6,300,3,,10.0,29.929134,1013.3,,,TRUE,,,,,,,BKN,15000,BKN,21000,,,,,VFR,,,,,,,,,,,,METAR,7.0
KPDX 030853Z 00000KT 10SM FEW130 BKN170 BKN230 03/M01 A2995 RMK AO2 SLP140 T00331006 56025,KPDX,2023-02-03T08:53:00Z,45.6,-122.62,3.3,-0.6,0,0,,10.0,29.949802,1014.0,,,TRUE,,,,,,,FEW,13000,BKN,17000,BKN,23000,,,VFR,-2.5,,,,,,,,,,,METAR,7.0
KPDX 030753Z 00000KT 10SM SCT130 BKN170 BKN230 03/M01 A2998 RMK AO2 SLP151 T00331011 401001039,KPDX,2023-02-03T07:53:00Z,45.6,-122.62,3.3,-1.1,0,0,,10.0,29.97933,1015.1,,,TRUE,,,,,,,SCT,13000,BKN,17000,BKN,23000,,,VFR,,,,10.0,-3.9,,,,,,,METAR,7.0
KPDX 030653Z 00000KT 10SM BKN200 04/00 A2999 RMK AO2 SLP155 T00440000,KPDX,2023-02-03T06:53:00Z,45.6,-122.62,4.4,0.0,0,0,,10.0,29.991142,1015.5,,,TRUE,,,,,,,BKN,20000,,,,,,,VFR,,,,,,,,,,,,METAR,7.0
KPDX 030553Z 00000KT 10SM BKN160 05/M01 A3002 RMK AO2 SLP166 T00501006 10089 20044 56020,KPDX,2023-02-03T05:53:00Z,45.6,-122.62,5.0,-0.6,0,0,,10.0,30.02067,1016.6,,,TRUE,,,,,,,BKN,16000,,,,,,,VFR,-2.0,8.9,4.4,,,,,,,,,METAR,7.0
KPDX 030453Z 00000KT 10SM SCT120 BKN180 05/M01 A3003 RMK AO2 SLP170 T00501011,KPDX,2023-02-03T04:53:00Z,45.6,-122.62,5.0,-1.1,0,0,,10.0,30.029528,1017.0,,,TRUE,,,,,,,SCT,12000,BKN,18000,,,,,VFR,,,,,,,,,,,,METAR,7.0
KPDX 030353Z 00000KT 10SM FEW120 BKN180 06/M01 A3005 RMK AO2 SLP175 T00611011,KPDX,2023-02-03T03:53:00Z,45.6,-122.62,6.1,-1.1,0,0,,10.0,30.050198,1017.5,,,TRUE,,,,,,,FEW,12000,BKN,18000,,,,,VFR,,,,,,,,,,,,METAR,7.0
KPDX 030253Z 29003KT 10SM SCT180 BKN250 06/M01 A3008 RMK AO2 SLP186 T00611011 56012,KPDX,2023-02-03T02:53:00Z,45.6,-122.62,6.1,-1.1,290,3,,10.0,30.079725,1018.6,,,TRUE,,,,,,,SCT,18000,BKN,25000,,,,,VFR,-1.2,,,,,,,,,,,SPECI,7.0
KPDX 030153Z 00000KT 10SM SCT180 BKN250 07/M02 A3009 RMK AO2 SLP189 T00721017,KPDX,2023-02-03T01:53:00Z,45.6,-122.62,7.2,-1.7,0,0,,10.0,30.088583,1018.9,,,TRUE,,,,,,,SCT,18000,BKN,25000,,,,,VFR,,,,,,,,,,,,METAR,7.0
KPDX 030053Z 00000KT 10SM SCT180 BKN250 08/M02 A3010 RMK AO2 SLP193 T00831022,KPDX,2023-02-03T00:53:00Z,45.6,-122.62,8.3,-2.2,0,0,,10.0,30.100393,1019.3,,,TRUE,,,,,,,SCT,18000,BKN,25000,,,,,VFR,,,,,,,,,,,,METAR,7.0
KPDX 022353Z 00000KT 10SM SCT180 BKN250 09/M03 A3012 RMK AO2 SLP198 T00891028 10100 20022 55014,KPDX,2023-02-02T23:53:00Z,45.6,-122.62,8.9,-2.8,0,0,,10.0,30.121063,1019.8,,,TRUE,,,,,,,SCT,18000,BKN,25000,,,,,VFR,-1.4,10.0,2.2,,,,,,,,,METAR,7.0
KPDX 022253Z 00000KT 10SM SCT180 BKN250 09/M03 A3011 RMK AO2 SLP198 ACSL N T00941028,KPDX,2023-02-02T22:53:00Z,45.6,-122.62,9.4,-2.8,0,0,,10.0,30.109253,1019.8,,,TRUE,,,,,,,SCT,18000,BKN,25000,,,,,VFR,,,,,,,,,,,,METAR,7.0
KPDX 022153Z 13004KT 10SM SCT180 BKN250 09/M03 A3013 RMK AO2 SLP202 ACSL N T00891028,KPDX,2023-02-02T21:53:00Z,45.6,-122.62,8.9,-2.8,130,4,,10.0,30.129921,1020.2,,,TRUE,,,,,,,SCT,18000,BKN,25000,,,,,VFR,,,,,,,,,,,,METAR,7.0
KPDX 022053Z 07004KT 10SM SCT200 BKN250 08/M03 A3016 RMK AO2 SLP212 T00831028 58013,KPDX,2023-02-02T20:53:00Z,45.6,-122.62,8.3,-2.8,70,4,,10.0,30.159449,1021.2,,,TRUE,,,,,,,SCT,20000,BKN,25000,,,,,VFR,-1.3,,,,,,,,,,,METAR,7.0
KPDX 021953Z 00000KT 10SM FEW190 BKN250 07/M03 A3018 RMK AO2 SLP221 T00671028,KPDX,2023-02-02T19:53:00Z,45.6,-122.62,6.7,-2.8,0,0,,10.0,30.180119,1022.1,,,TRUE,,,,,,,FEW,19000,BKN,25000,,,,,VFR,,,,,,,,,,,,METAR,7.0
KPDX 021853Z 35003KT 10SM SCT190 BKN250 04/M03 A3020 RMK AO2 SLP227 T00441028,KPDX,2023-02-02T18:53:00Z,45.6,-122.62,4.4,-2.8,350,3,,10.0,30.200787,1022.7,,,TRUE,,,,,,,SCT,19000,BKN,25000,,,,,VFR,,,,,,,,,,,,METAR,7.0
KPDX 021753Z 31005KT 10SM SCT190 BKN250 02/M02 A3020 RMK AO2 SLP225 T00221022 10039 21039 51005,KPDX,2023-02-02T17:53:00Z,45.6,-122.62,2.2,-2.2,310,5,,10.0,30.200787,1022.5,,,TRUE,,,,,,,SCT,19000,BKN,25000,,,,,VFR,0.5,3.9,-3.9,,,,,,,,,METAR,7.0
KPDX 021653Z 11006KT 10SM SCT190 BKN250 03/M03 A3019 RMK AO2 SLP223 T00281028,KPDX,2023-02-02T16:53:00Z,45.6,-122.62,2.8,-2.8,110,6,,10.0,30.188976,1022.3,,,TRUE,,,,,,,SCT,19000,BKN,25000,,,,,VFR,,,,,,,,,,,,METAR,7.0
KPDX 021553Z 00000KT 10SM FEW200 SCT250 M02/M04 A3019 RMK AO2 SLP222 T10171044,KPDX,2023-02-02T15:53:00Z,45.6,-122.62,-1.7,-4.4,0,0,,10.0,30.188976,1022.2,,,TRUE,,,,,,,FEW,20000,SCT,25000,,,,,VFR,,,,,,,,,,,,METAR,7.0
KPDX 021453Z 00000KT 10SM FEW200 00/M04 A3018 RMK AO2 SLP220 T00001039 51005,KPDX,2023-02-02T14:53:00Z,45.6,-122.62,0.0,-3.9,0,0,,10.0,30.180119,1022.0,,,TRUE,,,,,,,FEW,20000,,,,,,,VFR,0.5,,,,,,,,,,,METAR,7.0
KPDX 021353Z 00000KT 10SM FEW200 M02/M04 A3018 RMK AO2 SLP220 T10171044,KPDX,2023-02-02T13:53:00Z,45.6,-122.62,-1.7,-4.4,0,0,,10.0,30.180119,1022.0,,,TRUE,,,,,,,FEW,20000,,,,,,,VFR,,,,,,,,,,,,METAR,7.0
KPDX 021253Z 15003KT 10SM SCT200 M01/M04 A3018 RMK AO2 SLP218 T10111039,KPDX,2023-02-02T12:53:00Z,45.6,-122.62,-1.1,-3.9,150,3,,10.0,30.180119,1021.8,,,TRUE,,,,,,,SCT,20000,,,,,,,VFR,,,,,,,,,,,,METAR,7.0
KPDX 021153Z 00000KT 10SM SCT200 M03/M05 A3017 RMK AO2 SLP215 T10281050 10028 21028 53004,KPDX,2023-02-02T11:53:00Z,45.6,-122.62,-2.8,-5.0,0,0,,10.0,30.171259,1021.5,,,TRUE,,,,,,,SCT,20000,,,,,,,VFR,0.4,2.8,-2.8,,,,,,,,,METAR,7.0
KPDX 021053Z 00000KT 10SM SCT200 M01/M04 A3016 RMK AO2 SLP213 T10111039,KPDX,2023-02-02T10:53:00Z,45.6,-122.62,-1.1,-3.9,0,0,,10.0,30.159449,1021.3,,,TRUE,,,,,,,SCT,20000,,,,,,,VFR,,,,,,,,,,,,METAR,7.0
KPDX 020953Z 00000KT 10SM SCT200 M01/M04 A3016 RMK AO2 SLP212 T10111039,KPDX,2023-02-02T09:53:00Z,45.6,-122.62,-1.1,-3.9,0,0,,10.0,30.159449,1021.2,,,TRUE,,,,,,,SCT,20000,,,,,,,VFR,,,,,,,,,,,,METAR,7.0
KPDX 020853Z 00000KT 10SM SCT200 M01/M03 A3016 RMK AO2 SLP211 T10061033 50001,KPDX,2023-02-02T08:53:00Z,45.6,-122.62,-0.6,-3.3,0,0,,10.0,30.159449,1021.1,,,TRUE,,,,,,,SCT,20000,,,,,,,VFR,0.1,,,,,,,,,,,METAR,7.0
KPDX 020753Z 00000KT 10SM SCT200 02/M03 A3016 RMK AO2 SLP212 T00171028 401001028,KPDX,2023-02-02T07:53:00Z,45.6,-122.62,1.7,-2.8,0,0,,10.0,30.159449,1021.2,,,TRUE,,,,,,,SCT,20000,,,,,,,VFR,,,,10.0,-2.8,,,,,,,METAR,7.0
KPDX 020653Z 00000KT 10SM SCT200 03/M03 A3016 RMK AO2 SLP213 T00281033,KPDX,2023-02-02T06:53:00Z,45.6,-122.62,2.8,-3.3,0,0,,10.0,30.159449,1021.3,,,TRUE,,,,,,,SCT,20000,,,,,,,VFR,,,,,,,,,,,,METAR,7.0
KPDX 020553Z 10006KT 10SM SCT200 02/M03 A3015 RMK AO2 SLP210 T00221033 10083 20022 53002,KPDX,2023-02-02T05:53:00Z,45.6,-122.62,2.2,-3.3,100,6,,10.0,30.15059,1021.0,,,TRUE,,,,,,,SCT,20000,,,,,,,VFR,0.2,8.3,2.2,,,,,,,,,METAR,7.0
KPDX 020453Z 11006KT 10SM SCT250 03/M03 A3015 RMK AO2 SLP210 T00281033,KPDX,2023-02-02T04:53:00Z,45.6,-122.62,2.8,-3.3,110,6,,10.0,30.15059,1021.0,,,TRUE,,,,,,,SCT,25000,,,,,,,VFR,,,,,,,,,,,,METAR,7.0
KPDX 020353Z 11008KT 10SM SCT250 03/M03 A3015 RMK AO2 SLP208 T00331033,KPDX,2023-02-02T03:53:00Z,45.6,-122.62,3.3,-3.3,110,8,,10.0,30.15059,1020.8,,,TRUE,,,,,,,SCT,25000,,,,,,,VFR,,,,,,,,,,,,METAR,7.0
KPDX 020253Z 12004KT 10SM SCT250 04/M03 A3015 RMK AO2 SLP208 T00441033 53006,KPDX,2023-02-02T02:53:00Z,45.6,-122.62,4.4,-3.3,120,4,,10.0,30.15059,1020.8,,,TRUE,,,,,,,SCT,25000,,,,,,,VFR,0.6,,,,,,,,,,,METAR,7.0
KPDX 020153Z 12007KT 10SM FEW200 SCT250 06/M03 A3013 RMK AO2 SLP204 T00611033,KPDX,2023-02-02T01:53:00Z,45.6,-122.62,6.1,-3.3,120,7,,10.0,30.129921,1020.4,,,TRUE,,,,,,,FEW,20000,SCT,25000,,,,,VFR,,,,,,,,,,,,METAR,7.0
KPDX 020053Z 11005KT 10SM FEW200 BKN250 07/M03 A3013 RMK AO2 SLP203 T00721033,KPDX,2023-02-02T00:53:00Z,45.6,-122.62,7.2,-3.3,110,5,,10.0,30.129921,1020.3,,,TRUE,,,,,,,FEW,20000,BKN,25000,,,,,VFR,,,,,,,,,,,,METAR,7.0
KPDX 012353Z 08005KT 10SM FEW200 BKN250 08/M03 A3013 RMK AO2 SLP202 T00831028 10100 20022 56012,KPDX,2023-02-01T23:53:00Z,45.6,-122.62,8.3,-2.8,80,5,,10.0,30.129921,1020.2,,,TRUE,,,,,,,FEW,20000,BKN,25000,,,,,VFR,-1.2,10.0,2.2,,,,,,,,,METAR,7.0
KPDX 012253Z 08004KT 10SM FEW200 BKN250 09/M04 A3013 RMK AO2 SLP203 T00891039,KPDX,2023-02-01T22:53:00Z,45.6,-122.62,8.9,-3.9,80,4,,10.0,30.129921,1020.3,,,TRUE,,,,,,,FEW,20000,BKN,25000,,,,,VFR,,,,,,,,,,,,METAR,7.0
KPDX 012153Z 00000KT 10SM FEW200 SCT250 07/M04 A3015 RMK AO2 SLP210 T00721039,KPDX,2023-02-01T21:53:00Z,45.6,-122.62,7.2,-3.9,0,0,,10.0,30.15059,1021.0,,,TRUE,,,,,,,FEW,20000,SCT,25000,,,,,VFR,,,,,,,,,,,,METAR,7.0
KPDX 012053Z 10005KT 10SM FEW210 SCT250 07/M04 A3016 RMK AO2 SLP214 T00721039 58012,KPDX,2023-02-01T20:53:00Z,45.6,-122.62,7.2,-3.9,100,5,,10.0,30.159449,1021.4,,,TRUE,,,,,,,FEW,21000,SCT,25000,,,,,VFR,-1.2,,,,,,,,,,,METAR,7.0
KPDX 011953Z 11008KT 10SM FEW210 SCT250 06/M03 A3018 RMK AO2 SLP219 T00561033,KPDX,2023-02-01T19:53:00Z,45.6,-122.62,5.6,-3.3,110,8,,10.0,30.180119,1021.9,,,TRUE,,,,,,,FEW,21000,SCT,25000,,,,,VFR,,,,,,,,,,,,METAR,7.0
KPDX 011853Z 11005KT 10SM FEW180 FEW210 BKN250 03/M03 A3020 RMK AO2 SLP227 T00331033,KPDX,2023-02-01T18:53:00Z,45.6,-122.62,3.3,-3.3,110,5,,10.0,30.200787,1022.7,,,TRUE,,,,,,,FEW,18000,FEW,21000,BKN,25000,,,VFR,,,,,,,,,,,,METAR,7.0
KPDX 011753Z 09004KT 10SM FEW180 BKN210 BKN250 02/M03 A3020 RMK AO2 SLP226 T00221028 10022 21028 53002,KPDX,2023-02-01T17:53:00Z,45.6,-122.62,2.2,-2.8,90,4,,10.0,30.200787,1022.6,,,TRUE,,,,,,,FEW,18000,BKN,21000,BKN,25000,,,VFR,0.2,2.2,-2.8,,,,,,,,,SPECI,7.0
KPDX 011653Z 11005KT 10SM SCT180 BKN250 00/M03 A3019 RMK AO2 SLP223 T00001028,KPDX,2023-02-01T16:53:00Z,45.6,-122.62,0.0,-2.8,110,5,,10.0,30.188976,1022.3,,,TRUE,,,,,,,SCT,18000,BKN,25000,,,,,VFR,,,,,,,,,,,,METAR,7.0
KPDX 011553Z 00000KT 9SM SCT180 BKN250 M01/M04 A3020 RMK AO2 SLP224 T10111039,KPDX,2023-02-01T15:53:00Z,45.6,-122.62,-1.1,-3.9,0,0,,9.0,30.200787,1022.4,,,TRUE,,,,,,,SCT,18000,BKN,25000,,,,,VFR,,,,,,,,,,,,METAR,7.0
KPDX 011453Z 00000KT 10SM SCT180 BKN250 M01/M03 A3019 RMK AO2 SLP224 T10111033 55000,KPDX,2023-02-01T14:53:00Z,45.6,-122.62,-1.1,-3.3,0,0,,10.0,30.188976,1022.4,,,TRUE,,,,,,,SCT,18000,BKN,25000,,,,,VFR,0.0,,,,,,,,,,,METAR,7.0
KPDX 011353Z 00000KT 10SM FEW160 M01/M04 A3019 RMK AO2 SLP221 T10111039,KPDX,2023-02-01T13:53:00Z,45.6,-122.62,-1.1,-3.9,0,0,,10.0,30.188976,1022.1,,,TRUE,,,,,,,FEW,16000,,,,,,,VFR,,,,,,,,,,,,METAR,7.0
KPDX 011253Z 00000KT 10SM BKN160 M01/M04 A3019 RMK AO2 SLP222 T10111039,KPDX,2023-02-01T12:53:00Z,45.6,-122.62,-1.1,-3.9,0,0,,10.0,30.188976,1022.2,,,TRUE,,,,,,,BKN,16000,,,,,,,VFR,,,,,,,,,,,,METAR,7.0
KPDX 011153Z 00000KT 10SM BKN160 M02/M04 A3019 RMK AO2 SLP224 T10171044 10017 21028 51002,KPDX,2023-02-01T11:53:00Z,45.6,-122.62,-1.7,-4.4,0,0,,10.0,30.188976,1022.4,,,TRUE,,,,,,,BKN,16000,,,,,,,VFR,0.2,1.7,-2.8,,,,,,,,,METAR,7.0
KPDX 011053Z 09003KT 10SM SCT200 00/M04 A3019 RMK AO2 SLP224 T00001039,KPDX,2023-02-01T10:53:00Z,45.6,-122.62,0.0,-3.9,90,3,,10.0,30.188976,1022.4,,,TRUE,,,,,,,SCT,20000,,,,,,,VFR,,,,,,,,,,,,SPECI,7.0
KPDX 010953Z 12004KT 10SM FEW150 SCT200 00/M04 A3019 RMK AO2 SLP222 T00001039,KPDX,2023-02-01T09:53:00Z,45.6,-122.62,0.0,-3.9,120,4,,10.0,30.188976,1022.2,,,TRUE,,,,,,,FEW,15000,SCT,20000,,,,,VFR,,,,,,,,,,,,SPECI,7.0
KPDX 010853Z 07004KT 10SM FEW150 SCT200 00/M03 A3019 RMK AO2 SLP222 T00001033 58001,KPDX,2023-02-01T08:53:00Z,45.6,-122.62,0.0,-3.3,70,4,,10.0,30.188976,1022.2,,,TRUE,,,,,,,FEW,15000,SCT,20000,,,,,VFR,-0.1,,,,,,,,,,,METAR,7.0
KPDX 010753Z 09003KT 10SM SCT200 01/M04 A3020 RMK AO2 SLP225 T00111039 400561028,KPDX,2023-02-01T07:53:00Z,45.6,-122.62,1.1,-3.9,90,3,,10.0,30.200787,1022.5,,,TRUE,,,,,,,SCT,20000,,,,,,,VFR,,,,5.6,-2.8,,,,,,,METAR,7.0
KPDX 010653Z 12003KT 10SM SCT250 01/M04 A3020 RMK AO2 SLP227 T00111039,KPDX,2023-02-01T06:53:00Z,45.6,-122.62,1.1,-3.9,120,3,,10.0,30.200787,1022.7,,,TRUE,,,,,,,SCT,25000,,,,,,,VFR,,,,,,,,,,,,METAR,7.0
KPDX 010553Z 12007KT 10SM FEW150 SCT200 OVC250 01/M04 A3019 RMK AO2 SLP222 T00111044 10050 20011 56005,KPDX,2023-02-01T05:53:00Z,45.6,-122.62,1.1,-4.4,120,7,,10.0,30.188976,1022.2,,,TRUE,,,,,,,FEW,15000,SCT,20000,OVC,25000,,,VFR,-0.5,5.0,1.1,,,,,,,,,METAR,7.0
KPDX 010453Z 13004KT 10SM FEW150 SCT200 OVC250 02/M04 A3019 RMK AO2 SLP224 T00221039,KPDX,2023-02-01T04:53:00Z,45.6,-122.62,2.2,-3.9,130,4,,10.0,30.188976,1022.4,,,TRUE,,,,,,,FEW,15000,SCT,20000,OVC,25000,,,VFR,,,,,,,,,,,,METAR,7.0
KPDX 010353Z 13005KT 10SM BKN250 03/M04 A3019 RMK AO2 SLP223 T00281039,KPDX,2023-02-01T03:53:00Z,45.6,-122.62,2.8,-3.9,130,5,,10.0,30.188976,1022.3,,,TRUE,,,,,,,BKN,25000,,,,,,,VFR,,,,,,,,,,,,METAR,7.0
KPDX 010253Z 11003KT 10SM SCT150 BKN250 03/M04 A3020 RMK AO2 SLP227 T00331039 58001,KPDX,2023-02-01T02:53:00Z,45.6,-122.62,3.3,-3.9,110,3,,10.0,30.200787,1022.7,,,TRUE,,,,,,,SCT,15000,BKN,25000,,,,,VFR,-0.1,,,,,,,,,,,METAR,7.0
KPDX 010153Z 05003KT 10SM SCT150 BKN250 04/M04 A3021 RMK AO2 SLP229 T00391039,KPDX,2023-02-01T01:53:00Z,45.6,-122.62,3.9,-3.9,50,3,,10.0,30.209646,1022.9,,,TRUE,,,,,,,SCT,15000,BKN,25000,,,,,VFR,,,,,,,,,,,,SPECI,7.0
KPDX 010053Z 24004KT 10SM SCT150 OVC250 04/M04 A3021 RMK AO2 SLP231 T00441044,KPDX,2023-02-01T00:53:00Z,45.6,-122.62,4.4,-4.4,240,4,,10.0,30.209646,1023.1,,,TRUE,,,,,,,SCT,15000,OVC,25000,,,,,VFR,,,,,,,,,,,,METAR,7.0
KPDX 312353Z 00000KT 10SM BKN140 OVC250 05/M06 A3021 RMK AO2 SLP228 T00501056 10056 20006 56010,KPDX,2023-01-31T23:53:00Z,45.6,-122.62,5.0,-5.6,0,0,,10.0,30.209646,1022.8,,,TRUE,,,,,,,BKN,14000,OVC,25000,,,,,VFR,-1.0,5.6,0.6,,,,,,,,,METAR,7.0
KPDX 312253Z 00000KT 10SM SCT140 OVC250 05/M06 A3021 RMK AO2 SLP230 T00501056,KPDX,2023-01-31T22:53:00Z,45.6,-122.62,5.0,-5.6,0,0,,10.0,30.209646,1023.0,,,TRUE,,,,,,,SCT,14000,OVC,25000,,,,,VFR,,,,,,,,,,,,METAR,7.0
KPDX 312153Z 33004KT 10SM FEW180 BKN250 04/M06 A3023 RMK AO2 SLP235 T00441056,KPDX,2023-01-31T21:53:00Z,45.6,-122.62,4.4,-5.6,330,4,,10.0,30.230314,1023.5,,,TRUE,,,,,,,FEW,18000,BKN,25000,,,,,VFR,,,,,,,,,,,,METAR,7.0
KPDX 312053Z 07004KT 10SM FEW180 SCT200 BKN250 03/M06 A3024 RMK AO2 SLP238 T00331056 58023,KPDX,2023-01-31T20:53:00Z,45.6,-122.62,3.3,-5.6,70,4,,10.0,30.239174,1023.8,,,TRUE,,,,,,,FEW,18000,SCT,20000,BKN,25000,,,VFR,-2.3,,,,,,,,,,,SPECI,7.0
KPDX 311953Z 00000KT 10SM SCT180 BKN200 BKN240 02/M06 A3027 RMK AO2 SLP251 T00221061,KPDX,2023-01-31T19:53:00Z,45.6,-122.62,2.2,-6.1,0,0,,10.0,30.268702,1025.1,,,TRUE,,,,,,,SCT,18000,BKN,20000,BKN,24000,,,VFR,,,,,,,,,,,,SPECI,7.0
KPDX 311853Z 29004KT 10SM SCT170 BKN240 02/M06 A3030 RMK AO2 SLP261 T00171056,KPDX,2023-01-31T18:53:00Z,45.6,-122.62,1.7,-5.6,290,4,,10.0,30.301182,1026.1,,,TRUE,,,,,,,SCT,17000,BKN,24000,,,,,VFR,,,,,,,,,,,,METAR,7.0
KPDX 311753Z 00000KT 10SM FEW160 FEW220 BKN250 01/M05 A3030 RMK AO2 SLP261 T00061050 10006 21028 55004,KPDX,2023-01-31T17:53:00Z,45.6,-122.62,0.6,-5.0,0,0,,10.0,30.301182,1026.1,,,TRUE,,,,,,,FEW,16000,FEW,22000,BKN,25000,,,VFR,-0.4,0.6,-2.8,,,,,,,,,METAR,7.0
KPDX 311653Z 00000KT 10SM FEW160 BKN220 BKN250 M01/M06 A3030 RMK AO2 SLP259 T10061056,KPDX,2023-01-31T16:53:00Z,45.6,-122.62,-0.6,-5.6,0,0,,10.0,30.301182,1025.9,,,TRUE,,,,,,,FEW,16000,BKN,22000,BKN,25000,,,VFR,,,,,,,,,,,,METAR,7.0
KPDX 311553Z 09003KT 10SM BKN160 M01/M07 A3032 RMK AO2 SLP266 T10111067,KPDX,2023-01-31T15:53:00Z,45.6,-122.62,-1.1,-6.7,90,3,,10.0,30.318897,1026.6,,,TRUE,,,,,,,BKN,16000,,,,,,,VFR,,,,,,,,,,,,METAR,7.0
KPDX 311453Z 11004KT 10SM OVC130 M01/M06 A3032 RMK AO2 SLP265 T10111061 56005,KPDX,2023-01-31T14:53:00Z,45.6,-122.62,-1.1,-6.1,110,4,,10.0,30.318897,1026.5,,,TRUE,,,,,,,OVC,13000,,,,,,,VFR,-0.5,,,,,,,,,,,METAR,7.0
KPDX 311353Z 10004KT 10SM OVC150 M01/M06 A3032 RMK AO2 SLP268 T10111061,KPDX,2023-01-31T13:53:00Z,45.6,-122.62,-1.1,-6.1,100,4,,10.0,30.318897,1026.8,,,TRUE,,,,,,,OVC,15000,,,,,,,VFR,,,,,,,,,,,,METAR,7.0
KPDX 311253Z 00000KT 10SM FEW150 M02/M07 A3032 RMK AO2 SLP267 T10221072,KPDX,2023-01-31T12:53:00Z,45.6,-122.62,-2.2,-7.2,0,0,,10.0,30.318897,1026.7,,,TRUE,,,,,,,FEW,15000,,,,,,,VFR,,,,,,,,,,,,METAR,7.0
KPDX 311153Z 00000KT 10SM FEW150 M02/M08 A3033 RMK AO2 SLP270 T10221078 10006 21022 58001,KPDX,2023-01-31T11:53:00Z,45.6,-122.62,-2.2,-7.8,0,0,,10.0,30.33071,1027.0,,,TRUE,,,,,,,FEW,15000,,,,,,,VFR,-0.1,0.6,-2.2,,,,,,,,,METAR,7.0
KPDX 311053Z 00000KT 10SM BKN150 M02/M08 A3034 RMK AO2 SLP274 T10171078,KPDX,2023-01-31T10:53:00Z,45.6,-122.62,-1.7,-7.8,0,0,,10.0,30.339567,1027.4,,,TRUE,,,,,,,BKN,15000,,,,,,,VFR,,,,,,,,,,,,METAR,7.0
KPDX 310953Z 00000KT 10SM OVC150 M01/M08 A3034 RMK AO2 SLP274 T10111078,KPDX,2023-01-31T09:53:00Z,45.6,-122.62,-1.1,-7.8,0,0,,10.0,30.339567,1027.4,,,TRUE,,,,,,,OVC,15000,,,,,,,VFR,,,,,,,,,,,,METAR,7.0
KPDX 310853Z 12004KT 10SM OVC150 00/M08 A3033 RMK AO2 SLP271 T00001078 58009,KPDX,2023-01-31T08:53:00Z,45.6,-122.62,0.0,-7.8,120,4,,10.0,30.33071,1027.1,,,TRUE,,,,,,,OVC,15000,,,,,,,VFR,-0.9,,,,,,,,,,,METAR,7.0
KPDX 310753Z 00000KT 10SM OVC150 00/M08 A3035 RMK AO2 SLP277 T00001078 400501061,KPDX,2023-01-31T07:53:00Z,45.6,-122.62,0.0,-7.8,0,0,,10.0,30.351377,1027.7,,,TRUE,,,,,,,OVC,15000,,,,,,,VFR,,,,5.0,-6.1,,,,,,,SPECI,7.0
KPDX 310653Z 00000KT 10SM SCT150 00/M08 A3036 RMK AO2 SLP279 T00001083,KPDX,2023-01-31T06:53:00Z,45.6,-122.62,0.0,-8.3,0,0,,10.0,30.360237,1027.9,,,TRUE,,,,,,,SCT,15000,,,,,,,VFR,,,,,,,,,,,,METAR,7.0
KPDX 310553Z 12005KT 10SM CLR 00/M10 A3036 RMK AO2 SLP280 T00001100 10044 20000 55000,KPDX,2023-01-31T05:53:00Z,45.6,-122.62,0.0,-10.0,120,5,,10.0,30.360237,1028.0,,,TRUE,,,,,,,CLR,,,,,,,,VFR,0.0,4.4,0.0,,,,,,,,,METAR,7.0
KPDX 310453Z 13006KT 10SM CLR 01/M10 A3035 RMK AO2 SLP279 T00061100,KPDX,2023-01-31T04:53:00Z,45.6,-122.62,0.6,-10.0,130,6,,10.0,30.351377,1027.9,,,TRUE,,,,,,,CLR,,,,,,,,VFR,,,,,,,,,,,,METAR,7.0
KPDX 310353Z 14008KT 10SM FEW150 01/M09 A3034 RMK AO2 SLP276 T00061089,KPDX,2023-01-31T03:53:00Z,45.6,-122.62,0.6,-8.9,140,8,,10.0,30.339567,1027.6,,,TRUE,,,,,,,FEW,15000,,,,,,,VFR,,,,,,,,,,,,METAR,7.0
KPDX 310253Z 15003KT 10SM CLR 01/M10 A3036 RMK AO2 SLP281 T00061100 55015,KPDX,2023-01-31T02:53:00Z,45.6,-122.62,0.6,-10.0,150,3,,10.0,30.360237,1028.1,,,TRUE,,,,,,,CLR,,,,,,,,VFR,-1.5,,,,,,,,,,,SPECI,7.0
KPDX 310153Z 14005KT 10SM FEW250 02/M11 A3036 RMK AO2 SLP280 T00171106,KPDX,2023-01-31T01:53:00Z,45.6,-122.62,1.7,-10.6,140,5,,10.0,30.360237,1028.0,,,TRUE,,,,,,,FEW,25000,,,,,,,VFR,,,,,,,,,,,,METAR,7.0
KPDX 310053Z 14008KT 10SM FEW250 03/M11 A3038 RMK AO2 SLP285 T00331111,KPDX,2023-01-31T00:53:00Z,45.6,-122.62,3.3,-11.1,140,8,,10.0,30.380905,1028.5,,,TRUE,,,,,,,FEW,25000,,,,,,,VFR,,,,,,,,,,,,METAR,7.0
KPDX 302353Z 13003KT 10SM FEW250 04/M11 A3040 RMK AO2 SLP295 T00441111 10050 21011 56010,KPDX,2023-01-30T23:53:00Z,45.6,-122.62,4.4,-11.1,130,3,,10.0,30.398623,1029.5,,,TRUE,,,,,,,FEW,25000,,,,,,,VFR,-1.0,5.0,-1.1,,,,,,,,,METAR,7.0
KPDX 302253Z 09004KT 10SM FEW250 05/M11 A3041 RMK AO2 SLP296 T00501106,KPDX,2023-01-30T22:53:00Z,45.6,-122.62,5.0,-10.6,90,4,,10.0,30.410433,1029.6,,,TRUE,,,,,,,FEW,25000,,,,,,,VFR,,,,,,,,,,,,METAR,7.0
KPDX 302153Z 31004KT 10SM FEW250 04/M11 A3041 RMK AO2 SLP299 T00391111,KPDX,2023-01-30T21:53:00Z,45.6,-122.62,3.9,-11.1,310,4,,10.0,30.410433,1029.9,,,TRUE,,,,,,,FEW,25000,,,,,,,VFR,,,,,,,,,,,,METAR,7.0
KPDX 302053Z 00000KT 10SM FEW250 03/M11 A3043 RMK AO2 SLP305 T00331111 58017,KPDX,2023-01-30T20:53:00Z,45.6,-122.62,3.3,-11.1,0,0,,10.0,30.431103,1030.5,,,TRUE,,,,,,,FEW,25000,,,,,,,VFR,-1.7,,,,,,,,,,,SPECI,7.0
KPDX 301953Z 20003KT 10SM FEW250 02/M11 A3045 RMK AO2 SLP312 T00171111,KPDX,2023-01-30T19:53:00Z,45.6,-122.62,1.7,-11.1,200,3,,10.0,30.448818,1031.2,,,TRUE,,,,,,,FEW,25000,,,,,,,VFR,,,,,,,,,,,,METAR,7.0
KPDX 301853Z 00000KT 10SM FEW250 00/M11 A3048 RMK AO2 SLP320 T00001111,KPDX,2023-01-30T18:53:00Z,45.6,-122.62,0.0,-11.1,0,0,,10.0,30.481298,1032.0,,,TRUE,,,,,,,FEW,25000,,,,,,,VFR,,,,,,,,,,,,METAR,7.0
KPDX 301753Z 31003KT 9SM FEW250 M01/M11 A3048 RMK AO2 SLP322 T10111106 11011 21061 51001,KPDX,2023-01-30T17:53:00Z,45.6,-122.62,-1.1,-10.6,310,3,,9.0,30.481298,1032.2,,,TRUE,,,,,,,FEW,25000,,,,,,,VFR,0.1,-1.1,-6.1,,,,,,,,,METAR,7.0
KPDX 301653Z 00000KT 10SM CLR M03/M08 A3048 RMK AO2 SLP321 T10281083,KPDX,2023-01-30T16:53:00Z,45.6,-122.62,-2.8,-8.3,0,0,,10.0,30.481298,1032.1,,,TRUE,,,,,,,CLR,,,,,,,,VFR,,,,,,,,,,,,METAR,7.0
KPDX 301553Z 29004KT 10SM CLR M04/M09 A3049 RMK AO2 SLP325 T10391089,KPDX,2023-01-30T15:53:00Z,45.6,-122.62,-3.9,-8.9,290,4,,10.0,30.490158,1032.5,,,TRUE,,,,,,,CLR,,,,,,,,VFR,,,,,,,,,,,,METAR,7.0
KPDX 301453Z 00000KT 10SM CLR M05/M09 A3048 RMK AO2 SLP322 T10501094 50001,KPDX,2023-01-30T14:53:00Z,45.6,-122.62,-5.0,-9.4,0,0,,10.0,30.481298,1032.2,,,TRUE,,,,,,,CLR,,,,,,,,VFR,0.1,,,,,,,,,,,METAR,7.0
KPDX 301353Z 00000KT 10SM CLR M05/M11 A3049 RMK AO2 SLP323 T10501111,KPDX,2023-01-30T13:53:00Z,45.6,-122.62,-5.0,-11.1,0,0,,10.0,30.490158,1032.3,,,TRUE,,,,,,,CLR,,,,,,,,VFR,,,,,,,,,,,,METAR,7.0
