No errors
No warnings
23 ms
data source=metars
518 results
raw_text,station_id,observation_time,latitude,longitude,temp_c,dewpoint_c,wind_dir_degrees,wind_speed_kt,wind_gust_kt,visibility_statute_mi,altim_in_hg,sea_level_pressure_mb,corrected,auto,auto_station,maintenance_indicator_on,no_signal,lightning_sensor_off,freezing_rain_sensor_off,present_weather_sensor_off,wx_string,sky_cover,cloud_base_ft_agl,sky_cover,cloud_base_ft_agl,sky_cover,cloud_base_ft_agl,sky_cover,cloud_base_ft_agl,flight_category,three_hr_pressure_tendency_mb,maxT_c,minT_c,maxT24hr_c,minT24hr_c,precip_in,pcp3hr_in,pcp6hr_in,pcp24hr_in,snow_in,vert_vis_ft,metar_type,elevation_m
KSLE 021656Z 16009KT 10SM -RA OVC022 04/01 A3006 RMK AO2 RAE04B20 SLP180 P0000 T00390011,KSLE,2023-03-02T16:56:00Z,44.9,-123.0,3.9,1.1,160,9,,10.0,30.059055,1018.0,,,TRUE,,,,,,-RA,OVC,2200,,,,,,,MVFR,,,,,,0.005,,,,,,METAR,63.0
KSLE 021556Z 15013KT 10SM -RA OVC024 03/01 A3007 RMK AO2 SLP183 P0001 T00330006,KSLE,2023-03-02T15:56:00Z,44.9,-123.0,3.3,0.6,150,13,,10.0,30.070866,1018.3,,,TRUE,,,,,,-RA,OVC,2400,,,,,,,MVFR,,,,,,0.01,,,,,,METAR,63.0
KSLE 021503Z 16010KT 10SM -RA OVC028 04/01 A3007 RMK AO2 P0000 T00390006,KSLE,2023-03-02T15:03:00Z,44.9,-123.0,3.9,0.6,160,10,,10.0,30.070866,,,,TRUE,,,,,,-RA,OVC,2800,,,,,,,MVFR,,,,,,0.005,,,,,,SPECI,63.0
KSLE 021456Z 15012KT 10SM -RA OVC030 04/01 A3007 RMK AO2 RAE04B55 SLP182 P0000 60000 T00390006 55014,KSLE,2023-03-02T14:56:00Z,44.9,-123.0,3.9,0.6,150,12,,10.0,30.070866,1018.2,,,TRUE,,,,,,-RA,OVC,3000,,,,,,,MVFR,-1.4,,,,,0.005,0.005,,,,,METAR,63.0
KSLE 021454Z 16011KT 10SM BKN028 OVC034 04/01 A3007 RMK AO2 RAE04 P0000,KSLE,2023-03-02T14:54:00Z,44.9,-123.0,4.0,1.0,160,11,,10.0,30.070866,,,,TRUE,,,,,,,BKN,2800,OVC,3400,,,,,MVFR,,,,,,0.005,,,,,,SPECI,63.0
KSLE 021356Z AUTO 18013KT 9SM -RA FEW042 BKN050 OVC080 04/01 A3010 RMK AO2 RAB05E17B49 SLP192 P0000 T00390006,KSLE,2023-03-02T13:56:00Z,44.9,-123.0,3.9,0.6,180,13,,9.0,30.100393,1019.2,,TRUE,TRUE,,,,,,-RA,FEW,4200,BKN,5000,OVC,8000,,,VFR,,,,,,0.005,,,,,,METAR,63.0
KSLE 021256Z AUTO 18010KT 10SM OVC046 04/00 A3011 RMK AO2 SLP196 T00440000,KSLE,2023-03-02T12:56:00Z,44.9,-123.0,4.4,0.0,180,10,,10.0,30.109253,1019.6,,TRUE,TRUE,,,,,,,OVC,4600,,,,,,,VFR,,,,,,,,,,,,SPECI,63.0
KSLE 021156Z AUTO 18013KT 10SM OVC055 04/00 A3013 RMK AO2 SLP203 T00440000 10050 20044 58012,KSLE,2023-03-02T11:56:00Z,44.9,-123.0,4.4,0.0,180,13,,10.0,30.129921,1020.3,,TRUE,TRUE,,,,,,,OVC,5500,,,,,,,VFR,-1.2,5.0,4.4,,,,,,,,,METAR,63.0
KSLE 021056Z AUTO 18011KT 10SM OVC060 04/00 A3014 RMK AO2 SLP208 T00440000,KSLE,2023-03-02T10:56:00Z,44.9,-123.0,4.4,0.0,180,11,,10.0,30.138779,1020.8,,TRUE,TRUE,,,,,,,OVC,6000,,,,,,,VFR,,,,,,,,,,,,METAR,63.0
KSLE 020956Z AUTO 18011KT 10SM OVC060 04/00 A3016 RMK AO2 SLP214 T00440000,KSLE,2023-03-02T09:56:00Z,44.9,-123.0,4.4,0.0,180,11,,10.0,30.159449,1021.4,,TRUE,TRUE,,,,,,,OVC,6000,,,,,,,VFR,,,,,,,,,,,,METAR,63.0
KSLE 020856Z AUTO 19011KT 10SM OVC060 04/01 A3016 RMK AO2 SLP214 T00440006 56006,KSLE,2023-03-02T08:56:00Z,44.9,-123.0,4.4,0.6,190,11,,10.0,30.159449,1021.4,,TRUE,TRUE,,,,,,,OVC,6000,,,,,,,VFR,-0.6,,,,,,,,,,,METAR,63.0
KSLE 020756Z AUTO 18008KT 10SM OVC060 05/01 A3017 RMK AO2 SLP216 T00500006 400781011,KSLE,2023-03-02T07:56:00Z,44.9,-123.0,5.0,0.6,180,8,,10.0,30.171259,1021.6,,TRUE,TRUE,,,,,,,OVC,6000,,,,,,,VFR,,,,7.8,-1.1,,,,,,,SPECI,63.0
KSLE 020656Z AUTO 15007KT 10SM OVC070 04/00 A3017 RMK AO2 SLP217 T00440000,KSLE,2023-03-02T06:56:00Z,44.9,-123.0,4.4,0.0,150,7,,10.0,30.171259,1021.7,,TRUE,TRUE,,,,,,,OVC,7000,,,,,,,VFR,,,,,,,,,,,,SPECI,63.0
KSLE 020556Z AUTO 16005KT 10SM OVC070 04/01 A3018 RMK AO2 SLP220 T00440006 10078 20044 53001,KSLE,2023-03-02T05:56:00Z,44.9,-123.0,4.4,0.6,160,5,,10.0,30.180119,1022.0,,TRUE,TRUE,,,,,,,OVC,7000,,,,,,,VFR,0.1,7.8,4.4,,,,,,,,,METAR,63.0
KSLE 020456Z 20006KT 10SM OVC085 06/00 A3016 RMK AO2 SLP215 T00560000,KSLE,2023-03-02T04:56:00Z,44.9,-123.0,5.6,0.0,200,6,,10.0,30.159449,1021.5,,,TRUE,,,,,,,OVC,8500,,,,,,,VFR,,,,,,,,,,,,METAR,63.0
KSLE 020356Z 19006KT 10SM FEW050 OVC110 06/M01 A3017 RMK AO2 SLP218 T00611006,KSLE,2023-03-02T03:56:00Z,44.9,-123.0,6.1,-0.6,190,6,,10.0,30.171259,1021.8,,,TRUE,,,,,,,FEW,5000,OVC,11000,,,,,VFR,,,,,,,,,,,,SPECI,63.0
KSLE 020256Z 18006KT 10SM BKN100 06/M01 A3018 RMK AO2 SLP221 T00561011 53002,KSLE,2023-03-02T02:56:00Z,44.9,-123.0,5.6,-1.1,180,6,,10.0,30.180119,1022.1,,,TRUE,,,,,,,BKN,10000,,,,,,,VFR,0.2,,,,,,,,,,,METAR,63.0
KSLE 020156Z 17005KT 10SM CLR 06/M01 A3017 RMK AO2 SLP218 T00611011,KSLE,2023-03-02T01:56:00Z,44.9,-123.0,6.1,-1.1,170,5,,10.0,30.171259,1021.8,,,TRUE,,,,,,,CLR,,,,,,,,VFR,,,,,,,,,,,,METAR,63.0
KSLE 020056Z 14006KT 10SM OVC044 07/M02 A3017 RMK AO2 SLP217 T00721017,KSLE,2023-03-02T00:56:00Z,44.9,-123.0,7.2,-1.7,140,6,,10.0,30.171259,1021.7,,,TRUE,,,,,,,OVC,4400,,,,,,,VFR,,,,,,,,,,,,SPECI,63.0
KSLE 012356Z 14007KT 10SM BKN043 07/M01 A3017 RMK AO2 SLP217 T00721011 10078 20028 51004,KSLE,2023-03-01T23:56:00Z,44.9,-123.0,7.2,-1.1,140,7,,10.0,30.171259,1021.7,,,TRUE,,,,,,,BKN,4300,,,,,,,VFR,0.4,7.8,2.8,,,,,,,,,SPECI,63.0
KSLE 012256Z 12007KT 10SM FEW040 07/M01 A3017 RMK AO2 SLP216 T00721006,KSLE,2023-03-01T22:56:00Z,44.9,-123.0,7.2,-0.6,120,7,,10.0,30.171259,1021.6,,,TRUE,,,,,,,FEW,4000,,,,,,,VFR,,,,,,,,,,,,SPECI,63.0
KSLE 012203Z VRB06KT 10SM FEW030 BKN042 07/M01 A3017 RMK AO2 T00721006,KSLE,2023-03-01T22:03:00Z,44.9,-123.0,7.2,-0.6,0,6,,10.0,30.171259,,,,TRUE,,,,,,,FEW,3000,BKN,4200,,,,,VFR,,,,,,,,,,,,SPECI,63.0
KSLE 012156Z 00000KT 10SM BKN022 BKN034 07/M01 A3017 RMK AO2 SLP216 T00671011,KSLE,2023-03-01T21:56:00Z,44.9,-123.0,6.7,-1.1,0,0,,10.0,30.171259,1021.6,,,TRUE,,,,,,,BKN,2200,BKN,3400,,,,,MVFR,,,,,,,,,,,,METAR,63.0
KSLE 012056Z 16005KT 10SM BKN022 BKN034 06/01 A3016 RMK AO2 SLP214 T00610006 51010,KSLE,2023-03-01T20:56:00Z,44.9,-123.0,6.1,0.6,160,5,,10.0,30.159449,1021.4,,,TRUE,,,,,,,BKN,2200,BKN,3400,,,,,MVFR,1.0,,,,,,,,,,,SPECI,63.0
KSLE 011956Z 12006KT 10SM BKN019 05/01 A3015 RMK AO2 SLP211 T00500006,KSLE,2023-03-01T19:56:00Z,44.9,-123.0,5.0,0.6,120,6,,10.0,30.15059,1021.1,,,TRUE,,,,,,,BKN,1900,,,,,,,MVFR,,,,,,,,,,,,METAR,63.0
KSLE 011856Z 14006KT 10SM SCT015 04/02 A3015 RMK AO2 SLP211 T00440022,KSLE,2023-03-01T18:56:00Z,44.9,-123.0,4.4,2.2,140,6,,10.0,30.15059,1021.1,,,TRUE,,,,,,,SCT,1500,,,,,,,VFR,,,,,,,,,,,,METAR,63.0
KSLE 011756Z 12004KT 10SM CLR 03/01 A3013 RMK AO2 SLP204 I6000 T00280011 10028 21006 51029,KSLE,2023-03-01T17:56:00Z,44.9,-123.0,2.8,1.1,120,4,,10.0,30.129921,1020.4,,,TRUE,,,,,,,CLR,,,,,,,,VFR,2.9,2.8,-0.6,,,,,,,,,METAR,63.0
KSLE 011656Z 00000KT 10SM BKN031 01/00 A3011 RMK AO2 SLP197 T00110000,KSLE,2023-03-01T16:56:00Z,44.9,-123.0,1.1,0.0,0,0,,10.0,30.109253,1019.7,,,TRUE,,,,,,,BKN,3100,,,,,,,VFR,,,,,,,,,,,,METAR,63.0
KSLE 011644Z 31003KT 10SM BKN031 01/M01 A3010 RMK AO2 T00111006,KSLE,2023-03-01T16:44:00Z,44.9,-123.0,1.1,-0.6,310,3,,10.0,30.100393,,,,TRUE,,,,,,,BKN,3100,,,,,,,VFR,,,,,,,,,,,,SPECI,63.0
KSLE 011619Z 34003KT 10SM BKN029 00/M01 A3008 RMK AO2 T00001011,KSLE,2023-03-01T16:19:00Z,44.9,-123.0,0.0,-1.1,340,3,,10.0,30.079725,,,,TRUE,,,,,,,BKN,2900,,,,,,,MVFR,,,,,,,,,,,,METAR,63.0
KSLE 011556Z 35003KT 10SM BKN030 00/M01 A3007 RMK AO2 SLP184 T00001011,KSLE,2023-03-01T15:56:00Z,44.9,-123.0,0.0,-1.1,350,3,,10.0,30.070866,1018.4,,,TRUE,,,,,,,BKN,3000,,,,,,,MVFR,,,,,,,,,,,,METAR,63.0
KSLE 011544Z 34005KT 10SM BKN030 00/M01 A3006 RMK AO2 T00001011,KSLE,2023-03-01T15:44:00Z,44.9,-123.0,0.0,-1.1,340,5,,10.0,30.059055,,,,TRUE,,,,,,,BKN,3000,,,,,,,MVFR,,,,,,,,,,,,SPECI,63.0
KSLE 011456Z 00000KT 10SM OVC029 00/M01 A3004 RMK AO2 SLP174 I3000 T00001006 51031,KSLE,2023-03-01T14:56:00Z,44.9,-123.0,0.0,-0.6,0,0,,10.0,30.041338,1017.4,,,TRUE,,,,,,,OVC,2900,,,,,,,MVFR,3.1,,,,,,,,,,,METAR,63.0
KSLE 011417Z AUTO 00000KT 10SM OVC029 00/M01 A3003 RMK AO2 T00001006,KSLE,2023-03-01T14:17:00Z,44.9,-123.0,0.0,-0.6,0,0,,10.0,30.029528,,,TRUE,TRUE,,,,,,,OVC,2900,,,,,,,MVFR,,,,,,,,,,,,SPECI,63.0
KSLE 011356Z AUTO 00000KT 10SM OVC030 01/M01 A3002 RMK AO2 SLP168 T00061006,KSLE,2023-03-01T13:56:00Z,44.9,-123.0,0.6,-0.6,0,0,,10.0,30.02067,1016.8,,TRUE,TRUE,,,,,,,OVC,3000,,,,,,,MVFR,,,,,,,,,,,,SPECI,63.0
KSLE 011256Z AUTO 00000KT 7SM OVC030 00/M01 A2999 RMK AO2 SLP158 I1000 T00001006,KSLE,2023-03-01T12:56:00Z,44.9,-123.0,0.0,-0.6,0,0,,7.0,29.991142,1015.8,,TRUE,TRUE,,,,,,,OVC,3000,,,,,,,MVFR,,,,,,,,,,,,METAR,63.0
KSLE 011203Z AUTO 00000KT 4SM BR OVC031 01/M01 A2995 RMK AO2 T00061006,KSLE,2023-03-01T12:03:00Z,44.9,-123.0,0.6,-0.6,0,0,,4.0,29.949802,,,TRUE,TRUE,,,,,,BR,OVC,3100,,,,,,,MVFR,,,,,,,,,,,,SPECI,63.0
KSLE 011156Z AUTO 00000KT 2 1/2SM R31/2800VP6000FT BR OVC031 00/M01 A2995 RMK AO2 SLP143 70043 I1001 I6001 T00001006 10017 21011 53024,KSLE,2023-03-01T11:56:00Z,44.9,-123.0,0.0,-0.6,0,0,,2.5,29.949802,1014.3,,TRUE,TRUE,,,,,,BR,OVC,3100,,,,,,,IFR,2.4,1.7,-1.1,,,,,,0.43,,,METAR,63.0
KSLE 011150Z AUTO 00000KT 1 1/2SM R31/2600V5500FT BR OVC031 00/M01 A2995 RMK AO2 I1000,KSLE,2023-03-01T11:50:00Z,44.9,-123.0,0.0,-1.0,0,0,,1.5,29.949802,,,TRUE,TRUE,,,,,,BR,OVC,3100,,,,,,,IFR,,,,,,,,,,,,METAR,63.0
KSLE 011129Z AUTO 00000KT 3/4SM R31/6000VP6000FT BR OVC030 M01/M01 A2994 RMK AO2 I1000 T10061011,KSLE,2023-03-01T11:29:00Z,44.9,-123.0,-0.6,-1.1,0,0,,0.75,29.940945,,,TRUE,TRUE,,,,,,BR,OVC,3000,,,,,,,LIFR,,,,,,,,,,,,SPECI,63.0
KSLE 011123Z AUTO 00000KT 1 3/4SM R31/5500VP6000FT BR OVC030 00/M01 A2994 RMK AO2 VIS 1V3 T00001006,KSLE,2023-03-01T11:23:00Z,44.9,-123.0,0.0,-0.6,0,0,,1.75,29.940945,,,TRUE,TRUE,,,,,,BR,OVC,3000,,,,,,,IFR,,,,,,,,,,,,SPECI,63.0
KSLE 011117Z AUTO 00000KT 3/4SM R31/2800VP6000FT BR OVC030 00/M01 A2994 RMK AO2 T00001006,KSLE,2023-03-01T11:17:00Z,44.9,-123.0,0.0,-0.6,0,0,,0.75,29.940945,,,TRUE,TRUE,,,,,,BR,OVC,3000,,,,,,,LIFR,,,,,,,,,,,,METAR,63.0
KSLE 011109Z AUTO 00000KT 1 1/4SM R31/3500VP6000FT BR OVC030 00/00 A2993 RMK AO2 T00000000,KSLE,2023-03-01T11:09:00Z,44.9,-123.0,0.0,0.0,0,0,,1.25,29.929134,,,TRUE,TRUE,,,,,,BR,OVC,3000,,,,,,,IFR,,,,,,,,,,,,SPECI,63.0
KSLE 011056Z AUTO 00000KT 2 1/2SM R31/4000VP6000FT BR BKN029 00/M01 A2992 RMK AO2 SLP134 T00001006,KSLE,2023-03-01T10:56:00Z,44.9,-123.0,0.0,-0.6,0,0,,2.5,29.920275,1013.4,,TRUE,TRUE,,,,,,BR,BKN,2900,,,,,,,IFR,,,,,,,,,,,,SPECI,63.0
KSLE 011027Z AUTO 00000KT 7SM OVC029 01/00 A2990 RMK AO2 T00060000,KSLE,2023-03-01T10:27:00Z,44.9,-123.0,0.6,0.0,0,0,,7.0,29.899607,,,TRUE,TRUE,,,,,,,OVC,2900,,,,,,,MVFR,,,,,,,,,,,,METAR,63.0
KSLE 010956Z AUTO 27003KT 5SM BR OVC030 01/M01 A2990 RMK AO2 SLP125 T00061006,KSLE,2023-03-01T09:56:00Z,44.9,-123.0,0.6,-0.6,270,3,,5.0,29.899607,1012.5,,TRUE,TRUE,,,,,,BR,OVC,3000,,,,,,,MVFR,,,,,,,,,,,,METAR,63.0
KSLE 010941Z AUTO 00000KT 3SM BR OVC031 01/00 A2989 RMK AO2 T00060000,KSLE,2023-03-01T09:41:00Z,44.9,-123.0,0.6,0.0,0,0,,3.0,29.890747,,,TRUE,TRUE,,,,,,BR,OVC,3100,,,,,,,MVFR,,,,,,,,,,,,METAR,63.0
KSLE 010914Z AUTO 00000KT 2SM R31/4000VP6000FT BR OVC031 00/00 A2988 RMK AO2 T00000000,KSLE,2023-03-01T09:14:00Z,44.9,-123.0,0.0,0.0,0,0,,2.0,29.878937,,,TRUE,TRUE,,,,,,BR,OVC,3100,,,,,,,IFR,,,,,,,,,,,,SPECI,63.0
KSLE 010907Z AUTO 00000KT 1 3/4SM BR FEW026 OVC033 01/00 A2988 RMK AO2 T00060000,KSLE,2023-03-01T09:07:00Z,44.9,-123.0,0.6,0.0,0,0,,1.75,29.878937,,,TRUE,TRUE,,,,,,BR,FEW,2600,OVC,3300,,,,,IFR,,,,,,,,,,,,SPECI,63.0
KSLE 010858Z AUTO 00000KT 3/4SM R31/6000VP6000FT BR SCT026 OVC033 00/00 A2988 RMK AO2 T00000000,KSLE,2023-03-01T08:58:00Z,44.9,-123.0,0.0,0.0,0,0,,0.75,29.878937,,,TRUE,TRUE,,,,,,BR,SCT,2600,OVC,3300,,,,,LIFR,,,,,,,,,,,,SPECI,63.0
KSLE 010856Z AUTO 00000KT 1SM R31/4500VP6000FT BR BKN026 OVC033 00/00 A2988 RMK AO2 SLP119 T00000000 51030,KSLE,2023-03-01T08:56:00Z,44.9,-123.0,0.0,0.0,0,0,,1.0,29.878937,1011.9,,TRUE,TRUE,,,,,,BR,BKN,2600,OVC,3300,,,,,IFR,3.0,,,,,,,,,,,METAR,63.0
KSLE 010841Z AUTO 00000KT 1 3/4SM R31/5500VP6000FT BR BKN026 BKN034 01/00 A2987 RMK AO2 VIS 1V4 T00060000,KSLE,2023-03-01T08:41:00Z,44.9,-123.0,0.6,0.0,0,0,,1.75,29.870079,,,TRUE,TRUE,,,,,,BR,BKN,2600,BKN,3400,,,,,IFR,,,,,,,,,,,,SPECI,63.0
KSLE 010756Z AUTO 00000KT 6SM BR SCT005 BKN026 OVC043 02/01 A2986 RMK AO2 SLP112 T00170006 400670000,KSLE,2023-03-01T07:56:00Z,44.9,-123.0,1.7,0.6,0,0,,6.0,29.861221,1011.2,,TRUE,TRUE,,,,,,BR,SCT,500,BKN,2600,OVC,4300,,,MVFR,,,,6.7,,,,,,,,METAR,63.0
KSLE 010656Z AUTO 00000KT 7SM BKN005 BKN023 OVC039 01/01 A2982 RMK AO2 SLP098 T00110006,KSLE,2023-03-01T06:56:00Z,44.9,-123.0,1.1,0.6,0,0,,7.0,29.819881,1009.8,,TRUE,TRUE,,,,,,,BKN,500,BKN,2300,OVC,3900,,,IFR,,,,,,,,,,,,METAR,63.0
KSLE 010608Z AUTO 03004KT 9SM SCT007 OVC023 01/01 A2979 RMK AO2 T00110006,KSLE,2023-03-01T06:08:00Z,44.9,-123.0,1.1,0.6,30,4,,9.0,29.790354,,,TRUE,TRUE,,,,,,,SCT,700,OVC,2300,,,,,MVFR,,,,,,,,,,,,METAR,63.0
KSLE 010556Z AUTO 01004KT 9SM BKN007 BKN024 OVC029 01/01 A2979 RMK AO2 SLP088 60022 T00110006 10044 20000 53029,KSLE,2023-03-01T05:56:00Z,44.9,-123.0,1.1,0.6,10,4,,9.0,29.790354,1008.8,,TRUE,TRUE,,,,,,,BKN,700,BKN,2400,OVC,2900,,,IFR,2.9,4.4,0.0,,,,,,,,,SPECI,63.0
KSLE 010503Z AUTO 02004KT 8SM BKN006 BKN037 OVC044 01/01 A2975 RMK AO2 CIG 005V009 T00110006,KSLE,2023-03-01T05:03:00Z,44.9,-123.0,1.1,0.6,20,4,,8.0,29.749016,,,TRUE,TRUE,,,,,,,BKN,600,BKN,3700,OVC,4400,,,IFR,,,,,,,,,,,,SPECI,63.0
KSLE 010456Z AUTO 02003KT 2SM BR BKN006 BKN025 BKN034 01/01 A2975 RMK AO2 SLP076 T00110006,KSLE,2023-03-01T04:56:00Z,44.9,-123.0,1.1,0.6,20,3,,2.0,29.749016,1007.6,,TRUE,TRUE,,,,,,BR,BKN,600,BKN,2500,BKN,3400,,,IFR,,,,,,,,,,,,METAR,63.0
KSLE 010356Z 36003KT 2SM BR OVC006 01/00 A2972 RMK AO2 UPB05E17SNE02B17E37 SLP067 P0003 T00060000,KSLE,2023-03-01T03:56:00Z,44.9,-123.0,0.6,0.0,360,3,,2.0,29.719488,1006.7,,,TRUE,,,,,,BR,OVC,600,,,,,,,IFR,,,,,,0.03,,,,,,METAR,63.0
KSLE 010303Z 00000KT 2SM BR BKN004 BKN011 OVC016 01/00 A2970 RMK AO2 SNE02 P0000 T00060000,KSLE,2023-03-01T03:03:00Z,44.9,-123.0,0.6,0.0,0,0,,2.0,29.698818,,,,TRUE,,,,,,BR,BKN,400,BKN,1100,OVC,1600,,,LIFR,,,,,,0.005,,,,,,SPECI,63.0
KSLE 010253Z COR 00000KT 2SM -SN BR BKN004 BKN014 OVC020 00/00 A2970 RMK AO2 SLP059 P0013 60019 T00000000 53031,KSLE,2023-03-01T02:53:00Z,44.9,-123.0,0.0,0.0,0,0,,2.0,29.698818,1005.9,TRUE,,TRUE,,,,,,-SN BR,BKN,400,BKN,1400,OVC,2000,,,LIFR,3.1,,,,,0.13,,,,,,SPECI,63.0
KSLE 010252Z 32003KT 3SM -SN BR FEW004 BKN014 OVC020 00/00 A2970 RMK AO2 P0013,KSLE,2023-03-01T02:52:00Z,44.9,-123.0,0.0,0.0,320,3,,3.0,29.698818,,,,TRUE,,,,,,-SN BR,FEW,400,BKN,1400,OVC,2000,,,MVFR,,,,,,0.13,,,,,,METAR,63.0
KSLE 010246Z 00000KT 1SM R31/P6000FT -SN BR FEW003 BKN014 OVC020 00/00 A2970 RMK AO2 P0012 T00000000,KSLE,2023-03-01T02:46:00Z,44.9,-123.0,0.0,0.0,0,0,,1.0,29.698818,,,,TRUE,,,,,,-SN BR,FEW,300,BKN,1400,OVC,2000,,,IFR,,,,,,0.12,,,,,,SPECI,63.0
KSLE 010237Z 35004KT 1 1/2SM R31/5500VP6000FT -SN BR FEW003 OVC008 00/M01 A2969 RMK AO2 P0012 T00001006,KSLE,2023-03-01T02:37:00Z,44.9,-123.0,0.0,-0.6,350,4,,1.5,29.68996,,,,TRUE,,,,,,-SN BR,FEW,300,OVC,800,,,,,IFR,,,,,,0.12,,,,,,SPECI,63.0
KSLE 010228Z 35003KT 1SM R31/6000VP6000FT -SN BR FEW004 OVC008 00/M01 A2969 RMK AO2 P0011 T00001006,KSLE,2023-03-01T02:28:00Z,44.9,-123.0,0.0,-0.6,350,3,,1.0,29.68996,,,,TRUE,,,,,,-SN BR,FEW,400,OVC,800,,,,,IFR,,,,,,0.11,,,,,,METAR,63.0
KSLE 010220Z 00000KT 1 1/4SM R31/5500VP6000FT -SN BR FEW004 OVC010 01/00 A2968 RMK AO2 P0009 T00060000,KSLE,2023-03-01T02:20:00Z,44.9,-123.0,0.6,0.0,0,0,,1.25,29.681103,,,,TRUE,,,,,,-SN BR,FEW,400,OVC,1000,,,,,IFR,,,,,,0.09,,,,,,SPECI,63.0
KSLE 010215Z 00000KT 1 1/2SM -SN BR OVC010 01/M01 A2968 RMK AO2 P0008 T00061006,KSLE,2023-03-01T02:15:00Z,44.9,-123.0,0.6,-0.6,0,0,,1.5,29.681103,,,,TRUE,,,,,,-SN BR,OVC,1000,,,,,,,IFR,,,,,,0.08,,,,,,METAR,63.0
KSLE 010204Z 16003KT 1 1/4SM R31/6000VP6000FT -SN BR OVC010 01/M01 A2967 RMK AO2 P0003 T00061006,KSLE,2023-03-01T02:04:00Z,44.9,-123.0,0.6,-0.6,160,3,,1.25,29.66929,,,,TRUE,,,,,,-SN BR,OVC,1000,,,,,,,IFR,,,,,,0.03,,,,,,SPECI,63.0
KSLE 010158Z 00000KT 1 3/4SM -SN BR BKN008 OVC013 01/01 A2967 RMK AO2 P0001 T00110006,KSLE,2023-03-01T01:58:00Z,44.9,-123.0,1.1,0.6,0,0,,1.75,29.66929,,,,TRUE,,,,,,-SN BR,BKN,800,OVC,1300,,,,,IFR,,,,,,0.01,,,,,,METAR,63.0
KSLE 010156Z 00000KT 2SM -SN BR BKN010 OVC015 01/01 A2967 RMK AO2 RAE07B18E48UPB07E10B37E38SNB48 SLP048 P0001 T00110006,KSLE,2023-03-01T01:56:00Z,44.9,-123.0,1.1,0.6,0,0,,2.0,29.66929,1004.8,,,TRUE,,,,,,-SN BR,BKN,1000,OVC,1500,,,,,IFR,,,,,,0.01,,,,,,METAR,63.0
KSLE 010152Z 00000KT 2SM -SN BR BKN012 OVC021 01/01 A2967 RMK AO2 RAE07B18E48UPB07E10B37E38SNB48 P0001,KSLE,2023-03-01T01:52:00Z,44.9,-123.0,1.0,1.0,0,0,,2.0,29.66929,,,,TRUE,,,,,,-SN BR,BKN,1200,OVC,2100,,,,,IFR,,,,,,0.01,,,,,,METAR,63.0
KSLE 010109Z 13005KT 4SM UP BR BKN024 OVC055 02/01 A2964 RMK AO2 RAE07UPB07 P0000 T00170006,KSLE,2023-03-01T01:09:00Z,44.9,-123.0,1.7,0.6,130,5,,4.0,29.639763,,,,TRUE,,,,,,BR UP,BKN,2400,OVC,5500,,,,,MVFR,,,,,,0.005,,,,,,SPECI,63.0
KSLE 010058Z 18005KT 2SM -RA BR OVC015 02/01 A2964 RMK AO2 P0000 T00170006,KSLE,2023-03-01T00:58:00Z,44.9,-123.0,1.7,0.6,180,5,,2.0,29.639763,,,,TRUE,,,,,,-RA BR,OVC,1500,,,,,,,IFR,,,,,,0.005,,,,,,METAR,63.0
KSLE 010056Z 17005KT 2 1/2SM -RA BR OVC013 01/01 A2964 RMK AO2 RAB24E30B50SNB30E50 SLP038 P0005 T00110006,KSLE,2023-03-01T00:56:00Z,44.9,-123.0,1.1,0.6,170,5,,2.5,29.639763,1003.8,,,TRUE,,,,,,-RA BR,OVC,1300,,,,,,,IFR,,,,,,0.05,,,,,,METAR,63.0
KSLE 010025Z 26011KT 2SM -RA BKN019 BKN033 OVC065 03/00 A2963 RMK AO2 RAB24 P0000 T00280000,KSLE,2023-03-01T00:25:00Z,44.9,-123.0,2.8,0.0,260,11,,2.0,29.630905,,,,TRUE,,,,,,-RA,BKN,1900,BKN,3300,OVC,6500,,,IFR,,,,,,0.005,,,,,,SPECI,63.0
KSLE 010003Z VRB05KT 10SM FEW016 SCT065 BKN085 04/01 A2961 RMK AO2 T00440011,KSLE,2023-03-01T00:03:00Z,44.9,-123.0,4.4,1.1,0,5,,10.0,29.610237,,,,TRUE,,,,,,,FEW,1600,SCT,6500,BKN,8500,,,VFR,,,,,,,,,,,,SPECI,63.0
KSLE 282356Z 16007KT 10SM BKN021 05/02 A2961 RMK AO2 SLP027 60000 T00500017 10067 20017 53010,KSLE,2023-02-28T23:56:00Z,44.9,-123.0,5.0,1.7,160,7,,10.0,29.610237,1002.7,,,TRUE,,,,,,,BKN,2100,,,,,,,MVFR,1.0,6.7,1.7,,,,,0.005,,,,METAR,63.0
KSLE 282256Z 19009KT 10SM BKN021 03/01 A2960 RMK AO2 SLP023 T00280006,KSLE,2023-02-28T22:56:00Z,44.9,-123.0,2.8,0.6,190,9,,10.0,29.601377,1002.3,,,TRUE,,,,,,,BKN,2100,,,,,,,MVFR,,,,,,,,,,,,METAR,63.0
KSLE 282156Z 18009KT 10SM BR SCT009 BKN016 BKN023 04/01 A2958 RMK AO2 SLP017 T00390011,KSLE,2023-02-28T21:56:00Z,44.9,-123.0,3.9,1.1,180,9,,10.0,29.58071,1001.7,,,TRUE,,,,,,BR,SCT,900,BKN,1600,BKN,2300,,,MVFR,,,,,,,,,,,,METAR,63.0
KSLE 282056Z 19011KT 6SM BR SCT009 BKN023 OVC032 06/02 A2958 RMK AO2 RAB39E50 SLP017 P0000 60000 T00610017 53009,KSLE,2023-02-28T20:56:00Z,44.9,-123.0,6.1,1.7,190,11,,6.0,29.58071,1001.7,,,TRUE,,,,,,BR,SCT,900,BKN,2300,OVC,3200,,,MVFR,0.9,,,,,0.005,0.005,,,,,METAR,63.0
KSLE 282003Z 19013G19KT 8SM BKN012 BKN060 BKN095 06/03 A2957 RMK AO2 T00560028,KSLE,2023-02-28T20:03:00Z,44.9,-123.0,5.6,2.8,190,13,19,8.0,29.568897,,,,TRUE,,,,,,,BKN,1200,BKN,6000,BKN,9500,,,MVFR,,,,,,,,,,,,METAR,63.0
KSLE 281956Z 19012KT 10SM SCT012 BKN060 BKN095 06/03 A2957 RMK AO2 SLP013 T00560028,KSLE,2023-02-28T19:56:00Z,44.9,-123.0,5.6,2.8,190,12,,10.0,29.568897,1001.3,,,TRUE,,,,,,,SCT,1200,BKN,6000,BKN,9500,,,VFR,,,,,,,,,,,,METAR,63.0
KSLE 281856Z 18012KT 8SM SCT008 BKN042 BKN060 02/01 A2956 RMK AO2 SLP011 T00220006,KSLE,2023-02-28T18:56:00Z,44.9,-123.0,2.2,0.6,180,12,,8.0,29.56004,1001.1,,,TRUE,,,,,,,SCT,800,BKN,4200,BKN,6000,,,VFR,,,,,,,,,,,,METAR,63.0
KSLE 281756Z 18010KT 6SM BR OVC008 02/00 A2955 RMK AO2 SNE06 SLP008 P0001 60021 T00170000 10022 20000 53006,KSLE,2023-02-28T17:56:00Z,44.9,-123.0,1.7,0.0,180,10,,6.0,29.551182,1000.8,,,TRUE,,,,,,BR,OVC,800,,,,,,,IFR,0.6,2.2,0.0,,,0.01,,,,,,SPECI,63.0
KSLE 281716Z 13005KT 1SM R31/P6000FT BR BKN008 OVC012 01/00 A2954 RMK AO2 SNE06 P0000 T00060000,KSLE,2023-02-28T17:16:00Z,44.9,-123.0,0.6,0.0,130,5,,1.0,29.53937,,,,TRUE,,,,,,BR,BKN,800,OVC,1200,,,,,IFR,,,,,,0.005,,,,,,SPECI,63.0
KSLE 281705Z 13004KT 1SM R31/P6000FT -SN BR SCT005 OVC011 01/00 A2954 RMK AO2 P0000 T00060000,KSLE,2023-02-28T17:05:00Z,44.9,-123.0,0.6,0.0,130,4,,1.0,29.53937,,,,TRUE,,,,,,-SN BR,SCT,500,OVC,1100,,,,,IFR,,,,,,0.005,,,,,,SPECI,63.0
KSLE 281701Z 12004KT 2SM -SN BR BKN005 OVC013 01/00 A2954 RMK AO2 P0000 T00060000,KSLE,2023-02-28T17:01:00Z,44.9,-123.0,0.6,0.0,120,4,,2.0,29.53937,,,,TRUE,,,,,,-SN BR,BKN,500,OVC,1300,,,,,IFR,,,,,,0.005,,,,,,METAR,63.0
KSLE 281656Z 00000KT 1SM R31/P6000FT -SN BR FEW005 BKN009 OVC013 01/00 A2954 RMK AO2 SLP005 P0003 T00060000,KSLE,2023-02-28T16:56:00Z,44.9,-123.0,0.6,0.0,0,0,,1.0,29.53937,1000.5,,,TRUE,,,,,,-SN BR,FEW,500,BKN,900,OVC,1300,,,IFR,,,,,,0.03,,,,,,METAR,63.0
KSLE 281606Z 00000KT 1 1/4SM R31/5000VP6000FT -SN BR FEW005 BKN009 OVC013 01/00 A2953 RMK AO2 P0000 T00060000,KSLE,2023-02-28T16:06:00Z,44.9,-123.0,0.6,0.0,0,0,,1.25,29.530512,,,,TRUE,,,,,,-SN BR,FEW,500,BKN,900,OVC,1300,,,IFR,,,,,,0.005,,,,,,SPECI,63.0
KSLE 281556Z 00000KT 2SM -SN BR FEW007 OVC013 01/M01 A2953 RMK AO2 SLP002 P0007 T00061006,KSLE,2023-02-28T15:56:00Z,44.9,-123.0,0.6,-0.6,0,0,,2.0,29.530512,1000.2,,,TRUE,,,,,,-SN BR,FEW,700,OVC,1300,,,,,IFR,,,,,,0.07,,,,,,SPECI,63.0
KSLE 281549Z 11003KT 1SM R31/5500VP6000FT -SN BR SCT007 OVC011 00/M01 A2953 RMK AO2 P0006 T00001006,KSLE,2023-02-28T15:49:00Z,44.9,-123.0,0.0,-0.6,110,3,,1.0,29.530512,,,,TRUE,,,,,,-SN BR,SCT,700,OVC,1100,,,,,IFR,,,,,,0.06,,,,,,SPECI,63.0
KSLE 281512Z 10003KT 3/4SM R31/4500V5500FT -SN BR VV009 01/M01 A2953 RMK AO2 P0002 T00061006,KSLE,2023-02-28T15:12:00Z,44.9,-123.0,0.6,-0.6,100,3,,0.75,29.530512,,,,TRUE,,,,,,-SN BR,OVX,0,,,,,,,LIFR,,,,,,0.02,,,,,900,SPECI,63.0
KSLE 281456Z 10004KT 1SM R31/4500VP6000FT -SN BR VV010 00/M01 A2953 RMK AO2 SLP002 P0008 60010 T00001006 56010,KSLE,2023-02-28T14:56:00Z,44.9,-123.0,0.0,-0.6,100,4,,1.0,29.530512,1000.2,,,TRUE,,,,,,-SN BR,OVX,0,,,,,,,LIFR,-1.0,,,,,0.08,0.1,,,,1000,METAR,63.0
KSLE 281447Z AUTO 12005KT 1 1/4SM -SN BR OVC011 00/M01 A2953 RMK AO2 P0007 T00001006,KSLE,2023-02-28T14:47:00Z,44.9,-123.0,0.0,-0.6,120,5,,1.25,29.530512,,,TRUE,TRUE,,,,,,-SN BR,OVC,1100,,,,,,,IFR,,,,,,0.07,,,,,,SPECI,63.0
KSLE 281437Z AUTO 13004KT 1 1/2SM -SN BR OVC011 01/M01 A2954 RMK AO2 P0006 T00061006,KSLE,2023-02-28T14:37:00Z,44.9,-123.0,0.6,-0.6,130,4,,1.5,29.53937,,,TRUE,TRUE,,,,,,-SN BR,OVC,1100,,,,,,,IFR,,,,,,0.06,,,,,,SPECI,63.0
KSLE 281425Z AUTO 14004KT 1 1/4SM -SN BR OVC011 01/M01 A2954 RMK AO2 P0004 T00061006,KSLE,2023-02-28T14:25:00Z,44.9,-123.0,0.6,-0.6,140,4,,1.25,29.53937,,,TRUE,TRUE,,,,,,-SN BR,OVC,1100,,,,,,,IFR,,,,,,0.04,,,,,,SPECI,63.0
KSLE 281407Z AUTO 14004KT 2 1/2SM -SN BR OVC014 01/00 A2954 RMK AO2 P0001 T00060000,KSLE,2023-02-28T14:07:00Z,44.9,-123.0,0.6,0.0,140,4,,2.5,29.53937,,,TRUE,TRUE,,,,,,-SN BR,OVC,1400,,,,,,,IFR,,,,,,0.01,,,,,,SPECI,63.0
KSLE 281356Z AUTO 14006KT 4SM -SN BR FEW011 OVC017 01/00 A2954 RMK AO2 RAB03E33UPB12E15SNB33 SLP005 P0002 T00110000,KSLE,2023-02-28T13:56:00Z,44.9,-123.0,1.1,0.0,140,6,,4.0,29.53937,1000.5,,TRUE,TRUE,,,,,,-SN BR,FEW,1100,OVC,1700,,,,,MVFR,,,,,,0.02,,,,,,METAR,63.0
KSLE 281318Z AUTO 16008KT 10SM -RA FEW018 OVC026 02/00 A2954 RMK AO2 RAB03UPB12E15 P0000 T00170000,KSLE,2023-02-28T13:18:00Z,44.9,-123.0,1.7,0.0,160,8,,10.0,29.53937,,,TRUE,TRUE,,,,,,-RA,FEW,1800,OVC,2600,,,,,MVFR,,,,,,0.005,,,,,,METAR,63.0
KSLE 281256Z AUTO 16010KT 10SM SCT018 OVC036 02/00 A2955 RMK AO2 UPB17E23B33E44SNB23E33 SLP005 P0000 T00220000,KSLE,2023-02-28T12:56:00Z,44.9,-123.0,2.2,0.0,160,10,,10.0,29.551182,1000.5,,TRUE,TRUE,,,,,,,SCT,1800,OVC,3600,,,,,VFR,,,,,,0.005,,,,,,METAR,63.0
KSLE 281232Z AUTO 15009KT 9SM -SN FEW015 BKN027 OVC043 02/00 A2955 RMK AO2 UPB17E23SNB23 P0000 T00220000,KSLE,2023-02-28T12:32:00Z,44.9,-123.0,2.2,0.0,150,9,,9.0,29.551182,,,TRUE,TRUE,,,,,,-SN,FEW,1500,BKN,2700,OVC,4300,,,MVFR,,,,,,0.005,,,,,,METAR,63.0
KSLE 281156Z AUTO 17010KT 10SM BKN043 BKN050 02/00 A2956 RMK AO2 UPB07E22RAB09E18 SLP011 P0000 60005 70013 T00220000 10028 20011 50002,KSLE,2023-02-28T11:56:00Z,44.9,-123.0,2.2,0.0,170,10,,10.0,29.56004,1001.1,,TRUE,TRUE,,,,,,,BKN,4300,BKN,5000,,,,,VFR,0.2,2.8,1.1,,,0.005,,0.05,0.13,,,METAR,63.0
KSLE 281056Z AUTO 18012KT 10SM SCT060 02/01 A2958 RMK AO2 SLP016 T00220006,KSLE,2023-02-28T10:56:00Z,44.9,-123.0,2.2,0.6,180,12,,10.0,29.58071,1001.6,,TRUE,TRUE,,,,,,,SCT,6000,,,,,,,VFR,,,,,,,,,,,,METAR,63.0
KSLE 280956Z AUTO 17009KT 10SM SCT026 BKN090 BKN110 02/00 A2957 RMK AO2 UPB23E25B48E53RAB25E35B46E48SNB35E46 SLP014 P0002 T00170000,KSLE,2023-02-28T09:56:00Z,44.9,-123.0,1.7,0.0,170,9,,10.0,29.568897,1001.4,,TRUE,TRUE,,,,,,,SCT,2600,BKN,9000,BKN,11000,,,VFR,,,,,,0.02,,,,,,SPECI,63.0
KSLE 280939Z AUTO 24009KT 8SM -SN BKN020 BKN030 OVC040 02/00 A2957 RMK AO2 UPB23E25RAB25E35SNB35 P0001 T00220000,KSLE,2023-02-28T09:39:00Z,44.9,-123.0,2.2,0.0,240,9,,8.0,29.568897,,,TRUE,TRUE,,,,,,-SN,BKN,2000,BKN,3000,OVC,4000,,,MVFR,,,,,,0.01,,,,,,SPECI,63.0
KSLE 280856Z AUTO 19011KT 10SM SCT070 OVC100 03/01 A2956 RMK AO2 UPB14E30RAB18E26 SLP009 P0000 60003 T00280006 51031,KSLE,2023-02-28T08:56:00Z,44.9,-123.0,2.8,0.6,190,11,,10.0,29.56004,1000.9,,TRUE,TRUE,,,,,,,SCT,7000,OVC,10000,,,,,VFR,3.1,,,,,0.005,0.03,,,,,METAR,63.0
KSLE 280756Z AUTO 17010KT 10SM FEW027 BKN036 BKN047 02/01 A2953 RMK AO2 UPB02E11B35E44RAB11E56 SLP999 P0001 T00170006 400890011,KSLE,2023-02-28T07:56:00Z,44.9,-123.0,1.7,0.6,170,10,,10.0,29.530512,999.9,,TRUE,TRUE,,,,,,,FEW,2700,BKN,3600,BKN,4700,,,VFR,,,,8.9,1.1,0.01,,,,,,METAR,63.0
KSLE 280707Z AUTO 18008KT 10SM UP SCT007 OVC043 02/00 A2951 RMK AO2 UPB02 P0000 T00170000,KSLE,2023-02-28T07:07:00Z,44.9,-123.0,1.7,0.0,180,8,,10.0,29.509842,,,TRUE,TRUE,,,,,,UP,SCT,700,OVC,4300,,,,,VFR,,,,,,0.005,,,,,,SPECI,63.0
KSLE 280656Z AUTO 17009KT 10SM BKN007 BKN049 01/00 A2951 RMK AO2 RAE14B39E40UPB14E39 SLP993 P0002 T00110000,KSLE,2023-02-28T06:56:00Z,44.9,-123.0,1.1,0.0,170,9,,10.0,29.509842,999.3,,TRUE,TRUE,,,,,,,BKN,700,BKN,4900,,,,,IFR,,,,,,0.02,,,,,,METAR,63.0
KSLE 280645Z AUTO 17009KT 10SM BKN007 BKN026 01/00 A2950 RMK AO2 RAE14B39E40UPB14E39 P0002 T00110000,KSLE,2023-02-28T06:45:00Z,44.9,-123.0,1.1,0.0,170,9,,10.0,29.500984,,,TRUE,TRUE,,,,,,,BKN,700,BKN,2600,,,,,IFR,,,,,,0.02,,,,,,SPECI,63.0
KSLE 280632Z AUTO 17008KT 10SM UP SCT008 BKN026 OVC034 02/00 A2949 RMK AO2 RAE14UPB14 P0002 T00170000,KSLE,2023-02-28T06:32:00Z,44.9,-123.0,1.7,0.0,170,8,,10.0,29.489174,,,TRUE,TRUE,,,,,,UP,SCT,800,BKN,2600,OVC,3400,,,MVFR,,,,,,0.02,,,,,,SPECI,63.0
KSLE 280556Z AUTO 17012KT 6SM RA BR SCT012 OVC016 02/01 A2946 RMK AO2 UPB41E44RAB44 SLP979 P0002 60003 T00170006 10072 20017 53017,KSLE,2023-02-28T05:56:00Z,44.9,-123.0,1.7,0.6,170,12,,6.0,29.459646,997.9,,TRUE,TRUE,,,,,,RA BR,SCT,1200,OVC,1600,,,,,MVFR,1.7,7.2,1.7,,,0.02,,0.03,,,,METAR,63.0
KSLE 280456Z AUTO 18016G21KT 10SM OVC011 03/01 A2944 RMK AO2 SLP970 T00330011,KSLE,2023-02-28T04:56:00Z,44.9,-123.0,3.3,1.1,180,16,21,10.0,29.438976,997.0,,TRUE,TRUE,,,,,,,OVC,1100,,,,,,,MVFR,,,,,,,,,,,,METAR,63.0
KSLE 280356Z 18014G24KT 10SM BKN015 BKN037 BKN110 03/01 A2942 RMK AO2 RAE17 SLP965 P0000 T00280006,KSLE,2023-02-28T03:56:00Z,44.9,-123.0,2.8,0.6,180,14,24,10.0,29.421259,996.5,,,TRUE,,,,,,,BKN,1500,BKN,3700,BKN,11000,,,MVFR,,,,,,0.005,,,,,,METAR,63.0
KSLE 280256Z 19013G20KT 2 1/2SM -RA OVC023 04/01 A2941 RMK AO2 RAB33 SLP961 P0001 60001 T00440011 53004,KSLE,2023-02-28T02:56:00Z,44.9,-123.0,4.4,1.1,190,13,20,2.5,29.409449,996.1,,,TRUE,,,,,,-RA,OVC,2300,,,,,,,IFR,0.4,,,,,0.01,0.01,,,,,METAR,63.0
KSLE 280240Z 19010G22KT 10SM -RA BKN026 OVC034 05/01 A2941 RMK AO2 RAB33 P0000 T00500006,KSLE,2023-02-28T02:40:00Z,44.9,-123.0,5.0,0.6,190,10,22,10.0,29.409449,,,,TRUE,,,,,,-RA,BKN,2600,OVC,3400,,,,,MVFR,,,,,,0.005,,,,,,SPECI,63.0
KSLE 280156Z 18011G20KT 10SM BKN075 BKN090 06/01 A2940 RMK AO2 SLP955 T00560006,KSLE,2023-02-28T01:56:00Z,44.9,-123.0,5.6,0.6,180,11,20,10.0,29.40059,995.5,,,TRUE,,,,,,,BKN,7500,BKN,9000,,,,,VFR,,,,,,,,,,,,METAR,63.0
KSLE 280105Z 19011G17KT 10SM FEW021 BKN026 OVC039 06/02 A2939 RMK AO2 T00560017,KSLE,2023-02-28T01:05:00Z,44.9,-123.0,5.6,1.7,190,11,17,10.0,29.388779,,,,TRUE,,,,,,,FEW,2100,BKN,2600,OVC,3900,,,MVFR,,,,,,,,,,,,METAR,63.0
KSLE 280056Z COR 15010KT 10SM BKN023 BKN030 OVC043 05/02 A2939 RMK AO2 RAB34E53 SLP954 P0000 T00500017,KSLE,2023-02-28T00:56:00Z,44.9,-123.0,5.0,1.7,150,10,,10.0,29.388779,995.4,TRUE,,TRUE,,,,,,,BKN,2300,BKN,3000,OVC,4300,,,MVFR,,,,,,0.005,,,,,,METAR,63.0
KSLE 272356Z 18014KT 10SM BKN034 07/01 A2940 RMK AO2 SLP957 60005 T00720006 10089 20033 56020,KSLE,2023-02-27T23:56:00Z,44.9,-123.0,7.2,0.6,180,14,,10.0,29.40059,995.7,,,TRUE,,,,,,,BKN,3400,,,,,,,VFR,-2.0,8.9,3.3,,,,,,,,,SPECI,63.0
KSLE 272256Z 20014G22KT 10SM BKN020 BKN050 BKN060 08/M01 A2941 RMK AO2 RAB02E14 SLP959 P0000 T00831006,KSLE,2023-02-27T22:56:00Z,44.9,-123.0,8.3,-0.6,200,14,22,10.0,29.409449,995.9,,,TRUE,,,,,,,BKN,2000,BKN,5000,BKN,6000,,,MVFR,,,,,,0.005,,,,,,SPECI,63.0
KSLE 272156Z 17011G19KT 6SM HZ BKN020 BKN041 OVC050 07/01 A2943 RMK AO2 PK WND 18026/2119 SLP968 T00720011,KSLE,2023-02-27T21:56:00Z,44.9,-123.0,7.2,1.1,170,11,19,6.0,29.430119,996.8,,,TRUE,,,,,,HZ,BKN,2000,BKN,4100,OVC,5000,,,MVFR,,,,,,,,,,,,METAR,63.0
KSLE 272056Z 19014G22KT 10SM FEW024 BKN033 OVC090 08/01 A2946 RMK AO2 SLP977 60005 T00780011 58022,KSLE,2023-02-27T20:56:00Z,44.9,-123.0,7.8,1.1,190,14,22,10.0,29.459646,997.7,,,TRUE,,,,,,,FEW,2400,BKN,3300,OVC,9000,,,VFR,-2.2,,,,,,0.05,,,,,METAR,63.0
KSLE 271956Z 17009KT 6SM BR FEW024 BKN033 OVC080 06/03 A2950 RMK AO2 RAE44 SLP989 P0005 T00560033,KSLE,2023-02-27T19:56:00Z,44.9,-123.0,5.6,3.3,170,9,,6.0,29.500984,998.9,,,TRUE,,,,,,BR,FEW,2400,BKN,3300,OVC,8000,,,VFR,,,,,,0.05,,,,,,METAR,63.0
KSLE 271932Z 15008KT 6SM -RA BR FEW016 OVC022 04/02 A2952 RMK AO2 P0004 T00390017,KSLE,2023-02-27T19:32:00Z,44.9,-123.0,3.9,1.7,150,8,,6.0,29.518702,,,,TRUE,,,,,,-RA BR,FEW,1600,OVC,2200,,,,,MVFR,,,,,,0.04,,,,,,SPECI,63.0
KSLE 271856Z 16010KT 10SM -RA SCT028 OVC034 05/01 A2952 RMK AO2 RAE09B37 SLP997 P0000 T00500011,KSLE,2023-02-27T18:56:00Z,44.9,-123.0,5.0,1.1,160,10,,10.0,29.518702,999.7,,,TRUE,,,,,,-RA,SCT,2800,OVC,3400,,,,,VFR,,,,,,0.005,,,,,,METAR,63.0
KSLE 271756Z 17009KT 10SM -RA BKN046 OVC060 03/01 A2953 RMK AO2 RAB32 SLP001 P0000 60000 T00330011 10050 20011 56001,KSLE,2023-02-27T17:56:00Z,44.9,-123.0,3.3,1.1,170,9,,10.0,29.530512,1000.1,,,TRUE,,,,,,-RA,BKN,4600,OVC,6000,,,,,VFR,-0.1,5.0,1.1,,,0.005,,0.005,,,,METAR,63.0
KSLE 271656Z 18013KT 10SM OVC040 04/M01 A2953 RMK AO2 SLP001 T00441006,KSLE,2023-02-27T16:56:00Z,44.9,-123.0,4.4,-0.6,180,13,,10.0,29.530512,1000.1,,,TRUE,,,,,,,OVC,4000,,,,,,,VFR,,,,,,,,,,,,METAR,63.0
KSLE 271556Z 19011KT 6SM HZ FEW010 BKN034 OVC080 04/M01 A2953 RMK AO2 SLP001 T00391006,KSLE,2023-02-27T15:56:00Z,44.9,-123.0,3.9,-0.6,190,11,,6.0,29.530512,1000.1,,,TRUE,,,,,,HZ,FEW,1000,BKN,3400,OVC,8000,,,VFR,,,,,,,,,,,,METAR,63.0
KSLE 271456Z 18013KT 10SM OVC034 04/M01 A2953 RMK AO2 SLP001 T00391011 56017,KSLE,2023-02-27T14:56:00Z,44.9,-123.0,3.9,-1.1,180,13,,10.0,29.530512,1000.1,,,TRUE,,,,,,,OVC,3400,,,,,,,VFR,-1.7,,,,,,,,,,,METAR,63.0
KSLE 271356Z AUTO 19016G33KT 10SM BKN047 OVC055 04/M01 A2955 RMK AO2 PK WND 20033/1350 SLP007 T00441011,KSLE,2023-02-27T13:56:00Z,44.9,-123.0,4.4,-1.1,190,16,33,10.0,29.551182,1000.7,,TRUE,TRUE,,,,,,,BKN,4700,OVC,5500,,,,,VFR,,,,,,,,,,,,METAR,63.0
KSLE 271256Z AUTO 17005KT 10SM OVC060 03/M01 A2955 RMK AO2 SLP008 T00281011,KSLE,2023-02-27T12:56:00Z,44.9,-123.0,2.8,-1.1,170,5,,10.0,29.551182,1000.8,,TRUE,TRUE,,,,,,,OVC,6000,,,,,,,VFR,,,,,,,,,,,,METAR,63.0
KSLE 271156Z AUTO 13004KT 10SM BKN075 BKN090 01/M01 A2958 RMK AO2 SLP019 60000 70028 T00111006 10028 20011 58041,KSLE,2023-02-27T11:56:00Z,44.9,-123.0,1.1,-0.6,130,4,,10.0,29.58071,1001.9,,TRUE,TRUE,,,,,,,BKN,7500,BKN,9000,,,,,VFR,-4.1,2.8,1.1,,,,,,0.28,,,SPECI,63.0
KSLE 271056Z AUTO 00000KT 10SM FEW070 SCT120 02/00 A2963 RMK AO2 SLP035 T00170000,KSLE,2023-02-27T10:56:00Z,44.9,-123.0,1.7,0.0,0,0,,10.0,29.630905,1003.5,,TRUE,TRUE,,,,,,,FEW,7000,SCT,12000,,,,,VFR,,,,,,,,,,,,METAR,63.0
KSLE 270956Z AUTO 16006KT 10SM SCT065 OVC100 03/00 A2968 RMK AO2 SLP050 T00280000,KSLE,2023-02-27T09:56:00Z,44.9,-123.0,2.8,0.0,160,6,,10.0,29.681103,1005.0,,TRUE,TRUE,,,,,,,SCT,6500,OVC,10000,,,,,VFR,,,,,,,,,,,,METAR,63.0
KSLE 270856Z AUTO 15005KT 10SM FEW047 BKN055 BKN110 02/01 A2970 RMK AO2 SLP060 60000 T00170006 58023,KSLE,2023-02-27T08:56:00Z,44.9,-123.0,1.7,0.6,150,5,,10.0,29.698818,1006.0,,TRUE,TRUE,,,,,,,FEW,4700,BKN,5500,BKN,11000,,,VFR,-2.3,,,,,,,,,,,SPECI,63.0
KSLE 270756Z AUTO 17005KT 10SM OVC048 03/01 A2974 RMK AO2 UPB42E44RAB44E56 SLP072 P0000 T00280011 400610011,KSLE,2023-02-27T07:56:00Z,44.9,-123.0,2.8,1.1,170,5,,10.0,29.740158,1007.2,,TRUE,TRUE,,,,,,,OVC,4800,,,,,,,VFR,,,,6.1,1.1,0.005,,,,,,METAR,63.0
KSLE 270656Z AUTO 15009KT 10SM FEW034 OVC050 03/01 A2976 RMK AO2 UPB10E30RAB14E28 SLP079 P0000 T00280011,KSLE,2023-02-27T06:56:00Z,44.9,-123.0,2.8,1.1,150,9,,10.0,29.760826,1007.9,,TRUE,TRUE,,,,,,,FEW,3400,OVC,5000,,,,,VFR,,,,,,0.005,,,,,,METAR,63.0
KSLE 270556Z AUTO 16011KT 10SM FEW015 BKN085 OVC110 03/01 A2977 RMK AO2 RAE20B50E51UPB07E11B38E50 SLP084 P0001 60008 T00280011 10061 20011 58007,KSLE,2023-02-27T05:56:00Z,44.9,-123.0,2.8,1.1,160,11,,10.0,29.769686,1008.4,,TRUE,TRUE,,,,,,,FEW,1500,BKN,8500,OVC,11000,,,VFR,-0.7,6.1,1.1,,,0.01,,0.08,,,,METAR,63.0
KSLE 270541Z AUTO 18009KT 10SM UP SCT013 BKN030 OVC080 03/01 A2978 RMK AO2 RAE20UPB07E11B38 P0001 T00280011,KSLE,2023-02-27T05:41:00Z,44.9,-123.0,2.8,1.1,180,9,,10.0,29.778543,,,TRUE,TRUE,,,,,,UP,SCT,1300,BKN,3000,OVC,8000,,,MVFR,,,,,,0.01,,,,,,METAR,63.0
KSLE 270520Z AUTO 16006KT 10SM BKN013 OVC025 02/01 A2979 RMK AO2 RAE20UPB07E11 P0001 T00170006,KSLE,2023-02-27T05:20:00Z,44.9,-123.0,1.7,0.6,160,6,,10.0,29.790354,,,TRUE,TRUE,,,,,,,BKN,1300,OVC,2500,,,,,MVFR,,,,,,0.01,,,,,,SPECI,63.0
KSLE 270456Z AUTO 15004KT 7SM -RA FEW010 FEW015 OVC021 01/00 A2979 RMK AO2 RAE22B30E32B50UPB24E30SNB32E50 SLP090 P0005 T00110000,KSLE,2023-02-27T04:56:00Z,44.9,-123.0,1.1,0.0,150,4,,7.0,29.790354,1009.0,,TRUE,TRUE,,,,,,-RA,FEW,1000,FEW,1500,OVC,2100,,,MVFR,,,,,,0.05,,,,,,METAR,63.0
KSLE 270436Z 16007KT 6SM -SN BR FEW008 BKN025 OVC070 01/00 A2979 RMK AO2 RAE22B30E32UPB24E30SNB32 P0003 T00110000,KSLE,2023-02-27T04:36:00Z,44.9,-123.0,1.1,0.0,160,7,,6.0,29.790354,,,,TRUE,,,,,,-SN BR,FEW,800,BKN,2500,OVC,7000,,,MVFR,,,,,,0.03,,,,,,METAR,63.0
KSLE 270429Z 15007KT 10SM UP FEW018 BKN034 OVC070 01/00 A2979 RMK AO2 RAE22UPB24 P0003 T00110000,KSLE,2023-02-27T04:29:00Z,44.9,-123.0,1.1,0.0,150,7,,10.0,29.790354,,,,TRUE,,,,,,UP,FEW,1800,BKN,3400,OVC,7000,,,VFR,,,,,,0.03,,,,,,SPECI,63.0
KSLE 270356Z 20011KT 7SM -RA BKN027 BKN070 OVC110 02/01 A2980 RMK AO2 RAB12 SLP092 P0001 T00220006,KSLE,2023-02-27T03:56:00Z,44.9,-123.0,2.2,0.6,200,11,,7.0,29.799213,1009.2,,,TRUE,,,,,,-RA,BKN,2700,BKN,7000,OVC,11000,,,MVFR,,,,,,0.01,,,,,,METAR,63.0
KSLE 270303Z 19007KT 10SM FEW065 BKN100 OVC120 03/01 A2979 RMK AO2 T00330011,KSLE,2023-02-27T03:03:00Z,44.9,-123.0,3.3,1.1,190,7,,10.0,29.790354,,,,TRUE,,,,,,,FEW,6500,BKN,10000,OVC,12000,,,VFR,,,,,,,,,,,,METAR,63.0
KSLE 270256Z 19009KT 10SM BKN015 BKN050 OVC070 03/01 A2980 RMK AO2 RAE35 SLP091 P0001 60001 T00330011 56005,KSLE,2023-02-27T02:56:00Z,44.9,-123.0,3.3,1.1,190,9,,10.0,29.799213,1009.1,,,TRUE,,,,,,,BKN,1500,BKN,5000,OVC,7000,,,MVFR,-0.5,,,,,0.01,0.01,,,,,METAR,63.0
KSLE 270211Z 18010G16KT 10SM -RA BKN015 BKN050 OVC070 03/01 A2979 RMK AO2 P0000 T00330011,KSLE,2023-02-27T02:11:00Z,44.9,-123.0,3.3,1.1,180,10,16,10.0,29.790354,,,,TRUE,,,,,,-RA,BKN,1500,BKN,5000,OVC,7000,,,MVFR,,,,,,0.005,,,,,,SPECI,63.0
KSLE 270156Z 16008KT 10SM -RA FEW050 BKN075 OVC110 04/02 A2979 RMK AO2 RAB49 SLP091 P0000 T00390017,KSLE,2023-02-27T01:56:00Z,44.9,-123.0,3.9,1.7,160,8,,10.0,29.790354,1009.1,,,TRUE,,,,,,-RA,FEW,5000,BKN,7500,OVC,11000,,,VFR,,,,,,0.005,,,,,,METAR,63.0
KSLE 270103Z 18005KT 10SM SCT046 OVC060 05/01 A2980 RMK AO2 T00500011,KSLE,2023-02-27T01:03:00Z,44.9,-123.0,5.0,1.1,180,5,,10.0,29.799213,,,,TRUE,,,,,,,SCT,4600,OVC,6000,,,,,VFR,,,,,,,,,,,,SPECI,63.0
KSLE 270056Z 16005KT 10SM BKN015 BKN034 BKN049 05/01 A2980 RMK AO2 SLP091 T00500011,KSLE,2023-02-27T00:56:00Z,44.9,-123.0,5.0,1.1,160,5,,10.0,29.799213,1009.1,,,TRUE,,,,,,,BKN,1500,BKN,3400,BKN,4900,,,MVFR,,,,,,,,,,,,METAR,63.0
KSLE 262356Z 31003KT 10SM BKN018 BKN034 BKN049 06/02 A2981 RMK AO2 SLP095 60012 T00560022 10061 20022 50004,KSLE,2023-02-26T23:56:00Z,44.9,-123.0,5.6,2.2,310,3,,10.0,29.811024,1009.5,,,TRUE,,,,,,,BKN,1800,BKN,3400,BKN,4900,,,MVFR,0.4,6.1,2.2,,,,,0.12,,,,METAR,63.0
KSLE 262256Z 17006KT 6SM BR BKN016 04/02 A2982 RMK AO2 RAB06E45 SLP099 P0003 T00390017,KSLE,2023-02-26T22:56:00Z,44.9,-123.0,3.9,1.7,170,6,,6.0,29.819881,1009.9,,,TRUE,,,,,,BR,BKN,1600,,,,,,,MVFR,,,,,,0.03,,,,,,METAR,63.0
KSLE 262156Z 26006KT 3SM HZ BKN012 BKN060 06/02 A2981 RMK AO2 RAE02 SLP094 P0000 T00610022,KSLE,2023-02-26T21:56:00Z,44.9,-123.0,6.1,2.2,260,6,,3.0,29.811024,1009.4,,,TRUE,,,,,,HZ,BKN,1200,BKN,6000,,,,,MVFR,,,,,,0.005,,,,,,METAR,63.0
KSLE 262056Z 19007KT 3SM -RA BR BKN009 BKN032 OVC039 03/02 A2980 RMK AO2 RAE16B40UPB16E19 SLP092 P0004 60009 T00330017 50016,KSLE,2023-02-26T20:56:00Z,44.9,-123.0,3.3,1.7,190,7,,3.0,29.799213,1009.2,,,TRUE,,,,,,-RA BR,BKN,900,BKN,3200,OVC,3900,,,IFR,1.6,,,,,0.04,0.09,,,,,METAR,63.0
KSLE 261956Z 23008KT 2 1/2SM RA BR BKN010 BKN021 OVC045 03/01 A2980 RMK AO2 RAB29 SLP094 P0004 T00280011,KSLE,2023-02-26T19:56:00Z,44.9,-123.0,2.8,1.1,230,8,,2.5,29.799213,1009.4,,,TRUE,,,,,,RA BR,BKN,1000,BKN,2100,OVC,4500,,,IFR,,,,,,0.04,,,,,,METAR,63.0
KSLE 261856Z 22007KT 6SM BR BKN010 BKN025 OVC085 04/02 A2977 RMK AO2 RAB01E25 SLP082 P0001 T00440022,KSLE,2023-02-26T18:56:00Z,44.9,-123.0,4.4,2.2,220,7,,6.0,29.769686,1008.2,,,TRUE,,,,,,BR,BKN,1000,BKN,2500,OVC,8500,,,MVFR,,,,,,0.01,,,,,,METAR,63.0
KSLE 261756Z 22008KT 6SM BR BKN010 BKN043 OVC085 04/02 A2975 RMK AO2 RAB1659E29 SLP074 P0002 60008 T00390022 10039 20022 53018,KSLE,2023-02-26T17:56:00Z,44.9,-123.0,3.9,2.2,220,8,,6.0,29.749016,1007.4,,,TRUE,,,,,,BR,BKN,1000,BKN,4300,OVC,8500,,,MVFR,1.8,3.9,2.2,,,0.02,,0.08,,,,METAR,63.0
KSLE 261656Z 23007KT 6SM BR BKN017 BKN034 OVC110 03/02 A2972 RMK AO2 RAE10B29E40UPB10E29 PRESRR SLP066 P0000 T00280017,KSLE,2023-02-26T16:56:00Z,44.9,-123.0,2.8,1.7,230,7,,6.0,29.719488,1006.6,,,TRUE,,,,,,BR,BKN,1700,BKN,3400,OVC,11000,,,MVFR,,,,,,0.005,,,,,,SPECI,63.0
KSLE 261637Z 18010KT 6SM -RA BR BKN017 OVC044 03/01 A2970 RMK AO2 RAE10B29UPB10E29 P0000 T00280011,KSLE,2023-02-26T16:37:00Z,44.9,-123.0,2.8,1.1,180,10,,6.0,29.698818,,,,TRUE,,,,,,-RA BR,BKN,1700,OVC,4400,,,,,MVFR,,,,,,0.005,,,,,,SPECI,63.0
KSLE 261556Z 21006KT 2 1/2SM -RA BR BKN013 BKN034 OVC080 03/01 A2969 RMK AO2 UPB48E50RAB50 SLP056 P0000 T00280011,KSLE,2023-02-26T15:56:00Z,44.9,-123.0,2.8,1.1,210,6,,2.5,29.68996,1005.6,,,TRUE,,,,,,-RA BR,BKN,1300,BKN,3400,OVC,8000,,,IFR,,,,,,0.005,,,,,,SPECI,63.0
KSLE 261553Z 21007KT 2 1/2SM -RA BR BKN013 BKN034 OVC080 03/01 A2969 RMK AO2 UPB48E50RAB50 P0000,KSLE,2023-02-26T15:53:00Z,44.9,-123.0,3.0,1.0,210,7,,2.5,29.68996,,,,TRUE,,,,,,-RA BR,BKN,1300,BKN,3400,OVC,8000,,,IFR,,,,,,0.005,,,,,,METAR,63.0
KSLE 261456Z 19010KT 6SM BR SCT010 BKN034 OVC045 02/01 A2965 RMK AO2 RAE22UPB05E26 SLP042 P0001 60006 T00220011 51021,KSLE,2023-02-26T14:56:00Z,44.9,-123.0,2.2,1.1,190,10,,6.0,29.648623,1004.2,,,TRUE,,,,,,BR,SCT,1000,BKN,3400,OVC,4500,,,VFR,2.1,,,,,0.01,0.06,,,,,METAR,63.0
KSLE 261356Z AUTO 19012KT 10SM -RA FEW024 OVC033 02/01 A2964 RMK AO2 RAE02B30UPB02E30 SLP039 P0002 T00220011,KSLE,2023-02-26T13:56:00Z,44.9,-123.0,2.2,1.1,190,12,,10.0,29.639763,1003.9,,TRUE,TRUE,,,,,,-RA,FEW,2400,OVC,3300,,,,,VFR,,,,,,0.02,,,,,,METAR,63.0
KSLE 261307Z AUTO 20016G25KT 10SM UP SCT011 BKN049 OVC070 02/01 A2961 RMK AO2 RAE02UPB02 P0001 T00220011,KSLE,2023-02-26T13:07:00Z,44.9,-123.0,2.2,1.1,200,16,25,10.0,29.610237,,,TRUE,TRUE,,,,,,UP,SCT,1100,BKN,4900,OVC,7000,,,VFR,,,,,,0.01,,,,,,SPECI,63.0
KSLE 261256Z AUTO 20015G25KT 10SM -RA BKN011 OVC045 02/01 A2961 RMK AO2 PK WND 19033/1210 UPE08RAB08E12B40SNB12E40 SLP027 P0003 T00220011,KSLE,2023-02-26T12:56:00Z,44.9,-123.0,2.2,1.1,200,15,25,10.0,29.610237,1002.7,,TRUE,TRUE,,,,,,-RA,BKN,1100,OVC,4500,,,,,MVFR,,,,,,0.03,,,,,,METAR,63.0
KSLE 261156Z AUTO 18020G27KT 10SM UP BKN013 OVC030 03/01 A2959 RMK AO2 PK WND 18029/1139 RAB13E47UPB47SNE13 SLP020 P0004 60019 70019 T00280011 10039 20011 56023,KSLE,2023-02-26T11:56:00Z,44.9,-123.0,2.8,1.1,180,20,27,10.0,29.589567,1002.0,,TRUE,TRUE,,,,,,UP,BKN,1300,OVC,3000,,,,,MVFR,-2.3,3.9,1.1,,,0.04,,0.19,0.19,,,METAR,63.0
KSLE 261112Z AUTO 16013KT 6SM -SN BR OVC012 02/00 A2960 RMK AO2 P0002 T00170000,KSLE,2023-02-26T11:12:00Z,44.9,-123.0,1.7,0.0,160,13,,6.0,29.601377,,,TRUE,TRUE,,,,,,-SN BR,OVC,1200,,,,,,,MVFR,,,,,,0.02,,,,,,SPECI,63.0
KSLE 261056Z AUTO 16011KT 5SM -SN BR BKN009 OVC013 01/00 A2960 RMK AO2 RAE33SNB33 CIG 006V011 SLP024 P0006 T00110000,KSLE,2023-02-26T10:56:00Z,44.9,-123.0,1.1,0.0,160,11,,5.0,29.601377,1002.4,,TRUE,TRUE,,,,,,-SN BR,BKN,900,OVC,1300,,,,,IFR,,,,,,0.06,,,,,,METAR,63.0
KSLE 261015Z AUTO 17016G21KT 8SM -RA BKN013 OVC026 03/01 A2962 RMK AO2 P0002 T00280006,KSLE,2023-02-26T10:15:00Z,44.9,-123.0,2.8,0.6,170,16,21,8.0,29.619095,,,TRUE,TRUE,,,,,,-RA,BKN,1300,OVC,2600,,,,,MVFR,,,,,,0.02,,,,,,METAR,63.0
KSLE 260956Z AUTO 17014G21KT 10SM -RA FEW012 OVC030 03/01 A2963 RMK AO2 RAB20SNE20 SLP034 P0004 T00280006,KSLE,2023-02-26T09:56:00Z,44.9,-123.0,2.8,0.6,170,14,21,10.0,29.630905,1003.4,,TRUE,TRUE,,,,,,-RA,FEW,1200,OVC,3000,,,,,MVFR,,,,,,0.04,,,,,,METAR,63.0
KSLE 260948Z AUTO 17016G21KT 10SM -RA FEW012 SCT024 OVC032 02/01 A2963 RMK AO2 RAB20SNE20 P0004 T00220006,KSLE,2023-02-26T09:48:00Z,44.9,-123.0,2.2,0.6,170,16,21,10.0,29.630905,,,TRUE,TRUE,,,,,,-RA,FEW,1200,SCT,2400,OVC,3200,,,VFR,,,,,,0.04,,,,,,METAR,63.0
KSLE 260856Z AUTO 16009KT 4SM -SN BR FEW011 OVC018 01/M01 A2966 RMK AO2 SLP044 P0005 60005 T00111006 58007,KSLE,2023-02-26T08:56:00Z,44.9,-123.0,1.1,-0.6,160,9,,4.0,29.660433,1004.4,,TRUE,TRUE,,,,,,-SN BR,FEW,1100,OVC,1800,,,,,MVFR,-0.7,,,,,0.05,0.05,,,,,METAR,63.0
KSLE 260811Z AUTO 17008KT 4SM -SN OVC027 02/M01 A2967 RMK AO2 P0001 T00221011,KSLE,2023-02-26T08:11:00Z,44.9,-123.0,2.2,-1.1,170,8,,4.0,29.66929,,,TRUE,TRUE,,,,,,-SN,OVC,2700,,,,,,,MVFR,,,,,,0.01,,,,,,SPECI,63.0
KSLE 260756Z AUTO 19007KT 6SM -SN OVC038 03/M02 A2968 RMK AO2 SNB50 SLP051 P0000 T00281017 400721067,KSLE,2023-02-26T07:56:00Z,44.9,-123.0,2.8,-1.7,190,7,,6.0,29.681103,1005.1,,TRUE,TRUE,,,,,,-SN,OVC,3800,,,,,,,VFR,,,,7.2,-6.7,0.005,,,,,,METAR,63.0
KSLE 260656Z AUTO 20013KT 10SM OVC085 03/M02 A2967 RMK AO2 SLP050 T00331022,KSLE,2023-02-26T06:56:00Z,44.9,-123.0,3.3,-2.2,200,13,,10.0,29.66929,1005.0,,TRUE,TRUE,,,,,,,OVC,8500,,,,,,,VFR,,,,,,,,,,,,METAR,63.0
KSLE 260556Z AUTO 17010KT 10SM SCT090 OVC100 03/M03 A2968 RMK AO2 SLP051 T00331028 10072 21006 58019,KSLE,2023-02-26T05:56:00Z,44.9,-123.0,3.3,-2.8,170,10,,10.0,29.681103,1005.1,,TRUE,TRUE,,,,,,,SCT,9000,OVC,10000,,,,,VFR,-1.9,7.2,-0.6,,,,,,,,,METAR,63.0
KSLE 260456Z AUTO 14006KT 10SM BKN100 01/M03 A2971 RMK AO2 SLP061 T00061028,KSLE,2023-02-26T04:56:00Z,44.9,-123.0,0.6,-2.8,140,6,,10.0,29.71063,1006.1,,TRUE,TRUE,,,,,,,BKN,10000,,,,,,,VFR,,,,,,,,,,,,METAR,63.0
KSLE 260356Z 19003KT 10SM CLR 01/M03 A2972 RMK AO2 SLP066 T00111033,KSLE,2023-02-26T03:56:00Z,44.9,-123.0,1.1,-3.3,190,3,,10.0,29.719488,1006.6,,,TRUE,,,,,,,CLR,,,,,,,,VFR,,,,,,,,,,,,METAR,63.0
KSLE 260256Z 17003KT 10SM CLR 02/M04 A2973 RMK AO2 SLP070 T00171039 56019,KSLE,2023-02-26T02:56:00Z,44.9,-123.0,1.7,-3.9,170,3,,10.0,29.731298,1007.0,,,TRUE,,,,,,,CLR,,,,,,,,VFR,-1.9,,,,,,,,,,,METAR,63.0
KSLE 260156Z 00000KT 10SM CLR 04/M05 A2974 RMK AO2 SLP074 T00391050,KSLE,2023-02-26T01:56:00Z,44.9,-123.0,3.9,-5.0,0,0,,10.0,29.740158,1007.4,,,TRUE,,,,,,,CLR,,,,,,,,VFR,,,,,,,,,,,,METAR,63.0
KSLE 260056Z 11003KT 10SM CLR 06/M04 A2976 RMK AO2 SLP078 T00561044,KSLE,2023-02-26T00:56:00Z,44.9,-123.0,5.6,-4.4,110,3,,10.0,29.760826,1007.8,,,TRUE,,,,,,,CLR,,,,,,,,VFR,,,,,,,,,,,,METAR,63.0
KSLE 252356Z 00000KT 10SM CLR 07/M05 A2979 RMK AO2 SLP089 T00671050 10067 21011 56036,KSLE,2023-02-25T23:56:00Z,44.9,-123.0,6.7,-5.0,0,0,,10.0,29.790354,1008.9,,,TRUE,,,,,,,CLR,,,,,,,,VFR,-3.6,6.7,-1.1,,,,,,,,,METAR,63.0
KSLE 252256Z 00000KT 10SM CLR 06/M06 A2982 RMK AO2 SLP098 T00611056,KSLE,2023-02-25T22:56:00Z,44.9,-123.0,6.1,-5.6,0,0,,10.0,29.819881,1009.8,,,TRUE,,,,,,,CLR,,,,,,,,VFR,,,,,,,,,,,,METAR,63.0
KSLE 252156Z VRB03KT 10SM CLR 05/M06 A2985 RMK AO2 SLP111 T00501061,KSLE,2023-02-25T21:56:00Z,44.9,-123.0,5.0,-6.1,0,3,,10.0,29.84941,1011.1,,,TRUE,,,,,,,CLR,,,,,,,,VFR,,,,,,,,,,,,METAR,63.0
KSLE 252056Z 34003KT 10SM CLR 04/M06 A2989 RMK AO2 SLP125 T00391061 58040,KSLE,2023-02-25T20:56:00Z,44.9,-123.0,3.9,-6.1,340,3,,10.0,29.890747,1012.5,,,TRUE,,,,,,,CLR,,,,,,,,VFR,-4.0,,,,,,,,,,,METAR,63.0
KSLE 251956Z 00000KT 10SM CLR 02/M07 A2994 RMK AO2 SLP139 T00171067,KSLE,2023-02-25T19:56:00Z,44.9,-123.0,1.7,-6.7,0,0,,10.0,29.940945,1013.9,,,TRUE,,,,,,,CLR,,,,,,,,VFR,,,,,,,,,,,,METAR,63.0
KSLE 251856Z 00000KT 10SM CLR 00/M08 A2998 RMK AO2 SLP154 T00001078,KSLE,2023-02-25T18:56:00Z,44.9,-123.0,0.0,-7.8,0,0,,10.0,29.97933,1015.4,,,TRUE,,,,,,,CLR,,,,,,,,VFR,,,,,,,,,,,,METAR,63.0
KSLE 251756Z 32004KT 10SM CLR M01/M08 A3001 RMK AO2 SLP165 T10061078 11006 21067 58013,KSLE,2023-02-25T17:56:00Z,44.9,-123.0,-0.6,-7.8,320,4,,10.0,30.008858,1016.5,,,TRUE,,,,,,,CLR,,,,,,,,VFR,-1.3,-0.6,-6.7,,,,,,,,,METAR,63.0
KSLE 251656Z 35005KT 10SM CLR M02/M08 A3003 RMK AO2 SLP172 T10221083,KSLE,2023-02-25T16:56:00Z,44.9,-123.0,-2.2,-8.3,350,5,,10.0,30.029528,1017.2,,,TRUE,,,,,,,CLR,,,,,,,,VFR,,,,,,,,,,,,METAR,63.0
KSLE 251556Z 00000KT 10SM CLR M04/M08 A3005 RMK AO2 SLP178 T10391078,KSLE,2023-02-25T15:56:00Z,44.9,-123.0,-3.9,-7.8,0,0,,10.0,30.050198,1017.8,,,TRUE,,,,,,,CLR,,,,,,,,VFR,,,,,,,,,,,,METAR,63.0
KSLE 251456Z AUTO 00000KT 10SM CLR M07/M09 A3005 RMK AO2 SLP179 T10671094 55007,KSLE,2023-02-25T14:56:00Z,44.9,-123.0,-6.7,-9.4,0,0,,10.0,30.050198,1017.9,,TRUE,TRUE,,,,,,,CLR,,,,,,,,VFR,-0.7,,,,,,,,,,,METAR,63.0
KSLE 251356Z AUTO 00000KT 10SM CLR M06/M09 A3005 RMK AO2 SLP178 T10561094,KSLE,2023-02-25T13:56:00Z,44.9,-123.0,-5.6,-9.4,0,0,,10.0,30.050198,1017.8,,TRUE,TRUE,,,,,,,CLR,,,,,,,,VFR,,,,,,,,,,,,METAR,63.0
KSLE 251256Z AUTO 00000KT 10SM CLR M06/M08 A3005 RMK AO2 SLP179 T10561083,KSLE,2023-02-25T12:56:00Z,44.9,-123.0,-5.6,-8.3,0,0,,10.0,30.050198,1017.9,,TRUE,TRUE,,,,,,,CLR,,,,,,,,VFR,,,,,,,,,,,,METAR,63.0
KSLE 251156Z AUTO 00000KT 10SM CLR M05/M09 A3007 RMK AO2 SLP185 T10501089 11028 21056 55007,KSLE,2023-02-25T11:56:00Z,44.9,-123.0,-5.0,-8.9,0,0,,10.0,30.070866,1018.5,,TRUE,TRUE,,,,,,,CLR,,,,,,,,VFR,-0.7,-2.8,-5.6,,,,,,,,,METAR,63.0
KSLE 251056Z AUTO 35005KT 10SM CLR M04/M09 A3007 RMK AO2 SLP184 T10441089,KSLE,2023-02-25T10:56:00Z,44.9,-123.0,-4.4,-8.9,350,5,,10.0,30.070866,1018.4,,TRUE,TRUE,,,,,,,CLR,,,,,,,,VFR,,,,,,,,,,,,SPECI,63.0
KSLE 250956Z AUTO 33004KT 10SM CLR M04/M09 A3008 RMK AO2 SLP187 T10391089,KSLE,2023-02-25T09:56:00Z,44.9,-123.0,-3.9,-8.9,330,4,,10.0,30.079725,1018.7,,TRUE,TRUE,,,,,,,CLR,,,,,,,,VFR,,,,,,,,,,,,METAR,63.0
KSLE 250856Z AUTO 33004KT 10SM CLR M03/M09 A3009 RMK AO2 SLP192 T10281089 50008,KSLE,2023-02-25T08:56:00Z,44.9,-123.0,-2.8,-8.9,330,4,,10.0,30.088583,1019.2,,TRUE,TRUE,,,,,,,CLR,,,,,,,,VFR,0.8,,,,,,,,,,,METAR,63.0
KSLE 250756Z AUTO 33006KT 10SM CLR M03/M09 A3010 RMK AO2 SLP194 T10331089 400331050,KSLE,2023-02-25T07:56:00Z,44.9,-123.0,-3.3,-8.9,330,6,,10.0,30.100393,1019.4,,TRUE,TRUE,,,,,,,CLR,,,,,,,,VFR,,,,3.3,-5.0,,,,,,,METAR,63.0
KSLE 250656Z AUTO 33006KT 10SM CLR M03/M09 A3009 RMK AO2 SLP192 T10331089,KSLE,2023-02-25T06:56:00Z,44.9,-123.0,-3.3,-8.9,330,6,,10.0,30.088583,1019.2,,TRUE,TRUE,,,,,,,CLR,,,,,,,,VFR,,,,,,,,,,,,METAR,63.0
KSLE 250556Z AUTO 34006KT 10SM CLR M03/M09 A3007 RMK AO2 SLP186 T10331089 10033 21033 53007,KSLE,2023-02-25T05:56:00Z,44.9,-123.0,-3.3,-8.9,340,6,,10.0,30.070866,1018.6,,TRUE,TRUE,,,,,,,CLR,,,,,,,,VFR,0.7,3.3,-3.3,,,,,,,,,METAR,63.0
KSLE 250456Z AUTO 34006KT 10SM CLR M02/M08 A3007 RMK AO2 SLP185 T10221083,KSLE,2023-02-25T04:56:00Z,44.9,-123.0,-2.2,-8.3,340,6,,10.0,30.070866,1018.5,,TRUE,TRUE,,,,,,,CLR,,,,,,,,VFR,,,,,,,,,,,,METAR,63.0
KSLE 250356Z 34007KT 10SM CLR M01/M08 A3005 RMK AO2 SLP177 T10111083,KSLE,2023-02-25T03:56:00Z,44.9,-123.0,-1.1,-8.3,340,7,,10.0,30.050198,1017.7,,,TRUE,,,,,,,CLR,,,,,,,,VFR,,,,,,,,,,,,SPECI,63.0
KSLE 250256Z 01006KT 10SM CLR M01/M08 A3005 RMK AO2 SLP178 T10061083 53012,KSLE,2023-02-25T02:56:00Z,44.9,-123.0,-0.6,-8.3,10,6,,10.0,30.050198,1017.8,,,TRUE,,,,,,,CLR,,,,,,,,VFR,1.2,,,,,,,,,,,SPECI,63.0
KSLE 250156Z 01014KT 10SM CLR 01/M09 A3003 RMK AO2 SLP170 T00061089,KSLE,2023-02-25T01:56:00Z,44.9,-123.0,0.6,-8.9,10,14,,10.0,30.029528,1017.0,,,TRUE,,,,,,,CLR,,,,,,,,VFR,,,,,,,,,,,,METAR,63.0
KSLE 250056Z 02013KT 10SM CLR 03/M07 A3002 RMK AO2 SLP167 T00281072,KSLE,2023-02-25T00:56:00Z,44.9,-123.0,2.8,-7.2,20,13,,10.0,30.02067,1016.7,,,TRUE,,,,,,,CLR,,,,,,,,VFR,,,,,,,,,,,,METAR,63.0
KSLE 242356Z 02013KT 10SM CLR 03/M08 A3001 RMK AO2 SLP165 T00331078 10033 21011 53002,KSLE,2023-02-24T23:56:00Z,44.9,-123.0,3.3,-7.8,20,13,,10.0,30.008858,1016.5,,,TRUE,,,,,,,CLR,,,,,,,,VFR,0.2,3.3,-1.1,,,,,,,,,METAR,63.0
KSLE 242256Z 02014KT 10SM CLR 03/M07 A3001 RMK AO2 SLP163 T00331072,KSLE,2023-02-24T22:56:00Z,44.9,-123.0,3.3,-7.2,20,14,,10.0,30.008858,1016.3,,,TRUE,,,,,,,CLR,,,,,,,,VFR,,,,,,,,,,,,METAR,63.0
KSLE 242156Z 35013KT 10SM CLR 03/M07 A3000 RMK AO2 SLP160 T00281072,KSLE,2023-02-24T21:56:00Z,44.9,-123.0,2.8,-7.2,350,13,,10.0,30.0,1016.0,,,TRUE,,,,,,,CLR,,,,,,,,VFR,,,,,,,,,,,,SPECI,63.0
KSLE 242056Z 01016KT 10SM CLR 02/M08 A3001 RMK AO2 SLP163 T00171078 50000,KSLE,2023-02-24T20:56:00Z,44.9,-123.0,1.7,-7.8,10,16,,10.0,30.008858,1016.3,,,TRUE,,,,,,,CLR,,,,,,,,VFR,0.0,,,,,,,,,,,METAR,63.0
KSLE 241956Z 36014KT 10SM CLR 01/M09 A3001 RMK AO2 SLP164 T00061089,KSLE,2023-02-24T19:56:00Z,44.9,-123.0,0.6,-8.9,360,14,,10.0,30.008858,1016.4,,,TRUE,,,,,,,CLR,,,,,,,,VFR,,,,,,,,,,,,SPECI,63.0
KSLE 241856Z 36016KT 10SM CLR 00/M09 A3001 RMK AO2 SLP164 T00001094,KSLE,2023-02-24T18:56:00Z,44.9,-123.0,0.0,-9.4,360,16,,10.0,30.008858,1016.4,,,TRUE,,,,,,,CLR,,,,,,,,VFR,,,,,,,,,,,,METAR,63.0
KSLE 241756Z 35018G25KT 10SM CLR M01/M10 A3000 RMK AO2 SLP163 T10111100 11011 21050 51019,KSLE,2023-02-24T17:56:00Z,44.9,-123.0,-1.1,-10.0,350,18,25,10.0,30.0,1016.3,,,TRUE,,,,,,,CLR,,,,,,,,VFR,1.9,-1.1,-5.0,,,,,,,,,METAR,63.0
KSLE 241656Z 35015G21KT 10SM CLR M02/M11 A2999 RMK AO2 SLP158 T10221106,KSLE,2023-02-24T16:56:00Z,44.9,-123.0,-2.2,-10.6,350,15,21,10.0,29.991142,1015.8,,,TRUE,,,,,,,CLR,,,,,,,,VFR,,,,,,,,,,,,METAR,63.0
KSLE 241556Z 35014KT 10SM CLR M04/M11 A2997 RMK AO2 SLP150 T10391111,KSLE,2023-02-24T15:56:00Z,44.9,-123.0,-3.9,-11.1,350,14,,10.0,29.970472,1015.0,,,TRUE,,,,,,,CLR,,,,,,,,VFR,,,,,,,,,,,,SPECI,63.0
KSLE 241456Z 35013KT 10SM CLR M04/M11 A2995 RMK AO2 SLP144 T10441111 53017,KSLE,2023-02-24T14:56:00Z,44.9,-123.0,-4.4,-11.1,350,13,,10.0,29.949802,1014.4,,,TRUE,,,,,,,CLR,,,,,,,,VFR,1.7,,,,,,,,,,,METAR,63.0
KSLE 241356Z 35011KT 10SM CLR M04/M11 A2992 RMK AO2 SLP135 T10441111,KSLE,2023-02-24T13:56:00Z,44.9,-123.0,-4.4,-11.1,350,11,,10.0,29.920275,1013.5,,,TRUE,,,,,,,CLR,,,,,,,,VFR,,,,,,,,,,,,METAR,63.0
KSLE 241256Z 35012KT 10SM CLR M04/M11 A2990 RMK AO2 SLP127 T10441111,KSLE,2023-02-24T12:56:00Z,44.9,-123.0,-4.4,-11.1,350,12,,10.0,29.899607,1012.7,,,TRUE,,,,,,,CLR,,,,,,,,VFR,,,,,,,,,,,,SPECI,63.0
KSLE 241156Z 35010KT 10SM CLR M04/M11 A2990 RMK AO2 SLP126 70002 T10441106 11033 21050 51013,KSLE,2023-02-24T11:56:00Z,44.9,-123.0,-4.4,-10.6,350,10,,10.0,29.899607,1012.6,,,TRUE,,,,,,,CLR,,,,,,,,VFR,1.3,-3.3,-5.0,,,,,,0.02,,,METAR,63.0
KSLE 241056Z 35013KT 10SM CLR M04/M11 A2989 RMK AO2 SLP123 T10441106,KSLE,2023-02-24T10:56:00Z,44.9,-123.0,-4.4,-10.6,350,13,,10.0,29.890747,1012.3,,,TRUE,,,,,,,CLR,,,,,,,,VFR,,,,,,,,,,,,METAR,63.0
KSLE 240956Z 35010KT 10SM CLR M04/M11 A2988 RMK AO2 SLP123 T10441111,KSLE,2023-02-24T09:56:00Z,44.9,-123.0,-4.4,-11.1,350,10,,10.0,29.878937,1012.3,,,TRUE,,,,,,,CLR,,,,,,,,VFR,,,,,,,,,,,,METAR,63.0
KSLE 240856Z 36008KT 10SM CLR M04/M11 A2986 RMK AO2 SLP113 T10441111 51016,KSLE,2023-02-24T08:56:00Z,44.9,-123.0,-4.4,-11.1,360,8,,10.0,29.861221,1011.3,,,TRUE,,,,,,,CLR,,,,,,,,VFR,1.6,,,,,,,,,,,METAR,63.0
KSLE 240756Z 35009KT 10SM CLR M04/M11 A2985 RMK AO2 SLP109 T10441111 400221044,KSLE,2023-02-24T07:56:00Z,44.9,-123.0,-4.4,-11.1,350,9,,10.0,29.84941,1010.9,,,TRUE,,,,,,,CLR,,,,,,,,VFR,,,,2.2,-4.4,,,,,,,METAR,63.0
KSLE 240656Z 35009KT 10SM CLR M04/M11 A2984 RMK AO2 SLP105 T10441111,KSLE,2023-02-24T06:56:00Z,44.9,-123.0,-4.4,-11.1,350,9,,10.0,29.840551,1010.5,,,TRUE,,,,,,,CLR,,,,,,,,VFR,,,,,,,,,,,,METAR,63.0
KSLE 240556Z 01011KT 10SM CLR M04/M12 A2981 RMK AO2 SLP097 T10391117 10017 21039 51026,KSLE,2023-02-24T05:56:00Z,44.9,-123.0,-3.9,-11.7,10,11,,10.0,29.811024,1009.7,,,TRUE,,,,,,,CLR,,,,,,,,VFR,2.6,1.7,-3.9,,,,,,,,,METAR,63.0
KSLE 240456Z 01010KT 10SM CLR M03/M11 A2979 RMK AO2 SLP089 T10331106,KSLE,2023-02-24T04:56:00Z,44.9,-123.0,-3.3,-10.6,10,10,,10.0,29.790354,1008.9,,,TRUE,,,,,,,CLR,,,,,,,,VFR,,,,,,,,,,,,METAR,63.0
KSLE 240356Z 03008KT 10SM CLR M03/M11 A2976 RMK AO2 SLP080 T10281106,KSLE,2023-02-24T03:56:00Z,44.9,-123.0,-2.8,-10.6,30,8,,10.0,29.760826,1008.0,,,TRUE,,,,,,,CLR,,,,,,,,VFR,,,,,,,,,,,,METAR,63.0
KSLE 240256Z 03009KT 10SM CLR M02/M09 A2974 RMK AO2 SLP071 T10171094 53028,KSLE,2023-02-24T02:56:00Z,44.9,-123.0,-1.7,-9.4,30,9,,10.0,29.740158,1007.1,,,TRUE,,,,,,,CLR,,,,,,,,VFR,2.8,,,,,,,,,,,METAR,63.0
KSLE 240156Z 04009KT 10SM BKN060 00/M08 A2970 RMK AO2 SLP060 T00001083,KSLE,2023-02-24T01:56:00Z,44.9,-123.0,0.0,-8.3,40,9,,10.0,29.698818,1006.0,,,TRUE,,,,,,,BKN,6000,,,,,,,VFR,,,,,,,,,,,,METAR,63.0
KSLE 240056Z 05007KT 10SM FEW010 BKN034 OVC050 01/M06 A2967 RMK AO2 SLP049 T00111061,KSLE,2023-02-24T00:56:00Z,44.9,-123.0,1.1,-6.1,50,7,,10.0,29.66929,1004.9,,,TRUE,,,,,,,FEW,1000,BKN,3400,OVC,5000,,,VFR,,,,,,,,,,,,METAR,63.0
KSLE 232356Z 33008KT 10SM FEW010 BKN034 BKN060 01/M03 A2965 RMK AO2 SLP042 60001 T00111033 10022 20000 51012,KSLE,2023-02-23T23:56:00Z,44.9,-123.0,1.1,-3.3,330,8,,10.0,29.648623,1004.2,,,TRUE,,,,,,,FEW,1000,BKN,3400,BKN,6000,,,VFR,1.2,2.2,0.0,,,,,0.01,,,,METAR,63.0
KSLE 232256Z 03007KT 6SM HZ FEW010 BKN034 01/M03 A2964 RMK AO2 SNE27 SLP038 P0001 T00061028,KSLE,2023-02-23T22:56:00Z,44.9,-123.0,0.6,-2.8,30,7,,6.0,29.639763,1003.8,,,TRUE,,,,,,HZ,FEW,1000,BKN,3400,,,,,VFR,,,,,,0.01,,,,,,METAR,63.0
KSLE 232233Z 05007KT 10SM BKN030 BKN050 02/M02 A2964 RMK AO2 SNE27 P0001 T00171022,KSLE,2023-02-23T22:33:00Z,44.9,-123.0,1.7,-2.2,50,7,,10.0,29.639763,,,,TRUE,,,,,,,BKN,3000,BKN,5000,,,,,MVFR,,,,,,0.01,,,,,,SPECI,63.0
KSLE 232224Z 06008KT 7SM -SN FEW020 BKN029 OVC050 01/M02 A2964 RMK AO2 P0001 T00111017,KSLE,2023-02-23T22:24:00Z,44.9,-123.0,1.1,-1.7,60,8,,7.0,29.639763,,,,TRUE,,,,,,-SN,FEW,2000,BKN,2900,OVC,5000,,,MVFR,,,,,,0.01,,,,,,SPECI,63.0
KSLE 232216Z 07007KT 2SM -SN FEW017 BKN024 OVC029 01/M02 A2964 RMK AO2 P0001 T00061022,KSLE,2023-02-23T22:16:00Z,44.9,-123.0,0.6,-2.2,70,7,,2.0,29.639763,,,,TRUE,,,,,,-SN,FEW,1700,BKN,2400,OVC,2900,,,IFR,,,,,,0.01,,,,,,SPECI,63.0
KSLE 232213Z 06006KT 1 1/4SM R31/4000VP6000FT -SN FEW017 BKN026 OVC036 00/M03 A2964 RMK AO2 P0001 T00001028,KSLE,2023-02-23T22:13:00Z,44.9,-123.0,0.0,-2.8,60,6,,1.25,29.639763,,,,TRUE,,,,,,-SN,FEW,1700,BKN,2600,OVC,3600,,,IFR,,,,,,0.01,,,,,,SPECI,63.0
KSLE 232202Z 10006KT 1 3/4SM R31/6000VP6000FT -SN BKN020 OVC034 00/M03 A2964 RMK AO2 VIS 3/4V4 P0001 T00001033,KSLE,2023-02-23T22:02:00Z,44.9,-123.0,0.0,-3.3,100,6,,1.75,29.639763,,,,TRUE,,,,,,-SN,BKN,2000,OVC,3400,,,,,IFR,,,,,,0.01,,,,,,SPECI,63.0
KSLE 232156Z 13010G20KT 2 1/2SM R31/6000VP6000FT -SN SCT022 OVC034 00/M03 A2964 RMK AO2 SNB2058E08B37 SLP040 P0000 T00001033,KSLE,2023-02-23T21:56:00Z,44.9,-123.0,0.0,-3.3,130,10,20,2.5,29.639763,1004.0,,,TRUE,,,,,,-SN,SCT,2200,OVC,3400,,,,,IFR,,,,,,0.005,,,,,,SPECI,63.0
KSLE 232056Z 10010KT 10SM FEW032 FEW044 BKN080 02/M04 A2962 RMK AO2 SLP031 60000 T00171039 50006,KSLE,2023-02-23T20:56:00Z,44.9,-123.0,1.7,-3.9,100,10,,10.0,29.619095,1003.1,,,TRUE,,,,,,,FEW,3200,FEW,4400,BKN,8000,,,VFR,0.6,,,,,,,,,,,SPECI,63.0
KSLE 231956Z 12011KT 10SM SCT036 BKN047 OVC060 01/M04 A2962 RMK AO2 SNB06E22 SLP032 P0000 T00111044,KSLE,2023-02-23T19:56:00Z,44.9,-123.0,1.1,-4.4,120,11,,10.0,29.619095,1003.2,,,TRUE,,,,,,,SCT,3600,BKN,4700,OVC,6000,,,VFR,,,,,,0.005,,,,,,SPECI,63.0
KSLE 231856Z 13008KT 4SM HZ SCT028 BKN032 OVC041 01/M04 A2961 RMK AO2 SNE52 SLP030 P0000 T00061039,KSLE,2023-02-23T18:56:00Z,44.9,-123.0,0.6,-3.9,130,8,,4.0,29.610237,1003.0,,,TRUE,,,,,,HZ,SCT,2800,BKN,3200,OVC,4100,,,MVFR,,,,,,0.005,,,,,,METAR,63.0
KSLE 231813Z 14007KT 4SM -SN BKN032 OVC041 00/M03 A2960 RMK AO2 P0000 T00001033,KSLE,2023-02-23T18:13:00Z,44.9,-123.0,0.0,-3.3,140,7,,4.0,29.601377,,,,TRUE,,,,,,-SN,BKN,3200,OVC,4100,,,,,MVFR,,,,,,0.005,,,,,,SPECI,63.0
KSLE 231804Z 13008KT 3SM -SN BKN025 OVC036 00/M03 A2960 RMK AO2 P0000 T00001028,KSLE,2023-02-23T18:04:00Z,44.9,-123.0,0.0,-2.8,130,8,,3.0,29.601377,,,,TRUE,,,,,,-SN,BKN,2500,OVC,3600,,,,,MVFR,,,,,,0.005,,,,,,METAR,63.0
KSLE 231758Z 14008KT 1 3/4SM -SN SCT025 OVC034 00/M03 A2960 RMK AO2 P0000 T00001028,KSLE,2023-02-23T17:58:00Z,44.9,-123.0,0.0,-2.8,140,8,,1.75,29.601377,,,,TRUE,,,,,,-SN,SCT,2500,OVC,3400,,,,,IFR,,,,,,0.005,,,,,,METAR,63.0
KSLE 231756Z 13008KT 2SM -SN BKN029 OVC036 00/M03 A2960 RMK AO2 SNB27 SLP025 P0000 60001 T00001033 10006 20000 51016,KSLE,2023-02-23T17:56:00Z,44.9,-123.0,0.0,-3.3,130,8,,2.0,29.601377,1002.5,,,TRUE,,,,,,-SN,BKN,2900,OVC,3600,,,,,IFR,1.6,0.6,0.0,,,0.005,,,,,,SPECI,63.0
KSLE 231703Z 15008KT 5SM HZ OVC034 01/M02 A2959 RMK AO2 T00061022,KSLE,2023-02-23T17:03:00Z,44.9,-123.0,0.6,-2.2,150,8,,5.0,29.589567,,,,TRUE,,,,,,HZ,OVC,3400,,,,,,,MVFR,,,,,,,,,,,,METAR,63.0
KSLE 231656Z 15006KT 3SM HZ BKN027 OVC044 01/M02 A2959 RMK AO2 SNE24 SLP020 P0000 T00061022,KSLE,2023-02-23T16:56:00Z,44.9,-123.0,0.6,-2.2,150,6,,3.0,29.589567,1002.0,,,TRUE,,,,,,HZ,BKN,2700,OVC,4400,,,,,MVFR,,,,,,0.005,,,,,,SPECI,63.0
KSLE 231621Z 15008KT 3SM -SN BR BKN016 OVC027 01/M02 A2958 RMK AO2 P0000 T00061017,KSLE,2023-02-23T16:21:00Z,44.9,-123.0,0.6,-1.7,150,8,,3.0,29.58071,,,,TRUE,,,,,,-SN BR,BKN,1600,OVC,2700,,,,,MVFR,,,,,,0.005,,,,,,METAR,63.0
KSLE 231619Z 16008KT 1 1/2SM R31/5500VP6000FT -SN BR OVC016 00/M02 A2958 RMK AO2 P0000 T00001017,KSLE,2023-02-23T16:19:00Z,44.9,-123.0,0.0,-1.7,160,8,,1.5,29.58071,,,,TRUE,,,,,,-SN BR,OVC,1600,,,,,,,IFR,,,,,,0.005,,,,,,METAR,63.0
KSLE 231607Z 16009KT 3/4SM R31/4000V5000FT -SN BR VV014 00/M02 A2958 RMK AO2 P0000 T00001017,KSLE,2023-02-23T16:07:00Z,44.9,-123.0,0.0,-1.7,160,9,,0.75,29.58071,,,,TRUE,,,,,,-SN BR,OVX,0,,,,,,,LIFR,,,,,,0.005,,,,,1400,METAR,63.0
KSLE 231551Z 16013KT 1SM R31/4000VP6000FT -SN BR BKN022 BKN031 OVC055 00/M02 A2957 RMK AO2 SNB41 SLP016 P0000 T00001022,KSLE,2023-02-23T15:51:00Z,44.9,-123.0,0.0,-2.2,160,13,,1.0,29.568897,1001.6,,,TRUE,,,,,,-SN BR,BKN,2200,BKN,3100,OVC,5500,,,IFR,,,,,,0.005,,,,,,METAR,63.0
KSLE 231550Z 16012KT 1SM R31/4000VP6000FT -SN BR BKN024 BKN031 OVC055 00/M02 A2957 RMK AO2 SNB41 P0000,KSLE,2023-02-23T15:50:00Z,44.9,-123.0,0.0,-2.0,160,12,,1.0,29.568897,,,,TRUE,,,,,,-SN BR,BKN,2400,BKN,3100,OVC,5500,,,IFR,,,,,,0.005,,,,,,SPECI,63.0
KSLE 231544Z 15011KT 2 1/2SM R31/4000VP6000FT -SN BKN029 OVC055 00/M03 A2957 RMK AO2 SNB41 P0000 T00001028,KSLE,2023-02-23T15:44:00Z,44.9,-123.0,0.0,-2.8,150,11,,2.5,29.568897,,,,TRUE,,,,,,-SN,BKN,2900,OVC,5500,,,,,IFR,,,,,,0.005,,,,,,METAR,63.0
KSLE 231456Z 16010KT 10SM FEW047 FEW120 01/M02 A2955 RMK AO2 SLP009 60001 T00061022 53004 $,KSLE,2023-02-23T14:56:00Z,44.9,-123.0,0.6,-2.2,160,10,,10.0,29.551182,1000.9,,,TRUE,TRUE,,,,,,FEW,4700,FEW,12000,,,,,VFR,0.4,,,,,,0.01,,,,,METAR,63.0
KSLE 231356Z AUTO 15012KT 10SM BKN036 OVC070 01/M02 A2954 RMK AO2 SNB12E44 SLP006 P0000 T00061017 $,KSLE,2023-02-23T13:56:00Z,44.9,-123.0,0.6,-1.7,150,12,,10.0,29.53937,1000.6,,TRUE,TRUE,TRUE,,,,,,BKN,3600,OVC,7000,,,,,VFR,,,,,,0.005,,,,,,METAR,63.0
KSLE 231339Z AUTO 16010KT 5SM -SN BR BKN029 OVC049 01/M01 A2955 RMK AO2 SNB12 P0000 T00061011 $,KSLE,2023-02-23T13:39:00Z,44.9,-123.0,0.6,-1.1,160,10,,5.0,29.551182,,,TRUE,TRUE,TRUE,,,,,-SN BR,BKN,2900,OVC,4900,,,,,MVFR,,,,,,0.005,,,,,,SPECI,63.0
KSLE 231324Z AUTO 17013KT 2 1/2SM -SN BR BKN019 OVC045 01/M01 A2954 RMK AO2 SNB12 P0000 T00061011 $,KSLE,2023-02-23T13:24:00Z,44.9,-123.0,0.6,-1.1,170,13,,2.5,29.53937,,,TRUE,TRUE,TRUE,,,,,-SN BR,BKN,1900,OVC,4500,,,,,IFR,,,,,,0.005,,,,,,SPECI,63.0
KSLE 231256Z AUTO 15012KT 7SM BKN038 OVC075 01/M01 A2953 RMK AO2 SNE39 SLP003 P0001 T00061011 $,KSLE,2023-02-23T12:56:00Z,44.9,-123.0,0.6,-1.1,150,12,,7.0,29.530512,1000.3,,TRUE,TRUE,TRUE,,,,,,BKN,3800,OVC,7500,,,,,VFR,,,,,,0.01,,,,,,METAR,63.0
KSLE 231220Z AUTO 16012KT 3SM -SN BR FEW008 SCT013 OVC030 01/M01 A2954 RMK AO2 P0001 T00061006 $,KSLE,2023-02-23T12:20:00Z,44.9,-123.0,0.6,-0.6,160,12,,3.0,29.53937,,,TRUE,TRUE,TRUE,,,,,-SN BR,FEW,800,SCT,1300,OVC,3000,,,MVFR,,,,,,0.01,,,,,,METAR,63.0
KSLE 231213Z AUTO 15013KT 3SM -SN BR SCT010 BKN015 OVC032 01/M01 A2954 RMK AO2 P0000 T00061006 $,KSLE,2023-02-23T12:13:00Z,44.9,-123.0,0.6,-0.6,150,13,,3.0,29.53937,,,TRUE,TRUE,TRUE,,,,,-SN BR,SCT,1000,BKN,1500,OVC,3200,,,MVFR,,,,,,0.005,,,,,,SPECI,63.0
KSLE 231156Z AUTO 16012KT 3SM -SN BR BKN013 OVC023 01/M01 A2954 RMK AO2 SLP004 P0000 60028 70058 I6004 T00061006 10022 20006 56003 $,KSLE,2023-02-23T11:56:00Z,44.9,-123.0,0.6,-0.6,160,12,,3.0,29.53937,1000.4,,TRUE,TRUE,TRUE,,,,,-SN BR,BKN,1300,OVC,2300,,,,,MVFR,-0.3,2.2,0.6,,,0.005,,0.28,0.58,,,METAR,63.0
KSLE 231154Z AUTO 16010KT 3SM -SN BR BKN013 OVC023 01/M01 A2954 RMK AO2 P0000 $,KSLE,2023-02-23T11:54:00Z,44.9,-123.0,1.0,-1.0,160,10,,3.0,29.53937,,,TRUE,TRUE,TRUE,,,,,-SN BR,BKN,1300,OVC,2300,,,,,MVFR,,,,,,0.005,,,,,,SPECI,63.0
KSLE 231105Z AUTO 16012KT 3SM -SN BR OVC020 01/M01 A2954 RMK AO2 P0000 T00061006 $,KSLE,2023-02-23T11:05:00Z,44.9,-123.0,0.6,-0.6,160,12,,3.0,29.53937,,,TRUE,TRUE,TRUE,,,,,-SN BR,OVC,2000,,,,,,,MVFR,,,,,,0.005,,,,,,SPECI,63.0
KSLE 231056Z AUTO 15011KT 2 1/2SM -SN BR FEW018 OVC023 01/M01 A2954 RMK AO2 SLP005 P0001 T00061006 $,KSLE,2023-02-23T10:56:00Z,44.9,-123.0,0.6,-0.6,150,11,,2.5,29.53937,1000.5,,TRUE,TRUE,TRUE,,,,,-SN BR,FEW,1800,OVC,2300,,,,,IFR,,,,,,0.01,,,,,,SPECI,63.0
KSLE 231048Z AUTO 16011KT 1 3/4SM -SN BR OVC027 01/M01 A2954 RMK AO2 P0001 T00061006 $,KSLE,2023-02-23T10:48:00Z,44.9,-123.0,0.6,-0.6,160,11,,1.75,29.53937,,,TRUE,TRUE,TRUE,,,,,-SN BR,OVC,2700,,,,,,,IFR,,,,,,0.01,,,,,,SPECI,63.0
KSLE 231041Z AUTO 16010KT 2SM -SN BR BKN029 OVC040 01/M01 A2954 RMK AO2 P0001 T00061006 $,KSLE,2023-02-23T10:41:00Z,44.9,-123.0,0.6,-0.6,160,10,,2.0,29.53937,,,TRUE,TRUE,TRUE,,,,,-SN BR,BKN,2900,OVC,4000,,,,,IFR,,,,,,0.01,,,,,,METAR,63.0
KSLE 231025Z AUTO 17011KT 5SM -SN BR FEW008 OVC033 01/M01 A2954 RMK AO2 P0000 T00061006 $,KSLE,2023-02-23T10:25:00Z,44.9,-123.0,0.6,-0.6,170,11,,5.0,29.53937,,,TRUE,TRUE,TRUE,,,,,-SN BR,FEW,800,OVC,3300,,,,,MVFR,,,,,,0.005,,,,,,METAR,63.0
KSLE 231015Z AUTO 17012KT 3SM -SN BR SCT012 OVC017 01/M01 A2955 RMK AO2 P0000 T00061006 $,KSLE,2023-02-23T10:15:00Z,44.9,-123.0,0.6,-0.6,170,12,,3.0,29.551182,,,TRUE,TRUE,TRUE,,,,,-SN BR,SCT,1200,OVC,1700,,,,,MVFR,,,,,,0.005,,,,,,SPECI,63.0
KSLE 231012Z AUTO 16009KT 2SM -SN BR FEW009 OVC013 01/M01 A2955 RMK AO2 P0000 T00061006 $,KSLE,2023-02-23T10:12:00Z,44.9,-123.0,0.6,-0.6,160,9,,2.0,29.551182,,,TRUE,TRUE,TRUE,,,,,-SN BR,FEW,900,OVC,1300,,,,,IFR,,,,,,0.005,,,,,,SPECI,63.0
KSLE 230956Z AUTO 16012KT 1 3/4SM -SN BR OVC013 01/M01 A2955 RMK AO2 SLP008 P0006 T00061006 $,KSLE,2023-02-23T09:56:00Z,44.9,-123.0,0.6,-0.6,160,12,,1.75,29.551182,1000.8,,TRUE,TRUE,TRUE,,,,,-SN BR,OVC,1300,,,,,,,IFR,,,,,,0.06,,,,,,METAR,63.0
KSLE 230941Z AUTO 16011KT 1 1/2SM -SN BR OVC011 01/M01 A2955 RMK AO2 P0005 T00061006 $,KSLE,2023-02-23T09:41:00Z,44.9,-123.0,0.6,-0.6,160,11,,1.5,29.551182,,,TRUE,TRUE,TRUE,,,,,-SN BR,OVC,1100,,,,,,,IFR,,,,,,0.05,,,,,,SPECI,63.0
KSLE 230856Z AUTO 17014KT 1SM R31/6000VP6000FT -SN BR VV009 01/M01 A2954 RMK AO2 SLP006 P0008 60021 I3004 T00061006 53005 $,KSLE,2023-02-23T08:56:00Z,44.9,-123.0,0.6,-0.6,170,14,,1.0,29.53937,1000.6,,TRUE,TRUE,TRUE,,,,,-SN BR,OVX,0,,,,,,,LIFR,0.5,,,,,0.08,0.21,,,,900,METAR,63.0
KSLE 230819Z AUTO 17011KT 1SM R31/5500VP6000FT -SN BR VV007 01/M01 A2954 RMK AO2 P0004 T00061006 $,KSLE,2023-02-23T08:19:00Z,44.9,-123.0,0.6,-0.6,170,11,,1.0,29.53937,,,TRUE,TRUE,TRUE,,,,,-SN BR,OVX,0,,,,,,,LIFR,,,,,,0.04,,,,,700,METAR,63.0
KSLE 230803Z AUTO 17012KT 3/4SM R31/3500V5500FT -SN BR VV006 01/M01 A2954 RMK AO2 P0001 T00061006 $,KSLE,2023-02-23T08:03:00Z,44.9,-123.0,0.6,-0.6,170,12,,0.75,29.53937,,,TRUE,TRUE,TRUE,,,,,-SN BR,OVX,0,,,,,,,LIFR,,,,,,0.01,,,,,600,SPECI,63.0
KSLE 230756Z AUTO 16012KT 1SM R31/4000V6000FT -SN BR VV006 01/M01 A2953 RMK AO2 SNEMMB50 SLP003 P0012 I1004 T00061006 400390006 $,KSLE,2023-02-23T07:56:00Z,44.9,-123.0,0.6,-0.6,160,12,,1.0,29.530512,1000.3,,TRUE,TRUE,TRUE,,,,,-SN BR,OVX,0,,,,,,,LIFR,,,,3.9,0.6,0.12,,,,,600,METAR,63.0
KSLE 230719Z AUTO 16013G21KT 3/4SM R31/4500VP6000FT -SN BR VV008 01/M01 A2953 RMK AO2 P0003 T00061006,KSLE,2023-02-23T07:19:00Z,44.9,-123.0,0.6,-0.6,160,13,21,0.75,29.530512,,,TRUE,TRUE,,,,,,-SN BR,OVX,0,,,,,,,LIFR,,,,,,0.03,,,,,800,METAR,63.0
KSLE 230711Z AUTO 16015G23KT 1SM R31/5000VP6000FT -SN BR FEW005 BKN010 OVC014 01/M01 A2953 RMK AO2 P0002 T00061006,KSLE,2023-02-23T07:11:00Z,44.9,-123.0,0.6,-0.6,160,15,23,1.0,29.530512,,,TRUE,TRUE,,,,,,-SN BR,FEW,500,BKN,1000,OVC,1400,,,IFR,,,,,,0.02,,,,,,SPECI,63.0
KSLE 230702Z AUTO 17018G24KT 1 3/4SM -SN BR FEW005 OVC013 01/M01 A2953 RMK AO2 VIS 3/4V3 P0000 T00111006,KSLE,2023-02-23T07:02:00Z,44.9,-123.0,1.1,-0.6,170,18,24,1.75,29.530512,,,TRUE,TRUE,,,,,,-SN BR,FEW,500,OVC,1300,,,,,IFR,,,,,,0.005,,,,,,METAR,63.0
KSLE 230656Z AUTO 16017G21KT 3SM -SN BR OVC013 01/M01 A2953 RMK AO2 UPB28E33SNB12E28B38 SLP001 P0001 T00111006,KSLE,2023-02-23T06:56:00Z,44.9,-123.0,1.1,-0.6,160,17,21,3.0,29.530512,1000.1,,TRUE,TRUE,,,,,,-SN BR,OVC,1300,,,,,,,MVFR,,,,,,0.01,,,,,,METAR,63.0
KSLE 230652Z AUTO 17016G21KT 4SM -SN BR OVC013 01/M01 A2953 RMK AO2 UPB28E33SNB12E28B38 P0001,KSLE,2023-02-23T06:52:00Z,44.9,-123.0,1.0,-1.0,170,16,21,4.0,29.530512,,,TRUE,TRUE,,,,,,-SN BR,OVC,1300,,,,,,,MVFR,,,,,,0.01,,,,,,METAR,63.0
KSLE 230611Z AUTO 17014G22KT 10SM SCT020 BKN026 OVC034 02/M01 A2953 RMK AO2 T00221011,KSLE,2023-02-23T06:11:00Z,44.9,-123.0,2.2,-1.1,170,14,22,10.0,29.530512,,,TRUE,TRUE,,,,,,,SCT,2000,BKN,2600,OVC,3400,,,MVFR,,,,,,,,,,,,SPECI,63.0
KSLE 230556Z AUTO 16012KT 10SM FEW020 SCT029 OVC036 02/M01 A2953 RMK AO2 SLP002 60001 T00221011 10039 20017 50000,KSLE,2023-02-23T05:56:00Z,44.9,-123.0,2.2,-1.1,160,12,,10.0,29.530512,1000.2,,TRUE,TRUE,,,,,,,FEW,2000,SCT,2900,OVC,3600,,,VFR,0.0,3.9,1.7,,,,,0.01,,,,METAR,63.0
KSLE 230456Z 16013G21KT 10SM BKN040 02/M01 A2953 RMK AO2 SLP002 T00221006,KSLE,2023-02-23T04:56:00Z,44.9,-123.0,2.2,-0.6,160,13,21,10.0,29.530512,1000.2,,,TRUE,,,,,,,BKN,4000,,,,,,,VFR,,,,,,,,,,,,METAR,63.0
KSLE 230356Z 16010KT 10SM FEW013 OVC036 02/00 A2953 RMK AO2 SLP003 T00220000,KSLE,2023-02-23T03:56:00Z,44.9,-123.0,2.2,0.0,160,10,,10.0,29.530512,1000.3,,,TRUE,,,,,,,FEW,1300,OVC,3600,,,,,VFR,,,,,,,,,,,,METAR,63.0
KSLE 230340Z 17011KT 10SM FEW015 SCT022 OVC034 02/00 A2953 RMK AO2 T00220000,KSLE,2023-02-23T03:40:00Z,44.9,-123.0,2.2,0.0,170,11,,10.0,29.530512,,,,TRUE,,,,,,,FEW,1500,SCT,2200,OVC,3400,,,VFR,,,,,,,,,,,,SPECI,63.0
KSLE 230328Z 17012KT 10SM SCT015 BKN022 BKN034 03/01 A2953 RMK AO2 T00280006,KSLE,2023-02-23T03:28:00Z,44.9,-123.0,2.8,0.6,170,12,,10.0,29.530512,,,,TRUE,,,,,,,SCT,1500,BKN,2200,BKN,3400,,,MVFR,,,,,,,,,,,,SPECI,63.0
KSLE 230256Z 17011KT 10SM FEW032 SCT039 BKN070 03/01 A2953 RMK AO2 RAE15UPB15E17 SLP002 P0001 60001 T00280006 50001,KSLE,2023-02-23T02:56:00Z,44.9,-123.0,2.8,0.6,170,11,,10.0,29.530512,1000.2,,,TRUE,,,,,,,FEW,3200,SCT,3900,BKN,7000,,,VFR,0.1,,,,,0.01,0.01,,,,,METAR,63.0
KSLE 230218Z 17012KT 10SM FEW021 BKN033 OVC070 03/01 A2954 RMK AO2 RAE15UPB15E17 P0001 T00280011,KSLE,2023-02-23T02:18:00Z,44.9,-123.0,2.8,1.1,170,12,,10.0,29.53937,,,,TRUE,,,,,,,FEW,2100,BKN,3300,OVC,7000,,,VFR,,,,,,0.01,,,,,,SPECI,63.0
KSLE 230207Z 17011KT 10SM -RA OVC026 03/01 A2954 RMK AO2 P0001 T00280011,KSLE,2023-02-23T02:07:00Z,44.9,-123.0,2.8,1.1,170,11,,10.0,29.53937,,,,TRUE,,,,,,-RA,OVC,2600,,,,,,,MVFR,,,,,,0.01,,,,,,SPECI,63.0
KSLE 230156Z 17009KT 8SM -RA FEW015 SCT025 OVC040 03/01 A2954 RMK AO2 RAB18 SLP004 P0000 T00330011,KSLE,2023-02-23T01:56:00Z,44.9,-123.0,3.3,1.1,170,9,,8.0,29.53937,1000.4,,,TRUE,,,,,,-RA,FEW,1500,SCT,2500,OVC,4000,,,VFR,,,,,,0.005,,,,,,METAR,63.0
KSLE 230056Z 18011KT 6SM BR BKN015 BKN024 BKN042 03/01 A2953 RMK AO2 RAE01 SLP001 P0000 T00330011,KSLE,2023-02-23T00:56:00Z,44.9,-123.0,3.3,1.1,180,11,,6.0,29.530512,1000.1,,,TRUE,,,,,,BR,BKN,1500,BKN,2400,BKN,4200,,,MVFR,,,,,,0.005,,,,,,SPECI,63.0
KSLE 230003Z 17010KT 10SM BKN015 BKN033 OVC070 03/02 A2953 RMK AO2 RAE01 P0000 T00330017,KSLE,2023-02-23T00:03:00Z,44.9,-123.0,3.3,1.7,170,10,,10.0,29.530512,,,,TRUE,,,,,,,BKN,1500,BKN,3300,OVC,7000,,,MVFR,,,,,,0.005,,,,,,SPECI,63.0
KSLE 222356Z 17009KT 10SM -RA BKN012 BKN032 OVC055 03/02 A2953 RMK AO2 RAE2259B40UPB24E40 SLP001 P0000 60029 T00330017 10039 20006 58005,KSLE,2023-02-22T23:56:00Z,44.9,-123.0,3.3,1.7,170,9,,10.0,29.530512,1000.1,,,TRUE,,,,,,-RA,BKN,1200,BKN,3200,OVC,5500,,,MVFR,-0.5,3.9,0.6,,,0.005,,0.29,,,,METAR,63.0
KSLE 222256Z 18009KT 5SM -RA BR FEW009 BKN032 OVC040 02/01 A2954 RMK AO2 UPE24RAB24 SLP004 P0002 T00220011,KSLE,2023-02-22T22:56:00Z,44.9,-123.0,2.2,1.1,180,9,,5.0,29.53937,1000.4,,,TRUE,,,,,,-RA BR,FEW,900,BKN,3200,OVC,4000,,,MVFR,,,,,,0.02,,,,,,METAR,63.0
KSLE 222156Z 17013KT 4SM UP BR BKN010 OVC025 02/01 A2954 RMK AO2 UPB18E45B55SNE18B45E55 SLP005 P0004 T00220006,KSLE,2023-02-22T21:56:00Z,44.9,-123.0,2.2,0.6,170,13,,4.0,29.53937,1000.5,,,TRUE,,,,,,BR UP,BKN,1000,OVC,2500,,,,,MVFR,,,,,,0.04,,,,,,METAR,63.0
KSLE 222148Z 18012KT 4SM -SN BR FEW009 OVC025 02/01 A2954 RMK AO2 UPB18E45SNE18B45 P0004 T00170006,KSLE,2023-02-22T21:48:00Z,44.9,-123.0,1.7,0.6,180,12,,4.0,29.53937,,,,TRUE,,,,,,-SN BR,FEW,900,OVC,2500,,,,,MVFR,,,,,,0.04,,,,,,METAR,63.0
KSLE 222135Z 18011KT 4SM UP BR FEW008 BKN033 OVC046 02/01 A2954 RMK AO2 UPB18SNE18 P0003 T00170006,KSLE,2023-02-22T21:35:00Z,44.9,-123.0,1.7,0.6,180,11,,4.0,29.53937,,,,TRUE,,,,,,BR UP,FEW,800,BKN,3300,OVC,4600,,,MVFR,,,,,,0.03,,,,,,SPECI,63.0
KSLE 222108Z AUTO 17010KT 4SM -SN BR OVC018 01/00 A2954 RMK AO2 P0002 T00110000,KSLE,2023-02-22T21:08:00Z,44.9,-123.0,1.1,0.0,170,10,,4.0,29.53937,,,TRUE,TRUE,,,,,,-SN BR,OVC,1800,,,,,,,MVFR,,,,,,0.02,,,,,,SPECI,63.0
KSLE 222056Z AUTO 17011KT 4SM -SN BR OVC014 01/00 A2954 RMK AO2 RAE06SNB06 SLP006 P0018 60023 T00110000 58003,KSLE,2023-02-22T20:56:00Z,44.9,-123.0,1.1,0.0,170,11,,4.0,29.53937,1000.6,,TRUE,TRUE,,,,,,-SN BR,OVC,1400,,,,,,,MVFR,-0.3,,,,,0.18,0.23,,,,,METAR,63.0
KSLE 222043Z AUTO 17012KT 3SM R31/6000VP6000FT -SN BR OVC010 01/00 A2955 RMK AO2 RAE06SNB06 P0017 T00110000,KSLE,2023-02-22T20:43:00Z,44.9,-123.0,1.1,0.0,170,12,,3.0,29.551182,,,TRUE,TRUE,,,,,,-SN BR,OVC,1000,,,,,,,MVFR,,,,,,0.17,,,,,,SPECI,63.0
KSLE 222033Z AUTO 18010KT 1 3/4SM R31/5500VP6000FT -SN BR OVC011 01/00 A2955 RMK AO2 RAE06SNB06 P0013 T00110000,KSLE,2023-02-22T20:33:00Z,44.9,-123.0,1.1,0.0,180,10,,1.75,29.551182,,,TRUE,TRUE,,,,,,-SN BR,OVC,1100,,,,,,,IFR,,,,,,0.13,,,,,,SPECI,63.0
KSLE 222015Z AUTO 19011KT 2SM -SN BR OVC011 02/00 A2956 RMK AO2 RAE06SNB06 P0008 T00170000,KSLE,2023-02-22T20:15:00Z,44.9,-123.0,1.7,0.0,190,11,,2.0,29.56004,,,TRUE,TRUE,,,,,,-SN BR,OVC,1100,,,,,,,IFR,,,,,,0.08,,,,,,SPECI,63.0
KSLE 221956Z AUTO 19014KT 3SM RA BR OVC013 02/01 A2956 RMK AO2 RAB17 SLP010 P0005 T00220006,KSLE,2023-02-22T19:56:00Z,44.9,-123.0,2.2,0.6,190,14,,3.0,29.56004,1001.0,,TRUE,TRUE,,,,,,RA BR,OVC,1300,,,,,,,MVFR,,,,,,0.05,,,,,,METAR,63.0
KSLE 221916Z AUTO 17012KT 10SM FEW014 BKN029 OVC085 03/01 A2955 RMK AO2 T00330011,KSLE,2023-02-22T19:16:00Z,44.9,-123.0,3.3,1.1,170,12,,10.0,29.551182,,,TRUE,TRUE,,,,,,,FEW,1400,BKN,2900,OVC,8500,,,MVFR,,,,,,,,,,,,SPECI,63.0
KSLE 221856Z AUTO 18012KT 10SM SCT017 BKN060 OVC080 03/01 A2955 RMK AO2 UPB08E17B26E34RAB34E44 SLP008 P0000 T00330011,KSLE,2023-02-22T18:56:00Z,44.9,-123.0,3.3,1.1,180,12,,10.0,29.551182,1000.8,,TRUE,TRUE,,,,,,,SCT,1700,BKN,6000,OVC,8000,,,VFR,,,,,,0.005,,,,,,METAR,63.0
KSLE 221847Z AUTO 17013KT 10SM SCT014 BKN019 OVC055 03/01 A2955 RMK AO2 UPB08E17B26E34RAB34E44 P0000 T00280011,KSLE,2023-02-22T18:47:00Z,44.9,-123.0,2.8,1.1,170,13,,10.0,29.551182,,,TRUE,TRUE,,,,,,,SCT,1400,BKN,1900,OVC,5500,,,MVFR,,,,,,0.005,,,,,,SPECI,63.0
KSLE 221823Z AUTO 17012G18KT 10SM BKN013 BKN018 OVC060 03/01 A2955 RMK AO2 UPB08E17 P0000 T00280011,KSLE,2023-02-22T18:23:00Z,44.9,-123.0,2.8,1.1,170,12,18,10.0,29.551182,,,TRUE,TRUE,,,,,,,BKN,1300,BKN,1800,OVC,6000,,,MVFR,,,,,,0.005,,,,,,METAR,63.0
KSLE 221811Z AUTO 18013KT 10SM R31/3500VP6000FT UP SCT011 BKN016 OVC060 03/01 A2955 RMK AO2 UPB08 P0000 T00280011,KSLE,2023-02-22T18:11:00Z,44.9,-123.0,2.8,1.1,180,13,,10.0,29.551182,,,TRUE,TRUE,,,,,,UP,SCT,1100,BKN,1600,OVC,6000,,,MVFR,,,,,,0.005,,,,,,SPECI,63.0
KSLE 221756Z AUTO 17012KT 10SM SCT010 BKN060 OVC100 03/01 A2955 RMK AO2 UPB05E14B24E25SNB14E24B25E26 SLP008 P0000 60000 T00280011 10028 20017 50002,KSLE,2023-02-22T17:56:00Z,44.9,-123.0,2.8,1.1,170,12,,10.0,29.551182,1000.8,,TRUE,TRUE,,,,,,,SCT,1000,BKN,6000,OVC,10000,,,VFR,0.2,2.8,1.7,,,0.005,,0.005,,,,METAR,63.0
KSLE 221734Z AUTO 17011KT 10SM FEW010 BKN049 OVC100 02/01 A2955 RMK AO2 UPB05E14B24E25SNB14E24B25E26 P0000 T00220006,KSLE,2023-02-22T17:34:00Z,44.9,-123.0,2.2,0.6,170,11,,10.0,29.551182,,,TRUE,TRUE,,,,,,,FEW,1000,BKN,4900,OVC,10000,,,VFR,,,,,,0.005,,,,,,SPECI,63.0
KSLE 221716Z AUTO 18012KT 9SM -SN BKN022 OVC033 02/00 A2955 RMK AO2 UPB05E14SNB14 P0000 T00170000,KSLE,2023-02-22T17:16:00Z,44.9,-123.0,1.7,0.0,180,12,,9.0,29.551182,,,TRUE,TRUE,,,,,,-SN,BKN,2200,OVC,3300,,,,,MVFR,,,,,,0.005,,,,,,SPECI,63.0
KSLE 221656Z AUTO 17010KT 10SM OVC034 02/01 A2955 RMK AO2 UPB17E20SNB02E17 SLP009 P0000 T00220006,KSLE,2023-02-22T16:56:00Z,44.9,-123.0,2.2,0.6,170,10,,10.0,29.551182,1000.9,,TRUE,TRUE,,,,,,,OVC,3400,,,,,,,VFR,,,,,,0.005,,,,,,METAR,63.0
KSLE 221556Z AUTO 19010KT 10SM OVC041 02/00 A2955 RMK AO2 UPB29E40 SLP008 P0000 T00220000,KSLE,2023-02-22T15:56:00Z,44.9,-123.0,2.2,0.0,190,10,,10.0,29.551182,1000.8,,TRUE,TRUE,,,,,,,OVC,4100,,,,,,,VFR,,,,,,0.005,,,,,,SPECI,63.0
KSLE 221456Z AUTO 19011KT 10SM OVC037 02/00 A2954 RMK AO2 SLP006 60000 T00170000 55001,KSLE,2023-02-22T14:56:00Z,44.9,-123.0,1.7,0.0,190,11,,10.0,29.53937,1000.6,,TRUE,TRUE,,,,,,,OVC,3700,,,,,,,VFR,-0.1,,,,,,0.005,,,,,METAR,63.0
KSLE 221356Z AUTO 19012KT 10SM BKN033 OVC045 02/00 A2954 RMK AO2 SLP006 T00170000,KSLE,2023-02-22T13:56:00Z,44.9,-123.0,1.7,0.0,190,12,,10.0,29.53937,1000.6,,TRUE,TRUE,,,,,,,BKN,3300,OVC,4500,,,,,VFR,,,,,,,,,,,,METAR,63.0
KSLE 221256Z AUTO 19010KT 10SM OVC034 02/00 A2955 RMK AO2 UPE01 SLP006 P0000 T00170000,KSLE,2023-02-22T12:56:00Z,44.9,-123.0,1.7,0.0,190,10,,10.0,29.551182,1000.6,,TRUE,TRUE,,,,,,,OVC,3400,,,,,,,VFR,,,,,,0.005,,,,,,METAR,63.0
KSLE 221156Z AUTO 20010KT 10SM UP OVC035 02/00 A2955 RMK AO2 UPB40 SLP006 P0000 60001 70014 T00170000 10022 20017 58009,KSLE,2023-02-22T11:56:00Z,44.9,-123.0,1.7,0.0,200,10,,10.0,29.551182,1000.6,,TRUE,TRUE,,,,,,UP,OVC,3500,,,,,,,VFR,-0.9,2.2,1.7,,,0.005,,0.01,0.14,,,METAR,63.0
KSLE 221056Z AUTO 19011KT 10SM BKN037 BKN120 02/00 A2956 RMK AO2 SLP009 T00220000,KSLE,2023-02-22T10:56:00Z,44.9,-123.0,2.2,0.0,190,11,,10.0,29.56004,1000.9,,TRUE,TRUE,,,,,,,BKN,3700,BKN,12000,,,,,VFR,,,,,,,,,,,,METAR,63.0
KSLE 220956Z AUTO 18010KT 10SM BKN035 BKN045 OVC090 02/01 A2957 RMK AO2 UPE01 SLP013 P0000 T00220006,KSLE,2023-02-22T09:56:00Z,44.9,-123.0,2.2,0.6,180,10,,10.0,29.568897,1001.3,,TRUE,TRUE,,,,,,,BKN,3500,BKN,4500,OVC,9000,,,VFR,,,,,,0.005,,,,,,METAR,63.0
KSLE 220905Z AUTO 19011KT 10SM SCT029 BKN036 OVC080 02/01 A2957 RMK AO2 UPE01 P0000 T00220006,KSLE,2023-02-22T09:05:00Z,44.9,-123.0,2.2,0.6,190,11,,10.0,29.568897,,,TRUE,TRUE,,,,,,,SCT,2900,BKN,3600,OVC,8000,,,VFR,,,,,,0.005,,,,,,SPECI,63.0
KSLE 220856Z AUTO 18010KT 10SM UP BKN029 BKN036 OVC070 02/01 A2957 RMK AO2 RAE0757B49E50UPB0757E00B50 SLP015 P0000 60001 T00220006 58008,KSLE,2023-02-22T08:56:00Z,44.9,-123.0,2.2,0.6,180,10,,10.0,29.568897,1001.5,,TRUE,TRUE,,,,,,UP,BKN,2900,BKN,3600,OVC,7000,,,MVFR,-0.8,,,,,0.005,0.01,,,,,METAR,63.0
KSLE 220839Z AUTO 18010KT 10SM BKN029 OVC039 02/01 A2958 RMK AO2 RAE0757UPB0757E00 P0000 T00220006,KSLE,2023-02-22T08:39:00Z,44.9,-123.0,2.2,0.6,180,10,,10.0,29.58071,,,TRUE,TRUE,,,,,,,BKN,2900,OVC,3900,,,,,MVFR,,,,,,0.005,,,,,,SPECI,63.0
KSLE 220756Z AUTO 20009KT 10SM -RA FEW032 BKN045 OVC100 02/01 A2959 RMK AO2 UPB0657E07B25E26B45E47RAB07E27B47 SLP021 P0001 T00220006 400830017,KSLE,2023-02-22T07:56:00Z,44.9,-123.0,2.2,0.6,200,9,,10.0,29.589567,1002.1,,TRUE,TRUE,,,,,,-RA,FEW,3200,BKN,4500,OVC,10000,,,VFR,,,,8.3,1.7,0.01,,,,,,METAR,63.0
KSLE 220656Z AUTO 22009KT 10SM FEW046 BKN070 BKN085 02/01 A2960 RMK AO2 RAE0559UPB0559E02 SLP024 P0000 T00220006,KSLE,2023-02-22T06:56:00Z,44.9,-123.0,2.2,0.6,220,9,,10.0,29.601377,1002.4,,TRUE,TRUE,,,,,,,FEW,4600,BKN,7000,BKN,8500,,,VFR,,,,,,0.005,,,,,,METAR,63.0
KSLE 220556Z AUTO 19010KT 10SM -RA BKN033 BKN070 BKN090 02/01 A2960 RMK AO2 RAE01B45UPB01E11B43E45 SLP024 P0000 60003 T00170006 10061 20017 58011,KSLE,2023-02-22T05:56:00Z,44.9,-123.0,1.7,0.6,190,10,,10.0,29.601377,1002.4,,TRUE,TRUE,,,,,,-RA,BKN,3300,BKN,7000,BKN,9000,,,VFR,-1.1,6.1,1.7,,,0.005,,0.03,,,,METAR,63.0
KSLE 220503Z AUTO 21005KT 10SM UP FEW016 SCT024 OVC030 03/01 A2961 RMK AO2 RAE01UPB01 P0000 T00280011,KSLE,2023-02-22T05:03:00Z,44.9,-123.0,2.8,1.1,210,5,,10.0,29.610237,,,TRUE,TRUE,,,,,,UP,FEW,1600,SCT,2400,OVC,3000,,,MVFR,,,,,,0.005,,,,,,METAR,63.0
KSLE 220456Z AUTO 20004KT 9SM -RA FEW014 SCT021 OVC027 03/02 A2961 RMK AO2 RAB25 SLP027 P0002 T00280017,KSLE,2023-02-22T04:56:00Z,44.9,-123.0,2.8,1.7,200,4,,9.0,29.610237,1002.7,,TRUE,TRUE,,,,,,-RA,FEW,1400,SCT,2100,OVC,2700,,,MVFR,,,,,,0.02,,,,,,METAR,63.0
KSLE 220356Z AUTO 23007KT 10SM BKN023 BKN050 03/01 A2962 RMK AO2 RAB30E50 SLP031 P0001 T00330006,KSLE,2023-02-22T03:56:00Z,44.9,-123.0,3.3,0.6,230,7,,10.0,29.619095,1003.1,,TRUE,TRUE,,,,,,,BKN,2300,BKN,5000,,,,,MVFR,,,,,,0.01,,,,,,METAR,63.0
KSLE 220256Z AUTO 20007KT 10SM FEW031 BKN070 OVC085 03/01 A2963 RMK AO2 RAE23 SLP034 P0000 60000 T00330011 56013,KSLE,2023-02-22T02:56:00Z,44.9,-123.0,3.3,1.1,200,7,,10.0,29.630905,1003.4,,TRUE,TRUE,,,,,,,FEW,3100,BKN,7000,OVC,8500,,,VFR,-1.3,,,,,0.005,0.005,,,,,METAR,63.0
KSLE 220156Z AUTO 26009KT 10SM -RA FEW018 BKN037 OVC050 04/01 A2964 RMK AO2 RAB32 SLP038 P0000 T00390011,KSLE,2023-02-22T01:56:00Z,44.9,-123.0,3.9,1.1,260,9,,10.0,29.639763,1003.8,,TRUE,TRUE,,,,,,-RA,FEW,1800,BKN,3700,OVC,5000,,,VFR,,,,,,0.005,,,,,,METAR,63.0
KSLE 220056Z AUTO VRB05KT 10SM SCT030 BKN055 06/01 A2965 RMK AO2 RAE00B27E37 SLP042 P0000 T00560011,KSLE,2023-02-22T00:56:00Z,44.9,-123.0,5.6,1.1,0,5,,10.0,29.648623,1004.2,,TRUE,TRUE,,,,,,,SCT,3000,BKN,5500,,,,,VFR,,,,,,0.005,,,,,,METAR,63.0
KSLE 212356Z AUTO 26008KT 10SM -RA SCT026 BKN032 OVC048 06/02 A2967 RMK AO2 RAB50 SLP047 P0000 60008 T00610017 10072 20039 56010,KSLE,2023-02-21T23:56:00Z,44.9,-123.0,6.1,1.7,260,8,,10.0,29.66929,1004.7,,TRUE,TRUE,,,,,,-RA,SCT,2600,BKN,3200,OVC,4800,,,VFR,-1.0,7.2,3.9,,,0.005,,0.08,,,,METAR,63.0
KSLE 212305Z AUTO 24011G17KT 10SM SCT030 BKN035 07/02 A2967 RMK AO2 T00670017,KSLE,2023-02-21T23:05:00Z,44.9,-123.0,6.7,1.7,240,11,17,10.0,29.66929,,,TRUE,TRUE,,,,,,,SCT,3000,BKN,3500,,,,,VFR,,,,,,,,,,,,SPECI,63.0
KSLE 212256Z AUTO 26006KT 10SM FEW022 BKN028 BKN037 06/02 A2968 RMK AO2 RAB26E42 SLP050 P0000 T00610017,KSLE,2023-02-21T22:56:00Z,44.9,-123.0,6.1,1.7,260,6,,10.0,29.681103,1005.0,,TRUE,TRUE,,,,,,,FEW,2200,BKN,2800,BKN,3700,,,MVFR,,,,,,0.005,,,,,,METAR,63.0
KSLE 212156Z AUTO 28008G17KT 10SM FEW039 SCT075 BKN090 05/02 A2970 RMK AO2 RAE16B38E47 SLP057 P0004 T00500017,KSLE,2023-02-21T21:56:00Z,44.9,-123.0,5.0,1.7,280,8,17,10.0,29.698818,1005.7,,TRUE,TRUE,,,,,,,FEW,3900,SCT,7500,BKN,9000,,,VFR,,,,,,0.04,,,,,,METAR,63.0
KSLE 212119Z AUTO 27016G20KT 10SM SCT017 BKN075 OVC090 05/02 A2972 RMK AO2 RAE16 P0004 T00500022,KSLE,2023-02-21T21:19:00Z,44.9,-123.0,5.0,2.2,270,16,20,10.0,29.719488,,,TRUE,TRUE,,,,,,,SCT,1700,BKN,7500,OVC,9000,,,VFR,,,,,,0.04,,,,,,SPECI,63.0
KSLE 212056Z AUTO 28010KT 5SM RA FEW019 BKN025 OVC041 05/02 A2972 RMK AO2 RAB09 SLP066 P0001 60004 T00500022 56021,KSLE,2023-02-21T20:56:00Z,44.9,-123.0,5.0,2.2,280,10,,5.0,29.719488,1006.6,,TRUE,TRUE,,,,,,RA,FEW,1900,BKN,2500,OVC,4100,,,MVFR,-2.1,,,,,0.01,0.04,,,,,METAR,63.0
KSLE 212032Z AUTO 23011KT 10SM -RA SCT018 BKN031 OVC040 06/02 A2973 RMK AO2 RAB09 P0001 T00560022,KSLE,2023-02-21T20:32:00Z,44.9,-123.0,5.6,2.2,230,11,,10.0,29.731298,,,TRUE,TRUE,,,,,,-RA,SCT,1800,BKN,3100,OVC,4000,,,VFR,,,,,,0.01,,,,,,SPECI,63.0
KSLE 212022Z AUTO 28012KT 6SM R31/5500VP6000FT -RA BKN019 BKN026 OVC042 05/02 A2974 RMK AO2 RAB09 P0000 T00500022,KSLE,2023-02-21T20:22:00Z,44.9,-123.0,5.0,2.2,280,12,,6.0,29.740158,,,TRUE,TRUE,,,,,,-RA,BKN,1900,BKN,2600,OVC,4200,,,MVFR,,,,,,0.005,,,,,,METAR,63.0
KSLE 211956Z AUTO 19008KT 10SM FEW024 BKN032 BKN044 06/03 A2974 RMK AO2 RAE32 SLP072 P0001 T00560028,KSLE,2023-02-21T19:56:00Z,44.9,-123.0,5.6,2.8,190,8,,10.0,29.740158,1007.2,,TRUE,TRUE,,,,,,,FEW,2400,BKN,3200,BKN,4400,,,VFR,,,,,,0.01,,,,,,METAR,63.0
KSLE 211954Z AUTO 20009KT 10SM FEW022 BKN030 BKN044 06/03 A2974 RMK AO2 RAE32 P0001,KSLE,2023-02-21T19:54:00Z,44.9,-123.0,6.0,3.0,200,9,,10.0,29.740158,,,TRUE,TRUE,,,,,,,FEW,2200,BKN,3000,BKN,4400,,,MVFR,,,,,,0.01,,,,,,SPECI,63.0
KSLE 211856Z AUTO 27010KT 7SM -RA SCT015 BKN028 OVC045 04/02 A2979 RMK AO2 RAE19B44 SLP087 P0002 T00440017,KSLE,2023-02-21T18:56:00Z,44.9,-123.0,4.4,1.7,270,10,,7.0,29.790354,1008.7,,TRUE,TRUE,,,,,,-RA,SCT,1500,BKN,2800,OVC,4500,,,MVFR,,,,,,0.02,,,,,,SPECI,63.0
KSLE 211852Z AUTO 24005KT 6SM -RA SCT017 BKN025 OVC065 04/02 A2979 RMK AO2 RAE19B44 P0001,KSLE,2023-02-21T18:52:00Z,44.9,-123.0,4.0,2.0,240,5,,6.0,29.790354,,,TRUE,TRUE,,,,,,-RA,SCT,1700,BKN,2500,OVC,6500,,,MVFR,,,,,,0.01,,,,,,SPECI,63.0
KSLE 211837Z AUTO 22007KT 10SM FEW024 BKN050 OVC080 05/02 A2979 RMK AO2 RAE19 P0000 T00500022,KSLE,2023-02-21T18:37:00Z,44.9,-123.0,5.0,2.2,220,7,,10.0,29.790354,,,TRUE,TRUE,,,,,,,FEW,2400,BKN,5000,OVC,8000,,,VFR,,,,,,0.005,,,,,,SPECI,63.0
KSLE 211810Z AUTO 23009KT 9SM -RA FEW020 BKN029 OVC049 04/02 A2980 RMK AO2 P0000 T00440017,KSLE,2023-02-21T18:10:00Z,44.9,-123.0,4.4,1.7,230,9,,9.0,29.799213,,,TRUE,TRUE,,,,,,-RA,FEW,2000,BKN,2900,OVC,4900,,,MVFR,,,,,,0.005,,,,,,METAR,63.0
KSLE 211756Z AUTO 21007KT 10SM -RA SCT030 BKN045 OVC050 05/02 A2980 RMK AO2 SLP092 P0002 60002 T00500017 10067 20039 58009,KSLE,2023-02-21T17:56:00Z,44.9,-123.0,5.0,1.7,210,7,,10.0,29.799213,1009.2,,TRUE,TRUE,,,,,,-RA,SCT,3000,BKN,4500,OVC,5000,,,VFR,-0.9,6.7,3.9,,,0.02,,,,,,SPECI,63.0
KSLE 211656Z AUTO 18007KT 6SM -RA SCT024 BKN032 OVC043 04/01 A2982 RMK AO2 RAB41 SLP100 P0000 T00440011,KSLE,2023-02-21T16:56:00Z,44.9,-123.0,4.4,1.1,180,7,,6.0,29.819881,1010.0,,TRUE,TRUE,,,,,,-RA,SCT,2400,BKN,3200,OVC,4300,,,VFR,,,,,,0.005,,,,,,METAR,63.0
KSLE 211556Z AUTO 16010KT 10SM OVC042 04/01 A2984 RMK AO2 SLP104 T00440011,KSLE,2023-02-21T15:56:00Z,44.9,-123.0,4.4,1.1,160,10,,10.0,29.840551,1010.4,,TRUE,TRUE,,,,,,,OVC,4200,,,,,,,VFR,,,,,,,,,,,,METAR,63.0
KSLE 211456Z AUTO 29006KT 10SM CLR 05/M01 A2983 RMK AO2 SLP101 60000 T00501011 58019,KSLE,2023-02-21T14:56:00Z,44.9,-123.0,5.0,-1.1,290,6,,10.0,29.828741,1010.1,,TRUE,TRUE,,,,,,,CLR,,,,,,,,VFR,-1.9,,,,,,,,,,,SPECI,63.0
KSLE 211356Z AUTO 29008KT 10SM FEW024 BKN032 05/01 A2987 RMK AO2 PK WND 29027/1338 RAB37E44 SLP115 P0000 T00500006,KSLE,2023-02-21T13:56:00Z,44.9,-123.0,5.0,0.6,290,8,,10.0,29.870079,1011.5,,TRUE,TRUE,,,,,,,FEW,2400,BKN,3200,,,,,VFR,,,,,,0.005,,,,,,METAR,63.0
KSLE 211324Z AUTO VRB05KT 10SM OVC028 06/01 A2988 RMK AO2 T00610011,KSLE,2023-02-21T13:24:00Z,44.9,-123.0,6.1,1.1,0,5,,10.0,29.878937,,,TRUE,TRUE,,,,,,,OVC,2800,,,,,,,MVFR,,,,,,,,,,,,SPECI,63.0
KSLE 211256Z AUTO 23004KT 10SM OVC034 06/02 A2989 RMK AO2 SLP121 T00610017,KSLE,2023-02-21T12:56:00Z,44.9,-123.0,6.1,1.7,230,4,,10.0,29.890747,1012.1,,TRUE,TRUE,,,,,,,OVC,3400,,,,,,,VFR,,,,,,,,,,,,METAR,63.0
KSLE 211156Z AUTO 27009G16KT 250V310 10SM BKN033 07/01 A2992 RMK AO2 SLP132 60009 70009 T00670011 10083 20061 58010,KSLE,2023-02-21T11:56:00Z,44.9,-123.0,6.7,1.1,270,9,16,10.0,29.920275,1013.2,,TRUE,TRUE,,,,,,,BKN,3300,,,,,,,VFR,-1.0,8.3,6.1,,,,,0.09,0.09,,,METAR,63.0
KSLE 211056Z AUTO 31005KT 10SM FEW032 07/02 A2994 RMK AO2 SLP140 T00670017,KSLE,2023-02-21T10:56:00Z,44.9,-123.0,6.7,1.7,310,5,,10.0,29.940945,1014.0,,TRUE,TRUE,,,,,,,FEW,3200,,,,,,,VFR,,,,,,,,,,,,METAR,63.0
KSLE 210956Z AUTO 30013G21KT 10SM SCT035 SCT044 07/03 A2995 RMK AO2 SLP143 T00720028,KSLE,2023-02-21T09:56:00Z,44.9,-123.0,7.2,2.8,300,13,21,10.0,29.949802,1014.3,,TRUE,TRUE,,,,,,,SCT,3500,SCT,4400,,,,,VFR,,,,,,,,,,,,METAR,63.0
KSLE 210856Z AUTO 29015G21KT 10SM FEW011 SCT019 OVC030 08/05 A2995 RMK AO2 PK WND 30026/0831 RAB30E55 SLP142 P0008 60009 T00830050 55019,KSLE,2023-02-21T08:56:00Z,44.9,-123.0,8.3,5.0,290,15,21,10.0,29.949802,1014.2,,TRUE,TRUE,,,,,,,FEW,1100,SCT,1900,OVC,3000,,,MVFR,-1.9,,,,,0.08,0.09,,,,,METAR,63.0
KSLE 210848Z AUTO 27011KT 9SM -RA FEW011 BKN019 OVC032 08/06 A2995 RMK AO2 PK WND 30026/0831 RAB30 P0008 T00830061,KSLE,2023-02-21T08:48:00Z,44.9,-123.0,8.3,6.1,270,11,,9.0,29.949802,,,TRUE,TRUE,,,,,,-RA,FEW,1100,BKN,1900,OVC,3200,,,MVFR,,,,,,0.08,,,,,,SPECI,63.0
KSLE 210837Z AUTO 27009G26KT 2 1/2SM +RA BR FEW011 BKN028 OVC033 08/06 A2996 RMK AO2 PK WND 30026/0831 RAB30 P0001 T00830061,KSLE,2023-02-21T08:37:00Z,44.9,-123.0,8.3,6.1,270,9,26,2.5,29.958662,,,TRUE,TRUE,,,,,,+RA BR,FEW,1100,BKN,2800,OVC,3300,,,IFR,,,,,,0.01,,,,,,METAR,63.0
KSLE 210756Z AUTO 19013KT 10SM BKN040 08/06 A2994 RMK AO2 RAE06 SLP141 P0000 T00780061 401220056,KSLE,2023-02-21T07:56:00Z,44.9,-123.0,7.8,6.1,190,13,,10.0,29.940945,1014.1,,TRUE,TRUE,,,,,,,BKN,4000,,,,,,,VFR,,,,12.2,5.6,0.005,,,,,,METAR,63.0
KSLE 210727Z AUTO 18014KT 10SM FEW019 SCT023 BKN040 08/06 A2995 RMK AO2 RAE06 P0000 T00780061,KSLE,2023-02-21T07:27:00Z,44.9,-123.0,7.8,6.1,180,14,,10.0,29.949802,,,TRUE,TRUE,,,,,,,FEW,1900,SCT,2300,BKN,4000,,,VFR,,,,,,0.005,,,,,,SPECI,63.0
KSLE 210656Z AUTO 17014KT 6SM -RA BR SCT016 OVC021 08/06 A2998 RMK AO2 RAE10B37 SLP153 P0001 T00780061,KSLE,2023-02-21T06:56:00Z,44.9,-123.0,7.8,6.1,170,14,,6.0,29.97933,1015.3,,TRUE,TRUE,,,,,,-RA BR,SCT,1600,OVC,2100,,,,,MVFR,,,,,,0.01,,,,,,METAR,63.0
KSLE 210556Z AUTO 18013KT 5SM -RA BR OVC021 08/06 A3001 RMK AO2 RAB38 SLP161 P0000 60000 T00780061 10106 20078 58027,KSLE,2023-02-21T05:56:00Z,44.9,-123.0,7.8,6.1,180,13,,5.0,30.008858,1016.1,,TRUE,TRUE,,,,,,-RA BR,OVC,2100,,,,,,,MVFR,-2.7,10.6,7.8,,,0.005,,0.005,,,,METAR,63.0
KSLE 210519Z AUTO 18011KT 10SM BKN024 OVC040 09/05 A3003 RMK AO2 T00890050,KSLE,2023-02-21T05:19:00Z,44.9,-123.0,8.9,5.0,180,11,,10.0,30.029528,,,TRUE,TRUE,,,,,,,BKN,2400,OVC,4000,,,,,MVFR,,,,,,,,,,,,METAR,63.0
KSLE 210504Z AUTO 19015KT 10SM SCT024 BKN036 OVC044 09/05 A3003 RMK AO2 T00890050,KSLE,2023-02-21T05:04:00Z,44.9,-123.0,8.9,5.0,190,15,,10.0,30.029528,,,TRUE,TRUE,,,,,,,SCT,2400,BKN,3600,OVC,4400,,,VFR,,,,,,,,,,,,SPECI,63.0
KSLE 210456Z AUTO 19015G23KT 10SM SCT024 OVC029 09/05 A3003 RMK AO2 PRESFR SLP170 T00890050,KSLE,2023-02-21T04:56:00Z,44.9,-123.0,8.9,5.0,190,15,23,10.0,30.029528,1017.0,,TRUE,TRUE,,,,,,,SCT,2400,OVC,2900,,,,,MVFR,,,,,,,,,,,,METAR,63.0
KSLE 210439Z AUTO 21011KT 10SM BKN028 OVC044 09/05 A3005 RMK AO2 T00940050,KSLE,2023-02-21T04:39:00Z,44.9,-123.0,9.4,5.0,210,11,,10.0,30.050198,,,TRUE,TRUE,,,,,,,BKN,2800,OVC,4400,,,,,MVFR,,,,,,,,,,,,METAR,63.0
KSLE 210356Z AUTO 22009KT 10SM FEW024 OVC046 09/04 A3007 RMK AO2 RAB07E16 SLP183 P0000 T00940044,KSLE,2023-02-21T03:56:00Z,44.9,-123.0,9.4,4.4,220,9,,10.0,30.070866,1018.3,,TRUE,TRUE,,,,,,,FEW,2400,OVC,4600,,,,,VFR,,,,,,0.005,,,,,,METAR,63.0
KSLE 210256Z AUTO 20013KT 10SM OVC060 09/05 A3009 RMK AO2 SLP189 T00940050 58035,KSLE,2023-02-21T02:56:00Z,44.9,-123.0,9.4,5.0,200,13,,10.0,30.088583,1018.9,,TRUE,TRUE,,,,,,,OVC,6000,,,,,,,VFR,-3.5,,,,,,,,,,,METAR,63.0
KSLE 210234Z AUTO 19015KT 10SM SCT028 OVC065 09/05 A3009 RMK AO2 PRESFR T00940050,KSLE,2023-02-21T02:34:00Z,44.9,-123.0,9.4,5.0,190,15,,10.0,30.088583,,,TRUE,TRUE,,,,,,,SCT,2800,OVC,6500,,,,,VFR,,,,,,,,,,,,METAR,63.0
KSLE 210208Z AUTO 21011KT 10SM BKN029 OVC037 09/05 A3012 RMK AO2 T00940050,KSLE,2023-02-21T02:08:00Z,44.9,-123.0,9.4,5.0,210,11,,10.0,30.121063,,,TRUE,TRUE,,,,,,,BKN,2900,OVC,3700,,,,,MVFR,,,,,,,,,,,,SPECI,63.0
KSLE 210156Z AUTO 23011KT 10SM FEW028 OVC035 09/05 A3014 RMK AO2 SLP207 T00940050,KSLE,2023-02-21T01:56:00Z,44.9,-123.0,9.4,5.0,230,11,,10.0,30.138779,1020.7,,TRUE,TRUE,,,,,,,FEW,2800,OVC,3500,,,,,VFR,,,,,,,,,,,,METAR,63.0
KSLE 210056Z AUTO 21011KT 10SM BKN110 10/04 A3014 RMK AO2 SLP209 T01000044,KSLE,2023-02-21T00:56:00Z,44.9,-123.0,10.0,4.4,210,11,,10.0,30.138779,1020.9,,TRUE,TRUE,,,,,,,BKN,11000,,,,,,,VFR,,,,,,,,,,,,METAR,63.0
KSLE 202356Z AUTO 22009KT 10SM BKN110 11/05 A3019 RMK AO2 SLP224 T01060050 10122 20078 57017,KSLE,2023-02-20T23:56:00Z,44.9,-123.0,10.6,5.0,220,9,,10.0,30.188976,1022.4,,TRUE,TRUE,,,,,,,BKN,11000,,,,,,,VFR,-1.7,12.2,7.8,,,,,,,,,METAR,63.0
KSLE 202327Z AUTO 23010KT 10SM SCT026 11/06 A3020 RMK AO2 T01060056,KSLE,2023-02-20T23:27:00Z,44.9,-123.0,10.6,5.6,230,10,,10.0,30.200787,,,TRUE,TRUE,,,,,,,SCT,2600,,,,,,,VFR,,,,,,,,,,,,SPECI,63.0
KSLE 202256Z AUTO 25009KT 10SM OVC026 11/06 A3021 RMK AO2 SLP232 T01110056,KSLE,2023-02-20T22:56:00Z,44.9,-123.0,11.1,5.6,250,9,,10.0,30.209646,1023.2,,TRUE,TRUE,,,,,,,OVC,2600,,,,,,,MVFR,,,,,,,,,,,,METAR,63.0
KSLE 202217Z AUTO 18009KT 10SM BKN028 11/05 A3021 RMK AO2 T01110050,KSLE,2023-02-20T22:17:00Z,44.9,-123.0,11.1,5.0,180,9,,10.0,30.209646,,,TRUE,TRUE,,,,,,,BKN,2800,,,,,,,MVFR,,,,,,,,,,,,METAR,63.0
KSLE 202156Z AUTO 20012KT 10SM FEW026 11/05 A3021 RMK AO2 SLP232 T01060050,KSLE,2023-02-20T21:56:00Z,44.9,-123.0,10.6,5.0,200,12,,10.0,30.209646,1023.2,,TRUE,TRUE,,,,,,,FEW,2600,,,,,,,VFR,,,,,,,,,,,,METAR,63.0
KSLE 202056Z AUTO 22012KT 10SM FEW026 12/05 A3024 RMK AO2 SLP240 T01170050 58037,KSLE,2023-02-20T20:56:00Z,44.9,-123.0,11.7,5.0,220,12,,10.0,30.239174,1024.0,,TRUE,TRUE,,,,,,,FEW,2600,,,,,,,VFR,-3.7,,,,,,,,,,,METAR,63.0
KSLE 201956Z AUTO 19013KT 10SM CLR 10/04 A3030 RMK AO2 SLP261 T01000044,KSLE,2023-02-20T19:56:00Z,44.9,-123.0,10.0,4.4,190,13,,10.0,30.301182,1026.1,,TRUE,TRUE,,,,,,,CLR,,,,,,,,VFR,,,,,,,,,,,,METAR,63.0
KSLE 201856Z AUTO 17011KT 10SM FEW038 SCT047 09/04 A3032 RMK AO2 SLP267 T00940044,KSLE,2023-02-20T18:56:00Z,44.9,-123.0,9.4,4.4,170,11,,10.0,30.318897,1026.7,,TRUE,TRUE,,,,,,,FEW,3800,SCT,4700,,,,,VFR,,,,,,,,,,,,METAR,63.0
KSLE 201756Z AUTO 19010KT 10SM OVC038 08/04 A3035 RMK AO2 SLP278 T00780039 10078 20056 53007,KSLE,2023-02-20T17:56:00Z,44.9,-123.0,7.8,3.9,190,10,,10.0,30.351377,1027.8,,TRUE,TRUE,,,,,,,OVC,3800,,,,,,,VFR,0.7,7.8,5.6,,,,,,,,,METAR,63.0
KSLE 201656Z AUTO 18012KT 10SM OVC041 07/03 A3032 RMK AO2 SLP269 T00720033,KSLE,2023-02-20T16:56:00Z,44.9,-123.0,7.2,3.3,180,12,,10.0,30.318897,1026.9,,TRUE,TRUE,,,,,,,OVC,4100,,,,,,,VFR,,,,,,,,,,,,METAR,63.0
KSLE 201556Z AUTO 18011KT 10SM OVC044 06/03 A3034 RMK AO2 SLP275 T00610028,KSLE,2023-02-20T15:56:00Z,44.9,-123.0,6.1,2.8,180,11,,10.0,30.339567,1027.5,,TRUE,TRUE,,,,,,,OVC,4400,,,,,,,VFR,,,,,,,,,,,,METAR,63.0
KSLE 201456Z AUTO 18006KT 10SM OVC050 06/03 A3033 RMK AO2 SLP271 T00560028 58007,KSLE,2023-02-20T14:56:00Z,44.9,-123.0,5.6,2.8,180,6,,10.0,30.33071,1027.1,,TRUE,TRUE,,,,,,,OVC,5000,,,,,,,VFR,-0.7,,,,,,,,,,,METAR,63.0
KSLE 201356Z AUTO 17008KT 10SM BKN046 BKN060 06/03 A3033 RMK AO2 SLP270 T00610033,KSLE,2023-02-20T13:56:00Z,44.9,-123.0,6.1,3.3,170,8,,10.0,30.33071,1027.0,,TRUE,TRUE,,,,,,,BKN,4600,BKN,6000,,,,,VFR,,,,,,,,,,,,SPECI,63.0
KSLE 201256Z AUTO 00000KT 10SM OVC045 07/04 A3036 RMK AO2 SLP281 T00670039,KSLE,2023-02-20T12:56:00Z,44.9,-123.0,6.7,3.9,0,0,,10.0,30.360237,1028.1,,TRUE,TRUE,,,,,,,OVC,4500,,,,,,,VFR,,,,,,,,,,,,SPECI,63.0
KSLE 201156Z AUTO 17005KT 10SM FEW033 OVC046 07/03 A3035 RMK AO2 SLP278 T00670033 10078 20067 56004,KSLE,2023-02-20T11:56:00Z,44.9,-123.0,6.7,3.3,170,5,,10.0,30.351377,1027.8,,TRUE,TRUE,,,,,,,FEW,3300,OVC,4600,,,,,VFR,-0.4,7.8,6.7,,,,,,,,,METAR,63.0
KSLE 201056Z AUTO 18006KT 10SM OVC038 07/03 A3036 RMK AO2 SLP282 T00670033,KSLE,2023-02-20T10:56:00Z,44.9,-123.0,6.7,3.3,180,6,,10.0,30.360237,1028.2,,TRUE,TRUE,,,,,,,OVC,3800,,,,,,,VFR,,,,,,,,,,,,METAR,63.0
KSLE 200956Z AUTO 18005KT 10SM OVC045 07/03 A3035 RMK AO2 SLP277 T00720033,KSLE,2023-02-20T09:56:00Z,44.9,-123.0,7.2,3.3,180,5,,10.0,30.351377,1027.7,,TRUE,TRUE,,,,,,,OVC,4500,,,,,,,VFR,,,,,,,,,,,,SPECI,63.0
KSLE 200856Z AUTO 00000KT 10SM OVC037 08/04 A3036 RMK AO2 SLP282 T00780039 53005,KSLE,2023-02-20T08:56:00Z,44.9,-123.0,7.8,3.9,0,0,,10.0,30.360237,1028.2,,TRUE,TRUE,,,,,,,OVC,3700,,,,,,,VFR,0.5,,,,,,,,,,,METAR,63.0
KSLE 200756Z AUTO 20005KT 10SM OVC043 08/04 A3034 RMK AO2 SLP275 T00780039 401110028,KSLE,2023-02-20T07:56:00Z,44.9,-123.0,7.8,3.9,200,5,,10.0,30.339567,1027.5,,TRUE,TRUE,,,,,,,OVC,4300,,,,,,,VFR,,,,11.1,2.8,,,,,,,METAR,63.0
KSLE 200656Z AUTO 19004KT 10SM OVC042 08/03 A3035 RMK AO2 SLP277 T00780033,KSLE,2023-02-20T06:56:00Z,44.9,-123.0,7.8,3.3,190,4,,10.0,30.351377,1027.7,,TRUE,TRUE,,,,,,,OVC,4200,,,,,,,VFR,,,,,,,,,,,,METAR,63.0
KSLE 200556Z AUTO 23004KT 10SM OVC046 08/03 A3035 RMK AO2 SLP277 T00780028 10111 20078 51008,KSLE,2023-02-20T05:56:00Z,44.9,-123.0,7.8,2.8,230,4,,10.0,30.351377,1027.7,,TRUE,TRUE,,,,,,,OVC,4600,,,,,,,VFR,0.8,11.1,7.8,,,,,,,,,METAR,63.0
KSLE 200456Z AUTO 24006KT 10SM OVC050 09/03 A3034 RMK AO2 SLP273 T00890028,KSLE,2023-02-20T04:56:00Z,44.9,-123.0,8.9,2.8,240,6,,10.0,30.339567,1027.3,,TRUE,TRUE,,,,,,,OVC,5000,,,,,,,VFR,,,,,,,,,,,,METAR,63.0
KSLE 200356Z AUTO 26003KT 10SM OVC048 09/03 A3034 RMK AO2 SLP275 T00940033,KSLE,2023-02-20T03:56:00Z,44.9,-123.0,9.4,3.3,260,3,,10.0,30.339567,1027.5,,TRUE,TRUE,,,,,,,OVC,4800,,,,,,,VFR,,,,,,,,,,,,METAR,63.0
KSLE 200256Z AUTO 24003KT 10SM OVC050 10/03 A3032 RMK AO2 SLP268 T01000033 55008,KSLE,2023-02-20T02:56:00Z,44.9,-123.0,10.0,3.3,240,3,,10.0,30.318897,1026.8,,TRUE,TRUE,,,,,,,OVC,5000,,,,,,,VFR,-0.8,,,,,,,,,,,METAR,63.0
KSLE 200156Z AUTO 24003KT 10SM OVC050 10/03 A3031 RMK AO2 SLP265 T01000033,KSLE,2023-02-20T01:56:00Z,44.9,-123.0,10.0,3.3,240,3,,10.0,30.31004,1026.5,,TRUE,TRUE,,,,,,,OVC,5000,,,,,,,VFR,,,,,,,,,,,,METAR,63.0
KSLE 200056Z AUTO 31006KT 10SM OVC046 11/03 A3033 RMK AO2 SLP272 T01060033,KSLE,2023-02-20T00:56:00Z,44.9,-123.0,10.6,3.3,310,6,,10.0,30.33071,1027.2,,TRUE,TRUE,,,,,,,OVC,4600,,,,,,,VFR,,,,,,,,,,,,METAR,63.0
KSLE 192356Z AUTO 27006KT 10SM OVC040 11/03 A3035 RMK AO2 SLP276 T01110028 10111 20083 53005,KSLE,2023-02-19T23:56:00Z,44.9,-123.0,11.1,2.8,270,6,,10.0,30.351377,1027.6,,TRUE,TRUE,,,,,,,OVC,4000,,,,,,,VFR,0.5,11.1,8.3,,,,,,,,,METAR,63.0
KSLE 192256Z AUTO 24006KT 10SM OVC040 11/03 A3034 RMK AO2 SLP274 T01110028,KSLE,2023-02-19T22:56:00Z,44.9,-123.0,11.1,2.8,240,6,,10.0,30.339567,1027.4,,TRUE,TRUE,,,,,,,OVC,4000,,,,,,,VFR,,,,,,,,,,,,METAR,63.0
KSLE 192156Z AUTO 24003KT 10SM OVC037 11/02 A3033 RMK AO2 SLP271 T01060022,KSLE,2023-02-19T21:56:00Z,44.9,-123.0,10.6,2.2,240,3,,10.0,30.33071,1027.1,,TRUE,TRUE,,,,,,,OVC,3700,,,,,,,VFR,,,,,,,,,,,,METAR,63.0
KSLE 192056Z AUTO 25005KT 10SM BKN033 OVC041 10/02 A3033 RMK AO2 SLP271 T01000022 58007,KSLE,2023-02-19T20:56:00Z,44.9,-123.0,10.0,2.2,250,5,,10.0,30.33071,1027.1,,TRUE,TRUE,,,,,,,BKN,3300,OVC,4100,,,,,VFR,-0.7,,,,,,,,,,,METAR,63.0
KSLE 191956Z AUTO VRB06KT 10SM FEW034 OVC055 10/02 A3037 RMK AO2 SLP285 T01000022,KSLE,2023-02-19T19:56:00Z,44.9,-123.0,10.0,2.2,0,6,,10.0,30.369095,1028.5,,TRUE,TRUE,,,,,,,FEW,3400,OVC,5500,,,,,VFR,,,,,,,,,,,,METAR,63.0
KSLE 191856Z AUTO 17006KT 10SM OVC055 09/03 A3038 RMK AO2 SLP287 T00940028,KSLE,2023-02-19T18:56:00Z,44.9,-123.0,9.4,2.8,170,6,,10.0,30.380905,1028.7,,TRUE,TRUE,,,,,,,OVC,5500,,,,,,,VFR,,,,,,,,,,,,SPECI,63.0
KSLE 191756Z AUTO 18006KT 10SM BKN055 08/03 A3035 RMK AO2 SLP279 T00830033 10083 20033 51004,KSLE,2023-02-19T17:56:00Z,44.9,-123.0,8.3,3.3,180,6,,10.0,30.351377,1027.9,,TRUE,TRUE,,,,,,,BKN,5500,,,,,,,VFR,0.4,8.3,3.3,,,,,,,,,METAR,63.0
KSLE 191656Z AUTO 19006KT 10SM OVC060 07/03 A3035 RMK AO2 SLP279 T00670033,KSLE,2023-02-19T16:56:00Z,44.9,-123.0,6.7,3.3,190,6,,10.0,30.351377,1027.9,,TRUE,TRUE,,,,,,,OVC,6000,,,,,,,VFR,,,,,,,,,,,,METAR,63.0
KSLE 191556Z AUTO 00000KT 10SM OVC041 03/02 A3035 RMK AO2 SLP279 T00330017,KSLE,2023-02-19T15:56:00Z,44.9,-123.0,3.3,1.7,0,0,,10.0,30.351377,1027.9,,TRUE,TRUE,,,,,,,OVC,4100,,,,,,,VFR,,,,,,,,,,,,METAR,63.0
KSLE 191456Z AUTO 16004KT 10SM OVC041 04/02 A3034 RMK AO2 SLP275 T00440022 50007,KSLE,2023-02-19T14:56:00Z,44.9,-123.0,4.4,2.2,160,4,,10.0,30.339567,1027.5,,TRUE,TRUE,,,,,,,OVC,4100,,,,,,,VFR,0.7,,,,,,,,,,,METAR,63.0
KSLE 191356Z AUTO 00000KT 10SM OVC040 04/02 A3034 RMK AO2 SLP276 T00440022,KSLE,2023-02-19T13:56:00Z,44.9,-123.0,4.4,2.2,0,0,,10.0,30.339567,1027.6,,TRUE,TRUE,,,,,,,OVC,4000,,,,,,,VFR,,,,,,,,,,,,SPECI,63.0
KSLE 191256Z AUTO 00000KT 10SM OVC040 04/02 A3033 RMK AO2 SLP270 T00440022,KSLE,2023-02-19T12:56:00Z,44.9,-123.0,4.4,2.2,0,0,,10.0,30.33071,1027.0,,TRUE,TRUE,,,,,,,OVC,4000,,,,,,,VFR,,,,,,,,,,,,METAR,63.0
KSLE 191156Z AUTO 18003KT 10SM OVC041 04/02 A3032 RMK AO2 SLP268 T00390022 10072 20028 50009,KSLE,2023-02-19T11:56:00Z,44.9,-123.0,3.9,2.2,180,3,,10.0,30.318897,1026.8,,TRUE,TRUE,,,,,,,OVC,4100,,,,,,,VFR,0.9,7.2,2.8,,,,,,,,,METAR,63.0
KSLE 191056Z AUTO 00000KT 10SM OVC040 04/02 A3032 RMK AO2 SLP268 T00440022,KSLE,2023-02-19T10:56:00Z,44.9,-123.0,4.4,2.2,0,0,,10.0,30.318897,1026.8,,TRUE,TRUE,,,,,,,OVC,4000,,,,,,,VFR,,,,,,,,,,,,SPECI,63.0
KSLE 190956Z AUTO 00000KT 10SM OVC043 03/02 A3031 RMK AO2 SLP264 T00330017,KSLE,2023-02-19T09:56:00Z,44.9,-123.0,3.3,1.7,0,0,,10.0,30.31004,1026.4,,TRUE,TRUE,,,,,,,OVC,4300,,,,,,,VFR,,,,,,,,,,,,METAR,63.0
KSLE 190856Z AUTO 23003KT 10SM OVC043 04/02 A3029 RMK AO2 SLP258 T00440017 53002,KSLE,2023-02-19T08:56:00Z,44.9,-123.0,4.4,1.7,230,3,,10.0,30.28937,1025.8,,TRUE,TRUE,,,,,,,OVC,4300,,,,,,,VFR,0.2,,,,,,,,,,,METAR,63.0
KSLE 190756Z AUTO 00000KT 10SM OVC043 07/02 A3029 RMK AO2 SLP257 T00670022 401220044,KSLE,2023-02-19T07:56:00Z,44.9,-123.0,6.7,2.2,0,0,,10.0,30.28937,1025.7,,TRUE,TRUE,,,,,,,OVC,4300,,,,,,,VFR,,,,12.2,4.4,,,,,,,METAR,63.0
KSLE 190656Z AUTO 28005KT 10SM OVC042 07/03 A3029 RMK AO2 SLP257 T00720028,KSLE,2023-02-19T06:56:00Z,44.9,-123.0,7.2,2.8,280,5,,10.0,30.28937,1025.7,,TRUE,TRUE,,,,,,,OVC,4200,,,,,,,VFR,,,,,,,,,,,,SPECI,63.0
KSLE 190556Z AUTO 29005KT 10SM OVC041 07/03 A3028 RMK AO2 SLP256 60000 T00720028 10106 20067 53024,KSLE,2023-02-19T05:56:00Z,44.9,-123.0,7.2,2.8,290,5,,10.0,30.280512,1025.6,,TRUE,TRUE,,,,,,,OVC,4100,,,,,,,VFR,2.4,10.6,6.7,,,,,0.005,,,,METAR,63.0
KSLE 190456Z AUTO 28005KT 10SM OVC044 07/03 A3026 RMK AO2 SLP247 T00670028,KSLE,2023-02-19T04:56:00Z,44.9,-123.0,6.7,2.8,280,5,,10.0,30.259842,1024.7,,TRUE,TRUE,,,,,,,OVC,4400,,,,,,,VFR,,,,,,,,,,,,METAR,63.0
KSLE 190356Z AUTO 28006KT 10SM BKN039 07/03 A3024 RMK AO2 SLP240 T00720028,KSLE,2023-02-19T03:56:00Z,44.9,-123.0,7.2,2.8,280,6,,10.0,30.239174,1024.0,,TRUE,TRUE,,,,,,,BKN,3900,,,,,,,VFR,,,,,,,,,,,,METAR,63.0
KSLE 190256Z AUTO 29005KT 10SM BKN033 BKN055 08/03 A3021 RMK AO2 RAE00 SLP232 P0000 60000 T00780033 53011,KSLE,2023-02-19T02:56:00Z,44.9,-123.0,7.8,3.3,290,5,,10.0,30.209646,1023.2,,TRUE,TRUE,,,,,,,BKN,3300,BKN,5500,,,,,VFR,1.1,,,,,0.005,,,,,,SPECI,63.0
KSLE 190211Z AUTO 32008KT 10SM SCT025 OVC031 08/04 A3021 RMK AO2 RAE00 P0000 T00830044,KSLE,2023-02-19T02:11:00Z,44.9,-123.0,8.3,4.4,320,8,,10.0,30.209646,,,TRUE,TRUE,,,,,,,SCT,2500,OVC,3100,,,,,VFR,,,,,,0.005,,,,,,SPECI,63.0
KSLE 190156Z AUTO 32011KT 10SM -RA BKN025 BKN038 OVC046 09/05 A3020 RMK AO2 RAB50 SLP228 P0000 T00890050,KSLE,2023-02-19T01:56:00Z,44.9,-123.0,8.9,5.0,320,11,,10.0,30.200787,1022.8,,TRUE,TRUE,,,,,,-RA,BKN,2500,BKN,3800,OVC,4600,,,MVFR,,,,,,0.005,,,,,,METAR,63.0
KSLE 190056Z AUTO 19005KT 10SM FEW032 SCT043 10/04 A3018 RMK AO2 SLP219 T01000039,KSLE,2023-02-19T00:56:00Z,44.9,-123.0,10.0,3.9,190,5,,10.0,30.180119,1021.9,,TRUE,TRUE,,,,,,,FEW,3200,SCT,4300,,,,,VFR,,,,,,,,,,,,METAR,63.0
KSLE 190019Z AUTO 21006KT 10SM SCT028 BKN047 10/04 A3018 RMK AO2 T01000039,KSLE,2023-02-19T00:19:00Z,44.9,-123.0,10.0,3.9,210,6,,10.0,30.180119,,,TRUE,TRUE,,,,,,,SCT,2800,BKN,4700,,,,,VFR,,,,,,,,,,,,METAR,63.0
KSLE 182356Z AUTO 24006KT 10SM OVC028 11/04 A3018 RMK AO2 SLP221 T01060039 10122 20061 55003,KSLE,2023-02-18T23:56:00Z,44.9,-123.0,10.6,3.9,240,6,,10.0,30.180119,1022.1,,TRUE,TRUE,,,,,,,OVC,2800,,,,,,,MVFR,-0.3,12.2,6.1,,,,,,,,,METAR,63.0
KSLE 182316Z AUTO 18006KT 10SM BKN029 OVC038 11/04 A3017 RMK AO2 T01060039,KSLE,2023-02-18T23:16:00Z,44.9,-123.0,10.6,3.9,180,6,,10.0,30.171259,,,TRUE,TRUE,,,,,,,BKN,2900,OVC,3800,,,,,MVFR,,,,,,,,,,,,SPECI,63.0
KSLE 182256Z AUTO 19010KT 10SM BKN030 OVC045 11/04 A3017 RMK AO2 SLP216 T01110039,KSLE,2023-02-18T22:56:00Z,44.9,-123.0,11.1,3.9,190,10,,10.0,30.171259,1021.6,,TRUE,TRUE,,,,,,,BKN,3000,OVC,4500,,,,,MVFR,,,,,,,,,,,,METAR,63.0
KSLE 182156Z AUTO 20008KT 10SM OVC060 11/03 A3018 RMK AO2 SLP220 T01110033,KSLE,2023-02-18T21:56:00Z,44.9,-123.0,11.1,3.3,200,8,,10.0,30.180119,1022.0,,TRUE,TRUE,,,,,,,OVC,6000,,,,,,,VFR,,,,,,,,,,,,METAR,63.0
KSLE 182056Z AUTO 17009KT 10SM BKN060 10/03 A3019 RMK AO2 SLP223 T01000028 58008,KSLE,2023-02-18T20:56:00Z,44.9,-123.0,10.0,2.8,170,9,,10.0,30.188976,1022.3,,TRUE,TRUE,,,,,,,BKN,6000,,,,,,,VFR,-0.8,,,,,,,,,,,SPECI,63.0
KSLE 181956Z AUTO 16008KT 10SM OVC065 09/03 A3020 RMK AO2 SLP227 T00940028,KSLE,2023-02-18T19:56:00Z,44.9,-123.0,9.4,2.8,160,8,,10.0,30.200787,1022.7,,TRUE,TRUE,,,,,,,OVC,6500,,,,,,,VFR,,,,,,,,,,,,METAR,63.0
KSLE 181856Z AUTO 17007KT 10SM OVC070 07/02 A3021 RMK AO2 SLP232 T00720017,KSLE,2023-02-18T18:56:00Z,44.9,-123.0,7.2,1.7,170,7,,10.0,30.209646,1023.2,,TRUE,TRUE,,,,,,,OVC,7000,,,,,,,VFR,,,,,,,,,,,,METAR,63.0
KSLE 181756Z AUTO 18006KT 10SM FEW049 BKN060 OVC070 06/01 A3021 RMK AO2 SLP231 T00610011 10061 20044 51009,KSLE,2023-02-18T17:56:00Z,44.9,-123.0,6.1,1.1,180,6,,10.0,30.209646,1023.1,,TRUE,TRUE,,,,,,,FEW,4900,BKN,6000,OVC,7000,,,VFR,0.9,6.1,4.4,,,,,,,,,METAR,63.0
KSLE 181656Z AUTO 17005KT 10SM OVC070 06/01 A3020 RMK AO2 SLP229 T00560006,KSLE,2023-02-18T16:56:00Z,44.9,-123.0,5.6,0.6,170,5,,10.0,30.200787,1022.9,,TRUE,TRUE,,,,,,,OVC,7000,,,,,,,VFR,,,,,,,,,,,,METAR,63.0
KSLE 181556Z AUTO 16005KT 10SM BKN055 OVC085 04/01 A3020 RMK AO2 SLP226 T00440006,KSLE,2023-02-18T15:56:00Z,44.9,-123.0,4.4,0.6,160,5,,10.0,30.200787,1022.6,,TRUE,TRUE,,,,,,,BKN,5500,OVC,8500,,,,,VFR,,,,,,,,,,,,METAR,63.0
KSLE 181517Z AUTO 18005KT 10SM SCT021 OVC055 04/01 A3020 RMK AO2 T00440011,KSLE,2023-02-18T15:17:00Z,44.9,-123.0,4.4,1.1,180,5,,10.0,30.200787,,,TRUE,TRUE,,,,,,,SCT,2100,OVC,5500,,,,,VFR,,,,,,,,,,,,SPECI,63.0
KSLE 181456Z AUTO 17004KT 10SM OVC022 04/02 A3019 RMK AO2 SLP223 T00440017 56005,KSLE,2023-02-18T14:56:00Z,44.9,-123.0,4.4,1.7,170,4,,10.0,30.188976,1022.3,,TRUE,TRUE,,,,,,,OVC,2200,,,,,,,MVFR,-0.5,,,,,,,,,,,METAR,63.0
KSLE 181356Z AUTO 14003KT 10SM OVC020 04/01 A3019 RMK AO2 SLP224 T00440011,KSLE,2023-02-18T13:56:00Z,44.9,-123.0,4.4,1.1,140,3,,10.0,30.188976,1022.4,,TRUE,TRUE,,,,,,,OVC,2000,,,,,,,MVFR,,,,,,,,,,,,METAR,63.0
KSLE 181308Z AUTO 17004KT 10SM BKN022 OVC028 04/01 A3019 RMK AO2 T00440011,KSLE,2023-02-18T13:08:00Z,44.9,-123.0,4.4,1.1,170,4,,10.0,30.188976,,,TRUE,TRUE,,,,,,,BKN,2200,OVC,2800,,,,,MVFR,,,,,,,,,,,,SPECI,63.0
KSLE 181256Z AUTO 18005KT 10SM FEW023 OVC030 04/01 A3019 RMK AO2 SLP223 T00440011,KSLE,2023-02-18T12:56:00Z,44.9,-123.0,4.4,1.1,180,5,,10.0,30.188976,1022.3,,TRUE,TRUE,,,,,,,FEW,2300,OVC,3000,,,,,MVFR,,,,,,,,,,,,METAR,63.0
KSLE 181156Z AUTO 14005KT 10SM OVC031 04/01 A3020 RMK AO2 SLP228 T00440011 10067 20033 56008,KSLE,2023-02-18T11:56:00Z,44.9,-123.0,4.4,1.1,140,5,,10.0,30.200787,1022.8,,TRUE,TRUE,,,,,,,OVC,3100,,,,,,,VFR,-0.8,6.7,3.3,,,,,,,,,METAR,63.0
KSLE 181056Z AUTO 00000KT 10SM OVC041 06/03 A3021 RMK AO2 SLP230 T00560028,KSLE,2023-02-18T10:56:00Z,44.9,-123.0,5.6,2.8,0,0,,10.0,30.209646,1023.0,,TRUE,TRUE,,,,,,,OVC,4100,,,,,,,VFR,,,,,,,,,,,,METAR,63.0
KSLE 180956Z AUTO 16003KT 10SM OVC042 06/03 A3021 RMK AO2 SLP230 T00560033,KSLE,2023-02-18T09:56:00Z,44.9,-123.0,5.6,3.3,160,3,,10.0,30.209646,1023.0,,TRUE,TRUE,,,,,,,OVC,4200,,,,,,,VFR,,,,,,,,,,,,METAR,63.0
KSLE 180856Z AUTO 29003KT 10SM OVC043 07/04 A3022 RMK AO2 SLP236 T00670044 57001,KSLE,2023-02-18T08:56:00Z,44.9,-123.0,6.7,4.4,290,3,,10.0,30.221457,1023.6,,TRUE,TRUE,,,,,,,OVC,4300,,,,,,,VFR,-0.1,,,,,,,,,,,METAR,63.0
KSLE 180756Z AUTO 19003KT 10SM OVC043 06/04 A3022 RMK AO2 SLP235 T00560039 401330006,KSLE,2023-02-18T07:56:00Z,44.9,-123.0,5.6,3.9,190,3,,10.0,30.221457,1023.5,,TRUE,TRUE,,,,,,,OVC,4300,,,,,,,VFR,,,,13.3,0.6,,,,,,,METAR,63.0
KSLE 180656Z AUTO 00000KT 10SM OVC042 05/03 A3023 RMK AO2 SLP238 T00500028,KSLE,2023-02-18T06:56:00Z,44.9,-123.0,5.0,2.8,0,0,,10.0,30.230314,1023.8,,TRUE,TRUE,,,,,,,OVC,4200,,,,,,,VFR,,,,,,,,,,,,METAR,63.0
KSLE 180556Z AUTO 00000KT 10SM BKN045 06/03 A3023 RMK AO2 SLP237 T00560033 10122 20044 53000,KSLE,2023-02-18T05:56:00Z,44.9,-123.0,5.6,3.3,0,0,,10.0,30.230314,1023.7,,TRUE,TRUE,,,,,,,BKN,4500,,,,,,,VFR,0.0,12.2,4.4,,,,,,,,,METAR,63.0
KSLE 180456Z AUTO 00000KT 10SM BKN045 07/03 A3021 RMK AO2 SLP232 T00720033,KSLE,2023-02-18T04:56:00Z,44.9,-123.0,7.2,3.3,0,0,,10.0,30.209646,1023.2,,TRUE,TRUE,,,,,,,BKN,4500,,,,,,,VFR,,,,,,,,,,,,METAR,63.0
KSLE 180356Z AUTO 00000KT 10SM OVC047 08/04 A3022 RMK AO2 SLP233 T00830039,KSLE,2023-02-18T03:56:00Z,44.9,-123.0,8.3,3.9,0,0,,10.0,30.221457,1023.3,,TRUE,TRUE,,,,,,,OVC,4700,,,,,,,VFR,,,,,,,,,,,,METAR,63.0
KSLE 180256Z AUTO 31006KT 10SM OVC045 09/04 A3023 RMK AO2 SLP237 T00940039 55002,KSLE,2023-02-18T02:56:00Z,44.9,-123.0,9.4,3.9,310,6,,10.0,30.230314,1023.7,,TRUE,TRUE,,,,,,,OVC,4500,,,,,,,VFR,-0.2,,,,,,,,,,,SPECI,63.0
KSLE 180156Z AUTO 34007KT 10SM BKN047 09/03 A3023 RMK AO2 SLP236 T00940033,KSLE,2023-02-18T01:56:00Z,44.9,-123.0,9.4,3.3,340,7,,10.0,30.230314,1023.6,,TRUE,TRUE,,,,,,,BKN,4700,,,,,,,VFR,,,,,,,,,,,,METAR,63.0
KSLE 180056Z AUTO 08003KT 10SM BKN100 11/01 A3021 RMK AO2 SLP232 T01110011,KSLE,2023-02-18T00:56:00Z,44.9,-123.0,11.1,1.1,80,3,,10.0,30.209646,1023.2,,TRUE,TRUE,,,,,,,BKN,10000,,,,,,,VFR,,,,,,,,,,,,METAR,63.0
KSLE 172356Z AUTO 36004KT 10SM OVC100 12/01 A3024 RMK AO2 SLP239 T01220006 10133 20044 55013,KSLE,2023-02-17T23:56:00Z,44.9,-123.0,12.2,0.6,360,4,,10.0,30.239174,1023.9,,TRUE,TRUE,,,,,,,OVC,10000,,,,,,,VFR,-1.3,13.3,4.4,,,,,,,,,SPECI,63.0
KSLE 172256Z AUTO 31004KT 10SM SCT100 13/M01 A3023 RMK AO2 SLP239 T01331011,KSLE,2023-02-17T22:56:00Z,44.9,-123.0,13.3,-1.1,310,4,,10.0,30.230314,1023.9,,TRUE,TRUE,,,,,,,SCT,10000,,,,,,,VFR,,,,,,,,,,,,METAR,63.0
KSLE 172156Z AUTO 25003KT 10SM CLR 12/M01 A3025 RMK AO2 SLP245 T01171011,KSLE,2023-02-17T21:56:00Z,44.9,-123.0,11.7,-1.1,250,3,,10.0,30.250984,1024.5,,TRUE,TRUE,,,,,,,CLR,,,,,,,,VFR,,,,,,,,,,,,METAR,63.0
KSLE 172056Z AUTO 21005KT 10SM CLR 10/M01 A3027 RMK AO2 SLP252 T01001006 58012,KSLE,2023-02-17T20:56:00Z,44.9,-123.0,10.0,-0.6,210,5,,10.0,30.268702,1025.2,,TRUE,TRUE,,,,,,,CLR,,,,,,,,VFR,-1.2,,,,,,,,,,,SPECI,63.0
KSLE 171956Z AUTO 17005KT 10SM BKN100 08/00 A3029 RMK AO2 SLP258 T00830000,KSLE,2023-02-17T19:56:00Z,44.9,-123.0,8.3,0.0,170,5,,10.0,30.28937,1025.8,,TRUE,TRUE,,,,,,,BKN,10000,,,,,,,VFR,,,,,,,,,,,,METAR,63.0
KSLE 171856Z AUTO 19007KT 10SM OVC100 07/00 A3030 RMK AO2 SLP262 T00670000,KSLE,2023-02-17T18:56:00Z,44.9,-123.0,6.7,0.0,190,7,,10.0,30.301182,1026.2,,TRUE,TRUE,,,,,,,OVC,10000,,,,,,,VFR,,,,,,,,,,,,SPECI,63.0
KSLE 171756Z AUTO 14005KT 10SM OVC100 04/00 A3031 RMK AO2 SLP264 T00440000 10044 20006 51014,KSLE,2023-02-17T17:56:00Z,44.9,-123.0,4.4,0.0,140,5,,10.0,30.31004,1026.4,,TRUE,TRUE,,,,,,,OVC,10000,,,,,,,VFR,1.4,4.4,0.6,,,,,,,,,METAR,63.0
KSLE 171656Z AUTO 16003KT 10SM OVC100 03/00 A3030 RMK AO2 SLP261 T00330000,KSLE,2023-02-17T16:56:00Z,44.9,-123.0,3.3,0.0,160,3,,10.0,30.301182,1026.1,,TRUE,TRUE,,,,,,,OVC,10000,,,,,,,VFR,,,,,,,,,,,,METAR,63.0
KSLE 171556Z AUTO 00000KT 10SM OVC100 03/00 A3029 RMK AO2 SLP259 T00280000,KSLE,2023-02-17T15:56:00Z,44.9,-123.0,2.8,0.0,0,0,,10.0,30.28937,1025.9,,TRUE,TRUE,,,,,,,OVC,10000,,,,,,,VFR,,,,,,,,,,,,SPECI,63.0
KSLE 171456Z AUTO 00000KT 10SM OVC100 02/M01 A3027 RMK AO2 SLP251 T00221011 53002,KSLE,2023-02-17T14:56:00Z,44.9,-123.0,2.2,-1.1,0,0,,10.0,30.268702,1025.1,,TRUE,TRUE,,,,,,,OVC,10000,,,,,,,VFR,0.2,,,,,,,,,,,METAR,63.0
KSLE 171356Z AUTO 13005KT 10SM OVC095 01/M02 A3025 RMK AO2 SLP247 T00061017,KSLE,2023-02-17T13:56:00Z,44.9,-123.0,0.6,-1.7,130,5,,10.0,30.250984,1024.7,,TRUE,TRUE,,,,,,,OVC,9500,,,,,,,VFR,,,,,,,,,,,,METAR,63.0
KSLE 171256Z AUTO 13005KT 10SM SCT110 02/M01 A3026 RMK AO2 SLP248 T00171006,KSLE,2023-02-17T12:56:00Z,44.9,-123.0,1.7,-0.6,130,5,,10.0,30.259842,1024.8,,TRUE,TRUE,,,,,,,SCT,11000,,,,,,,VFR,,,,,,,,,,,,METAR,63.0
KSLE 171156Z AUTO 14006KT 10SM OVC100 02/M01 A3026 RMK AO2 SLP248 T00221006 10039 20022 52004,KSLE,2023-02-17T11:56:00Z,44.9,-123.0,2.2,-0.6,140,6,,10.0,30.259842,1024.8,,TRUE,TRUE,,,,,,,OVC,10000,,,,,,,VFR,0.4,3.9,2.2,,,,,,,,,METAR,63.0
KSLE 171056Z AUTO 13006KT 10SM OVC100 02/01 A3025 RMK AO2 SLP246 T00220006,KSLE,2023-02-17T10:56:00Z,44.9,-123.0,2.2,0.6,130,6,,10.0,30.250984,1024.6,,TRUE,TRUE,,,,,,,OVC,10000,,,,,,,VFR,,,,,,,,,,,,SPECI,63.0
KSLE 170956Z AUTO 00000KT 10SM OVC095 03/01 A3026 RMK AO2 SLP247 T00280006,KSLE,2023-02-17T09:56:00Z,44.9,-123.0,2.8,0.6,0,0,,10.0,30.259842,1024.7,,TRUE,TRUE,,,,,,,OVC,9500,,,,,,,VFR,,,,,,,,,,,,METAR,63.0
KSLE 170856Z AUTO 00000KT 10SM OVC090 03/01 A3025 RMK AO2 SLP244 T00280006 53008,KSLE,2023-02-17T08:56:00Z,44.9,-123.0,2.8,0.6,0,0,,10.0,30.250984,1024.4,,TRUE,TRUE,,,,,,,OVC,9000,,,,,,,VFR,0.8,,,,,,,,,,,METAR,63.0
KSLE 170756Z AUTO 00000KT 10SM OVC080 03/01 A3024 RMK AO2 SLP242 T00330011 400831022,KSLE,2023-02-17T07:56:00Z,44.9,-123.0,3.3,1.1,0,0,,10.0,30.239174,1024.2,,TRUE,TRUE,,,,,,,OVC,8000,,,,,,,VFR,,,,8.3,-2.2,,,,,,,METAR,63.0
KSLE 170656Z AUTO 00000KT 10SM OVC085 03/01 A3023 RMK AO2 SLP238 T00280011,KSLE,2023-02-17T06:56:00Z,44.9,-123.0,2.8,1.1,0,0,,10.0,30.230314,1023.8,,TRUE,TRUE,,,,,,,OVC,8500,,,,,,,VFR,,,,,,,,,,,,METAR,63.0
KSLE 170556Z AUTO 00000KT 10SM OVC090 03/01 A3023 RMK AO2 SLP237 T00280011 10083 20011 53007,KSLE,2023-02-17T05:56:00Z,44.9,-123.0,2.8,1.1,0,0,,10.0,30.230314,1023.7,,TRUE,TRUE,,,,,,,OVC,9000,,,,,,,VFR,0.7,8.3,1.1,,,,,,,,,METAR,63.0
KSLE 170456Z AUTO 00000KT 10SM OVC090 02/01 A3022 RMK AO2 SLP236 T00220006,KSLE,2023-02-17T04:56:00Z,44.9,-123.0,2.2,0.6,0,0,,10.0,30.221457,1023.6,,TRUE,TRUE,,,,,,,OVC,9000,,,,,,,VFR,,,,,,,,,,,,METAR,63.0
KSLE 170356Z AUTO 15005KT 10SM CLR 02/00 A3020 RMK AO2 SLP230 T00170000,KSLE,2023-02-17T03:56:00Z,44.9,-123.0,1.7,0.0,150,5,,10.0,30.200787,1023.0,,TRUE,TRUE,,,,,,,CLR,,,,,,,,VFR,,,,,,,,,,,,METAR,63.0
KSLE 170256Z AUTO 00000KT 10SM BKN120 04/01 A3020 RMK AO2 SLP230 T00390006 53007,KSLE,2023-02-17T02:56:00Z,44.9,-123.0,3.9,0.6,0,0,,10.0,30.200787,1023.0,,TRUE,TRUE,,,,,,,BKN,12000,,,,,,,VFR,0.7,,,,,,,,,,,METAR,63.0
KSLE 170156Z AUTO 36003KT 10SM BKN110 06/02 A3019 RMK AO2 SLP225 T00610022,KSLE,2023-02-17T01:56:00Z,44.9,-123.0,6.1,2.2,360,3,,10.0,30.188976,1022.5,,TRUE,TRUE,,,,,,,BKN,11000,,,,,,,VFR,,,,,,,,,,,,METAR,63.0
KSLE 170056Z AUTO 33003KT 10SM OVC120 07/01 A3018 RMK AO2 SLP220 T00720011,KSLE,2023-02-17T00:56:00Z,44.9,-123.0,7.2,1.1,330,3,,10.0,30.180119,1022.0,,TRUE,TRUE,,,,,,,OVC,12000,,,,,,,VFR,,,,,,,,,,,,METAR,63.0
KSLE 162356Z AUTO 00000KT 10SM BKN110 08/M01 A3018 RMK AO2 SLP223 T00831006 10083 20028 55003,KSLE,2023-02-16T23:56:00Z,44.9,-123.0,8.3,-0.6,0,0,,10.0,30.180119,1022.3,,TRUE,TRUE,,,,,,,BKN,11000,,,,,,,VFR,-0.3,8.3,2.8,,,,,,,,,METAR,63.0
KSLE 162256Z AUTO 00000KT 10SM BKN120 08/00 A3018 RMK AO2 SLP221 T00830000,KSLE,2023-02-16T22:56:00Z,44.9,-123.0,8.3,0.0,0,0,,10.0,30.180119,1022.1,,TRUE,TRUE,,,,,,,BKN,12000,,,,,,,VFR,,,,,,,,,,,,SPECI,63.0
KSLE 162156Z AUTO 33003KT 10SM OVC110 07/01 A3018 RMK AO2 SLP223 T00720006,KSLE,2023-02-16T21:56:00Z,44.9,-123.0,7.2,0.6,330,3,,10.0,30.180119,1022.3,,TRUE,TRUE,,,,,,,OVC,11000,,,,,,,VFR,,,,,,,,,,,,METAR,63.0
KSLE 162056Z AUTO 33004KT 10SM CLR 07/01 A3019 RMK AO2 SLP226 T00670011 58006,KSLE,2023-02-16T20:56:00Z,44.9,-123.0,6.7,1.1,330,4,,10.0,30.188976,1022.6,,TRUE,TRUE,,,,,,,CLR,,,,,,,,VFR,-0.6,,,,,,,,,,,METAR,63.0
KSLE 161956Z AUTO 00000KT 10SM CLR 06/01 A3021 RMK AO2 SLP231 T00610006,KSLE,2023-02-16T19:56:00Z,44.9,-123.0,6.1,0.6,0,0,,10.0,30.209646,1023.1,,TRUE,TRUE,,,,,,,CLR,,,,,,,,VFR,,,,,,,,,,,,METAR,63.0
KSLE 161856Z AUTO 22004KT 10SM CLR 05/01 A3021 RMK AO2 SLP232 T00500006,KSLE,2023-02-16T18:56:00Z,44.9,-123.0,5.0,0.6,220,4,,10.0,30.209646,1023.2,,TRUE,TRUE,,,,,,,CLR,,,,,,,,VFR,,,,,,,,,,,,METAR,63.0
KSLE 161756Z AUTO 13003KT 10SM CLR 02/01 A3021 RMK AO2 SLP232 T00220006 10022 21022 50007,KSLE,2023-02-16T17:56:00Z,44.9,-123.0,2.2,0.6,130,3,,10.0,30.209646,1023.2,,TRUE,TRUE,,,,,,,CLR,,,,,,,,VFR,0.7,2.2,-2.2,,,,,,,,,SPECI,63.0
KSLE 161656Z AUTO 14003KT 8SM CLR 01/M01 A3021 RMK AO2 SLP233 T00061006,KSLE,2023-02-16T16:56:00Z,44.9,-123.0,0.6,-0.6,140,3,,8.0,30.209646,1023.3,,TRUE,TRUE,,,,,,,CLR,,,,,,,,VFR,,,,,,,,,,,,METAR,63.0
KSLE 161556Z AUTO 00000KT 9SM CLR M01/M03 A3020 RMK AO2 SLP230 T10111028,KSLE,2023-02-16T15:56:00Z,44.9,-123.0,-1.1,-2.8,0,0,,9.0,30.200787,1023.0,,TRUE,TRUE,,,,,,,CLR,,,,,,,,VFR,,,,,,,,,,,,METAR,63.0
KSLE 161456Z AUTO 18003KT 9SM CLR M01/M02 A3019 RMK AO2 SLP225 T10111022 56006,KSLE,2023-02-16T14:56:00Z,44.9,-123.0,-1.1,-2.2,180,3,,9.0,30.188976,1022.5,,TRUE,TRUE,,,,,,,CLR,,,,,,,,VFR,-0.6,,,,,,,,,,,METAR,63.0
KSLE 161356Z AUTO 00000KT 7SM CLR M01/M02 A3019 RMK AO2 SLP227 T10111022,KSLE,2023-02-16T13:56:00Z,44.9,-123.0,-1.1,-2.2,0,0,,7.0,30.188976,1022.7,,TRUE,TRUE,,,,,,,CLR,,,,,,,,VFR,,,,,,,,,,,,METAR,63.0
KSLE 161256Z AUTO 11003KT 8SM CLR M02/M03 A3020 RMK AO2 SLP229 T10221028,KSLE,2023-02-16T12:56:00Z,44.9,-123.0,-2.2,-2.8,110,3,,8.0,30.200787,1022.9,,TRUE,TRUE,,,,,,,CLR,,,,,,,,VFR,,,,,,,,,,,,METAR,63.0
KSLE 161156Z AUTO 00000KT 9SM CLR M02/M03 A3021 RMK AO2 SLP231 T10171028 11006 21022 56012,KSLE,2023-02-16T11:56:00Z,44.9,-123.0,-1.7,-2.8,0,0,,9.0,30.209646,1023.1,,TRUE,TRUE,,,,,,,CLR,,,,,,,,VFR,-1.2,-0.6,-2.2,,,,,,,,,METAR,63.0
KSLE 161056Z AUTO 17004KT 9SM CLR M01/M02 A3022 RMK AO2 SLP234 T10111022,KSLE,2023-02-16T10:56:00Z,44.9,-123.0,-1.1,-2.2,170,4,,9.0,30.221457,1023.4,,TRUE,TRUE,,,,,,,CLR,,,,,,,,VFR,,,,,,,,,,,,METAR,63.0
KSLE 160956Z AUTO 00000KT 10SM CLR M01/M02 A3023 RMK AO2 SLP237 T10111022,KSLE,2023-02-16T09:56:00Z,44.9,-123.0,-1.1,-2.2,0,0,,10.0,30.230314,1023.7,,TRUE,TRUE,,,,,,,CLR,,,,,,,,VFR,,,,,,,,,,,,METAR,63.0
KSLE 160856Z AUTO 00000KT 10SM CLR M02/M03 A3024 RMK AO2 SLP243 T10171028 56012,KSLE,2023-02-16T08:56:00Z,44.9,-123.0,-1.7,-2.8,0,0,,10.0,30.239174,1024.3,,TRUE,TRUE,,,,,,,CLR,,,,,,,,VFR,-1.2,,,,,,,,,,,METAR,63.0
KSLE 160756Z AUTO 15003KT 10SM CLR M02/M03 A3025 RMK AO2 SLP247 T10171028 400781039,KSLE,2023-02-16T07:56:00Z,44.9,-123.0,-1.7,-2.8,150,3,,10.0,30.250984,1024.7,,TRUE,TRUE,,,,,,,CLR,,,,,,,,VFR,,,,7.8,-3.9,,,,,,,METAR,63.0
KSLE 160656Z AUTO 00000KT 10SM CLR M01/M02 A3027 RMK AO2 SLP251 T10061022,KSLE,2023-02-16T06:56:00Z,44.9,-123.0,-0.6,-2.2,0,0,,10.0,30.268702,1025.1,,TRUE,TRUE,,,,,,,CLR,,,,,,,,VFR,,,,,,,,,,,,METAR,63.0
KSLE 160556Z AUTO 00000KT 9SM CLR M01/M02 A3028 RMK AO2 SLP255 T10061022 10078 21006 58009,KSLE,2023-02-16T05:56:00Z,44.9,-123.0,-0.6,-2.2,0,0,,9.0,30.280512,1025.5,,TRUE,TRUE,,,,,,,CLR,,,,,,,,VFR,-0.9,7.8,-0.6,,,,,,,,,METAR,63.0
KSLE 160456Z AUTO 00000KT 10SM CLR 01/M01 A3029 RMK AO2 SLP259 T00061011,KSLE,2023-02-16T04:56:00Z,44.9,-123.0,0.6,-1.1,0,0,,10.0,30.28937,1025.9,,TRUE,TRUE,,,,,,,CLR,,,,,,,,VFR,,,,,,,,,,,,METAR,63.0
KSLE 160356Z AUTO 00000KT 10SM CLR 01/M02 A3030 RMK AO2 SLP261 T00111017,KSLE,2023-02-16T03:56:00Z,44.9,-123.0,1.1,-1.7,0,0,,10.0,30.301182,1026.1,,TRUE,TRUE,,,,,,,CLR,,,,,,,,VFR,,,,,,,,,,,,SPECI,63.0
KSLE 160256Z AUTO 25003KT 10SM CLR 03/M01 A3031 RMK AO2 SLP264 T00281006 56007,KSLE,2023-02-16T02:56:00Z,44.9,-123.0,2.8,-0.6,250,3,,10.0,30.31004,1026.4,,TRUE,TRUE,,,,,,,CLR,,,,,,,,VFR,-0.7,,,,,,,,,,,METAR,63.0
KSLE 160156Z AUTO 02004KT 10SM CLR 06/00 A3031 RMK AO2 SLP264 T00560000,KSLE,2023-02-16T01:56:00Z,44.9,-123.0,5.6,0.0,20,4,,10.0,30.31004,1026.4,,TRUE,TRUE,,,,,,,CLR,,,,,,,,VFR,,,,,,,,,,,,METAR,63.0
KSLE 160056Z AUTO 02004KT 10SM CLR 07/00 A3032 RMK AO2 SLP268 T00670000,KSLE,2023-02-16T00:56:00Z,44.9,-123.0,6.7,0.0,20,4,,10.0,30.318897,1026.8,,TRUE,TRUE,,,,,,,CLR,,,,,,,,VFR,,,,,,,,,,,,METAR,63.0
KSLE 152356Z AUTO 00000KT 10SM CLR 08/00 A3033 RMK AO2 SLP271 T00780000 10078 21006 56016,KSLE,2023-02-15T23:56:00Z,44.9,-123.0,7.8,0.0,0,0,,10.0,30.33071,1027.1,,TRUE,TRUE,,,,,,,CLR,,,,,,,,VFR,-1.6,7.8,-0.6,,,,,,,,,METAR,63.0
KSLE 152256Z AUTO 33004KT 10SM CLR 07/01 A3034 RMK AO2 SLP276 T00720006,KSLE,2023-02-15T22:56:00Z,44.9,-123.0,7.2,0.6,330,4,,10.0,30.339567,1027.6,,TRUE,TRUE,,,,,,,CLR,,,,,,,,VFR,,,,,,,,,,,,METAR,63.0
KSLE 152156Z AUTO 31007KT 10SM CLR 07/01 A3036 RMK AO2 SLP281 T00670006,KSLE,2023-02-15T21:56:00Z,44.9,-123.0,6.7,0.6,310,7,,10.0,30.360237,1028.1,,TRUE,TRUE,,,,,,,CLR,,,,,,,,VFR,,,,,,,,,,,,METAR,63.0
KSLE 152056Z AUTO 08004KT 10SM CLR 06/00 A3037 RMK AO2 SLP287 T00560000 58016,KSLE,2023-02-15T20:56:00Z,44.9,-123.0,5.6,0.0,80,4,,10.0,30.369095,1028.7,,TRUE,TRUE,,,,,,,CLR,,,,,,,,VFR,-1.6,,,,,,,,,,,METAR,63.0
KSLE 151956Z AUTO 27003KT 10SM CLR 04/00 A3040 RMK AO2 SLP296 T00390000,KSLE,2023-02-15T19:56:00Z,44.9,-123.0,3.9,0.0,270,3,,10.0,30.398623,1029.6,,TRUE,TRUE,,,,,,,CLR,,,,,,,,VFR,,,,,,,,,,,,METAR,63.0
KSLE 151907Z AUTO 35003KT 10SM FEW002 02/M01 A3041 RMK AO2 T00171006,KSLE,2023-02-15T19:07:00Z,44.9,-123.0,1.7,-0.6,350,3,,10.0,30.410433,,,TRUE,TRUE,,,,,,,FEW,200,,,,,,,VFR,,,,,,,,,,,,SPECI,63.0
KSLE 151856Z AUTO 36003KT 9SM BKN002 01/M01 A3042 RMK AO2 SLP301 T00111006,KSLE,2023-02-15T18:56:00Z,44.9,-123.0,1.1,-0.6,360,3,,9.0,30.41929,1030.1,,TRUE,TRUE,,,,,,,BKN,200,,,,,,,LIFR,,,,,,,,,,,,METAR,63.0
KSLE 151839Z AUTO 36003KT 3SM BR OVC002 00/M01 A3042 RMK AO2 T00001011,KSLE,2023-02-15T18:39:00Z,44.9,-123.0,0.0,-1.1,360,3,,3.0,30.41929,,,TRUE,TRUE,,,,,,BR,OVC,200,,,,,,,LIFR,,,,,,,,,,,,SPECI,63.0
KSLE 151836Z AUTO 34004KT 1 1/2SM BR OVC002 00/M01 A3042 RMK AO2 VIS 3/4V4 T00001011,KSLE,2023-02-15T18:36:00Z,44.9,-123.0,0.0,-1.1,340,4,,1.5,30.41929,,,TRUE,TRUE,,,,,,BR,OVC,200,,,,,,,LIFR,,,,,,,,,,,,METAR,63.0
KSLE 151819Z AUTO 35004KT 3/4SM R31/2000V2600FT BR OVC002 M01/M02 A3042 RMK AO2 T10061017,KSLE,2023-02-15T18:19:00Z,44.9,-123.0,-0.6,-1.7,350,4,,0.75,30.41929,,,TRUE,TRUE,,,,,,BR,OVC,200,,,,,,,LIFR,,,,,,,,,,,,SPECI,63.0
KSLE 151812Z AUTO 34006KT 1 3/4SM R31/2000V4000FT BR OVC002 M01/M02 A3042 RMK AO2 VIS 1 1/4V3 T10061017,KSLE,2023-02-15T18:12:00Z,44.9,-123.0,-0.6,-1.7,340,6,,1.75,30.41929,,,TRUE,TRUE,,,,,,BR,OVC,200,,,,,,,LIFR,,,,,,,,,,,,SPECI,63.0
KSLE 151803Z AUTO 34007KT 5SM R31/4000VP6000FT BR BKN002 M01/M02 A3042 RMK AO2 T10061022,KSLE,2023-02-15T18:03:00Z,44.9,-123.0,-0.6,-2.2,340,7,,5.0,30.41929,,,TRUE,TRUE,,,,,,BR,BKN,200,,,,,,,LIFR,,,,,,,,,,,,SPECI,63.0
KSLE 151756Z AUTO 34006KT 6SM BR SCT003 M01/M02 A3042 RMK AO2 SLP303 I6001 T10061017 10000 21039 53010,KSLE,2023-02-15T17:56:00Z,44.9,-123.0,-0.6,-1.7,340,6,,6.0,30.41929,1030.3,,TRUE,TRUE,,,,,,BR,SCT,300,,,,,,,VFR,1.0,0.0,-3.9,,,,,,,,,METAR,63.0
KSLE 151744Z AUTO 34005KT 10SM FEW003 M01/M02 A3041 RMK AO2 T10061017,KSLE,2023-02-15T17:44:00Z,44.9,-123.0,-0.6,-1.7,340,5,,10.0,30.410433,,,TRUE,TRUE,,,,,,,FEW,300,,,,,,,VFR,,,,,,,,,,,,SPECI,63.0
KSLE 151656Z AUTO 32006KT 10SM CLR M01/M02 A3041 RMK AO2 SLP298 I1000 T10061022,KSLE,2023-02-15T16:56:00Z,44.9,-123.0,-0.6,-2.2,320,6,,10.0,30.410433,1029.8,,TRUE,TRUE,,,,,,,CLR,,,,,,,,VFR,,,,,,,,,,,,METAR,63.0
KSLE 151556Z AUTO 00000KT 9SM CLR M03/M04 A3039 RMK AO2 SLP294 T10331039,KSLE,2023-02-15T15:56:00Z,44.9,-123.0,-3.3,-3.9,0,0,,9.0,30.389763,1029.4,,TRUE,TRUE,,,,,,,CLR,,,,,,,,VFR,,,,,,,,,,,,METAR,63.0
KSLE 151456Z AUTO 00000KT 10SM CLR M04/M05 A3039 RMK AO2 SLP292 I1000 I3001 T10391050 50002,KSLE,2023-02-15T14:56:00Z,44.9,-123.0,-3.9,-5.0,0,0,,10.0,30.389763,1029.2,,TRUE,TRUE,,,,,,,CLR,,,,,,,,VFR,0.2,,,,,,,,,,,METAR,63.0
KSLE 151356Z AUTO 00000KT 10SM CLR M03/M04 A3040 RMK AO2 SLP295 I1000 T10331039,KSLE,2023-02-15T13:56:00Z,44.9,-123.0,-3.3,-3.9,0,0,,10.0,30.398623,1029.5,,TRUE,TRUE,,,,,,,CLR,,,,,,,,VFR,,,,,,,,,,,,METAR,63.0
KSLE 151256Z AUTO 00000KT 10SM CLR M03/M04 A3039 RMK AO2 SLP293 I1001 T10281039,KSLE,2023-02-15T12:56:00Z,44.9,-123.0,-2.8,-3.9,0,0,,10.0,30.389763,1029.3,,TRUE,TRUE,,,,,,,CLR,,,,,,,,VFR,,,,,,,,,,,,METAR,63.0
