No errors
No warnings
31 ms
data source=metars
506 results
raw_text,station_id,observation_time,latitude,longitude,temp_c,dewpoint_c,wind_dir_degrees,wind_speed_kt,wind_gust_kt,visibility_statute_mi,altim_in_hg,sea_level_pressure_mb,corrected,auto,auto_station,maintenance_indicator_on,no_signal,lightning_sensor_off,freezing_rain_sensor_off,present_weather_sensor_off,wx_string,sky_cover,cloud_base_ft_agl,sky_cover,cloud_base_ft_agl,sky_cover,cloud_base_ft_agl,sky_cover,cloud_base_ft_agl,flight_category,three_hr_pressure_tendency_mb,maxT_c,minT_c,maxT24hr_c,minT24hr_c,precip_in,pcp3hr_in,pcp6hr_in,pcp24hr_in,snow_in,vert_vis_ft,metar_type,elevation_m
KSLE 311556Z 19010G19KT 10SM BKN055 OVC070 08/03 A3003 RMK AO2 SLP169 T00780028,KSLE,2023-03-31T15:56:00Z,44.9,-123.0,7.8,2.8,190,10,19,10.0,30.029528,1016.9,,,TRUE,,,,,,,BKN,5500,OVC,7000,,,,,VFR,,,,,,,,,,,,METAR,63.0
KSLE 311456Z 17008KT 10SM FEW040 OVC065 07/03 A3002 RMK AO2 SLP166 60000 T00670028 53005,KSLE,2023-03-31T14:56:00Z,44.9,-123.0,6.7,2.8,170,8,,10.0,30.02067,1016.6,,,TRUE,,,,,,,FEW,4000,OVC,6500,,,,,VFR,0.5,,,,,,0.005,,,,,METAR,63.0
KSLE 311356Z 17014KT 10SM OVC042 07/03 A3001 RMK AO2 SLP163 T00670028,KSLE,2023-03-31T13:56:00Z,44.9,-123.0,6.7,2.8,170,14,,10.0,30.008858,1016.3,,,TRUE,,,,,,,OVC,4200,,,,,,,VFR,,,,,,,,,,,,METAR,63.0
KSLE 311256Z AUTO 18012KT 10SM OVC055 07/03 A3000 RMK AO2 RAE05 SLP159 P0000 T00670028,KSLE,2023-03-31T12:56:00Z,44.9,-123.0,6.7,2.8,180,12,,10.0,30.0,1015.9,,TRUE,TRUE,,,,,,,OVC,5500,,,,,,,VFR,,,,,,0.005,,,,,,METAR,63.0
KSLE 311156Z AUTO 18010KT 10SM -RA SCT049 OVC060 07/03 A3000 RMK AO2 RAB56 SLP161 P0000 60000 T00670033 10072 20056 53001,KSLE,2023-03-31T11:56:00Z,44.9,-123.0,6.7,3.3,180,10,,10.0,30.0,1016.1,,TRUE,TRUE,,,,,,-RA,SCT,4900,OVC,6000,,,,,VFR,0.1,7.2,5.6,,,0.005,,0.005,,,,METAR,63.0
KSLE 311056Z AUTO 18010KT 10SM OVC055 07/03 A3000 RMK AO2 SLP161 T00670028,KSLE,2023-03-31T10:56:00Z,44.9,-123.0,6.7,2.8,180,10,,10.0,30.0,1016.1,,TRUE,TRUE,,,,,,,OVC,5500,,,,,,,VFR,,,,,,,,,,,,METAR,63.0
KSLE 310956Z AUTO 17009KT 10SM OVC055 07/03 A3000 RMK AO2 RAB02E12 SLP158 P0000 T00670028,KSLE,2023-03-31T09:56:00Z,44.9,-123.0,6.7,2.8,170,9,,10.0,30.0,1015.8,,TRUE,TRUE,,,,,,,OVC,5500,,,,,,,VFR,,,,,,0.005,,,,,,SPECI,63.0
KSLE 310856Z AUTO 18007KT 10SM OVC055 07/03 A3000 RMK AO2 SLP160 T00670028 53001,KSLE,2023-03-31T08:56:00Z,44.9,-123.0,6.7,2.8,180,7,,10.0,30.0,1016.0,,TRUE,TRUE,,,,,,,OVC,5500,,,,,,,VFR,0.1,,,,,,,,,,,METAR,63.0
KSLE 310756Z AUTO 17006KT 10SM SCT050 06/02 A3000 RMK AO2 SLP158 T00560022 401280039,KSLE,2023-03-31T07:56:00Z,44.9,-123.0,5.6,2.2,170,6,,10.0,30.0,1015.8,,TRUE,TRUE,,,,,,,SCT,5000,,,,,,,VFR,,,,12.8,3.9,,,,,,,METAR,63.0
KSLE 310656Z AUTO 16005KT 10SM SCT050 06/02 A3000 RMK AO2 SLP159 T00560022,KSLE,2023-03-31T06:56:00Z,44.9,-123.0,5.6,2.2,160,5,,10.0,30.0,1015.9,,TRUE,TRUE,,,,,,,SCT,5000,,,,,,,VFR,,,,,,,,,,,,METAR,63.0
KSLE 310556Z AUTO 20004KT 10SM OVC047 07/02 A3000 RMK AO2 SLP159 T00720017 10122 20072 51015,KSLE,2023-03-31T05:56:00Z,44.9,-123.0,7.2,1.7,200,4,,10.0,30.0,1015.9,,TRUE,TRUE,,,,,,,OVC,4700,,,,,,,VFR,1.5,12.2,7.2,,,,,,,,,METAR,63.0
KSLE 310456Z AUTO 22009KT 10SM FEW032 OVC046 08/02 A2999 RMK AO2 SLP157 T00780017,KSLE,2023-03-31T04:56:00Z,44.9,-123.0,7.8,1.7,220,9,,10.0,29.991142,1015.7,,TRUE,TRUE,,,,,,,FEW,3200,OVC,4600,,,,,VFR,,,,,,,,,,,,METAR,63.0
KSLE 310356Z AUTO 24007KT 10SM BKN049 08/02 A2997 RMK AO2 SLP151 T00780022,KSLE,2023-03-31T03:56:00Z,44.9,-123.0,7.8,2.2,240,7,,10.0,29.970472,1015.1,,TRUE,TRUE,,,,,,,BKN,4900,,,,,,,VFR,,,,,,,,,,,,METAR,63.0
KSLE 310256Z 24009KT 10SM OVC044 08/02 A2995 RMK AO2 SLP144 T00830022 53014,KSLE,2023-03-31T02:56:00Z,44.9,-123.0,8.3,2.2,240,9,,10.0,29.949802,1014.4,,,TRUE,,,,,,,OVC,4400,,,,,,,VFR,1.4,,,,,,,,,,,METAR,63.0
KSLE 310156Z 24009G20KT 10SM CLR 09/02 A2994 RMK AO2 SLP139 T00940022,KSLE,2023-03-31T01:56:00Z,44.9,-123.0,9.4,2.2,240,9,20,10.0,29.940945,1013.9,,,TRUE,,,,,,,CLR,,,,,,,,VFR,,,,,,,,,,,,METAR,63.0
KSLE 310056Z 26010KT 10SM CLR 10/02 A2992 RMK AO2 SLP133 T01000017,KSLE,2023-03-31T00:56:00Z,44.9,-123.0,10.0,1.7,260,10,,10.0,29.920275,1013.3,,,TRUE,,,,,,,CLR,,,,,,,,VFR,,,,,,,,,,,,METAR,63.0
KSLE 302356Z 25013G19KT 10SM SCT044 12/02 A2991 RMK AO2 WSHFT 2306 SLP130 60000 T01220017 10128 20078 53002,KSLE,2023-03-30T23:56:00Z,44.9,-123.0,12.2,1.7,250,13,19,10.0,29.911417,1013.0,,,TRUE,,,,,,,SCT,4400,,,,,,,VFR,0.2,12.8,7.8,,,,,0.005,,,,METAR,63.0
KSLE 302326Z 26012G19KT 10SM BKN042 12/02 A2991 RMK AO2 WSHFT 2306 T01220022,KSLE,2023-03-30T23:26:00Z,44.9,-123.0,12.2,2.2,260,12,19,10.0,29.911417,,,,TRUE,,,,,,,BKN,4200,,,,,,,VFR,,,,,,,,,,,,SPECI,63.0
KSLE 302256Z COR 20010KT 10SM SCT048 BKN060 13/04 A2990 RMK AO2 RAE2159 SLP126 P0000 T01280044,KSLE,2023-03-30T22:56:00Z,44.9,-123.0,12.8,4.4,200,10,,10.0,29.899607,1012.6,TRUE,,TRUE,,,,,,,SCT,4800,BKN,6000,,,,,VFR,,,,,,0.005,,,,,,METAR,63.0
KSLE 302203Z 19011KT 10SM SCT028 BKN050 OVC060 11/05 A2990 RMK AO2 RAE2159 P0000 T01110050,KSLE,2023-03-30T22:03:00Z,44.9,-123.0,11.1,5.0,190,11,,10.0,29.899607,,,,TRUE,,,,,,,SCT,2800,BKN,5000,OVC,6000,,,VFR,,,,,,0.005,,,,,,SPECI,63.0
KSLE 302156Z 19012KT 10SM -RA BKN028 OVC050 11/05 A2991 RMK AO2 RAB48 SLP128 P0000 T01060050,KSLE,2023-03-30T21:56:00Z,44.9,-123.0,10.6,5.0,190,12,,10.0,29.911417,1012.8,,,TRUE,,,,,,-RA,BKN,2800,OVC,5000,,,,,MVFR,,,,,,0.005,,,,,,METAR,63.0
KSLE 302056Z 18009KT 10SM BKN028 BKN034 OVC050 11/06 A2991 RMK AO2 SLP127 T01110056 58001 $,KSLE,2023-03-30T20:56:00Z,44.9,-123.0,11.1,5.6,180,9,,10.0,29.911417,1012.7,,,TRUE,TRUE,,,,,,BKN,2800,BKN,3400,OVC,5000,,,MVFR,-0.1,,,,,,,,,,,METAR,63.0
KSLE 301956Z 17010KT 10SM FEW025 BKN047 OVC090 11/05 A2991 RMK AO2 SLP128 T01110050,KSLE,2023-03-30T19:56:00Z,44.9,-123.0,11.1,5.0,170,10,,10.0,29.911417,1012.8,,,TRUE,,,,,,,FEW,2500,BKN,4700,OVC,9000,,,VFR,,,,,,,,,,,,METAR,63.0
KSLE 301856Z 18010KT 10SM BKN045 OVC090 10/05 A2991 RMK AO2 SLP129 T01000050,KSLE,2023-03-30T18:56:00Z,44.9,-123.0,10.0,5.0,180,10,,10.0,29.911417,1012.9,,,TRUE,,,,,,,BKN,4500,OVC,9000,,,,,VFR,,,,,,,,,,,,METAR,63.0
KSLE 301756Z 18009KT 10SM SCT025 BKN034 OVC041 08/04 A2991 RMK AO2 SLP128 T00780044 10078 20050 51004,KSLE,2023-03-30T17:56:00Z,44.9,-123.0,7.8,4.4,180,9,,10.0,29.911417,1012.8,,,TRUE,,,,,,,SCT,2500,BKN,3400,OVC,4100,,,VFR,0.4,7.8,5.0,,,,,,,,,METAR,63.0
KSLE 301753Z 18007KT 10SM SCT025 BKN032 OVC041 08/04 A2991 RMK AO2,KSLE,2023-03-30T17:53:00Z,44.9,-123.0,8.0,4.0,180,7,,10.0,29.911417,,,,TRUE,,,,,,,SCT,2500,BKN,3200,OVC,4100,,,VFR,,,,,,,,,,,,METAR,63.0
KSLE 301706Z 18009KT 10SM BKN029 OVC035 07/04 A2990 RMK AO2 T00720039,KSLE,2023-03-30T17:06:00Z,44.9,-123.0,7.2,3.9,180,9,,10.0,29.899607,,,,TRUE,,,,,,,BKN,2900,OVC,3500,,,,,MVFR,,,,,,,,,,,,SPECI,63.0
KSLE 301656Z COR 19010KT 10SM FEW024 OVC032 07/04 A2990 RMK AO2 SLP125 T00670039,KSLE,2023-03-30T16:56:00Z,44.9,-123.0,6.7,3.9,190,10,,10.0,29.899607,1012.5,TRUE,,TRUE,,,,,,,FEW,2400,OVC,3200,,,,,VFR,,,,,,,,,,,,METAR,63.0
KSLE 301653Z 19009KT 10SM FEW024 OVC030 07/04 A2990 RMK AO2,KSLE,2023-03-30T16:53:00Z,44.9,-123.0,7.0,4.0,190,9,,10.0,29.899607,,,,TRUE,,,,,,,FEW,2400,OVC,3000,,,,,MVFR,,,,,,,,,,,,SPECI,63.0
KSLE 301556Z 19008KT 10SM OVC026 06/03 A2989 RMK AO2 SLP121 T00610033,KSLE,2023-03-30T15:56:00Z,44.9,-123.0,6.1,3.3,190,8,,10.0,29.890747,1012.1,,,TRUE,,,,,,,OVC,2600,,,,,,,MVFR,,,,,,,,,,,,METAR,63.0
KSLE 301537Z 17008KT 10SM BKN027 OVC085 06/03 A2989 RMK AO2 T00610033,KSLE,2023-03-30T15:37:00Z,44.9,-123.0,6.1,3.3,170,8,,10.0,29.890747,,,,TRUE,,,,,,,BKN,2700,OVC,8500,,,,,MVFR,,,,,,,,,,,,SPECI,63.0
KSLE 301456Z 16009KT 10SM OVC085 06/03 A2988 RMK AO2 SLP118 T00610028 50006,KSLE,2023-03-30T14:56:00Z,44.9,-123.0,6.1,2.8,160,9,,10.0,29.878937,1011.8,,,TRUE,,,,,,,OVC,8500,,,,,,,VFR,0.6,,,,,,,,,,,METAR,63.0
KSLE 301431Z 16009KT 10SM SCT027 OVC085 06/03 A2988 RMK AO2 T00560028,KSLE,2023-03-30T14:31:00Z,44.9,-123.0,5.6,2.8,160,9,,10.0,29.878937,,,,TRUE,,,,,,,SCT,2700,OVC,8500,,,,,VFR,,,,,,,,,,,,SPECI,63.0
KSLE 301356Z 18008KT 10SM OVC022 05/03 A2988 RMK AO2 SLP119 T00500028,KSLE,2023-03-30T13:56:00Z,44.9,-123.0,5.0,2.8,180,8,,10.0,29.878937,1011.9,,,TRUE,,,,,,,OVC,2200,,,,,,,MVFR,,,,,,,,,,,,SPECI,63.0
KSLE 301341Z AUTO 17007KT 10SM BKN022 OVC090 05/03 A2988 RMK AO2 T00500028,KSLE,2023-03-30T13:41:00Z,44.9,-123.0,5.0,2.8,170,7,,10.0,29.878937,,,TRUE,TRUE,,,,,,,BKN,2200,OVC,9000,,,,,MVFR,,,,,,,,,,,,SPECI,63.0
KSLE 301256Z AUTO 19005KT 10SM FEW012 OVC085 06/03 A2987 RMK AO2 SLP117 T00560028,KSLE,2023-03-30T12:56:00Z,44.9,-123.0,5.6,2.8,190,5,,10.0,29.870079,1011.7,,TRUE,TRUE,,,,,,,FEW,1200,OVC,8500,,,,,VFR,,,,,,,,,,,,METAR,63.0
KSLE 301156Z AUTO 18008KT 10SM OVC085 06/03 A2986 RMK AO2 SLP112 T00560033 10078 20039 58001,KSLE,2023-03-30T11:56:00Z,44.9,-123.0,5.6,3.3,180,8,,10.0,29.861221,1011.2,,TRUE,TRUE,,,,,,,OVC,8500,,,,,,,VFR,-0.1,7.8,3.9,,,,,,,,,METAR,63.0
KSLE 301056Z AUTO 18003KT 10SM FEW050 OVC080 06/03 A2987 RMK AO2 SLP114 T00560033,KSLE,2023-03-30T10:56:00Z,44.9,-123.0,5.6,3.3,180,3,,10.0,29.870079,1011.4,,TRUE,TRUE,,,,,,,FEW,5000,OVC,8000,,,,,VFR,,,,,,,,,,,,SPECI,63.0
KSLE 300956Z AUTO 17005KT 10SM FEW040 SCT055 BKN075 05/03 A2987 RMK AO2 SLP114 T00500028,KSLE,2023-03-30T09:56:00Z,44.9,-123.0,5.0,2.8,170,5,,10.0,29.870079,1011.4,,TRUE,TRUE,,,,,,,FEW,4000,SCT,5500,BKN,7500,,,VFR,,,,,,,,,,,,METAR,63.0
KSLE 300856Z AUTO 18005KT 10SM SCT041 04/03 A2986 RMK AO2 SLP113 T00440028 51007,KSLE,2023-03-30T08:56:00Z,44.9,-123.0,4.4,2.8,180,5,,10.0,29.861221,1011.3,,TRUE,TRUE,,,,,,,SCT,4100,,,,,,,VFR,0.7,,,,,,,,,,,METAR,63.0
KSLE 300756Z AUTO 24004KT 10SM CLR 06/04 A2986 RMK AO2 SLP112 T00610039 401440006,KSLE,2023-03-30T07:56:00Z,44.9,-123.0,6.1,3.9,240,4,,10.0,29.861221,1011.2,,TRUE,TRUE,,,,,,,CLR,,,,,,,,VFR,,,,14.4,0.6,,,,,,,SPECI,63.0
KSLE 300656Z AUTO 14005KT 10SM FEW050 06/03 A2985 RMK AO2 SLP110 T00610033,KSLE,2023-03-30T06:56:00Z,44.9,-123.0,6.1,3.3,140,5,,10.0,29.84941,1011.0,,TRUE,TRUE,,,,,,,FEW,5000,,,,,,,VFR,,,,,,,,,,,,METAR,63.0
KSLE 300556Z AUTO 33005KT 10SM SCT055 BKN070 08/04 A2984 RMK AO2 SLP106 T00780039 10144 20072 50012,KSLE,2023-03-30T05:56:00Z,44.9,-123.0,7.8,3.9,330,5,,10.0,29.840551,1010.6,,TRUE,TRUE,,,,,,,SCT,5500,BKN,7000,,,,,VFR,1.2,14.4,7.2,,,,,,,,,METAR,63.0
KSLE 300456Z AUTO 00000KT 10SM FEW050 BKN065 09/04 A2984 RMK AO2 SLP106 T00890039,KSLE,2023-03-30T04:56:00Z,44.9,-123.0,8.9,3.9,0,0,,10.0,29.840551,1010.6,,TRUE,TRUE,,,,,,,FEW,5000,BKN,6500,,,,,VFR,,,,,,,,,,,,METAR,63.0
KSLE 300356Z 28006KT 10SM FEW042 FEW095 09/04 A2983 RMK AO2 SLP101 T00940039,KSLE,2023-03-30T03:56:00Z,44.9,-123.0,9.4,3.9,280,6,,10.0,29.828741,1010.1,,,TRUE,,,,,,,FEW,4200,FEW,9500,,,,,VFR,,,,,,,,,,,,METAR,63.0
KSLE 300256Z 00000KT 10SM FEW047 09/04 A2981 RMK AO2 SLP094 T00940044 53004,KSLE,2023-03-30T02:56:00Z,44.9,-123.0,9.4,4.4,0,0,,10.0,29.811024,1009.4,,,TRUE,,,,,,,FEW,4700,,,,,,,VFR,0.4,,,,,,,,,,,METAR,63.0
KSLE 300156Z 00000KT 10SM SCT047 12/03 A2980 RMK AO2 SLP092 T01220033,KSLE,2023-03-30T01:56:00Z,44.9,-123.0,12.2,3.3,0,0,,10.0,29.799213,1009.2,,,TRUE,,,,,,,SCT,4700,,,,,,,VFR,,,,,,,,,,,,METAR,63.0
KSLE 300056Z 35005KT 10SM FEW040 14/04 A2979 RMK AO2 SLP088 T01390039,KSLE,2023-03-30T00:56:00Z,44.9,-123.0,13.9,3.9,350,5,,10.0,29.790354,1008.8,,,TRUE,,,,,,,FEW,4000,,,,,,,VFR,,,,,,,,,,,,METAR,63.0
KSLE 292356Z VRB03KT 10SM CLR 14/04 A2979 RMK AO2 SLP090 T01390039 10144 20056 56015,KSLE,2023-03-29T23:56:00Z,44.9,-123.0,13.9,3.9,0,3,,10.0,29.790354,1009.0,,,TRUE,,,,,,,CLR,,,,,,,,VFR,-1.5,14.4,5.6,,,,,,,,,METAR,63.0
KSLE 292256Z 00000KT 10SM CLR 13/04 A2981 RMK AO2 SLP094 T01280039,KSLE,2023-03-29T22:56:00Z,44.9,-123.0,12.8,3.9,0,0,,10.0,29.811024,1009.4,,,TRUE,,,,,,,CLR,,,,,,,,VFR,,,,,,,,,,,,METAR,63.0
KSLE 292156Z COR VRB03KT 10SM FEW025 12/04 A2982 RMK AO2 SLP100 T01170039,KSLE,2023-03-29T21:56:00Z,44.9,-123.0,11.7,3.9,0,3,,10.0,29.819881,1010.0,TRUE,,TRUE,,,,,,,FEW,2500,,,,,,,VFR,,,,,,,,,,,,SPECI,63.0
KSLE 292056Z VRB03KT 10SM FEW020 09/05 A2984 RMK AO2 SLP105 T00940050 58002,KSLE,2023-03-29T20:56:00Z,44.9,-123.0,9.4,5.0,0,3,,10.0,29.840551,1010.5,,,TRUE,,,,,,,FEW,2000,,,,,,,VFR,-0.2,,,,,,,,,,,METAR,63.0
KSLE 292048Z 15003KT 10SM SCT019 09/05 A2984 RMK AO2 T00890050,KSLE,2023-03-29T20:48:00Z,44.9,-123.0,8.9,5.0,150,3,,10.0,29.840551,,,,TRUE,,,,,,,SCT,1900,,,,,,,VFR,,,,,,,,,,,,SPECI,63.0
KSLE 291956Z 15005KT 10SM BKN016 08/04 A2985 RMK AO2 SLP109 T00830044,KSLE,2023-03-29T19:56:00Z,44.9,-123.0,8.3,4.4,150,5,,10.0,29.84941,1010.9,,,TRUE,,,,,,,BKN,1600,,,,,,,MVFR,,,,,,,,,,,,METAR,63.0
KSLE 291856Z 16005KT 10SM OVC012 07/04 A2984 RMK AO2 SLP107 T00720044,KSLE,2023-03-29T18:56:00Z,44.9,-123.0,7.2,4.4,160,5,,10.0,29.840551,1010.7,,,TRUE,,,,,,,OVC,1200,,,,,,,MVFR,,,,,,,,,,,,METAR,63.0
KSLE 291834Z 15005KT 10SM OVC010 07/04 A2984 RMK AO2 T00670039,KSLE,2023-03-29T18:34:00Z,44.9,-123.0,6.7,3.9,150,5,,10.0,29.840551,,,,TRUE,,,,,,,OVC,1000,,,,,,,MVFR,,,,,,,,,,,,SPECI,63.0
KSLE 291756Z 18005KT 10SM OVC006 06/04 A2984 RMK AO2 CIG 005V010 SLP107 T00560039 10056 20028 50010,KSLE,2023-03-29T17:56:00Z,44.9,-123.0,5.6,3.9,180,5,,10.0,29.840551,1010.7,,,TRUE,,,,,,,OVC,600,,,,,,,IFR,1.0,5.6,2.8,,,,,,,,,SPECI,63.0
KSLE 291656Z 16005KT 4SM BR OVC006 04/03 A2984 RMK AO2 SLP107 T00390028,KSLE,2023-03-29T16:56:00Z,44.9,-123.0,3.9,2.8,160,5,,4.0,29.840551,1010.7,,,TRUE,,,,,,BR,OVC,600,,,,,,,IFR,,,,,,,,,,,,METAR,63.0
KSLE 291556Z 15005KT 4SM BR OVC005 03/02 A2982 RMK AO2 SLP100 T00330022,KSLE,2023-03-29T15:56:00Z,44.9,-123.0,3.3,2.2,150,5,,4.0,29.819881,1010.0,,,TRUE,,,,,,BR,OVC,500,,,,,,,IFR,,,,,,,,,,,,SPECI,63.0
KSLE 291531Z 14004KT 4SM BR OVC005 03/02 A2982 RMK AO2 T00330022,KSLE,2023-03-29T15:31:00Z,44.9,-123.0,3.3,2.2,140,4,,4.0,29.819881,,,,TRUE,,,,,,BR,OVC,500,,,,,,,IFR,,,,,,,,,,,,METAR,63.0
KSLE 291456Z 00000KT 4SM BR OVC004 03/02 A2981 RMK AO2 SLP096 T00280022 53008,KSLE,2023-03-29T14:56:00Z,44.9,-123.0,2.8,2.2,0,0,,4.0,29.811024,1009.6,,,TRUE,,,,,,BR,OVC,400,,,,,,,LIFR,0.8,,,,,,,,,,,METAR,63.0
KSLE 291356Z 13003KT 6SM BR OVC003 03/02 A2980 RMK AO2 SLP091 T00280022,KSLE,2023-03-29T13:56:00Z,44.9,-123.0,2.8,2.2,130,3,,6.0,29.799213,1009.1,,,TRUE,,,,,,BR,OVC,300,,,,,,,LIFR,,,,,,,,,,,,METAR,63.0
KSLE 291339Z AUTO 16003KT 4SM BR OVC002 03/03 A2980 RMK AO2 T00330028,KSLE,2023-03-29T13:39:00Z,44.9,-123.0,3.3,2.8,160,3,,4.0,29.799213,,,TRUE,TRUE,,,,,,BR,OVC,200,,,,,,,LIFR,,,,,,,,,,,,SPECI,63.0
KSLE 291327Z AUTO 00000KT 2SM BR OVC003 03/03 A2980 RMK AO2 T00330028,KSLE,2023-03-29T13:27:00Z,44.9,-123.0,3.3,2.8,0,0,,2.0,29.799213,,,TRUE,TRUE,,,,,,BR,OVC,300,,,,,,,LIFR,,,,,,,,,,,,SPECI,63.0
KSLE 291305Z AUTO 00000KT 1SM R31/3000V4500FT BR VV003 03/03 A2979 RMK AO2 T00330028,KSLE,2023-03-29T13:05:00Z,44.9,-123.0,3.3,2.8,0,0,,1.0,29.790354,,,TRUE,TRUE,,,,,,BR,OVX,0,,,,,,,LIFR,,,,,,,,,,,300,METAR,63.0
KSLE 291256Z AUTO 00000KT 3/4SM R31/3500V4500FT BR VV003 03/03 A2979 RMK AO2 SLP087 T00280028,KSLE,2023-03-29T12:56:00Z,44.9,-123.0,2.8,2.8,0,0,,0.75,29.790354,1008.7,,TRUE,TRUE,,,,,,BR,OVX,0,,,,,,,LIFR,,,,,,,,,,,300,METAR,63.0
KSLE 291251Z AUTO 00000KT 3/4SM R31/3500V4500FT BR VV003 03/03 A2979 RMK AO2,KSLE,2023-03-29T12:51:00Z,44.9,-123.0,3.0,3.0,0,0,,0.75,29.790354,,,TRUE,TRUE,,,,,,BR,OVX,0,,,,,,,LIFR,,,,,,,,,,,300,SPECI,63.0
KSLE 291242Z AUTO 00000KT 1 3/4SM R31/3500VP6000FT BR OVC002 03/03 A2979 RMK AO2 T00330028,KSLE,2023-03-29T12:42:00Z,44.9,-123.0,3.3,2.8,0,0,,1.75,29.790354,,,TRUE,TRUE,,,,,,BR,OVC,200,,,,,,,LIFR,,,,,,,,,,,,SPECI,63.0
KSLE 291156Z AUTO 00000KT 4SM BR OVC003 03/02 A2978 RMK AO2 SLP084 70038 T00280022 10039 20006 56001,KSLE,2023-03-29T11:56:00Z,44.9,-123.0,2.8,2.2,0,0,,4.0,29.778543,1008.4,,TRUE,TRUE,,,,,,BR,OVC,300,,,,,,,LIFR,-0.1,3.9,0.6,,,,,,0.38,,,METAR,63.0
KSLE 291056Z AUTO 10003KT 4SM BR BKN004 OVC010 02/02 A2978 RMK AO2 SLP084 T00220017,KSLE,2023-03-29T10:56:00Z,44.9,-123.0,2.2,1.7,100,3,,4.0,29.778543,1008.4,,TRUE,TRUE,,,,,,BR,BKN,400,OVC,1000,,,,,LIFR,,,,,,,,,,,,METAR,63.0
KSLE 291013Z AUTO 00000KT 3SM BR OVC005 03/02 A2977 RMK AO2 T00280022,KSLE,2023-03-29T10:13:00Z,44.9,-123.0,2.8,2.2,0,0,,3.0,29.769686,,,TRUE,TRUE,,,,,,BR,OVC,500,,,,,,,IFR,,,,,,,,,,,,SPECI,63.0
KSLE 291003Z AUTO 00000KT 2SM BR OVC005 02/02 A2977 RMK AO2 T00220017,KSLE,2023-03-29T10:03:00Z,44.9,-123.0,2.2,1.7,0,0,,2.0,29.769686,,,TRUE,TRUE,,,,,,BR,OVC,500,,,,,,,IFR,,,,,,,,,,,,SPECI,63.0
KSLE 290956Z AUTO 00000KT 1 1/4SM BR OVC005 02/02 A2978 RMK AO2 SLP084 T00170017,KSLE,2023-03-29T09:56:00Z,44.9,-123.0,1.7,1.7,0,0,,1.25,29.778543,1008.4,,TRUE,TRUE,,,,,,BR,OVC,500,,,,,,,IFR,,,,,,,,,,,,METAR,63.0
KSLE 290947Z AUTO 00000KT 1 3/4SM BR OVC005 02/02 A2978 RMK AO2 VIS 3/4V5 T00220017,KSLE,2023-03-29T09:47:00Z,44.9,-123.0,2.2,1.7,0,0,,1.75,29.778543,,,TRUE,TRUE,,,,,,BR,OVC,500,,,,,,,IFR,,,,,,,,,,,,SPECI,63.0
KSLE 290939Z AUTO 00000KT 3SM BR OVC006 02/02 A2978 RMK AO2 T00220022,KSLE,2023-03-29T09:39:00Z,44.9,-123.0,2.2,2.2,0,0,,3.0,29.778543,,,TRUE,TRUE,,,,,,BR,OVC,600,,,,,,,IFR,,,,,,,,,,,,SPECI,63.0
KSLE 290936Z AUTO 00000KT 1 1/2SM R31/2000VP6000FT BR OVC006 02/02 A2978 RMK AO2 T00220022,KSLE,2023-03-29T09:36:00Z,44.9,-123.0,2.2,2.2,0,0,,1.5,29.778543,,,TRUE,TRUE,,,,,,BR,OVC,600,,,,,,,IFR,,,,,,,,,,,,SPECI,63.0
KSLE 290929Z AUTO 00000KT 1/2SM R31/2000VP6000FT FG BKN006 02/02 A2978 RMK AO2 T00220017,KSLE,2023-03-29T09:29:00Z,44.9,-123.0,2.2,1.7,0,0,,0.5,29.778543,,,TRUE,TRUE,,,,,,FG,BKN,600,,,,,,,LIFR,,,,,,,,,,,,SPECI,63.0
KSLE 290917Z AUTO 00000KT 1/4SM R31/2000V3000FT FG VV007 01/01 A2978 RMK AO2 T00110006,KSLE,2023-03-29T09:17:00Z,44.9,-123.0,1.1,0.6,0,0,,0.25,29.778543,,,TRUE,TRUE,,,,,,FG,OVX,0,,,,,,,LIFR,,,,,,,,,,,700,METAR,63.0
KSLE 290908Z AUTO 00000KT 1/2SM R31/2600V3500FT FG VV006 01/01 A2978 RMK AO2 T00110011,KSLE,2023-03-29T09:08:00Z,44.9,-123.0,1.1,1.1,0,0,,0.5,29.778543,,,TRUE,TRUE,,,,,,FG,OVX,0,,,,,,,LIFR,,,,,,,,,,,600,SPECI,63.0
KSLE 290903Z AUTO 00000KT 1SM R31/2000V3500FT BR CLR 02/02 A2978 RMK AO2 T00220017,KSLE,2023-03-29T09:03:00Z,44.9,-123.0,2.2,1.7,0,0,,1.0,29.778543,,,TRUE,TRUE,,,,,,BR,CLR,,,,,,,,IFR,,,,,,,,,,,,SPECI,63.0
KSLE 290856Z AUTO 00000KT 1 1/2SM R31/2000VP6000FT BR CLR 02/01 A2978 RMK AO2 SLP085 T00170011 51003,KSLE,2023-03-29T08:56:00Z,44.9,-123.0,1.7,1.1,0,0,,1.5,29.778543,1008.5,,TRUE,TRUE,,,,,,BR,CLR,,,,,,,,IFR,0.3,,,,,,,,,,,METAR,63.0
KSLE 290848Z AUTO 00000KT 2 1/2SM BR CLR 02/02 A2978 RMK AO2 T00220017,KSLE,2023-03-29T08:48:00Z,44.9,-123.0,2.2,1.7,0,0,,2.5,29.778543,,,TRUE,TRUE,,,,,,BR,CLR,,,,,,,,IFR,,,,,,,,,,,,METAR,63.0
KSLE 290830Z AUTO 00000KT 5SM BR SCT006 03/02 A2978 RMK AO2 T00330022,KSLE,2023-03-29T08:30:00Z,44.9,-123.0,3.3,2.2,0,0,,5.0,29.778543,,,TRUE,TRUE,,,,,,BR,SCT,600,,,,,,,MVFR,,,,,,,,,,,,SPECI,63.0
KSLE 290756Z AUTO 00000KT 7SM BKN007 03/03 A2978 RMK AO2 CIG 004V009 SLP084 T00330028 400890028,KSLE,2023-03-29T07:56:00Z,44.9,-123.0,3.3,2.8,0,0,,7.0,29.778543,1008.4,,TRUE,TRUE,,,,,,,BKN,700,,,,,,,IFR,,,,8.9,2.8,,,,,,,METAR,63.0
KSLE 290656Z AUTO 00000KT 10SM OVC006 03/03 A2978 RMK AO2 SLP086 T00330028,KSLE,2023-03-29T06:56:00Z,44.9,-123.0,3.3,2.8,0,0,,10.0,29.778543,1008.6,,TRUE,TRUE,,,,,,,OVC,600,,,,,,,IFR,,,,,,,,,,,,METAR,63.0
KSLE 290644Z AUTO 00000KT 10SM BKN006 03/03 A2978 RMK AO2 T00280028,KSLE,2023-03-29T06:44:00Z,44.9,-123.0,2.8,2.8,0,0,,10.0,29.778543,,,TRUE,TRUE,,,,,,,BKN,600,,,,,,,IFR,,,,,,,,,,,,SPECI,63.0
KSLE 290636Z AUTO 00000KT 10SM SCT006 03/02 A2977 RMK AO2 T00330022,KSLE,2023-03-29T06:36:00Z,44.9,-123.0,3.3,2.2,0,0,,10.0,29.769686,,,TRUE,TRUE,,,,,,,SCT,600,,,,,,,VFR,,,,,,,,,,,,SPECI,63.0
KSLE 290556Z AUTO 35006KT 10SM CLR 03/02 A2977 RMK AO2 SLP082 T00280017 10061 20028 50005,KSLE,2023-03-29T05:56:00Z,44.9,-123.0,2.8,1.7,350,6,,10.0,29.769686,1008.2,,TRUE,TRUE,,,,,,,CLR,,,,,,,,VFR,0.5,6.1,2.8,,,,,,,,,METAR,63.0
KSLE 290456Z AUTO 34006KT 10SM SCT110 04/03 A2978 RMK AO2 SLP084 T00390028,KSLE,2023-03-29T04:56:00Z,44.9,-123.0,3.9,2.8,340,6,,10.0,29.778543,1008.4,,TRUE,TRUE,,,,,,,SCT,11000,,,,,,,VFR,,,,,,,,,,,,METAR,63.0
KSLE 290356Z 34005KT 10SM CLR 04/03 A2977 RMK AO2 SLP082 T00440028,KSLE,2023-03-29T03:56:00Z,44.9,-123.0,4.4,2.8,340,5,,10.0,29.769686,1008.2,,,TRUE,,,,,,,CLR,,,,,,,,VFR,,,,,,,,,,,,METAR,63.0
KSLE 290256Z 36006KT 10SM BKN120 04/03 A2976 RMK AO2 SLP077 T00440028 51008,KSLE,2023-03-29T02:56:00Z,44.9,-123.0,4.4,2.8,360,6,,10.0,29.760826,1007.7,,,TRUE,,,,,,,BKN,12000,,,,,,,VFR,0.8,,,,,,,,,,,METAR,63.0
KSLE 290156Z 36006KT 10SM FEW010 OVC100 05/03 A2975 RMK AO2 SLP075 T00500028,KSLE,2023-03-29T01:56:00Z,44.9,-123.0,5.0,2.8,360,6,,10.0,29.749016,1007.5,,,TRUE,,,,,,,FEW,1000,OVC,10000,,,,,VFR,,,,,,,,,,,,METAR,63.0
KSLE 290056Z 06006KT 10SM FEW011 OVC090 06/03 A2975 RMK AO2 SLP074 T00560028,KSLE,2023-03-29T00:56:00Z,44.9,-123.0,5.6,2.8,60,6,,10.0,29.749016,1007.4,,,TRUE,,,,,,,FEW,1100,OVC,9000,,,,,VFR,,,,,,,,,,,,METAR,63.0
KSLE 290044Z 08008KT 10SM SCT011 OVC090 06/03 A2975 RMK AO2 T00560028,KSLE,2023-03-29T00:44:00Z,44.9,-123.0,5.6,2.8,80,8,,10.0,29.749016,,,,TRUE,,,,,,,SCT,1100,OVC,9000,,,,,VFR,,,,,,,,,,,,METAR,63.0
KSLE 290021Z 06005KT 10SM BKN011 OVC095 06/04 A2974 RMK AO2 T00610039,KSLE,2023-03-29T00:21:00Z,44.9,-123.0,6.1,3.9,60,5,,10.0,29.740158,,,,TRUE,,,,,,,BKN,1100,OVC,9500,,,,,MVFR,,,,,,,,,,,,SPECI,63.0
KSLE 282356Z 02003KT 8SM FEW009 SCT050 OVC085 06/03 A2973 RMK AO2 RAE13B41E51 SLP069 P0001 60023 T00610033 10089 20050 51017,KSLE,2023-03-28T23:56:00Z,44.9,-123.0,6.1,3.3,20,3,,8.0,29.731298,1006.9,,,TRUE,,,,,,,FEW,900,SCT,5000,OVC,8500,,,VFR,1.7,8.9,5.0,,,0.01,,0.23,,,,METAR,63.0
KSLE 282256Z 6SM -RA BR BKN029 BKN036 OVC060 06/04 A2973 RMK AO2 SLP068 P0010 T00560044,KSLE,2023-03-28T22:56:00Z,44.9,-123.0,5.6,4.4,,,,6.0,29.731298,1006.8,,,TRUE,,,,,,-RA BR,BKN,2900,BKN,3600,OVC,6000,,,MVFR,,,,,,0.1,,,,,,METAR,63.0
KSLE 282213Z 03003KT 3SM R31/4000VP6000FT RA BR BKN029 BKN036 OVC060 06/04 A2972 RMK AO2 P0003 T00560039,KSLE,2023-03-28T22:13:00Z,44.9,-123.0,5.6,3.9,30,3,,3.0,29.719488,,,,TRUE,,,,,,RA BR,BKN,2900,BKN,3600,OVC,6000,,,MVFR,,,,,,0.03,,,,,,METAR,63.0
KSLE 282156Z 00000KT 10SM -RA SCT013 BKN049 OVC060 06/03 A2971 RMK AO2 RAE34B52 SLP062 P0005 T00560033,KSLE,2023-03-28T21:56:00Z,44.9,-123.0,5.6,3.3,0,0,,10.0,29.71063,1006.2,,,TRUE,,,,,,-RA,SCT,1300,BKN,4900,OVC,6000,,,VFR,,,,,,0.05,,,,,,METAR,63.0
KSLE 282056Z 01006KT 5SM -RA BR SCT009 BKN013 OVC039 08/06 A2968 RMK AO2 SLP052 P0002 60007 T00830061 55001,KSLE,2023-03-28T20:56:00Z,44.9,-123.0,8.3,6.1,10,6,,5.0,29.681103,1005.2,,,TRUE,,,,,,-RA BR,SCT,900,BKN,1300,OVC,3900,,,MVFR,-0.1,,,,,0.02,0.07,,,,,METAR,63.0
KSLE 282043Z 36004KT 10SM -RA BKN009 BKN037 OVC060 08/06 A2968 RMK AO2 P0001 T00830061,KSLE,2023-03-28T20:43:00Z,44.9,-123.0,8.3,6.1,360,4,,10.0,29.681103,,,,TRUE,,,,,,-RA,BKN,900,BKN,3700,OVC,6000,,,IFR,,,,,,0.01,,,,,,SPECI,63.0
KSLE 282023Z 36005KT 10SM -RA FEW007 OVC055 08/07 A2967 RMK AO2 P0001 T00830067,KSLE,2023-03-28T20:23:00Z,44.9,-123.0,8.3,6.7,360,5,,10.0,29.66929,,,,TRUE,,,,,,-RA,FEW,700,OVC,5500,,,,,VFR,,,,,,0.01,,,,,,SPECI,63.0
KSLE 281956Z 02004KT 9SM -RA BKN036 OVC050 08/07 A2968 RMK AO2 RAB1857 SLP051 P0003 T00830067,KSLE,2023-03-28T19:56:00Z,44.9,-123.0,8.3,6.7,20,4,,9.0,29.681103,1005.1,,,TRUE,,,,,,-RA,BKN,3600,OVC,5000,,,,,VFR,,,,,,0.03,,,,,,METAR,63.0
KSLE 281856Z 04005KT 6SM BR SCT006 BKN042 OVC049 08/06 A2968 RMK AO2 RAE50 SLP052 P0002 T00780061,KSLE,2023-03-28T18:56:00Z,44.9,-123.0,7.8,6.1,40,5,,6.0,29.681103,1005.2,,,TRUE,,,,,,BR,SCT,600,BKN,4200,OVC,4900,,,VFR,,,,,,0.02,,,,,,METAR,63.0
KSLE 281756Z 03005KT 3SM -RA BR BKN006 OVC035 07/06 A2968 RMK AO2 SLP053 P0007 60015 T00670056 10072 20056 51000,KSLE,2023-03-28T17:56:00Z,44.9,-123.0,6.7,5.6,30,5,,3.0,29.681103,1005.3,,,TRUE,,,,,,-RA BR,BKN,600,OVC,3500,,,,,IFR,0.0,7.2,5.6,,,0.07,,0.15,,,,METAR,63.0
KSLE 281731Z 02004KT 2 1/2SM R31/4000VP6000FT -RA BR BKN006 OVC035 07/06 A2969 RMK AO2 P0004 T00670056,KSLE,2023-03-28T17:31:00Z,44.9,-123.0,6.7,5.6,20,4,,2.5,29.68996,,,,TRUE,,,,,,-RA BR,BKN,600,OVC,3500,,,,,IFR,,,,,,0.04,,,,,,SPECI,63.0
KSLE 281656Z 02005KT 8SM -RA OVC039 07/05 A2968 RMK AO2 RAB01 SLP053 P0003 T00670050,KSLE,2023-03-28T16:56:00Z,44.9,-123.0,6.7,5.0,20,5,,8.0,29.681103,1005.3,,,TRUE,,,,,,-RA,OVC,3900,,,,,,,VFR,,,,,,0.03,,,,,,SPECI,63.0
KSLE 281603Z 02003KT 10SM -RA FEW007 OVC045 07/05 A2968 RMK AO2 RAB01 P0000 T00670050,KSLE,2023-03-28T16:03:00Z,44.9,-123.0,6.7,5.0,20,3,,10.0,29.681103,,,,TRUE,,,,,,-RA,FEW,700,OVC,4500,,,,,VFR,,,,,,0.005,,,,,,METAR,63.0
KSLE 281556Z 02004KT 10SM BKN007 BKN047 OVC080 06/05 A2968 RMK AO2 SLP053 T00610050,KSLE,2023-03-28T15:56:00Z,44.9,-123.0,6.1,5.0,20,4,,10.0,29.681103,1005.3,,,TRUE,,,,,,,BKN,700,BKN,4700,OVC,8000,,,IFR,,,,,,,,,,,,METAR,63.0
KSLE 281456Z 00000KT 10SM BKN007 OVC047 06/05 A2968 RMK AO2 RAE54 SLP052 P0000 60005 T00610050 56017,KSLE,2023-03-28T14:56:00Z,44.9,-123.0,6.1,5.0,0,0,,10.0,29.681103,1005.2,,,TRUE,,,,,,,BKN,700,OVC,4700,,,,,IFR,-1.7,,,,,0.005,0.05,,,,,METAR,63.0
KSLE 281356Z 02005KT 4SM -RA BR BKN007 BKN011 OVC045 06/05 A2969 RMK AO2 SLP055 P0003 T00610050,KSLE,2023-03-28T13:56:00Z,44.9,-123.0,6.1,5.0,20,5,,4.0,29.68996,1005.5,,,TRUE,,,,,,-RA BR,BKN,700,BKN,1100,OVC,4500,,,IFR,,,,,,0.03,,,,,,METAR,63.0
KSLE 281305Z AUTO 02003KT 10SM -RA FEW008 OVC046 06/05 A2971 RMK AO2 P0000 T00610050,KSLE,2023-03-28T13:05:00Z,44.9,-123.0,6.1,5.0,20,3,,10.0,29.71063,,,TRUE,TRUE,,,,,,-RA,FEW,800,OVC,4600,,,,,VFR,,,,,,0.005,,,,,,SPECI,63.0
KSLE 281256Z AUTO 35004KT 10SM -RA OVC046 06/04 A2971 RMK AO2 SLP062 P0002 T00560044,KSLE,2023-03-28T12:56:00Z,44.9,-123.0,5.6,4.4,350,4,,10.0,29.71063,1006.2,,TRUE,TRUE,,,,,,-RA,OVC,4600,,,,,,,VFR,,,,,,0.02,,,,,,METAR,63.0
KSLE 281156Z AUTO 00000KT 10SM -RA BKN046 OVC055 06/04 A2973 RMK AO2 SLP069 P0000 60007 70010 T00560044 10072 20056 58017 $,KSLE,2023-03-28T11:56:00Z,44.9,-123.0,5.6,4.4,0,0,,10.0,29.731298,1006.9,,TRUE,TRUE,TRUE,,,,,-RA,BKN,4600,OVC,5500,,,,,VFR,-1.7,7.2,5.6,,,0.005,,0.07,0.1,,,METAR,63.0
KSLE 281056Z AUTO 35004KT 10SM -RA FEW050 BKN080 OVC090 06/04 A2975 RMK AO2 SLP073 P0004 T00560044 $,KSLE,2023-03-28T10:56:00Z,44.9,-123.0,5.6,4.4,350,4,,10.0,29.749016,1007.3,,TRUE,TRUE,TRUE,,,,,-RA,FEW,5000,BKN,8000,OVC,9000,,,VFR,,,,,,0.04,,,,,,METAR,63.0
KSLE 280956Z AUTO 33003KT 7SM -RA OVC037 06/04 A2978 RMK AO2 RAB08 SLP084 P0003 T00560044 $,KSLE,2023-03-28T09:56:00Z,44.9,-123.0,5.6,4.4,330,3,,7.0,29.778543,1008.4,,TRUE,TRUE,TRUE,,,,,-RA,OVC,3700,,,,,,,VFR,,,,,,0.03,,,,,,METAR,63.0
KSLE 280856Z AUTO 31003KT 10SM OVC050 06/04 A2978 RMK AO2 SLP086 60000 T00610039 56017 $,KSLE,2023-03-28T08:56:00Z,44.9,-123.0,6.1,3.9,310,3,,10.0,29.778543,1008.6,,TRUE,TRUE,TRUE,,,,,,OVC,5000,,,,,,,VFR,-1.7,,,,,,0.005,,,,,METAR,63.0
KSLE 280756Z AUTO 33005KT 10SM OVC050 06/04 A2979 RMK AO2 RAB23E39 SLP089 P0000 T00560044 400831017 $,KSLE,2023-03-28T07:56:00Z,44.9,-123.0,5.6,4.4,330,5,,10.0,29.790354,1008.9,,TRUE,TRUE,TRUE,,,,,,OVC,5000,,,,,,,VFR,,,,8.3,-1.7,0.005,,,,,,METAR,63.0
KSLE 280656Z AUTO 01004KT 10SM OVC046 07/03 A2981 RMK AO2 RAB34E53 SLP097 P0000 T00670033 $,KSLE,2023-03-28T06:56:00Z,44.9,-123.0,6.7,3.3,10,4,,10.0,29.811024,1009.7,,TRUE,TRUE,TRUE,,,,,,OVC,4600,,,,,,,VFR,,,,,,0.005,,,,,,METAR,63.0
KSLE 280556Z AUTO 11005KT 10SM OVC060 07/03 A2983 RMK AO2 RAE50 SLP103 P0002 60003 T00670033 10083 20061 56020 $,KSLE,2023-03-28T05:56:00Z,44.9,-123.0,6.7,3.3,110,5,,10.0,29.828741,1010.3,,TRUE,TRUE,TRUE,,,,,,OVC,6000,,,,,,,VFR,-2.0,8.3,6.1,,,0.02,,,,,,SPECI,63.0
KSLE 280456Z AUTO 00000KT 10SM -RA BKN039 OVC047 07/03 A2984 RMK AO2 SLP105 P0001 T00670028 $,KSLE,2023-03-28T04:56:00Z,44.9,-123.0,6.7,2.8,0,0,,10.0,29.840551,1010.5,,TRUE,TRUE,TRUE,,,,,-RA,BKN,3900,OVC,4700,,,,,VFR,,,,,,0.01,,,,,,METAR,63.0
KSLE 280356Z AUTO 10007KT 10SM -RA SCT035 BKN050 OVC065 07/03 A2986 RMK AO2 SLP114 P0000 T00670028,KSLE,2023-03-28T03:56:00Z,44.9,-123.0,6.7,2.8,100,7,,10.0,29.861221,1011.4,,TRUE,TRUE,,,,,,-RA,SCT,3500,BKN,5000,OVC,6500,,,VFR,,,,,,0.005,,,,,,METAR,63.0
KSLE 280256Z 12009KT 10SM -RA OVC041 07/02 A2989 RMK AO2 RAB04 SLP123 P0000 60000 T00720017 56036,KSLE,2023-03-28T02:56:00Z,44.9,-123.0,7.2,1.7,120,9,,10.0,29.890747,1012.3,,,TRUE,,,,,,-RA,OVC,4100,,,,,,,VFR,-3.6,,,,,0.005,0.005,,,,,METAR,63.0
KSLE 280156Z 00000KT 10SM OVC055 08/02 A2992 RMK AO2 SLP133 T00780017,KSLE,2023-03-28T01:56:00Z,44.9,-123.0,7.8,1.7,0,0,,10.0,29.920275,1013.3,,,TRUE,,,,,,,OVC,5500,,,,,,,VFR,,,,,,,,,,,,METAR,63.0
KSLE 280056Z 00000KT 10SM OVC070 08/02 A2995 RMK AO2 SLP144 T00830017,KSLE,2023-03-28T00:56:00Z,44.9,-123.0,8.3,1.7,0,0,,10.0,29.949802,1014.4,,,TRUE,,,,,,,OVC,7000,,,,,,,VFR,,,,,,,,,,,,METAR,63.0
KSLE 272356Z 11005KT 10SM OVC070 08/01 A3000 RMK AO2 SLP160 T00780011 10078 20033 57030,KSLE,2023-03-27T23:56:00Z,44.9,-123.0,7.8,1.1,110,5,,10.0,30.0,1016.0,,,TRUE,,,,,,,OVC,7000,,,,,,,VFR,-3.0,7.8,3.3,,,,,,,,,METAR,63.0
KSLE 272256Z 32004KT 10SM OVC085 08/01 A3003 RMK AO2 SLP169 T00780011,KSLE,2023-03-27T22:56:00Z,44.9,-123.0,7.8,1.1,320,4,,10.0,30.029528,1016.9,,,TRUE,,,,,,,OVC,8500,,,,,,,VFR,,,,,,,,,,,,METAR,63.0
KSLE 272156Z 26004KT 10SM OVC090 08/01 A3006 RMK AO2 SLP179 T00780011,KSLE,2023-03-27T21:56:00Z,44.9,-123.0,7.8,1.1,260,4,,10.0,30.059055,1017.9,,,TRUE,,,,,,,OVC,9000,,,,,,,VFR,,,,,,,,,,,,METAR,63.0
KSLE 272056Z 31004KT 10SM BKN100 07/01 A3009 RMK AO2 SLP189 T00720011 57026,KSLE,2023-03-27T20:56:00Z,44.9,-123.0,7.2,1.1,310,4,,10.0,30.088583,1018.9,,,TRUE,,,,,,,BKN,10000,,,,,,,VFR,-2.6,,,,,,,,,,,METAR,63.0
KSLE 271956Z 33004KT 10SM CLR 06/01 A3011 RMK AO2 SLP199 T00610011,KSLE,2023-03-27T19:56:00Z,44.9,-123.0,6.1,1.1,330,4,,10.0,30.109253,1019.9,,,TRUE,,,,,,,CLR,,,,,,,,VFR,,,,,,,,,,,,METAR,63.0
KSLE 271856Z 00000KT 10SM CLR 04/01 A3014 RMK AO2 SLP208 T00390011,KSLE,2023-03-27T18:56:00Z,44.9,-123.0,3.9,1.1,0,0,,10.0,30.138779,1020.8,,,TRUE,,,,,,,CLR,,,,,,,,VFR,,,,,,,,,,,,METAR,63.0
KSLE 271832Z VRB03KT 10SM FEW009 04/01 A3016 RMK AO2 T00390011,KSLE,2023-03-27T18:32:00Z,44.9,-123.0,3.9,1.1,0,3,,10.0,30.159449,,,,TRUE,,,,,,,FEW,900,,,,,,,VFR,,,,,,,,,,,,SPECI,63.0
KSLE 271756Z 02005KT 10SM BKN007 03/01 A3017 RMK AO2 SLP217 I6002 T00330011 10033 21017 56008,KSLE,2023-03-27T17:56:00Z,44.9,-123.0,3.3,1.1,20,5,,10.0,30.171259,1021.7,,,TRUE,,,,,,,BKN,700,,,,,,,IFR,-0.8,3.3,-1.7,,,,,,,,,SPECI,63.0
KSLE 271752Z 02003KT 10SM SCT007 03/01 A3017 RMK AO2,KSLE,2023-03-27T17:52:00Z,44.9,-123.0,3.0,1.0,20,3,,10.0,30.171259,,,,TRUE,,,,,,,SCT,700,,,,,,,VFR,,,,,,,,,,,,METAR,63.0
KSLE 271656Z 35005KT 4SM BR OVC005 01/01 A3018 RMK AO2 SLP221 T00110006,KSLE,2023-03-27T16:56:00Z,44.9,-123.0,1.1,0.6,350,5,,4.0,30.180119,1022.1,,,TRUE,,,,,,BR,OVC,500,,,,,,,IFR,,,,,,,,,,,,SPECI,63.0
KSLE 271646Z 00000KT 4SM BR OVC005 01/01 A3018 RMK AO2 T00110006,KSLE,2023-03-27T16:46:00Z,44.9,-123.0,1.1,0.6,0,0,,4.0,30.180119,,,,TRUE,,,,,,BR,OVC,500,,,,,,,IFR,,,,,,,,,,,,SPECI,63.0
KSLE 271556Z 00000KT 2 1/2SM BR OVC004 01/00 A3019 RMK AO2 SLP226 T00060000,KSLE,2023-03-27T15:56:00Z,44.9,-123.0,0.6,0.0,0,0,,2.5,30.188976,1022.6,,,TRUE,,,,,,BR,OVC,400,,,,,,,LIFR,,,,,,,,,,,,METAR,63.0
KSLE 271456Z 01003KT 1SM R31/6000VP6000FT BR OVC003 01/00 A3020 RMK AO2 SLP230 I1001 I3002 T00060000 56015,KSLE,2023-03-27T14:56:00Z,44.9,-123.0,0.6,0.0,10,3,,1.0,30.200787,1023.0,,,TRUE,,,,,,BR,OVC,300,,,,,,,LIFR,-1.5,,,,,,,,,,,METAR,63.0
KSLE 271356Z 00000KT 1/2SM R31/4000VP6000FT FG OVC002 00/M01 A3022 RMK AO2 SLP234 T00001006,KSLE,2023-03-27T13:56:00Z,44.9,-123.0,0.0,-0.6,0,0,,0.5,30.221457,1023.4,,,TRUE,,,,,,FG,OVC,200,,,,,,,LIFR,,,,,,,,,,,,METAR,63.0
KSLE 271344Z AUTO 00000KT 1SM R31/2800VP6000FT BR OVC002 00/M01 A3022 RMK AO2 T00001011,KSLE,2023-03-27T13:44:00Z,44.9,-123.0,0.0,-1.1,0,0,,1.0,30.221457,,,TRUE,TRUE,,,,,,BR,OVC,200,,,,,,,LIFR,,,,,,,,,,,,METAR,63.0
KSLE 271306Z AUTO 33003KT 1/2SM R31/2000V2200FT FG VV002 00/M01 A3023 RMK AO2 T00001006,KSLE,2023-03-27T13:06:00Z,44.9,-123.0,0.0,-0.6,330,3,,0.5,30.230314,,,TRUE,TRUE,,,,,,FG,OVX,0,,,,,,,LIFR,,,,,,,,,,,200,SPECI,63.0
KSLE 271256Z AUTO 33004KT 1/4SM R31/1600V2200FT FG VV002 00/M01 A3023 RMK AO2 SLP239 I1001 T00001006,KSLE,2023-03-27T12:56:00Z,44.9,-123.0,0.0,-0.6,330,4,,0.25,30.230314,1023.9,,TRUE,TRUE,,,,,,FG,OVX,0,,,,,,,LIFR,,,,,,,,,,,200,METAR,63.0
KSLE 271247Z AUTO 33003KT 3/4SM R31/2200VP6000FT BR VV002 00/M01 A3023 RMK AO2 T00001006,KSLE,2023-03-27T12:47:00Z,44.9,-123.0,0.0,-0.6,330,3,,0.75,30.230314,,,TRUE,TRUE,,,,,,BR,OVX,0,,,,,,,LIFR,,,,,,,,,,,200,METAR,63.0
KSLE 271233Z AUTO 00000KT 1 3/4SM BR OVC002 00/M01 A3024 RMK AO2 T00001006,KSLE,2023-03-27T12:33:00Z,44.9,-123.0,0.0,-0.6,0,0,,1.75,30.239174,,,TRUE,TRUE,,,,,,BR,OVC,200,,,,,,,LIFR,,,,,,,,,,,,SPECI,63.0
KSLE 271208Z AUTO 00000KT 4SM R31/5500VP6000FT BR BKN003 M01/M01 A3024 RMK AO2 T10061011,KSLE,2023-03-27T12:08:00Z,44.9,-123.0,-0.6,-1.1,0,0,,4.0,30.239174,,,TRUE,TRUE,,,,,,BR,BKN,300,,,,,,,LIFR,,,,,,,,,,,,SPECI,63.0
KSLE 271204Z AUTO 00000KT 1 1/2SM R31/3500VP6000FT BR BKN003 M01/M02 A3024 RMK AO2 T10061017,KSLE,2023-03-27T12:04:00Z,44.9,-123.0,-0.6,-1.7,0,0,,1.5,30.239174,,,TRUE,TRUE,,,,,,BR,BKN,300,,,,,,,LIFR,,,,,,,,,,,,SPECI,63.0
KSLE 271156Z AUTO 00000KT 3/4SM R31/4000VP6000FT BR VV003 M02/M02 A3025 RMK AO2 SLP245 70005 I1001 I6002 T10171017 10022 21017 58016,KSLE,2023-03-27T11:56:00Z,44.9,-123.0,-1.7,-1.7,0,0,,0.75,30.250984,1024.5,,TRUE,TRUE,,,,,,BR,OVX,0,,,,,,,LIFR,-1.6,2.2,-1.7,,,,,,0.05,,300,METAR,63.0
KSLE 271131Z AUTO 00000KT 3/4SM R31/P6000FT BR CLR M01/M01 A3026 RMK AO2 I1000 T10061011,KSLE,2023-03-27T11:31:00Z,44.9,-123.0,-0.6,-1.1,0,0,,0.75,30.259842,,,TRUE,TRUE,,,,,,BR,CLR,,,,,,,,LIFR,,,,,,,,,,,,SPECI,63.0
KSLE 271128Z AUTO 00000KT 1 1/2SM BR CLR M01/M01 A3026 RMK AO2 I1000 T10061011,KSLE,2023-03-27T11:28:00Z,44.9,-123.0,-0.6,-1.1,0,0,,1.5,30.259842,,,TRUE,TRUE,,,,,,BR,CLR,,,,,,,,IFR,,,,,,,,,,,,SPECI,63.0
KSLE 271056Z AUTO 22003KT 10SM R31/4500VP6000FT CLR M01/M01 A3027 RMK AO2 SLP252 T10061011,KSLE,2023-03-27T10:56:00Z,44.9,-123.0,-0.6,-1.1,220,3,,10.0,30.268702,1025.2,,TRUE,TRUE,,,,,,,CLR,,,,,,,,VFR,,,,,,,,,,,,METAR,63.0
KSLE 270956Z AUTO 00000KT 7SM R31/2200VP6000FT CLR 00/M01 A3028 RMK AO2 SLP256 I1001 T00001011,KSLE,2023-03-27T09:56:00Z,44.9,-123.0,0.0,-1.1,0,0,,7.0,30.280512,1025.6,,TRUE,TRUE,,,,,,,CLR,,,,,,,,VFR,,,,,,,,,,,,METAR,63.0
KSLE 270954Z AUTO 00000KT 3SM R31/2200VP6000FT BR CLR 00/M01 A3028 RMK AO2 I1001,KSLE,2023-03-27T09:54:00Z,44.9,-123.0,0.0,-1.0,0,0,,3.0,30.280512,,,TRUE,TRUE,,,,,,BR,CLR,,,,,,,,MVFR,,,,,,,,,,,,METAR,63.0
KSLE 270945Z AUTO 00000KT 1 3/4SM BR CLR 00/M01 A3029 RMK AO2 I1001 T00001006,KSLE,2023-03-27T09:45:00Z,44.9,-123.0,0.0,-0.6,0,0,,1.75,30.28937,,,TRUE,TRUE,,,,,,BR,CLR,,,,,,,,IFR,,,,,,,,,,,,SPECI,63.0
KSLE 270922Z AUTO 00000KT 3SM BR CLR 00/M01 A3029 RMK AO2 I1000 T00001011,KSLE,2023-03-27T09:22:00Z,44.9,-123.0,0.0,-1.1,0,0,,3.0,30.28937,,,TRUE,TRUE,,,,,,BR,CLR,,,,,,,,MVFR,,,,,,,,,,,,METAR,63.0
KSLE 270911Z AUTO 00000KT 1 3/4SM BR CLR 00/M01 A3029 RMK AO2 VIS 1/2V5 T00001006,KSLE,2023-03-27T09:11:00Z,44.9,-123.0,0.0,-0.6,0,0,,1.75,30.28937,,,TRUE,TRUE,,,,,,BR,CLR,,,,,,,,IFR,,,,,,,,,,,,SPECI,63.0
KSLE 270856Z AUTO 00000KT 7SM CLR 00/M01 A3029 RMK AO2 SLP259 T00001011 58009,KSLE,2023-03-27T08:56:00Z,44.9,-123.0,0.0,-1.1,0,0,,7.0,30.28937,1025.9,,TRUE,TRUE,,,,,,,CLR,,,,,,,,VFR,-0.9,,,,,,,,,,,METAR,63.0
KSLE 270756Z AUTO 00000KT 10SM CLR 01/00 A3031 RMK AO2 SLP264 T00060000 400941006,KSLE,2023-03-27T07:56:00Z,44.9,-123.0,0.6,0.0,0,0,,10.0,30.31004,1026.4,,TRUE,TRUE,,,,,,,CLR,,,,,,,,VFR,,,,9.4,-0.6,,,,,,,METAR,63.0
KSLE 270656Z AUTO 00000KT 10SM CLR 02/01 A3032 RMK AO2 SLP268 T00170006,KSLE,2023-03-27T06:56:00Z,44.9,-123.0,1.7,0.6,0,0,,10.0,30.318897,1026.8,,TRUE,TRUE,,,,,,,CLR,,,,,,,,VFR,,,,,,,,,,,,METAR,63.0
KSLE 270556Z AUTO 20003KT 10SM CLR 03/01 A3032 RMK AO2 SLP269 60003 T00280006 10061 20028 58000,KSLE,2023-03-27T05:56:00Z,44.9,-123.0,2.8,0.6,200,3,,10.0,30.318897,1026.9,,TRUE,TRUE,,,,,,,CLR,,,,,,,,VFR,0.0,6.1,2.8,,,,,0.03,,,,METAR,63.0
KSLE 270456Z AUTO 15004KT 10SM CLR 03/01 A3033 RMK AO2 SLP271 T00280011,KSLE,2023-03-27T04:56:00Z,44.9,-123.0,2.8,1.1,150,4,,10.0,30.33071,1027.1,,TRUE,TRUE,,,,,,,CLR,,,,,,,,VFR,,,,,,,,,,,,METAR,63.0
KSLE 270356Z AUTO 16004KT 10SM BKN060 04/02 A3032 RMK AO2 SLP270 T00390017,KSLE,2023-03-27T03:56:00Z,44.9,-123.0,3.9,1.7,160,4,,10.0,30.318897,1027.0,,TRUE,TRUE,,,,,,,BKN,6000,,,,,,,VFR,,,,,,,,,,,,SPECI,63.0
KSLE 270256Z 13003KT 10SM OVC060 04/02 A3032 RMK AO2 SLP270 60003 T00440022 56009,KSLE,2023-03-27T02:56:00Z,44.9,-123.0,4.4,2.2,130,3,,10.0,30.318897,1027.0,,,TRUE,,,,,,,OVC,6000,,,,,,,VFR,-0.9,,,,,,0.03,,,,,METAR,63.0
KSLE 270156Z 13003KT 10SM SCT036 OVC065 06/03 A3032 RMK AO2 SLP270 T00560028,KSLE,2023-03-27T01:56:00Z,44.9,-123.0,5.6,2.8,130,3,,10.0,30.318897,1027.0,,,TRUE,,,,,,,SCT,3600,OVC,6500,,,,,VFR,,,,,,,,,,,,METAR,63.0
KSLE 270056Z 15003KT 10SM FEW036 OVC080 06/03 A3033 RMK AO2 RAE45 SLP273 P0003 T00560028,KSLE,2023-03-27T00:56:00Z,44.9,-123.0,5.6,2.8,150,3,,10.0,30.33071,1027.3,,,TRUE,,,,,,,FEW,3600,OVC,8000,,,,,VFR,,,,,,0.03,,,,,,METAR,63.0
KSLE 270044Z 35003KT 10SM -RA SCT031 BKN039 OVC080 06/03 A3033 RMK AO2 P0003 T00560028,KSLE,2023-03-27T00:44:00Z,44.9,-123.0,5.6,2.8,350,3,,10.0,30.33071,,,,TRUE,,,,,,-RA,SCT,3100,BKN,3900,OVC,8000,,,VFR,,,,,,0.03,,,,,,METAR,63.0
KSLE 262356Z 26007KT 6SM -RA BKN025 OVC034 05/02 A3035 RMK AO2 RAB27 SLP280 P0002 60002 T00500022 10094 20050 53004,KSLE,2023-03-26T23:56:00Z,44.9,-123.0,5.0,2.2,260,7,,6.0,30.351377,1028.0,,,TRUE,,,,,,-RA,BKN,2500,OVC,3400,,,,,MVFR,0.4,9.4,5.0,,,0.02,,0.02,,,,METAR,63.0
KSLE 262349Z 26007KT 8SM -RA BKN025 BKN034 BKN060 05/02 A3035 RMK AO2 RAB27 P0001 T00500022,KSLE,2023-03-26T23:49:00Z,44.9,-123.0,5.0,2.2,260,7,,8.0,30.351377,,,,TRUE,,,,,,-RA,BKN,2500,BKN,3400,BKN,6000,,,MVFR,,,,,,0.01,,,,,,SPECI,63.0
KSLE 262256Z 22012KT 10SM BKN038 BKN050 OVC060 08/01 A3033 RMK AO2 SLP272 T00830011,KSLE,2023-03-26T22:56:00Z,44.9,-123.0,8.3,1.1,220,12,,10.0,30.33071,1027.2,,,TRUE,,,,,,,BKN,3800,BKN,5000,OVC,6000,,,VFR,,,,,,,,,,,,SPECI,63.0
KSLE 262156Z 20008KT 10SM BKN031 BKN040 OVC065 09/01 A3033 RMK AO2 SLP270 T00890011,KSLE,2023-03-26T21:56:00Z,44.9,-123.0,8.9,1.1,200,8,,10.0,30.33071,1027.0,,,TRUE,,,,,,,BKN,3100,BKN,4000,OVC,6500,,,VFR,,,,,,,,,,,,METAR,63.0
KSLE 262056Z 30010KT 10SM BKN038 OVC060 07/01 A3034 RMK AO2 SLP275 T00720011 56012,KSLE,2023-03-26T20:56:00Z,44.9,-123.0,7.2,1.1,300,10,,10.0,30.339567,1027.5,,,TRUE,,,,,,,BKN,3800,OVC,6000,,,,,VFR,-1.2,,,,,,,,,,,METAR,63.0
KSLE 262003Z 23008KT 10SM FEW029 SCT037 08/00 A3034 RMK AO2 T00830000,KSLE,2023-03-26T20:03:00Z,44.9,-123.0,8.3,0.0,230,8,,10.0,30.339567,,,,TRUE,,,,,,,FEW,2900,SCT,3700,,,,,VFR,,,,,,,,,,,,SPECI,63.0
KSLE 261956Z 18005KT 10SM BKN029 BKN038 BKN060 09/01 A3034 RMK AO2 SLP276 T00890006,KSLE,2023-03-26T19:56:00Z,44.9,-123.0,8.9,0.6,180,5,,10.0,30.339567,1027.6,,,TRUE,,,,,,,BKN,2900,BKN,3800,BKN,6000,,,MVFR,,,,,,,,,,,,SPECI,63.0
KSLE 261856Z 19009KT 10SM BKN020 BKN027 07/02 A3036 RMK AO2 SLP283 T00720022,KSLE,2023-03-26T18:56:00Z,44.9,-123.0,7.2,2.2,190,9,,10.0,30.360237,1028.3,,,TRUE,,,,,,,BKN,2000,BKN,2700,,,,,MVFR,,,,,,,,,,,,METAR,63.0
KSLE 261756Z 18006KT 10SM BKN013 BKN048 BKN055 05/02 A3037 RMK AO2 SLP286 T00500022 10056 20011 51007,KSLE,2023-03-26T17:56:00Z,44.9,-123.0,5.0,2.2,180,6,,10.0,30.369095,1028.6,,,TRUE,,,,,,,BKN,1300,BKN,4800,BKN,5500,,,MVFR,0.7,5.6,1.1,,,,,,,,,METAR,63.0
KSLE 261656Z 19007KT 10SM BKN013 OVC034 04/02 A3037 RMK AO2 SLP285 T00440017,KSLE,2023-03-26T16:56:00Z,44.9,-123.0,4.4,1.7,190,7,,10.0,30.369095,1028.5,,,TRUE,,,,,,,BKN,1300,OVC,3400,,,,,MVFR,,,,,,,,,,,,METAR,63.0
KSLE 261630Z 19008KT 10SM BKN011 BKN055 04/02 A3036 RMK AO2 T00390017,KSLE,2023-03-26T16:30:00Z,44.9,-123.0,3.9,1.7,190,8,,10.0,30.360237,,,,TRUE,,,,,,,BKN,1100,BKN,5500,,,,,MVFR,,,,,,,,,,,,SPECI,63.0
KSLE 261556Z 18006KT 10SM FEW009 BKN034 BKN050 03/01 A3036 RMK AO2 SLP282 T00280011,KSLE,2023-03-26T15:56:00Z,44.9,-123.0,2.8,1.1,180,6,,10.0,30.360237,1028.2,,,TRUE,,,,,,,FEW,900,BKN,3400,BKN,5000,,,VFR,,,,,,,,,,,,METAR,63.0
KSLE 261456Z AUTO 18006KT 10SM BKN046 OVC065 02/01 A3035 RMK AO2 SLP280 T00220006 53005,KSLE,2023-03-26T14:56:00Z,44.9,-123.0,2.2,0.6,180,6,,10.0,30.351377,1028.0,,TRUE,TRUE,,,,,,,BKN,4600,OVC,6500,,,,,VFR,0.5,,,,,,,,,,,SPECI,63.0
KSLE 261356Z AUTO 18006KT 10SM BKN033 OVC055 02/00 A3034 RMK AO2 SLP277 T00170000,KSLE,2023-03-26T13:56:00Z,44.9,-123.0,1.7,0.0,180,6,,10.0,30.339567,1027.7,,TRUE,TRUE,,,,,,,BKN,3300,OVC,5500,,,,,VFR,,,,,,,,,,,,METAR,63.0
KSLE 261256Z AUTO 17004KT 10SM SCT044 BKN055 02/00 A3034 RMK AO2 SLP275 T00170000,KSLE,2023-03-26T12:56:00Z,44.9,-123.0,1.7,0.0,170,4,,10.0,30.339567,1027.5,,TRUE,TRUE,,,,,,,SCT,4400,BKN,5500,,,,,VFR,,,,,,,,,,,,METAR,63.0
KSLE 261156Z AUTO 16004KT 10SM OVC055 01/00 A3034 RMK AO2 SLP275 70012 T00110000 10028 21006 50002,KSLE,2023-03-26T11:56:00Z,44.9,-123.0,1.1,0.0,160,4,,10.0,30.339567,1027.5,,TRUE,TRUE,,,,,,,OVC,5500,,,,,,,VFR,0.2,2.8,-0.6,,,,,,0.12,,,METAR,63.0
KSLE 261138Z AUTO 16004KT 10SM SCT006 OVC055 01/00 A3034 RMK AO2 T00110000,KSLE,2023-03-26T11:38:00Z,44.9,-123.0,1.1,0.0,160,4,,10.0,30.339567,,,TRUE,TRUE,,,,,,,SCT,600,OVC,5500,,,,,VFR,,,,,,,,,,,,METAR,63.0
KSLE 261056Z AUTO 16003KT 10SM OVC006 01/01 A3034 RMK AO2 SLP276 T00110006,KSLE,2023-03-26T10:56:00Z,44.9,-123.0,1.1,0.6,160,3,,10.0,30.339567,1027.6,,TRUE,TRUE,,,,,,,OVC,600,,,,,,,IFR,,,,,,,,,,,,METAR,63.0
KSLE 261015Z AUTO 00000KT 9SM BKN006 BKN050 00/M01 A3033 RMK AO2 T00001006,KSLE,2023-03-26T10:15:00Z,44.9,-123.0,0.0,-0.6,0,0,,9.0,30.33071,,,TRUE,TRUE,,,,,,,BKN,600,BKN,5000,,,,,IFR,,,,,,,,,,,,SPECI,63.0
KSLE 260956Z AUTO 00000KT 10SM R31/4500VP6000FT FEW006 01/M01 A3033 RMK AO2 SLP274 T00061006,KSLE,2023-03-26T09:56:00Z,44.9,-123.0,0.6,-0.6,0,0,,10.0,30.33071,1027.4,,TRUE,TRUE,,,,,,,FEW,600,,,,,,,VFR,,,,,,,,,,,,METAR,63.0
KSLE 260856Z AUTO 00000KT 10SM FEW070 02/01 A3033 RMK AO2 SLP273 T00170006 51002,KSLE,2023-03-26T08:56:00Z,44.9,-123.0,1.7,0.6,0,0,,10.0,30.33071,1027.3,,TRUE,TRUE,,,,,,,FEW,7000,,,,,,,VFR,0.2,,,,,,,,,,,METAR,63.0
KSLE 260756Z AUTO 00000KT 10SM SCT025 BKN075 03/01 A3033 RMK AO2 SLP273 T00280011 400720006,KSLE,2023-03-26T07:56:00Z,44.9,-123.0,2.8,1.1,0,0,,10.0,30.33071,1027.3,,TRUE,TRUE,,,,,,,SCT,2500,BKN,7500,,,,,VFR,,,,7.2,0.6,,,,,,,METAR,63.0
KSLE 260656Z AUTO 16003KT 10SM BKN060 OVC075 03/02 A3033 RMK AO2 SLP271 T00280017,KSLE,2023-03-26T06:56:00Z,44.9,-123.0,2.8,1.7,160,3,,10.0,30.33071,1027.1,,TRUE,TRUE,,,,,,,BKN,6000,OVC,7500,,,,,VFR,,,,,,,,,,,,METAR,63.0
KSLE 260556Z AUTO 16004KT 10SM BKN055 03/01 A3033 RMK AO2 SLP270 60002 T00280011 10061 20022 51013,KSLE,2023-03-26T05:56:00Z,44.9,-123.0,2.8,1.1,160,4,,10.0,30.33071,1027.0,,TRUE,TRUE,,,,,,,BKN,5500,,,,,,,VFR,1.3,6.1,2.2,,,,,0.02,,,,METAR,63.0
KSLE 260456Z AUTO 14004KT 10SM FEW045 OVC055 03/02 A3032 RMK AO2 SLP268 T00330017,KSLE,2023-03-26T04:56:00Z,44.9,-123.0,3.3,1.7,140,4,,10.0,30.318897,1026.8,,TRUE,TRUE,,,,,,,FEW,4500,OVC,5500,,,,,VFR,,,,,,,,,,,,METAR,63.0
KSLE 260356Z AUTO 00000KT 10SM BKN031 BKN046 03/01 A3030 RMK AO2 SLP262 T00280011,KSLE,2023-03-26T03:56:00Z,44.9,-123.0,2.8,1.1,0,0,,10.0,30.301182,1026.2,,TRUE,TRUE,,,,,,,BKN,3100,BKN,4600,,,,,VFR,,,,,,,,,,,,METAR,63.0
KSLE 260256Z 26003KT 10SM BKN031 BKN046 BKN065 04/02 A3029 RMK AO2 SLP259 60002 T00390022 53004,KSLE,2023-03-26T02:56:00Z,44.9,-123.0,3.9,2.2,260,3,,10.0,30.28937,1025.9,,,TRUE,,,,,,,BKN,3100,BKN,4600,BKN,6500,,,VFR,0.4,,,,,,,,,,,SPECI,63.0
KSLE 260156Z 28003KT 10SM BKN020 BKN040 OVC055 04/02 A3028 RMK AO2 RAB24E55 SLP257 P0001 T00440022,KSLE,2023-03-26T01:56:00Z,44.9,-123.0,4.4,2.2,280,3,,10.0,30.280512,1025.7,,,TRUE,,,,,,,BKN,2000,BKN,4000,OVC,5500,,,MVFR,,,,,,0.01,,,,,,METAR,63.0
KSLE 260056Z 00000KT 10SM BKN024 BKN032 BKN055 06/02 A3028 RMK AO2 RAE12B34E52 SLP253 P0001 T00610022,KSLE,2023-03-26T00:56:00Z,44.9,-123.0,6.1,2.2,0,0,,10.0,30.280512,1025.3,,,TRUE,,,,,,,BKN,2400,BKN,3200,BKN,5500,,,MVFR,,,,,,0.01,,,,,,METAR,63.0
KSLE 252356Z 30006KT 6SM -RA BKN026 OVC033 05/01 A3028 RMK AO2 RAB14 SLP254 P0004 60010 T00500011 10072 20039 56004,KSLE,2023-03-25T23:56:00Z,44.9,-123.0,5.0,1.1,300,6,,6.0,30.280512,1025.4,,,TRUE,,,,,,-RA,BKN,2600,OVC,3300,,,,,MVFR,-0.4,7.2,3.9,,,0.04,,0.1,,,,METAR,63.0
KSLE 252256Z 26007KT 10SM BKN020 BKN028 OVC046 06/02 A3028 RMK AO2 SLP254 T00560017,KSLE,2023-03-25T22:56:00Z,44.9,-123.0,5.6,1.7,260,7,,10.0,30.280512,1025.4,,,TRUE,,,,,,,BKN,2000,BKN,2800,OVC,4600,,,MVFR,,,,,,,,,,,,SPECI,63.0
KSLE 252156Z 35003KT 10SM BKN020 BKN025 BKN100 06/03 A3029 RMK AO2 RAE12B14E35 SLP257 P0004 T00610028,KSLE,2023-03-25T21:56:00Z,44.9,-123.0,6.1,2.8,350,3,,10.0,30.28937,1025.7,,,TRUE,,,,,,,BKN,2000,BKN,2500,BKN,10000,,,MVFR,,,,,,0.04,,,,,,METAR,63.0
KSLE 252112Z 33008KT 10SM BKN020 BKN028 OVC050 06/02 A3029 RMK AO2 RAE12 P0001 T00560017,KSLE,2023-03-25T21:12:00Z,44.9,-123.0,5.6,1.7,330,8,,10.0,30.28937,,,,TRUE,,,,,,,BKN,2000,BKN,2800,OVC,5000,,,MVFR,,,,,,0.01,,,,,,SPECI,63.0
KSLE 252056Z 29007KT 8SM -RA FEW020 BKN034 OVC045 06/02 A3029 RMK AO2 RAB10 SLP258 P0000 60002 T00610022 58011,KSLE,2023-03-25T20:56:00Z,44.9,-123.0,6.1,2.2,290,7,,8.0,30.28937,1025.8,,,TRUE,,,,,,-RA,FEW,2000,BKN,3400,OVC,4500,,,VFR,-1.1,,,,,0.005,0.02,,,,,METAR,63.0
KSLE 251956Z 25006KT 6SM HZ FEW017 BKN023 OVC050 06/03 A3031 RMK AO2 RAE44 SLP263 P0001 T00610028,KSLE,2023-03-25T19:56:00Z,44.9,-123.0,6.1,2.8,250,6,,6.0,30.31004,1026.3,,,TRUE,,,,,,HZ,FEW,1700,BKN,2300,OVC,5000,,,MVFR,,,,,,0.01,,,,,,METAR,63.0
KSLE 251856Z 22010KT 6SM -RA SCT015 BKN032 OVC040 06/02 A3032 RMK AO2 RAB1759E10B37 SLP267 P0001 T00560017,KSLE,2023-03-25T18:56:00Z,44.9,-123.0,5.6,1.7,220,10,,6.0,30.318897,1026.7,,,TRUE,,,,,,-RA,SCT,1500,BKN,3200,OVC,4000,,,VFR,,,,,,0.01,,,,,,METAR,63.0
KSLE 251756Z 21008KT 10SM SCT015 BKN034 OVC055 05/02 A3032 RMK AO2 SLP269 60000 T00500017 10050 20006 51001,KSLE,2023-03-25T17:56:00Z,44.9,-123.0,5.0,1.7,210,8,,10.0,30.318897,1026.9,,,TRUE,,,,,,,SCT,1500,BKN,3400,OVC,5500,,,VFR,0.1,5.0,0.6,,,,,0.005,,,,METAR,63.0
KSLE 251656Z 19005KT 10SM FEW009 BKN043 OVC070 04/02 A3032 RMK AO2 RAB15E33 SLP269 P0000 T00390022,KSLE,2023-03-25T16:56:00Z,44.9,-123.0,3.9,2.2,190,5,,10.0,30.318897,1026.9,,,TRUE,,,,,,,FEW,900,BKN,4300,OVC,7000,,,VFR,,,,,,0.005,,,,,,SPECI,63.0
KSLE 251633Z 21007KT 10SM FEW009 BKN042 OVC050 03/02 A3032 RMK AO2 RAB15E33 P0000 T00330017,KSLE,2023-03-25T16:33:00Z,44.9,-123.0,3.3,1.7,210,7,,10.0,30.318897,,,,TRUE,,,,,,,FEW,900,BKN,4200,OVC,5000,,,VFR,,,,,,0.005,,,,,,SPECI,63.0
KSLE 251556Z 16006KT 10SM BKN040 BKN060 OVC090 03/02 A3032 RMK AO2 SLP269 T00330017,KSLE,2023-03-25T15:56:00Z,44.9,-123.0,3.3,1.7,160,6,,10.0,30.318897,1026.9,,,TRUE,,,,,,,BKN,4000,BKN,6000,OVC,9000,,,VFR,,,,,,,,,,,,METAR,63.0
KSLE 251456Z 19005KT 10SM BKN060 02/01 A3032 RMK AO2 SLP269 60000 T00170006 53009,KSLE,2023-03-25T14:56:00Z,44.9,-123.0,1.7,0.6,190,5,,10.0,30.318897,1026.9,,,TRUE,,,,,,,BKN,6000,,,,,,,VFR,0.9,,,,,,0.005,,,,,METAR,63.0
KSLE 251356Z 20004KT 10SM BKN065 02/00 A3031 RMK AO2 SLP265 T00170000,KSLE,2023-03-25T13:56:00Z,44.9,-123.0,1.7,0.0,200,4,,10.0,30.31004,1026.5,,,TRUE,,,,,,,BKN,6500,,,,,,,VFR,,,,,,,,,,,,SPECI,63.0
KSLE 251256Z AUTO 26004KT 10SM SCT047 OVC075 02/01 A3030 RMK AO2 RAB25E42UPB39E41 SLP261 P0000 T00220006,KSLE,2023-03-25T12:56:00Z,44.9,-123.0,2.2,0.6,260,4,,10.0,30.301182,1026.1,,TRUE,TRUE,,,,,,,SCT,4700,OVC,7500,,,,,VFR,,,,,,0.005,,,,,,METAR,63.0
KSLE 251204Z AUTO 27004KT 10SM SCT013 OVC055 02/01 A3029 RMK AO2 T00220011,KSLE,2023-03-25T12:04:00Z,44.9,-123.0,2.2,1.1,270,4,,10.0,30.28937,,,TRUE,TRUE,,,,,,,SCT,1300,OVC,5500,,,,,VFR,,,,,,,,,,,,SPECI,63.0
KSLE 251156Z AUTO 26004KT 10SM BKN013 BKN033 OVC070 02/01 A3029 RMK AO2 RAE50UPB21E24B50E54 SLP259 P0004 60007 70025 T00220011 10033 20017 53000,KSLE,2023-03-25T11:56:00Z,44.9,-123.0,2.2,1.1,260,4,,10.0,30.28937,1025.9,,TRUE,TRUE,,,,,,,BKN,1300,BKN,3300,OVC,7000,,,MVFR,0.0,3.3,1.7,,,0.04,,0.07,0.25,,,METAR,63.0
KSLE 251144Z AUTO 00000KT 10SM -RA FEW009 BKN015 OVC021 02/01 A3029 RMK AO2 UPB21E24 P0004 T00220011,KSLE,2023-03-25T11:44:00Z,44.9,-123.0,2.2,1.1,0,0,,10.0,30.28937,,,TRUE,TRUE,,,,,,-RA,FEW,900,BKN,1500,OVC,2100,,,MVFR,,,,,,0.04,,,,,,SPECI,63.0
KSLE 251056Z AUTO 21009KT 8SM -RA FEW010 BKN021 OVC049 02/01 A3028 RMK AO2 RAB41 SLP255 P0001 T00220006,KSLE,2023-03-25T10:56:00Z,44.9,-123.0,2.2,0.6,210,9,,8.0,30.280512,1025.5,,TRUE,TRUE,,,,,,-RA,FEW,1000,BKN,2100,OVC,4900,,,MVFR,,,,,,0.01,,,,,,METAR,63.0
KSLE 251031Z AUTO 18010KT 10SM SCT007 BKN050 OVC090 02/01 A3027 RMK AO2 T00220006,KSLE,2023-03-25T10:31:00Z,44.9,-123.0,2.2,0.6,180,10,,10.0,30.268702,,,TRUE,TRUE,,,,,,,SCT,700,BKN,5000,OVC,9000,,,VFR,,,,,,,,,,,,SPECI,63.0
KSLE 250956Z AUTO 18008KT 10SM BKN007 BKN047 02/01 A3028 RMK AO2 SLP255 T00170006,KSLE,2023-03-25T09:56:00Z,44.9,-123.0,1.7,0.6,180,8,,10.0,30.280512,1025.5,,TRUE,TRUE,,,,,,,BKN,700,BKN,4700,,,,,IFR,,,,,,,,,,,,SPECI,63.0
KSLE 250856Z AUTO 18010KT 10SM BKN009 BKN024 OVC029 03/01 A3029 RMK AO2 RAE33UPB33E35 SLP258 P0002 60002 T00280011 58014,KSLE,2023-03-25T08:56:00Z,44.9,-123.0,2.8,1.1,180,10,,10.0,30.28937,1025.8,,TRUE,TRUE,,,,,,,BKN,900,BKN,2400,OVC,2900,,,IFR,-1.4,,,,,0.02,0.02,,,,,METAR,63.0
KSLE 250834Z AUTO 18008KT 10SM UP SCT009 OVC029 03/01 A3030 RMK AO2 RAE33UPB33 P0002 T00280011,KSLE,2023-03-25T08:34:00Z,44.9,-123.0,2.8,1.1,180,8,,10.0,30.301182,,,TRUE,TRUE,,,,,,UP,SCT,900,OVC,2900,,,,,MVFR,,,,,,0.02,,,,,,METAR,63.0
KSLE 250822Z AUTO 17009KT 10SM -RA BKN010 OVC021 03/01 A3030 RMK AO2 P0002 T00280011,KSLE,2023-03-25T08:22:00Z,44.9,-123.0,2.8,1.1,170,9,,10.0,30.301182,,,TRUE,TRUE,,,,,,-RA,BKN,1000,OVC,2100,,,,,MVFR,,,,,,0.02,,,,,,SPECI,63.0
KSLE 250756Z AUTO 17008KT 7SM -RA FEW019 OVC027 03/02 A3031 RMK AO2 RAB13 SLP265 P0000 T00330017 400890011,KSLE,2023-03-25T07:56:00Z,44.9,-123.0,3.3,1.7,170,8,,7.0,30.31004,1026.5,,TRUE,TRUE,,,,,,-RA,FEW,1900,OVC,2700,,,,,MVFR,,,,8.9,1.1,0.005,,,,,,METAR,63.0
KSLE 250656Z AUTO 18008KT 10SM FEW015 BKN036 OVC055 03/01 A3032 RMK AO2 SLP269 T00330011,KSLE,2023-03-25T06:56:00Z,44.9,-123.0,3.3,1.1,180,8,,10.0,30.318897,1026.9,,TRUE,TRUE,,,,,,,FEW,1500,BKN,3600,OVC,5500,,,VFR,,,,,,,,,,,,METAR,63.0
KSLE 250556Z AUTO 19009KT 10SM FEW037 BKN047 BKN070 03/01 A3033 RMK AO2 SLP272 60001 T00330011 10072 20028 50001,KSLE,2023-03-25T05:56:00Z,44.9,-123.0,3.3,1.1,190,9,,10.0,30.33071,1027.2,,TRUE,TRUE,,,,,,,FEW,3700,BKN,4700,BKN,7000,,,VFR,0.1,7.2,2.8,,,,,0.01,,,,METAR,63.0
KSLE 250456Z AUTO 18007KT 10SM SCT042 BKN050 BKN100 03/01 A3034 RMK AO2 SLP277 T00330006,KSLE,2023-03-25T04:56:00Z,44.9,-123.0,3.3,0.6,180,7,,10.0,30.339567,1027.7,,TRUE,TRUE,,,,,,,SCT,4200,BKN,5000,BKN,10000,,,VFR,,,,,,,,,,,,METAR,63.0
KSLE 250356Z AUTO 21009KT 10SM FEW031 BKN050 OVC100 04/01 A3034 RMK AO2 RAB46E52 SLP276 P0000 T00390011,KSLE,2023-03-25T03:56:00Z,44.9,-123.0,3.9,1.1,210,9,,10.0,30.339567,1027.6,,TRUE,TRUE,,,,,,,FEW,3100,BKN,5000,OVC,10000,,,VFR,,,,,,0.005,,,,,,METAR,63.0
KSLE 250256Z 23006KT 10SM FEW032 SCT045 BKN065 04/01 A3033 RMK AO2 RAB01E25 SLP271 P0001 60001 T00440011 53003,KSLE,2023-03-25T02:56:00Z,44.9,-123.0,4.4,1.1,230,6,,10.0,30.33071,1027.1,,,TRUE,,,,,,,FEW,3200,SCT,4500,BKN,6500,,,VFR,0.3,,,,,0.01,0.01,,,,,METAR,63.0
KSLE 250156Z 22007KT 10SM BKN018 BKN037 OVC046 06/01 A3032 RMK AO2 SLP269 T00560011,KSLE,2023-03-25T01:56:00Z,44.9,-123.0,5.6,1.1,220,7,,10.0,30.318897,1026.9,,,TRUE,,,,,,,BKN,1800,BKN,3700,OVC,4600,,,MVFR,,,,,,,,,,,,METAR,63.0
KSLE 250056Z 23008KT 10SM BKN018 BKN035 OVC110 06/01 A3032 RMK AO2 RAE06 SLP267 P0000 T00610011,KSLE,2023-03-25T00:56:00Z,44.9,-123.0,6.1,1.1,230,8,,10.0,30.318897,1026.7,,,TRUE,,,,,,,BKN,1800,BKN,3500,OVC,11000,,,MVFR,,,,,,0.005,,,,,,METAR,63.0
KSLE 242356Z 31012G16KT 10SM -RA BKN023 BKN032 OVC100 06/02 A3032 RMK AO2 RAE17B45 SLP268 P0000 60009 T00610022 10089 20022 53004,KSLE,2023-03-24T23:56:00Z,44.9,-123.0,6.1,2.2,310,12,16,10.0,30.318897,1026.8,,,TRUE,,,,,,-RA,BKN,2300,BKN,3200,OVC,10000,,,MVFR,0.4,8.9,2.2,,,0.005,,0.09,,,,METAR,63.0
KSLE 242256Z 29010G21KT 6SM -RA BKN032 BKN039 OVC070 07/01 A3032 RMK AO2 RAB49 SLP267 P0000 T00670011,KSLE,2023-03-24T22:56:00Z,44.9,-123.0,6.7,1.1,290,10,21,6.0,30.318897,1026.7,,,TRUE,,,,,,-RA,BKN,3200,BKN,3900,OVC,7000,,,VFR,,,,,,0.005,,,,,,METAR,63.0
KSLE 242203Z 26007G17KT 10SM FEW075 08/02 A3030 RMK AO2 T00780022,KSLE,2023-03-24T22:03:00Z,44.9,-123.0,7.8,2.2,260,7,17,10.0,30.301182,,,,TRUE,,,,,,,FEW,7500,,,,,,,VFR,,,,,,,,,,,,METAR,63.0
KSLE 242156Z 25007KT 6SM HZ BKN020 BKN035 OVC075 07/03 A3030 RMK AO2 RAB30E47 SLP261 P0001 T00720028,KSLE,2023-03-24T21:56:00Z,44.9,-123.0,7.2,2.8,250,7,,6.0,30.301182,1026.1,,,TRUE,,,,,,HZ,BKN,2000,BKN,3500,OVC,7500,,,MVFR,,,,,,0.01,,,,,,METAR,63.0
KSLE 242056Z COR 29003KT 6SM -RA BKN018 BKN030 BKN045 06/03 A3031 RMK AO2 RAE05B40E55 SLP264 P0004 60008 T00610028 50003,KSLE,2023-03-24T20:56:00Z,44.9,-123.0,6.1,2.8,290,3,,6.0,30.31004,1026.4,TRUE,,TRUE,,,,,,-RA,BKN,1800,BKN,3000,BKN,4500,,,MVFR,0.3,,,,,0.04,0.08,,,,,METAR,63.0
KSLE 242012Z 19005KT 6SM BR FEW009 SCT032 BKN085 05/03 A3031 RMK AO2 RAE05 P0004 T00500028,KSLE,2023-03-24T20:12:00Z,44.9,-123.0,5.0,2.8,190,5,,6.0,30.31004,,,,TRUE,,,,,,BR,FEW,900,SCT,3200,BKN,8500,,,VFR,,,,,,0.04,,,,,,SPECI,63.0
KSLE 241956Z 13006KT 6SM R31/3500VP6000FT +RA BR SCT010 BKN020 OVC030 02/01 A3031 RMK AO2 RAE07B32 SLP266 P0004 T00220006,KSLE,2023-03-24T19:56:00Z,44.9,-123.0,2.2,0.6,130,6,,6.0,30.31004,1026.6,,,TRUE,,,,,,+RA BR,SCT,1000,BKN,2000,OVC,3000,,,MVFR,,,,,,0.04,,,,,,METAR,63.0
KSLE 241953Z VRB05G15KT 1 3/4SM R31/4000VP6000FT +RA BR SCT010 BKN020 OVC030 02/01 A3031 RMK AO2 RAE07B32 P0001,KSLE,2023-03-24T19:53:00Z,44.9,-123.0,2.0,1.0,0,5,15,1.75,30.31004,,,,TRUE,,,,,,+RA BR,SCT,1000,BKN,2000,OVC,3000,,,IFR,,,,,,0.01,,,,,,SPECI,63.0
KSLE 241856Z 21009KT 6SM -RA FEW010 BKN027 OVC040 06/02 A3031 RMK AO2 RAE09B54 SLP265 P0000 T00560022,KSLE,2023-03-24T18:56:00Z,44.9,-123.0,5.6,2.2,210,9,,6.0,30.31004,1026.5,,,TRUE,,,,,,-RA,FEW,1000,BKN,2700,OVC,4000,,,MVFR,,,,,,0.005,,,,,,METAR,63.0
KSLE 241759Z 21009KT 10SM -RA FEW009 SCT017 BKN036 04/02 A3030 RMK AO2 P0000 T00390022,KSLE,2023-03-24T17:59:00Z,44.9,-123.0,3.9,2.2,210,9,,10.0,30.301182,,,,TRUE,,,,,,-RA,FEW,900,SCT,1700,BKN,3600,,,VFR,,,,,,0.005,,,,,,METAR,63.0
KSLE 241756Z 21010KT 10SM -RA FEW012 BKN034 OVC060 04/02 A3030 RMK AO2 RAB17E32B50 SLP260 P0000 60008 T00390022 10044 20011 53022,KSLE,2023-03-24T17:56:00Z,44.9,-123.0,3.9,2.2,210,10,,10.0,30.301182,1026.0,,,TRUE,,,,,,-RA,FEW,1200,BKN,3400,OVC,6000,,,VFR,2.2,4.4,1.1,,,0.005,,0.08,,,,METAR,63.0
KSLE 241656Z 20009KT 10SM FEW012 BKN034 OVC045 03/02 A3027 RMK AO2 RAB1559E37 SLP251 P0001 T00280017,KSLE,2023-03-24T16:56:00Z,44.9,-123.0,2.8,1.7,200,9,,10.0,30.268702,1025.1,,,TRUE,,,,,,,FEW,1200,BKN,3400,OVC,4500,,,VFR,,,,,,0.01,,,,,,METAR,63.0
KSLE 241635Z 19009KT 10SM -RA SCT025 SCT037 OVC055 02/01 A3026 RMK AO2 RAB1559 P0001 T00220011,KSLE,2023-03-24T16:35:00Z,44.9,-123.0,2.2,1.1,190,9,,10.0,30.259842,,,,TRUE,,,,,,-RA,SCT,2500,SCT,3700,OVC,5500,,,VFR,,,,,,0.01,,,,,,METAR,63.0
KSLE 241556Z 20009KT 5SM BR FEW017 BKN026 OVC036 02/01 A3025 RMK AO2 UPB19E41RAB41E42 SLP246 P0000 T00220006,KSLE,2023-03-24T15:56:00Z,44.9,-123.0,2.2,0.6,200,9,,5.0,30.250984,1024.6,,,TRUE,,,,,,BR,FEW,1700,BKN,2600,OVC,3600,,,MVFR,,,,,,0.005,,,,,,METAR,63.0
KSLE 241547Z 19010KT 5SM BR BKN007 BKN028 OVC035 02/01 A3025 RMK AO2 UPB19E41RAB41E42 P0000 T00220011,KSLE,2023-03-24T15:47:00Z,44.9,-123.0,2.2,1.1,190,10,,5.0,30.250984,,,,TRUE,,,,,,BR,BKN,700,BKN,2800,OVC,3500,,,IFR,,,,,,0.005,,,,,,METAR,63.0
KSLE 241456Z 19011KT 10SM SCT006 BKN041 BKN065 02/00 A3023 RMK AO2 SLP239 60007 T00170000 52008,KSLE,2023-03-24T14:56:00Z,44.9,-123.0,1.7,0.0,190,11,,10.0,30.230314,1023.9,,,TRUE,,,,,,,SCT,600,BKN,4100,BKN,6500,,,VFR,0.8,,,,,,0.07,,,,,METAR,63.0
KSLE 241434Z 18009KT 10SM BKN006 OVC060 01/00 A3023 RMK AO2 T00110000,KSLE,2023-03-24T14:34:00Z,44.9,-123.0,1.1,0.0,180,9,,10.0,30.230314,,,,TRUE,,,,,,,BKN,600,OVC,6000,,,,,IFR,,,,,,,,,,,,METAR,63.0
KSLE 241356Z AUTO 18009KT 10SM SCT007 BKN065 BKN080 01/00 A3021 RMK AO2 RAB04E29UPB29E31SNE20 SLP233 P0003 T00110000,KSLE,2023-03-24T13:56:00Z,44.9,-123.0,1.1,0.0,180,9,,10.0,30.209646,1023.3,,TRUE,TRUE,,,,,,,SCT,700,BKN,6500,BKN,8000,,,VFR,,,,,,0.03,,,,,,METAR,63.0
KSLE 241349Z AUTO 19007KT 10SM SCT007 BKN065 BKN080 01/00 A3021 RMK AO2 RAB04E29UPB29E31SNE20 P0003 T00110000,KSLE,2023-03-24T13:49:00Z,44.9,-123.0,1.1,0.0,190,7,,10.0,30.209646,,,TRUE,TRUE,,,,,,,SCT,700,BKN,6500,BKN,8000,,,VFR,,,,,,0.03,,,,,,SPECI,63.0
KSLE 241324Z AUTO 18008KT 10SM -RA BKN032 BKN070 OVC090 01/00 A3021 RMK AO2 RAB04SNE20 P0003 T00110000,KSLE,2023-03-24T13:24:00Z,44.9,-123.0,1.1,0.0,180,8,,10.0,30.209646,,,TRUE,TRUE,,,,,,-RA,BKN,3200,BKN,7000,OVC,9000,,,VFR,,,,,,0.03,,,,,,METAR,63.0
KSLE 241256Z AUTO 18009KT 5SM -SN BR OVC019 01/00 A3022 RMK AO2 UPB23E25RAB25E49SNB49 SLP234 P0004 T00110000,KSLE,2023-03-24T12:56:00Z,44.9,-123.0,1.1,0.0,180,9,,5.0,30.221457,1023.4,,TRUE,TRUE,,,,,,-SN BR,OVC,1900,,,,,,,MVFR,,,,,,0.04,,,,,,SPECI,63.0
KSLE 241236Z AUTO 20010KT 9SM -RA FEW009 BKN023 OVC035 02/01 A3022 RMK AO2 UPB23E25RAB25 P0000 T00220011,KSLE,2023-03-24T12:36:00Z,44.9,-123.0,2.2,1.1,200,10,,9.0,30.221457,,,TRUE,TRUE,,,,,,-RA,FEW,900,BKN,2300,OVC,3500,,,MVFR,,,,,,0.005,,,,,,SPECI,63.0
KSLE 241216Z AUTO 18010KT 10SM FEW009 BKN050 BKN065 03/01 A3021 RMK AO2 T00280011,KSLE,2023-03-24T12:16:00Z,44.9,-123.0,2.8,1.1,180,10,,10.0,30.209646,,,TRUE,TRUE,,,,,,,FEW,900,BKN,5000,BKN,6500,,,VFR,,,,,,,,,,,,SPECI,63.0
KSLE 241156Z AUTO 17012KT 10SM CLR 02/01 A3020 RMK AO2 UPB00E18RAB10E19 SLP229 P0000 60005 70024 T00170006 10033 20017 58003,KSLE,2023-03-24T11:56:00Z,44.9,-123.0,1.7,0.6,170,12,,10.0,30.200787,1022.9,,TRUE,TRUE,,,,,,,CLR,,,,,,,,VFR,-0.3,3.3,1.7,,,0.005,,0.05,0.24,,,METAR,63.0
KSLE 241056Z AUTO 18009KT 10SM FEW008 SCT048 BKN060 02/01 A3022 RMK AO2 UPE0958B20E23RAB0958E20 SLP233 P0001 T00170006,KSLE,2023-03-24T10:56:00Z,44.9,-123.0,1.7,0.6,180,9,,10.0,30.221457,1023.3,,TRUE,TRUE,,,,,,,FEW,800,SCT,4800,BKN,6000,,,VFR,,,,,,0.01,,,,,,METAR,63.0
KSLE 241015Z AUTO 18010KT 10SM -RA SCT010 BKN038 OVC065 02/01 A3021 RMK AO2 UPE0958RAB0958 P0001 T00220006,KSLE,2023-03-24T10:15:00Z,44.9,-123.0,2.2,0.6,180,10,,10.0,30.209646,,,TRUE,TRUE,,,,,,-RA,SCT,1000,BKN,3800,OVC,6500,,,VFR,,,,,,0.01,,,,,,METAR,63.0
KSLE 241008Z AUTO 18012KT 10SM -RA SCT010 BKN028 02/01 A3021 RMK AO2 UPE0958RAB0958 P0001 T00220011,KSLE,2023-03-24T10:08:00Z,44.9,-123.0,2.2,1.1,180,12,,10.0,30.209646,,,TRUE,TRUE,,,,,,-RA,SCT,1000,BKN,2800,,,,,MVFR,,,,,,0.01,,,,,,SPECI,63.0
KSLE 240956Z AUTO 19013KT 10SM UP SCT010 BKN035 BKN085 03/01 A3022 RMK AO2 RAE25UPB09E28B56 SLP234 P0001 T00280011,KSLE,2023-03-24T09:56:00Z,44.9,-123.0,2.8,1.1,190,13,,10.0,30.221457,1023.4,,TRUE,TRUE,,,,,,UP,SCT,1000,BKN,3500,BKN,8500,,,VFR,,,,,,0.01,,,,,,METAR,63.0
KSLE 240905Z AUTO 19010KT 10SM -RA OVC034 03/02 A3021 RMK AO2 P0001 T00280017,KSLE,2023-03-24T09:05:00Z,44.9,-123.0,2.8,1.7,190,10,,10.0,30.209646,,,TRUE,TRUE,,,,,,-RA,OVC,3400,,,,,,,VFR,,,,,,0.01,,,,,,METAR,63.0
KSLE 240856Z AUTO 18010KT 9SM -RA FEW010 OVC025 03/02 A3021 RMK AO2 RAB16 SLP232 P0002 60003 T00330017 53008,KSLE,2023-03-24T08:56:00Z,44.9,-123.0,3.3,1.7,180,10,,9.0,30.209646,1023.2,,TRUE,TRUE,,,,,,-RA,FEW,1000,OVC,2500,,,,,MVFR,0.8,,,,,0.02,0.03,,,,,METAR,63.0
KSLE 240848Z AUTO 20011KT 7SM -RA SCT010 OVC022 03/02 A3021 RMK AO2 RAB16 P0002 T00330017,KSLE,2023-03-24T08:48:00Z,44.9,-123.0,3.3,1.7,200,11,,7.0,30.209646,,,TRUE,TRUE,,,,,,-RA,SCT,1000,OVC,2200,,,,,MVFR,,,,,,0.02,,,,,,METAR,63.0
KSLE 240841Z AUTO 21009KT 8SM -RA BKN010 OVC022 03/02 A3021 RMK AO2 RAB16 P0001 T00330017,KSLE,2023-03-24T08:41:00Z,44.9,-123.0,3.3,1.7,210,9,,8.0,30.209646,,,TRUE,TRUE,,,,,,-RA,BKN,1000,OVC,2200,,,,,MVFR,,,,,,0.01,,,,,,SPECI,63.0
KSLE 240824Z AUTO 20008KT 10SM -RA BKN009 BKN028 03/02 A3020 RMK AO2 RAB16 P0000 T00330017,KSLE,2023-03-24T08:24:00Z,44.9,-123.0,3.3,1.7,200,8,,10.0,30.200787,,,TRUE,TRUE,,,,,,-RA,BKN,900,BKN,2800,,,,,IFR,,,,,,0.005,,,,,,SPECI,63.0
KSLE 240812Z AUTO 19012KT 10SM BKN011 BKN037 BKN045 03/02 A3020 RMK AO2 CIG 008V016 T00280017,KSLE,2023-03-24T08:12:00Z,44.9,-123.0,2.8,1.7,190,12,,10.0,30.200787,,,TRUE,TRUE,,,,,,,BKN,1100,BKN,3700,BKN,4500,,,MVFR,,,,,,,,,,,,SPECI,63.0
KSLE 240801Z AUTO 19011KT 10SM BKN009 BKN014 OVC042 03/01 A3019 RMK AO2 T00280011,KSLE,2023-03-24T08:01:00Z,44.9,-123.0,2.8,1.1,190,11,,10.0,30.188976,,,TRUE,TRUE,,,,,,,BKN,900,BKN,1400,OVC,4200,,,IFR,,,,,,,,,,,,SPECI,63.0
KSLE 240756Z AUTO 19011KT 10SM BKN012 BKN016 OVC044 03/01 A3019 RMK AO2 RAE44 SLP225 P0001 T00280011 400830028,KSLE,2023-03-24T07:56:00Z,44.9,-123.0,2.8,1.1,190,11,,10.0,30.188976,1022.5,,TRUE,TRUE,,,,,,,BKN,1200,BKN,1600,OVC,4400,,,MVFR,,,,8.3,2.8,0.01,,,,,,METAR,63.0
KSLE 240740Z AUTO 18012G18KT 10SM -RA BKN012 BKN019 OVC032 03/01 A3019 RMK AO2 P0001 T00280011,KSLE,2023-03-24T07:40:00Z,44.9,-123.0,2.8,1.1,180,12,18,10.0,30.188976,,,TRUE,TRUE,,,,,,-RA,BKN,1200,BKN,1900,OVC,3200,,,MVFR,,,,,,0.01,,,,,,SPECI,63.0
KSLE 240731Z AUTO 18010KT 10SM -RA SCT012 BKN018 OVC032 03/02 A3019 RMK AO2 P0001 T00330017,KSLE,2023-03-24T07:31:00Z,44.9,-123.0,3.3,1.7,180,10,,10.0,30.188976,,,TRUE,TRUE,,,,,,-RA,SCT,1200,BKN,1800,OVC,3200,,,MVFR,,,,,,0.01,,,,,,SPECI,63.0
KSLE 240656Z AUTO 19011KT 10SM -RA FEW015 BKN038 OVC080 03/01 A3019 RMK AO2 RAE0558B24 SLP225 P0000 T00330011,KSLE,2023-03-24T06:56:00Z,44.9,-123.0,3.3,1.1,190,11,,10.0,30.188976,1022.5,,TRUE,TRUE,,,,,,-RA,FEW,1500,BKN,3800,OVC,8000,,,VFR,,,,,,0.005,,,,,,SPECI,63.0
KSLE 240556Z AUTO 20009KT 10SM -RA FEW036 BKN043 BKN065 03/01 A3019 RMK AO2 RAB37 SLP224 P0000 60003 T00330011 10072 20033 53017,KSLE,2023-03-24T05:56:00Z,44.9,-123.0,3.3,1.1,200,9,,10.0,30.188976,1022.4,,TRUE,TRUE,,,,,,-RA,FEW,3600,BKN,4300,BKN,6500,,,VFR,1.7,7.2,3.3,,,0.005,,0.03,,,,METAR,63.0
KSLE 240456Z AUTO 18008KT 10SM SCT025 SCT050 BKN070 04/02 A3017 RMK AO2 RAB0357E22B37E54 SLP218 P0002 T00390022,KSLE,2023-03-24T04:56:00Z,44.9,-123.0,3.9,2.2,180,8,,10.0,30.171259,1021.8,,TRUE,TRUE,,,,,,,SCT,2500,SCT,5000,BKN,7000,,,VFR,,,,,,0.02,,,,,,SPECI,63.0
KSLE 240431Z AUTO 17007KT 10SM SCT022 SCT037 BKN060 04/02 A3017 RMK AO2 RAB0357E22 P0001 T00440022,KSLE,2023-03-24T04:31:00Z,44.9,-123.0,4.4,2.2,170,7,,10.0,30.171259,,,TRUE,TRUE,,,,,,,SCT,2200,SCT,3700,BKN,6000,,,VFR,,,,,,0.01,,,,,,SPECI,63.0
KSLE 240414Z AUTO 17007KT 9SM -RA SCT022 BKN027 OVC055 04/02 A3016 RMK AO2 RAB0357 P0001 T00440022,KSLE,2023-03-24T04:14:00Z,44.9,-123.0,4.4,2.2,170,7,,9.0,30.159449,,,TRUE,TRUE,,,,,,-RA,SCT,2200,BKN,2700,OVC,5500,,,MVFR,,,,,,0.01,,,,,,SPECI,63.0
KSLE 240356Z AUTO 18008KT 10SM SCT032 BKN045 OVC070 04/02 A3015 RMK AO2 SLP211 T00440017,KSLE,2023-03-24T03:56:00Z,44.9,-123.0,4.4,1.7,180,8,,10.0,30.15059,1021.1,,TRUE,TRUE,,,,,,,SCT,3200,BKN,4500,OVC,7000,,,VFR,,,,,,,,,,,,METAR,63.0
KSLE 240256Z 18004KT 6SM HZ FEW012 BKN034 OVC110 04/01 A3014 RMK AO2 RAE10 SLP207 P0000 60001 T00440011 50005,KSLE,2023-03-24T02:56:00Z,44.9,-123.0,4.4,1.1,180,4,,6.0,30.138779,1020.7,,,TRUE,,,,,,HZ,FEW,1200,BKN,3400,OVC,11000,,,VFR,0.5,,,,,0.005,0.01,,,,,METAR,63.0
KSLE 240156Z 28011G18KT 6SM -RA SCT024 BKN034 OVC060 04/01 A3015 RMK AO2 WSHFT 0132 RAB33 SLP209 P0001 T00440011,KSLE,2023-03-24T01:56:00Z,44.9,-123.0,4.4,1.1,280,11,18,6.0,30.15059,1020.9,,,TRUE,,,,,,-RA,SCT,2400,BKN,3400,OVC,6000,,,VFR,,,,,,0.01,,,,,,METAR,63.0
KSLE 240152Z 30011G18KT 6SM -RA SCT024 BKN034 OVC060 04/01 A3015 RMK AO2 WSHFT 0132 RAB33 P0000,KSLE,2023-03-24T01:52:00Z,44.9,-123.0,4.0,1.0,300,11,18,6.0,30.15059,,,,TRUE,,,,,,-RA,SCT,2400,BKN,3400,OVC,6000,,,VFR,,,,,,0.005,,,,,,SPECI,63.0
KSLE 240056Z 23008KT 200V260 10SM FEW010 BKN034 OVC080 07/03 A3012 RMK AO2 RAB37E55 SLP202 P0000 T00670028,KSLE,2023-03-24T00:56:00Z,44.9,-123.0,6.7,2.8,230,8,,10.0,30.121063,1020.2,,,TRUE,,,,,,,FEW,1000,BKN,3400,OVC,8000,,,VFR,,,,,,0.005,,,,,,METAR,63.0
KSLE 240003Z 15007KT 10SM FEW010 BKN034 OVC080 06/03 A3012 RMK AO2 T00560028,KSLE,2023-03-24T00:03:00Z,44.9,-123.0,5.6,2.8,150,7,,10.0,30.121063,,,,TRUE,,,,,,,FEW,1000,BKN,3400,OVC,8000,,,VFR,,,,,,,,,,,,METAR,63.0
KSLE 232356Z 15009KT 6SM BR BKN021 BKN026 OVC036 06/03 A3012 RMK AO2 RAE49 SLP202 P0005 60015 T00560033 10078 20044 53016,KSLE,2023-03-23T23:56:00Z,44.9,-123.0,5.6,3.3,150,9,,6.0,30.121063,1020.2,,,TRUE,,,,,,BR,BKN,2100,BKN,2600,OVC,3600,,,MVFR,1.6,7.8,4.4,,,0.05,,0.15,,,,METAR,63.0
KSLE 232256Z VRB06KT 10SM -RA SCT021 BKN026 OVC036 06/03 A3011 RMK AO2 RAB43 SLP198 P0000 T00610028,KSLE,2023-03-23T22:56:00Z,44.9,-123.0,6.1,2.8,0,6,,10.0,30.109253,1019.8,,,TRUE,,,,,,-RA,SCT,2100,BKN,2600,OVC,3600,,,MVFR,,,,,,0.005,,,,,,METAR,63.0
KSLE 232156Z 21012KT 6SM HZ FEW012 BKN034 OVC060 06/02 A3008 RMK AO2 SLP188 T00610022,KSLE,2023-03-23T21:56:00Z,44.9,-123.0,6.1,2.2,210,12,,6.0,30.079725,1018.8,,,TRUE,,,,,,HZ,FEW,1200,BKN,3400,OVC,6000,,,VFR,,,,,,,,,,,,METAR,63.0
KSLE 232056Z 21009KT 6SM HZ FEW012 BKN034 OVC070 05/02 A3008 RMK AO2 SLP186 60010 T00500022 51029,KSLE,2023-03-23T20:56:00Z,44.9,-123.0,5.0,2.2,210,9,,6.0,30.079725,1018.6,,,TRUE,,,,,,HZ,FEW,1200,BKN,3400,OVC,7000,,,VFR,2.9,,,,,,0.1,,,,,METAR,63.0
KSLE 231956Z COR 25010G20KT 60SM FEW012 BKN034 OVC065 06/02 A3006 RMK AO2 RAE53 SLP179 P0003 T00560022,KSLE,2023-03-23T19:56:00Z,44.9,-123.0,5.6,2.2,250,10,20,60.0,30.059055,1017.9,TRUE,,TRUE,,,,,,,FEW,1200,BKN,3400,OVC,6500,,,VFR,,,,,,0.03,,,,,,METAR,63.0
KSLE 231931Z COR 25015G25KT 10SM -RA SCT015 BKN033 OVC046 06/03 A3006 RMK AO2 P0003 T00560028,KSLE,2023-03-23T19:31:00Z,44.9,-123.0,5.6,2.8,250,15,25,10.0,30.059055,,TRUE,,TRUE,,,,,,-RA,SCT,1500,BKN,3300,OVC,4600,,,VFR,,,,,,0.03,,,,,,METAR,63.0
KSLE 231856Z 24012G29KT 3SM RA SCT019 BKN027 OVC033 06/03 A3003 RMK AO2 PK WND 23033/1846 RAB08 SLP170 P0007 T00610033,KSLE,2023-03-23T18:56:00Z,44.9,-123.0,6.1,3.3,240,12,29,3.0,30.029528,1017.0,,,TRUE,,,,,,RA,SCT,1900,BKN,2700,OVC,3300,,,MVFR,,,,,,0.07,,,,,,METAR,63.0
KSLE 231756Z 18013G22KT 10SM BKN021 OVC027 08/04 A2999 RMK AO2 RAE37 SLP157 P0000 60001 T00780039 10078 20061 56005,KSLE,2023-03-23T17:56:00Z,44.9,-123.0,7.8,3.9,180,13,22,10.0,29.991142,1015.7,,,TRUE,,,,,,,BKN,2100,OVC,2700,,,,,MVFR,-0.5,7.8,6.1,,,0.005,,,,,,SPECI,63.0
KSLE 231656Z 18015G25KT 10SM -RA FEW020 BKN025 OVC034 07/04 A3000 RMK AO2 RAE09B27 SLP159 P0000 T00720039,KSLE,2023-03-23T16:56:00Z,44.9,-123.0,7.2,3.9,180,15,25,10.0,30.0,1015.9,,,TRUE,,,,,,-RA,FEW,2000,BKN,2500,OVC,3400,,,MVFR,,,,,,0.005,,,,,,SPECI,63.0
KSLE 231651Z 17015G25KT 10SM -RA BKN023 BKN035 OVC048 07/04 A3000 RMK AO2 RAE09B27 P0000,KSLE,2023-03-23T16:51:00Z,44.9,-123.0,7.0,4.0,170,15,25,10.0,30.0,,,,TRUE,,,,,,-RA,BKN,2300,BKN,3500,OVC,4800,,,MVFR,,,,,,0.005,,,,,,METAR,63.0
KSLE 231556Z 16010KT 10SM -RA FEW033 SCT040 OVC070 07/04 A3001 RMK AO2 RAB16 SLP162 P0001 T00670039,KSLE,2023-03-23T15:56:00Z,44.9,-123.0,6.7,3.9,160,10,,10.0,30.008858,1016.2,,,TRUE,,,,,,-RA,FEW,3300,SCT,4000,OVC,7000,,,VFR,,,,,,0.01,,,,,,METAR,63.0
KSLE 231456Z 18010KT 10SM SCT026 BKN040 OVC050 07/03 A3002 RMK AO2 RAB34E48 SLP166 P0000 60000 T00670033 58001,KSLE,2023-03-23T14:56:00Z,44.9,-123.0,6.7,3.3,180,10,,10.0,30.02067,1016.6,,,TRUE,,,,,,,SCT,2600,BKN,4000,OVC,5000,,,VFR,-0.1,,,,,0.005,0.005,,,,,METAR,63.0
KSLE 231356Z 18008KT 10SM BKN036 OVC100 06/04 A3002 RMK AO2 RAB32E46 SLP168 P0000 T00610039,KSLE,2023-03-23T13:56:00Z,44.9,-123.0,6.1,3.9,180,8,,10.0,30.02067,1016.8,,,TRUE,,,,,,,BKN,3600,OVC,10000,,,,,VFR,,,,,,0.005,,,,,,METAR,63.0
KSLE 231256Z AUTO 18008KT 10SM SCT034 BKN065 06/03 A3002 RMK AO2 SLP167 T00610033,KSLE,2023-03-23T12:56:00Z,44.9,-123.0,6.1,3.3,180,8,,10.0,30.02067,1016.7,,TRUE,TRUE,,,,,,,SCT,3400,BKN,6500,,,,,VFR,,,,,,,,,,,,SPECI,63.0
KSLE 231156Z AUTO 18010KT 10SM BKN060 07/03 A3002 RMK AO2 SLP167 60000 T00670033 10094 20056 51003,KSLE,2023-03-23T11:56:00Z,44.9,-123.0,6.7,3.3,180,10,,10.0,30.02067,1016.7,,TRUE,TRUE,,,,,,,BKN,6000,,,,,,,VFR,0.3,9.4,5.6,,,,,,,,,SPECI,63.0
KSLE 231056Z AUTO 18008KT 10SM FEW025 SCT031 BKN040 07/03 A3002 RMK AO2 SLP166 T00670028,KSLE,2023-03-23T10:56:00Z,44.9,-123.0,6.7,2.8,180,8,,10.0,30.02067,1016.6,,TRUE,TRUE,,,,,,,FEW,2500,SCT,3100,BKN,4000,,,VFR,,,,,,,,,,,,METAR,63.0
KSLE 230956Z AUTO 17006KT 10SM FEW085 07/03 A3002 RMK AO2 SLP164 T00670028,KSLE,2023-03-23T09:56:00Z,44.9,-123.0,6.7,2.8,170,6,,10.0,30.02067,1016.4,,TRUE,TRUE,,,,,,,FEW,8500,,,,,,,VFR,,,,,,,,,,,,METAR,63.0
KSLE 230856Z AUTO 21010KT 10SM OVC050 08/03 A3001 RMK AO2 SLP163 60000 T00780033 53010,KSLE,2023-03-23T08:56:00Z,44.9,-123.0,7.8,3.3,210,10,,10.0,30.008858,1016.3,,TRUE,TRUE,,,,,,,OVC,5000,,,,,,,VFR,1.0,,,,,,,,,,,SPECI,63.0
KSLE 230756Z AUTO 22008KT 10SM OVC043 08/04 A3000 RMK AO2 SLP159 T00830044 401720017,KSLE,2023-03-23T07:56:00Z,44.9,-123.0,8.3,4.4,220,8,,10.0,30.0,1015.9,,TRUE,TRUE,,,,,,,OVC,4300,,,,,,,VFR,,,,17.2,1.7,,,,,,,METAR,63.0
KSLE 230656Z AUTO 23004KT 10SM OVC046 08/04 A2999 RMK AO2 RAB0557E09 SLP157 P0000 T00830044,KSLE,2023-03-23T06:56:00Z,44.9,-123.0,8.3,4.4,230,4,,10.0,29.991142,1015.7,,TRUE,TRUE,,,,,,,OVC,4600,,,,,,,VFR,,,,,,0.005,,,,,,METAR,63.0
KSLE 230556Z AUTO 22008KT 10SM SCT026 BKN032 OVC042 09/05 A2998 RMK AO2 SLP154 T00940050 10150 20094 53021,KSLE,2023-03-23T05:56:00Z,44.9,-123.0,9.4,5.0,220,8,,10.0,29.97933,1015.4,,TRUE,TRUE,,,,,,,SCT,2600,BKN,3200,OVC,4200,,,VFR,2.1,15.0,9.4,,,,,,,,,METAR,63.0
KSLE 230510Z AUTO 22007KT 10SM BKN029 OVC037 09/06 A2997 RMK AO2 T00940056,KSLE,2023-03-23T05:10:00Z,44.9,-123.0,9.4,5.6,220,7,,10.0,29.970472,,,TRUE,TRUE,,,,,,,BKN,2900,OVC,3700,,,,,MVFR,,,,,,,,,,,,SPECI,63.0
KSLE 230456Z AUTO 23006KT 10SM OVC034 09/05 A2996 RMK AO2 SLP146 T00940050,KSLE,2023-03-23T04:56:00Z,44.9,-123.0,9.4,5.0,230,6,,10.0,29.958662,1014.6,,TRUE,TRUE,,,,,,,OVC,3400,,,,,,,VFR,,,,,,,,,,,,METAR,63.0
KSLE 230404Z AUTO 22005KT 10SM FEW025 OVC033 10/05 A2994 RMK AO2 T01000050,KSLE,2023-03-23T04:04:00Z,44.9,-123.0,10.0,5.0,220,5,,10.0,29.940945,,,TRUE,TRUE,,,,,,,FEW,2500,OVC,3300,,,,,VFR,,,,,,,,,,,,SPECI,63.0
KSLE 230356Z 23005KT 10SM BKN024 OVC033 10/05 A2994 RMK AO2 SLP140 T01000050,KSLE,2023-03-23T03:56:00Z,44.9,-123.0,10.0,5.0,230,5,,10.0,29.940945,1014.0,,,TRUE,,,,,,,BKN,2400,OVC,3300,,,,,MVFR,,,,,,,,,,,,METAR,63.0
KSLE 230256Z 28007KT 10SM BKN025 OVC031 11/05 A2992 RMK AO2 SLP133 T01060050 51031,KSLE,2023-03-23T02:56:00Z,44.9,-123.0,10.6,5.0,280,7,,10.0,29.920275,1013.3,,,TRUE,,,,,,,BKN,2500,OVC,3100,,,,,MVFR,3.1,,,,,,,,,,,SPECI,63.0
KSLE 230156Z 28008G15KT 10SM BKN029 11/05 A2990 RMK AO2 WSHFT 0048 SLP125 T01060050,KSLE,2023-03-23T01:56:00Z,44.9,-123.0,10.6,5.0,280,8,15,10.0,29.899607,1012.5,,,TRUE,,,,,,,BKN,2900,,,,,,,MVFR,,,,,,,,,,,,METAR,63.0
KSLE 230105Z 28008KT 10SM BKN029 BKN060 12/06 A2987 RMK AO2 WSHFT 0048 LTG DSNT NE AND E T01220056,KSLE,2023-03-23T01:05:00Z,44.9,-123.0,12.2,5.6,280,8,,10.0,29.870079,,,,TRUE,,,,,,,BKN,2900,BKN,6000,,,,,MVFR,,,,,,,,,,,,METAR,63.0
KSLE 230056Z 28012KT 10SM FEW029 SCT055 12/06 A2987 RMK AO2 LTG DSNT NE AND E SLP114 T01220056,KSLE,2023-03-23T00:56:00Z,44.9,-123.0,12.2,5.6,280,12,,10.0,29.870079,1011.4,,,TRUE,,,,,,,FEW,2900,SCT,5500,,,,,VFR,,,,,,,,,,,,METAR,63.0
KSLE 230024Z 22012G20KT 10SM SCT055 SCT100 13/05 A2985 RMK AO2 LTG DSNT NE T01330050,KSLE,2023-03-23T00:24:00Z,44.9,-123.0,13.3,5.0,220,12,20,10.0,29.84941,,,,TRUE,,,,,,,SCT,5500,SCT,10000,,,,,VFR,,,,,,,,,,,,SPECI,63.0
KSLE 230009Z 25014KT 10SM VCTS FEW055 BKN100 14/05 A2984 RMK AO2 T01440050,KSLE,2023-03-23T00:09:00Z,44.9,-123.0,14.4,5.0,250,14,,10.0,29.840551,,,,TRUE,,,,,,VCTS,FEW,5500,BKN,10000,,,,,VFR,,,,,,,,,,,,SPECI,63.0
KSLE 222356Z 24010KT 10SM FEW049 BKN100 14/05 A2983 RMK AO2 LTG DSNT SE SLP102 T01440050 10172 20111 53010,KSLE,2023-03-22T23:56:00Z,44.9,-123.0,14.4,5.0,240,10,,10.0,29.828741,1010.2,,,TRUE,,,,,,,FEW,4900,BKN,10000,,,,,VFR,1.0,17.2,11.1,,,,,,,,,METAR,63.0
KSLE 222256Z 22012KT 10SM FEW050 FEW070 FEW100 17/05 A2980 RMK AO2 LTG DSNT S AND SW SLP093 T01720050,KSLE,2023-03-22T22:56:00Z,44.9,-123.0,17.2,5.0,220,12,,10.0,29.799213,1009.3,,,TRUE,,,,,,,FEW,5000,FEW,7000,FEW,10000,,,VFR,,,,,,,,,,,,METAR,63.0
KSLE 222240Z 19012KT 10SM VCTS CLR 17/05 A2980 RMK AO2 T01670050,KSLE,2023-03-22T22:40:00Z,44.9,-123.0,16.7,5.0,190,12,,10.0,29.799213,,,,TRUE,,,,,,VCTS,CLR,,,,,,,,VFR,,,,,,,,,,,,SPECI,63.0
KSLE 222156Z 18007KT 150V210 10SM CLR 17/03 A2980 RMK AO2 LTG DSNT W AND NW SLP092 T01670033,KSLE,2023-03-22T21:56:00Z,44.9,-123.0,16.7,3.3,180,7,,10.0,29.799213,1009.2,,,TRUE,,,,,,,CLR,,,,,,,,VFR,,,,,,,,,,,,SPECI,63.0
KSLE 222056Z VRB03KT 10SM CLR 16/04 A2980 RMK AO2 SLP092 T01610044 51002,KSLE,2023-03-22T20:56:00Z,44.9,-123.0,16.1,4.4,0,3,,10.0,29.799213,1009.2,,,TRUE,,,,,,,CLR,,,,,,,,VFR,0.2,,,,,,,,,,,METAR,63.0
KSLE 221956Z 08006KT 10SM CLR 15/06 A2980 RMK AO2 SLP092 T01500061,KSLE,2023-03-22T19:56:00Z,44.9,-123.0,15.0,6.1,80,6,,10.0,29.799213,1009.2,,,TRUE,,,,,,,CLR,,,,,,,,VFR,,,,,,,,,,,,METAR,63.0
KSLE 221856Z 00000KT 10SM CLR 13/04 A2980 RMK AO2 SLP092 T01280044,KSLE,2023-03-22T18:56:00Z,44.9,-123.0,12.8,4.4,0,0,,10.0,29.799213,1009.2,,,TRUE,,,,,,,CLR,,,,,,,,VFR,,,,,,,,,,,,METAR,63.0
KSLE 221756Z 00000KT 10SM CLR 11/04 A2979 RMK AO2 SLP090 T01110039 10117 20017 51018,KSLE,2023-03-22T17:56:00Z,44.9,-123.0,11.1,3.9,0,0,,10.0,29.790354,1009.0,,,TRUE,,,,,,,CLR,,,,,,,,VFR,1.8,11.7,1.7,,,,,,,,,METAR,63.0
KSLE 221656Z 00000KT 10SM CLR 09/04 A2978 RMK AO2 SLP085 T00940039,KSLE,2023-03-22T16:56:00Z,44.9,-123.0,9.4,3.9,0,0,,10.0,29.778543,1008.5,,,TRUE,,,,,,,CLR,,,,,,,,VFR,,,,,,,,,,,,METAR,63.0
KSLE 221556Z 00000KT 10SM CLR 07/04 A2977 RMK AO2 SLP080 T00720039,KSLE,2023-03-22T15:56:00Z,44.9,-123.0,7.2,3.9,0,0,,10.0,29.769686,1008.0,,,TRUE,,,,,,,CLR,,,,,,,,VFR,,,,,,,,,,,,METAR,63.0
KSLE 221456Z 00000KT 10SM CLR 03/02 A2974 RMK AO2 SLP072 T00330017 53016,KSLE,2023-03-22T14:56:00Z,44.9,-123.0,3.3,1.7,0,0,,10.0,29.740158,1007.2,,,TRUE,,,,,,,CLR,,,,,,,,VFR,1.6,,,,,,,,,,,METAR,63.0
KSLE 221356Z 00000KT 10SM CLR 02/01 A2972 RMK AO2 SLP065 T00170006,KSLE,2023-03-22T13:56:00Z,44.9,-123.0,1.7,0.6,0,0,,10.0,29.719488,1006.5,,,TRUE,,,,,,,CLR,,,,,,,,VFR,,,,,,,,,,,,METAR,63.0
KSLE 221256Z AUTO 00000KT 10SM CLR 02/01 A2970 RMK AO2 SLP059 T00220011,KSLE,2023-03-22T12:56:00Z,44.9,-123.0,2.2,1.1,0,0,,10.0,29.698818,1005.9,,TRUE,TRUE,,,,,,,CLR,,,,,,,,VFR,,,,,,,,,,,,METAR,63.0
KSLE 221156Z AUTO 00000KT 10SM CLR 03/01 A2969 RMK AO2 SLP056 T00280011 10089 20028 51008,KSLE,2023-03-22T11:56:00Z,44.9,-123.0,2.8,1.1,0,0,,10.0,29.68996,1005.6,,TRUE,TRUE,,,,,,,CLR,,,,,,,,VFR,0.8,8.9,2.8,,,,,,,,,SPECI,63.0
KSLE 221056Z AUTO 00000KT 10SM CLR 03/02 A2969 RMK AO2 SLP054 T00330017,KSLE,2023-03-22T10:56:00Z,44.9,-123.0,3.3,1.7,0,0,,10.0,29.68996,1005.4,,TRUE,TRUE,,,,,,,CLR,,,,,,,,VFR,,,,,,,,,,,,METAR,63.0
KSLE 220956Z AUTO 22003KT 10SM CLR 04/01 A2968 RMK AO2 SLP052 T00390011,KSLE,2023-03-22T09:56:00Z,44.9,-123.0,3.9,1.1,220,3,,10.0,29.681103,1005.2,,TRUE,TRUE,,,,,,,CLR,,,,,,,,VFR,,,,,,,,,,,,METAR,63.0
KSLE 220856Z AUTO 22005KT 10SM CLR 04/02 A2967 RMK AO2 SLP048 T00440017 53007,KSLE,2023-03-22T08:56:00Z,44.9,-123.0,4.4,1.7,220,5,,10.0,29.66929,1004.8,,TRUE,TRUE,,,,,,,CLR,,,,,,,,VFR,0.7,,,,,,,,,,,METAR,63.0
KSLE 220756Z AUTO 00000KT 10SM CLR 07/02 A2966 RMK AO2 SLP043 T00670022 401781006,KSLE,2023-03-22T07:56:00Z,44.9,-123.0,6.7,2.2,0,0,,10.0,29.660433,1004.3,,TRUE,TRUE,,,,,,,CLR,,,,,,,,VFR,,,,17.8,-0.6,,,,,,,METAR,63.0
KSLE 220656Z AUTO 34004KT 10SM CLR 08/03 A2965 RMK AO2 SLP042 T00830028,KSLE,2023-03-22T06:56:00Z,44.9,-123.0,8.3,2.8,340,4,,10.0,29.648623,1004.2,,TRUE,TRUE,,,,,,,CLR,,,,,,,,VFR,,,,,,,,,,,,METAR,63.0
KSLE 220556Z AUTO 34005KT 10SM CLR 08/02 A2965 RMK AO2 SLP040 T00830022 10178 20083 52016,KSLE,2023-03-22T05:56:00Z,44.9,-123.0,8.3,2.2,340,5,,10.0,29.648623,1004.0,,TRUE,TRUE,,,,,,,CLR,,,,,,,,VFR,1.6,17.8,8.3,,,,,,,,,METAR,63.0
KSLE 220456Z AUTO 02005KT 10SM CLR 11/03 A2963 RMK AO2 SLP035 T01060028,KSLE,2023-03-22T04:56:00Z,44.9,-123.0,10.6,2.8,20,5,,10.0,29.630905,1003.5,,TRUE,TRUE,,,,,,,CLR,,,,,,,,VFR,,,,,,,,,,,,METAR,63.0
KSLE 220356Z AUTO 03009KT 10SM CLR 12/03 A2962 RMK AO2 SLP029 T01170028,KSLE,2023-03-22T03:56:00Z,44.9,-123.0,11.7,2.8,30,9,,10.0,29.619095,1002.9,,TRUE,TRUE,,,,,,,CLR,,,,,,,,VFR,,,,,,,,,,,,METAR,63.0
KSLE 220256Z 02009KT 10SM CLR 13/02 A2960 RMK AO2 SLP024 T01330022 53006,KSLE,2023-03-22T02:56:00Z,44.9,-123.0,13.3,2.2,20,9,,10.0,29.601377,1002.4,,,TRUE,,,,,,,CLR,,,,,,,,VFR,0.6,,,,,,,,,,,METAR,63.0
KSLE 220156Z 03012KT 10SM CLR 15/02 A2959 RMK AO2 SLP021 T01500017,KSLE,2023-03-22T01:56:00Z,44.9,-123.0,15.0,1.7,30,12,,10.0,29.589567,1002.1,,,TRUE,,,,,,,CLR,,,,,,,,VFR,,,,,,,,,,,,METAR,63.0
KSLE 220056Z 03017KT 10SM CLR 17/02 A2958 RMK AO2 SLP018 T01670017,KSLE,2023-03-22T00:56:00Z,44.9,-123.0,16.7,1.7,30,17,,10.0,29.58071,1001.8,,,TRUE,,,,,,,CLR,,,,,,,,VFR,,,,,,,,,,,,METAR,63.0
KSLE 212356Z 03015G20KT 10SM CLR 18/01 A2958 RMK AO2 SLP018 T01780011 10178 20072 58023,KSLE,2023-03-21T23:56:00Z,44.9,-123.0,17.8,1.1,30,15,20,10.0,29.58071,1001.8,,,TRUE,,,,,,,CLR,,,,,,,,VFR,-2.3,17.8,7.2,,,,,,,,,METAR,63.0
KSLE 212256Z 35017KT 10SM CLR 17/04 A2961 RMK AO2 SLP027 T01720044,KSLE,2023-03-21T22:56:00Z,44.9,-123.0,17.2,4.4,350,17,,10.0,29.610237,1002.7,,,TRUE,,,,,,,CLR,,,,,,,,VFR,,,,,,,,,,,,METAR,63.0
KSLE 212156Z 01010G20KT 10SM CLR 16/05 A2963 RMK AO2 SLP033 T01610050,KSLE,2023-03-21T21:56:00Z,44.9,-123.0,16.1,5.0,10,10,20,10.0,29.630905,1003.3,,,TRUE,,,,,,,CLR,,,,,,,,VFR,,,,,,,,,,,,METAR,63.0
KSLE 212056Z 01010G19KT 10SM CLR 14/05 A2965 RMK AO2 SLP041 T01440050 56029,KSLE,2023-03-21T20:56:00Z,44.9,-123.0,14.4,5.0,10,10,19,10.0,29.648623,1004.1,,,TRUE,,,,,,,CLR,,,,,,,,VFR,-2.9,,,,,,,,,,,METAR,63.0
KSLE 211956Z 01011KT 10SM FEW018 13/06 A2967 RMK AO2 SLP049 T01280056,KSLE,2023-03-21T19:56:00Z,44.9,-123.0,12.8,5.6,10,11,,10.0,29.66929,1004.9,,,TRUE,,,,,,,FEW,1800,,,,,,,VFR,,,,,,,,,,,,METAR,63.0
KSLE 211856Z 02009KT 10SM CLR 10/05 A2970 RMK AO2 SLP057 T01000050,KSLE,2023-03-21T18:56:00Z,44.9,-123.0,10.0,5.0,20,9,,10.0,29.698818,1005.7,,,TRUE,,,,,,,CLR,,,,,,,,VFR,,,,,,,,,,,,METAR,63.0
KSLE 211834Z 01011KT 10SM FEW013 09/05 A2971 RMK AO2 T00940050,KSLE,2023-03-21T18:34:00Z,44.9,-123.0,9.4,5.0,10,11,,10.0,29.71063,,,,TRUE,,,,,,,FEW,1300,,,,,,,VFR,,,,,,,,,,,,METAR,63.0
KSLE 211756Z 01007KT 10SM OVC010 07/04 A2974 RMK AO2 SLP070 T00670044 10067 20011 58018,KSLE,2023-03-21T17:56:00Z,44.9,-123.0,6.7,4.4,10,7,,10.0,29.740158,1007.0,,,TRUE,,,,,,,OVC,1000,,,,,,,MVFR,-1.8,6.7,1.1,,,,,,,,,METAR,63.0
KSLE 211656Z 01009KT 3SM BR BKN007 OVC010 06/04 A2976 RMK AO2 SLP078 T00560039,KSLE,2023-03-21T16:56:00Z,44.9,-123.0,5.6,3.9,10,9,,3.0,29.760826,1007.8,,,TRUE,,,,,,BR,BKN,700,OVC,1000,,,,,IFR,,,,,,,,,,,,METAR,63.0
KSLE 211605Z 35005KT 2 1/2SM BR BKN005 OVC014 04/03 A2978 RMK AO2 T00440033,KSLE,2023-03-21T16:05:00Z,44.9,-123.0,4.4,3.3,350,5,,2.5,29.778543,,,,TRUE,,,,,,BR,BKN,500,OVC,1400,,,,,IFR,,,,,,,,,,,,SPECI,63.0
KSLE 211558Z 34005KT 8SM OVC005 04/03 A2978 RMK AO2 CIG 004V009 T00390033,KSLE,2023-03-21T15:58:00Z,44.9,-123.0,3.9,3.3,340,5,,8.0,29.778543,,,,TRUE,,,,,,,OVC,500,,,,,,,IFR,,,,,,,,,,,,SPECI,63.0
KSLE 211556Z 35005KT 2 1/2SM BR OVC004 04/03 A2978 RMK AO2 SLP084 T00390033,KSLE,2023-03-21T15:56:00Z,44.9,-123.0,3.9,3.3,350,5,,2.5,29.778543,1008.4,,,TRUE,,,,,,BR,OVC,400,,,,,,,LIFR,,,,,,,,,,,,METAR,63.0
KSLE 211456Z 32003KT 2 1/2SM BR OVC004 03/02 A2979 RMK AO2 SLP087 T00280022 58002,KSLE,2023-03-21T14:56:00Z,44.9,-123.0,2.8,2.2,320,3,,2.5,29.790354,1008.7,,,TRUE,,,,,,BR,OVC,400,,,,,,,LIFR,-0.2,,,,,,,,,,,METAR,63.0
KSLE 211356Z AUTO 00000KT 1/4SM R31/2400V3500FT FG VV003 02/02 A2979 RMK AO2 SLP089 T00220017,KSLE,2023-03-21T13:56:00Z,44.9,-123.0,2.2,1.7,0,0,,0.25,29.790354,1008.9,,TRUE,TRUE,,,,,,FG,OVX,0,,,,,,,LIFR,,,,,,,,,,,300,METAR,63.0
KSLE 211309Z AUTO 00000KT 1/4SM R31/1800V2000FT FG VV003 02/02 A2979 RMK AO2 T00170017,KSLE,2023-03-21T13:09:00Z,44.9,-123.0,1.7,1.7,0,0,,0.25,29.790354,,,TRUE,TRUE,,,,,,FG,OVX,0,,,,,,,LIFR,,,,,,,,,,,300,SPECI,63.0
KSLE 211256Z AUTO 00000KT 1/2SM R31/2000V2200FT FG OVC002 02/02 A2979 RMK AO2 SLP089 T00220017,KSLE,2023-03-21T12:56:00Z,44.9,-123.0,2.2,1.7,0,0,,0.5,29.790354,1008.9,,TRUE,TRUE,,,,,,FG,OVC,200,,,,,,,LIFR,,,,,,,,,,,,METAR,63.0
KSLE 211253Z AUTO 00000KT 3/4SM R31/2000V4000FT BR OVC002 02/02 A2979 RMK AO2,KSLE,2023-03-21T12:53:00Z,44.9,-123.0,2.0,2.0,0,0,,0.75,29.790354,,,TRUE,TRUE,,,,,,BR,OVC,200,,,,,,,LIFR,,,,,,,,,,,,SPECI,63.0
KSLE 211233Z AUTO 00000KT 1 1/2SM BR OVC002 02/02 A2979 RMK AO2 VIS 3/4V2 1/2 T00170017,KSLE,2023-03-21T12:33:00Z,44.9,-123.0,1.7,1.7,0,0,,1.5,29.790354,,,TRUE,TRUE,,,,,,BR,OVC,200,,,,,,,LIFR,,,,,,,,,,,,METAR,63.0
KSLE 211224Z AUTO 34003KT 1 1/4SM R31/6000VP6000FT BR OVC002 02/01 A2979 RMK AO2 T00170011,KSLE,2023-03-21T12:24:00Z,44.9,-123.0,1.7,1.1,340,3,,1.25,29.790354,,,TRUE,TRUE,,,,,,BR,OVC,200,,,,,,,LIFR,,,,,,,,,,,,SPECI,63.0
KSLE 211213Z AUTO 36004KT 3/4SM R31/4000V5000FT BR OVC002 02/01 A2979 RMK AO2 T00170011,KSLE,2023-03-21T12:13:00Z,44.9,-123.0,1.7,1.1,360,4,,0.75,29.790354,,,TRUE,TRUE,,,,,,BR,OVC,200,,,,,,,LIFR,,,,,,,,,,,,SPECI,63.0
KSLE 211205Z AUTO 00000KT 1SM R31/4000VP6000FT BR OVC002 02/01 A2979 RMK AO2 T00170011,KSLE,2023-03-21T12:05:00Z,44.9,-123.0,1.7,1.1,0,0,,1.0,29.790354,,,TRUE,TRUE,,,,,,BR,OVC,200,,,,,,,LIFR,,,,,,,,,,,,SPECI,63.0
KSLE 211156Z AUTO 00000KT 1 3/4SM BR OVC003 01/01 A2979 RMK AO2 SLP090 70001 I6000 T00110011 10039 21006 56014,KSLE,2023-03-21T11:56:00Z,44.9,-123.0,1.1,1.1,0,0,,1.75,29.790354,1009.0,,TRUE,TRUE,,,,,,BR,OVC,300,,,,,,,LIFR,-1.4,3.9,-0.6,,,,,,0.01,,,METAR,63.0
KSLE 211147Z AUTO 33003KT 1 3/4SM BR OVC003 02/01 A2979 RMK AO2 VIS 3/4V5 T00170011,KSLE,2023-03-21T11:47:00Z,44.9,-123.0,1.7,1.1,330,3,,1.75,29.790354,,,TRUE,TRUE,,,,,,BR,OVC,300,,,,,,,LIFR,,,,,,,,,,,,METAR,63.0
KSLE 211124Z AUTO 35006KT 7SM BKN003 01/00 A2980 RMK AO2 T00060000,KSLE,2023-03-21T11:24:00Z,44.9,-123.0,0.6,0.0,350,6,,7.0,29.799213,,,TRUE,TRUE,,,,,,,BKN,300,,,,,,,LIFR,,,,,,,,,,,,SPECI,63.0
KSLE 211056Z AUTO 31004KT 5SM R31/2600V3500FT BR SCT002 01/00 A2980 RMK AO2 SLP093 T00060000,KSLE,2023-03-21T10:56:00Z,44.9,-123.0,0.6,0.0,310,4,,5.0,29.799213,1009.3,,TRUE,TRUE,,,,,,BR,SCT,200,,,,,,,MVFR,,,,,,,,,,,,METAR,63.0
KSLE 211053Z AUTO 31004KT 2SM R31/2600VP6000FT BR BKN002 01/M01 A2981 RMK AO2,KSLE,2023-03-21T10:53:00Z,44.9,-123.0,1.0,-1.0,310,4,,2.0,29.811024,,,TRUE,TRUE,,,,,,BR,BKN,200,,,,,,,LIFR,,,,,,,,,,,,METAR,63.0
KSLE 211049Z AUTO 31003KT 1 1/4SM R31/3000VP6000FT BR BKN002 00/M01 A2981 RMK AO2 T00001006,KSLE,2023-03-21T10:49:00Z,44.9,-123.0,0.0,-0.6,310,3,,1.25,29.811024,,,TRUE,TRUE,,,,,,BR,BKN,200,,,,,,,LIFR,,,,,,,,,,,,METAR,63.0
KSLE 211041Z AUTO 00000KT 1 3/4SM BR OVC002 00/M01 A2981 RMK AO2 T00001006,KSLE,2023-03-21T10:41:00Z,44.9,-123.0,0.0,-0.6,0,0,,1.75,29.811024,,,TRUE,TRUE,,,,,,BR,OVC,200,,,,,,,LIFR,,,,,,,,,,,,SPECI,63.0
KSLE 211022Z AUTO 00000KT 5SM R31/1800VP6000FT BR BKN002 00/M01 A2982 RMK AO2 T00001006,KSLE,2023-03-21T10:22:00Z,44.9,-123.0,0.0,-0.6,0,0,,5.0,29.819881,,,TRUE,TRUE,,,,,,BR,BKN,200,,,,,,,LIFR,,,,,,,,,,,,METAR,63.0
KSLE 211015Z AUTO 00000KT 2SM R31/1800VP6000FT BR FEW002 00/M01 A2982 RMK AO2 VIS 3/4V5 T00001011,KSLE,2023-03-21T10:15:00Z,44.9,-123.0,0.0,-1.1,0,0,,2.0,29.819881,,,TRUE,TRUE,,,,,,BR,FEW,200,,,,,,,IFR,,,,,,,,,,,,SPECI,63.0
KSLE 211001Z AUTO 32003KT 1 3/4SM R31/4500VP6000FT BR CLR 00/M01 A2982 RMK AO2 T00001006,KSLE,2023-03-21T10:01:00Z,44.9,-123.0,0.0,-0.6,320,3,,1.75,29.819881,,,TRUE,TRUE,,,,,,BR,CLR,,,,,,,,IFR,,,,,,,,,,,,SPECI,63.0
KSLE 210956Z AUTO 00000KT 3/4SM R31/6000VP6000FT BR CLR 00/M01 A2982 RMK AO2 SLP100 I1000 T00001006,KSLE,2023-03-21T09:56:00Z,44.9,-123.0,0.0,-0.6,0,0,,0.75,29.819881,1010.0,,TRUE,TRUE,,,,,,BR,CLR,,,,,,,,LIFR,,,,,,,,,,,,METAR,63.0
KSLE 210950Z AUTO 00000KT 3/4SM R31/4000VP6000FT BR CLR 00/M01 A2983 RMK AO2,KSLE,2023-03-21T09:50:00Z,44.9,-123.0,0.0,-1.0,0,0,,0.75,29.828741,,,TRUE,TRUE,,,,,,BR,CLR,,,,,,,,LIFR,,,,,,,,,,,,METAR,63.0
KSLE 210943Z AUTO 00000KT 1 3/4SM R31/3500VP6000FT BR CLR 01/00 A2983 RMK AO2 VIS 3/4V5 T00060000,KSLE,2023-03-21T09:43:00Z,44.9,-123.0,0.6,0.0,0,0,,1.75,29.828741,,,TRUE,TRUE,,,,,,BR,CLR,,,,,,,,IFR,,,,,,,,,,,,SPECI,63.0
KSLE 210929Z AUTO 00000KT 8SM R31/3500VP6000FT CLR 01/00 A2983 RMK AO2 T00060000,KSLE,2023-03-21T09:29:00Z,44.9,-123.0,0.6,0.0,0,0,,8.0,29.828741,,,TRUE,TRUE,,,,,,,CLR,,,,,,,,VFR,,,,,,,,,,,,SPECI,63.0
KSLE 210922Z AUTO 00000KT 2SM BR CLR 01/00 A2983 RMK AO2 T00110000,KSLE,2023-03-21T09:22:00Z,44.9,-123.0,1.1,0.0,0,0,,2.0,29.828741,,,TRUE,TRUE,,,,,,BR,CLR,,,,,,,,IFR,,,,,,,,,,,,SPECI,63.0
KSLE 210919Z AUTO 00000KT 1 1/4SM BR CLR 01/00 A2983 RMK AO2 T00060000,KSLE,2023-03-21T09:19:00Z,44.9,-123.0,0.6,0.0,0,0,,1.25,29.828741,,,TRUE,TRUE,,,,,,BR,CLR,,,,,,,,IFR,,,,,,,,,,,,SPECI,63.0
KSLE 210912Z AUTO 00000KT 1 1/2SM BR CLR 01/00 A2984 RMK AO2 VIS 1/2V5 T00060000,KSLE,2023-03-21T09:12:00Z,44.9,-123.0,0.6,0.0,0,0,,1.5,29.840551,,,TRUE,TRUE,,,,,,BR,CLR,,,,,,,,IFR,,,,,,,,,,,,SPECI,63.0
KSLE 210856Z AUTO 00000KT 9SM CLR 01/01 A2984 RMK AO2 SLP104 T00110006 58009,KSLE,2023-03-21T08:56:00Z,44.9,-123.0,1.1,0.6,0,0,,9.0,29.840551,1010.4,,TRUE,TRUE,,,,,,,CLR,,,,,,,,VFR,-0.9,,,,,,,,,,,METAR,63.0
KSLE 210845Z AUTO 23003KT 9SM CLR 01/01 A2984 RMK AO2 T00110006,KSLE,2023-03-21T08:45:00Z,44.9,-123.0,1.1,0.6,230,3,,9.0,29.840551,,,TRUE,TRUE,,,,,,,CLR,,,,,,,,VFR,,,,,,,,,,,,SPECI,63.0
KSLE 210826Z AUTO 00000KT 2 1/2SM BR CLR 01/01 A2984 RMK AO2 VIS 1 1/4V5 T00110006,KSLE,2023-03-21T08:26:00Z,44.9,-123.0,1.1,0.6,0,0,,2.5,29.840551,,,TRUE,TRUE,,,,,,BR,CLR,,,,,,,,IFR,,,,,,,,,,,,SPECI,63.0
KSLE 210756Z AUTO 00000KT 10SM CLR 02/01 A2984 RMK AO2 SLP106 T00170011 401000017,KSLE,2023-03-21T07:56:00Z,44.9,-123.0,1.7,1.1,0,0,,10.0,29.840551,1010.6,,TRUE,TRUE,,,,,,,CLR,,,,,,,,VFR,,,,10.0,1.7,,,,,,,METAR,63.0
KSLE 210656Z AUTO 00000KT 10SM CLR 02/01 A2986 RMK AO2 SLP112 T00220011,KSLE,2023-03-21T06:56:00Z,44.9,-123.0,2.2,1.1,0,0,,10.0,29.861221,1011.2,,TRUE,TRUE,,,,,,,CLR,,,,,,,,VFR,,,,,,,,,,,,METAR,63.0
KSLE 210556Z AUTO 00000KT 10SM FEW055 04/02 A2986 RMK AO2 SLP113 60000 T00390022 10089 20039 52004,KSLE,2023-03-21T05:56:00Z,44.9,-123.0,3.9,2.2,0,0,,10.0,29.861221,1011.3,,TRUE,TRUE,,,,,,,FEW,5500,,,,,,,VFR,0.4,8.9,3.9,,,,,,,,,SPECI,63.0
KSLE 210456Z AUTO 00000KT 10SM CLR 06/02 A2986 RMK AO2 SLP112 T00560022,KSLE,2023-03-21T04:56:00Z,44.9,-123.0,5.6,2.2,0,0,,10.0,29.861221,1011.2,,TRUE,TRUE,,,,,,,CLR,,,,,,,,VFR,,,,,,,,,,,,METAR,63.0
KSLE 210356Z AUTO 23004KT 10SM OVC050 07/03 A2986 RMK AO2 SLP111 T00670033,KSLE,2023-03-21T03:56:00Z,44.9,-123.0,6.7,3.3,230,4,,10.0,29.861221,1011.1,,TRUE,TRUE,,,,,,,OVC,5000,,,,,,,VFR,,,,,,,,,,,,METAR,63.0
KSLE 210256Z 24005KT 10SM OVC065 07/03 A2985 RMK AO2 SLP109 60000 T00720033 53007,KSLE,2023-03-21T02:56:00Z,44.9,-123.0,7.2,3.3,240,5,,10.0,29.84941,1010.9,,,TRUE,,,,,,,OVC,6500,,,,,,,VFR,0.7,,,,,,0.005,,,,,METAR,63.0
KSLE 210156Z 23008KT 10SM OVC065 08/04 A2984 RMK AO2 RAB16E34 SLP107 P0000 T00830039,KSLE,2023-03-21T01:56:00Z,44.9,-123.0,8.3,3.9,230,8,,10.0,29.840551,1010.7,,,TRUE,,,,,,,OVC,6500,,,,,,,VFR,,,,,,0.005,,,,,,METAR,63.0
KSLE 210056Z VRB06KT 10SM OVC050 09/05 A2983 RMK AO2 RAE13 SLP103 P0000 T00890050,KSLE,2023-03-21T00:56:00Z,44.9,-123.0,8.9,5.0,0,6,,10.0,29.828741,1010.3,,,TRUE,,,,,,,OVC,5000,,,,,,,VFR,,,,,,0.005,,,,,,METAR,63.0
KSLE 210033Z 21008KT 10SM FEW021 SCT025 OVC050 09/06 A2983 RMK AO2 RAE13 P0000 T00890056,KSLE,2023-03-21T00:33:00Z,44.9,-123.0,8.9,5.6,210,8,,10.0,29.828741,,,,TRUE,,,,,,,FEW,2100,SCT,2500,OVC,5000,,,VFR,,,,,,0.005,,,,,,SPECI,63.0
KSLE 202356Z 21010KT 10SM -RA BKN018 BKN028 OVC035 09/06 A2983 RMK AO2 RAB08E20B54 SLP102 P0000 60001 T00890056 10100 20072 53006,KSLE,2023-03-20T23:56:00Z,44.9,-123.0,8.9,5.6,210,10,,10.0,29.828741,1010.2,,,TRUE,,,,,,-RA,BKN,1800,BKN,2800,OVC,3500,,,MVFR,0.6,10.0,7.2,,,0.005,,0.01,,,,METAR,63.0
KSLE 202303Z 19011KT 10SM BKN018 BKN028 OVC035 09/06 A2982 RMK AO2 T00940056,KSLE,2023-03-20T23:03:00Z,44.9,-123.0,9.4,5.6,190,11,,10.0,29.819881,,,,TRUE,,,,,,,BKN,1800,BKN,2800,OVC,3500,,,MVFR,,,,,,,,,,,,SPECI,63.0
KSLE 202256Z COR 19011KT 4SM -RA BKN011 BKN032 OVC043 09/06 A2982 RMK AO2 RAE17 SLP099 P0000 T00940056,KSLE,2023-03-20T22:56:00Z,44.9,-123.0,9.4,5.6,190,11,,4.0,29.819881,1009.9,TRUE,,TRUE,,,,,,-RA,BKN,1100,BKN,3200,OVC,4300,,,MVFR,,,,,,0.005,,,,,,METAR,63.0
KSLE 202203Z 19010KT 4SM -RA BR BKN011 BKN032 OVC043 09/07 A2982 RMK AO2 P0000 T00890067,KSLE,2023-03-20T22:03:00Z,44.9,-123.0,8.9,6.7,190,10,,4.0,29.819881,,,,TRUE,,,,,,-RA BR,BKN,1100,BKN,3200,OVC,4300,,,MVFR,,,,,,0.005,,,,,,METAR,63.0
KSLE 202156Z COR 19010KT 4SM -RA BKN011 BKN017 OVC032 08/06 A2982 RMK AO2 SLP098 P0001 T00830061,KSLE,2023-03-20T21:56:00Z,44.9,-123.0,8.3,6.1,190,10,,4.0,29.819881,1009.8,TRUE,,TRUE,,,,,,-RA,BKN,1100,BKN,1700,OVC,3200,,,MVFR,,,,,,0.01,,,,,,METAR,63.0
KSLE 202056Z 19014G22KT 8SM -RA BKN011 BKN017 OVC032 08/06 A2981 RMK AO2 SLP096 P0000 60000 T00830056 53007,KSLE,2023-03-20T20:56:00Z,44.9,-123.0,8.3,5.6,190,14,22,8.0,29.811024,1009.6,,,TRUE,,,,,,-RA,BKN,1100,BKN,1700,OVC,3200,,,MVFR,0.7,,,,,0.005,0.005,,,,,METAR,63.0
KSLE 202010Z 19013KT 10SM -RA BKN011 OVC017 09/06 A2981 RMK AO2 P0000 T00890056,KSLE,2023-03-20T20:10:00Z,44.9,-123.0,8.9,5.6,190,13,,10.0,29.811024,,,,TRUE,,,,,,-RA,BKN,1100,OVC,1700,,,,,MVFR,,,,,,0.005,,,,,,SPECI,63.0
KSLE 202003Z 19014KT 10SM -RA OVC021 09/06 A2981 RMK AO2 P0000 T00890056,KSLE,2023-03-20T20:03:00Z,44.9,-123.0,8.9,5.6,190,14,,10.0,29.811024,,,,TRUE,,,,,,-RA,OVC,2100,,,,,,,MVFR,,,,,,0.005,,,,,,SPECI,63.0
KSLE 201956Z 18014KT 10SM -RA BKN011 OVC017 09/06 A2980 RMK AO2 SLP093 P0000 T00890056,KSLE,2023-03-20T19:56:00Z,44.9,-123.0,8.9,5.6,180,14,,10.0,29.799213,1009.3,,,TRUE,,,,,,-RA,BKN,1100,OVC,1700,,,,,MVFR,,,,,,0.005,,,,,,SPECI,63.0
KSLE 201856Z 18011G17KT 4SM -RA BKN011 OVC017 08/05 A2980 RMK AO2 RAB20 SLP093 P0000 T00780050,KSLE,2023-03-20T18:56:00Z,44.9,-123.0,7.8,5.0,180,11,17,4.0,29.799213,1009.3,,,TRUE,,,,,,-RA,BKN,1100,OVC,1700,,,,,MVFR,,,,,,0.005,,,,,,SPECI,63.0
KSLE 201833Z 18017G21KT 4SM -RA BKN011 OVC017 08/05 A2980 RMK AO2 RAB20 P0000 T00780050,KSLE,2023-03-20T18:33:00Z,44.9,-123.0,7.8,5.0,180,17,21,4.0,29.799213,,,,TRUE,,,,,,-RA,BKN,1100,OVC,1700,,,,,MVFR,,,,,,0.005,,,,,,SPECI,63.0
KSLE 201756Z 18010G22KT 6SM BR BKN017 OVC035 07/06 A2979 RMK AO2 RAE30 SLP090 P0000 60000 T00720056 10078 20072 52019,KSLE,2023-03-20T17:56:00Z,44.9,-123.0,7.2,5.6,180,10,22,6.0,29.790354,1009.0,,,TRUE,,,,,,BR,BKN,1700,OVC,3500,,,,,MVFR,1.9,7.8,7.2,,,0.005,,0.005,,,,METAR,63.0
KSLE 201731Z 18013KT 6SM BR BKN015 BKN029 OVC047 07/05 A2979 RMK AO2 RAE30 P0000 T00720050,KSLE,2023-03-20T17:31:00Z,44.9,-123.0,7.2,5.0,180,13,,6.0,29.790354,,,,TRUE,,,,,,BR,BKN,1500,BKN,2900,OVC,4700,,,MVFR,,,,,,0.005,,,,,,METAR,63.0
KSLE 201656Z 17016G21KT 3SM -RA BR BKN009 OVC015 07/05 A2978 RMK AO2 RAB39 SLP084 P0000 T00720050,KSLE,2023-03-20T16:56:00Z,44.9,-123.0,7.2,5.0,170,16,21,3.0,29.778543,1008.4,,,TRUE,,,,,,-RA BR,BKN,900,OVC,1500,,,,,IFR,,,,,,0.005,,,,,,METAR,63.0
KSLE 201556Z 18014KT 10SM BKN010 OVC018 07/04 A2975 RMK AO2 RAE10B38E48 SLP075 P0000 T00720044,KSLE,2023-03-20T15:56:00Z,44.9,-123.0,7.2,4.4,180,14,,10.0,29.749016,1007.5,,,TRUE,,,,,,,BKN,1000,OVC,1800,,,,,MVFR,,,,,,0.005,,,,,,METAR,63.0
KSLE 201543Z 18013KT 2 1/2SM -RA OVC009 07/04 A2975 RMK AO2 RAE10B38 P0000 T00720044,KSLE,2023-03-20T15:43:00Z,44.9,-123.0,7.2,4.4,180,13,,2.5,29.749016,,,,TRUE,,,,,,-RA,OVC,900,,,,,,,IFR,,,,,,0.005,,,,,,SPECI,63.0
KSLE 201456Z 18012KT 5SM -RA OVC020 07/04 A2974 RMK AO2 RAB23 SLP070 P0000 60000 T00720044 51021,KSLE,2023-03-20T14:56:00Z,44.9,-123.0,7.2,4.4,180,12,,5.0,29.740158,1007.0,,,TRUE,,,,,,-RA,OVC,2000,,,,,,,MVFR,2.1,,,,,0.005,0.005,,,,,METAR,63.0
KSLE 201411Z 18014KT 10SM FEW024 BKN028 OVC047 07/04 A2972 RMK AO2 T00720044,KSLE,2023-03-20T14:11:00Z,44.9,-123.0,7.2,4.4,180,14,,10.0,29.719488,,,,TRUE,,,,,,,FEW,2400,BKN,2800,OVC,4700,,,MVFR,,,,,,,,,,,,SPECI,63.0
KSLE 201356Z 17011KT 6SM HZ BKN034 OVC080 07/04 A2971 RMK AO2 SLP063 T00720044,KSLE,2023-03-20T13:56:00Z,44.9,-123.0,7.2,4.4,170,11,,6.0,29.71063,1006.3,,,TRUE,,,,,,HZ,BKN,3400,OVC,8000,,,,,VFR,,,,,,,,,,,,METAR,63.0
KSLE 201256Z AUTO 18014G21KT 10SM OVC080 07/05 A2970 RMK AO2 SLP057 T00720050,KSLE,2023-03-20T12:56:00Z,44.9,-123.0,7.2,5.0,180,14,21,10.0,29.698818,1005.7,,TRUE,TRUE,,,,,,,OVC,8000,,,,,,,VFR,,,,,,,,,,,,METAR,63.0
KSLE 201156Z AUTO 18012G17KT 10SM SCT080 08/06 A2967 RMK AO2 RAE08 SLP049 P0001 60006 70025 T00780061 10094 20078 53011,KSLE,2023-03-20T11:56:00Z,44.9,-123.0,7.8,6.1,180,12,17,10.0,29.66929,1004.9,,TRUE,TRUE,,,,,,,SCT,8000,,,,,,,VFR,1.1,9.4,7.8,,,0.01,,0.06,0.25,,,METAR,63.0
KSLE 201056Z AUTO 18009KT 7SM -RA FEW026 BKN042 OVC049 08/07 A2965 RMK AO2 RAE00B41 SLP042 P0000 T00830072,KSLE,2023-03-20T10:56:00Z,44.9,-123.0,8.3,7.2,180,9,,7.0,29.648623,1004.2,,TRUE,TRUE,,,,,,-RA,FEW,2600,BKN,4200,OVC,4900,,,VFR,,,,,,0.005,,,,,,METAR,63.0
KSLE 200956Z AUTO 16007KT 10SM -RA BKN043 OVC070 08/07 A2964 RMK AO2 RAB17 SLP038 P0005 T00830067,KSLE,2023-03-20T09:56:00Z,44.9,-123.0,8.3,6.7,160,7,,10.0,29.639763,1003.8,,TRUE,TRUE,,,,,,-RA,BKN,4300,OVC,7000,,,,,VFR,,,,,,0.05,,,,,,METAR,63.0
KSLE 200934Z AUTO 16006KT 5SM -RA BR SCT009 BKN031 OVC041 09/07 A2964 RMK AO2 RAB17 P0002 T00890072,KSLE,2023-03-20T09:34:00Z,44.9,-123.0,8.9,7.2,160,6,,5.0,29.639763,,,TRUE,TRUE,,,,,,-RA BR,SCT,900,BKN,3100,OVC,4100,,,MVFR,,,,,,0.02,,,,,,SPECI,63.0
KSLE 200922Z AUTO 24005KT 9SM -RA BKN011 BKN025 OVC034 09/07 A2965 RMK AO2 RAB17 CIG 008V015 P0000 T00890072,KSLE,2023-03-20T09:22:00Z,44.9,-123.0,8.9,7.2,240,5,,9.0,29.648623,,,TRUE,TRUE,,,,,,-RA,BKN,1100,BKN,2500,OVC,3400,,,MVFR,,,,,,0.005,,,,,,SPECI,63.0
KSLE 200856Z AUTO 20006KT 10SM SCT039 OVC055 09/07 A2964 RMK AO2 SLP038 60000 T00890072 53004,KSLE,2023-03-20T08:56:00Z,44.9,-123.0,8.9,7.2,200,6,,10.0,29.639763,1003.8,,TRUE,TRUE,,,,,,,SCT,3900,OVC,5500,,,,,VFR,0.4,,,,,,0.005,,,,,METAR,63.0
KSLE 200756Z AUTO 18008KT 10SM FEW032 FEW039 BKN050 09/07 A2963 RMK AO2 RAB30E39 SLP035 P0000 T00940072 401060061,KSLE,2023-03-20T07:56:00Z,44.9,-123.0,9.4,7.2,180,8,,10.0,29.630905,1003.5,,TRUE,TRUE,,,,,,,FEW,3200,FEW,3900,BKN,5000,,,VFR,,,,10.6,6.1,0.005,,,,,,METAR,63.0
KSLE 200656Z AUTO 15004KT 9SM FEW011 BKN034 OVC042 09/08 A2963 RMK AO2 SLP035 T00940083,KSLE,2023-03-20T06:56:00Z,44.9,-123.0,9.4,8.3,150,4,,9.0,29.630905,1003.5,,TRUE,TRUE,,,,,,,FEW,1100,BKN,3400,OVC,4200,,,VFR,,,,,,,,,,,,METAR,63.0
KSLE 200556Z AUTO 16006KT 10SM BKN035 BKN070 OVC085 09/08 A2963 RMK AO2 RAB32E45 SLP034 P0000 60013 T00940078 10100 20083 53002,KSLE,2023-03-20T05:56:00Z,44.9,-123.0,9.4,7.8,160,6,,10.0,29.630905,1003.4,,TRUE,TRUE,,,,,,,BKN,3500,BKN,7000,OVC,8500,,,VFR,0.2,10.0,8.3,,,0.005,,0.13,,,,METAR,63.0
KSLE 200456Z AUTO 00000KT 9SM FEW037 SCT046 OVC065 08/08 A2962 RMK AO2 RAE22 SLP032 P0001 T00830078,KSLE,2023-03-20T04:56:00Z,44.9,-123.0,8.3,7.8,0,0,,9.0,29.619095,1003.2,,TRUE,TRUE,,,,,,,FEW,3700,SCT,4600,OVC,6500,,,VFR,,,,,,0.01,,,,,,METAR,63.0
KSLE 200429Z AUTO 21003KT 10SM FEW006 BKN050 OVC065 09/08 A2963 RMK AO2 RAE22 P0001 T00890078,KSLE,2023-03-20T04:29:00Z,44.9,-123.0,8.9,7.8,210,3,,10.0,29.630905,,,TRUE,TRUE,,,,,,,FEW,600,BKN,5000,OVC,6500,,,VFR,,,,,,0.01,,,,,,SPECI,63.0
KSLE 200419Z AUTO 00000KT 7SM -RA FEW006 BKN021 OVC055 09/08 A2963 RMK AO2 P0001 T00890083,KSLE,2023-03-20T04:19:00Z,44.9,-123.0,8.9,8.3,0,0,,7.0,29.630905,,,TRUE,TRUE,,,,,,-RA,FEW,600,BKN,2100,OVC,5500,,,MVFR,,,,,,0.01,,,,,,SPECI,63.0
KSLE 200356Z 00000KT 7SM -RA OVC022 09/08 A2963 RMK AO2 SLP033 P0002 T00890083,KSLE,2023-03-20T03:56:00Z,44.9,-123.0,8.9,8.3,0,0,,7.0,29.630905,1003.3,,,TRUE,,,,,,-RA,OVC,2200,,,,,,,MVFR,,,,,,0.02,,,,,,METAR,63.0
KSLE 200308Z 13003KT 9SM -RA SCT024 BKN029 OVC044 09/08 A2962 RMK AO2 P0000 T00890083,KSLE,2023-03-20T03:08:00Z,44.9,-123.0,8.9,8.3,130,3,,9.0,29.619095,,,,TRUE,,,,,,-RA,SCT,2400,BKN,2900,OVC,4400,,,MVFR,,,,,,0.005,,,,,,SPECI,63.0
KSLE 200256Z 00000KT 7SM -RA SCT024 BKN045 OVC049 09/08 A2962 RMK AO2 SLP032 P0003 60010 T00940083 56012,KSLE,2023-03-20T02:56:00Z,44.9,-123.0,9.4,8.3,0,0,,7.0,29.619095,1003.2,,,TRUE,,,,,,-RA,SCT,2400,BKN,4500,OVC,4900,,,VFR,-1.2,,,,,0.03,0.1,,,,,METAR,63.0
KSLE 200156Z 13003KT 5SM -RA BR OVC050 09/08 A2963 RMK AO2 SLP034 P0004 T00940083,KSLE,2023-03-20T01:56:00Z,44.9,-123.0,9.4,8.3,130,3,,5.0,29.630905,1003.4,,,TRUE,,,,,,-RA BR,OVC,5000,,,,,,,MVFR,,,,,,0.04,,,,,,METAR,63.0
KSLE 200108Z 15003KT 5SM -RA BR SCT030 BKN036 OVC060 10/08 A2964 RMK AO2 P0001 T01000083,KSLE,2023-03-20T01:08:00Z,44.9,-123.0,10.0,8.3,150,3,,5.0,29.639763,,,,TRUE,,,,,,-RA BR,SCT,3000,BKN,3600,OVC,6000,,,MVFR,,,,,,0.01,,,,,,METAR,63.0
KSLE 200056Z 15003KT 6SM -RA BR BKN029 OVC036 10/08 A2964 RMK AO2 SLP038 P0003 T01000083,KSLE,2023-03-20T00:56:00Z,44.9,-123.0,10.0,8.3,150,3,,6.0,29.639763,1003.8,,,TRUE,,,,,,-RA BR,BKN,2900,OVC,3600,,,,,MVFR,,,,,,0.03,,,,,,METAR,63.0
KSLE 200047Z 15003KT 6SM -RA BR BKN031 OVC036 10/08 A2965 RMK AO2 P0003 T01000083,KSLE,2023-03-20T00:47:00Z,44.9,-123.0,10.0,8.3,150,3,,6.0,29.648623,,,,TRUE,,,,,,-RA BR,BKN,3100,OVC,3600,,,,,VFR,,,,,,0.03,,,,,,METAR,63.0
KSLE 200040Z 15004KT 5SM -RA BR FEW008 BKN029 OVC036 10/08 A2965 RMK AO2 P0003 T01000083,KSLE,2023-03-20T00:40:00Z,44.9,-123.0,10.0,8.3,150,4,,5.0,29.648623,,,,TRUE,,,,,,-RA BR,FEW,800,BKN,2900,OVC,3600,,,MVFR,,,,,,0.03,,,,,,SPECI,63.0
KSLE 200031Z 16003KT 5SM -RA BR SCT008 OVC032 10/08 A2965 RMK AO2 P0002 T01000083,KSLE,2023-03-20T00:31:00Z,44.9,-123.0,10.0,8.3,160,3,,5.0,29.648623,,,,TRUE,,,,,,-RA BR,SCT,800,OVC,3200,,,,,MVFR,,,,,,0.02,,,,,,SPECI,63.0
KSLE 200003Z 07003KT 5SM -RA BR BKN009 BKN036 OVC046 10/08 A2966 RMK AO2 P0001 T01000083,KSLE,2023-03-20T00:03:00Z,44.9,-123.0,10.0,8.3,70,3,,5.0,29.660433,,,,TRUE,,,,,,-RA BR,BKN,900,BKN,3600,OVC,4600,,,IFR,,,,,,0.01,,,,,,SPECI,63.0
KSLE 192356Z 09003KT 4SM -RA BR BKN020 BKN046 OVC060 10/08 A2966 RMK AO2 SLP044 P0002 60006 T01000083 10106 20100 56014,KSLE,2023-03-19T23:56:00Z,44.9,-123.0,10.0,8.3,90,3,,4.0,29.660433,1004.4,,,TRUE,,,,,,-RA BR,BKN,2000,BKN,4600,OVC,6000,,,MVFR,-1.4,10.6,10.0,,,0.02,,0.06,,,,METAR,63.0
KSLE 192256Z 00000KT 4SM -RA BKN020 BKN048 OVC060 11/07 A2967 RMK AO2 SLP048 P0001 T01060072,KSLE,2023-03-19T22:56:00Z,44.9,-123.0,10.6,7.2,0,0,,4.0,29.66929,1004.8,,,TRUE,,,,,,-RA,BKN,2000,BKN,4800,OVC,6000,,,MVFR,,,,,,0.01,,,,,,METAR,63.0
KSLE 192156Z 00000KT 4SM -RA SCT013 SCT047 OVC060 10/06 A2969 RMK AO2 SLP053 P0000 T01000061,KSLE,2023-03-19T21:56:00Z,44.9,-123.0,10.0,6.1,0,0,,4.0,29.68996,1005.3,,,TRUE,,,,,,-RA,SCT,1300,SCT,4700,OVC,6000,,,MVFR,,,,,,0.005,,,,,,METAR,63.0
KSLE 192056Z 33003KT 10SM -RA OVC050 11/06 A2970 RMK AO2 SLP058 P0001 60003 T01060061 56015,KSLE,2023-03-19T20:56:00Z,44.9,-123.0,10.6,6.1,330,3,,10.0,29.698818,1005.8,,,TRUE,,,,,,-RA,OVC,5000,,,,,,,VFR,-1.5,,,,,0.01,0.03,,,,,METAR,63.0
KSLE 191956Z 33004KT 4SM -RA OVC060 11/07 A2971 RMK AO2 SLP061 P0001 T01060067,KSLE,2023-03-19T19:56:00Z,44.9,-123.0,10.6,6.7,330,4,,4.0,29.71063,1006.1,,,TRUE,,,,,,-RA,OVC,6000,,,,,,,MVFR,,,,,,0.01,,,,,,METAR,63.0
KSLE 191856Z 00000KT 5SM R31/5000VP6000FT -RA BKN010 OVC055 11/07 A2973 RMK AO2 RAB06 SLP068 P0001 T01060067,KSLE,2023-03-19T18:56:00Z,44.9,-123.0,10.6,6.7,0,0,,5.0,29.731298,1006.8,,,TRUE,,,,,,-RA,BKN,1000,OVC,5500,,,,,MVFR,,,,,,0.01,,,,,,METAR,63.0
KSLE 191756Z 14004KT 6SM HZ BKN010 BKN060 OVC095 10/06 A2975 RMK AO2 RAB03E13 SLP073 P0000 60000 T01000056 10106 20061 55007,KSLE,2023-03-19T17:56:00Z,44.9,-123.0,10.0,5.6,140,4,,6.0,29.749016,1007.3,,,TRUE,,,,,,HZ,BKN,1000,BKN,6000,OVC,9500,,,MVFR,-0.7,10.6,6.1,,,0.005,,,,,,SPECI,63.0
KSLE 191656Z 27003KT 10SM BKN010 BKN060 OVC095 09/05 A2974 RMK AO2 RAB45E55 SLP072 P0000 T00890050,KSLE,2023-03-19T16:56:00Z,44.9,-123.0,8.9,5.0,270,3,,10.0,29.740158,1007.2,,,TRUE,,,,,,,BKN,1000,BKN,6000,OVC,9500,,,MVFR,,,,,,0.005,,,,,,METAR,63.0
KSLE 191556Z 16006KT 6SM HZ BKN010 08/05 A2976 RMK AO2 SLP078 T00780050,KSLE,2023-03-19T15:56:00Z,44.9,-123.0,7.8,5.0,160,6,,6.0,29.760826,1007.8,,,TRUE,,,,,,HZ,BKN,1000,,,,,,,MVFR,,,,,,,,,,,,METAR,63.0
KSLE 191456Z 15007KT 6SM BR BKN120 07/04 A2977 RMK AO2 SLP080 T00670044 58002,KSLE,2023-03-19T14:56:00Z,44.9,-123.0,6.7,4.4,150,7,,6.0,29.769686,1008.0,,,TRUE,,,,,,BR,BKN,12000,,,,,,,VFR,-0.2,,,,,,,,,,,METAR,63.0
KSLE 191356Z 14003KT 6SM HZ SCT110 07/04 A2977 RMK AO2 SLP082 T00720039,KSLE,2023-03-19T13:56:00Z,44.9,-123.0,7.2,3.9,140,3,,6.0,29.769686,1008.2,,,TRUE,,,,,,HZ,SCT,11000,,,,,,,VFR,,,,,,,,,,,,METAR,63.0
KSLE 191256Z AUTO 19003KT 10SM SCT120 07/04 A2978 RMK AO2 SLP084 T00720044,KSLE,2023-03-19T12:56:00Z,44.9,-123.0,7.2,4.4,190,3,,10.0,29.778543,1008.4,,TRUE,TRUE,,,,,,,SCT,12000,,,,,,,VFR,,,,,,,,,,,,METAR,63.0
KSLE 191156Z AUTO 00000KT 10SM CLR 07/04 A2977 RMK AO2 SLP081 T00720044 10117 20061 58015,KSLE,2023-03-19T11:56:00Z,44.9,-123.0,7.2,4.4,0,0,,10.0,29.769686,1008.1,,TRUE,TRUE,,,,,,,CLR,,,,,,,,VFR,-1.5,11.7,6.1,,,,,,,,,METAR,63.0
KSLE 191056Z AUTO 00000KT 10SM CLR 07/04 A2979 RMK AO2 SLP086 T00670039,KSLE,2023-03-19T10:56:00Z,44.9,-123.0,6.7,3.9,0,0,,10.0,29.790354,1008.6,,TRUE,TRUE,,,,,,,CLR,,,,,,,,VFR,,,,,,,,,,,,METAR,63.0
KSLE 190956Z AUTO 00000KT 10SM CLR 08/04 A2981 RMK AO2 SLP093 T00780044,KSLE,2023-03-19T09:56:00Z,44.9,-123.0,7.8,4.4,0,0,,10.0,29.811024,1009.3,,TRUE,TRUE,,,,,,,CLR,,,,,,,,VFR,,,,,,,,,,,,METAR,63.0
KSLE 190856Z AUTO 00000KT 10SM CLR 09/04 A2982 RMK AO2 SLP096 T00890044 56015,KSLE,2023-03-19T08:56:00Z,44.9,-123.0,8.9,4.4,0,0,,10.0,29.819881,1009.6,,TRUE,TRUE,,,,,,,CLR,,,,,,,,VFR,-1.5,,,,,,,,,,,METAR,63.0
KSLE 190756Z AUTO 02003KT 10SM CLR 11/05 A2983 RMK AO2 SLP099 T01060050 401890011,KSLE,2023-03-19T07:56:00Z,44.9,-123.0,10.6,5.0,20,3,,10.0,29.828741,1009.9,,TRUE,TRUE,,,,,,,CLR,,,,,,,,VFR,,,,18.9,1.1,,,,,,,METAR,63.0
KSLE 190656Z AUTO 31005KT 10SM CLR 11/05 A2984 RMK AO2 SLP106 T01110050,KSLE,2023-03-19T06:56:00Z,44.9,-123.0,11.1,5.0,310,5,,10.0,29.840551,1010.6,,TRUE,TRUE,,,,,,,CLR,,,,,,,,VFR,,,,,,,,,,,,METAR,63.0
KSLE 190556Z AUTO 00000KT 10SM CLR 11/06 A2986 RMK AO2 SLP112 T01060056 10189 20100 58006,KSLE,2023-03-19T05:56:00Z,44.9,-123.0,10.6,5.6,0,0,,10.0,29.861221,1011.2,,TRUE,TRUE,,,,,,,CLR,,,,,,,,VFR,-0.6,18.9,10.0,,,,,,,,,METAR,63.0
KSLE 190456Z AUTO 31004KT 10SM CLR 12/06 A2987 RMK AO2 SLP116 T01170056,KSLE,2023-03-19T04:56:00Z,44.9,-123.0,11.7,5.6,310,4,,10.0,29.870079,1011.6,,TRUE,TRUE,,,,,,,CLR,,,,,,,,VFR,,,,,,,,,,,,METAR,63.0
KSLE 190356Z AUTO 00000KT 10SM CLR 12/06 A2988 RMK AO2 SLP118 T01170061,KSLE,2023-03-19T03:56:00Z,44.9,-123.0,11.7,6.1,0,0,,10.0,29.878937,1011.8,,TRUE,TRUE,,,,,,,CLR,,,,,,,,VFR,,,,,,,,,,,,METAR,63.0
KSLE 190256Z 00000KT 10SM CLR 13/06 A2988 RMK AO2 SLP119 T01280056 56007,KSLE,2023-03-19T02:56:00Z,44.9,-123.0,12.8,5.6,0,0,,10.0,29.878937,1011.9,,,TRUE,,,,,,,CLR,,,,,,,,VFR,-0.7,,,,,,,,,,,METAR,63.0
KSLE 190156Z 01003KT 10SM CLR 15/05 A2988 RMK AO2 SLP119 T01500050,KSLE,2023-03-19T01:56:00Z,44.9,-123.0,15.0,5.0,10,3,,10.0,29.878937,1011.9,,,TRUE,,,,,,,CLR,,,,,,,,VFR,,,,,,,,,,,,METAR,63.0
KSLE 190056Z 05006KT 10SM CLR 17/06 A2989 RMK AO2 SLP122 T01720056,KSLE,2023-03-19T00:56:00Z,44.9,-123.0,17.2,5.6,50,6,,10.0,29.890747,1012.2,,,TRUE,,,,,,,CLR,,,,,,,,VFR,,,,,,,,,,,,SPECI,63.0
KSLE 182356Z 00000KT 10SM CLR 18/03 A2990 RMK AO2 SLP124 T01830033 10189 20106 56022,KSLE,2023-03-18T23:56:00Z,44.9,-123.0,18.3,3.3,0,0,,10.0,29.899607,1012.4,,,TRUE,,,,,,,CLR,,,,,,,,VFR,-2.2,18.9,10.6,,,,,,,,,METAR,63.0
KSLE 182256Z 00000KT 6SM HZ CLR 18/04 A2992 RMK AO2 SLP131 T01780044,KSLE,2023-03-18T22:56:00Z,44.9,-123.0,17.8,4.4,0,0,,6.0,29.920275,1013.1,,,TRUE,,,,,,HZ,CLR,,,,,,,,VFR,,,,,,,,,,,,METAR,63.0
KSLE 182156Z 12003KT 6SM HZ CLR 17/04 A2993 RMK AO2 SLP137 T01670039,KSLE,2023-03-18T21:56:00Z,44.9,-123.0,16.7,3.9,120,3,,6.0,29.929134,1013.7,,,TRUE,,,,,,HZ,CLR,,,,,,,,VFR,,,,,,,,,,,,METAR,63.0
KSLE 182056Z 00000KT 10SM CLR 16/04 A2997 RMK AO2 SLP147 T01560039 58026,KSLE,2023-03-18T20:56:00Z,44.9,-123.0,15.6,3.9,0,0,,10.0,29.970472,1014.7,,,TRUE,,,,,,,CLR,,,,,,,,VFR,-2.6,,,,,,,,,,,SPECI,63.0
KSLE 181956Z 00000KT 6SM HZ CLR 14/04 A2999 RMK AO2 SLP157 T01390044,KSLE,2023-03-18T19:56:00Z,44.9,-123.0,13.9,4.4,0,0,,6.0,29.991142,1015.7,,,TRUE,,,,,,HZ,CLR,,,,,,,,VFR,,,,,,,,,,,,SPECI,63.0
KSLE 181856Z 05003KT 10SM CLR 12/05 A3002 RMK AO2 SLP166 T01220050,KSLE,2023-03-18T18:56:00Z,44.9,-123.0,12.2,5.0,50,3,,10.0,30.02067,1016.6,,,TRUE,,,,,,,CLR,,,,,,,,VFR,,,,,,,,,,,,SPECI,63.0
KSLE 181756Z 03003KT 10SM CLR 11/05 A3004 RMK AO2 SLP174 T01060050 10106 20011 56004,KSLE,2023-03-18T17:56:00Z,44.9,-123.0,10.6,5.0,30,3,,10.0,30.041338,1017.4,,,TRUE,,,,,,,CLR,,,,,,,,VFR,-0.4,10.6,1.1,,,,,,,,,METAR,63.0
KSLE 181656Z 00000KT 10SM CLR 09/04 A3004 RMK AO2 SLP174 T00890039,KSLE,2023-03-18T16:56:00Z,44.9,-123.0,8.9,3.9,0,0,,10.0,30.041338,1017.4,,,TRUE,,,,,,,CLR,,,,,,,,VFR,,,,,,,,,,,,METAR,63.0
KSLE 181556Z 00000KT 10SM CLR 07/04 A3005 RMK AO2 SLP177 T00670039,KSLE,2023-03-18T15:56:00Z,44.9,-123.0,6.7,3.9,0,0,,10.0,30.050198,1017.7,,,TRUE,,,,,,,CLR,,,,,,,,VFR,,,,,,,,,,,,METAR,63.0
KSLE 181456Z 00000KT 10SM CLR 02/02 A3005 RMK AO2 SLP177 T00220017 58006,KSLE,2023-03-18T14:56:00Z,44.9,-123.0,2.2,1.7,0,0,,10.0,30.050198,1017.7,,,TRUE,,,,,,,CLR,,,,,,,,VFR,-0.6,,,,,,,,,,,METAR,63.0
KSLE 181356Z 00000KT 10SM CLR 02/01 A3007 RMK AO2 SLP182 T00220011,KSLE,2023-03-18T13:56:00Z,44.9,-123.0,2.2,1.1,0,0,,10.0,30.070866,1018.2,,,TRUE,,,,,,,CLR,,,,,,,,VFR,,,,,,,,,,,,METAR,63.0
KSLE 181256Z AUTO 00000KT 10SM CLR 03/02 A3007 RMK AO2 SLP184 T00280017,KSLE,2023-03-18T12:56:00Z,44.9,-123.0,2.8,1.7,0,0,,10.0,30.070866,1018.4,,TRUE,TRUE,,,,,,,CLR,,,,,,,,VFR,,,,,,,,,,,,SPECI,63.0
KSLE 181156Z AUTO 00000KT 10SM CLR 05/03 A3007 RMK AO2 SLP184 T00500033 10083 20039 56003,KSLE,2023-03-18T11:56:00Z,44.9,-123.0,5.0,3.3,0,0,,10.0,30.070866,1018.4,,TRUE,TRUE,,,,,,,CLR,,,,,,,,VFR,-0.3,8.3,3.9,,,,,,,,,METAR,63.0
KSLE 181056Z AUTO 13003KT 10SM OVC095 06/03 A3007 RMK AO2 SLP184 T00560028,KSLE,2023-03-18T10:56:00Z,44.9,-123.0,5.6,2.8,130,3,,10.0,30.070866,1018.4,,TRUE,TRUE,,,,,,,OVC,9500,,,,,,,VFR,,,,,,,,,,,,SPECI,63.0
KSLE 180956Z AUTO 14003KT 10SM BKN100 06/03 A3007 RMK AO2 SLP184 T00560033,KSLE,2023-03-18T09:56:00Z,44.9,-123.0,5.6,3.3,140,3,,10.0,30.070866,1018.4,,TRUE,TRUE,,,,,,,BKN,10000,,,,,,,VFR,,,,,,,,,,,,METAR,63.0
KSLE 180856Z AUTO 15003KT 10SM OVC120 07/04 A3008 RMK AO2 SLP187 T00720039 58002,KSLE,2023-03-18T08:56:00Z,44.9,-123.0,7.2,3.9,150,3,,10.0,30.079725,1018.7,,TRUE,TRUE,,,,,,,OVC,12000,,,,,,,VFR,-0.2,,,,,,,,,,,METAR,63.0
KSLE 180756Z AUTO 00000KT 10SM CLR 07/03 A3009 RMK AO2 SLP189 T00720033 401671006,KSLE,2023-03-18T07:56:00Z,44.9,-123.0,7.2,3.3,0,0,,10.0,30.088583,1018.9,,TRUE,TRUE,,,,,,,CLR,,,,,,,,VFR,,,,16.7,-0.6,,,,,,,METAR,63.0
KSLE 180656Z AUTO 00000KT 10SM CLR 08/04 A3009 RMK AO2 SLP189 T00780039,KSLE,2023-03-18T06:56:00Z,44.9,-123.0,7.8,3.9,0,0,,10.0,30.088583,1018.9,,TRUE,TRUE,,,,,,,CLR,,,,,,,,VFR,,,,,,,,,,,,METAR,63.0
KSLE 180556Z AUTO 00000KT 10SM CLR 08/04 A3009 RMK AO2 SLP188 T00780039 10161 20072 51008,KSLE,2023-03-18T05:56:00Z,44.9,-123.0,7.8,3.9,0,0,,10.0,30.088583,1018.8,,TRUE,TRUE,,,,,,,CLR,,,,,,,,VFR,0.8,16.1,7.2,,,,,,,,,SPECI,63.0
KSLE 180456Z AUTO 17003KT 10SM CLR 08/04 A3008 RMK AO2 SLP188 T00780039,KSLE,2023-03-18T04:56:00Z,44.9,-123.0,7.8,3.9,170,3,,10.0,30.079725,1018.8,,TRUE,TRUE,,,,,,,CLR,,,,,,,,VFR,,,,,,,,,,,,METAR,63.0
KSLE 180356Z AUTO 24004KT 10SM CLR 11/04 A3007 RMK AO2 SLP184 T01060039,KSLE,2023-03-18T03:56:00Z,44.9,-123.0,10.6,3.9,240,4,,10.0,30.070866,1018.4,,TRUE,TRUE,,,,,,,CLR,,,,,,,,VFR,,,,,,,,,,,,SPECI,63.0
KSLE 180256Z COR 00000KT 10SM CLR 12/03 A3006 RMK AO2 SLP180 T01220028 55000,KSLE,2023-03-18T02:56:00Z,44.9,-123.0,12.2,2.8,0,0,,10.0,30.059055,1018.0,TRUE,,TRUE,,,,,,,CLR,,,,,,,,VFR,0.0,,,,,,,,,,,METAR,63.0
KSLE 180156Z 08004KT 10SM CLR 14/03 A3006 RMK AO2 SLP180 T01390028,KSLE,2023-03-18T01:56:00Z,44.9,-123.0,13.9,2.8,80,4,,10.0,30.059055,1018.0,,,TRUE,,,,,,,CLR,,,,,,,,VFR,,,,,,,,,,,,SPECI,63.0
KSLE 180056Z 08004KT 10SM CLR 15/02 A3006 RMK AO2 SLP180 T01500022,KSLE,2023-03-18T00:56:00Z,44.9,-123.0,15.0,2.2,80,4,,10.0,30.059055,1018.0,,,TRUE,,,,,,,CLR,,,,,,,,VFR,,,,,,,,,,,,METAR,63.0
KSLE 172356Z 00000KT 10SM CLR 16/01 A3006 RMK AO2 SLP180 T01610011 10167 20100 56015,KSLE,2023-03-17T23:56:00Z,44.9,-123.0,16.1,1.1,0,0,,10.0,30.059055,1018.0,,,TRUE,,,,,,,CLR,,,,,,,,VFR,-1.5,16.7,10.0,,,,,,,,,METAR,63.0
KSLE 172256Z 10003KT 10SM CLR 16/01 A3007 RMK AO2 SLP183 T01610011,KSLE,2023-03-17T22:56:00Z,44.9,-123.0,16.1,1.1,100,3,,10.0,30.070866,1018.3,,,TRUE,,,,,,,CLR,,,,,,,,VFR,,,,,,,,,,,,METAR,63.0
KSLE 172156Z 00000KT 10SM CLR 16/01 A3008 RMK AO2 SLP187 T01610006,KSLE,2023-03-17T21:56:00Z,44.9,-123.0,16.1,0.6,0,0,,10.0,30.079725,1018.7,,,TRUE,,,,,,,CLR,,,,,,,,VFR,,,,,,,,,,,,METAR,63.0
KSLE 172056Z VRB03KT 10SM CLR 15/01 A3011 RMK AO2 SLP195 T01500011 58011,KSLE,2023-03-17T20:56:00Z,44.9,-123.0,15.0,1.1,0,3,,10.0,30.109253,1019.5,,,TRUE,,,,,,,CLR,,,,,,,,VFR,-1.1,,,,,,,,,,,METAR,63.0
KSLE 171956Z 00000KT 10SM CLR 14/00 A3012 RMK AO2 SLP201 T01390000,KSLE,2023-03-17T19:56:00Z,44.9,-123.0,13.9,0.0,0,0,,10.0,30.121063,1020.1,,,TRUE,,,,,,,CLR,,,,,,,,VFR,,,,,,,,,,,,METAR,63.0
KSLE 171856Z 00000KT 10SM CLR 12/M01 A3013 RMK AO2 SLP204 T01171006,KSLE,2023-03-17T18:56:00Z,44.9,-123.0,11.7,-0.6,0,0,,10.0,30.129921,1020.4,,,TRUE,,,,,,,CLR,,,,,,,,VFR,,,,,,,,,,,,METAR,63.0
KSLE 171756Z 33005KT 10SM CLR 11/M01 A3014 RMK AO2 SLP206 T01061006 10106 21006 51006,KSLE,2023-03-17T17:56:00Z,44.9,-123.0,10.6,-0.6,330,5,,10.0,30.138779,1020.6,,,TRUE,,,,,,,CLR,,,,,,,,VFR,0.6,10.6,-0.6,,,,,,,,,METAR,63.0
KSLE 171656Z 00000KT 10SM CLR 08/01 A3014 RMK AO2 SLP206 T00830006,KSLE,2023-03-17T16:56:00Z,44.9,-123.0,8.3,0.6,0,0,,10.0,30.138779,1020.6,,,TRUE,,,,,,,CLR,,,,,,,,VFR,,,,,,,,,,,,METAR,63.0
KSLE 171556Z 00000KT 10SM CLR 04/01 A3013 RMK AO2 SLP203 T00390006,KSLE,2023-03-17T15:56:00Z,44.9,-123.0,3.9,0.6,0,0,,10.0,30.129921,1020.3,,,TRUE,,,,,,,CLR,,,,,,,,VFR,,,,,,,,,,,,METAR,63.0
KSLE 171456Z 00000KT 10SM CLR 00/M02 A3012 RMK AO2 SLP200 T00001017 53006,KSLE,2023-03-17T14:56:00Z,44.9,-123.0,0.0,-1.7,0,0,,10.0,30.121063,1020.0,,,TRUE,,,,,,,CLR,,,,,,,,VFR,0.6,,,,,,,,,,,METAR,63.0
KSLE 171356Z 00000KT 10SM CLR 01/M02 A3011 RMK AO2 SLP198 T00061017,KSLE,2023-03-17T13:56:00Z,44.9,-123.0,0.6,-1.7,0,0,,10.0,30.109253,1019.8,,,TRUE,,,,,,,CLR,,,,,,,,VFR,,,,,,,,,,,,METAR,63.0
KSLE 171256Z AUTO 00000KT 10SM CLR 00/M02 A3011 RMK AO2 SLP195 T00001022,KSLE,2023-03-17T12:56:00Z,44.9,-123.0,0.0,-2.2,0,0,,10.0,30.109253,1019.5,,TRUE,TRUE,,,,,,,CLR,,,,,,,,VFR,,,,,,,,,,,,METAR,63.0
KSLE 171156Z AUTO 00000KT 10SM CLR 01/M01 A3010 RMK AO2 SLP194 T00061011 10067 20000 51001,KSLE,2023-03-17T11:56:00Z,44.9,-123.0,0.6,-1.1,0,0,,10.0,30.100393,1019.4,,TRUE,TRUE,,,,,,,CLR,,,,,,,,VFR,0.1,6.7,0.0,,,,,,,,,METAR,63.0
KSLE 171056Z AUTO 00000KT 10SM CLR 01/M01 A3010 RMK AO2 SLP194 T00111011,KSLE,2023-03-17T10:56:00Z,44.9,-123.0,1.1,-1.1,0,0,,10.0,30.100393,1019.4,,TRUE,TRUE,,,,,,,CLR,,,,,,,,VFR,,,,,,,,,,,,METAR,63.0
KSLE 170956Z AUTO 00000KT 10SM CLR 02/M01 A3010 RMK AO2 SLP194 T00171011,KSLE,2023-03-17T09:56:00Z,44.9,-123.0,1.7,-1.1,0,0,,10.0,30.100393,1019.4,,TRUE,TRUE,,,,,,,CLR,,,,,,,,VFR,,,,,,,,,,,,METAR,63.0
KSLE 170856Z AUTO 00000KT 10SM CLR 02/M01 A3010 RMK AO2 SLP193 T00221006 51006,KSLE,2023-03-17T08:56:00Z,44.9,-123.0,2.2,-0.6,0,0,,10.0,30.100393,1019.3,,TRUE,TRUE,,,,,,,CLR,,,,,,,,VFR,0.6,,,,,,,,,,,METAR,63.0
KSLE 170756Z AUTO 00000KT 10SM CLR 03/00 A3010 RMK AO2 SLP193 T00330000 401671011,KSLE,2023-03-17T07:56:00Z,44.9,-123.0,3.3,0.0,0,0,,10.0,30.100393,1019.3,,TRUE,TRUE,,,,,,,CLR,,,,,,,,VFR,,,,16.7,-1.1,,,,,,,METAR,63.0
KSLE 170656Z AUTO 24003KT 10SM CLR 06/00 A3010 RMK AO2 SLP193 T00560000,KSLE,2023-03-17T06:56:00Z,44.9,-123.0,5.6,0.0,240,3,,10.0,30.100393,1019.3,,TRUE,TRUE,,,,,,,CLR,,,,,,,,VFR,,,,,,,,,,,,METAR,63.0
KSLE 170556Z AUTO 00000KT 10SM CLR 07/00 A3008 RMK AO2 SLP186 T00670000 10167 20056 53019,KSLE,2023-03-17T05:56:00Z,44.9,-123.0,6.7,0.0,0,0,,10.0,30.079725,1018.6,,TRUE,TRUE,,,,,,,CLR,,,,,,,,VFR,1.9,16.7,5.6,,,,,,,,,SPECI,63.0
KSLE 170456Z AUTO 00000KT 10SM CLR 08/00 A3005 RMK AO2 SLP175 T00780000,KSLE,2023-03-17T04:56:00Z,44.9,-123.0,7.8,0.0,0,0,,10.0,30.050198,1017.5,,TRUE,TRUE,,,,,,,CLR,,,,,,,,VFR,,,,,,,,,,,,METAR,63.0
KSLE 170356Z AUTO 00000KT 10SM CLR 11/00 A3003 RMK AO2 SLP170 T01060000,KSLE,2023-03-17T03:56:00Z,44.9,-123.0,10.6,0.0,0,0,,10.0,30.029528,1017.0,,TRUE,TRUE,,,,,,,CLR,,,,,,,,VFR,,,,,,,,,,,,METAR,63.0
KSLE 170256Z 32005KT 10SM CLR 12/01 A3002 RMK AO2 SLP167 T01220011 55007,KSLE,2023-03-17T02:56:00Z,44.9,-123.0,12.2,1.1,320,5,,10.0,30.02067,1016.7,,,TRUE,,,,,,,CLR,,,,,,,,VFR,-0.7,,,,,,,,,,,METAR,63.0
KSLE 170156Z 33008KT 10SM CLR 14/01 A3002 RMK AO2 SLP166 T01440006,KSLE,2023-03-17T01:56:00Z,44.9,-123.0,14.4,0.6,330,8,,10.0,30.02067,1016.6,,,TRUE,,,,,,,CLR,,,,,,,,VFR,,,,,,,,,,,,METAR,63.0
KSLE 170056Z 35006KT 10SM CLR 16/01 A3003 RMK AO2 SLP168 T01610006,KSLE,2023-03-17T00:56:00Z,44.9,-123.0,16.1,0.6,350,6,,10.0,30.029528,1016.8,,,TRUE,,,,,,,CLR,,,,,,,,VFR,,,,,,,,,,,,METAR,63.0
KSLE 162356Z 36007KT 10SM CLR 16/02 A3004 RMK AO2 SLP174 T01610017 10161 20061 56025,KSLE,2023-03-16T23:56:00Z,44.9,-123.0,16.1,1.7,360,7,,10.0,30.041338,1017.4,,,TRUE,,,,,,,CLR,,,,,,,,VFR,-2.5,16.1,6.1,,,,,,,,,METAR,63.0
KSLE 162256Z COR 01005KT 10SM CLR 16/01 A3007 RMK AO2 SLP182 T01560011,KSLE,2023-03-16T22:56:00Z,44.9,-123.0,15.6,1.1,10,5,,10.0,30.070866,1018.2,TRUE,,TRUE,,,,,,,CLR,,,,,,,,VFR,,,,,,,,,,,,METAR,63.0
KSLE 162156Z 35007KT 10SM CLR 14/01 A3008 RMK AO2 SLP188 T01440011,KSLE,2023-03-16T21:56:00Z,44.9,-123.0,14.4,1.1,350,7,,10.0,30.079725,1018.8,,,TRUE,,,,,,,CLR,,,,,,,,VFR,,,,,,,,,,,,METAR,63.0
KSLE 162056Z 01005KT 10SM CLR 12/01 A3012 RMK AO2 SLP200 T01220011 58019,KSLE,2023-03-16T20:56:00Z,44.9,-123.0,12.2,1.1,10,5,,10.0,30.121063,1020.0,,,TRUE,,,,,,,CLR,,,,,,,,VFR,-1.9,,,,,,,,,,,METAR,63.0
KSLE 161956Z 35006KT 10SM CLR 10/02 A3014 RMK AO2 SLP207 T01000017,KSLE,2023-03-16T19:56:00Z,44.9,-123.0,10.0,1.7,350,6,,10.0,30.138779,1020.7,,,TRUE,,,,,,,CLR,,,,,,,,VFR,,,,,,,,,,,,METAR,63.0
KSLE 161856Z VRB03KT 10SM CLR 08/01 A3016 RMK AO2 SLP213 T00830011,KSLE,2023-03-16T18:56:00Z,44.9,-123.0,8.3,1.1,0,3,,10.0,30.159449,1021.3,,,TRUE,,,,,,,CLR,,,,,,,,VFR,,,,,,,,,,,,METAR,63.0
KSLE 161756Z 02006KT 10SM CLR 07/01 A3017 RMK AO2 SLP219 I6000 T00670006 10067 21011 56003,KSLE,2023-03-16T17:56:00Z,44.9,-123.0,6.7,0.6,20,6,,10.0,30.171259,1021.9,,,TRUE,,,,,,,CLR,,,,,,,,VFR,-0.3,6.7,-1.1,,,,,,,,,SPECI,63.0
KSLE 161656Z 02005KT 10SM CLR 05/01 A3018 RMK AO2 SLP220 T00500006,KSLE,2023-03-16T16:56:00Z,44.9,-123.0,5.0,0.6,20,5,,10.0,30.180119,1022.0,,,TRUE,,,,,,,CLR,,,,,,,,VFR,,,,,,,,,,,,SPECI,63.0
KSLE 161556Z 00000KT 10SM CLR 02/01 A3018 RMK AO2 SLP221 T00220006,KSLE,2023-03-16T15:56:00Z,44.9,-123.0,2.2,0.6,0,0,,10.0,30.180119,1022.1,,,TRUE,,,,,,,CLR,,,,,,,,VFR,,,,,,,,,,,,METAR,63.0
KSLE 161456Z 00000KT 10SM CLR M01/M02 A3018 RMK AO2 SLP223 I1000 I3000 T10061017 51000,KSLE,2023-03-16T14:56:00Z,44.9,-123.0,-0.6,-1.7,0,0,,10.0,30.180119,1022.3,,,TRUE,,,,,,,CLR,,,,,,,,VFR,0.0,,,,,,,,,,,METAR,63.0
KSLE 161356Z 00000KT 10SM CLR M01/M01 A3018 RMK AO2 SLP222 I1000 T10061011,KSLE,2023-03-16T13:56:00Z,44.9,-123.0,-0.6,-1.1,0,0,,10.0,30.180119,1022.2,,,TRUE,,,,,,,CLR,,,,,,,,VFR,,,,,,,,,,,,METAR,63.0
KSLE 161256Z AUTO 36003KT 10SM CLR 02/00 A3019 RMK AO2 SLP222 T00170000,KSLE,2023-03-16T12:56:00Z,44.9,-123.0,1.7,0.0,360,3,,10.0,30.188976,1022.2,,TRUE,TRUE,,,,,,,CLR,,,,,,,,VFR,,,,,,,,,,,,METAR,63.0
