No errors
No warnings
26 ms
data source=metars
425 results
raw_text,station_id,observation_time,latitude,longitude,temp_c,dewpoint_c,wind_dir_degrees,wind_speed_kt,wind_gust_kt,visibility_statute_mi,altim_in_hg,sea_level_pressure_mb,corrected,auto,auto_station,maintenance_indicator_on,no_signal,lightning_sensor_off,freezing_rain_sensor_off,present_weather_sensor_off,wx_string,sky_cover,cloud_base_ft_agl,sky_cover,cloud_base_ft_agl,sky_cover,cloud_base_ft_agl,sky_cover,cloud_base_ft_agl,flight_category,three_hr_pressure_tendency_mb,maxT_c,minT_c,maxT24hr_c,minT24hr_c,precip_in,pcp3hr_in,pcp6hr_in,pcp24hr_in,snow_in,vert_vis_ft,metar_type,elevation_m
KTKI 021653Z 00000KT 10SM CLR 21/17 A2958 RMK AO2 SLP019 T02060167,KTKI,2023-03-02T16:53:00Z,33.18,-96.58,20.6,16.7,0,0,,10.0,29.58071,1001.9,,,TRUE,,,,,,,CLR,,,,,,,,VFR,,,,,,,,,,,,METAR,173.0
KTKI 021553Z 00000KT 10SM CLR 18/16 A2960 RMK AO2 SLP027 T01830156,KTKI,2023-03-02T15:53:00Z,33.18,-96.58,18.3,15.6,0,0,,10.0,29.601377,1002.7,,,TRUE,,,,,,,CLR,,,,,,,,VFR,,,,,,,,,,,,METAR,173.0
KTKI 021453Z 00000KT 7SM CLR 17/15 A2961 RMK AO2 SLP031 T01670150 53004,KTKI,2023-03-02T14:53:00Z,33.18,-96.58,16.7,15.0,0,0,,7.0,29.610237,1003.1,,,TRUE,,,,,,,CLR,,,,,,,,VFR,0.4,,,,,,,,,,,METAR,173.0
KTKI 021353Z 00000KT 6SM BR CLR 14/13 A2960 RMK AO2 SLP028 T01440133,KTKI,2023-03-02T13:53:00Z,33.18,-96.58,14.4,13.3,0,0,,6.0,29.601377,1002.8,,,TRUE,,,,,,BR,CLR,,,,,,,,VFR,,,,,,,,,,,,METAR,173.0
KTKI 021253Z 05004KT 10SM BKN007 13/12 A2959 RMK AO2 SLP022 T01330122,KTKI,2023-03-02T12:53:00Z,33.18,-96.58,13.3,12.2,50,4,,10.0,29.589567,1002.2,,,TRUE,,,,,,,BKN,700,,,,,,,IFR,,,,,,,,,,,,METAR,173.0
KTKI 021153Z 07003KT 10SM FEW008 14/12 A2960 RMK AO2 SLP027 70002 T01390117 10150 20133 56017,KTKI,2023-03-02T11:53:00Z,33.18,-96.58,13.9,11.7,70,3,,10.0,29.601377,1002.7,,,TRUE,,,,,,,FEW,800,,,,,,,VFR,-1.7,15.0,13.3,,,,,,0.02,,,METAR,173.0
KTKI 021151Z 00000KT 10SM SCT008 14/12 A2960 RMK AO2,KTKI,2023-03-02T11:51:00Z,33.18,-96.58,14.0,12.0,0,0,,10.0,29.601377,,,,TRUE,,,,,,,SCT,800,,,,,,,VFR,,,,,,,,,,,,METAR,173.0
KTKI 021137Z AUTO 04003KT 10SM BKN009 14/12 A2961 RMK AO2 T01390117,KTKI,2023-03-02T11:37:00Z,33.18,-96.58,13.9,11.7,40,3,,10.0,29.610237,,,TRUE,TRUE,,,,,,,BKN,900,,,,,,,IFR,,,,,,,,,,,,METAR,173.0
KTKI 021101Z AUTO 06003KT 10SM OVC013 14/12 A2963 RMK AO2 T01440117,KTKI,2023-03-02T11:01:00Z,33.18,-96.58,14.4,11.7,60,3,,10.0,29.630905,,,TRUE,TRUE,,,,,,,OVC,1300,,,,,,,MVFR,,,,,,,,,,,,SPECI,173.0
KTKI 021053Z AUTO 00000KT 10SM OVC015 14/12 A2963 RMK AO2 SLP038 T01440117,KTKI,2023-03-02T10:53:00Z,33.18,-96.58,14.4,11.7,0,0,,10.0,29.630905,1003.8,,TRUE,TRUE,,,,,,,OVC,1500,,,,,,,MVFR,,,,,,,,,,,,METAR,173.0
KTKI 021012Z AUTO 00000KT 10SM BKN020 14/10 A2964 RMK AO2 T01390100,KTKI,2023-03-02T10:12:00Z,33.18,-96.58,13.9,10.0,0,0,,10.0,29.639763,,,TRUE,TRUE,,,,,,,BKN,2000,,,,,,,MVFR,,,,,,,,,,,,SPECI,173.0
KTKI 020953Z AUTO 03004KT 10SM CLR 13/10 A2965 RMK AO2 SLP044 T01330100,KTKI,2023-03-02T09:53:00Z,33.18,-96.58,13.3,10.0,30,4,,10.0,29.648623,1004.4,,TRUE,TRUE,,,,,,,CLR,,,,,,,,VFR,,,,,,,,,,,,METAR,173.0
KTKI 020853Z AUTO 06003KT 10SM CLR 14/09 A2968 RMK AO2 SLP053 T01390094 57024,KTKI,2023-03-02T08:53:00Z,33.18,-96.58,13.9,9.4,60,3,,10.0,29.681103,1005.3,,TRUE,TRUE,,,,,,,CLR,,,,,,,,VFR,-2.4,,,,,,,,,,,SPECI,173.0
KTKI 020806Z AUTO 00000KT 10SM SCT008 14/09 A2970 RMK AO2 T01390089,KTKI,2023-03-02T08:06:00Z,33.18,-96.58,13.9,8.9,0,0,,10.0,29.698818,,,TRUE,TRUE,,,,,,,SCT,800,,,,,,,VFR,,,,,,,,,,,,METAR,173.0
KTKI 020753Z AUTO 09004KT 10SM BKN008 BKN013 14/08 A2971 RMK AO2 SLP063 T01440083,KTKI,2023-03-02T07:53:00Z,33.18,-96.58,14.4,8.3,90,4,,10.0,29.71063,1006.3,,TRUE,TRUE,,,,,,,BKN,800,BKN,1300,,,,,IFR,,,,,,,,,,,,METAR,173.0
KTKI 020735Z AUTO 10003KT 10SM BKN009 13/09 A2972 RMK AO2 T01330094,KTKI,2023-03-02T07:35:00Z,33.18,-96.58,13.3,9.4,100,3,,10.0,29.719488,,,TRUE,TRUE,,,,,,,BKN,900,,,,,,,IFR,,,,,,,,,,,,SPECI,173.0
KTKI 020653Z AUTO 01004KT 10SM CLR 13/09 A2972 RMK AO2 SLP067 T01330089,KTKI,2023-03-02T06:53:00Z,33.18,-96.58,13.3,8.9,10,4,,10.0,29.719488,1006.7,,TRUE,TRUE,,,,,,,CLR,,,,,,,,VFR,,,,,,,,,,,,METAR,173.0
KTKI 020622Z AUTO 02004KT 10SM SCT029 14/09 A2973 RMK AO2 T01390094,KTKI,2023-03-02T06:22:00Z,33.18,-96.58,13.9,9.4,20,4,,10.0,29.731298,,,TRUE,TRUE,,,,,,,SCT,2900,,,,,,,VFR,,,,,,,,,,,,METAR,173.0
KTKI 020553Z AUTO 33005KT 10SM BKN028 14/09 A2975 RMK AO2 SLP076 T01440094 10167 20133 402170133 55000,KTKI,2023-03-02T05:53:00Z,33.18,-96.58,14.4,9.4,330,5,,10.0,29.749016,1007.6,,TRUE,TRUE,,,,,,,BKN,2800,,,,,,,MVFR,0.0,16.7,13.3,21.7,13.3,,,,,,,METAR,173.0
KTKI 020453Z AUTO 00000KT 10SM CLR 14/10 A2975 RMK AO2 SLP077 T01390100 TSNO,KTKI,2023-03-02T04:53:00Z,33.18,-96.58,13.9,10.0,0,0,,10.0,29.749016,1007.7,,TRUE,TRUE,,,TRUE,,,,CLR,,,,,,,,VFR,,,,,,,,,,,,SPECI,173.0
KTKI 020353Z AUTO 00000KT 10SM CLR 14/09 A2975 RMK AO2 SLP077 T01390094,KTKI,2023-03-02T03:53:00Z,33.18,-96.58,13.9,9.4,0,0,,10.0,29.749016,1007.7,,TRUE,TRUE,,,,,,,CLR,,,,,,,,VFR,,,,,,,,,,,,METAR,173.0
KTKI 020253Z 00000KT 10SM CLR 16/09 A2975 RMK AO2 SLP077 T01560089 55003,KTKI,2023-03-02T02:53:00Z,33.18,-96.58,15.6,8.9,0,0,,10.0,29.749016,1007.7,,,TRUE,,,,,,,CLR,,,,,,,,VFR,-0.3,,,,,,,,,,,METAR,173.0
KTKI 020153Z 12006KT 10SM CLR 16/09 A2973 RMK AO2 PRESFR SLP071 T01560089,KTKI,2023-03-02T01:53:00Z,33.18,-96.58,15.6,8.9,120,6,,10.0,29.731298,1007.1,,,TRUE,,,,,,,CLR,,,,,,,,VFR,,,,,,,,,,,,SPECI,173.0
KTKI 020053Z 35006KT 10SM SCT033 16/09 A2978 RMK AO2 PRESRR SLP086 T01610094,KTKI,2023-03-02T00:53:00Z,33.18,-96.58,16.1,9.4,350,6,,10.0,29.778543,1008.6,,,TRUE,,,,,,,SCT,3300,,,,,,,VFR,,,,,,,,,,,,METAR,173.0
KTKI 012353Z 02006KT 10SM BKN030 BKN036 17/09 A2976 RMK AO2 SLP079 60000 T01670089 10217 20167 53009,KTKI,2023-03-01T23:53:00Z,33.18,-96.58,16.7,8.9,20,6,,10.0,29.760826,1007.9,,,TRUE,,,,,,,BKN,3000,BKN,3600,,,,,MVFR,0.9,21.7,16.7,,,,,0.005,,,,METAR,173.0
KTKI 012253Z 36006KT 5SM HZ FEW021 BKN034 BKN042 17/11 A2974 RMK AO2 SLP071 T01720111,KTKI,2023-03-01T22:53:00Z,33.18,-96.58,17.2,11.1,360,6,,5.0,29.740158,1007.1,,,TRUE,,,,,,HZ,FEW,2100,BKN,3400,BKN,4200,,,MVFR,,,,,,,,,,,,METAR,173.0
KTKI 012251Z 36006KT 5SM HZ BKN034 BKN042 17/11 A2974 RMK AO2,KTKI,2023-03-01T22:51:00Z,33.18,-96.58,17.0,11.0,360,6,,5.0,29.740158,,,,TRUE,,,,,,HZ,BKN,3400,BKN,4200,,,,,MVFR,,,,,,,,,,,,SPECI,173.0
KTKI 012153Z 01006KT 10SM OVC028 19/14 A2973 RMK AO2 RAB06E20 SLP069 P0000 T01890139,KTKI,2023-03-01T21:53:00Z,33.18,-96.58,18.9,13.9,10,6,,10.0,29.731298,1006.9,,,TRUE,,,,,,,OVC,2800,,,,,,,MVFR,,,,,,0.005,,,,,,METAR,173.0
KTKI 012053Z 02005KT 10SM BKN029 OVC034 19/14 A2975 RMK AO2 SLP074 T01940139 50003,KTKI,2023-03-01T20:53:00Z,33.18,-96.58,19.4,13.9,20,5,,10.0,29.749016,1007.4,,,TRUE,,,,,,,BKN,2900,OVC,3400,,,,,MVFR,0.3,,,,,,,,,,,METAR,173.0
KTKI 011953Z 02005KT 10SM BKN037 19/14 A2975 RMK AO2 SLP073 T01940144,KTKI,2023-03-01T19:53:00Z,33.18,-96.58,19.4,14.4,20,5,,10.0,29.749016,1007.3,,,TRUE,,,,,,,BKN,3700,,,,,,,VFR,,,,,,,,,,,,METAR,173.0
KTKI 011853Z 36009KT 10SM FEW100 19/15 A2974 RMK AO2 SLP072 T01940150,KTKI,2023-03-01T18:53:00Z,33.18,-96.58,19.4,15.0,360,9,,10.0,29.740158,1007.2,,,TRUE,,,,,,,FEW,10000,,,,,,,VFR,,,,,,,,,,,,METAR,173.0
KTKI 011850Z 36009KT 10SM FEW100 20/15 A2974 RMK AO2 PRESFR,KTKI,2023-03-01T18:50:00Z,33.18,-96.58,20.0,15.0,360,9,,10.0,29.740158,,,,TRUE,,,,,,,FEW,10000,,,,,,,VFR,,,,,,,,,,,,METAR,173.0
KTKI 011753Z 20004KT 9SM VCTS SCT038 BKN060 BKN075 22/18 A2978 RMK AO2 RAB30E48 SLP085 P0000 60002 T02170178 10217 20167 50002,KTKI,2023-03-01T17:53:00Z,33.18,-96.58,21.7,17.8,200,4,,9.0,29.778543,1008.5,,,TRUE,,,,,,VCTS,SCT,3800,BKN,6000,BKN,7500,,,VFR,0.2,21.7,16.7,,,0.005,,0.02,,,,METAR,173.0
KTKI 011749Z 21005KT 9SM VCTS SCT038 BKN070 OVC095 22/18 A2979 RMK AO2 RAB30E48 P0000,KTKI,2023-03-01T17:49:00Z,33.18,-96.58,22.0,18.0,210,5,,9.0,29.790354,,,,TRUE,,,,,,VCTS,SCT,3800,BKN,7000,OVC,9500,,,VFR,,,,,,0.005,,,,,,METAR,173.0
KTKI 011732Z 23007KT 7SM -RA SCT011 BKN070 OVC095 21/18 A2980 RMK AO2 RAB30 P0000 T02110183,KTKI,2023-03-01T17:32:00Z,33.18,-96.58,21.1,18.3,230,7,,7.0,29.799213,,,,TRUE,,,,,,-RA,SCT,1100,BKN,7000,OVC,9500,,,VFR,,,,,,0.005,,,,,,METAR,173.0
KTKI 011653Z 21006KT 3SM BR BKN005 BKN020 OVC100 20/19 A2980 RMK AO2 SLP091 T02000189,KTKI,2023-03-01T16:53:00Z,33.18,-96.58,20.0,18.9,210,6,,3.0,29.799213,1009.1,,,TRUE,,,,,,BR,BKN,500,BKN,2000,OVC,10000,,,IFR,,,,,,,,,,,,METAR,173.0
KTKI 011648Z 22006KT 3SM BR BKN006 BKN020 OVC100 20/19 A2979 RMK AO2,KTKI,2023-03-01T16:48:00Z,33.18,-96.58,20.0,19.0,220,6,,3.0,29.790354,,,,TRUE,,,,,,BR,BKN,600,BKN,2000,OVC,10000,,,IFR,,,,,,,,,,,,METAR,173.0
KTKI 011633Z 18003KT 3SM BR FEW007 SCT075 BKN095 19/19 A2978 RMK AO2 T01940189,KTKI,2023-03-01T16:33:00Z,33.18,-96.58,19.4,18.9,180,3,,3.0,29.778543,,,,TRUE,,,,,,BR,FEW,700,SCT,7500,BKN,9500,,,MVFR,,,,,,,,,,,,SPECI,173.0
KTKI 011553Z 00000KT 3SM BR FEW060 BKN100 OVC120 18/18 A2977 RMK AO2 SLP083 T01830183,KTKI,2023-03-01T15:53:00Z,33.18,-96.58,18.3,18.3,0,0,,3.0,29.769686,1008.3,,,TRUE,,,,,,BR,FEW,6000,BKN,10000,OVC,12000,,,MVFR,,,,,,,,,,,,METAR,173.0
KTKI 011453Z 00000KT 6SM BR SCT065 OVC110 18/18 A2978 RMK AO2 LTG DSNT SE AND S RAB1359E49 SLP084 P0002 60002 T01780178 50007,KTKI,2023-03-01T14:53:00Z,33.18,-96.58,17.8,17.8,0,0,,6.0,29.778543,1008.4,,,TRUE,,,,,,BR,SCT,6500,OVC,11000,,,,,VFR,0.7,,,,,0.02,0.02,,,,,METAR,173.0
KTKI 011408Z 11003KT 4SM VCTS -RA BKN013 BKN025 OVC095 18/17 A2977 RMK AO2 LTG DSNT E-SW RAB1359 PRESFR P0000 T01780172,KTKI,2023-03-01T14:08:00Z,33.18,-96.58,17.8,17.2,110,3,,4.0,29.769686,,,,TRUE,,,,,,VCTS -RA,BKN,1300,BKN,2500,OVC,9500,,,MVFR,,,,,,0.005,,,,,,SPECI,173.0
KTKI 011406Z 00000KT 4SM VCTS -RA SCT013 BKN090 OVC110 18/17 A2978 RMK AO2 LTG DSNT E-SW RAB1359 P0000 T01780172,KTKI,2023-03-01T14:06:00Z,33.18,-96.58,17.8,17.2,0,0,,4.0,29.778543,,,,TRUE,,,,,,VCTS -RA,SCT,1300,BKN,9000,OVC,11000,,,MVFR,,,,,,0.005,,,,,,METAR,173.0
KTKI 011353Z 17006KT 6SM VCTS BKN013 BKN018 BKN025 18/17 A2981 RMK AO2 LTG DSNT S AND SW SLP096 T01780172,KTKI,2023-03-01T13:53:00Z,33.18,-96.58,17.8,17.2,170,6,,6.0,29.811024,1009.6,,,TRUE,,,,,,VCTS,BKN,1300,BKN,1800,BKN,2500,,,MVFR,,,,,,,,,,,,METAR,173.0
KTKI 011253Z 00000KT 6SM BR BKN015 18/17 A2975 RMK AO2 SLP075 T01830172,KTKI,2023-03-01T12:53:00Z,33.18,-96.58,18.3,17.2,0,0,,6.0,29.749016,1007.5,,,TRUE,,,,,,BR,BKN,1500,,,,,,,MVFR,,,,,,,,,,,,METAR,173.0
KTKI 011153Z 17006KT 8SM SCT015 18/17 A2976 RMK AO2 SLP074 T01830172 10206 20156 51019,KTKI,2023-03-01T11:53:00Z,33.18,-96.58,18.3,17.2,170,6,,8.0,29.760826,1007.4,,,TRUE,,,,,,,SCT,1500,,,,,,,VFR,1.9,20.6,15.6,,,,,,,,,METAR,173.0
KTKI 011053Z AUTO 20011KT 9SM SCT015 20/18 A2974 RMK AO2 SLP066 T02000178,KTKI,2023-03-01T10:53:00Z,33.18,-96.58,20.0,17.8,200,11,,9.0,29.740158,1006.6,,TRUE,TRUE,,,,,,,SCT,1500,,,,,,,VFR,,,,,,,,,,,,METAR,173.0
KTKI 011034Z AUTO 19010KT 9SM BKN015 19/18 A2975 RMK AO2 T01940178,KTKI,2023-03-01T10:34:00Z,33.18,-96.58,19.4,17.8,190,10,,9.0,29.749016,,,TRUE,TRUE,,,,,,,BKN,1500,,,,,,,MVFR,,,,,,,,,,,,SPECI,173.0
KTKI 011007Z AUTO 18008KT 9SM SCT016 19/17 A2972 RMK AO2 T01890172,KTKI,2023-03-01T10:07:00Z,33.18,-96.58,18.9,17.2,180,8,,9.0,29.719488,,,TRUE,TRUE,,,,,,,SCT,1600,,,,,,,VFR,,,,,,,,,,,,METAR,173.0
KTKI 010953Z AUTO 18008KT 9SM BKN016 20/17 A2972 RMK AO2 SLP061 T02000172,KTKI,2023-03-01T09:53:00Z,33.18,-96.58,20.0,17.2,180,8,,9.0,29.719488,1006.1,,TRUE,TRUE,,,,,,,BKN,1600,,,,,,,MVFR,,,,,,,,,,,,METAR,173.0
KTKI 010853Z AUTO 18012KT 10SM CLR 20/17 A2970 RMK AO2 SLP053 T02000167 58010,KTKI,2023-03-01T08:53:00Z,33.18,-96.58,20.0,16.7,180,12,,10.0,29.698818,1005.3,,TRUE,TRUE,,,,,,,CLR,,,,,,,,VFR,-1.0,,,,,,,,,,,SPECI,173.0
KTKI 010753Z AUTO 18011KT 10SM CLR 19/14 A2972 RMK AO2 SLP061 T01940144,KTKI,2023-03-01T07:53:00Z,33.18,-96.58,19.4,14.4,180,11,,10.0,29.719488,1006.1,,TRUE,TRUE,,,,,,,CLR,,,,,,,,VFR,,,,,,,,,,,,METAR,173.0
KTKI 010653Z AUTO 15006KT 10SM CLR 16/09 A2973 RMK AO2 SLP067 T01560094,KTKI,2023-03-01T06:53:00Z,33.18,-96.58,15.6,9.4,150,6,,10.0,29.731298,1006.7,,TRUE,TRUE,,,,,,,CLR,,,,,,,,VFR,,,,,,,,,,,,METAR,173.0
KTKI 010553Z AUTO 14004KT 10SM CLR 17/05 A2973 RMK AO2 SLP066 T01670050 10261 20156 402780050 58004,KTKI,2023-03-01T05:53:00Z,33.18,-96.58,16.7,5.0,140,4,,10.0,29.731298,1006.6,,TRUE,TRUE,,,,,,,CLR,,,,,,,,VFR,-0.4,26.1,15.6,27.8,5.0,,,,,,,METAR,173.0
KTKI 010453Z AUTO 17003KT 10SM CLR 16/06 A2974 RMK AO2 SLP072 T01610061,KTKI,2023-03-01T04:53:00Z,33.18,-96.58,16.1,6.1,170,3,,10.0,29.740158,1007.2,,TRUE,TRUE,,,,,,,CLR,,,,,,,,VFR,,,,,,,,,,,,METAR,173.0
KTKI 010353Z AUTO 18003KT 10SM CLR 17/04 A2975 RMK AO2 SLP073 T01720044,KTKI,2023-03-01T03:53:00Z,33.18,-96.58,17.2,4.4,180,3,,10.0,29.749016,1007.3,,TRUE,TRUE,,,,,,,CLR,,,,,,,,VFR,,,,,,,,,,,,METAR,173.0
KTKI 010253Z 17006KT 10SM CLR 18/04 A2974 RMK AO2 SLP072 T01780044 53006,KTKI,2023-03-01T02:53:00Z,33.18,-96.58,17.8,4.4,170,6,,10.0,29.740158,1007.2,,,TRUE,,,,,,,CLR,,,,,,,,VFR,0.6,,,,,,,,,,,METAR,173.0
KTKI 010153Z 16006KT 10SM CLR 17/04 A2974 RMK AO2 SLP074 T01670039,KTKI,2023-03-01T01:53:00Z,33.18,-96.58,16.7,3.9,160,6,,10.0,29.740158,1007.4,,,TRUE,,,,,,,CLR,,,,,,,,VFR,,,,,,,,,,,,METAR,173.0
KTKI 010053Z 18004KT 10SM CLR 22/01 A2973 RMK AO2 SLP071 T02170006,KTKI,2023-03-01T00:53:00Z,33.18,-96.58,21.7,0.6,180,4,,10.0,29.731298,1007.1,,,TRUE,,,,,,,CLR,,,,,,,,VFR,,,,,,,,,,,,METAR,173.0
KTKI 282353Z 21005KT 10SM CLR 26/M03 A2972 RMK AO2 SLP067 T02611033 10278 20239 56008,KTKI,2023-02-28T23:53:00Z,33.18,-96.58,26.1,-3.3,210,5,,10.0,29.719488,1006.7,,,TRUE,,,,,,,CLR,,,,,,,,VFR,-0.8,27.8,23.9,,,,,,,,,METAR,173.0
KTKI 282253Z 23007KT 10SM CLR 28/M04 A2972 RMK AO2 SLP066 T02781044,KTKI,2023-02-28T22:53:00Z,33.18,-96.58,27.8,-4.4,230,7,,10.0,29.719488,1006.6,,,TRUE,,,,,,,CLR,,,,,,,,VFR,,,,,,,,,,,,METAR,173.0
KTKI 282153Z 23009KT 10SM CLR 28/M04 A2973 RMK AO2 SLP070 T02781039,KTKI,2023-02-28T21:53:00Z,33.18,-96.58,27.8,-3.9,230,9,,10.0,29.731298,1007.0,,,TRUE,,,,,,,CLR,,,,,,,,VFR,,,,,,,,,,,,METAR,173.0
KTKI 282053Z 22012G16KT 10SM CLR 27/M04 A2975 RMK AO2 SLP075 T02721044 56025,KTKI,2023-02-28T20:53:00Z,33.18,-96.58,27.2,-4.4,220,12,16,10.0,29.749016,1007.5,,,TRUE,,,,,,,CLR,,,,,,,,VFR,-2.5,,,,,,,,,,,METAR,173.0
KTKI 281953Z 23011KT 10SM CLR 27/M04 A2977 RMK AO2 SLP081 T02671044,KTKI,2023-02-28T19:53:00Z,33.18,-96.58,26.7,-4.4,230,11,,10.0,29.769686,1008.1,,,TRUE,,,,,,,CLR,,,,,,,,VFR,,,,,,,,,,,,METAR,173.0
KTKI 281853Z 22005KT 10SM CLR 25/M04 A2980 RMK AO2 SLP092 T02501039,KTKI,2023-02-28T18:53:00Z,33.18,-96.58,25.0,-3.9,220,5,,10.0,29.799213,1009.2,,,TRUE,,,,,,,CLR,,,,,,,,VFR,,,,,,,,,,,,METAR,173.0
KTKI 281753Z VRB05KT 10SM CLR 24/M03 A2982 RMK AO2 SLP101 T02391028 10239 20050 50006,KTKI,2023-02-28T17:53:00Z,33.18,-96.58,23.9,-2.8,0,5,,10.0,29.819881,1010.1,,,TRUE,,,,,,,CLR,,,,,,,,VFR,0.6,23.9,5.0,,,,,,,,,METAR,173.0
KTKI 281653Z VRB05KT 10SM CLR 22/M02 A2983 RMK AO2 SLP104 T02221022,KTKI,2023-02-28T16:53:00Z,33.18,-96.58,22.2,-2.2,0,5,,10.0,29.828741,1010.4,,,TRUE,,,,,,,CLR,,,,,,,,VFR,,,,,,,,,,,,METAR,173.0
KTKI 281553Z 24004KT 10SM CLR 21/M02 A2982 RMK AO2 SLP101 T02061022,KTKI,2023-02-28T15:53:00Z,33.18,-96.58,20.6,-2.2,240,4,,10.0,29.819881,1010.1,,,TRUE,,,,,,,CLR,,,,,,,,VFR,,,,,,,,,,,,METAR,173.0
KTKI 281453Z 32010KT 10SM CLR 17/00 A2980 RMK AO2 SLP096 T01720000 50001,KTKI,2023-02-28T14:53:00Z,33.18,-96.58,17.2,0.0,320,10,,10.0,29.799213,1009.6,,,TRUE,,,,,,,CLR,,,,,,,,VFR,0.1,,,,,,,,,,,METAR,173.0
KTKI 281353Z 00000KT 9SM CLR 10/04 A2981 RMK AO2 SLP100 T01000039,KTKI,2023-02-28T13:53:00Z,33.18,-96.58,10.0,3.9,0,0,,9.0,29.811024,1010.0,,,TRUE,,,,,,,CLR,,,,,,,,VFR,,,,,,,,,,,,METAR,173.0
KTKI 281253Z 24004KT 10SM CLR 08/02 A2980 RMK AO2 SLP097 T00830022,KTKI,2023-02-28T12:53:00Z,33.18,-96.58,8.3,2.2,240,4,,10.0,29.799213,1009.7,,,TRUE,,,,,,,CLR,,,,,,,,VFR,,,,,,,,,,,,METAR,173.0
KTKI 281153Z 17004KT 10SM CLR 07/03 A2980 RMK AO2 SLP096 T00720028 10100 20061 53004,KTKI,2023-02-28T11:53:00Z,33.18,-96.58,7.2,2.8,170,4,,10.0,29.799213,1009.6,,,TRUE,,,,,,,CLR,,,,,,,,VFR,0.4,10.0,6.1,,,,,,,,,METAR,173.0
KTKI 281053Z AUTO 18004KT 9SM CLR 07/04 A2978 RMK AO2 SLP089 T00720039,KTKI,2023-02-28T10:53:00Z,33.18,-96.58,7.2,3.9,180,4,,9.0,29.778543,1008.9,,TRUE,TRUE,,,,,,,CLR,,,,,,,,VFR,,,,,,,,,,,,METAR,173.0
KTKI 280953Z AUTO 16005KT 10SM CLR 07/04 A2977 RMK AO2 SLP085 T00670039,KTKI,2023-02-28T09:53:00Z,33.18,-96.58,6.7,3.9,160,5,,10.0,29.769686,1008.5,,TRUE,TRUE,,,,,,,CLR,,,,,,,,VFR,,,,,,,,,,,,METAR,173.0
KTKI 280853Z AUTO 17005KT 10SM CLR 07/05 A2979 RMK AO2 SLP091 T00720050 58009,KTKI,2023-02-28T08:53:00Z,33.18,-96.58,7.2,5.0,170,5,,10.0,29.790354,1009.1,,TRUE,TRUE,,,,,,,CLR,,,,,,,,VFR,-0.9,,,,,,,,,,,METAR,173.0
KTKI 280753Z AUTO 18003KT 10SM CLR 09/05 A2980 RMK AO2 SLP095 T00940050,KTKI,2023-02-28T07:53:00Z,33.18,-96.58,9.4,5.0,180,3,,10.0,29.799213,1009.5,,TRUE,TRUE,,,,,,,CLR,,,,,,,,VFR,,,,,,,,,,,,METAR,173.0
KTKI 280653Z AUTO 00000KT 10SM CLR 10/05 A2980 RMK AO2 SLP096 T01000050,KTKI,2023-02-28T06:53:00Z,33.18,-96.58,10.0,5.0,0,0,,10.0,29.799213,1009.6,,TRUE,TRUE,,,,,,,CLR,,,,,,,,VFR,,,,,,,,,,,,SPECI,173.0
KTKI 280600Z AUTO 15003KT 7SM CLR 10/05 A2982 RMK AO2 T01000050,KTKI,2023-02-28T06:00:00Z,33.18,-96.58,10.0,5.0,150,3,,7.0,29.819881,,,TRUE,TRUE,,,,,,,CLR,,,,,,,,VFR,,,,,,,,,,,,METAR,173.0
KTKI 280553Z AUTO 17004KT 2 1/2SM HZ CLR 10/04 A2982 RMK AO2 SLP101 T01000044 10206 20094 402330094 53001,KTKI,2023-02-28T05:53:00Z,33.18,-96.58,10.0,4.4,170,4,,2.5,29.819881,1010.1,,TRUE,TRUE,,,,,,HZ,CLR,,,,,,,,IFR,0.1,20.6,9.4,23.3,9.4,,,,,,,METAR,173.0
KTKI 280453Z AUTO 15003KT 10SM CLR 11/05 A2982 RMK AO2 SLP100 T01110050,KTKI,2023-02-28T04:53:00Z,33.18,-96.58,11.1,5.0,150,3,,10.0,29.819881,1010.0,,TRUE,TRUE,,,,,,,CLR,,,,,,,,VFR,,,,,,,,,,,,METAR,173.0
KTKI 280353Z AUTO 15004KT 10SM CLR 12/04 A2981 RMK AO2 SLP099 T01170044,KTKI,2023-02-28T03:53:00Z,33.18,-96.58,11.7,4.4,150,4,,10.0,29.811024,1009.9,,TRUE,TRUE,,,,,,,CLR,,,,,,,,VFR,,,,,,,,,,,,METAR,173.0
KTKI 280253Z 00000KT 10SM CLR 14/04 A2981 RMK AO2 SLP101 T01390039 51012,KTKI,2023-02-28T02:53:00Z,33.18,-96.58,13.9,3.9,0,0,,10.0,29.811024,1010.1,,,TRUE,,,,,,,CLR,,,,,,,,VFR,1.2,,,,,,,,,,,METAR,173.0
KTKI 280153Z 19004KT 10SM CLR 17/03 A2981 RMK AO2 SLP098 T01720028,KTKI,2023-02-28T01:53:00Z,33.18,-96.58,17.2,2.8,190,4,,10.0,29.811024,1009.8,,,TRUE,,,,,,,CLR,,,,,,,,VFR,,,,,,,,,,,,METAR,173.0
KTKI 280053Z 18004KT 10SM CLR 17/04 A2979 RMK AO2 SLP092 T01720044,KTKI,2023-02-28T00:53:00Z,33.18,-96.58,17.2,4.4,180,4,,10.0,29.790354,1009.2,,,TRUE,,,,,,,CLR,,,,,,,,VFR,,,,,,,,,,,,METAR,173.0
KTKI 272353Z 16005KT 10SM CLR 21/04 A2978 RMK AO2 SLP086 T02060039 10233 20183 55004,KTKI,2023-02-27T23:53:00Z,33.18,-96.58,20.6,3.9,160,5,,10.0,29.778543,1008.6,,,TRUE,,,,,,,CLR,,,,,,,,VFR,-0.4,23.3,18.3,,,,,,,,,METAR,173.0
KTKI 272253Z 16003KT 10SM CLR 23/01 A2977 RMK AO2 SLP083 T02280006,KTKI,2023-02-27T22:53:00Z,33.18,-96.58,22.8,0.6,160,3,,10.0,29.769686,1008.3,,,TRUE,,,,,,,CLR,,,,,,,,VFR,,,,,,,,,,,,METAR,173.0
KTKI 272153Z 22005KT 10SM CLR 23/01 A2978 RMK AO2 SLP085 T02330011,KTKI,2023-02-27T21:53:00Z,33.18,-96.58,23.3,1.1,220,5,,10.0,29.778543,1008.5,,,TRUE,,,,,,,CLR,,,,,,,,VFR,,,,,,,,,,,,METAR,173.0
KTKI 272053Z 26005KT 10SM CLR 22/01 A2979 RMK AO2 SLP088 T02220006 56023,KTKI,2023-02-27T20:53:00Z,33.18,-96.58,22.2,0.6,260,5,,10.0,29.790354,1008.8,,,TRUE,,,,,,,CLR,,,,,,,,VFR,-2.3,,,,,,,,,,,METAR,173.0
KTKI 271953Z 32008KT 220V330 10SM CLR 22/01 A2980 RMK AO2 SLP093 T02170006,KTKI,2023-02-27T19:53:00Z,33.18,-96.58,21.7,0.6,320,8,,10.0,29.799213,1009.3,,,TRUE,,,,,,,CLR,,,,,,,,VFR,,,,,,,,,,,,SPECI,173.0
KTKI 271853Z VRB05KT 9SM CLR 21/01 A2983 RMK AO2 SLP104 T02060011,KTKI,2023-02-27T18:53:00Z,33.18,-96.58,20.6,1.1,0,5,,9.0,29.828741,1010.4,,,TRUE,,,,,,,CLR,,,,,,,,VFR,,,,,,,,,,,,METAR,173.0
KTKI 271753Z 25011KT 8SM CLR 19/01 A2986 RMK AO2 SLP112 T01890006 10189 20117 50013,KTKI,2023-02-27T17:53:00Z,33.18,-96.58,18.9,0.6,250,11,,8.0,29.861221,1011.2,,,TRUE,,,,,,,CLR,,,,,,,,VFR,1.3,18.9,11.7,,,,,,,,,METAR,173.0
KTKI 271653Z 25012KT 7SM CLR 17/M01 A2986 RMK AO2 SLP113 T01721006,KTKI,2023-02-27T16:53:00Z,33.18,-96.58,17.2,-0.6,250,12,,7.0,29.861221,1011.3,,,TRUE,,,,,,,CLR,,,,,,,,VFR,,,,,,,,,,,,METAR,173.0
KTKI 271553Z 28009G20KT 7SM CLR 15/M02 A2983 RMK AO2 SLP102 T01501022,KTKI,2023-02-27T15:53:00Z,33.18,-96.58,15.0,-2.2,280,9,20,7.0,29.828741,1010.2,,,TRUE,,,,,,,CLR,,,,,,,,VFR,,,,,,,,,,,,METAR,173.0
KTKI 271453Z 27015KT 6SM HZ CLR 14/M03 A2982 RMK AO2 SLP099 T01391033 53024,KTKI,2023-02-27T14:53:00Z,33.18,-96.58,13.9,-3.3,270,15,,6.0,29.819881,1009.9,,,TRUE,,,,,,HZ,CLR,,,,,,,,VFR,2.4,,,,,,,,,,,METAR,173.0
KTKI 271353Z 25010G20KT 6SM HZ CLR 12/M04 A2979 RMK AO2 SLP090 T01221039,KTKI,2023-02-27T13:53:00Z,33.18,-96.58,12.2,-3.9,250,10,20,6.0,29.790354,1009.0,,,TRUE,,,,,,HZ,CLR,,,,,,,,VFR,,,,,,,,,,,,METAR,173.0
KTKI 271303Z 24014G21KT 7SM CLR 12/M04 A2977 RMK AO2 T01221039,KTKI,2023-02-27T13:03:00Z,33.18,-96.58,12.2,-3.9,240,14,21,7.0,29.769686,,,,TRUE,,,,,,,CLR,,,,,,,,VFR,,,,,,,,,,,,METAR,173.0
KTKI 271253Z 25011G19KT 9SM BKN022 12/M04 A2977 RMK AO2 SLP082 T01221039,KTKI,2023-02-27T12:53:00Z,33.18,-96.58,12.2,-3.9,250,11,19,9.0,29.769686,1008.2,,,TRUE,,,,,,,BKN,2200,,,,,,,MVFR,,,,,,,,,,,,METAR,173.0
KTKI 271153Z 26012G20KT 9SM OVC023 13/M03 A2975 RMK AO2 SLP075 60005 70005 T01331033 10211 20133 53018,KTKI,2023-02-27T11:53:00Z,33.18,-96.58,13.3,-3.3,260,12,20,9.0,29.749016,1007.5,,,TRUE,,,,,,,OVC,2300,,,,,,,MVFR,1.8,21.1,13.3,,,,,,0.05,,,SPECI,173.0
KTKI 271109Z AUTO 26014G24KT 9SM BKN024 OVC075 14/M03 A2972 RMK AO2 T01391028,KTKI,2023-02-27T11:09:00Z,33.18,-96.58,13.9,-2.8,260,14,24,9.0,29.719488,,,TRUE,TRUE,,,,,,,BKN,2400,OVC,7500,,,,,MVFR,,,,,,,,,,,,SPECI,173.0
KTKI 271053Z AUTO 26018G26KT 9SM FEW025 OVC080 14/M02 A2972 RMK AO2 PK WND 25027/1000 SLP063 T01441022,KTKI,2023-02-27T10:53:00Z,33.18,-96.58,14.4,-2.2,260,18,26,9.0,29.719488,1006.3,,TRUE,TRUE,,,,,,,FEW,2500,OVC,8000,,,,,VFR,,,,,,,,,,,,METAR,173.0
KTKI 270953Z AUTO 26014G23KT 7SM FEW027 BKN070 OVC085 16/M01 A2971 RMK AO2 SLP059 T01561006,KTKI,2023-02-27T09:53:00Z,33.18,-96.58,15.6,-0.6,260,14,23,7.0,29.71063,1005.9,,TRUE,TRUE,,,,,,,FEW,2700,BKN,7000,OVC,8500,,,VFR,,,,,,,,,,,,METAR,173.0
KTKI 270853Z AUTO 25011G21KT 4SM HZ OVC060 16/04 A2969 RMK AO2 SLP058 60005 T01560044 50015,KTKI,2023-02-27T08:53:00Z,33.18,-96.58,15.6,4.4,250,11,21,4.0,29.68996,1005.8,,TRUE,TRUE,,,,,,HZ,OVC,6000,,,,,,,MVFR,1.5,,,,,,0.05,,,,,METAR,173.0
KTKI 270803Z AUTO 22010KT 3SM HZ SCT022 OVC060 15/09 A2970 RMK AO2 T01500089,KTKI,2023-02-27T08:03:00Z,33.18,-96.58,15.0,8.9,220,10,,3.0,29.698818,,,TRUE,TRUE,,,,,,HZ,SCT,2200,OVC,6000,,,,,MVFR,,,,,,,,,,,,SPECI,173.0
KTKI 270753Z AUTO 21008KT 3SM HZ BKN022 OVC055 15/09 A2970 RMK AO2 RAB11E20 SLP061 P0000 T01500094,KTKI,2023-02-27T07:53:00Z,33.18,-96.58,15.0,9.4,210,8,,3.0,29.698818,1006.1,,TRUE,TRUE,,,,,,HZ,BKN,2200,OVC,5500,,,,,MVFR,,,,,,0.005,,,,,,METAR,173.0
KTKI 270709Z AUTO 23007KT 4SM HZ BKN025 OVC048 13/10 A2970 RMK AO2 T01330100,KTKI,2023-02-27T07:09:00Z,33.18,-96.58,13.3,10.0,230,7,,4.0,29.698818,,,TRUE,TRUE,,,,,,HZ,BKN,2500,OVC,4800,,,,,MVFR,,,,,,,,,,,,SPECI,173.0
KTKI 270653Z AUTO 22007KT 4SM HZ SCT035 OVC048 13/10 A2970 RMK AO2 PK WND 29050/0600 WSHFT 0552 RAB02E49 SLP063 P0005 T01330100,KTKI,2023-02-27T06:53:00Z,33.18,-96.58,13.3,10.0,220,7,,4.0,29.698818,1006.3,,TRUE,TRUE,,,,,,HZ,SCT,3500,OVC,4800,,,,,MVFR,,,,,,0.05,,,,,,METAR,173.0
KTKI 270617Z AUTO 28017G29KT 3SM RA SCT027 OVC035 13/09 A2972 RMK AO2 PK WND 29050/0600 WSHFT 0552 RAB02 P0005 T01330094,KTKI,2023-02-27T06:17:00Z,33.18,-96.58,13.3,9.4,280,17,29,3.0,29.719488,,,TRUE,TRUE,,,,,,RA,SCT,2700,OVC,3500,,,,,MVFR,,,,,,0.05,,,,,,METAR,173.0
KTKI 270610Z AUTO 28018G41KT 2 1/2SM -RA SCT028 OVC035 14/09 A2973 RMK AO2 PK WND 29050/0600 WSHFT 0552 RAB02 P0004 T01390094,KTKI,2023-02-27T06:10:00Z,33.18,-96.58,13.9,9.4,280,18,41,2.5,29.731298,,,TRUE,TRUE,,,,,,-RA,SCT,2800,OVC,3500,,,,,IFR,,,,,,0.04,,,,,,METAR,173.0
KTKI 270606Z AUTO 27021G50KT 3SM +RA SQ BKN028 OVC033 14/09 A2972 RMK AO2 PK WND 29050/0600 WSHFT 0552 RAB02 P0004 T01390089,KTKI,2023-02-27T06:06:00Z,33.18,-96.58,13.9,8.9,270,21,50,3.0,29.719488,,,TRUE,TRUE,,,,,,+RA SQ,BKN,2800,OVC,3300,,,,,MVFR,,,,,,0.04,,,,,,METAR,173.0
KTKI 270553Z AUTO 22020G32KT 10SM OVC028 21/16 A2965 RMK AO2 PK WND 17043/0507 WSHFT 0513 SLP043 T02110156 10233 20206 402330078 53032,KTKI,2023-02-27T05:53:00Z,33.18,-96.58,21.1,15.6,220,20,32,10.0,29.648623,1004.3,,TRUE,TRUE,,,,,,,OVC,2800,,,,,,,MVFR,3.2,23.3,20.6,23.3,7.8,,,,,,,METAR,173.0
KTKI 270551Z AUTO 22018G32KT 10SM OVC028 21/16 A2965 RMK AO2 PK WND 17043/0507 WSHFT 0513,KTKI,2023-02-27T05:51:00Z,33.18,-96.58,21.0,16.0,220,18,32,10.0,29.648623,,,TRUE,TRUE,,,,,,,OVC,2800,,,,,,,MVFR,,,,,,,,,,,,METAR,173.0
KTKI 270533Z AUTO 24018G35KT 10SM BKN032 21/15 A2968 RMK AO2 PK WND 17043/0507 WSHFT 0513 T02110150,KTKI,2023-02-27T05:33:00Z,33.18,-96.58,21.1,15.0,240,18,35,10.0,29.681103,,,TRUE,TRUE,,,,,,,BKN,3200,,,,,,,VFR,,,,,,,,,,,,METAR,173.0
KTKI 270453Z AUTO 18028G42KT 10SM FEW030 21/16 A2951 RMK AO2 PK WND 18046/0411 PRESFR SLP996 T02060156,KTKI,2023-02-27T04:53:00Z,33.18,-96.58,20.6,15.6,180,28,42,10.0,29.509842,999.6,,TRUE,TRUE,,,,,,,FEW,3000,,,,,,,VFR,,,,,,,,,,,,METAR,173.0
KTKI 270353Z AUTO 18029G40KT 10SM FEW030 21/16 A2955 RMK AO2 PK WND 17043/0331 SLP011 T02110161,KTKI,2023-02-27T03:53:00Z,33.18,-96.58,21.1,16.1,180,29,40,10.0,29.551182,1001.1,,TRUE,TRUE,,,,,,,FEW,3000,,,,,,,VFR,,,,,,,,,,,,METAR,173.0
KTKI 270253Z 17025G36KT 10SM CLR 21/16 A2957 RMK AO2 PK WND 17036/0253 SLP017 T02110161 56035,KTKI,2023-02-27T02:53:00Z,33.18,-96.58,21.1,16.1,170,25,36,10.0,29.568897,1001.7,,,TRUE,,,,,,,CLR,,,,,,,,VFR,-3.5,,,,,,,,,,,METAR,173.0
KTKI 270153Z 16019G26KT 10SM CLR 21/16 A2960 RMK AO2 PK WND 15026/0144 SLP025 T02110161,KTKI,2023-02-27T01:53:00Z,33.18,-96.58,21.1,16.1,160,19,26,10.0,29.601377,1002.5,,,TRUE,,,,,,,CLR,,,,,,,,VFR,,,,,,,,,,,,METAR,173.0
KTKI 270053Z 16014KT 10SM CLR 22/16 A2964 RMK AO2 PK WND 16031/0026 SLP041 T02170161,KTKI,2023-02-27T00:53:00Z,33.18,-96.58,21.7,16.1,160,14,,10.0,29.639763,1004.1,,,TRUE,,,,,,,CLR,,,,,,,,VFR,,,,,,,,,,,,METAR,173.0
KTKI 262353Z 17020G29KT 10SM FEW040 BKN070 23/17 A2968 RMK AO2 PK WND 16029/2353 SLP053 60000 T02330167 10233 20128 58046,KTKI,2023-02-26T23:53:00Z,33.18,-96.58,23.3,16.7,170,20,29,10.0,29.681103,1005.3,,,TRUE,,,,,,,FEW,4000,BKN,7000,,,,,VFR,-4.6,23.3,12.8,,,,,0.005,,,,METAR,173.0
KTKI 262253Z 14009KT 9SM SCT035 BKN044 22/18 A2973 RMK AO2 SLP072 T02170178,KTKI,2023-02-26T22:53:00Z,33.18,-96.58,21.7,17.8,140,9,,9.0,29.731298,1007.2,,,TRUE,,,,,,,SCT,3500,BKN,4400,,,,,VFR,,,,,,,,,,,,METAR,173.0
KTKI 262202Z 16011G18KT 10SM BKN025 BKN035 22/18 A2976 RMK AO2 PRESFR T02220178,KTKI,2023-02-26T22:02:00Z,33.18,-96.58,22.2,17.8,160,11,18,10.0,29.760826,,,,TRUE,,,,,,,BKN,2500,BKN,3500,,,,,MVFR,,,,,,,,,,,,METAR,173.0
KTKI 262153Z 17008KT 9SM SCT025 BKN035 22/18 A2977 RMK AO2 SLP086 T02170178,KTKI,2023-02-26T21:53:00Z,33.18,-96.58,21.7,17.8,170,8,,9.0,29.769686,1008.6,,,TRUE,,,,,,,SCT,2500,BKN,3500,,,,,VFR,,,,,,,,,,,,METAR,173.0
KTKI 262121Z 19013G19KT 8SM SCT014 SCT023 21/18 A2979 RMK AO2 T02110178,KTKI,2023-02-26T21:21:00Z,33.18,-96.58,21.1,17.8,190,13,19,8.0,29.790354,,,,TRUE,,,,,,,SCT,1400,SCT,2300,,,,,VFR,,,,,,,,,,,,SPECI,173.0
KTKI 262114Z 19009KT 7SM BKN013 BKN023 21/17 A2980 RMK AO2 T02060172,KTKI,2023-02-26T21:14:00Z,33.18,-96.58,20.6,17.2,190,9,,7.0,29.799213,,,,TRUE,,,,,,,BKN,1300,BKN,2300,,,,,MVFR,,,,,,,,,,,,METAR,173.0
KTKI 262053Z 19011KT 6SM BR BKN007 BKN013 19/17 A2982 RMK AO2 PRESFR SLP101 60000 T01890172 58049,KTKI,2023-02-26T20:53:00Z,33.18,-96.58,18.9,17.2,190,11,,6.0,29.819881,1010.1,,,TRUE,,,,,,BR,BKN,700,BKN,1300,,,,,IFR,-4.9,,,,,,0.005,,,,,METAR,173.0
KTKI 261953Z 17007KT 1 1/4SM BR OVC002 16/15 A2987 RMK AO2 RAE1856 SLP121 P0000 T01560150,KTKI,2023-02-26T19:53:00Z,33.18,-96.58,15.6,15.0,170,7,,1.25,29.870079,1012.1,,,TRUE,,,,,,BR,OVC,200,,,,,,,LIFR,,,,,,0.005,,,,,,METAR,173.0
KTKI 261853Z 00000KT 1/2SM -RA FG VV002 14/14 A2994 RMK AO2 RAB42 SLP146 P0000 T01390139,KTKI,2023-02-26T18:53:00Z,33.18,-96.58,13.9,13.9,0,0,,0.5,29.940945,1014.6,,,TRUE,,,,,,-RA FG,OVX,0,,,,,,,LIFR,,,,,,0.005,,,,,200,SPECI,173.0
KTKI 261753Z 00000KT 1 3/4SM BR OVC003 13/13 A2996 RMK AO2 SLP154 T01280128 10128 20089 58024,KTKI,2023-02-26T17:53:00Z,33.18,-96.58,12.8,12.8,0,0,,1.75,29.958662,1015.4,,,TRUE,,,,,,BR,OVC,300,,,,,,,LIFR,-2.4,12.8,8.9,,,,,,,,,METAR,173.0
KTKI 261653Z 00000KT 2 1/2SM BR OVC002 12/11 A2999 RMK AO2 SLP165 T01170111,KTKI,2023-02-26T16:53:00Z,33.18,-96.58,11.7,11.1,0,0,,2.5,29.991142,1016.5,,,TRUE,,,,,,BR,OVC,200,,,,,,,LIFR,,,,,,,,,,,,METAR,173.0
KTKI 261553Z 13003KT 2SM BR OVC002 11/11 A3002 RMK AO2 SLP175 T01060106,KTKI,2023-02-26T15:53:00Z,33.18,-96.58,10.6,10.6,130,3,,2.0,30.02067,1017.5,,,TRUE,,,,,,BR,OVC,200,,,,,,,LIFR,,,,,,,,,,,,METAR,173.0
KTKI 261453Z 12004KT 1/2SM FG OVC002 09/09 A3003 RMK AO2 SLP180 T00940094 57002,KTKI,2023-02-26T14:53:00Z,33.18,-96.58,9.4,9.4,120,4,,0.5,30.029528,1018.0,,,TRUE,,,,,,FG,OVC,200,,,,,,,LIFR,-0.2,,,,,,,,,,,METAR,173.0
KTKI 261353Z 00000KT 1SM BR OVC003 09/09 A3004 RMK AO2 SLP181 T00940094,KTKI,2023-02-26T13:53:00Z,33.18,-96.58,9.4,9.4,0,0,,1.0,30.041338,1018.1,,,TRUE,,,,,,BR,OVC,300,,,,,,,LIFR,,,,,,,,,,,,METAR,173.0
KTKI 261339Z 00000KT 1SM BR OVC003 09/09 A3004 RMK AO2 T00890089,KTKI,2023-02-26T13:39:00Z,33.18,-96.58,8.9,8.9,0,0,,1.0,30.041338,,,,TRUE,,,,,,BR,OVC,300,,,,,,,LIFR,,,,,,,,,,,,SPECI,173.0
KTKI 261300Z 00000KT 3/4SM BR VV002 09/09 A3004 RMK AO2 T00890089,KTKI,2023-02-26T13:00:00Z,33.18,-96.58,8.9,8.9,0,0,,0.75,30.041338,,,,TRUE,,,,,,BR,OVX,0,,,,,,,LIFR,,,,,,,,,,,200,METAR,173.0
KTKI 261253Z 12003KT 1SM BR VV003 09/09 A3004 RMK AO2 SLP181 T00890089,KTKI,2023-02-26T12:53:00Z,33.18,-96.58,8.9,8.9,120,3,,1.0,30.041338,1018.1,,,TRUE,,,,,,BR,OVX,0,,,,,,,LIFR,,,,,,,,,,,300,METAR,173.0
KTKI 261248Z 13004KT 1SM BR VV003 09/09 A3004 RMK AO2,KTKI,2023-02-26T12:48:00Z,33.18,-96.58,9.0,9.0,130,4,,1.0,30.041338,,,,TRUE,,,,,,BR,OVX,0,,,,,,,LIFR,,,,,,,,,,,300,SPECI,173.0
KTKI 261215Z 00000KT 1/2SM FG VV002 09/09 A3005 RMK AO2 T00890089,KTKI,2023-02-26T12:15:00Z,33.18,-96.58,8.9,8.9,0,0,,0.5,30.050198,,,,TRUE,,,,,,FG,OVX,0,,,,,,,LIFR,,,,,,,,,,,200,SPECI,173.0
KTKI 261153Z 10004KT 1/4SM FG VV002 09/09 A3005 RMK AO2 SLP187 T00890089 10089 20078 58003,KTKI,2023-02-26T11:53:00Z,33.18,-96.58,8.9,8.9,100,4,,0.25,30.050198,1018.7,,,TRUE,,,,,,FG,OVX,0,,,,,,,LIFR,-0.3,8.9,7.8,,,,,,,,200,METAR,173.0
KTKI 261121Z AUTO 00000KT 1/4SM FG VV002 09/08 A3006 RMK AO2 T00890083,KTKI,2023-02-26T11:21:00Z,33.18,-96.58,8.9,8.3,0,0,,0.25,30.059055,,,TRUE,TRUE,,,,,,FG,OVX,0,,,,,,,LIFR,,,,,,,,,,,200,SPECI,173.0
KTKI 261053Z AUTO 00000KT 1/2SM FG VV002 09/09 A3007 RMK AO2 SLP192 T00890089,KTKI,2023-02-26T10:53:00Z,33.18,-96.58,8.9,8.9,0,0,,0.5,30.070866,1019.2,,TRUE,TRUE,,,,,,FG,OVX,0,,,,,,,LIFR,,,,,,,,,,,200,SPECI,173.0
KTKI 261049Z AUTO 28003KT 1/2SM FG VV002 09/08 A3008 RMK AO2,KTKI,2023-02-26T10:49:00Z,33.18,-96.58,9.0,8.0,280,3,,0.5,30.079725,,,TRUE,TRUE,,,,,,FG,OVX,0,,,,,,,LIFR,,,,,,,,,,,200,METAR,173.0
KTKI 261009Z AUTO 18003KT 1/4SM FG VV002 08/08 A3006 RMK AO2 T00830083,KTKI,2023-02-26T10:09:00Z,33.18,-96.58,8.3,8.3,180,3,,0.25,30.059055,,,TRUE,TRUE,,,,,,FG,OVX,0,,,,,,,LIFR,,,,,,,,,,,200,METAR,173.0
KTKI 261000Z AUTO 16004KT 1/2SM FG VV002 08/08 A3006 RMK AO2 T00830083,KTKI,2023-02-26T10:00:00Z,33.18,-96.58,8.3,8.3,160,4,,0.5,30.059055,,,TRUE,TRUE,,,,,,FG,OVX,0,,,,,,,LIFR,,,,,,,,,,,200,SPECI,173.0
KTKI 260953Z AUTO 18005KT 1/4SM FG VV002 08/08 A3006 RMK AO2 SLP190 T00830083,KTKI,2023-02-26T09:53:00Z,33.18,-96.58,8.3,8.3,180,5,,0.25,30.059055,1019.0,,TRUE,TRUE,,,,,,FG,OVX,0,,,,,,,LIFR,,,,,,,,,,,200,METAR,173.0
KTKI 260853Z AUTO 14006KT 1/2SM FG VV002 08/08 A3008 RMK AO2 SLP195 T00780078 58026,KTKI,2023-02-26T08:53:00Z,33.18,-96.58,7.8,7.8,140,6,,0.5,30.079725,1019.5,,TRUE,TRUE,,,,,,FG,OVX,0,,,,,,,LIFR,-2.6,,,,,,,,,,200,METAR,173.0
KTKI 260753Z AUTO 33003KT 3/4SM BR VV003 08/08 A3015 RMK AO2 SLP219 T00830078,KTKI,2023-02-26T07:53:00Z,33.18,-96.58,8.3,7.8,330,3,,0.75,30.15059,1021.9,,TRUE,TRUE,,,,,,BR,OVX,0,,,,,,,LIFR,,,,,,,,,,,300,METAR,173.0
KTKI 260733Z AUTO 33003KT 3/4SM BR OVC002 08/08 A3015 RMK AO2 T00830078,KTKI,2023-02-26T07:33:00Z,33.18,-96.58,8.3,7.8,330,3,,0.75,30.15059,,,TRUE,TRUE,,,,,,BR,OVC,200,,,,,,,LIFR,,,,,,,,,,,,SPECI,173.0
KTKI 260653Z AUTO 00000KT 1 1/2SM BR OVC004 08/08 A3015 RMK AO2 SLP220 T00780078,KTKI,2023-02-26T06:53:00Z,33.18,-96.58,7.8,7.8,0,0,,1.5,30.15059,1022.0,,TRUE,TRUE,,,,,,BR,OVC,400,,,,,,,LIFR,,,,,,,,,,,,METAR,173.0
KTKI 260627Z AUTO 00000KT 2 1/2SM BR OVC004 08/07 A3016 RMK AO2 T00830072,KTKI,2023-02-26T06:27:00Z,33.18,-96.58,8.3,7.2,0,0,,2.5,30.159449,,,TRUE,TRUE,,,,,,BR,OVC,400,,,,,,,LIFR,,,,,,,,,,,,SPECI,173.0
KTKI 260553Z AUTO 00000KT 4SM BR OVC005 08/08 A3015 RMK AO2 CIG 004V007 SLP221 T00830078 10083 20078 400830033 58008,KTKI,2023-02-26T05:53:00Z,33.18,-96.58,8.3,7.8,0,0,,4.0,30.15059,1022.1,,TRUE,TRUE,,,,,,BR,OVC,500,,,,,,,IFR,-0.8,8.3,7.8,8.3,3.3,,,,,,,METAR,173.0
KTKI 260503Z AUTO 00000KT 5SM BR SCT004 OVC009 08/08 A3017 RMK AO2 T00830078,KTKI,2023-02-26T05:03:00Z,33.18,-96.58,8.3,7.8,0,0,,5.0,30.171259,,,TRUE,TRUE,,,,,,BR,SCT,400,OVC,900,,,,,IFR,,,,,,,,,,,,METAR,173.0
KTKI 260453Z AUTO 02003KT 5SM BR BKN004 OVC010 08/07 A3017 RMK AO2 SLP228 T00780072,KTKI,2023-02-26T04:53:00Z,33.18,-96.58,7.8,7.2,20,3,,5.0,30.171259,1022.8,,TRUE,TRUE,,,,,,BR,BKN,400,OVC,1000,,,,,LIFR,,,,,,,,,,,,METAR,173.0
KTKI 260353Z AUTO 34005KT 4SM BR OVC004 08/07 A3017 RMK AO2 SLP229 T00780072,KTKI,2023-02-26T03:53:00Z,33.18,-96.58,7.8,7.2,340,5,,4.0,30.171259,1022.9,,TRUE,TRUE,,,,,,BR,OVC,400,,,,,,,LIFR,,,,,,,,,,,,METAR,173.0
KTKI 260327Z 35003KT 3SM BR OVC005 08/07 A3018 RMK AO2 T00780072,KTKI,2023-02-26T03:27:00Z,33.18,-96.58,7.8,7.2,350,3,,3.0,30.180119,,,,TRUE,,,,,,BR,OVC,500,,,,,,,IFR,,,,,,,,,,,,SPECI,173.0
KTKI 260253Z 00000KT 2SM BR OVC005 08/07 A3018 RMK AO2 SLP231 T00780072 56009,KTKI,2023-02-26T02:53:00Z,33.18,-96.58,7.8,7.2,0,0,,2.0,30.180119,1023.1,,,TRUE,,,,,,BR,OVC,500,,,,,,,IFR,-0.9,,,,,,,,,,,METAR,173.0
KTKI 260153Z 15003KT 8SM OVC007 08/06 A3018 RMK AO2 SLP232 T00780061,KTKI,2023-02-26T01:53:00Z,33.18,-96.58,7.8,6.1,150,3,,8.0,30.180119,1023.2,,,TRUE,,,,,,,OVC,700,,,,,,,IFR,,,,,,,,,,,,METAR,173.0
KTKI 260102Z 10003KT 9SM OVC009 08/06 A3018 RMK AO2 T00780061,KTKI,2023-02-26T01:02:00Z,33.18,-96.58,7.8,6.1,100,3,,9.0,30.180119,,,,TRUE,,,,,,,OVC,900,,,,,,,IFR,,,,,,,,,,,,SPECI,173.0
KTKI 260053Z 00000KT 10SM OVC010 08/06 A3019 RMK AO2 SLP235 T00780061,KTKI,2023-02-26T00:53:00Z,33.18,-96.58,7.8,6.1,0,0,,10.0,30.188976,1023.5,,,TRUE,,,,,,,OVC,1000,,,,,,,MVFR,,,,,,,,,,,,METAR,173.0
KTKI 252353Z 00000KT 9SM OVC011 08/06 A3020 RMK AO2 SLP240 T00780056 10083 20056 56010,KTKI,2023-02-25T23:53:00Z,33.18,-96.58,7.8,5.6,0,0,,9.0,30.200787,1024.0,,,TRUE,,,,,,,OVC,1100,,,,,,,MVFR,-1.0,8.3,5.6,,,,,,,,,METAR,173.0
KTKI 252253Z 00000KT 9SM OVC012 08/06 A3021 RMK AO2 SLP241 T00830056,KTKI,2023-02-25T22:53:00Z,33.18,-96.58,8.3,5.6,0,0,,9.0,30.209646,1024.1,,,TRUE,,,,,,,OVC,1200,,,,,,,MVFR,,,,,,,,,,,,METAR,173.0
KTKI 252153Z 00000KT 9SM BKN011 OVC018 08/05 A3023 RMK AO2 SLP249 T00780050,KTKI,2023-02-25T21:53:00Z,33.18,-96.58,7.8,5.0,0,0,,9.0,30.230314,1024.9,,,TRUE,,,,,,,BKN,1100,OVC,1800,,,,,MVFR,,,,,,,,,,,,METAR,173.0
KTKI 252053Z 04003KT 9SM BKN010 OVC018 08/05 A3024 RMK AO2 SLP251 T00780050 56026,KTKI,2023-02-25T20:53:00Z,33.18,-96.58,7.8,5.0,40,3,,9.0,30.239174,1025.1,,,TRUE,,,,,,,BKN,1000,OVC,1800,,,,,MVFR,-2.6,,,,,,,,,,,METAR,173.0
KTKI 252027Z 00000KT 6SM BR BKN010 OVC019 07/05 A3025 RMK AO2 T00670050,KTKI,2023-02-25T20:27:00Z,33.18,-96.58,6.7,5.0,0,0,,6.0,30.250984,,,,TRUE,,,,,,BR,BKN,1000,OVC,1900,,,,,MVFR,,,,,,,,,,,,SPECI,173.0
KTKI 251953Z 00000KT 8SM OVC009 07/04 A3026 RMK AO2 SLP257 T00670044,KTKI,2023-02-25T19:53:00Z,33.18,-96.58,6.7,4.4,0,0,,8.0,30.259842,1025.7,,,TRUE,,,,,,,OVC,900,,,,,,,IFR,,,,,,,,,,,,METAR,173.0
KTKI 251853Z 35003KT 9SM OVC009 06/04 A3029 RMK AO2 SLP270 T00610039,KTKI,2023-02-25T18:53:00Z,33.18,-96.58,6.1,3.9,350,3,,9.0,30.28937,1027.0,,,TRUE,,,,,,,OVC,900,,,,,,,IFR,,,,,,,,,,,,SPECI,173.0
KTKI 251753Z 02004KT 7SM OVC007 06/04 A3031 RMK AO2 SLP278 60000 T00560039 10056 20033 56008,KTKI,2023-02-25T17:53:00Z,33.18,-96.58,5.6,3.9,20,4,,7.0,30.31004,1027.8,,,TRUE,,,,,,,OVC,700,,,,,,,IFR,-0.8,5.6,3.3,,,,,0.005,,,,METAR,173.0
KTKI 251653Z 35004KT 6SM BR OVC005 04/03 A3033 RMK AO2 RAE06 SLP282 P0000 T00440033,KTKI,2023-02-25T16:53:00Z,33.18,-96.58,4.4,3.3,350,4,,6.0,30.33071,1028.2,,,TRUE,,,,,,BR,OVC,500,,,,,,,IFR,,,,,,0.005,,,,,,SPECI,173.0
KTKI 251553Z 02004KT 4SM -RA BR OVC005 04/03 A3032 RMK AO2 RAB24 SLP281 P0000 T00390033,KTKI,2023-02-25T15:53:00Z,33.18,-96.58,3.9,3.3,20,4,,4.0,30.318897,1028.1,,,TRUE,,,,,,-RA BR,OVC,500,,,,,,,IFR,,,,,,0.005,,,,,,METAR,173.0
KTKI 251516Z 36004KT 3SM BR OVC005 04/03 A3034 RMK AO2 T00390028,KTKI,2023-02-25T15:16:00Z,33.18,-96.58,3.9,2.8,360,4,,3.0,30.339567,,,,TRUE,,,,,,BR,OVC,500,,,,,,,IFR,,,,,,,,,,,,SPECI,173.0
KTKI 251453Z 01007KT 3SM BR OVC003 04/03 A3034 RMK AO2 SLP286 T00390033 52011,KTKI,2023-02-25T14:53:00Z,33.18,-96.58,3.9,3.3,10,7,,3.0,30.339567,1028.6,,,TRUE,,,,,,BR,OVC,300,,,,,,,LIFR,1.1,,,,,,,,,,,METAR,173.0
KTKI 251441Z 36006KT 2SM BR OVC003 04/03 A3034 RMK AO2 T00390033,KTKI,2023-02-25T14:41:00Z,33.18,-96.58,3.9,3.3,360,6,,2.0,30.339567,,,,TRUE,,,,,,BR,OVC,300,,,,,,,LIFR,,,,,,,,,,,,METAR,173.0
KTKI 251356Z 35004KT 1 1/2SM BR BKN004 OVC008 04/03 A3033 RMK AO2 CIG 003V007 T00390033,KTKI,2023-02-25T13:56:00Z,33.18,-96.58,3.9,3.3,350,4,,1.5,30.33071,,,,TRUE,,,,,,BR,BKN,400,OVC,800,,,,,LIFR,,,,,,,,,,,,METAR,173.0
KTKI 251353Z 34005KT 1 3/4SM BR BKN008 OVC010 04/03 A3033 RMK AO2 SLP284 T00390033,KTKI,2023-02-25T13:53:00Z,33.18,-96.58,3.9,3.3,340,5,,1.75,30.33071,1028.4,,,TRUE,,,,,,BR,BKN,800,OVC,1000,,,,,IFR,,,,,,,,,,,,METAR,173.0
KTKI 251336Z 35006KT 2SM BR BKN008 OVC010 04/03 A3032 RMK AO2 T00390033,KTKI,2023-02-25T13:36:00Z,33.18,-96.58,3.9,3.3,350,6,,2.0,30.318897,,,,TRUE,,,,,,BR,BKN,800,OVC,1000,,,,,IFR,,,,,,,,,,,,METAR,173.0
KTKI 251307Z 36008KT 4SM BR OVC008 03/03 A3031 RMK AO2 T00330028,KTKI,2023-02-25T13:07:00Z,33.18,-96.58,3.3,2.8,360,8,,4.0,30.31004,,,,TRUE,,,,,,BR,OVC,800,,,,,,,IFR,,,,,,,,,,,,METAR,173.0
KTKI 251253Z 01007KT 6SM BR SCT006 OVC010 03/03 A3031 RMK AO2 SLP278 T00330028,KTKI,2023-02-25T12:53:00Z,33.18,-96.58,3.3,2.8,10,7,,6.0,30.31004,1027.8,,,TRUE,,,,,,BR,SCT,600,OVC,1000,,,,,MVFR,,,,,,,,,,,,METAR,173.0
KTKI 251153Z 35008KT 6SM BR OVC007 03/03 A3031 RMK AO2 RAE1059B33E47 CIG 004V009 SLP275 P0000 60004 70004 T00330028 10044 20033 55002,KTKI,2023-02-25T11:53:00Z,33.18,-96.58,3.3,2.8,350,8,,6.0,30.31004,1027.5,,,TRUE,,,,,,BR,OVC,700,,,,,,,IFR,-0.2,4.4,3.3,,,0.005,,0.04,0.04,,,METAR,173.0
KTKI 251126Z AUTO 35005KT 5SM BR BKN006 OVC019 04/03 A3029 RMK AO2 RAE1059 CIG 003V008 P0000 T00390028,KTKI,2023-02-25T11:26:00Z,33.18,-96.58,3.9,2.8,350,5,,5.0,30.28937,,,TRUE,TRUE,,,,,,BR,BKN,600,OVC,1900,,,,,IFR,,,,,,0.005,,,,,,SPECI,173.0
KTKI 251117Z AUTO 35006KT 5SM BR SCT006 BKN010 OVC019 03/03 A3030 RMK AO2 RAE1059 P0000 T00330033,KTKI,2023-02-25T11:17:00Z,33.18,-96.58,3.3,3.3,350,6,,5.0,30.301182,,,TRUE,TRUE,,,,,,BR,SCT,600,BKN,1000,OVC,1900,,,MVFR,,,,,,0.005,,,,,,SPECI,173.0
KTKI 251053Z AUTO 35007KT 5SM -RA BR BKN006 BKN010 OVC014 03/03 A3030 RMK AO2 RAB47 SLP273 P0000 T00330028,KTKI,2023-02-25T10:53:00Z,33.18,-96.58,3.3,2.8,350,7,,5.0,30.301182,1027.3,,TRUE,TRUE,,,,,,-RA BR,BKN,600,BKN,1000,OVC,1400,,,IFR,,,,,,0.005,,,,,,METAR,173.0
KTKI 250953Z AUTO 35006KT 9SM OVC005 04/03 A3031 RMK AO2 RAE09 CIG 004V009 SLP274 P0000 T00390033,KTKI,2023-02-25T09:53:00Z,33.18,-96.58,3.9,3.3,350,6,,9.0,30.31004,1027.4,,TRUE,TRUE,,,,,,,OVC,500,,,,,,,IFR,,,,,,0.005,,,,,,METAR,173.0
KTKI 250853Z AUTO 36006KT 5SM -RA BR OVC005 04/03 A3031 RMK AO2 SLP276 P0002 60004 T00390033 58001,KTKI,2023-02-25T08:53:00Z,33.18,-96.58,3.9,3.3,360,6,,5.0,30.31004,1027.6,,TRUE,TRUE,,,,,,-RA BR,OVC,500,,,,,,,IFR,-0.1,,,,,0.02,0.04,,,,,METAR,173.0
KTKI 250753Z AUTO 36009KT 5SM -RA BR OVC007 04/03 A3032 RMK AO2 RAB43 SLP278 P0001 T00390028,KTKI,2023-02-25T07:53:00Z,33.18,-96.58,3.9,2.8,360,9,,5.0,30.318897,1027.8,,TRUE,TRUE,,,,,,-RA BR,OVC,700,,,,,,,IFR,,,,,,0.01,,,,,,METAR,173.0
KTKI 250653Z AUTO 35008KT 8SM BKN008 OVC012 04/03 A3031 RMK AO2 RAE45 SLP278 P0001 T00390033,KTKI,2023-02-25T06:53:00Z,33.18,-96.58,3.9,3.3,350,8,,8.0,30.31004,1027.8,,TRUE,TRUE,,,,,,,BKN,800,OVC,1200,,,,,IFR,,,,,,0.01,,,,,,METAR,173.0
KTKI 250553Z AUTO 01008KT 5SM -RA BR BKN007 OVC011 04/03 A3032 RMK AO2 RAB52 PRESFR SLP278 P0000 60000 T00390028 10067 20039 400830039 50000,KTKI,2023-02-25T05:53:00Z,33.18,-96.58,3.9,2.8,10,8,,5.0,30.318897,1027.8,,TRUE,TRUE,,,,,,-RA BR,BKN,700,OVC,1100,,,,,IFR,0.0,6.7,3.9,8.3,3.9,0.005,,0.005,,,,METAR,173.0
KTKI 250453Z AUTO 36008KT 3SM BR OVC005 04/03 A3033 RMK AO2 SLP281 T00440033,KTKI,2023-02-25T04:53:00Z,33.18,-96.58,4.4,3.3,360,8,,3.0,30.33071,1028.1,,TRUE,TRUE,,,,,,BR,OVC,500,,,,,,,IFR,,,,,,,,,,,,METAR,173.0
KTKI 250353Z AUTO 35010KT 8SM OVC008 05/03 A3033 RMK AO2 SLP284 T00500033,KTKI,2023-02-25T03:53:00Z,33.18,-96.58,5.0,3.3,350,10,,8.0,30.33071,1028.4,,TRUE,TRUE,,,,,,,OVC,800,,,,,,,IFR,,,,,,,,,,,,METAR,173.0
KTKI 250253Z 35008KT 10SM OVC009 05/03 A3032 RMK AO2 SLP278 T00500033 53009,KTKI,2023-02-25T02:53:00Z,33.18,-96.58,5.0,3.3,350,8,,10.0,30.318897,1027.8,,,TRUE,,,,,,,OVC,900,,,,,,,IFR,0.9,,,,,,,,,,,METAR,173.0
KTKI 250153Z 36010KT 10SM OVC011 06/03 A3030 RMK AO2 SLP274 T00560033,KTKI,2023-02-25T01:53:00Z,33.18,-96.58,5.6,3.3,360,10,,10.0,30.301182,1027.4,,,TRUE,,,,,,,OVC,1100,,,,,,,MVFR,,,,,,,,,,,,METAR,173.0
KTKI 250053Z 36009KT 10SM OVC014 06/03 A3030 RMK AO2 SLP271 T00610028,KTKI,2023-02-25T00:53:00Z,33.18,-96.58,6.1,2.8,360,9,,10.0,30.301182,1027.1,,,TRUE,,,,,,,OVC,1400,,,,,,,MVFR,,,,,,,,,,,,METAR,173.0
KTKI 242353Z 01007KT 10SM OVC017 07/03 A3029 RMK AO2 SLP268 60000 T00670028 10083 20067 51005,KTKI,2023-02-24T23:53:00Z,33.18,-96.58,6.7,2.8,10,7,,10.0,30.28937,1026.8,,,TRUE,,,,,,,OVC,1700,,,,,,,MVFR,0.5,8.3,6.7,,,,,0.005,,,,METAR,173.0
KTKI 242253Z 36008KT 10SM OVC018 07/03 A3029 RMK AO2 RAE17 SLP268 P0000 T00720028,KTKI,2023-02-24T22:53:00Z,33.18,-96.58,7.2,2.8,360,8,,10.0,30.28937,1026.8,,,TRUE,,,,,,,OVC,1800,,,,,,,MVFR,,,,,,0.005,,,,,,METAR,173.0
KTKI 242153Z 03008KT 9SM -RA OVC018 07/03 A3028 RMK AO2 RAB17 SLP266 P0000 T00720033,KTKI,2023-02-24T21:53:00Z,33.18,-96.58,7.2,3.3,30,8,,9.0,30.280512,1026.6,,,TRUE,,,,,,-RA,OVC,1800,,,,,,,MVFR,,,,,,0.005,,,,,,METAR,173.0
KTKI 242053Z 01008KT 10SM OVC019 08/02 A3027 RMK AO2 SLP263 T00780022 58015,KTKI,2023-02-24T20:53:00Z,33.18,-96.58,7.8,2.2,10,8,,10.0,30.268702,1026.3,,,TRUE,,,,,,,OVC,1900,,,,,,,MVFR,-1.5,,,,,,,,,,,METAR,173.0
KTKI 241953Z 36010KT 10SM OVC022 08/02 A3028 RMK AO2 SLP266 T00780017,KTKI,2023-02-24T19:53:00Z,33.18,-96.58,7.8,1.7,360,10,,10.0,30.280512,1026.6,,,TRUE,,,,,,,OVC,2200,,,,,,,MVFR,,,,,,,,,,,,METAR,173.0
KTKI 241853Z 01010KT 10SM SCT021 OVC027 08/02 A3031 RMK AO2 SLP274 T00780017,KTKI,2023-02-24T18:53:00Z,33.18,-96.58,7.8,1.7,10,10,,10.0,30.31004,1027.4,,,TRUE,,,,,,,SCT,2100,OVC,2700,,,,,MVFR,,,,,,,,,,,,METAR,173.0
KTKI 241753Z 02007KT 10SM OVC027 08/03 A3032 RMK AO2 SLP277 60000 T00830028 10083 20061 51008,KTKI,2023-02-24T17:53:00Z,33.18,-96.58,8.3,2.8,20,7,,10.0,30.318897,1027.7,,,TRUE,,,,,,,OVC,2700,,,,,,,MVFR,0.8,8.3,6.1,,,,,0.005,,,,METAR,173.0
KTKI 241653Z 01009KT 10SM OVC026 07/02 A3032 RMK AO2 SLP277 T00720017,KTKI,2023-02-24T16:53:00Z,33.18,-96.58,7.2,1.7,10,9,,10.0,30.318897,1027.7,,,TRUE,,,,,,,OVC,2600,,,,,,,MVFR,,,,,,,,,,,,METAR,173.0
KTKI 241553Z 36011KT 10SM OVC026 07/01 A3031 RMK AO2 SLP274 T00670011,KTKI,2023-02-24T15:53:00Z,33.18,-96.58,6.7,1.1,360,11,,10.0,30.31004,1027.4,,,TRUE,,,,,,,OVC,2600,,,,,,,MVFR,,,,,,,,,,,,METAR,173.0
KTKI 241453Z 36010KT 10SM OVC024 07/02 A3029 RMK AO2 RAB41E50 SLP269 P0000 60000 T00670017 53021,KTKI,2023-02-24T14:53:00Z,33.18,-96.58,6.7,1.7,360,10,,10.0,30.28937,1026.9,,,TRUE,,,,,,,OVC,2400,,,,,,,MVFR,2.1,,,,,0.005,0.005,,,,,METAR,173.0
KTKI 241353Z 02009KT 10SM OVC024 07/02 A3027 RMK AO2 SLP261 T00720017,KTKI,2023-02-24T13:53:00Z,33.18,-96.58,7.2,1.7,20,9,,10.0,30.268702,1026.1,,,TRUE,,,,,,,OVC,2400,,,,,,,MVFR,,,,,,,,,,,,METAR,173.0
KTKI 241253Z 02009KT 10SM OVC024 07/01 A3024 RMK AO2 SLP252 T00670006,KTKI,2023-02-24T12:53:00Z,33.18,-96.58,6.7,0.6,20,9,,10.0,30.239174,1025.2,,,TRUE,,,,,,,OVC,2400,,,,,,,MVFR,,,,,,,,,,,,METAR,173.0
KTKI 241153Z 01007KT 10SM OVC026 06/M01 A3023 RMK AO2 SLP248 60000 T00561006 10072 20044 53006,KTKI,2023-02-24T11:53:00Z,33.18,-96.58,5.6,-0.6,10,7,,10.0,30.230314,1024.8,,,TRUE,,,,,,,OVC,2600,,,,,,,MVFR,0.6,7.2,4.4,,,,,0.005,,,,METAR,173.0
KTKI 241053Z AUTO 02009KT 10SM OVC029 06/M02 A3022 RMK AO2 SLP243 T00561017,KTKI,2023-02-24T10:53:00Z,33.18,-96.58,5.6,-1.7,20,9,,10.0,30.221457,1024.3,,TRUE,TRUE,,,,,,,OVC,2900,,,,,,,MVFR,,,,,,,,,,,,METAR,173.0
KTKI 241050Z AUTO 02009KT 10SM OVC029 06/M02 A3022 RMK AO2,KTKI,2023-02-24T10:50:00Z,33.18,-96.58,6.0,-2.0,20,9,,10.0,30.221457,,,TRUE,TRUE,,,,,,,OVC,2900,,,,,,,MVFR,,,,,,,,,,,,SPECI,173.0
KTKI 240953Z AUTO 01009KT 10SM OVC030 05/M02 A3021 RMK AO2 RAE0858 SLP242 P0000 T00501022,KTKI,2023-02-24T09:53:00Z,33.18,-96.58,5.0,-2.2,10,9,,10.0,30.209646,1024.2,,TRUE,TRUE,,,,,,,OVC,3000,,,,,,,MVFR,,,,,,0.005,,,,,,METAR,173.0
KTKI 240853Z AUTO 01010KT 10SM -RA OVC034 04/M02 A3023 RMK AO2 RAB31 SLP246 P0000 60000 T00441017 58001,KTKI,2023-02-24T08:53:00Z,33.18,-96.58,4.4,-1.7,10,10,,10.0,30.230314,1024.6,,TRUE,TRUE,,,,,,-RA,OVC,3400,,,,,,,VFR,-0.1,,,,,0.005,0.005,,,,,METAR,173.0
KTKI 240753Z AUTO 01009KT 10SM OVC033 06/M02 A3024 RMK AO2 SLP249 T00611022,KTKI,2023-02-24T07:53:00Z,33.18,-96.58,6.1,-2.2,10,9,,10.0,30.239174,1024.9,,TRUE,TRUE,,,,,,,OVC,3300,,,,,,,VFR,,,,,,,,,,,,METAR,173.0
KTKI 240653Z AUTO 02010KT 10SM OVC033 07/M03 A3024 RMK AO2 SLP250 T00671028,KTKI,2023-02-24T06:53:00Z,33.18,-96.58,6.7,-2.8,20,10,,10.0,30.239174,1025.0,,TRUE,TRUE,,,,,,,OVC,3300,,,,,,,VFR,,,,,,,,,,,,METAR,173.0
KTKI 240553Z AUTO 02013KT 10SM OVC035 07/M03 A3023 RMK AO2 SLP246 T00721028 10089 20072 401830050 50002,KTKI,2023-02-24T05:53:00Z,33.18,-96.58,7.2,-2.8,20,13,,10.0,30.230314,1024.6,,TRUE,TRUE,,,,,,,OVC,3500,,,,,,,VFR,0.2,8.9,7.2,18.3,5.0,,,,,,,METAR,173.0
KTKI 240453Z AUTO 02011KT 10SM OVC036 07/M03 A3024 RMK AO2 SLP250 T00721028,KTKI,2023-02-24T04:53:00Z,33.18,-96.58,7.2,-2.8,20,11,,10.0,30.239174,1025.0,,TRUE,TRUE,,,,,,,OVC,3600,,,,,,,VFR,,,,,,,,,,,,METAR,173.0
KTKI 240353Z AUTO 02011G20KT 10SM OVC042 07/M03 A3023 RMK AO2 SLP246 T00721028,KTKI,2023-02-24T03:53:00Z,33.18,-96.58,7.2,-2.8,20,11,20,10.0,30.230314,1024.6,,TRUE,TRUE,,,,,,,OVC,4200,,,,,,,VFR,,,,,,,,,,,,METAR,173.0
KTKI 240253Z 01011KT 10SM CLR 07/M02 A3022 RMK AO2 SLP246 T00721022 53015,KTKI,2023-02-24T02:53:00Z,33.18,-96.58,7.2,-2.2,10,11,,10.0,30.221457,1024.6,,,TRUE,,,,,,,CLR,,,,,,,,VFR,1.5,,,,,,,,,,,METAR,173.0
KTKI 240153Z 36012KT 10SM FEW100 07/M02 A3020 RMK AO2 SLP237 T00721022,KTKI,2023-02-24T01:53:00Z,33.18,-96.58,7.2,-2.2,360,12,,10.0,30.200787,1023.7,,,TRUE,,,,,,,FEW,10000,,,,,,,VFR,,,,,,,,,,,,METAR,173.0
KTKI 240053Z 01010KT 10SM CLR 08/M02 A3019 RMK AO2 SLP233 T00781017,KTKI,2023-02-24T00:53:00Z,33.18,-96.58,7.8,-1.7,10,10,,10.0,30.188976,1023.3,,,TRUE,,,,,,,CLR,,,,,,,,VFR,,,,,,,,,,,,METAR,173.0
KTKI 232353Z 36010KT 10SM CLR 09/M02 A3018 RMK AO2 SLP226 T00891017 10106 20089 50006,KTKI,2023-02-23T23:53:00Z,33.18,-96.58,8.9,-1.7,360,10,,10.0,30.180119,1022.6,,,TRUE,,,,,,,CLR,,,,,,,,VFR,0.6,10.6,8.9,,,,,,,,,METAR,173.0
KTKI 232253Z 01010KT 10SM CLR 09/M02 A3018 RMK AO2 SLP225 T00941022,KTKI,2023-02-23T22:53:00Z,33.18,-96.58,9.4,-2.2,10,10,,10.0,30.180119,1022.5,,,TRUE,,,,,,,CLR,,,,,,,,VFR,,,,,,,,,,,,SPECI,173.0
KTKI 232153Z 35013KT 10SM BKN100 10/M02 A3017 RMK AO2 SLP222 T01001022,KTKI,2023-02-23T21:53:00Z,33.18,-96.58,10.0,-2.2,350,13,,10.0,30.171259,1022.2,,,TRUE,,,,,,,BKN,10000,,,,,,,VFR,,,,,,,,,,,,SPECI,173.0
KTKI 232053Z 01011G24KT 10SM BKN100 10/M02 A3016 RMK AO2 SLP218 T01001017 56008,KTKI,2023-02-23T20:53:00Z,33.18,-96.58,10.0,-1.7,10,11,24,10.0,30.159449,1021.8,,,TRUE,,,,,,,BKN,10000,,,,,,,VFR,-0.8,,,,,,,,,,,METAR,173.0
KTKI 231953Z 36015G21KT 10SM BKN100 10/M02 A3016 RMK AO2 SLP219 T01001017,KTKI,2023-02-23T19:53:00Z,33.18,-96.58,10.0,-1.7,360,15,21,10.0,30.159449,1021.9,,,TRUE,,,,,,,BKN,10000,,,,,,,VFR,,,,,,,,,,,,METAR,173.0
KTKI 231753Z 35010KT 10SM CLR 09/M01 A3018 RMK AO2 SLP227 T00941006 10117 20050 51020,KTKI,2023-02-23T17:53:00Z,33.18,-96.58,9.4,-0.6,350,10,,10.0,30.180119,1022.7,,,TRUE,,,,,,,CLR,,,,,,,,VFR,2.0,11.7,5.0,,,,,,,,,SPECI,173.0
KTKI 231653Z 36014KT 10SM FEW090 08/M01 A3016 RMK AO2 SLP220 T00831006,KTKI,2023-02-23T16:53:00Z,33.18,-96.58,8.3,-0.6,360,14,,10.0,30.159449,1022.0,,,TRUE,,,,,,,FEW,9000,,,,,,,VFR,,,,,,,,,,,,METAR,173.0
KTKI 231553Z 35016KT 10SM FEW090 07/M01 A3015 RMK AO2 PK WND 35026/1513 SLP215 T00671011,KTKI,2023-02-23T15:53:00Z,33.18,-96.58,6.7,-1.1,350,16,,10.0,30.15059,1021.5,,,TRUE,,,,,,,FEW,9000,,,,,,,VFR,,,,,,,,,,,,METAR,173.0
KTKI 231453Z 34012G21KT 10SM BKN100 06/M01 A3012 RMK AO2 PK WND 36030/1411 SLP206 T00561006 51058,KTKI,2023-02-23T14:53:00Z,33.18,-96.58,5.6,-0.6,340,12,21,10.0,30.121063,1020.6,,,TRUE,,,,,,,BKN,10000,,,,,,,VFR,5.8,,,,,,,,,,,METAR,173.0
KTKI 231353Z 36016G22KT 10SM BKN090 06/01 A3005 RMK AO2 PK WND 01026/1343 SLP183 T00610006,KTKI,2023-02-23T13:53:00Z,33.18,-96.58,6.1,0.6,360,16,22,10.0,30.050198,1018.3,,,TRUE,,,,,,,BKN,9000,,,,,,,VFR,,,,,,,,,,,,METAR,173.0
KTKI 231253Z 36012G18KT 10SM FEW080 08/03 A3002 RMK AO2 SLP169 T00780028,KTKI,2023-02-23T12:53:00Z,33.18,-96.58,7.8,2.8,360,12,18,10.0,30.02067,1016.9,,,TRUE,,,,,,,FEW,8000,,,,,,,VFR,,,,,,,,,,,,METAR,173.0
KTKI 231153Z 34012KT 10SM CLR 12/06 A2995 RMK AO2 PRESRR SLP142 70049 T01170061 10183 20117 53062,KTKI,2023-02-23T11:53:00Z,33.18,-96.58,11.7,6.1,340,12,,10.0,29.949802,1014.2,,,TRUE,,,,,,,CLR,,,,,,,,VFR,6.2,18.3,11.7,,,,,,0.49,,,METAR,173.0
KTKI 231053Z AUTO 28009KT 10SM FEW050 17/14 A2986 RMK AO2 SLP110 T01720139,KTKI,2023-02-23T10:53:00Z,33.18,-96.58,17.2,13.9,280,9,,10.0,29.861221,1011.0,,TRUE,TRUE,,,,,,,FEW,5000,,,,,,,VFR,,,,,,,,,,,,METAR,173.0
KTKI 230953Z AUTO 26008KT 220V280 8SM CLR 16/15 A2982 RMK AO2 PRESRR SLP098 T01610150,KTKI,2023-02-23T09:53:00Z,33.18,-96.58,16.1,15.0,260,8,,8.0,29.819881,1009.8,,TRUE,TRUE,,,,,,,CLR,,,,,,,,VFR,,,,,,,,,,,,METAR,173.0
KTKI 230853Z AUTO 18007KT 10SM CLR 15/13 A2976 RMK AO2 SLP078 T01500133 51008,KTKI,2023-02-23T08:53:00Z,33.18,-96.58,15.0,13.3,180,7,,10.0,29.760826,1007.8,,TRUE,TRUE,,,,,,,CLR,,,,,,,,VFR,0.8,,,,,,,,,,,METAR,173.0
KTKI 230753Z AUTO 17007KT 10SM CLR 13/11 A2975 RMK AO2 SLP075 T01330111,KTKI,2023-02-23T07:53:00Z,33.18,-96.58,13.3,11.1,170,7,,10.0,29.749016,1007.5,,TRUE,TRUE,,,,,,,CLR,,,,,,,,VFR,,,,,,,,,,,,METAR,173.0
KTKI 230653Z AUTO 16003KT 10SM CLR 14/12 A2975 RMK AO2 SLP076 T01390117,KTKI,2023-02-23T06:53:00Z,33.18,-96.58,13.9,11.7,160,3,,10.0,29.749016,1007.6,,TRUE,TRUE,,,,,,,CLR,,,,,,,,VFR,,,,,,,,,,,,METAR,173.0
KTKI 230553Z AUTO 14004KT 10SM CLR 14/11 A2974 RMK AO2 SLP071 T01440111 10250 20128 402560128 51017,KTKI,2023-02-23T05:53:00Z,33.18,-96.58,14.4,11.1,140,4,,10.0,29.740158,1007.1,,TRUE,TRUE,,,,,,,CLR,,,,,,,,VFR,1.7,25.0,12.8,25.6,12.8,,,,,,,SPECI,173.0
KTKI 230453Z AUTO 16004KT 10SM CLR 14/11 A2973 RMK AO2 SLP071 T01440111,KTKI,2023-02-23T04:53:00Z,33.18,-96.58,14.4,11.1,160,4,,10.0,29.731298,1007.1,,TRUE,TRUE,,,,,,,CLR,,,,,,,,VFR,,,,,,,,,,,,SPECI,173.0
KTKI 230353Z AUTO 13003KT 10SM CLR 17/12 A2972 RMK AO2 SLP065 T01670117,KTKI,2023-02-23T03:53:00Z,33.18,-96.58,16.7,11.7,130,3,,10.0,29.719488,1006.5,,TRUE,TRUE,,,,,,,CLR,,,,,,,,VFR,,,,,,,,,,,,METAR,173.0
KTKI 230253Z 14006KT 10SM CLR 18/12 A2969 RMK AO2 SLP055 T01830117 51021,KTKI,2023-02-23T02:53:00Z,33.18,-96.58,18.3,11.7,140,6,,10.0,29.68996,1005.5,,,TRUE,,,,,,,CLR,,,,,,,,VFR,2.1,,,,,,,,,,,SPECI,173.0
KTKI 230153Z 15006KT 10SM CLR 18/08 A2967 RMK AO2 SLP049 T01780078,KTKI,2023-02-23T01:53:00Z,33.18,-96.58,17.8,7.8,150,6,,10.0,29.66929,1004.9,,,TRUE,,,,,,,CLR,,,,,,,,VFR,,,,,,,,,,,,METAR,173.0
KTKI 230053Z 20005KT 10SM CLR 23/03 A2964 RMK AO2 SLP038 T02280033,KTKI,2023-02-23T00:53:00Z,33.18,-96.58,22.8,3.3,200,5,,10.0,29.639763,1003.8,,,TRUE,,,,,,,CLR,,,,,,,,VFR,,,,,,,,,,,,SPECI,173.0
KTKI 222353Z 22012G24KT 10SM CLR 25/02 A2962 RMK AO2 PK WND 21026/2315 SLP028 T02500017 10256 20206 53014,KTKI,2023-02-22T23:53:00Z,33.18,-96.58,25.0,1.7,220,12,24,10.0,29.619095,1002.8,,,TRUE,,,,,,,CLR,,,,,,,,VFR,1.4,25.6,20.6,,,,,,,,,METAR,173.0
KTKI 222253Z 22016G21KT 10SM CLR 26/03 A2960 RMK AO2 SLP020 T02560028,KTKI,2023-02-22T22:53:00Z,33.18,-96.58,25.6,2.8,220,16,21,10.0,29.601377,1002.0,,,TRUE,,,,,,,CLR,,,,,,,,VFR,,,,,,,,,,,,METAR,173.0
KTKI 222153Z 23016G24KT 10SM CLR 26/02 A2959 RMK AO2 PK WND 22026/2137 SLP015 T02560022,KTKI,2023-02-22T21:53:00Z,33.18,-96.58,25.6,2.2,230,16,24,10.0,29.589567,1001.5,,,TRUE,,,,,,,CLR,,,,,,,,VFR,,,,,,,,,,,,METAR,173.0
KTKI 222053Z 22016G26KT 10SM CLR 25/04 A2958 RMK AO2 PK WND 23029/2038 SLP014 T02500039 56015,KTKI,2023-02-22T20:53:00Z,33.18,-96.58,25.0,3.9,220,16,26,10.0,29.58071,1001.4,,,TRUE,,,,,,,CLR,,,,,,,,VFR,-1.5,,,,,,,,,,,METAR,173.0
KTKI 221953Z 24017G26KT 10SM CLR 24/07 A2959 RMK AO2 PK WND 21026/1903 SLP016 T02440067,KTKI,2023-02-22T19:53:00Z,33.18,-96.58,24.4,6.7,240,17,26,10.0,29.589567,1001.6,,,TRUE,,,,,,,CLR,,,,,,,,VFR,,,,,,,,,,,,METAR,173.0
KTKI 221853Z 24011G21KT 10SM CLR 23/11 A2960 RMK AO2 PK WND 22027/1818 SLP023 T02280106,KTKI,2023-02-22T18:53:00Z,33.18,-96.58,22.8,10.6,240,11,21,10.0,29.601377,1002.3,,,TRUE,,,,,,,CLR,,,,,,,,VFR,,,,,,,,,,,,METAR,173.0
KTKI 221753Z 22016G23KT 10SM FEW120 21/10 A2963 RMK AO2 SLP031 60049 T02060100 10206 20150 55001,KTKI,2023-02-22T17:53:00Z,33.18,-96.58,20.6,10.0,220,16,23,10.0,29.630905,1003.1,,,TRUE,,,,,,,FEW,12000,,,,,,,VFR,-0.1,20.6,15.0,,,,,,,,,SPECI,173.0
KTKI 221653Z 20011KT 10SM OVC100 18/14 A2961 RMK AO2 SLP028 T01780144,KTKI,2023-02-22T16:53:00Z,33.18,-96.58,17.8,14.4,200,11,,10.0,29.610237,1002.8,,,TRUE,,,,,,,OVC,10000,,,,,,,VFR,,,,,,,,,,,,METAR,173.0
KTKI 221553Z 16010KT 10SM BKN090 16/13 A2961 RMK AO2 RAE12 SLP027 P0000 T01560133,KTKI,2023-02-22T15:53:00Z,33.18,-96.58,15.6,13.3,160,10,,10.0,29.610237,1002.7,,,TRUE,,,,,,,BKN,9000,,,,,,,VFR,,,,,,0.005,,,,,,SPECI,173.0
KTKI 221453Z 21007KT 10SM -RA OVC090 16/13 A2963 RMK AO2 SLP033 P0004 60049 T01560128 50030,KTKI,2023-02-22T14:53:00Z,33.18,-96.58,15.6,12.8,210,7,,10.0,29.630905,1003.3,,,TRUE,,,,,,-RA,OVC,9000,,,,,,,VFR,3.0,,,,,0.04,0.49,,,,,METAR,173.0
KTKI 221425Z 20005KT 7SM -RA FEW065 OVC080 16/13 A2962 RMK AO2 LTG DSNT SW P0003 T01560133,KTKI,2023-02-22T14:25:00Z,33.18,-96.58,15.6,13.3,200,5,,7.0,29.619095,,,,TRUE,,,,,,-RA,FEW,6500,OVC,8000,,,,,VFR,,,,,,0.03,,,,,,METAR,173.0
KTKI 221410Z 21005KT 7SM VCTS -RA BKN080 OVC090 16/13 A2962 RMK AO2 P0001 T01560133,KTKI,2023-02-22T14:10:00Z,33.18,-96.58,15.6,13.3,210,5,,7.0,29.619095,,,,TRUE,,,,,,VCTS -RA,BKN,8000,OVC,9000,,,,,VFR,,,,,,0.01,,,,,,SPECI,173.0
KTKI 221353Z 26007KT 6SM -RA BR OVC070 16/14 A2964 RMK AO2 SLP037 P0008 T01560139,KTKI,2023-02-22T13:53:00Z,33.18,-96.58,15.6,13.9,260,7,,6.0,29.639763,1003.7,,,TRUE,,,,,,-RA BR,OVC,7000,,,,,,,VFR,,,,,,0.08,,,,,,METAR,173.0
KTKI 221253Z 28009G17KT 5SM -RA BR FEW018 BKN042 OVC060 16/14 A2962 RMK AO2 PK WND 31027/1227 WSHFT 1217 RAB21 SLP030 P0037 T01560139,KTKI,2023-02-22T12:53:00Z,33.18,-96.58,15.6,13.9,280,9,17,5.0,29.619095,1003.0,,,TRUE,,,,,,-RA BR,FEW,1800,BKN,4200,OVC,6000,,,MVFR,,,,,,0.37,,,,,,METAR,173.0
KTKI 221231Z 31016G27KT 3SM +RA FEW022 BKN060 OVC080 18/13 A2960 RMK AO2 PK WND 31027/1227 WSHFT 1217 LTG DSNT SW RAB21 P0011 T01780133,KTKI,2023-02-22T12:31:00Z,33.18,-96.58,17.8,13.3,310,16,27,3.0,29.601377,,,,TRUE,,,,,,+RA,FEW,2200,BKN,6000,OVC,8000,,,MVFR,,,,,,0.11,,,,,,METAR,173.0
KTKI 221153Z 19016KT 8SM FEW036 SCT050 OVC070 20/18 A2954 RMK AO2 RAE53 SLP999 P0000 60000 T02000178 10222 20200 50020,KTKI,2023-02-22T11:53:00Z,33.18,-96.58,20.0,17.8,190,16,,8.0,29.53937,999.9,,,TRUE,,,,,,,FEW,3600,SCT,5000,OVC,7000,,,VFR,2.0,22.2,20.0,,,0.005,,0.005,,,,METAR,173.0
KTKI 221053Z AUTO 22014G26KT 8SM -RA BKN037 OVC048 21/17 A2955 RMK AO2 PK WND 21029/1001 WSHFT 0942 RAB22 SLP003 P0000 T02110167,KTKI,2023-02-22T10:53:00Z,33.18,-96.58,21.1,16.7,220,14,26,8.0,29.551182,1000.3,,TRUE,TRUE,,,,,,-RA,BKN,3700,OVC,4800,,,,,VFR,,,,,,0.005,,,,,,METAR,173.0
KTKI 221028Z AUTO 21016G26KT 10SM -RA BKN032 OVC044 22/17 A2953 RMK AO2 PK WND 21029/1001 WSHFT 0942 RAB22 P0000 T02170167,KTKI,2023-02-22T10:28:00Z,33.18,-96.58,21.7,16.7,210,16,26,10.0,29.530512,,,TRUE,TRUE,,,,,,-RA,BKN,3200,OVC,4400,,,,,VFR,,,,,,0.005,,,,,,METAR,173.0
KTKI 221002Z AUTO 21017G29KT 10SM BKN029 OVC036 22/16 A2952 RMK AO2 PK WND 21029/1001 WSHFT 0942 T02220161,KTKI,2023-02-22T10:02:00Z,33.18,-96.58,22.2,16.1,210,17,29,10.0,29.518702,,,TRUE,TRUE,,,,,,,BKN,2900,OVC,3600,,,,,MVFR,,,,,,,,,,,,SPECI,173.0
KTKI 220953Z AUTO 24018G31KT 10SM BKN029 OVC036 22/16 A2955 RMK AO2 PK WND 19040/0934 PRESRR SLP000 T02170161,KTKI,2023-02-22T09:53:00Z,33.18,-96.58,21.7,16.1,240,18,31,10.0,29.551182,1000.0,,TRUE,TRUE,,,,,,,BKN,2900,OVC,3600,,,,,MVFR,,,,,,,,,,,,METAR,173.0
KTKI 220853Z AUTO 18024G43KT 10SM OVC032 22/16 A2948 RMK AO2 PK WND 17043/0850 SLP977 T02170161 56015,KTKI,2023-02-22T08:53:00Z,33.18,-96.58,21.7,16.1,180,24,43,10.0,29.480314,997.7,,TRUE,TRUE,,,,,,,OVC,3200,,,,,,,VFR,-1.5,,,,,,,,,,,METAR,173.0
KTKI 220849Z AUTO 18028G39KT 10SM OVC032 22/16 A2949 RMK AO2 PK WND 19040/0823,KTKI,2023-02-22T08:49:00Z,33.18,-96.58,22.0,16.0,180,28,39,10.0,29.489174,,,TRUE,TRUE,,,,,,,OVC,3200,,,,,,,VFR,,,,,,,,,,,,METAR,173.0
KTKI 220753Z AUTO 18024G38KT 10SM OVC026 22/17 A2951 RMK AO2 PK WND 18041/0721 SLP987 T02170167,KTKI,2023-02-22T07:53:00Z,33.18,-96.58,21.7,16.7,180,24,38,10.0,29.509842,998.7,,TRUE,TRUE,,,,,,,OVC,2600,,,,,,,MVFR,,,,,,,,,,,,METAR,173.0
KTKI 220653Z AUTO 18022G32KT 10SM OVC024 22/17 A2952 RMK AO2 PK WND 18034/0634 SLP993 T02170172,KTKI,2023-02-22T06:53:00Z,33.18,-96.58,21.7,17.2,180,22,32,10.0,29.518702,999.3,,TRUE,TRUE,,,,,,,OVC,2400,,,,,,,MVFR,,,,,,,,,,,,METAR,173.0
KTKI 220553Z AUTO 18021G32KT 10SM OVC023 22/17 A2953 RMK AO2 PK WND 18034/0523 SLP996 T02170172 10267 20217 403060133 56008,KTKI,2023-02-22T05:53:00Z,33.18,-96.58,21.7,17.2,180,21,32,10.0,29.530512,999.6,,TRUE,TRUE,,,,,,,OVC,2300,,,,,,,MVFR,-0.8,26.7,21.7,30.6,13.3,,,,,,,SPECI,173.0
KTKI 220517Z AUTO 17021G28KT 10SM BKN025 22/17 A2955 RMK AO2 PK WND 17030/0456 T02170167,KTKI,2023-02-22T05:17:00Z,33.18,-96.58,21.7,16.7,170,21,28,10.0,29.551182,,,TRUE,TRUE,,,,,,,BKN,2500,,,,,,,MVFR,,,,,,,,,,,,SPECI,173.0
KTKI 220453Z AUTO 18019G32KT 10SM CLR 22/17 A2954 RMK AO2 PK WND 18032/0447 SLP999 T02170167,KTKI,2023-02-22T04:53:00Z,33.18,-96.58,21.7,16.7,180,19,32,10.0,29.53937,999.9,,TRUE,TRUE,,,,,,,CLR,,,,,,,,VFR,,,,,,,,,,,,METAR,173.0
KTKI 220353Z AUTO 17020G28KT 10SM CLR 22/17 A2955 RMK AO2 PK WND 17028/0333 SLP002 T02220167,KTKI,2023-02-22T03:53:00Z,33.18,-96.58,22.2,16.7,170,20,28,10.0,29.551182,1000.2,,TRUE,TRUE,,,,,,,CLR,,,,,,,,VFR,,,,,,,,,,,,METAR,173.0
KTKI 220253Z 17018G23KT 10SM CLR 23/17 A2955 RMK AO2 SLP006 T02280167 58002,KTKI,2023-02-22T02:53:00Z,33.18,-96.58,22.8,16.7,170,18,23,10.0,29.551182,1000.6,,,TRUE,,,,,,,CLR,,,,,,,,VFR,-0.2,,,,,,,,,,,METAR,173.0
KTKI 220153Z 17017KT 10SM CLR 24/17 A2955 RMK AO2 SLP007 T02390167,KTKI,2023-02-22T01:53:00Z,33.18,-96.58,23.9,16.7,170,17,,10.0,29.551182,1000.7,,,TRUE,,,,,,,CLR,,,,,,,,VFR,,,,,,,,,,,,METAR,173.0
KTKI 220053Z 18015KT 10SM CLR 24/16 A2957 RMK AO2 PK WND 17027/0019 SLP013 T02440161,KTKI,2023-02-22T00:53:00Z,33.18,-96.58,24.4,16.1,180,15,,10.0,29.568897,1001.3,,,TRUE,,,,,,,CLR,,,,,,,,VFR,,,,,,,,,,,,METAR,173.0
KTKI 212353Z 17015G24KT 10SM CLR 27/16 A2956 RMK AO2 PK WND 18027/2304 SLP009 T02670156 10306 20261 55014,KTKI,2023-02-21T23:53:00Z,33.18,-96.58,26.7,15.6,170,15,24,10.0,29.56004,1000.9,,,TRUE,,,,,,,CLR,,,,,,,,VFR,-1.4,30.6,26.1,,,,,,,,,METAR,173.0
KTKI 212253Z 18015G28KT 10SM CLR 28/12 A2956 RMK AO2 PK WND 19032/2206 SLP007 T02830122,KTKI,2023-02-21T22:53:00Z,33.18,-96.58,28.3,12.2,180,15,28,10.0,29.56004,1000.7,,,TRUE,,,,,,,CLR,,,,,,,,VFR,,,,,,,,,,,,METAR,173.0
KTKI 212153Z 20019KT 10SM CLR 30/11 A2957 RMK AO2 SLP010 T03000106,KTKI,2023-02-21T21:53:00Z,33.18,-96.58,30.0,10.6,200,19,,10.0,29.568897,1001.0,,,TRUE,,,,,,,CLR,,,,,,,,VFR,,,,,,,,,,,,SPECI,173.0
KTKI 212053Z 22015G26KT 10SM CLR 30/09 A2960 RMK AO2 PK WND 18026/2032 SLP020 T03000089 56041,KTKI,2023-02-21T20:53:00Z,33.18,-96.58,30.0,8.9,220,15,26,10.0,29.601377,1002.0,,,TRUE,,,,,,,CLR,,,,,,,,VFR,-4.1,,,,,,,,,,,METAR,173.0
KTKI 211953Z 19015G21KT 10SM CLR 29/09 A2964 RMK AO2 SLP034 T02890089,KTKI,2023-02-21T19:53:00Z,33.18,-96.58,28.9,8.9,190,15,21,10.0,29.639763,1003.4,,,TRUE,,,,,,,CLR,,,,,,,,VFR,,,,,,,,,,,,METAR,173.0
KTKI 211853Z 21011KT 10SM CLR 28/07 A2968 RMK AO2 PRESFR SLP050 T02780072,KTKI,2023-02-21T18:53:00Z,33.18,-96.58,27.8,7.2,210,11,,10.0,29.681103,1005.0,,,TRUE,,,,,,,CLR,,,,,,,,VFR,,,,,,,,,,,,METAR,173.0
KTKI 211753Z 20009KT 10SM CLR 26/07 A2973 RMK AO2 SLP065 T02610072 10261 20133 58011,KTKI,2023-02-21T17:53:00Z,33.18,-96.58,26.1,7.2,200,9,,10.0,29.731298,1006.5,,,TRUE,,,,,,,CLR,,,,,,,,VFR,-1.1,26.1,13.3,,,,,,,,,METAR,173.0
KTKI 211653Z 21008KT 10SM CLR 25/08 A2975 RMK AO2 SLP074 T02500078,KTKI,2023-02-21T16:53:00Z,33.18,-96.58,25.0,7.8,210,8,,10.0,29.749016,1007.4,,,TRUE,,,,,,,CLR,,,,,,,,VFR,,,,,,,,,,,,METAR,173.0
KTKI 211553Z 20005KT 10SM CLR 23/09 A2976 RMK AO2 SLP079 T02330089,KTKI,2023-02-21T15:53:00Z,33.18,-96.58,23.3,8.9,200,5,,10.0,29.760826,1007.9,,,TRUE,,,,,,,CLR,,,,,,,,VFR,,,,,,,,,,,,METAR,173.0
KTKI 211453Z 21007KT 10SM CLR 21/09 A2976 RMK AO2 SLP077 T02060089 53003,KTKI,2023-02-21T14:53:00Z,33.18,-96.58,20.6,8.9,210,7,,10.0,29.760826,1007.7,,,TRUE,,,,,,,CLR,,,,,,,,VFR,0.3,,,,,,,,,,,METAR,173.0
KTKI 211353Z 18006KT 10SM CLR 16/11 A2975 RMK AO2 SLP074 T01560106,KTKI,2023-02-21T13:53:00Z,33.18,-96.58,15.6,10.6,180,6,,10.0,29.749016,1007.4,,,TRUE,,,,,,,CLR,,,,,,,,VFR,,,,,,,,,,,,SPECI,173.0
KTKI 211253Z 18005KT 10SM CLR 13/09 A2975 RMK AO2 SLP077 T01330089,KTKI,2023-02-21T12:53:00Z,33.18,-96.58,13.3,8.9,180,5,,10.0,29.749016,1007.7,,,TRUE,,,,,,,CLR,,,,,,,,VFR,,,,,,,,,,,,METAR,173.0
KTKI 211153Z 00000KT 10SM CLR 14/09 A2975 RMK AO2 SLP075 T01440094 10206 20133 55000,KTKI,2023-02-21T11:53:00Z,33.18,-96.58,14.4,9.4,0,0,,10.0,29.749016,1007.5,,,TRUE,,,,,,,CLR,,,,,,,,VFR,0.0,20.6,13.3,,,,,,,,,METAR,173.0
KTKI 211053Z AUTO 00000KT 10SM CLR 16/09 A2974 RMK AO2 SLP071 T01610094,KTKI,2023-02-21T10:53:00Z,33.18,-96.58,16.1,9.4,0,0,,10.0,29.740158,1007.1,,TRUE,TRUE,,,,,,,CLR,,,,,,,,VFR,,,,,,,,,,,,METAR,173.0
KTKI 210953Z AUTO 25007KT 10SM CLR 19/09 A2975 RMK AO2 SLP071 T01890089,KTKI,2023-02-21T09:53:00Z,33.18,-96.58,18.9,8.9,250,7,,10.0,29.749016,1007.1,,TRUE,TRUE,,,,,,,CLR,,,,,,,,VFR,,,,,,,,,,,,METAR,173.0
KTKI 210853Z AUTO 28004KT 10SM CLR 19/10 A2975 RMK AO2 SLP071 T01940100 56006,KTKI,2023-02-21T08:53:00Z,33.18,-96.58,19.4,10.0,280,4,,10.0,29.749016,1007.1,,TRUE,TRUE,,,,,,,CLR,,,,,,,,VFR,-0.6,,,,,,,,,,,METAR,173.0
KTKI 210753Z AUTO 22008KT 10SM CLR 21/11 A2975 RMK AO2 SLP073 T02060106,KTKI,2023-02-21T07:53:00Z,33.18,-96.58,20.6,10.6,220,8,,10.0,29.749016,1007.3,,TRUE,TRUE,,,,,,,CLR,,,,,,,,VFR,,,,,,,,,,,,METAR,173.0
KTKI 210653Z AUTO 16004KT 10SM CLR 17/11 A2975 RMK AO2 SLP075 T01670106,KTKI,2023-02-21T06:53:00Z,33.18,-96.58,16.7,10.6,160,4,,10.0,29.749016,1007.5,,TRUE,TRUE,,,,,,,CLR,,,,,,,,VFR,,,,,,,,,,,,METAR,173.0
KTKI 210553Z AUTO 18007KT 10SM CLR 16/11 A2977 RMK AO2 SLP080 T01610106 10217 20150 402610150 58003,KTKI,2023-02-21T05:53:00Z,33.18,-96.58,16.1,10.6,180,7,,10.0,29.769686,1008.0,,TRUE,TRUE,,,,,,,CLR,,,,,,,,VFR,-0.3,21.7,15.0,26.1,15.0,,,,,,,METAR,173.0
KTKI 210453Z AUTO 18006KT 10SM CLR 16/09 A2977 RMK AO2 SLP082 T01610094,KTKI,2023-02-21T04:53:00Z,33.18,-96.58,16.1,9.4,180,6,,10.0,29.769686,1008.2,,TRUE,TRUE,,,,,,,CLR,,,,,,,,VFR,,,,,,,,,,,,METAR,173.0
KTKI 210353Z AUTO 18003KT 10SM CLR 16/09 A2978 RMK AO2 SLP086 T01560094,KTKI,2023-02-21T03:53:00Z,33.18,-96.58,15.6,9.4,180,3,,10.0,29.778543,1008.6,,TRUE,TRUE,,,,,,,CLR,,,,,,,,VFR,,,,,,,,,,,,METAR,173.0
KTKI 210253Z 00000KT 10SM CLR 17/08 A2978 RMK AO2 SLP086 T01720083 56003,KTKI,2023-02-21T02:53:00Z,33.18,-96.58,17.2,8.3,0,0,,10.0,29.778543,1008.6,,,TRUE,,,,,,,CLR,,,,,,,,VFR,-0.3,,,,,,,,,,,SPECI,173.0
KTKI 210153Z 04003KT 10SM CLR 19/08 A2978 RMK AO2 SLP087 T01940078,KTKI,2023-02-21T01:53:00Z,33.18,-96.58,19.4,7.8,40,3,,10.0,29.778543,1008.7,,,TRUE,,,,,,,CLR,,,,,,,,VFR,,,,,,,,,,,,METAR,173.0
KTKI 210053Z 16004KT 10SM CLR 18/09 A2978 RMK AO2 SLP085 T01830094,KTKI,2023-02-21T00:53:00Z,33.18,-96.58,18.3,9.4,160,4,,10.0,29.778543,1008.5,,,TRUE,,,,,,,CLR,,,,,,,,VFR,,,,,,,,,,,,METAR,173.0
KTKI 202353Z 17006KT 10SM CLR 21/09 A2979 RMK AO2 SLP087 T02110089 10261 20211 55012,KTKI,2023-02-20T23:53:00Z,33.18,-96.58,21.1,8.9,170,6,,10.0,29.790354,1008.7,,,TRUE,,,,,,,CLR,,,,,,,,VFR,-1.2,26.1,21.1,,,,,,,,,METAR,173.0
KTKI 202253Z 21008KT 10SM CLR 25/07 A2979 RMK AO2 SLP086 T02500072,KTKI,2023-02-20T22:53:00Z,33.18,-96.58,25.0,7.2,210,8,,10.0,29.790354,1008.6,,,TRUE,,,,,,,CLR,,,,,,,,VFR,,,,,,,,,,,,METAR,173.0
KTKI 202153Z 23015KT 10SM CLR 26/07 A2980 RMK AO2 PK WND 23026/2126 SLP089 T02610067,KTKI,2023-02-20T21:53:00Z,33.18,-96.58,26.1,6.7,230,15,,10.0,29.799213,1008.9,,,TRUE,,,,,,,CLR,,,,,,,,VFR,,,,,,,,,,,,METAR,173.0
KTKI 202053Z 23016G24KT 10SM CLR 26/07 A2982 RMK AO2 PK WND 22027/2018 SLP097 T02560072 56031,KTKI,2023-02-20T20:53:00Z,33.18,-96.58,25.6,7.2,230,16,24,10.0,29.819881,1009.7,,,TRUE,,,,,,,CLR,,,,,,,,VFR,-3.1,,,,,,,,,,,METAR,173.0
KTKI 201953Z 23016KT 10SM CLR 24/07 A2985 RMK AO2 PK WND 22026/1857 SLP107 T02390067,KTKI,2023-02-20T19:53:00Z,33.18,-96.58,23.9,6.7,230,16,,10.0,29.84941,1010.7,,,TRUE,,,,,,,CLR,,,,,,,,VFR,,,,,,,,,,,,METAR,173.0
KTKI 201853Z 23015G26KT 10SM CLR 24/07 A2988 RMK AO2 PK WND 24026/1844 SLP117 T02390072,KTKI,2023-02-20T18:53:00Z,33.18,-96.58,23.9,7.2,230,15,26,10.0,29.878937,1011.7,,,TRUE,,,,,,,CLR,,,,,,,,VFR,,,,,,,,,,,,METAR,173.0
KTKI 201753Z 24012G23KT 10SM CLR 22/07 A2992 RMK AO2 PK WND 22027/1721 SLP131 T02220067 10222 20150 58008,KTKI,2023-02-20T17:53:00Z,33.18,-96.58,22.2,6.7,240,12,23,10.0,29.920275,1013.1,,,TRUE,,,,,,,CLR,,,,,,,,VFR,-0.8,22.2,15.0,,,,,,,,,METAR,173.0
KTKI 201653Z 22018G26KT 10SM CLR 20/06 A2992 RMK AO2 PK WND 21026/1652 SLP133 T02000061,KTKI,2023-02-20T16:53:00Z,33.18,-96.58,20.0,6.1,220,18,26,10.0,29.920275,1013.3,,,TRUE,,,,,,,CLR,,,,,,,,VFR,,,,,,,,,,,,METAR,173.0
KTKI 201553Z 22014KT 10SM CLR 18/06 A2995 RMK AO2 SLP142 T01830061,KTKI,2023-02-20T15:53:00Z,33.18,-96.58,18.3,6.1,220,14,,10.0,29.949802,1014.2,,,TRUE,,,,,,,CLR,,,,,,,,VFR,,,,,,,,,,,,METAR,173.0
KTKI 201453Z 21010KT 10SM CLR 17/07 A2994 RMK AO2 SLP141 T01670067 51004,KTKI,2023-02-20T14:53:00Z,33.18,-96.58,16.7,6.7,210,10,,10.0,29.940945,1014.1,,,TRUE,,,,,,,CLR,,,,,,,,VFR,0.4,,,,,,,,,,,METAR,173.0
KTKI 201353Z 20008KT 10SM CLR 16/07 A2994 RMK AO2 SLP140 T01560067,KTKI,2023-02-20T13:53:00Z,33.18,-96.58,15.6,6.7,200,8,,10.0,29.940945,1014.0,,,TRUE,,,,,,,CLR,,,,,,,,VFR,,,,,,,,,,,,METAR,173.0
KTKI 201253Z 18004KT 10SM CLR 15/07 A2993 RMK AO2 SLP140 T01500067,KTKI,2023-02-20T12:53:00Z,33.18,-96.58,15.0,6.7,180,4,,10.0,29.929134,1014.0,,,TRUE,,,,,,,CLR,,,,,,,,VFR,,,,,,,,,,,,METAR,173.0
KTKI 201153Z 21006KT 10SM CLR 17/06 A2993 RMK AO2 SLP135 T01670061 10189 20156 56005,KTKI,2023-02-20T11:53:00Z,33.18,-96.58,16.7,6.1,210,6,,10.0,29.929134,1013.5,,,TRUE,,,,,,,CLR,,,,,,,,VFR,-0.5,18.9,15.6,,,,,,,,,METAR,173.0
KTKI 201053Z AUTO 21007KT 10SM CLR 16/07 A2993 RMK AO2 SLP136 T01610072,KTKI,2023-02-20T10:53:00Z,33.18,-96.58,16.1,7.2,210,7,,10.0,29.929134,1013.6,,TRUE,TRUE,,,,,,,CLR,,,,,,,,VFR,,,,,,,,,,,,METAR,173.0
KTKI 200953Z AUTO 19008KT 10SM CLR 16/07 A2993 RMK AO2 SLP138 T01610072,KTKI,2023-02-20T09:53:00Z,33.18,-96.58,16.1,7.2,190,8,,10.0,29.929134,1013.8,,TRUE,TRUE,,,,,,,CLR,,,,,,,,VFR,,,,,,,,,,,,METAR,173.0
KTKI 200853Z AUTO 21011KT 10SM CLR 17/07 A2994 RMK AO2 PK WND 23026/0757 SLP140 T01720072 56016,KTKI,2023-02-20T08:53:00Z,33.18,-96.58,17.2,7.2,210,11,,10.0,29.940945,1014.0,,TRUE,TRUE,,,,,,,CLR,,,,,,,,VFR,-1.6,,,,,,,,,,,METAR,173.0
KTKI 200753Z AUTO 22016G24KT 10SM CLR 18/08 A2996 RMK AO2 PK WND 22031/0742 SLP146 T01830083,KTKI,2023-02-20T07:53:00Z,33.18,-96.58,18.3,8.3,220,16,24,10.0,29.958662,1014.6,,TRUE,TRUE,,,,,,,CLR,,,,,,,,VFR,,,,,,,,,,,,METAR,173.0
KTKI 200653Z AUTO 21013G26KT 10SM CLR 18/09 A2996 RMK AO2 PK WND 21026/0646 SLP148 T01830089,KTKI,2023-02-20T06:53:00Z,33.18,-96.58,18.3,8.9,210,13,26,10.0,29.958662,1014.8,,TRUE,TRUE,,,,,,,CLR,,,,,,,,VFR,,,,,,,,,,,,METAR,173.0
KTKI 200553Z AUTO 21009KT 10SM CLR 18/08 A2999 RMK AO2 SLP158 T01780083 10194 20156 402060044 56007,KTKI,2023-02-20T05:53:00Z,33.18,-96.58,17.8,8.3,210,9,,10.0,29.991142,1015.8,,TRUE,TRUE,,,,,,,CLR,,,,,,,,VFR,-0.7,19.4,15.6,20.6,4.4,,,,,,,METAR,173.0
KTKI 200453Z AUTO 19009KT 10SM CLR 17/07 A3000 RMK AO2 SLP162 T01720072,KTKI,2023-02-20T04:53:00Z,33.18,-96.58,17.2,7.2,190,9,,10.0,30.0,1016.2,,TRUE,TRUE,,,,,,,CLR,,,,,,,,VFR,,,,,,,,,,,,SPECI,173.0
KTKI 200353Z AUTO 20012KT 10SM CLR 17/08 A3000 RMK AO2 SLP164 T01670078,KTKI,2023-02-20T03:53:00Z,33.18,-96.58,16.7,7.8,200,12,,10.0,30.0,1016.4,,TRUE,TRUE,,,,,,,CLR,,,,,,,,VFR,,,,,,,,,,,,METAR,173.0
KTKI 200253Z 19012KT 10SM CLR 17/07 A3001 RMK AO2 SLP168 T01720072 58010,KTKI,2023-02-20T02:53:00Z,33.18,-96.58,17.2,7.2,190,12,,10.0,30.008858,1016.8,,,TRUE,,,,,,,CLR,,,,,,,,VFR,-1.0,,,,,,,,,,,METAR,173.0
KTKI 200153Z 19012KT 10SM CLR 18/07 A3003 RMK AO2 SLP174 T01780072,KTKI,2023-02-20T01:53:00Z,33.18,-96.58,17.8,7.2,190,12,,10.0,30.029528,1017.4,,,TRUE,,,,,,,CLR,,,,,,,,VFR,,,,,,,,,,,,SPECI,173.0
KTKI 200053Z 17007KT 10SM CLR 16/04 A3004 RMK AO2 SLP179 T01610044,KTKI,2023-02-20T00:53:00Z,33.18,-96.58,16.1,4.4,170,7,,10.0,30.041338,1017.9,,,TRUE,,,,,,,CLR,,,,,,,,VFR,,,,,,,,,,,,METAR,173.0
KTKI 192353Z 19004KT 10SM CLR 19/02 A3004 RMK AO2 SLP180 T01940017 10206 20156 56005,KTKI,2023-02-19T23:53:00Z,33.18,-96.58,19.4,1.7,190,4,,10.0,30.041338,1018.0,,,TRUE,,,,,,,CLR,,,,,,,,VFR,-0.5,20.6,15.6,,,,,,,,,METAR,173.0
KTKI 192253Z 22009KT 10SM CLR 21/01 A3005 RMK AO2 SLP182 T02060011,KTKI,2023-02-19T22:53:00Z,33.18,-96.58,20.6,1.1,220,9,,10.0,30.050198,1018.2,,,TRUE,,,,,,,CLR,,,,,,,,VFR,,,,,,,,,,,,METAR,173.0
KTKI 192153Z 20011KT 10SM CLR 21/01 A3004 RMK AO2 SLP179 T02060006,KTKI,2023-02-19T21:53:00Z,33.18,-96.58,20.6,0.6,200,11,,10.0,30.041338,1017.9,,,TRUE,,,,,,,CLR,,,,,,,,VFR,,,,,,,,,,,,METAR,173.0
KTKI 192053Z 22007KT 10SM CLR 21/01 A3006 RMK AO2 SLP184 T02060006 56030,KTKI,2023-02-19T20:53:00Z,33.18,-96.58,20.6,0.6,220,7,,10.0,30.059055,1018.4,,,TRUE,,,,,,,CLR,,,,,,,,VFR,-3.0,,,,,,,,,,,METAR,173.0
KTKI 191953Z 22012KT 10SM CLR 18/M01 A3009 RMK AO2 SLP195 T01831006,KTKI,2023-02-19T19:53:00Z,33.18,-96.58,18.3,-0.6,220,12,,10.0,30.088583,1019.5,,,TRUE,,,,,,,CLR,,,,,,,,VFR,,,,,,,,,,,,METAR,173.0
KTKI 191853Z 22011G19KT 10SM CLR 17/M01 A3011 RMK AO2 SLP202 T01721006,KTKI,2023-02-19T18:53:00Z,33.18,-96.58,17.2,-0.6,220,11,19,10.0,30.109253,1020.2,,,TRUE,,,,,,,CLR,,,,,,,,VFR,,,,,,,,,,,,METAR,173.0
KTKI 191753Z 21014KT 10SM CLR 16/M01 A3015 RMK AO2 SLP216 T01561011 10161 20044 58003,KTKI,2023-02-19T17:53:00Z,33.18,-96.58,15.6,-1.1,210,14,,10.0,30.15059,1021.6,,,TRUE,,,,,,,CLR,,,,,,,,VFR,-0.3,16.1,4.4,,,,,,,,,METAR,173.0
KTKI 191653Z 22011G19KT 10SM CLR 14/M01 A3016 RMK AO2 SLP220 T01441011,KTKI,2023-02-19T16:53:00Z,33.18,-96.58,14.4,-1.1,220,11,19,10.0,30.159449,1022.0,,,TRUE,,,,,,,CLR,,,,,,,,VFR,,,,,,,,,,,,METAR,173.0
KTKI 191553Z 21008KT 10SM CLR 12/00 A3016 RMK AO2 SLP223 T01170000,KTKI,2023-02-19T15:53:00Z,33.18,-96.58,11.7,0.0,210,8,,10.0,30.159449,1022.3,,,TRUE,,,,,,,CLR,,,,,,,,VFR,,,,,,,,,,,,METAR,173.0
KTKI 191453Z 18009KT 10SM CLR 08/03 A3016 RMK AO2 SLP222 T00830028 51010,KTKI,2023-02-19T14:53:00Z,33.18,-96.58,8.3,2.8,180,9,,10.0,30.159449,1022.2,,,TRUE,,,,,,,CLR,,,,,,,,VFR,1.0,,,,,,,,,,,METAR,173.0
KTKI 191353Z 18006KT 10SM CLR 06/02 A3015 RMK AO2 SLP219 T00610022,KTKI,2023-02-19T13:53:00Z,33.18,-96.58,6.1,2.2,180,6,,10.0,30.15059,1021.9,,,TRUE,,,,,,,CLR,,,,,,,,VFR,,,,,,,,,,,,METAR,173.0
KTKI 191253Z 19006KT 10SM CLR 05/01 A3015 RMK AO2 SLP220 T00500011,KTKI,2023-02-19T12:53:00Z,33.18,-96.58,5.0,1.1,190,6,,10.0,30.15059,1022.0,,,TRUE,,,,,,,CLR,,,,,,,,VFR,,,,,,,,,,,,METAR,173.0
KTKI 191153Z 18007KT 10SM CLR 05/02 A3013 RMK AO2 SLP212 T00500017 10083 20044 55006,KTKI,2023-02-19T11:53:00Z,33.18,-96.58,5.0,1.7,180,7,,10.0,30.129921,1021.2,,,TRUE,,,,,,,CLR,,,,,,,,VFR,-0.6,8.3,4.4,,,,,,,,,METAR,173.0
KTKI 191053Z AUTO 17008KT 10SM CLR 06/02 A3012 RMK AO2 SLP210 T00610017,KTKI,2023-02-19T10:53:00Z,33.18,-96.58,6.1,1.7,170,8,,10.0,30.121063,1021.0,,TRUE,TRUE,,,,,,,CLR,,,,,,,,VFR,,,,,,,,,,,,METAR,173.0
KTKI 190953Z AUTO 15007KT 10SM CLR 05/01 A3013 RMK AO2 SLP214 T00500011,KTKI,2023-02-19T09:53:00Z,33.18,-96.58,5.0,1.1,150,7,,10.0,30.129921,1021.4,,TRUE,TRUE,,,,,,,CLR,,,,,,,,VFR,,,,,,,,,,,,METAR,173.0
KTKI 190853Z AUTO 14006KT 10SM CLR 06/01 A3014 RMK AO2 SLP217 T00560011 58012,KTKI,2023-02-19T08:53:00Z,33.18,-96.58,5.6,1.1,140,6,,10.0,30.138779,1021.7,,TRUE,TRUE,,,,,,,CLR,,,,,,,,VFR,-1.2,,,,,,,,,,,METAR,173.0
KTKI 190753Z AUTO 17007KT 10SM CLR 06/01 A3016 RMK AO2 SLP222 T00560011,KTKI,2023-02-19T07:53:00Z,33.18,-96.58,5.6,1.1,170,7,,10.0,30.159449,1022.2,,TRUE,TRUE,,,,,,,CLR,,,,,,,,VFR,,,,,,,,,,,,METAR,173.0
KTKI 190653Z AUTO 18009KT 10SM CLR 07/01 A3017 RMK AO2 SLP226 T00720006,KTKI,2023-02-19T06:53:00Z,33.18,-96.58,7.2,0.6,180,9,,10.0,30.171259,1022.6,,TRUE,TRUE,,,,,,,CLR,,,,,,,,VFR,,,,,,,,,,,,METAR,173.0
KTKI 190553Z AUTO 19012KT 10SM CLR 08/00 A3018 RMK AO2 SLP229 T00830000 10094 20083 401111022 56007,KTKI,2023-02-19T05:53:00Z,33.18,-96.58,8.3,0.0,190,12,,10.0,30.180119,1022.9,,TRUE,TRUE,,,,,,,CLR,,,,,,,,VFR,-0.7,9.4,8.3,11.1,-2.2,,,,,,,METAR,173.0
KTKI 190453Z AUTO 18013KT 10SM CLR 08/M01 A3018 RMK AO2 SLP230 T00831006,KTKI,2023-02-19T04:53:00Z,33.18,-96.58,8.3,-0.6,180,13,,10.0,30.180119,1023.0,,TRUE,TRUE,,,,,,,CLR,,,,,,,,VFR,,,,,,,,,,,,METAR,173.0
KTKI 190353Z AUTO 18011KT 10SM CLR 08/M01 A3019 RMK AO2 SLP233 T00831011,KTKI,2023-02-19T03:53:00Z,33.18,-96.58,8.3,-1.1,180,11,,10.0,30.188976,1023.3,,TRUE,TRUE,,,,,,,CLR,,,,,,,,VFR,,,,,,,,,,,,METAR,173.0
KTKI 190253Z 18010KT 10SM CLR 09/M02 A3020 RMK AO2 SLP239 T00891022 58004,KTKI,2023-02-19T02:53:00Z,33.18,-96.58,8.9,-2.2,180,10,,10.0,30.200787,1023.9,,,TRUE,,,,,,,CLR,,,,,,,,VFR,-0.4,,,,,,,,,,,METAR,173.0
KTKI 190153Z 18012KT 10SM CLR 09/M03 A3021 RMK AO2 SLP243 T00891033,KTKI,2023-02-19T01:53:00Z,33.18,-96.58,8.9,-3.3,180,12,,10.0,30.209646,1024.3,,,TRUE,,,,,,,CLR,,,,,,,,VFR,,,,,,,,,,,,METAR,173.0
KTKI 190053Z 18010KT 10SM CLR 08/M03 A3021 RMK AO2 SLP245 T00831028,KTKI,2023-02-19T00:53:00Z,33.18,-96.58,8.3,-2.8,180,10,,10.0,30.209646,1024.5,,,TRUE,,,,,,,CLR,,,,,,,,VFR,,,,,,,,,,,,METAR,173.0
KTKI 182353Z 18010KT 10SM CLR 09/M04 A3021 RMK AO2 SLP244 T00941039 10111 20089 58017,KTKI,2023-02-18T23:53:00Z,33.18,-96.58,9.4,-3.9,180,10,,10.0,30.209646,1024.4,,,TRUE,,,,,,,CLR,,,,,,,,VFR,-1.7,11.1,8.9,,,,,,,,,METAR,173.0
KTKI 182253Z 19011KT 10SM FEW120 10/M04 A3025 RMK AO2 SLP256 T01001039,KTKI,2023-02-18T22:53:00Z,33.18,-96.58,10.0,-3.9,190,11,,10.0,30.250984,1025.6,,,TRUE,,,,,,,FEW,12000,,,,,,,VFR,,,,,,,,,,,,METAR,173.0
KTKI 182153Z 20011G23KT 10SM FEW110 11/M04 A3027 RMK AO2 PRESRR SLP263 T01061044,KTKI,2023-02-18T21:53:00Z,33.18,-96.58,10.6,-4.4,200,11,23,10.0,30.268702,1026.3,,,TRUE,,,,,,,FEW,11000,,,,,,,VFR,,,,,,,,,,,,METAR,173.0
KTKI 182053Z 17015KT 10SM CLR 11/M04 A3027 RMK AO2 PRESFR SLP262 T01061044 58050,KTKI,2023-02-18T20:53:00Z,33.18,-96.58,10.6,-4.4,170,15,,10.0,30.268702,1026.2,,,TRUE,,,,,,,CLR,,,,,,,,VFR,-5.0,,,,,,,,,,,METAR,173.0
KTKI 181953Z 19012KT 10SM CLR 11/M04 A3036 RMK AO2 SLP292 T01061039,KTKI,2023-02-18T19:53:00Z,33.18,-96.58,10.6,-3.9,190,12,,10.0,30.360237,1029.2,,,TRUE,,,,,,,CLR,,,,,,,,VFR,,,,,,,,,,,,METAR,173.0
KTKI 181853Z 18012KT 10SM CLR 10/M05 A3039 RMK AO2 SLP305 T01001050,KTKI,2023-02-18T18:53:00Z,33.18,-96.58,10.0,-5.0,180,12,,10.0,30.389763,1030.5,,,TRUE,,,,,,,CLR,,,,,,,,VFR,,,,,,,,,,,,METAR,173.0
KTKI 181753Z 18012KT 10SM CLR 10/M04 A3042 RMK AO2 SLP313 T01001044 10100 21022 58009,KTKI,2023-02-18T17:53:00Z,33.18,-96.58,10.0,-4.4,180,12,,10.0,30.41929,1031.3,,,TRUE,,,,,,,CLR,,,,,,,,VFR,-0.9,10.0,-2.2,,,,,,,,,METAR,173.0
KTKI 181653Z 16013KT 10SM CLR 08/M04 A3043 RMK AO2 SLP317 T00831044,KTKI,2023-02-18T16:53:00Z,33.18,-96.58,8.3,-4.4,160,13,,10.0,30.431103,1031.7,,,TRUE,,,,,,,CLR,,,,,,,,VFR,,,,,,,,,,,,METAR,173.0
KTKI 181553Z 20011KT 10SM CLR 07/M03 A3044 RMK AO2 SLP320 T00721033,KTKI,2023-02-18T15:53:00Z,33.18,-96.58,7.2,-3.3,200,11,,10.0,30.43996,1032.0,,,TRUE,,,,,,,CLR,,,,,,,,VFR,,,,,,,,,,,,METAR,173.0
KTKI 181453Z 17004KT 10SM CLR 03/M02 A3045 RMK AO2 SLP324 T00331022 53001,KTKI,2023-02-18T14:53:00Z,33.18,-96.58,3.3,-2.2,170,4,,10.0,30.448818,1032.4,,,TRUE,,,,,,,CLR,,,,,,,,VFR,0.1,,,,,,,,,,,METAR,173.0
KTKI 181353Z 17005KT 10SM CLR 01/M03 A3044 RMK AO2 SLP324 T00061028,KTKI,2023-02-18T13:53:00Z,33.18,-96.58,0.6,-2.8,170,5,,10.0,30.43996,1032.4,,,TRUE,,,,,,,CLR,,,,,,,,VFR,,,,,,,,,,,,METAR,173.0
KTKI 181253Z 16003KT 10SM CLR M01/M03 A3044 RMK AO2 SLP323 T10111033,KTKI,2023-02-18T12:53:00Z,33.18,-96.58,-1.1,-3.3,160,3,,10.0,30.43996,1032.3,,,TRUE,,,,,,,CLR,,,,,,,,VFR,,,,,,,,,,,,METAR,173.0
KTKI 181153Z 21003KT 10SM CLR M01/M03 A3044 RMK AO2 SLP322 T10111033 10006 21022 55007,KTKI,2023-02-18T11:53:00Z,33.18,-96.58,-1.1,-3.3,210,3,,10.0,30.43996,1032.2,,,TRUE,,,,,,,CLR,,,,,,,,VFR,-0.7,0.6,-2.2,,,,,,,,,SPECI,173.0
KTKI 181053Z AUTO 00000KT 10SM CLR M01/M03 A3044 RMK AO2 SLP320 T10111028,KTKI,2023-02-18T10:53:00Z,33.18,-96.58,-1.1,-2.8,0,0,,10.0,30.43996,1032.0,,TRUE,TRUE,,,,,,,CLR,,,,,,,,VFR,,,,,,,,,,,,METAR,173.0
KTKI 180953Z AUTO 00000KT 10SM CLR M01/M03 A3044 RMK AO2 SLP323 T10111028,KTKI,2023-02-18T09:53:00Z,33.18,-96.58,-1.1,-2.8,0,0,,10.0,30.43996,1032.3,,TRUE,TRUE,,,,,,,CLR,,,,,,,,VFR,,,,,,,,,,,,METAR,173.0
KTKI 180853Z AUTO 00000KT 10SM CLR M01/M04 A3046 RMK AO2 SLP328 T10061039 58011,KTKI,2023-02-18T08:53:00Z,33.18,-96.58,-0.6,-3.9,0,0,,10.0,30.46063,1032.8,,TRUE,TRUE,,,,,,,CLR,,,,,,,,VFR,-1.1,,,,,,,,,,,METAR,173.0
KTKI 180753Z AUTO 00000KT 10SM CLR M02/M04 A3047 RMK AO2 SLP333 T10171044,KTKI,2023-02-18T07:53:00Z,33.18,-96.58,-1.7,-4.4,0,0,,10.0,30.469488,1033.3,,TRUE,TRUE,,,,,,,CLR,,,,,,,,VFR,,,,,,,,,,,,METAR,173.0
KTKI 180653Z AUTO 00000KT 10SM CLR 00/M04 A3050 RMK AO2 SLP341 T00001039,KTKI,2023-02-18T06:53:00Z,33.18,-96.58,0.0,-3.9,0,0,,10.0,30.499016,1034.1,,TRUE,TRUE,,,,,,,CLR,,,,,,,,VFR,,,,,,,,,,,,METAR,173.0
KTKI 180553Z AUTO 00000KT 10SM CLR 00/M04 A3049 RMK AO2 SLP342 T00001039 10078 20000 401001017 50003,KTKI,2023-02-18T05:53:00Z,33.18,-96.58,0.0,-3.9,0,0,,10.0,30.490158,1034.2,,TRUE,TRUE,,,,,,,CLR,,,,,,,,VFR,0.3,7.8,0.0,10.0,-1.7,,,,,,,METAR,173.0
KTKI 180453Z AUTO 00000KT 10SM CLR 01/M04 A3050 RMK AO2 SLP344 T00111044,KTKI,2023-02-18T04:53:00Z,33.18,-96.58,1.1,-4.4,0,0,,10.0,30.499016,1034.4,,TRUE,TRUE,,,,,,,CLR,,,,,,,,VFR,,,,,,,,,,,,METAR,173.0
KTKI 180353Z AUTO 00000KT 10SM CLR 02/M04 A3049 RMK AO2 SLP341 T00171039,KTKI,2023-02-18T03:53:00Z,33.18,-96.58,1.7,-3.9,0,0,,10.0,30.490158,1034.1,,TRUE,TRUE,,,,,,,CLR,,,,,,,,VFR,,,,,,,,,,,,METAR,173.0
KTKI 180253Z 00000KT 10SM CLR 03/M05 A3049 RMK AO2 SLP339 T00331050 53015,KTKI,2023-02-18T02:53:00Z,33.18,-96.58,3.3,-5.0,0,0,,10.0,30.490158,1033.9,,,TRUE,,,,,,,CLR,,,,,,,,VFR,1.5,,,,,,,,,,,METAR,173.0
KTKI 180153Z 00000KT 10SM CLR 05/M05 A3047 RMK AO2 SLP333 T00501050,KTKI,2023-02-18T01:53:00Z,33.18,-96.58,5.0,-5.0,0,0,,10.0,30.469488,1033.3,,,TRUE,,,,,,,CLR,,,,,,,,VFR,,,,,,,,,,,,METAR,173.0
KTKI 180053Z 00000KT 10SM CLR 07/M06 A3046 RMK AO2 SLP329 T00671056,KTKI,2023-02-18T00:53:00Z,33.18,-96.58,6.7,-5.6,0,0,,10.0,30.46063,1032.9,,,TRUE,,,,,,,CLR,,,,,,,,VFR,,,,,,,,,,,,METAR,173.0
KTKI 172353Z 36005KT 10SM CLR 08/M08 A3044 RMK AO2 SLP323 T00831083 10100 20061 58010,KTKI,2023-02-17T23:53:00Z,33.18,-96.58,8.3,-8.3,360,5,,10.0,30.43996,1032.3,,,TRUE,,,,,,,CLR,,,,,,,,VFR,-1.0,10.0,6.1,,,,,,,,,METAR,173.0
KTKI 172253Z 35005KT 10SM CLR 09/M08 A3046 RMK AO2 SLP326 T00941083,KTKI,2023-02-17T22:53:00Z,33.18,-96.58,9.4,-8.3,350,5,,10.0,30.46063,1032.6,,,TRUE,,,,,,,CLR,,,,,,,,VFR,,,,,,,,,,,,METAR,173.0
KTKI 172153Z 34008KT 10SM CLR 10/M06 A3046 RMK AO2 SLP328 T01001061,KTKI,2023-02-17T21:53:00Z,33.18,-96.58,10.0,-6.1,340,8,,10.0,30.46063,1032.8,,,TRUE,,,,,,,CLR,,,,,,,,VFR,,,,,,,,,,,,METAR,173.0
KTKI 172053Z 33007KT 10SM CLR 09/M07 A3047 RMK AO2 SLP332 T00941067 56025,KTKI,2023-02-17T20:53:00Z,33.18,-96.58,9.4,-6.7,330,7,,10.0,30.469488,1033.2,,,TRUE,,,,,,,CLR,,,,,,,,VFR,-2.5,,,,,,,,,,,METAR,173.0
KTKI 171953Z 35015KT 10SM CLR 09/M06 A3049 RMK AO2 SLP337 T00891056,KTKI,2023-02-17T19:53:00Z,33.18,-96.58,8.9,-5.6,350,15,,10.0,30.490158,1033.7,,,TRUE,,,,,,,CLR,,,,,,,,VFR,,,,,,,,,,,,METAR,173.0
KTKI 171853Z VRB03KT 10SM CLR 07/M06 A3051 RMK AO2 SLP347 T00721061,KTKI,2023-02-17T18:53:00Z,33.18,-96.58,7.2,-6.1,0,3,,10.0,30.510826,1034.7,,,TRUE,,,,,,,CLR,,,,,,,,VFR,,,,,,,,,,,,METAR,173.0
KTKI 171753Z VRB04KT 10SM CLR 06/M05 A3055 RMK AO2 SLP359 T00561050 10061 21017 50007,KTKI,2023-02-17T17:53:00Z,33.18,-96.58,5.6,-5.0,0,4,,10.0,30.549213,1035.9,,,TRUE,,,,,,,CLR,,,,,,,,VFR,0.7,6.1,-1.7,,,,,,,,,METAR,173.0
KTKI 171653Z 01005KT 10SM CLR 04/M04 A3056 RMK AO2 SLP361 T00441044,KTKI,2023-02-17T16:53:00Z,33.18,-96.58,4.4,-4.4,10,5,,10.0,30.561024,1036.1,,,TRUE,,,,,,,CLR,,,,,,,,VFR,,,,,,,,,,,,METAR,173.0
KTKI 171553Z 01007KT 10SM CLR 03/M04 A3055 RMK AO2 SLP360 T00331039,KTKI,2023-02-17T15:53:00Z,33.18,-96.58,3.3,-3.9,10,7,,10.0,30.549213,1036.0,,,TRUE,,,,,,,CLR,,,,,,,,VFR,,,,,,,,,,,,METAR,173.0
KTKI 171453Z 36010KT 10SM CLR 02/M04 A3053 RMK AO2 SLP352 T00171039 51029,KTKI,2023-02-17T14:53:00Z,33.18,-96.58,1.7,-3.9,360,10,,10.0,30.528543,1035.2,,,TRUE,,,,,,,CLR,,,,,,,,VFR,2.9,,,,,,,,,,,METAR,173.0
KTKI 171353Z 34006KT 10SM CLR M01/M04 A3050 RMK AO2 SLP345 T10061044,KTKI,2023-02-17T13:53:00Z,33.18,-96.58,-0.6,-4.4,340,6,,10.0,30.499016,1034.5,,,TRUE,,,,,,,CLR,,,,,,,,VFR,,,,,,,,,,,,METAR,173.0
KTKI 171253Z 33008KT 10SM CLR M02/M05 A3047 RMK AO2 SLP335 T10171050,KTKI,2023-02-17T12:53:00Z,33.18,-96.58,-1.7,-5.0,330,8,,10.0,30.469488,1033.5,,,TRUE,,,,,,,CLR,,,,,,,,VFR,,,,,,,,,,,,METAR,173.0
KTKI 171153Z 33008KT 10SM CLR M02/M05 A3044 RMK AO2 SLP324 T10171050 10011 21017 53012,KTKI,2023-02-17T11:53:00Z,33.18,-96.58,-1.7,-5.0,330,8,,10.0,30.43996,1032.4,,,TRUE,,,,,,,CLR,,,,,,,,VFR,1.2,1.1,-1.7,,,,,,,,,METAR,173.0
KTKI 171053Z AUTO 34007KT 10SM CLR M01/M06 A3042 RMK AO2 SLP317 T10111056,KTKI,2023-02-17T10:53:00Z,33.18,-96.58,-1.1,-5.6,340,7,,10.0,30.41929,1031.7,,TRUE,TRUE,,,,,,,CLR,,,,,,,,VFR,,,,,,,,,,,,METAR,173.0
KTKI 170953Z AUTO 33008KT 10SM CLR M01/M06 A3042 RMK AO2 SLP314 T10061056,KTKI,2023-02-17T09:53:00Z,33.18,-96.58,-0.6,-5.6,330,8,,10.0,30.41929,1031.4,,TRUE,TRUE,,,,,,,CLR,,,,,,,,VFR,,,,,,,,,,,,METAR,173.0
KTKI 170853Z AUTO 34011G20KT 10SM CLR 00/M06 A3040 RMK AO2 SLP308 T00001056 51014,KTKI,2023-02-17T08:53:00Z,33.18,-96.58,0.0,-5.6,340,11,20,10.0,30.398623,1030.8,,TRUE,TRUE,,,,,,,CLR,,,,,,,,VFR,1.4,,,,,,,,,,,METAR,173.0
KTKI 170753Z AUTO 35014KT 10SM CLR 00/M06 A3039 RMK AO2 PK WND 35027/0706 SLP304 T00001061,KTKI,2023-02-17T07:53:00Z,33.18,-96.58,0.0,-6.1,350,14,,10.0,30.389763,1030.4,,TRUE,TRUE,,,,,,,CLR,,,,,,,,VFR,,,,,,,,,,,,METAR,173.0
KTKI 170653Z AUTO 35013G21KT 10SM CLR 01/M06 A3038 RMK AO2 SLP302 T00061056,KTKI,2023-02-17T06:53:00Z,33.18,-96.58,0.6,-5.6,350,13,21,10.0,30.380905,1030.2,,TRUE,TRUE,,,,,,,CLR,,,,,,,,VFR,,,,,,,,,,,,METAR,173.0
KTKI 170553Z AUTO 34012KT 10SM CLR 01/M06 A3036 RMK AO2 SLP295 T00111061 10050 20011 402110011 51025,KTKI,2023-02-17T05:53:00Z,33.18,-96.58,1.1,-6.1,340,12,,10.0,30.360237,1029.5,,TRUE,TRUE,,,,,,,CLR,,,,,,,,VFR,2.5,5.0,1.1,21.1,1.1,,,,,,,SPECI,173.0
KTKI 170453Z AUTO 33014G24KT 10SM CLR 02/M06 A3034 RMK AO2 SLP287 T00171061,KTKI,2023-02-17T04:53:00Z,33.18,-96.58,1.7,-6.1,330,14,24,10.0,30.339567,1028.7,,TRUE,TRUE,,,,,,,CLR,,,,,,,,VFR,,,,,,,,,,,,METAR,173.0
KTKI 170353Z AUTO 34014KT 10SM CLR 02/M06 A3032 RMK AO2 SLP280 T00221056,KTKI,2023-02-17T03:53:00Z,33.18,-96.58,2.2,-5.6,340,14,,10.0,30.318897,1028.0,,TRUE,TRUE,,,,,,,CLR,,,,,,,,VFR,,,,,,,,,,,,METAR,173.0
KTKI 170253Z 33011KT 10SM CLR 03/M06 A3029 RMK AO2 SLP269 T00331056 53026,KTKI,2023-02-17T02:53:00Z,33.18,-96.58,3.3,-5.6,330,11,,10.0,30.28937,1026.9,,,TRUE,,,,,,,CLR,,,,,,,,VFR,2.6,,,,,,,,,,,METAR,173.0
KTKI 170153Z 33013KT 10SM CLR 04/M06 A3026 RMK AO2 SLP261 T00391056,KTKI,2023-02-17T01:53:00Z,33.18,-96.58,3.9,-5.6,330,13,,10.0,30.259842,1026.1,,,TRUE,,,,,,,CLR,,,,,,,,VFR,,,,,,,,,,,,METAR,173.0
KTKI 170053Z 33011KT 10SM CLR 04/M06 A3023 RMK AO2 SLP250 T00441061,KTKI,2023-02-17T00:53:00Z,33.18,-96.58,4.4,-6.1,330,11,,10.0,30.230314,1025.0,,,TRUE,,,,,,,CLR,,,,,,,,VFR,,,,,,,,,,,,SPECI,173.0
KTKI 162353Z 31017KT 10SM CLR 05/M06 A3021 RMK AO2 SLP241 T00501061 10083 20050 53023,KTKI,2023-02-16T23:53:00Z,33.18,-96.58,5.0,-6.1,310,17,,10.0,30.209646,1024.1,,,TRUE,,,,,,,CLR,,,,,,,,VFR,2.3,8.3,5.0,,,,,,,,,METAR,173.0
KTKI 162253Z 32017G23KT 10SM CLR 07/M06 A3018 RMK AO2 PK WND 32027/2235 SLP231 T00671056,KTKI,2023-02-16T22:53:00Z,33.18,-96.58,6.7,-5.6,320,17,23,10.0,30.180119,1023.1,,,TRUE,,,,,,,CLR,,,,,,,,VFR,,,,,,,,,,,,METAR,173.0
KTKI 162153Z 31016G25KT 10SM CLR 08/M05 A3015 RMK AO2 PK WND 33028/2112 SLP221 T00781050,KTKI,2023-02-16T21:53:00Z,33.18,-96.58,7.8,-5.0,310,16,25,10.0,30.15059,1022.1,,,TRUE,,,,,,,CLR,,,,,,,,VFR,,,,,,,,,,,,METAR,173.0
KTKI 162053Z 32019G25KT 10SM CLR 08/M04 A3014 RMK AO2 PK WND 30028/2012 SLP217 T00831044 56009,KTKI,2023-02-16T20:53:00Z,33.18,-96.58,8.3,-4.4,320,19,25,10.0,30.138779,1021.7,,,TRUE,,,,,,,CLR,,,,,,,,VFR,-0.9,,,,,,,,,,,METAR,173.0
KTKI 161953Z 34013G27KT 10SM CLR 07/M04 A3015 RMK AO2 PK WND 32027/1907 SLP220 T00721039,KTKI,2023-02-16T19:53:00Z,33.18,-96.58,7.2,-3.9,340,13,27,10.0,30.15059,1022.0,,,TRUE,,,,,,,CLR,,,,,,,,VFR,,,,,,,,,,,,METAR,173.0
KTKI 161853Z 30015G26KT 10SM OVC095 07/M04 A3016 RMK AO2 PK WND 29026/1845 SLP221 T00721039,KTKI,2023-02-16T18:53:00Z,33.18,-96.58,7.2,-3.9,300,15,26,10.0,30.159449,1022.1,,,TRUE,,,,,,,OVC,9500,,,,,,,VFR,,,,,,,,,,,,METAR,173.0
KTKI 161753Z 32019G24KT 10SM BKN090 06/M02 A3017 RMK AO2 SLP221 T00611022 10061 20044 50012,KTKI,2023-02-16T17:53:00Z,33.18,-96.58,6.1,-2.2,320,19,24,10.0,30.171259,1022.1,,,TRUE,,,,,,,BKN,9000,,,,,,,VFR,1.2,6.1,4.4,,,,,,,,,METAR,173.0
KTKI 161653Z 31019G23KT 10SM SCT026 OVC090 05/M01 A3017 RMK AO2 PK WND 32026/1631 SLP223 T00501011,KTKI,2023-02-16T16:53:00Z,33.18,-96.58,5.0,-1.1,310,19,23,10.0,30.171259,1022.3,,,TRUE,,,,,,,SCT,2600,OVC,9000,,,,,VFR,,,,,,,,,,,,SPECI,173.0
KTKI 161553Z 31017G25KT 10SM BKN024 OVC090 05/M01 A3016 RMK AO2 SLP220 T00501006,KTKI,2023-02-16T15:53:00Z,33.18,-96.58,5.0,-0.6,310,17,25,10.0,30.159449,1022.0,,,TRUE,,,,,,,BKN,2400,OVC,9000,,,,,MVFR,,,,,,,,,,,,METAR,173.0
KTKI 161453Z 32018G22KT 10SM BKN021 OVC085 05/01 A3013 RMK AO2 SLP210 T00500006 53028,KTKI,2023-02-16T14:53:00Z,33.18,-96.58,5.0,0.6,320,18,22,10.0,30.129921,1021.0,,,TRUE,,,,,,,BKN,2100,OVC,8500,,,,,MVFR,2.8,,,,,,,,,,,METAR,173.0
KTKI 161353Z 32014G22KT 10SM OVC021 06/01 A3009 RMK AO2 SLP194 T00560011,KTKI,2023-02-16T13:53:00Z,33.18,-96.58,5.6,1.1,320,14,22,10.0,30.088583,1019.4,,,TRUE,,,,,,,OVC,2100,,,,,,,MVFR,,,,,,,,,,,,METAR,173.0
KTKI 161351Z 31018G22KT 10SM OVC021 06/01 A3009 RMK AO2 PRESRR,KTKI,2023-02-16T13:51:00Z,33.18,-96.58,6.0,1.0,310,18,22,10.0,30.088583,,,,TRUE,,,,,,,OVC,2100,,,,,,,MVFR,,,,,,,,,,,,SPECI,173.0
KTKI 161253Z 33017G28KT 10SM SCT022 OVC080 06/01 A3005 RMK AO2 PK WND 32029/1233 SLP180 T00560011,KTKI,2023-02-16T12:53:00Z,33.18,-96.58,5.6,1.1,330,17,28,10.0,30.050198,1018.0,,,TRUE,,,,,,,SCT,2200,OVC,8000,,,,,VFR,,,,,,,,,,,,METAR,173.0
KTKI 161153Z 33014G24KT 10SM SCT020 OVC075 06/02 A3002 RMK AO2 PK WND 31026/1055 SLP170 T00560017 10211 20056 53030,KTKI,2023-02-16T11:53:00Z,33.18,-96.58,5.6,1.7,330,14,24,10.0,30.02067,1017.0,,,TRUE,,,,,,,SCT,2000,OVC,7500,,,,,VFR,3.0,21.1,5.6,,,,,,,,,METAR,173.0
KTKI 161053Z AUTO 32017G23KT 10SM FEW020 OVC070 06/02 A2999 RMK AO2 PK WND 32029/1020 SLP160 T00610017,KTKI,2023-02-16T10:53:00Z,33.18,-96.58,6.1,1.7,320,17,23,10.0,29.991142,1016.0,,TRUE,TRUE,,,,,,,FEW,2000,OVC,7000,,,,,VFR,,,,,,,,,,,,METAR,173.0
KTKI 160953Z AUTO 32019KT 10SM FEW019 OVC070 06/02 A2995 RMK AO2 PK WND 32031/0926 SLP147 T00610022,KTKI,2023-02-16T09:53:00Z,33.18,-96.58,6.1,2.2,320,19,,10.0,29.949802,1014.7,,TRUE,TRUE,,,,,,,FEW,1900,OVC,7000,,,,,VFR,,,,,,,,,,,,METAR,173.0
KTKI 160853Z AUTO 32019G29KT 10SM OVC065 07/03 A2993 RMK AO2 PK WND 32032/0832 SLP139 T00720033 51062,KTKI,2023-02-16T08:53:00Z,33.18,-96.58,7.2,3.3,320,19,29,10.0,29.929134,1013.9,,TRUE,TRUE,,,,,,,OVC,6500,,,,,,,VFR,6.2,,,,,,,,,,,METAR,173.0
KTKI 160753Z AUTO 32016G24KT 10SM BKN065 OVC080 09/04 A2988 RMK AO2 PK WND 31033/0704 SLP123 T00890044,KTKI,2023-02-16T07:53:00Z,33.18,-96.58,8.9,4.4,320,16,24,10.0,29.878937,1012.3,,TRUE,TRUE,,,,,,,BKN,6500,OVC,8000,,,,,VFR,,,,,,,,,,,,METAR,173.0
KTKI 160653Z AUTO 31016G28KT 10SM FEW024 11/07 A2983 RMK AO2 PK WND 31033/0608 WSHFT 0554 SLP105 T01110072,KTKI,2023-02-16T06:53:00Z,33.18,-96.58,11.1,7.2,310,16,28,10.0,29.828741,1010.5,,TRUE,TRUE,,,,,,,FEW,2400,,,,,,,VFR,,,,,,,,,,,,METAR,173.0
KTKI 160610Z AUTO 31019G33KT 10SM SCT020 BKN034 16/12 A2978 RMK AO2 PK WND 31033/0608 WSHFT 0554 PRESRR T01560122,KTKI,2023-02-16T06:10:00Z,33.18,-96.58,15.6,12.2,310,19,33,10.0,29.778543,,,TRUE,TRUE,,,,,,,SCT,2000,BKN,3400,,,,,VFR,,,,,,,,,,,,METAR,173.0
KTKI 160553Z AUTO 22014G24KT 8SM BKN018 BKN022 OVC033 21/18 A2974 RMK AO2 PK WND 21026/0538 SLP072 T02110183 10222 20183 402390056 53020,KTKI,2023-02-16T05:53:00Z,33.18,-96.58,21.1,18.3,220,14,24,8.0,29.740158,1007.2,,TRUE,TRUE,,,,,,,BKN,1800,BKN,2200,OVC,3300,,,MVFR,2.0,22.2,18.3,23.9,5.6,,,,,,,METAR,173.0
KTKI 160510Z AUTO 20013G18KT 8SM BKN019 21/18 A2971 RMK AO2 T02060178,KTKI,2023-02-16T05:10:00Z,33.18,-96.58,20.6,17.8,200,13,18,8.0,29.71063,,,TRUE,TRUE,,,,,,,BKN,1900,,,,,,,MVFR,,,,,,,,,,,,SPECI,173.0
KTKI 160453Z AUTO 18010KT 9SM FEW020 19/17 A2970 RMK AO2 SLP057 T01890167,KTKI,2023-02-16T04:53:00Z,33.18,-96.58,18.9,16.7,180,10,,9.0,29.698818,1005.7,,TRUE,TRUE,,,,,,,FEW,2000,,,,,,,VFR,,,,,,,,,,,,METAR,173.0
KTKI 160353Z AUTO 16011KT 10SM CLR 19/16 A2967 RMK AO2 SLP050 T01940161,KTKI,2023-02-16T03:53:00Z,33.18,-96.58,19.4,16.1,160,11,,10.0,29.66929,1005.0,,TRUE,TRUE,,,,,,,CLR,,,,,,,,VFR,,,,,,,,,,,,METAR,173.0
KTKI 160253Z 17011KT 10SM CLR 19/16 A2968 RMK AO2 SLP054 T01940161 51008,KTKI,2023-02-16T02:53:00Z,33.18,-96.58,19.4,16.1,170,11,,10.0,29.681103,1005.4,,,TRUE,,,,,,,CLR,,,,,,,,VFR,0.8,,,,,,,,,,,METAR,173.0
KTKI 160153Z 15009KT 10SM CLR 20/16 A2967 RMK AO2 SLP053 T02000156,KTKI,2023-02-16T01:53:00Z,33.18,-96.58,20.0,15.6,150,9,,10.0,29.66929,1005.3,,,TRUE,,,,,,,CLR,,,,,,,,VFR,,,,,,,,,,,,METAR,173.0
KTKI 160053Z 14007KT 10SM FEW047 BKN060 21/16 A2967 RMK AO2 SLP052 T02110156,KTKI,2023-02-16T00:53:00Z,33.18,-96.58,21.1,15.6,140,7,,10.0,29.66929,1005.2,,,TRUE,,,,,,,FEW,4700,BKN,6000,,,,,VFR,,,,,,,,,,,,METAR,173.0
KTKI 152353Z 16008KT 10SM SCT055 22/16 A2966 RMK AO2 SLP048 T02220156 10239 20172 56009,KTKI,2023-02-15T23:53:00Z,33.18,-96.58,22.2,15.6,160,8,,10.0,29.660433,1004.8,,,TRUE,,,,,,,SCT,5500,,,,,,,VFR,-0.9,23.9,17.2,,,,,,,,,METAR,173.0
KTKI 152253Z 16012G25KT 10SM BKN048 BKN055 23/16 A2966 RMK AO2 PK WND 18026/2214 SLP047 T02330156,KTKI,2023-02-15T22:53:00Z,33.18,-96.58,23.3,15.6,160,12,25,10.0,29.660433,1004.7,,,TRUE,,,,,,,BKN,4800,BKN,5500,,,,,VFR,,,,,,,,,,,,METAR,173.0
KTKI 152153Z 15014G26KT 10SM BKN037 BKN046 23/16 A2966 RMK AO2 PK WND 15027/2114 SLP048 T02280156,KTKI,2023-02-15T21:53:00Z,33.18,-96.58,22.8,15.6,150,14,26,10.0,29.660433,1004.8,,,TRUE,,,,,,,BKN,3700,BKN,4600,,,,,VFR,,,,,,,,,,,,METAR,173.0
KTKI 152053Z 16019G26KT 10SM FEW035 FEW044 22/15 A2968 RMK AO2 PK WND 14026/2045 SLP055 T02220150 56039,KTKI,2023-02-15T20:53:00Z,33.18,-96.58,22.2,15.0,160,19,26,10.0,29.681103,1005.5,,,TRUE,,,,,,,FEW,3500,FEW,4400,,,,,VFR,-3.9,,,,,,,,,,,METAR,173.0
KTKI 151953Z 16015KT 10SM SCT025 21/15 A2972 RMK AO2 PK WND 18027/1908 SLP067 T02110150,KTKI,2023-02-15T19:53:00Z,33.18,-96.58,21.1,15.0,160,15,,10.0,29.719488,1006.7,,,TRUE,,,,,,,SCT,2500,,,,,,,VFR,,,,,,,,,,,,SPECI,173.0
KTKI 151853Z 17017KT 10SM CLR 19/14 A2976 RMK AO2 PK WND 16027/1758 SLP083 T01890139,KTKI,2023-02-15T18:53:00Z,33.18,-96.58,18.9,13.9,170,17,,10.0,29.760826,1008.3,,,TRUE,,,,,,,CLR,,,,,,,,VFR,,,,,,,,,,,,METAR,173.0
KTKI 151753Z 15020KT 10SM CLR 18/13 A2980 RMK AO2 PK WND 16027/1734 SLP096 T01830128 10189 20056 55004,KTKI,2023-02-15T17:53:00Z,33.18,-96.58,18.3,12.8,150,20,,10.0,29.799213,1009.6,,,TRUE,,,,,,,CLR,,,,,,,,VFR,-0.4,18.9,5.6,,,,,,,,,METAR,173.0
KTKI 151653Z 14012KT 10SM CLR 17/11 A2980 RMK AO2 SLP096 T01720111,KTKI,2023-02-15T16:53:00Z,33.18,-96.58,17.2,11.1,140,12,,10.0,29.799213,1009.6,,,TRUE,,,,,,,CLR,,,,,,,,VFR,,,,,,,,,,,,METAR,173.0
KTKI 151553Z 15008KT 10SM CLR 14/06 A2981 RMK AO2 SLP101 T01440061,KTKI,2023-02-15T15:53:00Z,33.18,-96.58,14.4,6.1,150,8,,10.0,29.811024,1010.1,,,TRUE,,,,,,,CLR,,,,,,,,VFR,,,,,,,,,,,,METAR,173.0
KTKI 151453Z 13006KT 10SM CLR 12/04 A2981 RMK AO2 SLP102 T01170039 51018,KTKI,2023-02-15T14:53:00Z,33.18,-96.58,11.7,3.9,130,6,,10.0,29.811024,1010.2,,,TRUE,,,,,,,CLR,,,,,,,,VFR,1.8,,,,,,,,,,,METAR,173.0
KTKI 151353Z 08003KT 10SM CLR 08/03 A2981 RMK AO2 SLP103 T00780033,KTKI,2023-02-15T13:53:00Z,33.18,-96.58,7.8,3.3,80,3,,10.0,29.811024,1010.3,,,TRUE,,,,,,,CLR,,,,,,,,VFR,,,,,,,,,,,,METAR,173.0
