No errors
Max results hit (1000): not all possible results returned; 
408 ms
data source=metars
1000 results
raw_text,station_id,observation_time,latitude,longitude,temp_c,dewpoint_c,wind_dir_degrees,wind_speed_kt,wind_gust_kt,visibility_statute_mi,altim_in_hg,sea_level_pressure_mb,corrected,auto,auto_station,maintenance_indicator_on,no_signal,lightning_sensor_off,freezing_rain_sensor_off,present_weather_sensor_off,wx_string,sky_cover,cloud_base_ft_agl,sky_cover,cloud_base_ft_agl,sky_cover,cloud_base_ft_agl,sky_cover,cloud_base_ft_agl,flight_category,three_hr_pressure_tendency_mb,maxT_c,minT_c,maxT24hr_c,minT24hr_c,precip_in,pcp3hr_in,pcp6hr_in,pcp24hr_in,snow_in,vert_vis_ft,metar_type,elevation_m
KTMK 021630Z AUTO 24011G19KT 2SM RA OVC009 06/05 A3005 RMK AO2 P0009,KTMK,2023-03-02T16:30:00Z,45.42,-123.82,6.0,5.0,240,11,19,2.0,30.050198,,,TRUE,TRUE,,,,,,RA,OVC,900,,,,,,,IFR,,,,,,0.09,,,,,,METAR,8.0
KTMK 021610Z AUTO 19007KT 3SM -RA OVC015 06/05 A3004 RMK AO2 P0002,KTMK,2023-03-02T16:10:00Z,45.42,-123.82,6.0,5.0,190,7,,3.0,30.041338,,,TRUE,TRUE,,,,,,-RA,OVC,1500,,,,,,,MVFR,,,,,,0.02,,,,,,SPECI,8.0
KTMK 021550Z AUTO 17008G14KT 3SM RA OVC015 05/04 A3002 RMK AO2 P0005,KTMK,2023-03-02T15:50:00Z,45.42,-123.82,5.0,4.0,170,8,14,3.0,30.02067,,,TRUE,TRUE,,,,,,RA,OVC,1500,,,,,,,MVFR,,,,,,0.05,,,,,,SPECI,8.0
KTMK 021530Z AUTO 18007KT 3SM -RA OVC017 05/04 A3002 RMK AO2 P0003,KTMK,2023-03-02T15:30:00Z,45.42,-123.82,5.0,4.0,180,7,,3.0,30.02067,,,TRUE,TRUE,,,,,,-RA,OVC,1700,,,,,,,MVFR,,,,,,0.03,,,,,,METAR,8.0
KTMK 021510Z AUTO 16009KT 5SM -RA SCT014 OVC020 05/03 A3002 RMK AO2 P0001,KTMK,2023-03-02T15:10:00Z,45.42,-123.82,5.0,3.0,160,9,,5.0,30.02067,,,TRUE,TRUE,,,,,,-RA,SCT,1400,OVC,2000,,,,,MVFR,,,,,,0.01,,,,,,SPECI,8.0
KTMK 021450Z AUTO 18003KT 4SM -RA BKN014 OVC019 05/03 A3003 RMK AO2 P0005,KTMK,2023-03-02T14:50:00Z,45.42,-123.82,5.0,3.0,180,3,,4.0,30.029528,,,TRUE,TRUE,,,,,,-RA,BKN,1400,OVC,1900,,,,,MVFR,,,,,,0.05,,,,,,SPECI,8.0
KTMK 021430Z AUTO 14008G16KT 3SM -RA OVC019 05/03 A3004 RMK AO2 P0002,KTMK,2023-03-02T14:30:00Z,45.42,-123.82,5.0,3.0,140,8,16,3.0,30.041338,,,TRUE,TRUE,,,,,,-RA,OVC,1900,,,,,,,MVFR,,,,,,0.02,,,,,,SPECI,8.0
KTMK 021410Z AUTO 14009KT 5SM -RA OVC018 05/03 A3005 RMK AO2 P0001,KTMK,2023-03-02T14:10:00Z,45.42,-123.82,5.0,3.0,140,9,,5.0,30.050198,,,TRUE,TRUE,,,,,,-RA,OVC,1800,,,,,,,MVFR,,,,,,0.01,,,,,,SPECI,8.0
KTMK 021350Z AUTO 14005KT 4SM -RA OVC018 05/03 A3006 RMK AO2 P0003,KTMK,2023-03-02T13:50:00Z,45.42,-123.82,5.0,3.0,140,5,,4.0,30.059055,,,TRUE,TRUE,,,,,,-RA,OVC,1800,,,,,,,MVFR,,,,,,0.03,,,,,,SPECI,8.0
KTMK 021330Z AUTO 15007KT 4SM DZ OVC018 05/03 A3007 RMK AO2 P0002,KTMK,2023-03-02T13:30:00Z,45.42,-123.82,5.0,3.0,150,7,,4.0,30.070866,,,TRUE,TRUE,,,,,,DZ,OVC,1800,,,,,,,MVFR,,,,,,0.02,,,,,,METAR,8.0
KTMK 021310Z AUTO 15009KT 4SM -RA OVC018 05/03 A3007 RMK AO2 P0001,KTMK,2023-03-02T13:10:00Z,45.42,-123.82,5.0,3.0,150,9,,4.0,30.070866,,,TRUE,TRUE,,,,,,-RA,OVC,1800,,,,,,,MVFR,,,,,,0.01,,,,,,SPECI,8.0
KTMK 021250Z AUTO 16007KT 5SM DZ OVC020 05/03 A3008 RMK AO2 P0001,KTMK,2023-03-02T12:50:00Z,45.42,-123.82,5.0,3.0,160,7,,5.0,30.079725,,,TRUE,TRUE,,,,,,DZ,OVC,2000,,,,,,,MVFR,,,,,,0.01,,,,,,SPECI,8.0
KTMK 021230Z AUTO 18005KT 5SM -RA SCT016 OVC022 05/03 A3008 RMK AO2,KTMK,2023-03-02T12:30:00Z,45.42,-123.82,5.0,3.0,180,5,,5.0,30.079725,,,TRUE,TRUE,,,,,,-RA,SCT,1600,OVC,2200,,,,,MVFR,,,,,,,,,,,,METAR,8.0
KTMK 021210Z AUTO 16006KT 5SM -DZ OVC020 05/03 A3008 RMK AO2,KTMK,2023-03-02T12:10:00Z,45.42,-123.82,5.0,3.0,160,6,,5.0,30.079725,,,TRUE,TRUE,,,,,,-DZ,OVC,2000,,,,,,,MVFR,,,,,,,,,,,,SPECI,8.0
KTMK 021150Z AUTO 16006KT 4SM -RA OVC020 05/03 A3009 RMK AO2 P0002,KTMK,2023-03-02T11:50:00Z,45.42,-123.82,5.0,3.0,160,6,,4.0,30.088583,,,TRUE,TRUE,,,,,,-RA,OVC,2000,,,,,,,MVFR,,,,,,0.02,,,,,,SPECI,8.0
KTMK 021130Z AUTO 18004KT 4SM DZ OVC018 05/03 A3010 RMK AO2 P0001,KTMK,2023-03-02T11:30:00Z,45.42,-123.82,5.0,3.0,180,4,,4.0,30.100393,,,TRUE,TRUE,,,,,,DZ,OVC,1800,,,,,,,MVFR,,,,,,0.01,,,,,,METAR,8.0
KTMK 021110Z AUTO 16005KT 4SM DZ OVC020 05/03 A3011 RMK AO2,KTMK,2023-03-02T11:10:00Z,45.42,-123.82,5.0,3.0,160,5,,4.0,30.109253,,,TRUE,TRUE,,,,,,DZ,OVC,2000,,,,,,,MVFR,,,,,,,,,,,,METAR,8.0
KTMK 021050Z AUTO 16004KT 7SM OVC023 05/03 A3012 RMK AO2 P0001,KTMK,2023-03-02T10:50:00Z,45.42,-123.82,5.0,3.0,160,4,,7.0,30.121063,,,TRUE,TRUE,,,,,,,OVC,2300,,,,,,,MVFR,,,,,,0.01,,,,,,SPECI,8.0
KTMK 021030Z AUTO 14005KT 5SM DZ BKN025 OVC037 05/03 A3013 RMK AO2 P0001,KTMK,2023-03-02T10:30:00Z,45.42,-123.82,5.0,3.0,140,5,,5.0,30.129921,,,TRUE,TRUE,,,,,,DZ,BKN,2500,OVC,3700,,,,,MVFR,,,,,,0.01,,,,,,SPECI,8.0
KTMK 021010Z AUTO 14006KT 10SM -RA SCT025 BKN032 OVC050 05/02 A3014 RMK AO2,KTMK,2023-03-02T10:10:00Z,45.42,-123.82,5.0,2.0,140,6,,10.0,30.138779,,,TRUE,TRUE,,,,,,-RA,SCT,2500,BKN,3200,OVC,5000,,,VFR,,,,,,,,,,,,METAR,8.0
KTMK 020950Z AUTO 00000KT 10SM -RA BKN025 BKN031 OVC046 05/02 A3015 RMK AO2,KTMK,2023-03-02T09:50:00Z,45.42,-123.82,5.0,2.0,0,0,,10.0,30.15059,,,TRUE,TRUE,,,,,,-RA,BKN,2500,BKN,3100,OVC,4600,,,MVFR,,,,,,,,,,,,METAR,8.0
KTMK 020930Z AUTO 00000KT 10SM -RA OVC025 05/02 A3015 RMK AO2,KTMK,2023-03-02T09:30:00Z,45.42,-123.82,5.0,2.0,0,0,,10.0,30.15059,,,TRUE,TRUE,,,,,,-RA,OVC,2500,,,,,,,MVFR,,,,,,,,,,,,METAR,8.0
KTMK 020910Z AUTO 00000KT 10SM BKN027 BKN031 OVC040 05/02 A3015 RMK AO2,KTMK,2023-03-02T09:10:00Z,45.42,-123.82,5.0,2.0,0,0,,10.0,30.15059,,,TRUE,TRUE,,,,,,,BKN,2700,BKN,3100,OVC,4000,,,MVFR,,,,,,,,,,,,METAR,8.0
KTMK 020850Z AUTO 00000KT 10SM BKN031 BKN037 OVC042 05/02 A3015 RMK AO2,KTMK,2023-03-02T08:50:00Z,45.42,-123.82,5.0,2.0,0,0,,10.0,30.15059,,,TRUE,TRUE,,,,,,,BKN,3100,BKN,3700,OVC,4200,,,VFR,,,,,,,,,,,,METAR,8.0
KTMK 020830Z AUTO 00000KT 10SM BKN031 OVC036 05/02 A3016 RMK AO2,KTMK,2023-03-02T08:30:00Z,45.42,-123.82,5.0,2.0,0,0,,10.0,30.159449,,,TRUE,TRUE,,,,,,,BKN,3100,OVC,3600,,,,,VFR,,,,,,,,,,,,SPECI,8.0
KTMK 020810Z AUTO 00000KT 10SM SCT030 BKN037 OVC046 05/02 A3015 RMK AO2,KTMK,2023-03-02T08:10:00Z,45.42,-123.82,5.0,2.0,0,0,,10.0,30.15059,,,TRUE,TRUE,,,,,,,SCT,3000,BKN,3700,OVC,4600,,,VFR,,,,,,,,,,,,SPECI,8.0
KTMK 020750Z AUTO 15004KT 10SM SCT030 BKN039 OVC065 05/02 A3016 RMK AO2,KTMK,2023-03-02T07:50:00Z,45.42,-123.82,5.0,2.0,150,4,,10.0,30.159449,,,TRUE,TRUE,,,,,,,SCT,3000,BKN,3900,OVC,6500,,,VFR,,,,,,,,,,,,SPECI,8.0
KTMK 020730Z AUTO 16005KT 10SM SCT031 BKN046 OVC065 04/02 A3016 RMK AO2,KTMK,2023-03-02T07:30:00Z,45.42,-123.82,4.0,2.0,160,5,,10.0,30.159449,,,TRUE,TRUE,,,,,,,SCT,3100,BKN,4600,OVC,6500,,,VFR,,,,,,,,,,,,METAR,8.0
KTMK 020710Z AUTO 00000KT 10SM SCT031 BKN035 OVC065 05/02 A3017 RMK AO2,KTMK,2023-03-02T07:10:00Z,45.42,-123.82,5.0,2.0,0,0,,10.0,30.171259,,,TRUE,TRUE,,,,,,,SCT,3100,BKN,3500,OVC,6500,,,VFR,,,,,,,,,,,,SPECI,8.0
KTMK 020650Z AUTO 00000KT 10SM SCT032 SCT040 OVC065 05/02 A3017 RMK AO2,KTMK,2023-03-02T06:50:00Z,45.42,-123.82,5.0,2.0,0,0,,10.0,30.171259,,,TRUE,TRUE,,,,,,,SCT,3200,SCT,4000,OVC,6500,,,VFR,,,,,,,,,,,,SPECI,8.0
KTMK 020630Z AUTO 16004KT 10SM OVC065 05/02 A3016 RMK AO2,KTMK,2023-03-02T06:30:00Z,45.42,-123.82,5.0,2.0,160,4,,10.0,30.159449,,,TRUE,TRUE,,,,,,,OVC,6500,,,,,,,VFR,,,,,,,,,,,,SPECI,8.0
KTMK 020610Z AUTO 14004KT 10SM SCT040 OVC065 05/02 A3017 RMK AO2,KTMK,2023-03-02T06:10:00Z,45.42,-123.82,5.0,2.0,140,4,,10.0,30.171259,,,TRUE,TRUE,,,,,,,SCT,4000,OVC,6500,,,,,VFR,,,,,,,,,,,,SPECI,8.0
KTMK 020550Z AUTO 16006KT 10SM SCT040 OVC065 05/02 A3017 RMK AO2,KTMK,2023-03-02T05:50:00Z,45.42,-123.82,5.0,2.0,160,6,,10.0,30.171259,,,TRUE,TRUE,,,,,,,SCT,4000,OVC,6500,,,,,VFR,,,,,,,,,,,,METAR,8.0
KTMK 020530Z AUTO 13003KT 10SM SCT040 BKN049 OVC065 04/02 A3018 RMK AO2,KTMK,2023-03-02T05:30:00Z,45.42,-123.82,4.0,2.0,130,3,,10.0,30.180119,,,TRUE,TRUE,,,,,,,SCT,4000,BKN,4900,OVC,6500,,,VFR,,,,,,,,,,,,SPECI,8.0
KTMK 020510Z AUTO 14003KT 10SM SCT035 BKN050 OVC065 04/02 A3018 RMK AO2,KTMK,2023-03-02T05:10:00Z,45.42,-123.82,4.0,2.0,140,3,,10.0,30.180119,,,TRUE,TRUE,,,,,,,SCT,3500,BKN,5000,OVC,6500,,,VFR,,,,,,,,,,,,SPECI,8.0
KTMK 020450Z AUTO 16004KT 10SM SCT036 BKN048 OVC065 05/02 A3019 RMK AO2,KTMK,2023-03-02T04:50:00Z,45.42,-123.82,5.0,2.0,160,4,,10.0,30.188976,,,TRUE,TRUE,,,,,,,SCT,3600,BKN,4800,OVC,6500,,,VFR,,,,,,,,,,,,SPECI,8.0
KTMK 020430Z AUTO 17006KT 10SM SCT038 OVC050 05/02 A3019 RMK AO2,KTMK,2023-03-02T04:30:00Z,45.42,-123.82,5.0,2.0,170,6,,10.0,30.188976,,,TRUE,TRUE,,,,,,,SCT,3800,OVC,5000,,,,,VFR,,,,,,,,,,,,METAR,8.0
KTMK 020410Z AUTO 17007KT 10SM SCT042 OVC050 05/02 A3018 RMK AO2,KTMK,2023-03-02T04:10:00Z,45.42,-123.82,5.0,2.0,170,7,,10.0,30.180119,,,TRUE,TRUE,,,,,,,SCT,4200,OVC,5000,,,,,VFR,,,,,,,,,,,,METAR,8.0
KTMK 020350Z AUTO 15008KT 10SM BKN050 OVC080 05/02 A3018 RMK AO2,KTMK,2023-03-02T03:50:00Z,45.42,-123.82,5.0,2.0,150,8,,10.0,30.180119,,,TRUE,TRUE,,,,,,,BKN,5000,OVC,8000,,,,,VFR,,,,,,,,,,,,SPECI,8.0
KTMK 020330Z AUTO 15006KT 10SM BKN050 BKN090 OVC110 05/02 A3017 RMK AO2,KTMK,2023-03-02T03:30:00Z,45.42,-123.82,5.0,2.0,150,6,,10.0,30.171259,,,TRUE,TRUE,,,,,,,BKN,5000,BKN,9000,OVC,11000,,,VFR,,,,,,,,,,,,SPECI,8.0
KTMK 020310Z AUTO 14003KT 10SM BKN050 BKN060 OVC100 05/02 A3019 RMK AO2,KTMK,2023-03-02T03:10:00Z,45.42,-123.82,5.0,2.0,140,3,,10.0,30.188976,,,TRUE,TRUE,,,,,,,BKN,5000,BKN,6000,OVC,10000,,,VFR,,,,,,,,,,,,SPECI,8.0
KTMK 020250Z AUTO 12004KT 10SM SCT039 BKN046 OVC095 05/02 A3019 RMK AO2,KTMK,2023-03-02T02:50:00Z,45.42,-123.82,5.0,2.0,120,4,,10.0,30.188976,,,TRUE,TRUE,,,,,,,SCT,3900,BKN,4600,OVC,9500,,,VFR,,,,,,,,,,,,METAR,8.0
KTMK 020230Z AUTO 12004KT 10SM SCT036 OVC048 05/02 A3020 RMK AO2,KTMK,2023-03-02T02:30:00Z,45.42,-123.82,5.0,2.0,120,4,,10.0,30.200787,,,TRUE,TRUE,,,,,,,SCT,3600,OVC,4800,,,,,VFR,,,,,,,,,,,,METAR,8.0
KTMK 020210Z AUTO 15004KT 10SM -DZ SCT034 SCT043 OVC050 05/02 A3020 RMK AO2,KTMK,2023-03-02T02:10:00Z,45.42,-123.82,5.0,2.0,150,4,,10.0,30.200787,,,TRUE,TRUE,,,,,,-DZ,SCT,3400,SCT,4300,OVC,5000,,,VFR,,,,,,,,,,,,SPECI,8.0
KTMK 020150Z AUTO 00000KT 10SM BKN034 BKN047 OVC055 05/02 A3021 RMK AO2,KTMK,2023-03-02T01:50:00Z,45.42,-123.82,5.0,2.0,0,0,,10.0,30.209646,,,TRUE,TRUE,,,,,,,BKN,3400,BKN,4700,OVC,5500,,,VFR,,,,,,,,,,,,METAR,8.0
KTMK 020130Z AUTO 03004KT 10SM OVC036 06/02 A3021 RMK AO2,KTMK,2023-03-02T01:30:00Z,45.42,-123.82,6.0,2.0,30,4,,10.0,30.209646,,,TRUE,TRUE,,,,,,,OVC,3600,,,,,,,VFR,,,,,,,,,,,,METAR,8.0
KTMK 020110Z AUTO 34004KT 10SM BKN036 OVC050 06/02 A3020 RMK AO2,KTMK,2023-03-02T01:10:00Z,45.42,-123.82,6.0,2.0,340,4,,10.0,30.200787,,,TRUE,TRUE,,,,,,,BKN,3600,OVC,5000,,,,,VFR,,,,,,,,,,,,SPECI,8.0
KTMK 020050Z AUTO 33006KT 10SM SCT034 OVC050 06/02 A3020 RMK AO2,KTMK,2023-03-02T00:50:00Z,45.42,-123.82,6.0,2.0,330,6,,10.0,30.200787,,,TRUE,TRUE,,,,,,,SCT,3400,OVC,5000,,,,,VFR,,,,,,,,,,,,SPECI,8.0
KTMK 020030Z AUTO 23006KT 10SM SCT035 SCT043 OVC050 07/01 A3019 RMK AO2,KTMK,2023-03-02T00:30:00Z,45.42,-123.82,7.0,1.0,230,6,,10.0,30.188976,,,TRUE,TRUE,,,,,,,SCT,3500,SCT,4300,OVC,5000,,,VFR,,,,,,,,,,,,METAR,8.0
KTMK 020010Z AUTO 20009KT 10SM BKN035 BKN044 OVC050 07/01 A3019 RMK AO2,KTMK,2023-03-02T00:10:00Z,45.42,-123.82,7.0,1.0,200,9,,10.0,30.188976,,,TRUE,TRUE,,,,,,,BKN,3500,BKN,4400,OVC,5000,,,VFR,,,,,,,,,,,,METAR,8.0
KTMK 012350Z AUTO 21006KT 10SM BKN046 OVC050 07/01 A3020 RMK AO2,KTMK,2023-03-01T23:50:00Z,45.42,-123.82,7.0,1.0,210,6,,10.0,30.200787,,,TRUE,TRUE,,,,,,,BKN,4600,OVC,5000,,,,,VFR,,,,,,,,,,,,METAR,8.0
KTMK 012330Z AUTO 22006KT 10SM SCT041 BKN048 08/00 A3020 RMK AO2,KTMK,2023-03-01T23:30:00Z,45.42,-123.82,8.0,0.0,220,6,,10.0,30.200787,,,TRUE,TRUE,,,,,,,SCT,4100,BKN,4800,,,,,VFR,,,,,,,,,,,,SPECI,8.0
KTMK 012310Z AUTO 23006KT 10SM SCT050 SCT120 08/00 A3020 RMK AO2,KTMK,2023-03-01T23:10:00Z,45.42,-123.82,8.0,0.0,230,6,,10.0,30.200787,,,TRUE,TRUE,,,,,,,SCT,5000,SCT,12000,,,,,VFR,,,,,,,,,,,,METAR,8.0
KTMK 012250Z AUTO 20006KT 10SM SCT120 08/01 A3019 RMK AO2,KTMK,2023-03-01T22:50:00Z,45.42,-123.82,8.0,1.0,200,6,,10.0,30.188976,,,TRUE,TRUE,,,,,,,SCT,12000,,,,,,,VFR,,,,,,,,,,,,METAR,8.0
KTMK 012230Z AUTO 22007KT 10SM CLR 08/01 A3019 RMK AO2,KTMK,2023-03-01T22:30:00Z,45.42,-123.82,8.0,1.0,220,7,,10.0,30.188976,,,TRUE,TRUE,,,,,,,CLR,,,,,,,,VFR,,,,,,,,,,,,METAR,8.0
KTMK 012210Z AUTO 25006KT 10SM CLR 08/00 A3018 RMK AO2,KTMK,2023-03-01T22:10:00Z,45.42,-123.82,8.0,0.0,250,6,,10.0,30.180119,,,TRUE,TRUE,,,,,,,CLR,,,,,,,,VFR,,,,,,,,,,,,SPECI,8.0
KTMK 012150Z AUTO 27006KT 10SM SCT037 SCT042 SCT048 08/00 A3018 RMK AO2,KTMK,2023-03-01T21:50:00Z,45.42,-123.82,8.0,0.0,270,6,,10.0,30.180119,,,TRUE,TRUE,,,,,,,SCT,3700,SCT,4200,SCT,4800,,,VFR,,,,,,,,,,,,METAR,8.0
KTMK 012130Z AUTO 25006KT 10SM BKN037 OVC047 08/01 A3017 RMK AO2,KTMK,2023-03-01T21:30:00Z,45.42,-123.82,8.0,1.0,250,6,,10.0,30.171259,,,TRUE,TRUE,,,,,,,BKN,3700,OVC,4700,,,,,VFR,,,,,,,,,,,,METAR,8.0
KTMK 012110Z AUTO 21006KT 10SM SCT033 SCT042 BKN047 09/01 A3018 RMK AO2,KTMK,2023-03-01T21:10:00Z,45.42,-123.82,9.0,1.0,210,6,,10.0,30.180119,,,TRUE,TRUE,,,,,,,SCT,3300,SCT,4200,BKN,4700,,,VFR,,,,,,,,,,,,SPECI,8.0
KTMK 012050Z AUTO 20003KT 10SM SCT033 SCT046 08/01 A3018 RMK AO2,KTMK,2023-03-01T20:50:00Z,45.42,-123.82,8.0,1.0,200,3,,10.0,30.180119,,,TRUE,TRUE,,,,,,,SCT,3300,SCT,4600,,,,,VFR,,,,,,,,,,,,SPECI,8.0
KTMK 012030Z AUTO 00000KT 10SM SCT033 SCT046 07/01 A3017 RMK AO2,KTMK,2023-03-01T20:30:00Z,45.42,-123.82,7.0,1.0,0,0,,10.0,30.171259,,,TRUE,TRUE,,,,,,,SCT,3300,SCT,4600,,,,,VFR,,,,,,,,,,,,METAR,8.0
KTMK 012010Z AUTO 00000KT 10SM CLR 07/01 A3017 RMK AO2,KTMK,2023-03-01T20:10:00Z,45.42,-123.82,7.0,1.0,0,0,,10.0,30.171259,,,TRUE,TRUE,,,,,,,CLR,,,,,,,,VFR,,,,,,,,,,,,METAR,8.0
KTMK 011950Z AUTO 00000KT 10SM CLR 06/02 A3017 RMK AO2,KTMK,2023-03-01T19:50:00Z,45.42,-123.82,6.0,2.0,0,0,,10.0,30.171259,,,TRUE,TRUE,,,,,,,CLR,,,,,,,,VFR,,,,,,,,,,,,SPECI,8.0
KTMK 011930Z AUTO 00000KT 10SM SCT110 06/02 A3016 RMK AO2,KTMK,2023-03-01T19:30:00Z,45.42,-123.82,6.0,2.0,0,0,,10.0,30.159449,,,TRUE,TRUE,,,,,,,SCT,11000,,,,,,,VFR,,,,,,,,,,,,SPECI,8.0
KTMK 011910Z AUTO 00000KT 10SM OVC110 04/02 A3016 RMK AO2,KTMK,2023-03-01T19:10:00Z,45.42,-123.82,4.0,2.0,0,0,,10.0,30.159449,,,TRUE,TRUE,,,,,,,OVC,11000,,,,,,,VFR,,,,,,,,,,,,SPECI,8.0
KTMK 011850Z AUTO 00000KT 10SM OVC120 03/01 A3016 RMK AO2,KTMK,2023-03-01T18:50:00Z,45.42,-123.82,3.0,1.0,0,0,,10.0,30.159449,,,TRUE,TRUE,,,,,,,OVC,12000,,,,,,,VFR,,,,,,,,,,,,METAR,8.0
KTMK 011830Z AUTO 00000KT 10SM SCT120 03/01 A3016 RMK AO2,KTMK,2023-03-01T18:30:00Z,45.42,-123.82,3.0,1.0,0,0,,10.0,30.159449,,,TRUE,TRUE,,,,,,,SCT,12000,,,,,,,VFR,,,,,,,,,,,,METAR,8.0
KTMK 011810Z AUTO 00000KT 10SM CLR 02/01 A3015 RMK AO2,KTMK,2023-03-01T18:10:00Z,45.42,-123.82,2.0,1.0,0,0,,10.0,30.15059,,,TRUE,TRUE,,,,,,,CLR,,,,,,,,VFR,,,,,,,,,,,,SPECI,8.0
KTMK 011750Z AUTO 00000KT 10SM CLR 01/01 A3014 RMK AO2,KTMK,2023-03-01T17:50:00Z,45.42,-123.82,1.0,1.0,0,0,,10.0,30.138779,,,TRUE,TRUE,,,,,,,CLR,,,,,,,,VFR,,,,,,,,,,,,METAR,8.0
KTMK 011730Z AUTO 00000KT 10SM CLR 00/00 A3014 RMK AO2,KTMK,2023-03-01T17:30:00Z,45.42,-123.82,0.0,0.0,0,0,,10.0,30.138779,,,TRUE,TRUE,,,,,,,CLR,,,,,,,,VFR,,,,,,,,,,,,METAR,8.0
KTMK 011710Z AUTO 00000KT 10SM CLR 00/00 A3012 RMK AO2,KTMK,2023-03-01T17:10:00Z,45.42,-123.82,0.0,0.0,0,0,,10.0,30.121063,,,TRUE,TRUE,,,,,,,CLR,,,,,,,,VFR,,,,,,,,,,,,METAR,8.0
KTMK 011650Z AUTO 14003KT 10SM CLR 00/00 A3012 RMK AO2,KTMK,2023-03-01T16:50:00Z,45.42,-123.82,0.0,0.0,140,3,,10.0,30.121063,,,TRUE,TRUE,,,,,,,CLR,,,,,,,,VFR,,,,,,,,,,,,SPECI,8.0
KTMK 011630Z AUTO 00000KT 10SM CLR M01/M01 A3012 RMK AO2,KTMK,2023-03-01T16:30:00Z,45.42,-123.82,-1.0,-1.0,0,0,,10.0,30.121063,,,TRUE,TRUE,,,,,,,CLR,,,,,,,,VFR,,,,,,,,,,,,SPECI,8.0
KTMK 011610Z AUTO 00000KT 10SM CLR M01/M02 A3011 RMK AO2,KTMK,2023-03-01T16:10:00Z,45.42,-123.82,-1.0,-2.0,0,0,,10.0,30.109253,,,TRUE,TRUE,,,,,,,CLR,,,,,,,,VFR,,,,,,,,,,,,SPECI,8.0
KTMK 011550Z AUTO 00000KT 10SM CLR M02/M02 A3010 RMK AO2,KTMK,2023-03-01T15:50:00Z,45.42,-123.82,-2.0,-2.0,0,0,,10.0,30.100393,,,TRUE,TRUE,,,,,,,CLR,,,,,,,,VFR,,,,,,,,,,,,METAR,8.0
KTMK 011530Z AUTO 00000KT 10SM CLR M03/M04 A3009 RMK AO2,KTMK,2023-03-01T15:30:00Z,45.42,-123.82,-3.0,-4.0,0,0,,10.0,30.088583,,,TRUE,TRUE,,,,,,,CLR,,,,,,,,VFR,,,,,,,,,,,,METAR,8.0
KTMK 011510Z AUTO 00000KT 10SM CLR M03/M03 A3008 RMK AO2,KTMK,2023-03-01T15:10:00Z,45.42,-123.82,-3.0,-3.0,0,0,,10.0,30.079725,,,TRUE,TRUE,,,,,,,CLR,,,,,,,,VFR,,,,,,,,,,,,METAR,8.0
KTMK 011450Z AUTO 00000KT 10SM CLR M02/M03 A3008 RMK AO2,KTMK,2023-03-01T14:50:00Z,45.42,-123.82,-2.0,-3.0,0,0,,10.0,30.079725,,,TRUE,TRUE,,,,,,,CLR,,,,,,,,VFR,,,,,,,,,,,,SPECI,8.0
KTMK 011430Z AUTO 00000KT 10SM CLR M03/M04 A3007 RMK AO2,KTMK,2023-03-01T14:30:00Z,45.42,-123.82,-3.0,-4.0,0,0,,10.0,30.070866,,,TRUE,TRUE,,,,,,,CLR,,,,,,,,VFR,,,,,,,,,,,,METAR,8.0
KTMK 011410Z AUTO 00000KT 10SM CLR M03/M03 A3007 RMK AO2,KTMK,2023-03-01T14:10:00Z,45.42,-123.82,-3.0,-3.0,0,0,,10.0,30.070866,,,TRUE,TRUE,,,,,,,CLR,,,,,,,,VFR,,,,,,,,,,,,METAR,8.0
KTMK 011350Z AUTO 00000KT 10SM CLR M02/M03 A3006 RMK AO2,KTMK,2023-03-01T13:50:00Z,45.42,-123.82,-2.0,-3.0,0,0,,10.0,30.059055,,,TRUE,TRUE,,,,,,,CLR,,,,,,,,VFR,,,,,,,,,,,,METAR,8.0
KTMK 011330Z AUTO 00000KT 10SM CLR M03/M03 A3004 RMK AO2,KTMK,2023-03-01T13:30:00Z,45.42,-123.82,-3.0,-3.0,0,0,,10.0,30.041338,,,TRUE,TRUE,,,,,,,CLR,,,,,,,,VFR,,,,,,,,,,,,METAR,8.0
KTMK 011310Z AUTO 00000KT 10SM CLR M03/M03 A3004 RMK AO2,KTMK,2023-03-01T13:10:00Z,45.42,-123.82,-3.0,-3.0,0,0,,10.0,30.041338,,,TRUE,TRUE,,,,,,,CLR,,,,,,,,VFR,,,,,,,,,,,,METAR,8.0
KTMK 011250Z AUTO 00000KT 10SM SCT003 M02/M03 A3003 RMK AO2,KTMK,2023-03-01T12:50:00Z,45.42,-123.82,-2.0,-3.0,0,0,,10.0,30.029528,,,TRUE,TRUE,,,,,,,SCT,300,,,,,,,VFR,,,,,,,,,,,,SPECI,8.0
KTMK 011230Z AUTO 00000KT 10SM SCT003 M02/M03 A3002 RMK AO2,KTMK,2023-03-01T12:30:00Z,45.42,-123.82,-2.0,-3.0,0,0,,10.0,30.02067,,,TRUE,TRUE,,,,,,,SCT,300,,,,,,,VFR,,,,,,,,,,,,METAR,8.0
KTMK 011210Z AUTO 00000KT 10SM CLR M03/M03 A3000 RMK AO2,KTMK,2023-03-01T12:10:00Z,45.42,-123.82,-3.0,-3.0,0,0,,10.0,30.0,,,TRUE,TRUE,,,,,,,CLR,,,,,,,,VFR,,,,,,,,,,,,SPECI,8.0
KTMK 011150Z AUTO 00000KT 10SM SCT001 M03/M03 A2999 RMK AO2,KTMK,2023-03-01T11:50:00Z,45.42,-123.82,-3.0,-3.0,0,0,,10.0,29.991142,,,TRUE,TRUE,,,,,,,SCT,100,,,,,,,VFR,,,,,,,,,,,,SPECI,8.0
KTMK 011130Z AUTO 00000KT 7SM CLR M02/M03 A2998 RMK AO2,KTMK,2023-03-01T11:30:00Z,45.42,-123.82,-2.0,-3.0,0,0,,7.0,29.97933,,,TRUE,TRUE,,,,,,,CLR,,,,,,,,VFR,,,,,,,,,,,,SPECI,8.0
KTMK 011110Z AUTO 00000KT 4SM BR CLR M02/M03 A2998 RMK AO2,KTMK,2023-03-01T11:10:00Z,45.42,-123.82,-2.0,-3.0,0,0,,4.0,29.97933,,,TRUE,TRUE,,,,,,BR,CLR,,,,,,,,MVFR,,,,,,,,,,,,SPECI,8.0
KTMK 011050Z AUTO 00000KT 3/4SM BR BKN001 M02/M03 A2998 RMK AO2,KTMK,2023-03-01T10:50:00Z,45.42,-123.82,-2.0,-3.0,0,0,,0.75,29.97933,,,TRUE,TRUE,,,,,,BR,BKN,100,,,,,,,LIFR,,,,,,,,,,,,SPECI,8.0
KTMK 011030Z AUTO 00000KT 2SM BR BKN001 M02/M03 A2997 RMK AO2,KTMK,2023-03-01T10:30:00Z,45.42,-123.82,-2.0,-3.0,0,0,,2.0,29.970472,,,TRUE,TRUE,,,,,,BR,BKN,100,,,,,,,LIFR,,,,,,,,,,,,METAR,8.0
KTMK 011010Z AUTO 00000KT 1 3/4SM BR BKN001 M02/M03 A2995 RMK AO2,KTMK,2023-03-01T10:10:00Z,45.42,-123.82,-2.0,-3.0,0,0,,1.75,29.949802,,,TRUE,TRUE,,,,,,BR,BKN,100,,,,,,,LIFR,,,,,,,,,,,,METAR,8.0
KTMK 010950Z AUTO 00000KT 1/4SM FZFG OVC001 M02/M03 A2994 RMK AO2,KTMK,2023-03-01T09:50:00Z,45.42,-123.82,-2.0,-3.0,0,0,,0.25,29.940945,,,TRUE,TRUE,,,,,,FZFG,OVC,100,,,,,,,LIFR,,,,,,,,,,,,METAR,8.0
KTMK 010930Z AUTO 00000KT 1/4SM FZFG OVC001 M02/M03 A2993 RMK AO2,KTMK,2023-03-01T09:30:00Z,45.42,-123.82,-2.0,-3.0,0,0,,0.25,29.929134,,,TRUE,TRUE,,,,,,FZFG,OVC,100,,,,,,,LIFR,,,,,,,,,,,,METAR,8.0
KTMK 010910Z AUTO 00000KT 1/2SM FZFG OVC001 M02/M03 A2992 RMK AO2,KTMK,2023-03-01T09:10:00Z,45.42,-123.82,-2.0,-3.0,0,0,,0.5,29.920275,,,TRUE,TRUE,,,,,,FZFG,OVC,100,,,,,,,LIFR,,,,,,,,,,,,SPECI,8.0
KTMK 010850Z AUTO 00000KT 1/2SM FZFG OVC001 M02/M02 A2992 RMK AO2,KTMK,2023-03-01T08:50:00Z,45.42,-123.82,-2.0,-2.0,0,0,,0.5,29.920275,,,TRUE,TRUE,,,,,,FZFG,OVC,100,,,,,,,LIFR,,,,,,,,,,,,SPECI,8.0
KTMK 010830Z AUTO 00000KT 1/4SM FZFG OVC001 M01/M02 A2991 RMK AO2,KTMK,2023-03-01T08:30:00Z,45.42,-123.82,-1.0,-2.0,0,0,,0.25,29.911417,,,TRUE,TRUE,,,,,,FZFG,OVC,100,,,,,,,LIFR,,,,,,,,,,,,SPECI,8.0
KTMK 010810Z AUTO 00000KT 1/2SM FZFG OVC001 M01/M02 A2991 RMK AO2,KTMK,2023-03-01T08:10:00Z,45.42,-123.82,-1.0,-2.0,0,0,,0.5,29.911417,,,TRUE,TRUE,,,,,,FZFG,OVC,100,,,,,,,LIFR,,,,,,,,,,,,SPECI,8.0
KTMK 010750Z AUTO 00000KT 3/4SM BR OVC001 M01/M02 A2990 RMK AO2,KTMK,2023-03-01T07:50:00Z,45.42,-123.82,-1.0,-2.0,0,0,,0.75,29.899607,,,TRUE,TRUE,,,,,,BR,OVC,100,,,,,,,LIFR,,,,,,,,,,,,METAR,8.0
KTMK 010730Z AUTO 00000KT 1/2SM FZFG OVC001 M01/M02 A2989 RMK AO2,KTMK,2023-03-01T07:30:00Z,45.42,-123.82,-1.0,-2.0,0,0,,0.5,29.890747,,,TRUE,TRUE,,,,,,FZFG,OVC,100,,,,,,,LIFR,,,,,,,,,,,,SPECI,8.0
KTMK 010710Z AUTO 00000KT 1/2SM FZFG OVC001 M01/M01 A2988 RMK AO2,KTMK,2023-03-01T07:10:00Z,45.42,-123.82,-1.0,-1.0,0,0,,0.5,29.878937,,,TRUE,TRUE,,,,,,FZFG,OVC,100,,,,,,,LIFR,,,,,,,,,,,,SPECI,8.0
KTMK 010650Z AUTO 00000KT 1/4SM FZFG OVC001 M01/M01 A2987 RMK AO2,KTMK,2023-03-01T06:50:00Z,45.42,-123.82,-1.0,-1.0,0,0,,0.25,29.870079,,,TRUE,TRUE,,,,,,FZFG,OVC,100,,,,,,,LIFR,,,,,,,,,,,,SPECI,8.0
KTMK 010630Z AUTO 00000KT 1/4SM FZFG OVC001 00/M01 A2986 RMK AO2,KTMK,2023-03-01T06:30:00Z,45.42,-123.82,0.0,-1.0,0,0,,0.25,29.861221,,,TRUE,TRUE,,,,,,FZFG,OVC,100,,,,,,,LIFR,,,,,,,,,,,,METAR,8.0
KTMK 010610Z AUTO 00000KT 1/4SM FZFG OVC001 00/M01 A2985 RMK AO2,KTMK,2023-03-01T06:10:00Z,45.42,-123.82,0.0,-1.0,0,0,,0.25,29.84941,,,TRUE,TRUE,,,,,,FZFG,OVC,100,,,,,,,LIFR,,,,,,,,,,,,METAR,8.0
KTMK 010550Z AUTO 00000KT 1/4SM FZFG OVC001 00/M01 A2983 RMK AO2,KTMK,2023-03-01T05:50:00Z,45.42,-123.82,0.0,-1.0,0,0,,0.25,29.828741,,,TRUE,TRUE,,,,,,FZFG,OVC,100,,,,,,,LIFR,,,,,,,,,,,,SPECI,8.0
KTMK 010530Z AUTO 00000KT 1/4SM FZFG OVC001 00/M01 A2982 RMK AO2,KTMK,2023-03-01T05:30:00Z,45.42,-123.82,0.0,-1.0,0,0,,0.25,29.819881,,,TRUE,TRUE,,,,,,FZFG,OVC,100,,,,,,,LIFR,,,,,,,,,,,,SPECI,8.0
KTMK 010510Z AUTO 00000KT 1/4SM FZFG OVC001 00/M01 A2981 RMK AO2,KTMK,2023-03-01T05:10:00Z,45.42,-123.82,0.0,-1.0,0,0,,0.25,29.811024,,,TRUE,TRUE,,,,,,FZFG,OVC,100,,,,,,,LIFR,,,,,,,,,,,,SPECI,8.0
KTMK 010450Z AUTO 00000KT 1/4SM FG OVC001 00/00 A2980 RMK AO2,KTMK,2023-03-01T04:50:00Z,45.42,-123.82,0.0,0.0,0,0,,0.25,29.799213,,,TRUE,TRUE,,,,,,FG,OVC,100,,,,,,,LIFR,,,,,,,,,,,,METAR,8.0
KTMK 010430Z AUTO 24003KT 2 1/2SM BR SCT001 00/M01 A2979 RMK AO2 VIS 1V5,KTMK,2023-03-01T04:30:00Z,45.42,-123.82,0.0,-1.0,240,3,,2.5,29.790354,,,TRUE,TRUE,,,,,,BR,SCT,100,,,,,,,IFR,,,,,,,,,,,,SPECI,8.0
KTMK 010410Z AUTO 00000KT 3SM BR SCT001 SCT006 SCT033 00/00 A2978 RMK AO2,KTMK,2023-03-01T04:10:00Z,45.42,-123.82,0.0,0.0,0,0,,3.0,29.778543,,,TRUE,TRUE,,,,,,BR,SCT,100,SCT,600,SCT,3300,,,MVFR,,,,,,,,,,,,SPECI,8.0
KTMK 010350Z AUTO 00000KT 7SM SCT033 00/00 A2977 RMK AO2,KTMK,2023-03-01T03:50:00Z,45.42,-123.82,0.0,0.0,0,0,,7.0,29.769686,,,TRUE,TRUE,,,,,,,SCT,3300,,,,,,,VFR,,,,,,,,,,,,SPECI,8.0
KTMK 010330Z AUTO 00000KT 10SM CLR 01/00 A2976 RMK AO2,KTMK,2023-03-01T03:30:00Z,45.42,-123.82,1.0,0.0,0,0,,10.0,29.760826,,,TRUE,TRUE,,,,,,,CLR,,,,,,,,VFR,,,,,,,,,,,,METAR,8.0
KTMK 010310Z AUTO 00000KT 10SM SCT021 SCT055 01/00 A2976 RMK AO2,KTMK,2023-03-01T03:10:00Z,45.42,-123.82,1.0,0.0,0,0,,10.0,29.760826,,,TRUE,TRUE,,,,,,,SCT,2100,SCT,5500,,,,,VFR,,,,,,,,,,,,SPECI,8.0
KTMK 010250Z AUTO 00000KT 10SM SCT023 BKN047 BKN060 01/00 A2975 RMK AO2,KTMK,2023-03-01T02:50:00Z,45.42,-123.82,1.0,0.0,0,0,,10.0,29.749016,,,TRUE,TRUE,,,,,,,SCT,2300,BKN,4700,BKN,6000,,,VFR,,,,,,,,,,,,SPECI,8.0
KTMK 010230Z AUTO 25004KT 10SM SCT034 BKN043 02/01 A2974 RMK AO2,KTMK,2023-03-01T02:30:00Z,45.42,-123.82,2.0,1.0,250,4,,10.0,29.740158,,,TRUE,TRUE,,,,,,,SCT,3400,BKN,4300,,,,,VFR,,,,,,,,,,,,METAR,8.0
KTMK 010210Z AUTO 27003KT 10SM SCT028 BKN036 OVC050 02/01 A2973 RMK AO2,KTMK,2023-03-01T02:10:00Z,45.42,-123.82,2.0,1.0,270,3,,10.0,29.731298,,,TRUE,TRUE,,,,,,,SCT,2800,BKN,3600,OVC,5000,,,VFR,,,,,,,,,,,,SPECI,8.0
KTMK 010150Z AUTO 30006KT 10SM SCT030 BKN050 OVC070 03/01 A2971 RMK AO2,KTMK,2023-03-01T01:50:00Z,45.42,-123.82,3.0,1.0,300,6,,10.0,29.71063,,,TRUE,TRUE,,,,,,,SCT,3000,BKN,5000,OVC,7000,,,VFR,,,,,,,,,,,,SPECI,8.0
KTMK 010130Z AUTO 29007KT 10SM SCT036 SCT046 SCT050 04/01 A2970 RMK AO2,KTMK,2023-03-01T01:30:00Z,45.42,-123.82,4.0,1.0,290,7,,10.0,29.698818,,,TRUE,TRUE,,,,,,,SCT,3600,SCT,4600,SCT,5000,,,VFR,,,,,,,,,,,,METAR,8.0
KTMK 010110Z AUTO 30007KT 10SM SCT028 SCT033 04/02 A2969 RMK AO2,KTMK,2023-03-01T01:10:00Z,45.42,-123.82,4.0,2.0,300,7,,10.0,29.68996,,,TRUE,TRUE,,,,,,,SCT,2800,SCT,3300,,,,,VFR,,,,,,,,,,,,SPECI,8.0
KTMK 010050Z AUTO 28006KT 10SM SCT020 BKN027 OVC033 05/02 A2968 RMK AO2,KTMK,2023-03-01T00:50:00Z,45.42,-123.82,5.0,2.0,280,6,,10.0,29.681103,,,TRUE,TRUE,,,,,,,SCT,2000,BKN,2700,OVC,3300,,,MVFR,,,,,,,,,,,,METAR,8.0
KTMK 010030Z AUTO 29009KT 10SM BKN019 OVC025 05/02 A2968 RMK AO2,KTMK,2023-03-01T00:30:00Z,45.42,-123.82,5.0,2.0,290,9,,10.0,29.681103,,,TRUE,TRUE,,,,,,,BKN,1900,OVC,2500,,,,,MVFR,,,,,,,,,,,,SPECI,8.0
KTMK 010010Z AUTO 31007KT 10SM SCT015 BKN024 BKN048 05/02 A2966 RMK AO2,KTMK,2023-03-01T00:10:00Z,45.42,-123.82,5.0,2.0,310,7,,10.0,29.660433,,,TRUE,TRUE,,,,,,,SCT,1500,BKN,2400,BKN,4800,,,MVFR,,,,,,,,,,,,SPECI,8.0
KTMK 282350Z AUTO 28005KT 10SM SCT039 SCT047 SCT060 04/02 A2966 RMK AO2,KTMK,2023-02-28T23:50:00Z,45.42,-123.82,4.0,2.0,280,5,,10.0,29.660433,,,TRUE,TRUE,,,,,,,SCT,3900,SCT,4700,SCT,6000,,,VFR,,,,,,,,,,,,SPECI,8.0
KTMK 282330Z AUTO 29008KT 10SM SCT039 BKN047 BKN060 03/01 A2965 RMK AO2,KTMK,2023-02-28T23:30:00Z,45.42,-123.82,3.0,1.0,290,8,,10.0,29.648623,,,TRUE,TRUE,,,,,,,SCT,3900,BKN,4700,BKN,6000,,,VFR,,,,,,,,,,,,METAR,8.0
KTMK 282310Z AUTO 29008KT 10SM SCT038 BKN046 BKN050 04/02 A2964 RMK AO2,KTMK,2023-02-28T23:10:00Z,45.42,-123.82,4.0,2.0,290,8,,10.0,29.639763,,,TRUE,TRUE,,,,,,,SCT,3800,BKN,4600,BKN,5000,,,VFR,,,,,,,,,,,,SPECI,8.0
KTMK 282250Z AUTO 30007KT 10SM SCT015 BKN047 OVC055 03/01 A2964 RMK AO2,KTMK,2023-02-28T22:50:00Z,45.42,-123.82,3.0,1.0,300,7,,10.0,29.639763,,,TRUE,TRUE,,,,,,,SCT,1500,BKN,4700,OVC,5500,,,VFR,,,,,,,,,,,,SPECI,8.0
KTMK 282230Z AUTO 28006KT 10SM SCT036 OVC045 03/02 A2963 RMK AO2,KTMK,2023-02-28T22:30:00Z,45.42,-123.82,3.0,2.0,280,6,,10.0,29.630905,,,TRUE,TRUE,,,,,,,SCT,3600,OVC,4500,,,,,VFR,,,,,,,,,,,,METAR,8.0
KTMK 282210Z AUTO 34003KT 7SM BKN033 OVC041 03/01 A2962 RMK AO2,KTMK,2023-02-28T22:10:00Z,45.42,-123.82,3.0,1.0,340,3,,7.0,29.619095,,,TRUE,TRUE,,,,,,,BKN,3300,OVC,4100,,,,,VFR,,,,,,,,,,,,SPECI,8.0
KTMK 282150Z AUTO 30006KT 7SM -RA SCT010 BKN025 OVC039 03/01 A2962 RMK AO2 P0001,KTMK,2023-02-28T21:50:00Z,45.42,-123.82,3.0,1.0,300,6,,7.0,29.619095,,,TRUE,TRUE,,,,,,-RA,SCT,1000,BKN,2500,OVC,3900,,,MVFR,,,,,,0.01,,,,,,SPECI,8.0
KTMK 282130Z AUTO 29007KT 7SM DZ BKN016 OVC025 03/01 A2962 RMK AO2,KTMK,2023-02-28T21:30:00Z,45.42,-123.82,3.0,1.0,290,7,,7.0,29.619095,,,TRUE,TRUE,,,,,,DZ,BKN,1600,OVC,2500,,,,,MVFR,,,,,,,,,,,,SPECI,8.0
KTMK 282110Z AUTO 29007KT 10SM SCT009 OVC014 03/02 A2961 RMK AO2,KTMK,2023-02-28T21:10:00Z,45.42,-123.82,3.0,2.0,290,7,,10.0,29.610237,,,TRUE,TRUE,,,,,,,SCT,900,OVC,1400,,,,,MVFR,,,,,,,,,,,,SPECI,8.0
KTMK 282050Z AUTO 15003KT 7SM BKN009 OVC013 02/01 A2960 RMK AO2,KTMK,2023-02-28T20:50:00Z,45.42,-123.82,2.0,1.0,150,3,,7.0,29.601377,,,TRUE,TRUE,,,,,,,BKN,900,OVC,1300,,,,,IFR,,,,,,,,,,,,METAR,8.0
KTMK 282030Z AUTO 00000KT 10SM OVC006 02/01 A2960 RMK AO2,KTMK,2023-02-28T20:30:00Z,45.42,-123.82,2.0,1.0,0,0,,10.0,29.601377,,,TRUE,TRUE,,,,,,,OVC,600,,,,,,,IFR,,,,,,,,,,,,METAR,8.0
KTMK 282010Z AUTO 15003KT 5SM BR OVC004 01/01 A2960 RMK AO2,KTMK,2023-02-28T20:10:00Z,45.42,-123.82,1.0,1.0,150,3,,5.0,29.601377,,,TRUE,TRUE,,,,,,BR,OVC,400,,,,,,,LIFR,,,,,,,,,,,,SPECI,8.0
KTMK 281950Z AUTO 15003KT 4SM -RA OVC004 01/01 A2960 RMK AO2 P0001,KTMK,2023-02-28T19:50:00Z,45.42,-123.82,1.0,1.0,150,3,,4.0,29.601377,,,TRUE,TRUE,,,,,,-RA,OVC,400,,,,,,,LIFR,,,,,,0.01,,,,,,METAR,8.0
KTMK 281930Z AUTO 00000KT 2 1/2SM -SN SCT006 BKN023 OVC029 01/01 A2959 RMK AO2 VIS 1 1/2V4 P0001,KTMK,2023-02-28T19:30:00Z,45.42,-123.82,1.0,1.0,0,0,,2.5,29.589567,,,TRUE,TRUE,,,,,,-SN,SCT,600,BKN,2300,OVC,2900,,,IFR,,,,,,0.01,,,,,,SPECI,8.0
KTMK 281910Z AUTO 30003KT 5SM -SN BKN021 OVC028 01/00 A2958 RMK AO2,KTMK,2023-02-28T19:10:00Z,45.42,-123.82,1.0,0.0,300,3,,5.0,29.58071,,,TRUE,TRUE,,,,,,-SN,BKN,2100,OVC,2800,,,,,MVFR,,,,,,,,,,,,METAR,8.0
KTMK 281850Z AUTO 31005KT 4SM -SN SCT003 BKN017 OVC026 01/00 A2958 RMK AO2 P0003,KTMK,2023-02-28T18:50:00Z,45.42,-123.82,1.0,0.0,310,5,,4.0,29.58071,,,TRUE,TRUE,,,,,,-SN,SCT,300,BKN,1700,OVC,2600,,,MVFR,,,,,,0.03,,,,,,METAR,8.0
KTMK 281830Z AUTO 31004KT 1 1/2SM -SN OVC003 00/00 A2957 RMK AO2 P0002,KTMK,2023-02-28T18:30:00Z,45.42,-123.82,0.0,0.0,310,4,,1.5,29.568897,,,TRUE,TRUE,,,,,,-SN,OVC,300,,,,,,,LIFR,,,,,,0.02,,,,,,METAR,8.0
KTMK 281810Z AUTO 00000KT 2SM -SN OVC005 01/00 A2957 RMK AO2 VIS 2V3,KTMK,2023-02-28T18:10:00Z,45.42,-123.82,1.0,0.0,0,0,,2.0,29.568897,,,TRUE,TRUE,,,,,,-SN,OVC,500,,,,,,,IFR,,,,,,,,,,,,SPECI,8.0
KTMK 281750Z AUTO 00000KT 3SM -SN BKN003 OVC007 00/00 A2957 RMK AO2 P0001,KTMK,2023-02-28T17:50:00Z,45.42,-123.82,0.0,0.0,0,0,,3.0,29.568897,,,TRUE,TRUE,,,,,,-SN,BKN,300,OVC,700,,,,,LIFR,,,,,,0.01,,,,,,METAR,8.0
KTMK 281730Z AUTO 00000KT 4SM -SN BKN003 OVC007 00/00 A2957 RMK AO2 P0001,KTMK,2023-02-28T17:30:00Z,45.42,-123.82,0.0,0.0,0,0,,4.0,29.568897,,,TRUE,TRUE,,,,,,-SN,BKN,300,OVC,700,,,,,LIFR,,,,,,0.01,,,,,,SPECI,8.0
KTMK 281710Z AUTO 31003KT 2 1/2SM -SN SCT002 BKN005 OVC016 00/00 A2956 RMK AO2 P0001,KTMK,2023-02-28T17:10:00Z,45.42,-123.82,0.0,0.0,310,3,,2.5,29.56004,,,TRUE,TRUE,,,,,,-SN,SCT,200,BKN,500,OVC,1600,,,IFR,,,,,,0.01,,,,,,METAR,8.0
KTMK 281650Z AUTO 31003KT 2SM -SN SCT003 OVC014 00/00 A2956 RMK AO2 P0006,KTMK,2023-02-28T16:50:00Z,45.42,-123.82,0.0,0.0,310,3,,2.0,29.56004,,,TRUE,TRUE,,,,,,-SN,SCT,300,OVC,1400,,,,,IFR,,,,,,0.06,,,,,,METAR,8.0
KTMK 281630Z AUTO 32005KT 1 1/2SM -SN SCT005 OVC012 00/00 A2956 RMK AO2 P0005,KTMK,2023-02-28T16:30:00Z,45.42,-123.82,0.0,0.0,320,5,,1.5,29.56004,,,TRUE,TRUE,,,,,,-SN,SCT,500,OVC,1200,,,,,IFR,,,,,,0.05,,,,,,METAR,8.0
KTMK 281610Z AUTO 29003KT 1 1/2SM -SN OVC014 00/00 A2956 RMK AO2 P0002,KTMK,2023-02-28T16:10:00Z,45.42,-123.82,0.0,0.0,290,3,,1.5,29.56004,,,TRUE,TRUE,,,,,,-SN,OVC,1400,,,,,,,IFR,,,,,,0.02,,,,,,METAR,8.0
KTMK 281550Z AUTO 00000KT 5SM -SN BKN014 BKN019 OVC036 00/00 A2956 RMK AO2 P0002,KTMK,2023-02-28T15:50:00Z,45.42,-123.82,0.0,0.0,0,0,,5.0,29.56004,,,TRUE,TRUE,,,,,,-SN,BKN,1400,BKN,1900,OVC,3600,,,MVFR,,,,,,0.02,,,,,,METAR,8.0
KTMK 281530Z AUTO 00000KT 7SM -SN BKN014 OVC033 00/00 A2955 RMK AO2 P0001,KTMK,2023-02-28T15:30:00Z,45.42,-123.82,0.0,0.0,0,0,,7.0,29.551182,,,TRUE,TRUE,,,,,,-SN,BKN,1400,OVC,3300,,,,,MVFR,,,,,,0.01,,,,,,SPECI,8.0
KTMK 281510Z AUTO 00000KT 3SM -SN BKN014 OVC019 00/00 A2955 RMK AO2 P0001,KTMK,2023-02-28T15:10:00Z,45.42,-123.82,0.0,0.0,0,0,,3.0,29.551182,,,TRUE,TRUE,,,,,,-SN,BKN,1400,OVC,1900,,,,,MVFR,,,,,,0.01,,,,,,SPECI,8.0
KTMK 281450Z AUTO 00000KT 4SM -SN SCT008 OVC017 01/00 A2955 RMK AO2 P0002,KTMK,2023-02-28T14:50:00Z,45.42,-123.82,1.0,0.0,0,0,,4.0,29.551182,,,TRUE,TRUE,,,,,,-SN,SCT,800,OVC,1700,,,,,MVFR,,,,,,0.02,,,,,,METAR,8.0
KTMK 281430Z AUTO 04003KT 5SM UP OVC008 01/00 A2955 RMK AO2 P0001,KTMK,2023-02-28T14:30:00Z,45.42,-123.82,1.0,0.0,40,3,,5.0,29.551182,,,TRUE,TRUE,,,,,,UP,OVC,800,,,,,,,IFR,,,,,,0.01,,,,,,SPECI,8.0
KTMK 281410Z AUTO 05003KT 7SM UP OVC008 01/00 A2955 RMK AO2,KTMK,2023-02-28T14:10:00Z,45.42,-123.82,1.0,0.0,50,3,,7.0,29.551182,,,TRUE,TRUE,,,,,,UP,OVC,800,,,,,,,IFR,,,,,,,,,,,,METAR,8.0
KTMK 281350Z AUTO 00000KT 7SM UP BKN010 BKN019 OVC028 01/00 A2954 RMK AO2 P0002,KTMK,2023-02-28T13:50:00Z,45.42,-123.82,1.0,0.0,0,0,,7.0,29.53937,,,TRUE,TRUE,,,,,,UP,BKN,1000,BKN,1900,OVC,2800,,,MVFR,,,,,,0.02,,,,,,METAR,8.0
KTMK 281330Z AUTO 00000KT 10SM UP SCT012 BKN028 OVC035 01/00 A2954 RMK AO2,KTMK,2023-02-28T13:30:00Z,45.42,-123.82,1.0,0.0,0,0,,10.0,29.53937,,,TRUE,TRUE,,,,,,UP,SCT,1200,BKN,2800,OVC,3500,,,MVFR,,,,,,,,,,,,SPECI,8.0
KTMK 281315Z AUTO 30004KT 10SM UP SCT011 BKN035 OVC046 02/00 A2954 RMK AO2,KTMK,2023-02-28T13:15:00Z,45.42,-123.82,2.0,0.0,300,4,,10.0,29.53937,,,TRUE,TRUE,,,,,,UP,SCT,1100,BKN,3500,OVC,4600,,,VFR,,,,,,,,,,,,SPECI,8.0
KTMK 281250Z AUTO 00000KT 10SM SCT023 BKN033 OVC045 01/00 A2954 RMK AO2 P0016,KTMK,2023-02-28T12:50:00Z,45.42,-123.82,1.0,0.0,0,0,,10.0,29.53937,,,TRUE,TRUE,,,,,,,SCT,2300,BKN,3300,OVC,4500,,,VFR,,,,,,0.16,,,,,,METAR,8.0
KTMK 281230Z AUTO 07005KT 10SM SCT018 BKN035 OVC045 01/00 A2953 RMK AO2 P0012,KTMK,2023-02-28T12:30:00Z,45.42,-123.82,1.0,0.0,70,5,,10.0,29.530512,,,TRUE,TRUE,,,,,,,SCT,1800,BKN,3500,OVC,4500,,,VFR,,,,,,0.12,,,,,,SPECI,8.0
KTMK 281210Z AUTO 00000KT 2 1/2SM -SN SCT018 BKN031 OVC065 02/00 A2953 RMK AO2 P0001,KTMK,2023-02-28T12:10:00Z,45.42,-123.82,2.0,0.0,0,0,,2.5,29.530512,,,TRUE,TRUE,,,,,,-SN,SCT,1800,BKN,3100,OVC,6500,,,IFR,,,,,,0.01,,,,,,SPECI,8.0
KTMK 281150Z AUTO 00000KT 10SM SCT032 BKN090 OVC110 02/01 A2954 RMK AO2,KTMK,2023-02-28T11:50:00Z,45.42,-123.82,2.0,1.0,0,0,,10.0,29.53937,,,TRUE,TRUE,,,,,,,SCT,3200,BKN,9000,OVC,11000,,,VFR,,,,,,,,,,,,METAR,8.0
KTMK 281130Z AUTO 00000KT 10SM SCT033 SCT041 BKN050 02/01 A2954 RMK AO2,KTMK,2023-02-28T11:30:00Z,45.42,-123.82,2.0,1.0,0,0,,10.0,29.53937,,,TRUE,TRUE,,,,,,,SCT,3300,SCT,4100,BKN,5000,,,VFR,,,,,,,,,,,,METAR,8.0
KTMK 281110Z AUTO 12005KT 10SM BKN033 BKN060 BKN070 02/01 A2955 RMK AO2,KTMK,2023-02-28T11:10:00Z,45.42,-123.82,2.0,1.0,120,5,,10.0,29.551182,,,TRUE,TRUE,,,,,,,BKN,3300,BKN,6000,BKN,7000,,,VFR,,,,,,,,,,,,SPECI,8.0
KTMK 281050Z AUTO 14004KT 10SM SCT030 BKN035 OVC070 02/01 A2955 RMK AO2 P0001,KTMK,2023-02-28T10:50:00Z,45.42,-123.82,2.0,1.0,140,4,,10.0,29.551182,,,TRUE,TRUE,,,,,,,SCT,3000,BKN,3500,OVC,7000,,,VFR,,,,,,0.01,,,,,,SPECI,8.0
KTMK 281030Z AUTO 12003KT 10SM RA SCT027 BKN033 OVC043 03/01 A2956 RMK AO2 P0001,KTMK,2023-02-28T10:30:00Z,45.42,-123.82,3.0,1.0,120,3,,10.0,29.56004,,,TRUE,TRUE,,,,,,RA,SCT,2700,BKN,3300,OVC,4300,,,VFR,,,,,,0.01,,,,,,SPECI,8.0
KTMK 281010Z AUTO 11004KT 10SM SCT032 BKN038 BKN046 02/01 A2955 RMK AO2,KTMK,2023-02-28T10:10:00Z,45.42,-123.82,2.0,1.0,110,4,,10.0,29.551182,,,TRUE,TRUE,,,,,,,SCT,3200,BKN,3800,BKN,4600,,,VFR,,,,,,,,,,,,SPECI,8.0
KTMK 280950Z AUTO 12003KT 10SM SCT029 SCT041 BKN060 03/01 A2956 RMK AO2,KTMK,2023-02-28T09:50:00Z,45.42,-123.82,3.0,1.0,120,3,,10.0,29.56004,,,TRUE,TRUE,,,,,,,SCT,2900,SCT,4100,BKN,6000,,,VFR,,,,,,,,,,,,SPECI,8.0
KTMK 280930Z AUTO 27005KT 10SM SCT034 BKN070 OVC090 03/01 A2955 RMK AO2,KTMK,2023-02-28T09:30:00Z,45.42,-123.82,3.0,1.0,270,5,,10.0,29.551182,,,TRUE,TRUE,,,,,,,SCT,3400,BKN,7000,OVC,9000,,,VFR,,,,,,,,,,,,METAR,8.0
KTMK 280910Z AUTO 14003KT 10SM SCT027 SCT041 BKN090 03/01 A2955 RMK AO2,KTMK,2023-02-28T09:10:00Z,45.42,-123.82,3.0,1.0,140,3,,10.0,29.551182,,,TRUE,TRUE,,,,,,,SCT,2700,SCT,4100,BKN,9000,,,VFR,,,,,,,,,,,,SPECI,8.0
KTMK 280850Z AUTO 22004KT 10SM SCT030 SCT047 BKN080 03/00 A2954 RMK AO2,KTMK,2023-02-28T08:50:00Z,45.42,-123.82,3.0,0.0,220,4,,10.0,29.53937,,,TRUE,TRUE,,,,,,,SCT,3000,SCT,4700,BKN,8000,,,VFR,,,,,,,,,,,,METAR,8.0
KTMK 280830Z AUTO 26014G21KT 10SM SCT021 BKN031 OVC065 04/01 A2953 RMK AO2,KTMK,2023-02-28T08:30:00Z,45.42,-123.82,4.0,1.0,260,14,21,10.0,29.530512,,,TRUE,TRUE,,,,,,,SCT,2100,BKN,3100,OVC,6500,,,VFR,,,,,,,,,,,,METAR,8.0
KTMK 280810Z AUTO 23009G16KT 7SM -RA SCT021 SCT031 BKN050 03/01 A2951 RMK AO2,KTMK,2023-02-28T08:10:00Z,45.42,-123.82,3.0,1.0,230,9,16,7.0,29.509842,,,TRUE,TRUE,,,,,,-RA,SCT,2100,SCT,3100,BKN,5000,,,VFR,,,,,,,,,,,,SPECI,8.0
KTMK 280750Z AUTO 22007G16KT 10SM SCT023 SCT034 BKN100 04/01 A2951 RMK AO2 P0002,KTMK,2023-02-28T07:50:00Z,45.42,-123.82,4.0,1.0,220,7,16,10.0,29.509842,,,TRUE,TRUE,,,,,,,SCT,2300,SCT,3400,BKN,10000,,,VFR,,,,,,0.02,,,,,,METAR,8.0
KTMK 280730Z AUTO 22012G22KT 10SM SCT019 BKN043 OVC075 04/02 A2950 RMK AO2 P0002,KTMK,2023-02-28T07:30:00Z,45.42,-123.82,4.0,2.0,220,12,22,10.0,29.500984,,,TRUE,TRUE,,,,,,,SCT,1900,BKN,4300,OVC,7500,,,VFR,,,,,,0.02,,,,,,METAR,8.0
KTMK 280710Z AUTO 22008G17KT 10SM SCT031 BKN042 BKN049 05/01 A2949 RMK AO2,KTMK,2023-02-28T07:10:00Z,45.42,-123.82,5.0,1.0,220,8,17,10.0,29.489174,,,TRUE,TRUE,,,,,,,SCT,3100,BKN,4200,BKN,4900,,,VFR,,,,,,,,,,,,SPECI,8.0
KTMK 280650Z AUTO 24011G16KT 10SM SCT025 SCT030 BKN048 04/01 A2948 RMK AO2,KTMK,2023-02-28T06:50:00Z,45.42,-123.82,4.0,1.0,240,11,16,10.0,29.480314,,,TRUE,TRUE,,,,,,,SCT,2500,SCT,3000,BKN,4800,,,VFR,,,,,,,,,,,,SPECI,8.0
KTMK 280630Z AUTO 23013G18KT 10SM -RA BKN027 BKN044 OVC065 04/02 A2947 RMK AO2,KTMK,2023-02-28T06:30:00Z,45.42,-123.82,4.0,2.0,230,13,18,10.0,29.471457,,,TRUE,TRUE,,,,,,-RA,BKN,2700,BKN,4400,OVC,6500,,,MVFR,,,,,,,,,,,,SPECI,8.0
KTMK 280610Z AUTO 23005KT 10SM SCT022 BKN027 OVC045 03/02 A2947 RMK AO2,KTMK,2023-02-28T06:10:00Z,45.42,-123.82,3.0,2.0,230,5,,10.0,29.471457,,,TRUE,TRUE,,,,,,,SCT,2200,BKN,2700,OVC,4500,,,MVFR,,,,,,,,,,,,SPECI,8.0
KTMK 280550Z AUTO 25004KT 5SM -RA BKN019 BKN028 OVC050 03/02 A2946 RMK AO2 P0007,KTMK,2023-02-28T05:50:00Z,45.42,-123.82,3.0,2.0,250,4,,5.0,29.459646,,,TRUE,TRUE,,,,,,-RA,BKN,1900,BKN,2800,OVC,5000,,,MVFR,,,,,,0.07,,,,,,METAR,8.0
KTMK 280530Z AUTO 22008KT 7SM UP BKN018 BKN023 OVC035 03/02 A2945 RMK AO2 P0005,KTMK,2023-02-28T05:30:00Z,45.42,-123.82,3.0,2.0,220,8,,7.0,29.450787,,,TRUE,TRUE,,,,,,UP,BKN,1800,BKN,2300,OVC,3500,,,MVFR,,,,,,0.05,,,,,,SPECI,8.0
KTMK 280510Z AUTO 13005KT 4SM UP SCT012 BKN016 OVC044 02/01 A2944 RMK AO2 P0004,KTMK,2023-02-28T05:10:00Z,45.42,-123.82,2.0,1.0,130,5,,4.0,29.438976,,,TRUE,TRUE,,,,,,UP,SCT,1200,BKN,1600,OVC,4400,,,MVFR,,,,,,0.04,,,,,,SPECI,8.0
KTMK 280450Z AUTO 13007KT 2 1/2SM -SN BKN015 OVC020 02/01 A2943 RMK AO2 P0012,KTMK,2023-02-28T04:50:00Z,45.42,-123.82,2.0,1.0,130,7,,2.5,29.430119,,,TRUE,TRUE,,,,,,-SN,BKN,1500,OVC,2000,,,,,IFR,,,,,,0.12,,,,,,SPECI,8.0
KTMK 280430Z AUTO 16005KT 7SM -RA OVC018 03/02 A2943 RMK AO2 P0005,KTMK,2023-02-28T04:30:00Z,45.42,-123.82,3.0,2.0,160,5,,7.0,29.430119,,,TRUE,TRUE,,,,,,-RA,OVC,1800,,,,,,,MVFR,,,,,,0.05,,,,,,SPECI,8.0
KTMK 280410Z AUTO 18010KT 3SM RA SCT014 BKN020 OVC070 03/02 A2942 RMK AO2 P0003,KTMK,2023-02-28T04:10:00Z,45.42,-123.82,3.0,2.0,180,10,,3.0,29.421259,,,TRUE,TRUE,,,,,,RA,SCT,1400,BKN,2000,OVC,7000,,,MVFR,,,,,,0.03,,,,,,SPECI,8.0
KTMK 280350Z AUTO 17007KT 10SM DZ SCT026 BKN032 OVC090 03/02 A2940 RMK AO2 P0001,KTMK,2023-02-28T03:50:00Z,45.42,-123.82,3.0,2.0,170,7,,10.0,29.40059,,,TRUE,TRUE,,,,,,DZ,SCT,2600,BKN,3200,OVC,9000,,,VFR,,,,,,0.01,,,,,,METAR,8.0
KTMK 280330Z AUTO 15005KT 10SM -DZ SCT020 OVC026 03/02 A2940 RMK AO2 P0001,KTMK,2023-02-28T03:30:00Z,45.42,-123.82,3.0,2.0,150,5,,10.0,29.40059,,,TRUE,TRUE,,,,,,-DZ,SCT,2000,OVC,2600,,,,,MVFR,,,,,,0.01,,,,,,METAR,8.0
KTMK 280310Z AUTO 16006KT 10SM BKN020 OVC026 03/02 A2940 RMK AO2,KTMK,2023-02-28T03:10:00Z,45.42,-123.82,3.0,2.0,160,6,,10.0,29.40059,,,TRUE,TRUE,,,,,,,BKN,2000,OVC,2600,,,,,MVFR,,,,,,,,,,,,SPECI,8.0
KTMK 280250Z AUTO 00000KT 7SM -RA BKN020 OVC026 03/02 A2940 RMK AO2 P0002,KTMK,2023-02-28T02:50:00Z,45.42,-123.82,3.0,2.0,0,0,,7.0,29.40059,,,TRUE,TRUE,,,,,,-RA,BKN,2000,OVC,2600,,,,,MVFR,,,,,,0.02,,,,,,METAR,8.0
KTMK 280230Z AUTO 16006KT 7SM RA BKN022 OVC029 03/02 A2940 RMK AO2 P0002,KTMK,2023-02-28T02:30:00Z,45.42,-123.82,3.0,2.0,160,6,,7.0,29.40059,,,TRUE,TRUE,,,,,,RA,BKN,2200,OVC,2900,,,,,MVFR,,,,,,0.02,,,,,,SPECI,8.0
KTMK 280210Z AUTO 00000KT 10SM DZ SCT022 BKN029 OVC036 03/03 A2940 RMK AO2,KTMK,2023-02-28T02:10:00Z,45.42,-123.82,3.0,3.0,0,0,,10.0,29.40059,,,TRUE,TRUE,,,,,,DZ,SCT,2200,BKN,2900,OVC,3600,,,MVFR,,,,,,,,,,,,SPECI,8.0
KTMK 280150Z AUTO 00000KT 10SM SCT023 OVC031 04/03 A2939 RMK AO2 P0001,KTMK,2023-02-28T01:50:00Z,45.42,-123.82,4.0,3.0,0,0,,10.0,29.388779,,,TRUE,TRUE,,,,,,,SCT,2300,OVC,3100,,,,,VFR,,,,,,0.01,,,,,,SPECI,8.0
KTMK 280130Z AUTO 23003KT 7SM DZ SCT025 BKN045 OVC050 04/03 A2939 RMK AO2,KTMK,2023-02-28T01:30:00Z,45.42,-123.82,4.0,3.0,230,3,,7.0,29.388779,,,TRUE,TRUE,,,,,,DZ,SCT,2500,BKN,4500,OVC,5000,,,VFR,,,,,,,,,,,,SPECI,8.0
KTMK 280110Z AUTO 00000KT 10SM SCT042 OVC049 04/02 A2939 RMK AO2,KTMK,2023-02-28T01:10:00Z,45.42,-123.82,4.0,2.0,0,0,,10.0,29.388779,,,TRUE,TRUE,,,,,,,SCT,4200,OVC,4900,,,,,VFR,,,,,,,,,,,,SPECI,8.0
KTMK 280050Z AUTO 00000KT 10SM SCT032 BKN050 OVC070 05/02 A2940 RMK AO2,KTMK,2023-02-28T00:50:00Z,45.42,-123.82,5.0,2.0,0,0,,10.0,29.40059,,,TRUE,TRUE,,,,,,,SCT,3200,BKN,5000,OVC,7000,,,VFR,,,,,,,,,,,,METAR,8.0
KTMK 280030Z AUTO 00000KT 10SM -RA SCT031 OVC041 05/02 A2940 RMK AO2,KTMK,2023-02-28T00:30:00Z,45.42,-123.82,5.0,2.0,0,0,,10.0,29.40059,,,TRUE,TRUE,,,,,,-RA,SCT,3100,OVC,4100,,,,,VFR,,,,,,,,,,,,METAR,8.0
KTMK 280010Z AUTO 00000KT 5SM -RA SCT022 BKN036 OVC042 05/02 A2941 RMK AO2,KTMK,2023-02-28T00:10:00Z,45.42,-123.82,5.0,2.0,0,0,,5.0,29.409449,,,TRUE,TRUE,,,,,,-RA,SCT,2200,BKN,3600,OVC,4200,,,MVFR,,,,,,,,,,,,SPECI,8.0
KTMK 272350Z AUTO 00000KT 7SM RA SCT022 BKN029 OVC042 05/02 A2942 RMK AO2,KTMK,2023-02-27T23:50:00Z,45.42,-123.82,5.0,2.0,0,0,,7.0,29.421259,,,TRUE,TRUE,,,,,,RA,SCT,2200,BKN,2900,OVC,4200,,,MVFR,,,,,,,,,,,,SPECI,8.0
KTMK 272330Z AUTO 14003KT 10SM SCT031 BKN055 OVC085 05/02 A2942 RMK AO2,KTMK,2023-02-27T23:30:00Z,45.42,-123.82,5.0,2.0,140,3,,10.0,29.421259,,,TRUE,TRUE,,,,,,,SCT,3100,BKN,5500,OVC,8500,,,VFR,,,,,,,,,,,,SPECI,8.0
KTMK 272310Z AUTO 13003KT 10SM SCT018 SCT029 OVC085 05/02 A2942 RMK AO2,KTMK,2023-02-27T23:10:00Z,45.42,-123.82,5.0,2.0,130,3,,10.0,29.421259,,,TRUE,TRUE,,,,,,,SCT,1800,SCT,2900,OVC,8500,,,VFR,,,,,,,,,,,,SPECI,8.0
KTMK 272250Z AUTO 17010G17KT 5SM -RA SCT018 BKN029 OVC045 05/02 A2943 RMK AO2 P0001,KTMK,2023-02-27T22:50:00Z,45.42,-123.82,5.0,2.0,170,10,17,5.0,29.430119,,,TRUE,TRUE,,,,,,-RA,SCT,1800,BKN,2900,OVC,4500,,,MVFR,,,,,,0.01,,,,,,METAR,8.0
KTMK 272230Z AUTO 14003KT 10SM BKN037 BKN042 OVC048 07/01 A2942 RMK AO2,KTMK,2023-02-27T22:30:00Z,45.42,-123.82,7.0,1.0,140,3,,10.0,29.421259,,,TRUE,TRUE,,,,,,,BKN,3700,BKN,4200,OVC,4800,,,VFR,,,,,,,,,,,,METAR,8.0
KTMK 272210Z AUTO 14006KT 10SM BKN035 OVC044 06/01 A2943 RMK AO2,KTMK,2023-02-27T22:10:00Z,45.42,-123.82,6.0,1.0,140,6,,10.0,29.430119,,,TRUE,TRUE,,,,,,,BKN,3500,OVC,4400,,,,,VFR,,,,,,,,,,,,SPECI,8.0
KTMK 272150Z AUTO 14008KT 10SM BKN035 BKN043 OVC060 06/01 A2944 RMK AO2,KTMK,2023-02-27T21:50:00Z,45.42,-123.82,6.0,1.0,140,8,,10.0,29.438976,,,TRUE,TRUE,,,,,,,BKN,3500,BKN,4300,OVC,6000,,,VFR,,,,,,,,,,,,METAR,8.0
KTMK 272130Z AUTO 00000KT 10SM BKN030 OVC038 06/02 A2945 RMK AO2,KTMK,2023-02-27T21:30:00Z,45.42,-123.82,6.0,2.0,0,0,,10.0,29.450787,,,TRUE,TRUE,,,,,,,BKN,3000,OVC,3800,,,,,MVFR,,,,,,,,,,,,SPECI,8.0
KTMK 272110Z AUTO 28003KT 10SM -DZ BKN028 OVC034 05/03 A2946 RMK AO2,KTMK,2023-02-27T21:10:00Z,45.42,-123.82,5.0,3.0,280,3,,10.0,29.459646,,,TRUE,TRUE,,,,,,-DZ,BKN,2800,OVC,3400,,,,,MVFR,,,,,,,,,,,,SPECI,8.0
KTMK 272050Z AUTO 00000KT 10SM OVC036 05/02 A2947 RMK AO2 P0001,KTMK,2023-02-27T20:50:00Z,45.42,-123.82,5.0,2.0,0,0,,10.0,29.471457,,,TRUE,TRUE,,,,,,,OVC,3600,,,,,,,VFR,,,,,,0.01,,,,,,METAR,8.0
KTMK 272030Z AUTO 00000KT 10SM -DZ BKN034 OVC040 05/02 A2947 RMK AO2 P0001,KTMK,2023-02-27T20:30:00Z,45.42,-123.82,5.0,2.0,0,0,,10.0,29.471457,,,TRUE,TRUE,,,,,,-DZ,BKN,3400,OVC,4000,,,,,VFR,,,,,,0.01,,,,,,METAR,8.0
KTMK 272010Z AUTO 00000KT 7SM -RA SCT020 SCT026 OVC031 05/02 A2949 RMK AO2 P0001,KTMK,2023-02-27T20:10:00Z,45.42,-123.82,5.0,2.0,0,0,,7.0,29.489174,,,TRUE,TRUE,,,,,,-RA,SCT,2000,SCT,2600,OVC,3100,,,VFR,,,,,,0.01,,,,,,METAR,8.0
KTMK 271950Z AUTO 20004KT 4SM RA BKN018 BKN026 OVC033 05/01 A2950 RMK AO2 P0004,KTMK,2023-02-27T19:50:00Z,45.42,-123.82,5.0,1.0,200,4,,4.0,29.500984,,,TRUE,TRUE,,,,,,RA,BKN,1800,BKN,2600,OVC,3300,,,MVFR,,,,,,0.04,,,,,,SPECI,8.0
KTMK 271930Z AUTO 17004KT 10SM -RA SCT023 BKN029 OVC037 05/01 A2950 RMK AO2 P0002,KTMK,2023-02-27T19:30:00Z,45.42,-123.82,5.0,1.0,170,4,,10.0,29.500984,,,TRUE,TRUE,,,,,,-RA,SCT,2300,BKN,2900,OVC,3700,,,MVFR,,,,,,0.02,,,,,,SPECI,8.0
KTMK 271910Z AUTO 14005KT 10SM -RA SCT021 OVC030 05/01 A2950 RMK AO2 P0001,KTMK,2023-02-27T19:10:00Z,45.42,-123.82,5.0,1.0,140,5,,10.0,29.500984,,,TRUE,TRUE,,,,,,-RA,SCT,2100,OVC,3000,,,,,MVFR,,,,,,0.01,,,,,,SPECI,8.0
KTMK 271850Z AUTO 14008KT 10SM OVC030 06/01 A2950 RMK AO2,KTMK,2023-02-27T18:50:00Z,45.42,-123.82,6.0,1.0,140,8,,10.0,29.500984,,,TRUE,TRUE,,,,,,,OVC,3000,,,,,,,MVFR,,,,,,,,,,,,SPECI,8.0
KTMK 271830Z AUTO 13008KT 10SM -RA OVC030 06/01 A2951 RMK AO2,KTMK,2023-02-27T18:30:00Z,45.42,-123.82,6.0,1.0,130,8,,10.0,29.509842,,,TRUE,TRUE,,,,,,-RA,OVC,3000,,,,,,,MVFR,,,,,,,,,,,,SPECI,8.0
KTMK 271810Z AUTO 19003KT 10SM -DZ OVC030 05/01 A2951 RMK AO2,KTMK,2023-02-27T18:10:00Z,45.42,-123.82,5.0,1.0,190,3,,10.0,29.509842,,,TRUE,TRUE,,,,,,-DZ,OVC,3000,,,,,,,MVFR,,,,,,,,,,,,METAR,8.0
KTMK 271750Z AUTO 16005KT 10SM BKN031 OVC043 05/01 A2951 RMK AO2,KTMK,2023-02-27T17:50:00Z,45.42,-123.82,5.0,1.0,160,5,,10.0,29.509842,,,TRUE,TRUE,,,,,,,BKN,3100,OVC,4300,,,,,VFR,,,,,,,,,,,,METAR,8.0
KTMK 271730Z AUTO 16005KT 10SM SCT033 OVC043 05/00 A2951 RMK AO2,KTMK,2023-02-27T17:30:00Z,45.42,-123.82,5.0,0.0,160,5,,10.0,29.509842,,,TRUE,TRUE,,,,,,,SCT,3300,OVC,4300,,,,,VFR,,,,,,,,,,,,METAR,8.0
KTMK 271710Z AUTO 13007KT 10SM SCT031 BKN041 BKN060 05/01 A2951 RMK AO2,KTMK,2023-02-27T17:10:00Z,45.42,-123.82,5.0,1.0,130,7,,10.0,29.509842,,,TRUE,TRUE,,,,,,,SCT,3100,BKN,4100,BKN,6000,,,VFR,,,,,,,,,,,,SPECI,8.0
KTMK 271650Z AUTO 13006KT 10SM SCT100 SCT120 04/01 A2951 RMK AO2,KTMK,2023-02-27T16:50:00Z,45.42,-123.82,4.0,1.0,130,6,,10.0,29.509842,,,TRUE,TRUE,,,,,,,SCT,10000,SCT,12000,,,,,VFR,,,,,,,,,,,,METAR,8.0
KTMK 271630Z AUTO 13005KT 10SM SCT025 SCT047 BKN070 03/01 A2951 RMK AO2,KTMK,2023-02-27T16:30:00Z,45.42,-123.82,3.0,1.0,130,5,,10.0,29.509842,,,TRUE,TRUE,,,,,,,SCT,2500,SCT,4700,BKN,7000,,,VFR,,,,,,,,,,,,SPECI,8.0
KTMK 271610Z AUTO 13005KT 10SM BKN025 OVC037 03/01 A2952 RMK AO2,KTMK,2023-02-27T16:10:00Z,45.42,-123.82,3.0,1.0,130,5,,10.0,29.518702,,,TRUE,TRUE,,,,,,,BKN,2500,OVC,3700,,,,,MVFR,,,,,,,,,,,,SPECI,8.0
KTMK 271550Z AUTO 13003KT 10SM OVC025 03/00 A2952 RMK AO2,KTMK,2023-02-27T15:50:00Z,45.42,-123.82,3.0,0.0,130,3,,10.0,29.518702,,,TRUE,TRUE,,,,,,,OVC,2500,,,,,,,MVFR,,,,,,,,,,,,SPECI,8.0
KTMK 271530Z AUTO 00000KT 10SM UP BKN025 OVC034 03/00 A2952 RMK AO2,KTMK,2023-02-27T15:30:00Z,45.42,-123.82,3.0,0.0,0,0,,10.0,29.518702,,,TRUE,TRUE,,,,,,UP,BKN,2500,OVC,3400,,,,,MVFR,,,,,,,,,,,,METAR,8.0
KTMK 271510Z AUTO 11003KT 10SM UP SCT023 BKN027 OVC037 02/00 A2951 RMK AO2,KTMK,2023-02-27T15:10:00Z,45.42,-123.82,2.0,0.0,110,3,,10.0,29.509842,,,TRUE,TRUE,,,,,,UP,SCT,2300,BKN,2700,OVC,3700,,,MVFR,,,,,,,,,,,,SPECI,8.0
KTMK 271450Z AUTO 13007KT 5SM -RA BKN023 OVC029 03/00 A2952 RMK AO2 P0001,KTMK,2023-02-27T14:50:00Z,45.42,-123.82,3.0,0.0,130,7,,5.0,29.518702,,,TRUE,TRUE,,,,,,-RA,BKN,2300,OVC,2900,,,,,MVFR,,,,,,0.01,,,,,,METAR,8.0
KTMK 271430Z AUTO 14013G23KT 5SM DZ SCT023 BKN035 OVC049 03/00 A2951 RMK AO2,KTMK,2023-02-27T14:30:00Z,45.42,-123.82,3.0,0.0,140,13,23,5.0,29.509842,,,TRUE,TRUE,,,,,,DZ,SCT,2300,BKN,3500,OVC,4900,,,MVFR,,,,,,,,,,,,SPECI,8.0
KTMK 271410Z AUTO 14015G18KT 10SM BKN041 OVC050 04/00 A2950 RMK AO2,KTMK,2023-02-27T14:10:00Z,45.42,-123.82,4.0,0.0,140,15,18,10.0,29.500984,,,TRUE,TRUE,,,,,,,BKN,4100,OVC,5000,,,,,VFR,,,,,,,,,,,,SPECI,8.0
KTMK 271350Z AUTO 16009G16KT 10SM OVC043 05/M01 A2950 RMK AO2,KTMK,2023-02-27T13:50:00Z,45.42,-123.82,5.0,-1.0,160,9,16,10.0,29.500984,,,TRUE,TRUE,,,,,,,OVC,4300,,,,,,,VFR,,,,,,,,,,,,METAR,8.0
KTMK 271330Z AUTO 15007G15KT 10SM OVC045 04/00 A2951 RMK AO2,KTMK,2023-02-27T13:30:00Z,45.42,-123.82,4.0,0.0,150,7,15,10.0,29.509842,,,TRUE,TRUE,,,,,,,OVC,4500,,,,,,,VFR,,,,,,,,,,,,SPECI,8.0
KTMK 271310Z AUTO 12010G15KT 090V150 10SM -RA OVC047 04/00 A2952 RMK AO2,KTMK,2023-02-27T13:10:00Z,45.42,-123.82,4.0,0.0,120,10,15,10.0,29.518702,,,TRUE,TRUE,,,,,,-RA,OVC,4700,,,,,,,VFR,,,,,,,,,,,,SPECI,8.0
KTMK 271250Z AUTO 13011G21KT 10SM -DZ SCT039 BKN065 OVC070 04/00 A2952 RMK AO2 P0001,KTMK,2023-02-27T12:50:00Z,45.42,-123.82,4.0,0.0,130,11,21,10.0,29.518702,,,TRUE,TRUE,,,,,,-DZ,SCT,3900,BKN,6500,OVC,7000,,,VFR,,,,,,0.01,,,,,,METAR,8.0
KTMK 271230Z AUTO 11005G19KT 10SM SCT045 BKN055 OVC075 05/00 A2953 RMK AO2 P0001,KTMK,2023-02-27T12:30:00Z,45.42,-123.82,5.0,0.0,110,5,19,10.0,29.530512,,,TRUE,TRUE,,,,,,,SCT,4500,BKN,5500,OVC,7500,,,VFR,,,,,,0.01,,,,,,SPECI,8.0
KTMK 271210Z AUTO 11009KT 10SM BKN045 OVC055 04/00 A2955 RMK AO2,KTMK,2023-02-27T12:10:00Z,45.42,-123.82,4.0,0.0,110,9,,10.0,29.551182,,,TRUE,TRUE,,,,,,,BKN,4500,OVC,5500,,,,,VFR,,,,,,,,,,,,METAR,8.0
KTMK 271150Z AUTO 12006KT 10SM BKN043 OVC050 04/00 A2957 RMK AO2,KTMK,2023-02-27T11:50:00Z,45.42,-123.82,4.0,0.0,120,6,,10.0,29.568897,,,TRUE,TRUE,,,,,,,BKN,4300,OVC,5000,,,,,VFR,,,,,,,,,,,,METAR,8.0
KTMK 271130Z AUTO 09004KT 10SM SCT034 BKN043 OVC060 04/00 A2957 RMK AO2,KTMK,2023-02-27T11:30:00Z,45.42,-123.82,4.0,0.0,90,4,,10.0,29.568897,,,TRUE,TRUE,,,,,,,SCT,3400,BKN,4300,OVC,6000,,,VFR,,,,,,,,,,,,METAR,8.0
KTMK 271110Z AUTO 00000KT 10SM SCT034 BKN040 OVC046 03/01 A2959 RMK AO2,KTMK,2023-02-27T11:10:00Z,45.42,-123.82,3.0,1.0,0,0,,10.0,29.589567,,,TRUE,TRUE,,,,,,,SCT,3400,BKN,4000,OVC,4600,,,VFR,,,,,,,,,,,,SPECI,8.0
KTMK 271050Z AUTO 00000KT 10SM BKN041 OVC047 03/01 A2960 RMK AO2,KTMK,2023-02-27T10:50:00Z,45.42,-123.82,3.0,1.0,0,0,,10.0,29.601377,,,TRUE,TRUE,,,,,,,BKN,4100,OVC,4700,,,,,VFR,,,,,,,,,,,,SPECI,8.0
KTMK 271030Z AUTO 05005KT 10SM BKN039 OVC046 03/01 A2962 RMK AO2,KTMK,2023-02-27T10:30:00Z,45.42,-123.82,3.0,1.0,50,5,,10.0,29.619095,,,TRUE,TRUE,,,,,,,BKN,3900,OVC,4600,,,,,VFR,,,,,,,,,,,,SPECI,8.0
KTMK 271010Z AUTO 06007KT 10SM BKN039 OVC050 03/01 A2963 RMK AO2,KTMK,2023-02-27T10:10:00Z,45.42,-123.82,3.0,1.0,60,7,,10.0,29.630905,,,TRUE,TRUE,,,,,,,BKN,3900,OVC,5000,,,,,VFR,,,,,,,,,,,,METAR,8.0
KTMK 270950Z AUTO 08007KT 10SM SCT025 BKN043 OVC060 03/01 A2965 RMK AO2 P0001,KTMK,2023-02-27T09:50:00Z,45.42,-123.82,3.0,1.0,80,7,,10.0,29.648623,,,TRUE,TRUE,,,,,,,SCT,2500,BKN,4300,OVC,6000,,,VFR,,,,,,0.01,,,,,,SPECI,8.0
KTMK 270930Z AUTO 06003KT 7SM UP SCT020 BKN026 OVC036 02/01 A2967 RMK AO2 P0001,KTMK,2023-02-27T09:30:00Z,45.42,-123.82,2.0,1.0,60,3,,7.0,29.66929,,,TRUE,TRUE,,,,,,UP,SCT,2000,BKN,2600,OVC,3600,,,MVFR,,,,,,0.01,,,,,,SPECI,8.0
KTMK 270910Z AUTO 00000KT 10SM SCT024 SCT030 OVC036 01/01 A2968 RMK AO2,KTMK,2023-02-27T09:10:00Z,45.42,-123.82,1.0,1.0,0,0,,10.0,29.681103,,,TRUE,TRUE,,,,,,,SCT,2400,SCT,3000,OVC,3600,,,VFR,,,,,,,,,,,,SPECI,8.0
KTMK 270850Z AUTO 12003KT 10SM UP SCT026 BKN036 OVC042 01/01 A2969 RMK AO2,KTMK,2023-02-27T08:50:00Z,45.42,-123.82,1.0,1.0,120,3,,10.0,29.68996,,,TRUE,TRUE,,,,,,UP,SCT,2600,BKN,3600,OVC,4200,,,VFR,,,,,,,,,,,,SPECI,8.0
KTMK 270830Z AUTO 00000KT 10SM SCT036 BKN044 OVC055 01/00 A2970 RMK AO2,KTMK,2023-02-27T08:30:00Z,45.42,-123.82,1.0,0.0,0,0,,10.0,29.698818,,,TRUE,TRUE,,,,,,,SCT,3600,BKN,4400,OVC,5500,,,VFR,,,,,,,,,,,,SPECI,8.0
KTMK 270810Z AUTO 00000KT 10SM SCT035 SCT044 OVC050 01/00 A2970 RMK AO2,KTMK,2023-02-27T08:10:00Z,45.42,-123.82,1.0,0.0,0,0,,10.0,29.698818,,,TRUE,TRUE,,,,,,,SCT,3500,SCT,4400,OVC,5000,,,VFR,,,,,,,,,,,,METAR,8.0
KTMK 270750Z AUTO 20003KT 10SM SCT035 BKN046 OVC110 01/00 A2972 RMK AO2,KTMK,2023-02-27T07:50:00Z,45.42,-123.82,1.0,0.0,200,3,,10.0,29.719488,,,TRUE,TRUE,,,,,,,SCT,3500,BKN,4600,OVC,11000,,,VFR,,,,,,,,,,,,METAR,8.0
KTMK 270730Z AUTO 00000KT 10SM SCT032 BKN039 OVC110 01/00 A2973 RMK AO2,KTMK,2023-02-27T07:30:00Z,45.42,-123.82,1.0,0.0,0,0,,10.0,29.731298,,,TRUE,TRUE,,,,,,,SCT,3200,BKN,3900,OVC,11000,,,VFR,,,,,,,,,,,,METAR,8.0
KTMK 270710Z AUTO 00000KT 10SM SCT020 BKN033 OVC042 01/01 A2974 RMK AO2,KTMK,2023-02-27T07:10:00Z,45.42,-123.82,1.0,1.0,0,0,,10.0,29.740158,,,TRUE,TRUE,,,,,,,SCT,2000,BKN,3300,OVC,4200,,,VFR,,,,,,,,,,,,SPECI,8.0
KTMK 270650Z AUTO 00000KT 5SM UP SCT022 BKN029 OVC036 01/00 A2974 RMK AO2 P0001,KTMK,2023-02-27T06:50:00Z,45.42,-123.82,1.0,0.0,0,0,,5.0,29.740158,,,TRUE,TRUE,,,,,,UP,SCT,2200,BKN,2900,OVC,3600,,,MVFR,,,,,,0.01,,,,,,SPECI,8.0
KTMK 270630Z AUTO 00000KT 5SM UP SCT021 BKN040 OVC110 01/01 A2975 RMK AO2 P0001,KTMK,2023-02-27T06:30:00Z,45.42,-123.82,1.0,1.0,0,0,,5.0,29.749016,,,TRUE,TRUE,,,,,,UP,SCT,2100,BKN,4000,OVC,11000,,,MVFR,,,,,,0.01,,,,,,SPECI,8.0
KTMK 270610Z AUTO 03004KT 10SM SCT046 SCT110 01/00 A2976 RMK AO2,KTMK,2023-02-27T06:10:00Z,45.42,-123.82,1.0,0.0,30,4,,10.0,29.760826,,,TRUE,TRUE,,,,,,,SCT,4600,SCT,11000,,,,,VFR,,,,,,,,,,,,SPECI,8.0
KTMK 270550Z AUTO 35003KT 10SM SCT027 SCT033 SCT041 01/00 A2976 RMK AO2,KTMK,2023-02-27T05:50:00Z,45.42,-123.82,1.0,0.0,350,3,,10.0,29.760826,,,TRUE,TRUE,,,,,,,SCT,2700,SCT,3300,SCT,4100,,,VFR,,,,,,,,,,,,SPECI,8.0
KTMK 270530Z AUTO 00000KT 10SM SCT017 BKN027 OVC040 02/01 A2976 RMK AO2,KTMK,2023-02-27T05:30:00Z,45.42,-123.82,2.0,1.0,0,0,,10.0,29.760826,,,TRUE,TRUE,,,,,,,SCT,1700,BKN,2700,OVC,4000,,,MVFR,,,,,,,,,,,,METAR,8.0
KTMK 270510Z AUTO 00000KT 5SM UP SCT017 BKN025 OVC035 02/01 A2976 RMK AO2,KTMK,2023-02-27T05:10:00Z,45.42,-123.82,2.0,1.0,0,0,,5.0,29.760826,,,TRUE,TRUE,,,,,,UP,SCT,1700,BKN,2500,OVC,3500,,,MVFR,,,,,,,,,,,,SPECI,8.0
KTMK 270450Z AUTO 00000KT 4SM -SN BKN017 BKN026 OVC037 01/01 A2977 RMK AO2 P0002,KTMK,2023-02-27T04:50:00Z,45.42,-123.82,1.0,1.0,0,0,,4.0,29.769686,,,TRUE,TRUE,,,,,,-SN,BKN,1700,BKN,2600,OVC,3700,,,MVFR,,,,,,0.02,,,,,,SPECI,8.0
KTMK 270430Z AUTO 00000KT 10SM BKN031 BKN044 OVC090 01/01 A2977 RMK AO2,KTMK,2023-02-27T04:30:00Z,45.42,-123.82,1.0,1.0,0,0,,10.0,29.769686,,,TRUE,TRUE,,,,,,,BKN,3100,BKN,4400,OVC,9000,,,VFR,,,,,,,,,,,,SPECI,8.0
KTMK 270410Z AUTO 00000KT 10SM SCT026 BKN032 BKN041 01/00 A2977 RMK AO2,KTMK,2023-02-27T04:10:00Z,45.42,-123.82,1.0,0.0,0,0,,10.0,29.769686,,,TRUE,TRUE,,,,,,,SCT,2600,BKN,3200,BKN,4100,,,VFR,,,,,,,,,,,,METAR,8.0
KTMK 270350Z AUTO 00000KT 10SM UP SCT021 BKN026 OVC040 02/01 A2978 RMK AO2,KTMK,2023-02-27T03:50:00Z,45.42,-123.82,2.0,1.0,0,0,,10.0,29.778543,,,TRUE,TRUE,,,,,,UP,SCT,2100,BKN,2600,OVC,4000,,,MVFR,,,,,,,,,,,,SPECI,8.0
KTMK 270330Z AUTO 00000KT 10SM SCT021 BKN030 OVC035 02/01 A2978 RMK AO2,KTMK,2023-02-27T03:30:00Z,45.42,-123.82,2.0,1.0,0,0,,10.0,29.778543,,,TRUE,TRUE,,,,,,,SCT,2100,BKN,3000,OVC,3500,,,MVFR,,,,,,,,,,,,METAR,8.0
KTMK 270310Z AUTO 11003KT 10SM UP SCT017 BKN024 OVC045 02/01 A2979 RMK AO2,KTMK,2023-02-27T03:10:00Z,45.42,-123.82,2.0,1.0,110,3,,10.0,29.790354,,,TRUE,TRUE,,,,,,UP,SCT,1700,BKN,2400,OVC,4500,,,MVFR,,,,,,,,,,,,SPECI,8.0
KTMK 270250Z AUTO 04005KT 10SM UP SCT022 BKN034 OVC050 02/01 A2979 RMK AO2,KTMK,2023-02-27T02:50:00Z,45.42,-123.82,2.0,1.0,40,5,,10.0,29.790354,,,TRUE,TRUE,,,,,,UP,SCT,2200,BKN,3400,OVC,5000,,,VFR,,,,,,,,,,,,SPECI,8.0
KTMK 270230Z AUTO 00000KT 10SM SCT040 BKN050 OVC065 02/01 A2979 RMK AO2,KTMK,2023-02-27T02:30:00Z,45.42,-123.82,2.0,1.0,0,0,,10.0,29.790354,,,TRUE,TRUE,,,,,,,SCT,4000,BKN,5000,OVC,6500,,,VFR,,,,,,,,,,,,SPECI,8.0
KTMK 270210Z AUTO 13006KT 10SM SCT015 BKN043 OVC065 02/01 A2979 RMK AO2,KTMK,2023-02-27T02:10:00Z,45.42,-123.82,2.0,1.0,130,6,,10.0,29.790354,,,TRUE,TRUE,,,,,,,SCT,1500,BKN,4300,OVC,6500,,,VFR,,,,,,,,,,,,SPECI,8.0
KTMK 270150Z AUTO 15003KT 3SM UP BKN015 BKN020 OVC050 02/01 A2980 RMK AO2 P0003,KTMK,2023-02-27T01:50:00Z,45.42,-123.82,2.0,1.0,150,3,,3.0,29.799213,,,TRUE,TRUE,,,,,,UP,BKN,1500,BKN,2000,OVC,5000,,,MVFR,,,,,,0.03,,,,,,SPECI,8.0
KTMK 270130Z AUTO 04006KT 10SM SCT030 SCT038 OVC050 02/01 A2979 RMK AO2,KTMK,2023-02-27T01:30:00Z,45.42,-123.82,2.0,1.0,40,6,,10.0,29.790354,,,TRUE,TRUE,,,,,,,SCT,3000,SCT,3800,OVC,5000,,,VFR,,,,,,,,,,,,METAR,8.0
KTMK 270110Z AUTO 12005KT 10SM SCT032 SCT044 OVC050 03/01 A2980 RMK AO2,KTMK,2023-02-27T01:10:00Z,45.42,-123.82,3.0,1.0,120,5,,10.0,29.799213,,,TRUE,TRUE,,,,,,,SCT,3200,SCT,4400,OVC,5000,,,VFR,,,,,,,,,,,,METAR,8.0
KTMK 270050Z AUTO 17005KT 10SM -RA SCT013 BKN031 OVC050 03/01 A2981 RMK AO2 P0003,KTMK,2023-02-27T00:50:00Z,45.42,-123.82,3.0,1.0,170,5,,10.0,29.811024,,,TRUE,TRUE,,,,,,-RA,SCT,1300,BKN,3100,OVC,5000,,,VFR,,,,,,0.03,,,,,,METAR,8.0
KTMK 270030Z AUTO 21009G18KT 3SM -RA SCT014 BKN021 OVC040 03/01 A2981 RMK AO2 P0002,KTMK,2023-02-27T00:30:00Z,45.42,-123.82,3.0,1.0,210,9,18,3.0,29.811024,,,TRUE,TRUE,,,,,,-RA,SCT,1400,BKN,2100,OVC,4000,,,MVFR,,,,,,0.02,,,,,,METAR,8.0
KTMK 270010Z AUTO 00000KT 10SM SCT041 BKN050 OVC085 05/01 A2979 RMK AO2,KTMK,2023-02-27T00:10:00Z,45.42,-123.82,5.0,1.0,0,0,,10.0,29.790354,,,TRUE,TRUE,,,,,,,SCT,4100,BKN,5000,OVC,8500,,,VFR,,,,,,,,,,,,SPECI,8.0
KTMK 262350Z AUTO 21003KT 10SM SCT046 SCT060 BKN070 05/02 A2980 RMK AO2,KTMK,2023-02-26T23:50:00Z,45.42,-123.82,5.0,2.0,210,3,,10.0,29.799213,,,TRUE,TRUE,,,,,,,SCT,4600,SCT,6000,BKN,7000,,,VFR,,,,,,,,,,,,METAR,8.0
KTMK 262330Z AUTO 19003KT 10SM SCT038 SCT050 SCT065 05/03 A2980 RMK AO2,KTMK,2023-02-26T23:30:00Z,45.42,-123.82,5.0,3.0,190,3,,10.0,29.799213,,,TRUE,TRUE,,,,,,,SCT,3800,SCT,5000,SCT,6500,,,VFR,,,,,,,,,,,,SPECI,8.0
KTMK 262310Z AUTO 17005KT 10SM SCT038 BKN050 BKN065 05/03 A2980 RMK AO2,KTMK,2023-02-26T23:10:00Z,45.42,-123.82,5.0,3.0,170,5,,10.0,29.799213,,,TRUE,TRUE,,,,,,,SCT,3800,BKN,5000,BKN,6500,,,VFR,,,,,,,,,,,,SPECI,8.0
KTMK 262250Z AUTO 00000KT 10SM SCT027 BKN038 BKN047 05/03 A2981 RMK AO2,KTMK,2023-02-26T22:50:00Z,45.42,-123.82,5.0,3.0,0,0,,10.0,29.811024,,,TRUE,TRUE,,,,,,,SCT,2700,BKN,3800,BKN,4700,,,VFR,,,,,,,,,,,,METAR,8.0
KTMK 262230Z AUTO 15005KT 10SM SCT021 BKN027 OVC050 04/02 A2981 RMK AO2,KTMK,2023-02-26T22:30:00Z,45.42,-123.82,4.0,2.0,150,5,,10.0,29.811024,,,TRUE,TRUE,,,,,,,SCT,2100,BKN,2700,OVC,5000,,,MVFR,,,,,,,,,,,,SPECI,8.0
KTMK 262210Z AUTO 10004KT 10SM SCT019 BKN036 OVC055 02/01 A2981 RMK AO2,KTMK,2023-02-26T22:10:00Z,45.42,-123.82,2.0,1.0,100,4,,10.0,29.811024,,,TRUE,TRUE,,,,,,,SCT,1900,BKN,3600,OVC,5500,,,VFR,,,,,,,,,,,,SPECI,8.0
KTMK 262150Z AUTO 09005KT 4SM -RA SCT020 BKN026 OVC032 02/01 A2981 RMK AO2 P0008,KTMK,2023-02-26T21:50:00Z,45.42,-123.82,2.0,1.0,90,5,,4.0,29.811024,,,TRUE,TRUE,,,,,,-RA,SCT,2000,BKN,2600,OVC,3200,,,MVFR,,,,,,0.08,,,,,,METAR,8.0
KTMK 262130Z AUTO 19004KT 10SM -RA SCT025 BKN030 OVC060 03/01 A2981 RMK AO2,KTMK,2023-02-26T21:30:00Z,45.42,-123.82,3.0,1.0,190,4,,10.0,29.811024,,,TRUE,TRUE,,,,,,-RA,SCT,2500,BKN,3000,OVC,6000,,,MVFR,,,,,,,,,,,,SPECI,8.0
KTMK 262110Z AUTO 14005KT 10SM SCT011 BKN060 OVC110 02/01 A2981 RMK AO2,KTMK,2023-02-26T21:10:00Z,45.42,-123.82,2.0,1.0,140,5,,10.0,29.811024,,,TRUE,TRUE,,,,,,,SCT,1100,BKN,6000,OVC,11000,,,VFR,,,,,,,,,,,,SPECI,8.0
KTMK 262050Z AUTO 11005KT 10SM SCT011 BKN017 OVC055 02/01 A2981 RMK AO2 P0006,KTMK,2023-02-26T20:50:00Z,45.42,-123.82,2.0,1.0,110,5,,10.0,29.811024,,,TRUE,TRUE,,,,,,,SCT,1100,BKN,1700,OVC,5500,,,MVFR,,,,,,0.06,,,,,,METAR,8.0
KTMK 262030Z AUTO 13004KT 2 1/2SM UP OVC015 01/01 A2982 RMK AO2 P0005,KTMK,2023-02-26T20:30:00Z,45.42,-123.82,1.0,1.0,130,4,,2.5,29.819881,,,TRUE,TRUE,,,,,,UP,OVC,1500,,,,,,,IFR,,,,,,0.05,,,,,,SPECI,8.0
KTMK 262010Z AUTO 22004KT 2 1/2SM RA SCT009 BKN013 OVC020 02/01 A2981 RMK AO2 P0002,KTMK,2023-02-26T20:10:00Z,45.42,-123.82,2.0,1.0,220,4,,2.5,29.811024,,,TRUE,TRUE,,,,,,RA,SCT,900,BKN,1300,OVC,2000,,,IFR,,,,,,0.02,,,,,,SPECI,8.0
KTMK 261950Z AUTO 25005KT 5SM RA SCT018 BKN023 OVC041 03/02 A2980 RMK AO2 P0002,KTMK,2023-02-26T19:50:00Z,45.42,-123.82,3.0,2.0,250,5,,5.0,29.799213,,,TRUE,TRUE,,,,,,RA,SCT,1800,BKN,2300,OVC,4100,,,MVFR,,,,,,0.02,,,,,,METAR,8.0
KTMK 261930Z AUTO 16007KT 4SM -RA BKN020 BKN025 OVC031 03/02 A2978 RMK AO2 P0001,KTMK,2023-02-26T19:30:00Z,45.42,-123.82,3.0,2.0,160,7,,4.0,29.778543,,,TRUE,TRUE,,,,,,-RA,BKN,2000,BKN,2500,OVC,3100,,,MVFR,,,,,,0.01,,,,,,METAR,8.0
KTMK 261910Z AUTO 14005KT 10SM SCT019 BKN050 OVC085 03/02 A2978 RMK AO2,KTMK,2023-02-26T19:10:00Z,45.42,-123.82,3.0,2.0,140,5,,10.0,29.778543,,,TRUE,TRUE,,,,,,,SCT,1900,BKN,5000,OVC,8500,,,VFR,,,,,,,,,,,,METAR,8.0
KTMK 261850Z AUTO 16005KT 7SM SCT050 SCT070 OVC085 03/02 A2977 RMK AO2,KTMK,2023-02-26T18:50:00Z,45.42,-123.82,3.0,2.0,160,5,,7.0,29.769686,,,TRUE,TRUE,,,,,,,SCT,5000,SCT,7000,OVC,8500,,,VFR,,,,,,,,,,,,SPECI,8.0
KTMK 261830Z AUTO 14006KT 10SM SCT041 SCT050 OVC075 03/02 A2977 RMK AO2,KTMK,2023-02-26T18:30:00Z,45.42,-123.82,3.0,2.0,140,6,,10.0,29.769686,,,TRUE,TRUE,,,,,,,SCT,4100,SCT,5000,OVC,7500,,,VFR,,,,,,,,,,,,SPECI,8.0
KTMK 261810Z AUTO 13006KT 10SM SCT016 SCT025 OVC048 02/01 A2976 RMK AO2,KTMK,2023-02-26T18:10:00Z,45.42,-123.82,2.0,1.0,130,6,,10.0,29.760826,,,TRUE,TRUE,,,,,,,SCT,1600,SCT,2500,OVC,4800,,,VFR,,,,,,,,,,,,METAR,8.0
KTMK 261750Z AUTO 12003KT 5SM UP OVC014 02/01 A2976 RMK AO2 P0003,KTMK,2023-02-26T17:50:00Z,45.42,-123.82,2.0,1.0,120,3,,5.0,29.760826,,,TRUE,TRUE,,,,,,UP,OVC,1400,,,,,,,MVFR,,,,,,0.03,,,,,,METAR,8.0
KTMK 261730Z AUTO 14007KT 4SM UP SCT014 BKN019 OVC026 02/01 A2974 RMK AO2 P0003,KTMK,2023-02-26T17:30:00Z,45.42,-123.82,2.0,1.0,140,7,,4.0,29.740158,,,TRUE,TRUE,,,,,,UP,SCT,1400,BKN,1900,OVC,2600,,,MVFR,,,,,,0.03,,,,,,METAR,8.0
KTMK 261710Z AUTO 13006KT 5SM UP SCT019 BKN027 OVC032 02/01 A2973 RMK AO2 P0001,KTMK,2023-02-26T17:10:00Z,45.42,-123.82,2.0,1.0,130,6,,5.0,29.731298,,,TRUE,TRUE,,,,,,UP,SCT,1900,BKN,2700,OVC,3200,,,MVFR,,,,,,0.01,,,,,,SPECI,8.0
KTMK 261650Z AUTO 20003KT 4SM -RA SCT012 BKN018 OVC028 02/01 A2973 RMK AO2 P0005,KTMK,2023-02-26T16:50:00Z,45.42,-123.82,2.0,1.0,200,3,,4.0,29.731298,,,TRUE,TRUE,,,,,,-RA,SCT,1200,BKN,1800,OVC,2800,,,MVFR,,,,,,0.05,,,,,,SPECI,8.0
KTMK 261630Z AUTO 31015G20KT 3SM RA SCT012 BKN021 OVC041 03/02 A2973 RMK AO2 P0002,KTMK,2023-02-26T16:30:00Z,45.42,-123.82,3.0,2.0,310,15,20,3.0,29.731298,,,TRUE,TRUE,,,,,,RA,SCT,1200,BKN,2100,OVC,4100,,,MVFR,,,,,,0.02,,,,,,SPECI,8.0
KTMK 261610Z AUTO 00000KT 5SM RA SCT015 OVC021 03/02 A2970 RMK AO2,KTMK,2023-02-26T16:10:00Z,45.42,-123.82,3.0,2.0,0,0,,5.0,29.698818,,,TRUE,TRUE,,,,,,RA,SCT,1500,OVC,2100,,,,,MVFR,,,,,,,,,,,,SPECI,8.0
KTMK 261550Z AUTO 00000KT 10SM -RA OVC013 03/02 A2969 RMK AO2,KTMK,2023-02-26T15:50:00Z,45.42,-123.82,3.0,2.0,0,0,,10.0,29.68996,,,TRUE,TRUE,,,,,,-RA,OVC,1300,,,,,,,MVFR,,,,,,,,,,,,METAR,8.0
KTMK 261530Z AUTO 00000KT 10SM OVC013 03/02 A2968 RMK AO2,KTMK,2023-02-26T15:30:00Z,45.42,-123.82,3.0,2.0,0,0,,10.0,29.681103,,,TRUE,TRUE,,,,,,,OVC,1300,,,,,,,MVFR,,,,,,,,,,,,METAR,8.0
KTMK 261510Z AUTO 28004KT 10SM -RA SCT010 BKN016 OVC026 03/02 A2967 RMK AO2,KTMK,2023-02-26T15:10:00Z,45.42,-123.82,3.0,2.0,280,4,,10.0,29.66929,,,TRUE,TRUE,,,,,,-RA,SCT,1000,BKN,1600,OVC,2600,,,MVFR,,,,,,,,,,,,METAR,8.0
KTMK 261450Z AUTO 16004KT 10SM SCT019 BKN024 OVC036 02/02 A2965 RMK AO2,KTMK,2023-02-26T14:50:00Z,45.42,-123.82,2.0,2.0,160,4,,10.0,29.648623,,,TRUE,TRUE,,,,,,,SCT,1900,BKN,2400,OVC,3600,,,MVFR,,,,,,,,,,,,METAR,8.0
KTMK 261430Z AUTO 19003KT 10SM -RA BKN019 OVC024 03/02 A2965 RMK AO2,KTMK,2023-02-26T14:30:00Z,45.42,-123.82,3.0,2.0,190,3,,10.0,29.648623,,,TRUE,TRUE,,,,,,-RA,BKN,1900,OVC,2400,,,,,MVFR,,,,,,,,,,,,METAR,8.0
KTMK 261410Z AUTO 28006KT 10SM -RA OVC016 03/02 A2965 RMK AO2,KTMK,2023-02-26T14:10:00Z,45.42,-123.82,3.0,2.0,280,6,,10.0,29.648623,,,TRUE,TRUE,,,,,,-RA,OVC,1600,,,,,,,MVFR,,,,,,,,,,,,SPECI,8.0
KTMK 261350Z AUTO 29008KT 4SM -RA BKN016 BKN021 OVC026 04/02 A2964 RMK AO2 P0005,KTMK,2023-02-26T13:50:00Z,45.42,-123.82,4.0,2.0,290,8,,4.0,29.639763,,,TRUE,TRUE,,,,,,-RA,BKN,1600,BKN,2100,OVC,2600,,,MVFR,,,,,,0.05,,,,,,SPECI,8.0
KTMK 261330Z AUTO 00000KT 7SM DZ SCT016 BKN021 OVC043 03/02 A2963 RMK AO2 P0002,KTMK,2023-02-26T13:30:00Z,45.42,-123.82,3.0,2.0,0,0,,7.0,29.630905,,,TRUE,TRUE,,,,,,DZ,SCT,1600,BKN,2100,OVC,4300,,,MVFR,,,,,,0.02,,,,,,METAR,8.0
KTMK 261310Z AUTO 00000KT 7SM -RA SCT016 BKN021 OVC050 04/02 A2962 RMK AO2 P0001,KTMK,2023-02-26T13:10:00Z,45.42,-123.82,4.0,2.0,0,0,,7.0,29.619095,,,TRUE,TRUE,,,,,,-RA,SCT,1600,BKN,2100,OVC,5000,,,MVFR,,,,,,0.01,,,,,,SPECI,8.0
KTMK 261250Z AUTO 24005KT 5SM DZ SCT014 SCT019 OVC031 04/03 A2962 RMK AO2 P0006,KTMK,2023-02-26T12:50:00Z,45.42,-123.82,4.0,3.0,240,5,,5.0,29.619095,,,TRUE,TRUE,,,,,,DZ,SCT,1400,SCT,1900,OVC,3100,,,MVFR,,,,,,0.06,,,,,,SPECI,8.0
KTMK 261230Z AUTO 26008KT 5SM -RA SCT017 BKN021 OVC031 04/03 A2961 RMK AO2 P0005,KTMK,2023-02-26T12:30:00Z,45.42,-123.82,4.0,3.0,260,8,,5.0,29.610237,,,TRUE,TRUE,,,,,,-RA,SCT,1700,BKN,2100,OVC,3100,,,MVFR,,,,,,0.05,,,,,,METAR,8.0
KTMK 261210Z AUTO 26008KT 5SM RA BKN017 OVC026 04/02 A2960 RMK AO2 P0002,KTMK,2023-02-26T12:10:00Z,45.42,-123.82,4.0,2.0,260,8,,5.0,29.601377,,,TRUE,TRUE,,,,,,RA,BKN,1700,OVC,2600,,,,,MVFR,,,,,,0.02,,,,,,SPECI,8.0
KTMK 261150Z AUTO 27005KT 5SM -RA BKN016 BKN023 OVC028 04/03 A2959 RMK AO2 P0006,KTMK,2023-02-26T11:50:00Z,45.42,-123.82,4.0,3.0,270,5,,5.0,29.589567,,,TRUE,TRUE,,,,,,-RA,BKN,1600,BKN,2300,OVC,2800,,,MVFR,,,,,,0.06,,,,,,SPECI,8.0
KTMK 261130Z AUTO 24003KT 7SM RA BKN016 OVC025 04/03 A2958 RMK AO2 P0004,KTMK,2023-02-26T11:30:00Z,45.42,-123.82,4.0,3.0,240,3,,7.0,29.58071,,,TRUE,TRUE,,,,,,RA,BKN,1600,OVC,2500,,,,,MVFR,,,,,,0.04,,,,,,SPECI,8.0
KTMK 261110Z AUTO 27009KT 7SM -RA BKN014 OVC018 05/03 A2958 RMK AO2 P0002,KTMK,2023-02-26T11:10:00Z,45.42,-123.82,5.0,3.0,270,9,,7.0,29.58071,,,TRUE,TRUE,,,,,,-RA,BKN,1400,OVC,1800,,,,,MVFR,,,,,,0.02,,,,,,SPECI,8.0
KTMK 261050Z AUTO 19004KT 4SM -RA BKN010 BKN013 OVC023 03/03 A2957 RMK AO2 P0016,KTMK,2023-02-26T10:50:00Z,45.42,-123.82,3.0,3.0,190,4,,4.0,29.568897,,,TRUE,TRUE,,,,,,-RA,BKN,1000,BKN,1300,OVC,2300,,,MVFR,,,,,,0.16,,,,,,METAR,8.0
KTMK 261030Z AUTO 21005KT 3SM RA BKN013 OVC019 04/02 A2958 RMK AO2 P0010,KTMK,2023-02-26T10:30:00Z,45.42,-123.82,4.0,2.0,210,5,,3.0,29.58071,,,TRUE,TRUE,,,,,,RA,BKN,1300,OVC,1900,,,,,MVFR,,,,,,0.1,,,,,,SPECI,8.0
KTMK 261010Z AUTO 24005KT 4SM RA BKN018 OVC025 03/02 A2957 RMK AO2 P0003,KTMK,2023-02-26T10:10:00Z,45.42,-123.82,3.0,2.0,240,5,,4.0,29.568897,,,TRUE,TRUE,,,,,,RA,BKN,1800,OVC,2500,,,,,MVFR,,,,,,0.03,,,,,,METAR,8.0
KTMK 260950Z AUTO 15013KT 4SM -RA OVC026 03/02 A2957 RMK AO2 P0011,KTMK,2023-02-26T09:50:00Z,45.42,-123.82,3.0,2.0,150,13,,4.0,29.568897,,,TRUE,TRUE,,,,,,-RA,OVC,2600,,,,,,,MVFR,,,,,,0.11,,,,,,METAR,8.0
KTMK 260930Z AUTO 14013KT 3SM RA SCT011 OVC026 03/02 A2959 RMK AO2 P0006,KTMK,2023-02-26T09:30:00Z,45.42,-123.82,3.0,2.0,140,13,,3.0,29.589567,,,TRUE,TRUE,,,,,,RA,SCT,1100,OVC,2600,,,,,MVFR,,,,,,0.06,,,,,,SPECI,8.0
KTMK 260910Z AUTO 15012KT 4SM -RA SCT011 OVC026 03/02 A2959 RMK AO2 P0002,KTMK,2023-02-26T09:10:00Z,45.42,-123.82,3.0,2.0,150,12,,4.0,29.589567,,,TRUE,TRUE,,,,,,-RA,SCT,1100,OVC,2600,,,,,MVFR,,,,,,0.02,,,,,,SPECI,8.0
KTMK 260850Z AUTO 15015KT 3SM -RA OVC028 03/02 A2961 RMK AO2 P0009,KTMK,2023-02-26T08:50:00Z,45.42,-123.82,3.0,2.0,150,15,,3.0,29.610237,,,TRUE,TRUE,,,,,,-RA,OVC,2800,,,,,,,MVFR,,,,,,0.09,,,,,,SPECI,8.0
KTMK 260830Z AUTO 16013KT 5SM RA BKN026 OVC032 03/02 A2961 RMK AO2 P0006,KTMK,2023-02-26T08:30:00Z,45.42,-123.82,3.0,2.0,160,13,,5.0,29.610237,,,TRUE,TRUE,,,,,,RA,BKN,2600,OVC,3200,,,,,MVFR,,,,,,0.06,,,,,,SPECI,8.0
KTMK 260810Z AUTO 15013G16KT 4SM -RA OVC024 03/01 A2963 RMK AO2 P0002,KTMK,2023-02-26T08:10:00Z,45.42,-123.82,3.0,1.0,150,13,16,4.0,29.630905,,,TRUE,TRUE,,,,,,-RA,OVC,2400,,,,,,,MVFR,,,,,,0.02,,,,,,METAR,8.0
KTMK 260750Z AUTO 16011G14KT 4SM RA OVC022 03/02 A2964 RMK AO2 P0008,KTMK,2023-02-26T07:50:00Z,45.42,-123.82,3.0,2.0,160,11,14,4.0,29.639763,,,TRUE,TRUE,,,,,,RA,OVC,2200,,,,,,,MVFR,,,,,,0.08,,,,,,SPECI,8.0
KTMK 260730Z AUTO 16008KT 4SM UP BKN019 OVC025 03/01 A2965 RMK AO2 P0004,KTMK,2023-02-26T07:30:00Z,45.42,-123.82,3.0,1.0,160,8,,4.0,29.648623,,,TRUE,TRUE,,,,,,UP,BKN,1900,OVC,2500,,,,,MVFR,,,,,,0.04,,,,,,SPECI,8.0
KTMK 260710Z AUTO 15008KT 5SM UP OVC019 02/01 A2966 RMK AO2 P0001,KTMK,2023-02-26T07:10:00Z,45.42,-123.82,2.0,1.0,150,8,,5.0,29.660433,,,TRUE,TRUE,,,,,,UP,OVC,1900,,,,,,,MVFR,,,,,,0.01,,,,,,SPECI,8.0
KTMK 260650Z AUTO 00000KT 5SM UP OVC019 02/00 A2967 RMK AO2 P0004,KTMK,2023-02-26T06:50:00Z,45.42,-123.82,2.0,0.0,0,0,,5.0,29.66929,,,TRUE,TRUE,,,,,,UP,OVC,1900,,,,,,,MVFR,,,,,,0.04,,,,,,SPECI,8.0
KTMK 260630Z AUTO 06004KT 5SM UP OVC019 02/00 A2968 RMK AO2 P0002,KTMK,2023-02-26T06:30:00Z,45.42,-123.82,2.0,0.0,60,4,,5.0,29.681103,,,TRUE,TRUE,,,,,,UP,OVC,1900,,,,,,,MVFR,,,,,,0.02,,,,,,METAR,8.0
KTMK 260610Z AUTO 07004KT 5SM UP OVC021 02/00 A2968 RMK AO2 P0001,KTMK,2023-02-26T06:10:00Z,45.42,-123.82,2.0,0.0,70,4,,5.0,29.681103,,,TRUE,TRUE,,,,,,UP,OVC,2100,,,,,,,MVFR,,,,,,0.01,,,,,,SPECI,8.0
KTMK 260550Z AUTO 04004KT 5SM UP OVC023 01/00 A2969 RMK AO2,KTMK,2023-02-26T05:50:00Z,45.42,-123.82,1.0,0.0,40,4,,5.0,29.68996,,,TRUE,TRUE,,,,,,UP,OVC,2300,,,,,,,MVFR,,,,,,,,,,,,SPECI,8.0
KTMK 260530Z AUTO 02003KT 10SM BKN023 OVC060 01/00 A2970 RMK AO2,KTMK,2023-02-26T05:30:00Z,45.42,-123.82,1.0,0.0,20,3,,10.0,29.698818,,,TRUE,TRUE,,,,,,,BKN,2300,OVC,6000,,,,,MVFR,,,,,,,,,,,,SPECI,8.0
KTMK 260510Z AUTO 09004KT 10SM SCT025 OVC060 01/00 A2970 RMK AO2,KTMK,2023-02-26T05:10:00Z,45.42,-123.82,1.0,0.0,90,4,,10.0,29.698818,,,TRUE,TRUE,,,,,,,SCT,2500,OVC,6000,,,,,VFR,,,,,,,,,,,,SPECI,8.0
KTMK 260450Z AUTO 30003KT 10SM BKN060 OVC080 00/00 A2971 RMK AO2,KTMK,2023-02-26T04:50:00Z,45.42,-123.82,0.0,0.0,300,3,,10.0,29.71063,,,TRUE,TRUE,,,,,,,BKN,6000,OVC,8000,,,,,VFR,,,,,,,,,,,,METAR,8.0
KTMK 260430Z AUTO 00000KT 10SM SCT060 SCT080 BKN110 00/00 A2971 RMK AO2,KTMK,2023-02-26T04:30:00Z,45.42,-123.82,0.0,0.0,0,0,,10.0,29.71063,,,TRUE,TRUE,,,,,,,SCT,6000,SCT,8000,BKN,11000,,,VFR,,,,,,,,,,,,METAR,8.0
KTMK 260410Z AUTO 13003KT 10SM SCT070 00/M01 A2972 RMK AO2,KTMK,2023-02-26T04:10:00Z,45.42,-123.82,0.0,-1.0,130,3,,10.0,29.719488,,,TRUE,TRUE,,,,,,,SCT,7000,,,,,,,VFR,,,,,,,,,,,,SPECI,8.0
KTMK 260350Z AUTO 11004KT 10SM BKN070 00/00 A2973 RMK AO2,KTMK,2023-02-26T03:50:00Z,45.42,-123.82,0.0,0.0,110,4,,10.0,29.731298,,,TRUE,TRUE,,,,,,,BKN,7000,,,,,,,VFR,,,,,,,,,,,,METAR,8.0
KTMK 260330Z AUTO 12004KT 10SM CLR 00/00 A2975 RMK AO2,KTMK,2023-02-26T03:30:00Z,45.42,-123.82,0.0,0.0,120,4,,10.0,29.749016,,,TRUE,TRUE,,,,,,,CLR,,,,,,,,VFR,,,,,,,,,,,,SPECI,8.0
KTMK 260310Z AUTO 00000KT 10SM CLR 01/00 A2976 RMK AO2,KTMK,2023-02-26T03:10:00Z,45.42,-123.82,1.0,0.0,0,0,,10.0,29.760826,,,TRUE,TRUE,,,,,,,CLR,,,,,,,,VFR,,,,,,,,,,,,SPECI,8.0
KTMK 260250Z AUTO 14003KT 10SM CLR 01/00 A2975 RMK AO2,KTMK,2023-02-26T02:50:00Z,45.42,-123.82,1.0,0.0,140,3,,10.0,29.749016,,,TRUE,TRUE,,,,,,,CLR,,,,,,,,VFR,,,,,,,,,,,,METAR,8.0
KTMK 260230Z AUTO 00000KT 10SM CLR 01/00 A2976 RMK AO2,KTMK,2023-02-26T02:30:00Z,45.42,-123.82,1.0,0.0,0,0,,10.0,29.760826,,,TRUE,TRUE,,,,,,,CLR,,,,,,,,VFR,,,,,,,,,,,,SPECI,8.0
KTMK 260210Z AUTO 14004KT 10SM CLR 01/00 A2976 RMK AO2,KTMK,2023-02-26T02:10:00Z,45.42,-123.82,1.0,0.0,140,4,,10.0,29.760826,,,TRUE,TRUE,,,,,,,CLR,,,,,,,,VFR,,,,,,,,,,,,SPECI,8.0
KTMK 260150Z AUTO 15003KT 10SM CLR 02/00 A2978 RMK AO2,KTMK,2023-02-26T01:50:00Z,45.42,-123.82,2.0,0.0,150,3,,10.0,29.778543,,,TRUE,TRUE,,,,,,,CLR,,,,,,,,VFR,,,,,,,,,,,,SPECI,8.0
KTMK 260130Z AUTO 00000KT 10SM CLR 03/00 A2978 RMK AO2,KTMK,2023-02-26T01:30:00Z,45.42,-123.82,3.0,0.0,0,0,,10.0,29.778543,,,TRUE,TRUE,,,,,,,CLR,,,,,,,,VFR,,,,,,,,,,,,METAR,8.0
KTMK 260110Z AUTO 00000KT 10SM CLR 04/00 A2979 RMK AO2,KTMK,2023-02-26T01:10:00Z,45.42,-123.82,4.0,0.0,0,0,,10.0,29.790354,,,TRUE,TRUE,,,,,,,CLR,,,,,,,,VFR,,,,,,,,,,,,SPECI,8.0
KTMK 260050Z AUTO 26003KT 10SM CLR 05/00 A2979 RMK AO2,KTMK,2023-02-26T00:50:00Z,45.42,-123.82,5.0,0.0,260,3,,10.0,29.790354,,,TRUE,TRUE,,,,,,,CLR,,,,,,,,VFR,,,,,,,,,,,,SPECI,8.0
KTMK 260030Z AUTO 00000KT 10SM CLR 05/00 A2980 RMK AO2,KTMK,2023-02-26T00:30:00Z,45.42,-123.82,5.0,0.0,0,0,,10.0,29.799213,,,TRUE,TRUE,,,,,,,CLR,,,,,,,,VFR,,,,,,,,,,,,METAR,8.0
KTMK 260010Z AUTO 00000KT 10SM CLR 05/00 A2979 RMK AO2,KTMK,2023-02-26T00:10:00Z,45.42,-123.82,5.0,0.0,0,0,,10.0,29.790354,,,TRUE,TRUE,,,,,,,CLR,,,,,,,,VFR,,,,,,,,,,,,METAR,8.0
KTMK 252350Z AUTO 00000KT 10SM CLR 05/00 A2981 RMK AO2,KTMK,2023-02-25T23:50:00Z,45.42,-123.82,5.0,0.0,0,0,,10.0,29.811024,,,TRUE,TRUE,,,,,,,CLR,,,,,,,,VFR,,,,,,,,,,,,METAR,8.0
KTMK 252330Z AUTO 00000KT 10SM CLR 05/00 A2981 RMK AO2,KTMK,2023-02-25T23:30:00Z,45.42,-123.82,5.0,0.0,0,0,,10.0,29.811024,,,TRUE,TRUE,,,,,,,CLR,,,,,,,,VFR,,,,,,,,,,,,METAR,8.0
KTMK 252310Z AUTO 00000KT 10SM CLR 05/M01 A2982 RMK AO2,KTMK,2023-02-25T23:10:00Z,45.42,-123.82,5.0,-1.0,0,0,,10.0,29.819881,,,TRUE,TRUE,,,,,,,CLR,,,,,,,,VFR,,,,,,,,,,,,SPECI,8.0
KTMK 252250Z AUTO 00000KT 10SM CLR 05/00 A2983 RMK AO2,KTMK,2023-02-25T22:50:00Z,45.42,-123.82,5.0,0.0,0,0,,10.0,29.828741,,,TRUE,TRUE,,,,,,,CLR,,,,,,,,VFR,,,,,,,,,,,,METAR,8.0
KTMK 252230Z AUTO 00000KT 10SM CLR 05/M01 A2985 RMK AO2,KTMK,2023-02-25T22:30:00Z,45.42,-123.82,5.0,-1.0,0,0,,10.0,29.84941,,,TRUE,TRUE,,,,,,,CLR,,,,,,,,VFR,,,,,,,,,,,,SPECI,8.0
KTMK 252210Z AUTO 00000KT 10SM CLR 04/M01 A2986 RMK AO2,KTMK,2023-02-25T22:10:00Z,45.42,-123.82,4.0,-1.0,0,0,,10.0,29.861221,,,TRUE,TRUE,,,,,,,CLR,,,,,,,,VFR,,,,,,,,,,,,SPECI,8.0
KTMK 252150Z AUTO 03003KT 10SM CLR 04/M01 A2987 RMK AO2,KTMK,2023-02-25T21:50:00Z,45.42,-123.82,4.0,-1.0,30,3,,10.0,29.870079,,,TRUE,TRUE,,,,,,,CLR,,,,,,,,VFR,,,,,,,,,,,,METAR,8.0
KTMK 252130Z AUTO 04003KT 10SM CLR 04/M01 A2989 RMK AO2,KTMK,2023-02-25T21:30:00Z,45.42,-123.82,4.0,-1.0,40,3,,10.0,29.890747,,,TRUE,TRUE,,,,,,,CLR,,,,,,,,VFR,,,,,,,,,,,,METAR,8.0
KTMK 252110Z AUTO 36003KT 10SM CLR 03/M01 A2991 RMK AO2,KTMK,2023-02-25T21:10:00Z,45.42,-123.82,3.0,-1.0,360,3,,10.0,29.911417,,,TRUE,TRUE,,,,,,,CLR,,,,,,,,VFR,,,,,,,,,,,,METAR,8.0
KTMK 252050Z AUTO 35003KT 10SM CLR 04/M02 A2992 RMK AO2,KTMK,2023-02-25T20:50:00Z,45.42,-123.82,4.0,-2.0,350,3,,10.0,29.920275,,,TRUE,TRUE,,,,,,,CLR,,,,,,,,VFR,,,,,,,,,,,,SPECI,8.0
KTMK 252030Z AUTO 33003KT 10SM CLR 03/M02 A2994 RMK AO2,KTMK,2023-02-25T20:30:00Z,45.42,-123.82,3.0,-2.0,330,3,,10.0,29.940945,,,TRUE,TRUE,,,,,,,CLR,,,,,,,,VFR,,,,,,,,,,,,SPECI,8.0
KTMK 252010Z AUTO 00000KT 10SM CLR 03/M01 A2994 RMK AO2,KTMK,2023-02-25T20:10:00Z,45.42,-123.82,3.0,-1.0,0,0,,10.0,29.940945,,,TRUE,TRUE,,,,,,,CLR,,,,,,,,VFR,,,,,,,,,,,,SPECI,8.0
KTMK 251950Z AUTO 00000KT 10SM CLR 02/M01 A2996 RMK AO2,KTMK,2023-02-25T19:50:00Z,45.42,-123.82,2.0,-1.0,0,0,,10.0,29.958662,,,TRUE,TRUE,,,,,,,CLR,,,,,,,,VFR,,,,,,,,,,,,METAR,8.0
KTMK 251930Z AUTO 27003KT 10SM CLR 01/M01 A2996 RMK AO2,KTMK,2023-02-25T19:30:00Z,45.42,-123.82,1.0,-1.0,270,3,,10.0,29.958662,,,TRUE,TRUE,,,,,,,CLR,,,,,,,,VFR,,,,,,,,,,,,SPECI,8.0
KTMK 251910Z AUTO 00000KT 10SM CLR 00/M01 A2996 RMK AO2,KTMK,2023-02-25T19:10:00Z,45.42,-123.82,0.0,-1.0,0,0,,10.0,29.958662,,,TRUE,TRUE,,,,,,,CLR,,,,,,,,VFR,,,,,,,,,,,,SPECI,8.0
KTMK 251850Z AUTO 00000KT 10SM CLR 00/M01 A2997 RMK AO2,KTMK,2023-02-25T18:50:00Z,45.42,-123.82,0.0,-1.0,0,0,,10.0,29.970472,,,TRUE,TRUE,,,,,,,CLR,,,,,,,,VFR,,,,,,,,,,,,METAR,8.0
KTMK 251830Z AUTO 00000KT 10SM CLR M01/M01 A2999 RMK AO2,KTMK,2023-02-25T18:30:00Z,45.42,-123.82,-1.0,-1.0,0,0,,10.0,29.991142,,,TRUE,TRUE,,,,,,,CLR,,,,,,,,VFR,,,,,,,,,,,,METAR,8.0
KTMK 251810Z AUTO 00000KT 10SM CLR M01/M02 A3000 RMK AO2,KTMK,2023-02-25T18:10:00Z,45.42,-123.82,-1.0,-2.0,0,0,,10.0,30.0,,,TRUE,TRUE,,,,,,,CLR,,,,,,,,VFR,,,,,,,,,,,,SPECI,8.0
KTMK 251750Z AUTO 00000KT 10SM CLR M02/M02 A3001 RMK AO2,KTMK,2023-02-25T17:50:00Z,45.42,-123.82,-2.0,-2.0,0,0,,10.0,30.008858,,,TRUE,TRUE,,,,,,,CLR,,,,,,,,VFR,,,,,,,,,,,,SPECI,8.0
KTMK 251730Z AUTO 00000KT 10SM CLR M02/M03 A3002 RMK AO2,KTMK,2023-02-25T17:30:00Z,45.42,-123.82,-2.0,-3.0,0,0,,10.0,30.02067,,,TRUE,TRUE,,,,,,,CLR,,,,,,,,VFR,,,,,,,,,,,,METAR,8.0
KTMK 251710Z AUTO 00000KT 10SM CLR M03/M05 A3003 RMK AO2,KTMK,2023-02-25T17:10:00Z,45.42,-123.82,-3.0,-5.0,0,0,,10.0,30.029528,,,TRUE,TRUE,,,,,,,CLR,,,,,,,,VFR,,,,,,,,,,,,SPECI,8.0
KTMK 251650Z AUTO 00000KT 10SM CLR M05/M05 A3004 RMK AO2,KTMK,2023-02-25T16:50:00Z,45.42,-123.82,-5.0,-5.0,0,0,,10.0,30.041338,,,TRUE,TRUE,,,,,,,CLR,,,,,,,,VFR,,,,,,,,,,,,METAR,8.0
KTMK 251630Z AUTO 00000KT 10SM CLR M06/M07 A3005 RMK AO2,KTMK,2023-02-25T16:30:00Z,45.42,-123.82,-6.0,-7.0,0,0,,10.0,30.050198,,,TRUE,TRUE,,,,,,,CLR,,,,,,,,VFR,,,,,,,,,,,,METAR,8.0
KTMK 251610Z AUTO 00000KT 10SM CLR M06/M07 A3006 RMK AO2,KTMK,2023-02-25T16:10:00Z,45.42,-123.82,-6.0,-7.0,0,0,,10.0,30.059055,,,TRUE,TRUE,,,,,,,CLR,,,,,,,,VFR,,,,,,,,,,,,SPECI,8.0
KTMK 251550Z AUTO 00000KT 10SM CLR M06/M07 A3006 RMK AO2,KTMK,2023-02-25T15:50:00Z,45.42,-123.82,-6.0,-7.0,0,0,,10.0,30.059055,,,TRUE,TRUE,,,,,,,CLR,,,,,,,,VFR,,,,,,,,,,,,SPECI,8.0
KTMK 251530Z AUTO 00000KT 10SM CLR M06/M07 A3006 RMK AO2,KTMK,2023-02-25T15:30:00Z,45.42,-123.82,-6.0,-7.0,0,0,,10.0,30.059055,,,TRUE,TRUE,,,,,,,CLR,,,,,,,,VFR,,,,,,,,,,,,SPECI,8.0
KTMK 251510Z AUTO 14003KT 10SM CLR M07/M08 A3006 RMK AO2,KTMK,2023-02-25T15:10:00Z,45.42,-123.82,-7.0,-8.0,140,3,,10.0,30.059055,,,TRUE,TRUE,,,,,,,CLR,,,,,,,,VFR,,,,,,,,,,,,METAR,8.0
KTMK 251450Z AUTO 00000KT 10SM CLR M07/M08 A3006 RMK AO2,KTMK,2023-02-25T14:50:00Z,45.42,-123.82,-7.0,-8.0,0,0,,10.0,30.059055,,,TRUE,TRUE,,,,,,,CLR,,,,,,,,VFR,,,,,,,,,,,,SPECI,8.0
KTMK 251430Z AUTO 13003KT 10SM CLR M06/M07 A3006 RMK AO2,KTMK,2023-02-25T14:30:00Z,45.42,-123.82,-6.0,-7.0,130,3,,10.0,30.059055,,,TRUE,TRUE,,,,,,,CLR,,,,,,,,VFR,,,,,,,,,,,,METAR,8.0
KTMK 251410Z AUTO 00000KT 10SM CLR M08/M10 A3007 RMK AO2,KTMK,2023-02-25T14:10:00Z,45.42,-123.82,-8.0,-10.0,0,0,,10.0,30.070866,,,TRUE,TRUE,,,,,,,CLR,,,,,,,,VFR,,,,,,,,,,,,SPECI,8.0
KTMK 251350Z AUTO 00000KT 10SM CLR M07/M09 A3006 RMK AO2,KTMK,2023-02-25T13:50:00Z,45.42,-123.82,-7.0,-9.0,0,0,,10.0,30.059055,,,TRUE,TRUE,,,,,,,CLR,,,,,,,,VFR,,,,,,,,,,,,SPECI,8.0
KTMK 251330Z AUTO 11003KT 10SM CLR M06/M07 A3006 RMK AO2,KTMK,2023-02-25T13:30:00Z,45.42,-123.82,-6.0,-7.0,110,3,,10.0,30.059055,,,TRUE,TRUE,,,,,,,CLR,,,,,,,,VFR,,,,,,,,,,,,METAR,8.0
KTMK 251310Z AUTO 13003KT 10SM CLR M07/M08 A3007 RMK AO2,KTMK,2023-02-25T13:10:00Z,45.42,-123.82,-7.0,-8.0,130,3,,10.0,30.070866,,,TRUE,TRUE,,,,,,,CLR,,,,,,,,VFR,,,,,,,,,,,,SPECI,8.0
KTMK 251250Z AUTO 00000KT 10SM CLR M05/M06 A3007 RMK AO2,KTMK,2023-02-25T12:50:00Z,45.42,-123.82,-5.0,-6.0,0,0,,10.0,30.070866,,,TRUE,TRUE,,,,,,,CLR,,,,,,,,VFR,,,,,,,,,,,,METAR,8.0
KTMK 251230Z AUTO 00000KT 10SM CLR M05/M06 A3007 RMK AO2,KTMK,2023-02-25T12:30:00Z,45.42,-123.82,-5.0,-6.0,0,0,,10.0,30.070866,,,TRUE,TRUE,,,,,,,CLR,,,,,,,,VFR,,,,,,,,,,,,SPECI,8.0
KTMK 251210Z AUTO 00000KT 10SM CLR M05/M06 A3007 RMK AO2,KTMK,2023-02-25T12:10:00Z,45.42,-123.82,-5.0,-6.0,0,0,,10.0,30.070866,,,TRUE,TRUE,,,,,,,CLR,,,,,,,,VFR,,,,,,,,,,,,SPECI,8.0
KTMK 251150Z AUTO 15003KT 2 1/2SM BR CLR M07/M09 A3008 RMK AO2 VIS 1 1/2V5,KTMK,2023-02-25T11:50:00Z,45.42,-123.82,-7.0,-9.0,150,3,,2.5,30.079725,,,TRUE,TRUE,,,,,,BR,CLR,,,,,,,,IFR,,,,,,,,,,,,SPECI,8.0
KTMK 251130Z AUTO 00000KT 10SM CLR M06/M07 A3008 RMK AO2,KTMK,2023-02-25T11:30:00Z,45.42,-123.82,-6.0,-7.0,0,0,,10.0,30.079725,,,TRUE,TRUE,,,,,,,CLR,,,,,,,,VFR,,,,,,,,,,,,METAR,8.0
KTMK 251110Z AUTO 13003KT 10SM CLR M06/M07 A3009 RMK AO2,KTMK,2023-02-25T11:10:00Z,45.42,-123.82,-6.0,-7.0,130,3,,10.0,30.088583,,,TRUE,TRUE,,,,,,,CLR,,,,,,,,VFR,,,,,,,,,,,,SPECI,8.0
KTMK 251050Z AUTO 00000KT 5SM BR SCT002 M06/M07 A3009 RMK AO2,KTMK,2023-02-25T10:50:00Z,45.42,-123.82,-6.0,-7.0,0,0,,5.0,30.088583,,,TRUE,TRUE,,,,,,BR,SCT,200,,,,,,,MVFR,,,,,,,,,,,,SPECI,8.0
KTMK 251030Z AUTO 00000KT 10SM CLR M06/M07 A3009 RMK AO2,KTMK,2023-02-25T10:30:00Z,45.42,-123.82,-6.0,-7.0,0,0,,10.0,30.088583,,,TRUE,TRUE,,,,,,,CLR,,,,,,,,VFR,,,,,,,,,,,,METAR,8.0
KTMK 251010Z AUTO 14003KT 10SM CLR M05/M06 A3009 RMK AO2,KTMK,2023-02-25T10:10:00Z,45.42,-123.82,-5.0,-6.0,140,3,,10.0,30.088583,,,TRUE,TRUE,,,,,,,CLR,,,,,,,,VFR,,,,,,,,,,,,SPECI,8.0
KTMK 250950Z AUTO 00000KT 10SM CLR M05/M06 A3010 RMK AO2,KTMK,2023-02-25T09:50:00Z,45.42,-123.82,-5.0,-6.0,0,0,,10.0,30.100393,,,TRUE,TRUE,,,,,,,CLR,,,,,,,,VFR,,,,,,,,,,,,METAR,8.0
KTMK 250930Z AUTO 13003KT 10SM CLR M05/M06 A3010 RMK AO2,KTMK,2023-02-25T09:30:00Z,45.42,-123.82,-5.0,-6.0,130,3,,10.0,30.100393,,,TRUE,TRUE,,,,,,,CLR,,,,,,,,VFR,,,,,,,,,,,,SPECI,8.0
KTMK 250910Z AUTO 00000KT 10SM CLR M06/M07 A3010 RMK AO2,KTMK,2023-02-25T09:10:00Z,45.42,-123.82,-6.0,-7.0,0,0,,10.0,30.100393,,,TRUE,TRUE,,,,,,,CLR,,,,,,,,VFR,,,,,,,,,,,,SPECI,8.0
KTMK 250850Z AUTO 00000KT 10SM CLR M03/M05 A3010 RMK AO2,KTMK,2023-02-25T08:50:00Z,45.42,-123.82,-3.0,-5.0,0,0,,10.0,30.100393,,,TRUE,TRUE,,,,,,,CLR,,,,,,,,VFR,,,,,,,,,,,,METAR,8.0
KTMK 250830Z AUTO 14004KT 10SM CLR M04/M05 A3010 RMK AO2,KTMK,2023-02-25T08:30:00Z,45.42,-123.82,-4.0,-5.0,140,4,,10.0,30.100393,,,TRUE,TRUE,,,,,,,CLR,,,,,,,,VFR,,,,,,,,,,,,SPECI,8.0
KTMK 250810Z AUTO 00000KT 5SM BR CLR M05/M06 A3011 RMK AO2,KTMK,2023-02-25T08:10:00Z,45.42,-123.82,-5.0,-6.0,0,0,,5.0,30.109253,,,TRUE,TRUE,,,,,,BR,CLR,,,,,,,,MVFR,,,,,,,,,,,,METAR,8.0
KTMK 250750Z AUTO 12003KT 5SM BR SCT001 M05/M05 A3011 RMK AO2,KTMK,2023-02-25T07:50:00Z,45.42,-123.82,-5.0,-5.0,120,3,,5.0,30.109253,,,TRUE,TRUE,,,,,,BR,SCT,100,,,,,,,MVFR,,,,,,,,,,,,METAR,8.0
KTMK 250730Z AUTO 16003KT 1/2SM FZFG OVC001 M06/M07 A3012 RMK AO2,KTMK,2023-02-25T07:30:00Z,45.42,-123.82,-6.0,-7.0,160,3,,0.5,30.121063,,,TRUE,TRUE,,,,,,FZFG,OVC,100,,,,,,,LIFR,,,,,,,,,,,,METAR,8.0
KTMK 250710Z AUTO 00000KT 1/2SM FZFG OVC001 M06/M07 A3012 RMK AO2,KTMK,2023-02-25T07:10:00Z,45.42,-123.82,-6.0,-7.0,0,0,,0.5,30.121063,,,TRUE,TRUE,,,,,,FZFG,OVC,100,,,,,,,LIFR,,,,,,,,,,,,METAR,8.0
KTMK 250650Z AUTO 00000KT 3/4SM BR OVC001 M03/M05 A3011 RMK AO2,KTMK,2023-02-25T06:50:00Z,45.42,-123.82,-3.0,-5.0,0,0,,0.75,30.109253,,,TRUE,TRUE,,,,,,BR,OVC,100,,,,,,,LIFR,,,,,,,,,,,,SPECI,8.0
KTMK 250630Z AUTO 00000KT 1/4SM FZFG OVC001 M05/M05 A3011 RMK AO2,KTMK,2023-02-25T06:30:00Z,45.42,-123.82,-5.0,-5.0,0,0,,0.25,30.109253,,,TRUE,TRUE,,,,,,FZFG,OVC,100,,,,,,,LIFR,,,,,,,,,,,,METAR,8.0
KTMK 250610Z AUTO 00000KT 1/2SM FZFG BKN001 M05/M06 A3011 RMK AO2,KTMK,2023-02-25T06:10:00Z,45.42,-123.82,-5.0,-6.0,0,0,,0.5,30.109253,,,TRUE,TRUE,,,,,,FZFG,BKN,100,,,,,,,LIFR,,,,,,,,,,,,SPECI,8.0
KTMK 250550Z AUTO 00000KT 10SM CLR M03/M04 A3010 RMK AO2,KTMK,2023-02-25T05:50:00Z,45.42,-123.82,-3.0,-4.0,0,0,,10.0,30.100393,,,TRUE,TRUE,,,,,,,CLR,,,,,,,,VFR,,,,,,,,,,,,METAR,8.0
KTMK 250530Z AUTO 16004KT 10SM CLR M02/M03 A3009 RMK AO2,KTMK,2023-02-25T05:30:00Z,45.42,-123.82,-2.0,-3.0,160,4,,10.0,30.088583,,,TRUE,TRUE,,,,,,,CLR,,,,,,,,VFR,,,,,,,,,,,,SPECI,8.0
KTMK 250510Z AUTO 12003KT 10SM CLR M02/M02 A3010 RMK AO2,KTMK,2023-02-25T05:10:00Z,45.42,-123.82,-2.0,-2.0,120,3,,10.0,30.100393,,,TRUE,TRUE,,,,,,,CLR,,,,,,,,VFR,,,,,,,,,,,,SPECI,8.0
KTMK 250450Z AUTO 13004KT 3SM BR CLR M02/M03 A3010 RMK AO2,KTMK,2023-02-25T04:50:00Z,45.42,-123.82,-2.0,-3.0,130,4,,3.0,30.100393,,,TRUE,TRUE,,,,,,BR,CLR,,,,,,,,MVFR,,,,,,,,,,,,METAR,8.0
KTMK 250430Z AUTO 00000KT 7SM CLR M03/M03 A3010 RMK AO2,KTMK,2023-02-25T04:30:00Z,45.42,-123.82,-3.0,-3.0,0,0,,7.0,30.100393,,,TRUE,TRUE,,,,,,,CLR,,,,,,,,VFR,,,,,,,,,,,,SPECI,8.0
KTMK 250410Z AUTO 13004KT 10SM CLR M02/M02 A3009 RMK AO2,KTMK,2023-02-25T04:10:00Z,45.42,-123.82,-2.0,-2.0,130,4,,10.0,30.088583,,,TRUE,TRUE,,,,,,,CLR,,,,,,,,VFR,,,,,,,,,,,,METAR,8.0
KTMK 250350Z AUTO 14003KT 10SM CLR M02/M03 A3008 RMK AO2,KTMK,2023-02-25T03:50:00Z,45.42,-123.82,-2.0,-3.0,140,3,,10.0,30.079725,,,TRUE,TRUE,,,,,,,CLR,,,,,,,,VFR,,,,,,,,,,,,SPECI,8.0
KTMK 250330Z AUTO 00000KT 10SM CLR M02/M03 A3007 RMK AO2,KTMK,2023-02-25T03:30:00Z,45.42,-123.82,-2.0,-3.0,0,0,,10.0,30.070866,,,TRUE,TRUE,,,,,,,CLR,,,,,,,,VFR,,,,,,,,,,,,SPECI,8.0
KTMK 250310Z AUTO 00000KT 10SM CLR 00/M01 A3006 RMK AO2,KTMK,2023-02-25T03:10:00Z,45.42,-123.82,0.0,-1.0,0,0,,10.0,30.059055,,,TRUE,TRUE,,,,,,,CLR,,,,,,,,VFR,,,,,,,,,,,,SPECI,8.0
KTMK 250250Z AUTO 16003KT 10SM CLR 00/M02 A3006 RMK AO2,KTMK,2023-02-25T02:50:00Z,45.42,-123.82,0.0,-2.0,160,3,,10.0,30.059055,,,TRUE,TRUE,,,,,,,CLR,,,,,,,,VFR,,,,,,,,,,,,SPECI,8.0
KTMK 250230Z AUTO 07005KT 10SM CLR 00/M05 A3006 RMK AO2,KTMK,2023-02-25T02:30:00Z,45.42,-123.82,0.0,-5.0,70,5,,10.0,30.059055,,,TRUE,TRUE,,,,,,,CLR,,,,,,,,VFR,,,,,,,,,,,,SPECI,8.0
KTMK 250210Z AUTO 05004KT 10SM CLR 01/M06 A3006 RMK AO2,KTMK,2023-02-25T02:10:00Z,45.42,-123.82,1.0,-6.0,50,4,,10.0,30.059055,,,TRUE,TRUE,,,,,,,CLR,,,,,,,,VFR,,,,,,,,,,,,SPECI,8.0
KTMK 250150Z AUTO 06005KT 10SM CLR 02/M06 A3005 RMK AO2,KTMK,2023-02-25T01:50:00Z,45.42,-123.82,2.0,-6.0,60,5,,10.0,30.050198,,,TRUE,TRUE,,,,,,,CLR,,,,,,,,VFR,,,,,,,,,,,,SPECI,8.0
KTMK 250130Z AUTO 04004KT 10SM CLR 01/M05 A3006 RMK AO2,KTMK,2023-02-25T01:30:00Z,45.42,-123.82,1.0,-5.0,40,4,,10.0,30.059055,,,TRUE,TRUE,,,,,,,CLR,,,,,,,,VFR,,,,,,,,,,,,SPECI,8.0
KTMK 250110Z AUTO 03003KT 10SM CLR 02/M06 A3006 RMK AO2,KTMK,2023-02-25T01:10:00Z,45.42,-123.82,2.0,-6.0,30,3,,10.0,30.059055,,,TRUE,TRUE,,,,,,,CLR,,,,,,,,VFR,,,,,,,,,,,,SPECI,8.0
KTMK 250050Z AUTO 00000KT 10SM CLR 02/M06 A3005 RMK AO2,KTMK,2023-02-25T00:50:00Z,45.42,-123.82,2.0,-6.0,0,0,,10.0,30.050198,,,TRUE,TRUE,,,,,,,CLR,,,,,,,,VFR,,,,,,,,,,,,SPECI,8.0
KTMK 250030Z AUTO 06003KT 10SM CLR 02/M05 A3005 RMK AO2,KTMK,2023-02-25T00:30:00Z,45.42,-123.82,2.0,-5.0,60,3,,10.0,30.050198,,,TRUE,TRUE,,,,,,,CLR,,,,,,,,VFR,,,,,,,,,,,,METAR,8.0
KTMK 250010Z AUTO 05009KT 10SM CLR 03/M05 A3005 RMK AO2,KTMK,2023-02-25T00:10:00Z,45.42,-123.82,3.0,-5.0,50,9,,10.0,30.050198,,,TRUE,TRUE,,,,,,,CLR,,,,,,,,VFR,,,,,,,,,,,,SPECI,8.0
KTMK 242350Z AUTO 04007KT 10SM CLR 03/M06 A3005 RMK AO2,KTMK,2023-02-24T23:50:00Z,45.42,-123.82,3.0,-6.0,40,7,,10.0,30.050198,,,TRUE,TRUE,,,,,,,CLR,,,,,,,,VFR,,,,,,,,,,,,METAR,8.0
KTMK 242330Z AUTO 05009KT 10SM CLR 02/M05 A3005 RMK AO2,KTMK,2023-02-24T23:30:00Z,45.42,-123.82,2.0,-5.0,50,9,,10.0,30.050198,,,TRUE,TRUE,,,,,,,CLR,,,,,,,,VFR,,,,,,,,,,,,METAR,8.0
KTMK 242310Z AUTO 03011KT 10SM CLR 03/M06 A3004 RMK AO2,KTMK,2023-02-24T23:10:00Z,45.42,-123.82,3.0,-6.0,30,11,,10.0,30.041338,,,TRUE,TRUE,,,,,,,CLR,,,,,,,,VFR,,,,,,,,,,,,SPECI,8.0
KTMK 242250Z AUTO 05010KT 10SM CLR 03/M06 A3004 RMK AO2,KTMK,2023-02-24T22:50:00Z,45.42,-123.82,3.0,-6.0,50,10,,10.0,30.041338,,,TRUE,TRUE,,,,,,,CLR,,,,,,,,VFR,,,,,,,,,,,,METAR,8.0
KTMK 242230Z AUTO 05010KT 10SM CLR 03/M06 A3003 RMK AO2,KTMK,2023-02-24T22:30:00Z,45.42,-123.82,3.0,-6.0,50,10,,10.0,30.029528,,,TRUE,TRUE,,,,,,,CLR,,,,,,,,VFR,,,,,,,,,,,,SPECI,8.0
KTMK 242210Z AUTO 05012G16KT 10SM CLR 03/M06 A3003 RMK AO2,KTMK,2023-02-24T22:10:00Z,45.42,-123.82,3.0,-6.0,50,12,16,10.0,30.029528,,,TRUE,TRUE,,,,,,,CLR,,,,,,,,VFR,,,,,,,,,,,,SPECI,8.0
KTMK 242150Z AUTO 05014KT 10SM CLR 02/M06 A3003 RMK AO2,KTMK,2023-02-24T21:50:00Z,45.42,-123.82,2.0,-6.0,50,14,,10.0,30.029528,,,TRUE,TRUE,,,,,,,CLR,,,,,,,,VFR,,,,,,,,,,,,METAR,8.0
KTMK 242130Z AUTO 04012KT 7SM CLR 02/M06 A3003 RMK AO2,KTMK,2023-02-24T21:30:00Z,45.42,-123.82,2.0,-6.0,40,12,,7.0,30.029528,,,TRUE,TRUE,,,,,,,CLR,,,,,,,,VFR,,,,,,,,,,,,METAR,8.0
KTMK 242110Z AUTO 04011G21KT 7SM CLR 02/M07 A3003 RMK AO2,KTMK,2023-02-24T21:10:00Z,45.42,-123.82,2.0,-7.0,40,11,21,7.0,30.029528,,,TRUE,TRUE,,,,,,,CLR,,,,,,,,VFR,,,,,,,,,,,,SPECI,8.0
KTMK 242050Z AUTO 05015G19KT 7SM CLR 01/M07 A3002 RMK AO2,KTMK,2023-02-24T20:50:00Z,45.42,-123.82,1.0,-7.0,50,15,19,7.0,30.02067,,,TRUE,TRUE,,,,,,,CLR,,,,,,,,VFR,,,,,,,,,,,,SPECI,8.0
KTMK 242030Z AUTO 04014G20KT 10SM CLR 01/M07 A3002 RMK AO2,KTMK,2023-02-24T20:30:00Z,45.42,-123.82,1.0,-7.0,40,14,20,10.0,30.02067,,,TRUE,TRUE,,,,,,,CLR,,,,,,,,VFR,,,,,,,,,,,,SPECI,8.0
KTMK 242010Z AUTO 06013G19KT 10SM CLR 01/M07 A3002 RMK AO2,KTMK,2023-02-24T20:10:00Z,45.42,-123.82,1.0,-7.0,60,13,19,10.0,30.02067,,,TRUE,TRUE,,,,,,,CLR,,,,,,,,VFR,,,,,,,,,,,,SPECI,8.0
KTMK 241950Z AUTO 07015G23KT 7SM CLR 01/M07 A3002 RMK AO2,KTMK,2023-02-24T19:50:00Z,45.42,-123.82,1.0,-7.0,70,15,23,7.0,30.02067,,,TRUE,TRUE,,,,,,,CLR,,,,,,,,VFR,,,,,,,,,,,,METAR,8.0
KTMK 241930Z AUTO 05018G23KT 7SM CLR 00/M07 A3003 RMK AO2,KTMK,2023-02-24T19:30:00Z,45.42,-123.82,0.0,-7.0,50,18,23,7.0,30.029528,,,TRUE,TRUE,,,,,,,CLR,,,,,,,,VFR,,,,,,,,,,,,SPECI,8.0
KTMK 241910Z AUTO 05016G22KT 7SM CLR 00/M08 A3002 RMK AO2,KTMK,2023-02-24T19:10:00Z,45.42,-123.82,0.0,-8.0,50,16,22,7.0,30.02067,,,TRUE,TRUE,,,,,,,CLR,,,,,,,,VFR,,,,,,,,,,,,SPECI,8.0
KTMK 241850Z AUTO 06018G22KT 10SM CLR 00/M08 A3002 RMK AO2,KTMK,2023-02-24T18:50:00Z,45.42,-123.82,0.0,-8.0,60,18,22,10.0,30.02067,,,TRUE,TRUE,,,,,,,CLR,,,,,,,,VFR,,,,,,,,,,,,SPECI,8.0
KTMK 241830Z AUTO 07015G23KT 7SM CLR 00/M09 A3002 RMK AO2,KTMK,2023-02-24T18:30:00Z,45.42,-123.82,0.0,-9.0,70,15,23,7.0,30.02067,,,TRUE,TRUE,,,,,,,CLR,,,,,,,,VFR,,,,,,,,,,,,METAR,8.0
KTMK 241810Z AUTO 06015G22KT 10SM CLR 00/M09 A3002 RMK AO2,KTMK,2023-02-24T18:10:00Z,45.42,-123.82,0.0,-9.0,60,15,22,10.0,30.02067,,,TRUE,TRUE,,,,,,,CLR,,,,,,,,VFR,,,,,,,,,,,,METAR,8.0
KTMK 241750Z AUTO 05011G20KT 10SM CLR M01/M10 A3002 RMK AO2,KTMK,2023-02-24T17:50:00Z,45.42,-123.82,-1.0,-10.0,50,11,20,10.0,30.02067,,,TRUE,TRUE,,,,,,,CLR,,,,,,,,VFR,,,,,,,,,,,,SPECI,8.0
KTMK 241730Z AUTO 05014G24KT 10SM CLR M01/M10 A3003 RMK AO2,KTMK,2023-02-24T17:30:00Z,45.42,-123.82,-1.0,-10.0,50,14,24,10.0,30.029528,,,TRUE,TRUE,,,,,,,CLR,,,,,,,,VFR,,,,,,,,,,,,SPECI,8.0
KTMK 241710Z AUTO 05013G25KT 7SM CLR M01/M10 A3003 RMK AO2,KTMK,2023-02-24T17:10:00Z,45.42,-123.82,-1.0,-10.0,50,13,25,7.0,30.029528,,,TRUE,TRUE,,,,,,,CLR,,,,,,,,VFR,,,,,,,,,,,,METAR,8.0
KTMK 241650Z AUTO 05019G26KT 7SM CLR M02/M10 A3002 RMK AO2,KTMK,2023-02-24T16:50:00Z,45.42,-123.82,-2.0,-10.0,50,19,26,7.0,30.02067,,,TRUE,TRUE,,,,,,,CLR,,,,,,,,VFR,,,,,,,,,,,,METAR,8.0
KTMK 241630Z AUTO 06019G25KT 10SM CLR M02/M10 A3001 RMK AO2,KTMK,2023-02-24T16:30:00Z,45.42,-123.82,-2.0,-10.0,60,19,25,10.0,30.008858,,,TRUE,TRUE,,,,,,,CLR,,,,,,,,VFR,,,,,,,,,,,,METAR,8.0
KTMK 241610Z AUTO 06014G20KT 10SM CLR M02/M10 A3001 RMK AO2,KTMK,2023-02-24T16:10:00Z,45.42,-123.82,-2.0,-10.0,60,14,20,10.0,30.008858,,,TRUE,TRUE,,,,,,,CLR,,,,,,,,VFR,,,,,,,,,,,,SPECI,8.0
KTMK 241550Z AUTO 06019G28KT 4SM HZ CLR M02/M10 A3000 RMK AO2,KTMK,2023-02-24T15:50:00Z,45.42,-123.82,-2.0,-10.0,60,19,28,4.0,30.0,,,TRUE,TRUE,,,,,,HZ,CLR,,,,,,,,MVFR,,,,,,,,,,,,SPECI,8.0
KTMK 241530Z AUTO 05019G32KT 7SM CLR M03/M10 A2999 RMK AO2,KTMK,2023-02-24T15:30:00Z,45.42,-123.82,-3.0,-10.0,50,19,32,7.0,29.991142,,,TRUE,TRUE,,,,,,,CLR,,,,,,,,VFR,,,,,,,,,,,,METAR,8.0
KTMK 241510Z AUTO 05020G28KT 7SM CLR M03/M10 A2997 RMK AO2,KTMK,2023-02-24T15:10:00Z,45.42,-123.82,-3.0,-10.0,50,20,28,7.0,29.970472,,,TRUE,TRUE,,,,,,,CLR,,,,,,,,VFR,,,,,,,,,,,,SPECI,8.0
KTMK 241450Z AUTO 05022G28KT 5SM HZ CLR M03/M10 A2996 RMK AO2,KTMK,2023-02-24T14:50:00Z,45.42,-123.82,-3.0,-10.0,50,22,28,5.0,29.958662,,,TRUE,TRUE,,,,,,HZ,CLR,,,,,,,,MVFR,,,,,,,,,,,,METAR,8.0
KTMK 241430Z AUTO 04023G31KT 7SM CLR M03/M10 A2995 RMK AO2,KTMK,2023-02-24T14:30:00Z,45.42,-123.82,-3.0,-10.0,40,23,31,7.0,29.949802,,,TRUE,TRUE,,,,,,,CLR,,,,,,,,VFR,,,,,,,,,,,,METAR,8.0
KTMK 241410Z AUTO 04019G27KT 10SM CLR M03/M10 A2994 RMK AO2,KTMK,2023-02-24T14:10:00Z,45.42,-123.82,-3.0,-10.0,40,19,27,10.0,29.940945,,,TRUE,TRUE,,,,,,,CLR,,,,,,,,VFR,,,,,,,,,,,,SPECI,8.0
KTMK 241350Z AUTO 04021G28KT 7SM CLR M03/M10 A2994 RMK AO2,KTMK,2023-02-24T13:50:00Z,45.42,-123.82,-3.0,-10.0,40,21,28,7.0,29.940945,,,TRUE,TRUE,,,,,,,CLR,,,,,,,,VFR,,,,,,,,,,,,SPECI,8.0
KTMK 241330Z AUTO 04018G27KT 7SM CLR M03/M10 A2993 RMK AO2,KTMK,2023-02-24T13:30:00Z,45.42,-123.82,-3.0,-10.0,40,18,27,7.0,29.929134,,,TRUE,TRUE,,,,,,,CLR,,,,,,,,VFR,,,,,,,,,,,,METAR,8.0
KTMK 241310Z AUTO 05021G26KT 7SM CLR M03/M10 A2992 RMK AO2,KTMK,2023-02-24T13:10:00Z,45.42,-123.82,-3.0,-10.0,50,21,26,7.0,29.920275,,,TRUE,TRUE,,,,,,,CLR,,,,,,,,VFR,,,,,,,,,,,,SPECI,8.0
KTMK 241250Z AUTO 05020G27KT 5SM HZ CLR M03/M10 A2992 RMK AO2,KTMK,2023-02-24T12:50:00Z,45.42,-123.82,-3.0,-10.0,50,20,27,5.0,29.920275,,,TRUE,TRUE,,,,,,HZ,CLR,,,,,,,,MVFR,,,,,,,,,,,,METAR,8.0
KTMK 241230Z AUTO 04024G31KT 5SM HZ CLR M03/M10 A2991 RMK AO2,KTMK,2023-02-24T12:30:00Z,45.42,-123.82,-3.0,-10.0,40,24,31,5.0,29.911417,,,TRUE,TRUE,,,,,,HZ,CLR,,,,,,,,MVFR,,,,,,,,,,,,METAR,8.0
KTMK 241210Z AUTO 05024G33KT 3SM -SN CLR M03/M10 A2991 RMK AO2,KTMK,2023-02-24T12:10:00Z,45.42,-123.82,-3.0,-10.0,50,24,33,3.0,29.911417,,,TRUE,TRUE,,,,,,-SN,CLR,,,,,,,,MVFR,,,,,,,,,,,,SPECI,8.0
KTMK 241150Z AUTO 04020G26KT 7SM CLR M03/M10 A2992 RMK AO2,KTMK,2023-02-24T11:50:00Z,45.42,-123.82,-3.0,-10.0,40,20,26,7.0,29.920275,,,TRUE,TRUE,,,,,,,CLR,,,,,,,,VFR,,,,,,,,,,,,METAR,8.0
KTMK 241130Z AUTO 04017G29KT 5SM HZ CLR M03/M10 A2991 RMK AO2,KTMK,2023-02-24T11:30:00Z,45.42,-123.82,-3.0,-10.0,40,17,29,5.0,29.911417,,,TRUE,TRUE,,,,,,HZ,CLR,,,,,,,,MVFR,,,,,,,,,,,,METAR,8.0
KTMK 241110Z AUTO 05017G22KT 10SM CLR M03/M10 A2992 RMK AO2,KTMK,2023-02-24T11:10:00Z,45.42,-123.82,-3.0,-10.0,50,17,22,10.0,29.920275,,,TRUE,TRUE,,,,,,,CLR,,,,,,,,VFR,,,,,,,,,,,,SPECI,8.0
KTMK 241050Z AUTO 04012G22KT 10SM CLR M03/M11 A2992 RMK AO2,KTMK,2023-02-24T10:50:00Z,45.42,-123.82,-3.0,-11.0,40,12,22,10.0,29.920275,,,TRUE,TRUE,,,,,,,CLR,,,,,,,,VFR,,,,,,,,,,,,METAR,8.0
KTMK 241030Z AUTO 05014G18KT 10SM CLR M03/M11 A2992 RMK AO2,KTMK,2023-02-24T10:30:00Z,45.42,-123.82,-3.0,-11.0,50,14,18,10.0,29.920275,,,TRUE,TRUE,,,,,,,CLR,,,,,,,,VFR,,,,,,,,,,,,SPECI,8.0
KTMK 241010Z AUTO 05008G21KT 030V120 10SM CLR M03/M11 A2991 RMK AO2,KTMK,2023-02-24T10:10:00Z,45.42,-123.82,-3.0,-11.0,50,8,21,10.0,29.911417,,,TRUE,TRUE,,,,,,,CLR,,,,,,,,VFR,,,,,,,,,,,,SPECI,8.0
KTMK 240950Z AUTO 04009G14KT 10SM CLR M03/M11 A2991 RMK AO2,KTMK,2023-02-24T09:50:00Z,45.42,-123.82,-3.0,-11.0,40,9,14,10.0,29.911417,,,TRUE,TRUE,,,,,,,CLR,,,,,,,,VFR,,,,,,,,,,,,SPECI,8.0
KTMK 240930Z AUTO 34007G21KT 10SM CLR M03/M11 A2991 RMK AO2,KTMK,2023-02-24T09:30:00Z,45.42,-123.82,-3.0,-11.0,340,7,21,10.0,29.911417,,,TRUE,TRUE,,,,,,,CLR,,,,,,,,VFR,,,,,,,,,,,,SPECI,8.0
KTMK 240910Z AUTO 04005KT 10SM SCT120 M03/M11 A2990 RMK AO2,KTMK,2023-02-24T09:10:00Z,45.42,-123.82,-3.0,-11.0,40,5,,10.0,29.899607,,,TRUE,TRUE,,,,,,,SCT,12000,,,,,,,VFR,,,,,,,,,,,,SPECI,8.0
KTMK 240850Z AUTO 02009KT 10SM CLR M03/M10 A2990 RMK AO2,KTMK,2023-02-24T08:50:00Z,45.42,-123.82,-3.0,-10.0,20,9,,10.0,29.899607,,,TRUE,TRUE,,,,,,,CLR,,,,,,,,VFR,,,,,,,,,,,,METAR,8.0
KTMK 240830Z AUTO 05015G21KT 10SM CLR M03/M10 A2989 RMK AO2,KTMK,2023-02-24T08:30:00Z,45.42,-123.82,-3.0,-10.0,50,15,21,10.0,29.890747,,,TRUE,TRUE,,,,,,,CLR,,,,,,,,VFR,,,,,,,,,,,,METAR,8.0
KTMK 240810Z AUTO 05012G18KT 10SM CLR M03/M10 A2989 RMK AO2,KTMK,2023-02-24T08:10:00Z,45.42,-123.82,-3.0,-10.0,50,12,18,10.0,29.890747,,,TRUE,TRUE,,,,,,,CLR,,,,,,,,VFR,,,,,,,,,,,,SPECI,8.0
KTMK 240750Z AUTO 06012G19KT 10SM CLR M03/M10 A2989 RMK AO2,KTMK,2023-02-24T07:50:00Z,45.42,-123.82,-3.0,-10.0,60,12,19,10.0,29.890747,,,TRUE,TRUE,,,,,,,CLR,,,,,,,,VFR,,,,,,,,,,,,METAR,8.0
KTMK 240730Z AUTO 05011G21KT 10SM CLR M03/M10 A2988 RMK AO2,KTMK,2023-02-24T07:30:00Z,45.42,-123.82,-3.0,-10.0,50,11,21,10.0,29.878937,,,TRUE,TRUE,,,,,,,CLR,,,,,,,,VFR,,,,,,,,,,,,SPECI,8.0
KTMK 240710Z AUTO 05014G18KT 020V090 10SM CLR M03/M11 A2987 RMK AO2,KTMK,2023-02-24T07:10:00Z,45.42,-123.82,-3.0,-11.0,50,14,18,10.0,29.870079,,,TRUE,TRUE,,,,,,,CLR,,,,,,,,VFR,,,,,,,,,,,,METAR,8.0
KTMK 240650Z AUTO 08004G20KT 10SM CLR M03/M11 A2987 RMK AO2,KTMK,2023-02-24T06:50:00Z,45.42,-123.82,-3.0,-11.0,80,4,20,10.0,29.870079,,,TRUE,TRUE,,,,,,,CLR,,,,,,,,VFR,,,,,,,,,,,,SPECI,8.0
KTMK 240630Z AUTO 00000KT 10SM CLR M03/M11 A2986 RMK AO2,KTMK,2023-02-24T06:30:00Z,45.42,-123.82,-3.0,-11.0,0,0,,10.0,29.861221,,,TRUE,TRUE,,,,,,,CLR,,,,,,,,VFR,,,,,,,,,,,,SPECI,8.0
KTMK 240610Z AUTO 09006G21KT 10SM CLR M03/M11 A2986 RMK AO2,KTMK,2023-02-24T06:10:00Z,45.42,-123.82,-3.0,-11.0,90,6,21,10.0,29.861221,,,TRUE,TRUE,,,,,,,CLR,,,,,,,,VFR,,,,,,,,,,,,METAR,8.0
KTMK 240550Z AUTO 35004KT 10SM CLR M03/M11 A2985 RMK AO2,KTMK,2023-02-24T05:50:00Z,45.42,-123.82,-3.0,-11.0,350,4,,10.0,29.84941,,,TRUE,TRUE,,,,,,,CLR,,,,,,,,VFR,,,,,,,,,,,,SPECI,8.0
KTMK 240530Z AUTO 09006KT 10SM CLR M03/M11 A2984 RMK AO2,KTMK,2023-02-24T05:30:00Z,45.42,-123.82,-3.0,-11.0,90,6,,10.0,29.840551,,,TRUE,TRUE,,,,,,,CLR,,,,,,,,VFR,,,,,,,,,,,,SPECI,8.0
KTMK 240510Z AUTO 10006KT 10SM CLR M03/M10 A2984 RMK AO2,KTMK,2023-02-24T05:10:00Z,45.42,-123.82,-3.0,-10.0,100,6,,10.0,29.840551,,,TRUE,TRUE,,,,,,,CLR,,,,,,,,VFR,,,,,,,,,,,,METAR,8.0
KTMK 240450Z AUTO 06007G14KT 020V110 10SM CLR M03/M10 A2983 RMK AO2,KTMK,2023-02-24T04:50:00Z,45.42,-123.82,-3.0,-10.0,60,7,14,10.0,29.828741,,,TRUE,TRUE,,,,,,,CLR,,,,,,,,VFR,,,,,,,,,,,,METAR,8.0
KTMK 240430Z AUTO 06011G21KT 010V120 10SM CLR M03/M10 A2983 RMK AO2,KTMK,2023-02-24T04:30:00Z,45.42,-123.82,-3.0,-10.0,60,11,21,10.0,29.828741,,,TRUE,TRUE,,,,,,,CLR,,,,,,,,VFR,,,,,,,,,,,,SPECI,8.0
KTMK 240410Z AUTO 05004KT 10SM CLR M03/M10 A2982 RMK AO2,KTMK,2023-02-24T04:10:00Z,45.42,-123.82,-3.0,-10.0,50,4,,10.0,29.819881,,,TRUE,TRUE,,,,,,,CLR,,,,,,,,VFR,,,,,,,,,,,,METAR,8.0
KTMK 240350Z AUTO 01004KT 10SM CLR M03/M10 A2981 RMK AO2,KTMK,2023-02-24T03:50:00Z,45.42,-123.82,-3.0,-10.0,10,4,,10.0,29.811024,,,TRUE,TRUE,,,,,,,CLR,,,,,,,,VFR,,,,,,,,,,,,SPECI,8.0
KTMK 240330Z AUTO 03007KT 360V070 10SM CLR M03/M10 A2981 RMK AO2,KTMK,2023-02-24T03:30:00Z,45.42,-123.82,-3.0,-10.0,30,7,,10.0,29.811024,,,TRUE,TRUE,,,,,,,CLR,,,,,,,,VFR,,,,,,,,,,,,METAR,8.0
KTMK 240310Z AUTO 36003KT 10SM CLR M02/M10 A2980 RMK AO2,KTMK,2023-02-24T03:10:00Z,45.42,-123.82,-2.0,-10.0,360,3,,10.0,29.799213,,,TRUE,TRUE,,,,,,,CLR,,,,,,,,VFR,,,,,,,,,,,,SPECI,8.0
KTMK 240250Z AUTO 07005KT 10SM CLR M02/M09 A2979 RMK AO2,KTMK,2023-02-24T02:50:00Z,45.42,-123.82,-2.0,-9.0,70,5,,10.0,29.790354,,,TRUE,TRUE,,,,,,,CLR,,,,,,,,VFR,,,,,,,,,,,,METAR,8.0
KTMK 240230Z AUTO 00000KT 10SM CLR M02/M09 A2977 RMK AO2,KTMK,2023-02-24T02:30:00Z,45.42,-123.82,-2.0,-9.0,0,0,,10.0,29.769686,,,TRUE,TRUE,,,,,,,CLR,,,,,,,,VFR,,,,,,,,,,,,METAR,8.0
KTMK 240210Z AUTO 36003KT 10SM CLR M02/M09 A2976 RMK AO2,KTMK,2023-02-24T02:10:00Z,45.42,-123.82,-2.0,-9.0,360,3,,10.0,29.760826,,,TRUE,TRUE,,,,,,,CLR,,,,,,,,VFR,,,,,,,,,,,,SPECI,8.0
KTMK 240150Z AUTO 14003KT 10SM CLR M02/M08 A2976 RMK AO2,KTMK,2023-02-24T01:50:00Z,45.42,-123.82,-2.0,-8.0,140,3,,10.0,29.760826,,,TRUE,TRUE,,,,,,,CLR,,,,,,,,VFR,,,,,,,,,,,,SPECI,8.0
KTMK 240130Z AUTO 06005KT 10SM CLR M01/M08 A2974 RMK AO2,KTMK,2023-02-24T01:30:00Z,45.42,-123.82,-1.0,-8.0,60,5,,10.0,29.740158,,,TRUE,TRUE,,,,,,,CLR,,,,,,,,VFR,,,,,,,,,,,,METAR,8.0
KTMK 240110Z AUTO 00000KT 10SM CLR M01/M07 A2973 RMK AO2,KTMK,2023-02-24T01:10:00Z,45.42,-123.82,-1.0,-7.0,0,0,,10.0,29.731298,,,TRUE,TRUE,,,,,,,CLR,,,,,,,,VFR,,,,,,,,,,,,SPECI,8.0
KTMK 240050Z AUTO 06006KT 10SM CLR M01/M07 A2971 RMK AO2,KTMK,2023-02-24T00:50:00Z,45.42,-123.82,-1.0,-7.0,60,6,,10.0,29.71063,,,TRUE,TRUE,,,,,,,CLR,,,,,,,,VFR,,,,,,,,,,,,SPECI,8.0
KTMK 240030Z AUTO 04007KT 020V080 10SM CLR M01/M07 A2970 RMK AO2,KTMK,2023-02-24T00:30:00Z,45.42,-123.82,-1.0,-7.0,40,7,,10.0,29.698818,,,TRUE,TRUE,,,,,,,CLR,,,,,,,,VFR,,,,,,,,,,,,SPECI,8.0
KTMK 240010Z AUTO 05009G14KT 10SM CLR M01/M06 A2970 RMK AO2,KTMK,2023-02-24T00:10:00Z,45.42,-123.82,-1.0,-6.0,50,9,14,10.0,29.698818,,,TRUE,TRUE,,,,,,,CLR,,,,,,,,VFR,,,,,,,,,,,,SPECI,8.0
KTMK 232350Z AUTO 06015G18KT 7SM CLR M01/M06 A2968 RMK AO2,KTMK,2023-02-23T23:50:00Z,45.42,-123.82,-1.0,-6.0,60,15,18,7.0,29.681103,,,TRUE,TRUE,,,,,,,CLR,,,,,,,,VFR,,,,,,,,,,,,METAR,8.0
KTMK 232330Z AUTO 06008KT 10SM CLR 00/M06 A2969 RMK AO2,KTMK,2023-02-23T23:30:00Z,45.42,-123.82,0.0,-6.0,60,8,,10.0,29.68996,,,TRUE,TRUE,,,,,,,CLR,,,,,,,,VFR,,,,,,,,,,,,SPECI,8.0
KTMK 232310Z AUTO 07011KT 7SM CLR 00/M05 A2967 RMK AO2,KTMK,2023-02-23T23:10:00Z,45.42,-123.82,0.0,-5.0,70,11,,7.0,29.66929,,,TRUE,TRUE,,,,,,,CLR,,,,,,,,VFR,,,,,,,,,,,,METAR,8.0
KTMK 232250Z AUTO 05010KT 2SM HZ CLR 00/M05 A2967 RMK AO2,KTMK,2023-02-23T22:50:00Z,45.42,-123.82,0.0,-5.0,50,10,,2.0,29.66929,,,TRUE,TRUE,,,,,,HZ,CLR,,,,,,,,IFR,,,,,,,,,,,,SPECI,8.0
KTMK 232230Z AUTO 06015G18KT 5SM HZ CLR 00/M05 A2966 RMK AO2,KTMK,2023-02-23T22:30:00Z,45.42,-123.82,0.0,-5.0,60,15,18,5.0,29.660433,,,TRUE,TRUE,,,,,,HZ,CLR,,,,,,,,MVFR,,,,,,,,,,,,METAR,8.0
KTMK 232210Z AUTO 06011KT 3SM HZ CLR 00/M05 A2965 RMK AO2,KTMK,2023-02-23T22:10:00Z,45.42,-123.82,0.0,-5.0,60,11,,3.0,29.648623,,,TRUE,TRUE,,,,,,HZ,CLR,,,,,,,,MVFR,,,,,,,,,,,,SPECI,8.0
KTMK 232150Z AUTO 07010G15KT 7SM SCT018 SCT028 SCT036 00/M05 A2965 RMK AO2,KTMK,2023-02-23T21:50:00Z,45.42,-123.82,0.0,-5.0,70,10,15,7.0,29.648623,,,TRUE,TRUE,,,,,,,SCT,1800,SCT,2800,SCT,3600,,,VFR,,,,,,,,,,,,METAR,8.0
KTMK 232130Z AUTO 07011KT 1 1/2SM -SN BKN018 BKN028 OVC055 M01/M04 A2965 RMK AO2,KTMK,2023-02-23T21:30:00Z,45.42,-123.82,-1.0,-4.0,70,11,,1.5,29.648623,,,TRUE,TRUE,,,,,,-SN,BKN,1800,BKN,2800,OVC,5500,,,IFR,,,,,,,,,,,,METAR,8.0
KTMK 232110Z AUTO 08010G15KT 10SM SCT012 SCT021 OVC055 M01/M05 A2965 RMK AO2,KTMK,2023-02-23T21:10:00Z,45.42,-123.82,-1.0,-5.0,80,10,15,10.0,29.648623,,,TRUE,TRUE,,,,,,,SCT,1200,SCT,2100,OVC,5500,,,VFR,,,,,,,,,,,,SPECI,8.0
KTMK 232050Z AUTO 08008G15KT 2SM -SN SCT004 BKN012 OVC048 M01/M04 A2965 RMK AO2,KTMK,2023-02-23T20:50:00Z,45.42,-123.82,-1.0,-4.0,80,8,15,2.0,29.648623,,,TRUE,TRUE,,,,,,-SN,SCT,400,BKN,1200,OVC,4800,,,IFR,,,,,,,,,,,,SPECI,8.0
KTMK 232030Z AUTO 07010KT 1 1/4SM -SN BKN004 OVC009 M01/M03 A2964 RMK AO2,KTMK,2023-02-23T20:30:00Z,45.42,-123.82,-1.0,-3.0,70,10,,1.25,29.639763,,,TRUE,TRUE,,,,,,-SN,BKN,400,OVC,900,,,,,LIFR,,,,,,,,,,,,SPECI,8.0
KTMK 232010Z AUTO 07009G14KT 1SM -SN BKN008 OVC011 M01/M04 A2964 RMK AO2,KTMK,2023-02-23T20:10:00Z,45.42,-123.82,-1.0,-4.0,70,9,14,1.0,29.639763,,,TRUE,TRUE,,,,,,-SN,BKN,800,OVC,1100,,,,,IFR,,,,,,,,,,,,SPECI,8.0
KTMK 231955Z AUTO 08008KT 2SM -SN BKN012 BKN025 OVC037 M01/M04 A2964 RMK AO2 VIS 1 1/4V3,KTMK,2023-02-23T19:55:00Z,45.42,-123.82,-1.0,-4.0,80,8,,2.0,29.639763,,,TRUE,TRUE,,,,,,-SN,BKN,1200,BKN,2500,OVC,3700,,,IFR,,,,,,,,,,,,METAR,8.0
KTMK 231930Z AUTO 06010G15KT 1 1/2SM -SN BKN009 BKN015 OVC023 M01/M04 A2963 RMK AO2,KTMK,2023-02-23T19:30:00Z,45.42,-123.82,-1.0,-4.0,60,10,15,1.5,29.630905,,,TRUE,TRUE,,,,,,-SN,BKN,900,BKN,1500,OVC,2300,,,IFR,,,,,,,,,,,,SPECI,8.0
KTMK 231910Z AUTO 06011G15KT 1SM -SN BKN009 OVC013 M01/M03 A2962 RMK AO2,KTMK,2023-02-23T19:10:00Z,45.42,-123.82,-1.0,-3.0,60,11,15,1.0,29.619095,,,TRUE,TRUE,,,,,,-SN,BKN,900,OVC,1300,,,,,IFR,,,,,,,,,,,,SPECI,8.0
KTMK 231850Z AUTO 07008KT 3SM -SN SCT025 SCT034 OVC043 M01/M03 A2962 RMK AO2,KTMK,2023-02-23T18:50:00Z,45.42,-123.82,-1.0,-3.0,70,8,,3.0,29.619095,,,TRUE,TRUE,,,,,,-SN,SCT,2500,SCT,3400,OVC,4300,,,MVFR,,,,,,,,,,,,METAR,8.0
KTMK 231830Z AUTO 06009KT 4SM -SN SCT040 OVC050 M01/M03 A2960 RMK AO2,KTMK,2023-02-23T18:30:00Z,45.42,-123.82,-1.0,-3.0,60,9,,4.0,29.601377,,,TRUE,TRUE,,,,,,-SN,SCT,4000,OVC,5000,,,,,MVFR,,,,,,,,,,,,SPECI,8.0
KTMK 231810Z AUTO 06010KT 4SM HZ SCT048 BKN060 OVC080 M01/M03 A2959 RMK AO2,KTMK,2023-02-23T18:10:00Z,45.42,-123.82,-1.0,-3.0,60,10,,4.0,29.589567,,,TRUE,TRUE,,,,,,HZ,SCT,4800,BKN,6000,OVC,8000,,,MVFR,,,,,,,,,,,,METAR,8.0
KTMK 231750Z AUTO 06011G15KT 5SM BR SCT031 BKN050 OVC080 M01/M03 A2958 RMK AO2,KTMK,2023-02-23T17:50:00Z,45.42,-123.82,-1.0,-3.0,60,11,15,5.0,29.58071,,,TRUE,TRUE,,,,,,BR,SCT,3100,BKN,5000,OVC,8000,,,MVFR,,,,,,,,,,,,METAR,8.0
KTMK 231730Z AUTO 06010KT 2 1/2SM -SN SCT003 OVC029 M01/M02 A2957 RMK AO2,KTMK,2023-02-23T17:30:00Z,45.42,-123.82,-1.0,-2.0,60,10,,2.5,29.568897,,,TRUE,TRUE,,,,,,-SN,SCT,300,OVC,2900,,,,,IFR,,,,,,,,,,,,METAR,8.0
KTMK 231710Z AUTO 05009KT 1/2SM SN OVC005 M01/M02 A2957 RMK AO2,KTMK,2023-02-23T17:10:00Z,45.42,-123.82,-1.0,-2.0,50,9,,0.5,29.568897,,,TRUE,TRUE,,,,,,SN,OVC,500,,,,,,,LIFR,,,,,,,,,,,,METAR,8.0
KTMK 231650Z AUTO 06007KT 1/2SM SN OVC005 M01/M02 A2957 RMK AO2,KTMK,2023-02-23T16:50:00Z,45.42,-123.82,-1.0,-2.0,60,7,,0.5,29.568897,,,TRUE,TRUE,,,,,,SN,OVC,500,,,,,,,LIFR,,,,,,,,,,,,METAR,8.0
KTMK 231630Z AUTO 06005KT 1/2SM SN OVC007 M01/M02 A2957 RMK AO2,KTMK,2023-02-23T16:30:00Z,45.42,-123.82,-1.0,-2.0,60,5,,0.5,29.568897,,,TRUE,TRUE,,,,,,SN,OVC,700,,,,,,,LIFR,,,,,,,,,,,,SPECI,8.0
KTMK 231610Z AUTO 04004KT 1/2SM SN OVC007 M01/M02 A2956 RMK AO2,KTMK,2023-02-23T16:10:00Z,45.42,-123.82,-1.0,-2.0,40,4,,0.5,29.56004,,,TRUE,TRUE,,,,,,SN,OVC,700,,,,,,,LIFR,,,,,,,,,,,,METAR,8.0
KTMK 231550Z AUTO 05006KT 1/2SM SN OVC007 00/M01 A2955 RMK AO2,KTMK,2023-02-23T15:50:00Z,45.42,-123.82,0.0,-1.0,50,6,,0.5,29.551182,,,TRUE,TRUE,,,,,,SN,OVC,700,,,,,,,LIFR,,,,,,,,,,,,SPECI,8.0
KTMK 231530Z AUTO 05005KT 1 1/4SM SN OVC007 00/M01 A2955 RMK AO2,KTMK,2023-02-23T15:30:00Z,45.42,-123.82,0.0,-1.0,50,5,,1.25,29.551182,,,TRUE,TRUE,,,,,,SN,OVC,700,,,,,,,IFR,,,,,,,,,,,,SPECI,8.0
KTMK 231510Z AUTO 04005KT 1 1/2SM -SN OVC005 00/M01 A2954 RMK AO2,KTMK,2023-02-23T15:10:00Z,45.42,-123.82,0.0,-1.0,40,5,,1.5,29.53937,,,TRUE,TRUE,,,,,,-SN,OVC,500,,,,,,,IFR,,,,,,,,,,,,SPECI,8.0
KTMK 231450Z AUTO 06006KT 1SM SN OVC003 00/M01 A2953 RMK AO2 P0004,KTMK,2023-02-23T14:50:00Z,45.42,-123.82,0.0,-1.0,60,6,,1.0,29.530512,,,TRUE,TRUE,,,,,,SN,OVC,300,,,,,,,LIFR,,,,,,0.04,,,,,,METAR,8.0
KTMK 231430Z AUTO 07004KT 3/4SM SN OVC003 00/M01 A2953 RMK AO2 P0003,KTMK,2023-02-23T14:30:00Z,45.42,-123.82,0.0,-1.0,70,4,,0.75,29.530512,,,TRUE,TRUE,,,,,,SN,OVC,300,,,,,,,LIFR,,,,,,0.03,,,,,,METAR,8.0
KTMK 231410Z AUTO 05006KT 1SM SN OVC003 00/00 A2952 RMK AO2 P0002,KTMK,2023-02-23T14:10:00Z,45.42,-123.82,0.0,0.0,50,6,,1.0,29.518702,,,TRUE,TRUE,,,,,,SN,OVC,300,,,,,,,LIFR,,,,,,0.02,,,,,,SPECI,8.0
KTMK 231350Z AUTO 11004KT 3/4SM SN OVC003 00/00 A2952 RMK AO2 P0003,KTMK,2023-02-23T13:50:00Z,45.42,-123.82,0.0,0.0,110,4,,0.75,29.518702,,,TRUE,TRUE,,,,,,SN,OVC,300,,,,,,,LIFR,,,,,,0.03,,,,,,METAR,8.0
KTMK 231330Z AUTO 07006KT 1SM SN OVC007 00/00 A2952 RMK AO2,KTMK,2023-02-23T13:30:00Z,45.42,-123.82,0.0,0.0,70,6,,1.0,29.518702,,,TRUE,TRUE,,,,,,SN,OVC,700,,,,,,,IFR,,,,,,,,,,,,METAR,8.0
KTMK 231310Z AUTO 07009KT 2 1/2SM -SN OVC016 00/00 A2951 RMK AO2,KTMK,2023-02-23T13:10:00Z,45.42,-123.82,0.0,0.0,70,9,,2.5,29.509842,,,TRUE,TRUE,,,,,,-SN,OVC,1600,,,,,,,IFR,,,,,,,,,,,,SPECI,8.0
KTMK 231250Z AUTO 07009KT 2SM -SN SCT003 BKN010 OVC014 00/00 A2950 RMK AO2 P0006,KTMK,2023-02-23T12:50:00Z,45.42,-123.82,0.0,0.0,70,9,,2.0,29.500984,,,TRUE,TRUE,,,,,,-SN,SCT,300,BKN,1000,OVC,1400,,,IFR,,,,,,0.06,,,,,,METAR,8.0
KTMK 231230Z AUTO 10005KT 1 1/2SM -SN OVC006 00/00 A2950 RMK AO2 P0005,KTMK,2023-02-23T12:30:00Z,45.42,-123.82,0.0,0.0,100,5,,1.5,29.500984,,,TRUE,TRUE,,,,,,-SN,OVC,600,,,,,,,IFR,,,,,,0.05,,,,,,SPECI,8.0
KTMK 231210Z AUTO 15006KT 1 1/2SM -SN OVC006 01/00 A2950 RMK AO2 P0001,KTMK,2023-02-23T12:10:00Z,45.42,-123.82,1.0,0.0,150,6,,1.5,29.500984,,,TRUE,TRUE,,,,,,-SN,OVC,600,,,,,,,IFR,,,,,,0.01,,,,,,METAR,8.0
KTMK 231150Z AUTO 15007KT 1 3/4SM -SN OVC006 00/00 A2950 RMK AO2,KTMK,2023-02-23T11:50:00Z,45.42,-123.82,0.0,0.0,150,7,,1.75,29.500984,,,TRUE,TRUE,,,,,,-SN,OVC,600,,,,,,,IFR,,,,,,,,,,,,METAR,8.0
KTMK 231130Z AUTO 06009KT 1 1/4SM SN OVC006 00/M01 A2950 RMK AO2,KTMK,2023-02-23T11:30:00Z,45.42,-123.82,0.0,-1.0,60,9,,1.25,29.500984,,,TRUE,TRUE,,,,,,SN,OVC,600,,,,,,,IFR,,,,,,,,,,,,METAR,8.0
KTMK 231110Z AUTO 05009KT 2SM -SN OVC006 00/M01 A2950 RMK AO2,KTMK,2023-02-23T11:10:00Z,45.42,-123.82,0.0,-1.0,50,9,,2.0,29.500984,,,TRUE,TRUE,,,,,,-SN,OVC,600,,,,,,,IFR,,,,,,,,,,,,SPECI,8.0
KTMK 231050Z AUTO 06010KT 1SM -SN OVC006 00/00 A2950 RMK AO2 P0003,KTMK,2023-02-23T10:50:00Z,45.42,-123.82,0.0,0.0,60,10,,1.0,29.500984,,,TRUE,TRUE,,,,,,-SN,OVC,600,,,,,,,IFR,,,,,,0.03,,,,,,METAR,8.0
KTMK 231030Z AUTO 05010KT 1/2SM SN OVC004 00/00 A2951 RMK AO2 P0003,KTMK,2023-02-23T10:30:00Z,45.42,-123.82,0.0,0.0,50,10,,0.5,29.509842,,,TRUE,TRUE,,,,,,SN,OVC,400,,,,,,,LIFR,,,,,,0.03,,,,,,SPECI,8.0
KTMK 231010Z AUTO 05008KT 3/4SM SN OVC006 00/00 A2952 RMK AO2 P0001,KTMK,2023-02-23T10:10:00Z,45.42,-123.82,0.0,0.0,50,8,,0.75,29.518702,,,TRUE,TRUE,,,,,,SN,OVC,600,,,,,,,LIFR,,,,,,0.01,,,,,,SPECI,8.0
KTMK 230950Z AUTO 06007KT 1 3/4SM -SN OVC011 00/00 A2952 RMK AO2,KTMK,2023-02-23T09:50:00Z,45.42,-123.82,0.0,0.0,60,7,,1.75,29.518702,,,TRUE,TRUE,,,,,,-SN,OVC,1100,,,,,,,IFR,,,,,,,,,,,,METAR,8.0
KTMK 230930Z AUTO 07005KT 7SM -SN BKN005 OVC009 01/00 A2952 RMK AO2,KTMK,2023-02-23T09:30:00Z,45.42,-123.82,1.0,0.0,70,5,,7.0,29.518702,,,TRUE,TRUE,,,,,,-SN,BKN,500,OVC,900,,,,,IFR,,,,,,,,,,,,METAR,8.0
KTMK 230910Z AUTO 00000KT 3SM -SN BKN006 OVC011 00/00 A2952 RMK AO2,KTMK,2023-02-23T09:10:00Z,45.42,-123.82,0.0,0.0,0,0,,3.0,29.518702,,,TRUE,TRUE,,,,,,-SN,BKN,600,OVC,1100,,,,,IFR,,,,,,,,,,,,METAR,8.0
KTMK 230850Z AUTO 00000KT 5SM -SN SCT006 SCT011 OVC015 01/00 A2952 RMK AO2 P0001,KTMK,2023-02-23T08:50:00Z,45.42,-123.82,1.0,0.0,0,0,,5.0,29.518702,,,TRUE,TRUE,,,,,,-SN,SCT,600,SCT,1100,OVC,1500,,,MVFR,,,,,,0.01,,,,,,SPECI,8.0
KTMK 230830Z AUTO 00000KT 5SM -SN SCT004 BKN009 OVC022 00/00 A2952 RMK AO2 P0001,KTMK,2023-02-23T08:30:00Z,45.42,-123.82,0.0,0.0,0,0,,5.0,29.518702,,,TRUE,TRUE,,,,,,-SN,SCT,400,BKN,900,OVC,2200,,,IFR,,,,,,0.01,,,,,,SPECI,8.0
KTMK 230810Z AUTO 00000KT 3SM -SN SCT004 BKN014 OVC020 00/00 A2952 RMK AO2,KTMK,2023-02-23T08:10:00Z,45.42,-123.82,0.0,0.0,0,0,,3.0,29.518702,,,TRUE,TRUE,,,,,,-SN,SCT,400,BKN,1400,OVC,2000,,,MVFR,,,,,,,,,,,,METAR,8.0
KTMK 230750Z AUTO 06004KT 2 1/2SM -SN SCT005 SCT011 OVC019 00/00 A2952 RMK AO2 P0002,KTMK,2023-02-23T07:50:00Z,45.42,-123.82,0.0,0.0,60,4,,2.5,29.518702,,,TRUE,TRUE,,,,,,-SN,SCT,500,SCT,1100,OVC,1900,,,IFR,,,,,,0.02,,,,,,METAR,8.0
KTMK 230730Z AUTO 00000KT 3SM -SN BKN005 BKN009 OVC020 01/00 A2952 RMK AO2 P0001,KTMK,2023-02-23T07:30:00Z,45.42,-123.82,1.0,0.0,0,0,,3.0,29.518702,,,TRUE,TRUE,,,,,,-SN,BKN,500,BKN,900,OVC,2000,,,IFR,,,,,,0.01,,,,,,METAR,8.0
KTMK 230710Z AUTO 00000KT 3SM -SN OVC007 01/00 A2952 RMK AO2,KTMK,2023-02-23T07:10:00Z,45.42,-123.82,1.0,0.0,0,0,,3.0,29.518702,,,TRUE,TRUE,,,,,,-SN,OVC,700,,,,,,,IFR,,,,,,,,,,,,SPECI,8.0
KTMK 230650Z AUTO 00000KT 4SM -SN BKN005 OVC011 00/00 A2953 RMK AO2 P0003,KTMK,2023-02-23T06:50:00Z,45.42,-123.82,0.0,0.0,0,0,,4.0,29.530512,,,TRUE,TRUE,,,,,,-SN,BKN,500,OVC,1100,,,,,IFR,,,,,,0.03,,,,,,METAR,8.0
KTMK 230630Z AUTO 00000KT 4SM -SN BKN007 OVC010 01/00 A2953 RMK AO2 P0001,KTMK,2023-02-23T06:30:00Z,45.42,-123.82,1.0,0.0,0,0,,4.0,29.530512,,,TRUE,TRUE,,,,,,-SN,BKN,700,OVC,1000,,,,,IFR,,,,,,0.01,,,,,,SPECI,8.0
KTMK 230610Z AUTO 15003KT 4SM -SN OVC010 01/00 A2953 RMK AO2 P0001,KTMK,2023-02-23T06:10:00Z,45.42,-123.82,1.0,0.0,150,3,,4.0,29.530512,,,TRUE,TRUE,,,,,,-SN,OVC,1000,,,,,,,MVFR,,,,,,0.01,,,,,,SPECI,8.0
KTMK 230550Z AUTO 18004KT 5SM UP SCT012 BKN017 OVC032 01/01 A2953 RMK AO2 P0002,KTMK,2023-02-23T05:50:00Z,45.42,-123.82,1.0,1.0,180,4,,5.0,29.530512,,,TRUE,TRUE,,,,,,UP,SCT,1200,BKN,1700,OVC,3200,,,MVFR,,,,,,0.02,,,,,,METAR,8.0
KTMK 230530Z AUTO 14003KT 7SM UP BKN012 BKN017 OVC022 01/00 A2953 RMK AO2 P0002,KTMK,2023-02-23T05:30:00Z,45.42,-123.82,1.0,0.0,140,3,,7.0,29.530512,,,TRUE,TRUE,,,,,,UP,BKN,1200,BKN,1700,OVC,2200,,,MVFR,,,,,,0.02,,,,,,SPECI,8.0
KTMK 230510Z AUTO 14004KT 3SM UP BKN010 OVC014 01/00 A2953 RMK AO2 P0001,KTMK,2023-02-23T05:10:00Z,45.42,-123.82,1.0,0.0,140,4,,3.0,29.530512,,,TRUE,TRUE,,,,,,UP,BKN,1000,OVC,1400,,,,,MVFR,,,,,,0.01,,,,,,SPECI,8.0
KTMK 230450Z AUTO 13004KT 4SM -SN OVC014 01/00 A2953 RMK AO2 P0006,KTMK,2023-02-23T04:50:00Z,45.42,-123.82,1.0,0.0,130,4,,4.0,29.530512,,,TRUE,TRUE,,,,,,-SN,OVC,1400,,,,,,,MVFR,,,,,,0.06,,,,,,SPECI,8.0
KTMK 230430Z AUTO 16003KT 4SM -SN SCT006 OVC014 01/00 A2953 RMK AO2 P0003,KTMK,2023-02-23T04:30:00Z,45.42,-123.82,1.0,0.0,160,3,,4.0,29.530512,,,TRUE,TRUE,,,,,,-SN,SCT,600,OVC,1400,,,,,MVFR,,,,,,0.03,,,,,,METAR,8.0
KTMK 230410Z AUTO 18004KT 5SM UP BKN008 OVC012 02/01 A2952 RMK AO2 P0001,KTMK,2023-02-23T04:10:00Z,45.42,-123.82,2.0,1.0,180,4,,5.0,29.518702,,,TRUE,TRUE,,,,,,UP,BKN,800,OVC,1200,,,,,IFR,,,,,,0.01,,,,,,METAR,8.0
KTMK 230350Z AUTO 00000KT 10SM UP SCT008 BKN022 OVC036 02/01 A2952 RMK AO2 P0001,KTMK,2023-02-23T03:50:00Z,45.42,-123.82,2.0,1.0,0,0,,10.0,29.518702,,,TRUE,TRUE,,,,,,UP,SCT,800,BKN,2200,OVC,3600,,,MVFR,,,,,,0.01,,,,,,METAR,8.0
KTMK 230330Z AUTO 00000KT 7SM UP SCT004 BKN017 OVC055 02/01 A2952 RMK AO2 P0001,KTMK,2023-02-23T03:30:00Z,45.42,-123.82,2.0,1.0,0,0,,7.0,29.518702,,,TRUE,TRUE,,,,,,UP,SCT,400,BKN,1700,OVC,5500,,,MVFR,,,,,,0.01,,,,,,METAR,8.0
KTMK 230310Z AUTO 00000KT 10SM OVC015 03/02 A2952 RMK AO2,KTMK,2023-02-23T03:10:00Z,45.42,-123.82,3.0,2.0,0,0,,10.0,29.518702,,,TRUE,TRUE,,,,,,,OVC,1500,,,,,,,MVFR,,,,,,,,,,,,SPECI,8.0
KTMK 230250Z AUTO 16003KT 10SM UP OVC015 03/02 A2952 RMK AO2 P0002,KTMK,2023-02-23T02:50:00Z,45.42,-123.82,3.0,2.0,160,3,,10.0,29.518702,,,TRUE,TRUE,,,,,,UP,OVC,1500,,,,,,,MVFR,,,,,,0.02,,,,,,METAR,8.0
KTMK 230230Z AUTO 16005KT 10SM RA SCT009 OVC019 03/02 A2952 RMK AO2 P0002,KTMK,2023-02-23T02:30:00Z,45.42,-123.82,3.0,2.0,160,5,,10.0,29.518702,,,TRUE,TRUE,,,,,,RA,SCT,900,OVC,1900,,,,,MVFR,,,,,,0.02,,,,,,SPECI,8.0
KTMK 230210Z AUTO 17008KT 5SM RA SCT011 BKN019 OVC030 03/02 A2953 RMK AO2 P0002,KTMK,2023-02-23T02:10:00Z,45.42,-123.82,3.0,2.0,170,8,,5.0,29.530512,,,TRUE,TRUE,,,,,,RA,SCT,1100,BKN,1900,OVC,3000,,,MVFR,,,,,,0.02,,,,,,SPECI,8.0
KTMK 230150Z AUTO 16003KT 10SM -RA SCT019 BKN025 OVC030 03/02 A2952 RMK AO2,KTMK,2023-02-23T01:50:00Z,45.42,-123.82,3.0,2.0,160,3,,10.0,29.518702,,,TRUE,TRUE,,,,,,-RA,SCT,1900,BKN,2500,OVC,3000,,,MVFR,,,,,,,,,,,,SPECI,8.0
KTMK 230130Z AUTO 19005KT 10SM BKN021 OVC030 04/02 A2952 RMK AO2,KTMK,2023-02-23T01:30:00Z,45.42,-123.82,4.0,2.0,190,5,,10.0,29.518702,,,TRUE,TRUE,,,,,,,BKN,2100,OVC,3000,,,,,MVFR,,,,,,,,,,,,SPECI,8.0
KTMK 230110Z AUTO 16003KT 10SM -DZ BKN030 OVC050 04/02 A2952 RMK AO2,KTMK,2023-02-23T01:10:00Z,45.42,-123.82,4.0,2.0,160,3,,10.0,29.518702,,,TRUE,TRUE,,,,,,-DZ,BKN,3000,OVC,5000,,,,,MVFR,,,,,,,,,,,,SPECI,8.0
KTMK 230050Z AUTO 00000KT 10SM SCT030 BKN046 OVC050 04/02 A2952 RMK AO2,KTMK,2023-02-23T00:50:00Z,45.42,-123.82,4.0,2.0,0,0,,10.0,29.518702,,,TRUE,TRUE,,,,,,,SCT,3000,BKN,4600,OVC,5000,,,VFR,,,,,,,,,,,,METAR,8.0
KTMK 230030Z AUTO 00000KT 10SM SCT018 SCT026 OVC047 05/01 A2952 RMK AO2,KTMK,2023-02-23T00:30:00Z,45.42,-123.82,5.0,1.0,0,0,,10.0,29.518702,,,TRUE,TRUE,,,,,,,SCT,1800,SCT,2600,OVC,4700,,,VFR,,,,,,,,,,,,METAR,8.0
KTMK 230010Z AUTO 21005KT 10SM -RA BKN018 BKN025 OVC033 05/02 A2952 RMK AO2,KTMK,2023-02-23T00:10:00Z,45.42,-123.82,5.0,2.0,210,5,,10.0,29.518702,,,TRUE,TRUE,,,,,,-RA,BKN,1800,BKN,2500,OVC,3300,,,MVFR,,,,,,,,,,,,SPECI,8.0
KTMK 222350Z AUTO 22004KT 10SM SCT016 BKN021 OVC055 05/02 A2952 RMK AO2,KTMK,2023-02-22T23:50:00Z,45.42,-123.82,5.0,2.0,220,4,,10.0,29.518702,,,TRUE,TRUE,,,,,,,SCT,1600,BKN,2100,OVC,5500,,,MVFR,,,,,,,,,,,,SPECI,8.0
KTMK 222330Z AUTO 19003KT 10SM BKN016 BKN022 OVC044 05/02 A2952 RMK AO2,KTMK,2023-02-22T23:30:00Z,45.42,-123.82,5.0,2.0,190,3,,10.0,29.518702,,,TRUE,TRUE,,,,,,,BKN,1600,BKN,2200,OVC,4400,,,MVFR,,,,,,,,,,,,METAR,8.0
KTMK 222310Z AUTO 08003KT 10SM BKN016 OVC021 04/02 A2952 RMK AO2,KTMK,2023-02-22T23:10:00Z,45.42,-123.82,4.0,2.0,80,3,,10.0,29.518702,,,TRUE,TRUE,,,,,,,BKN,1600,OVC,2100,,,,,MVFR,,,,,,,,,,,,SPECI,8.0
KTMK 222250Z AUTO 22004KT 10SM BKN013 OVC018 05/03 A2952 RMK AO2,KTMK,2023-02-22T22:50:00Z,45.42,-123.82,5.0,3.0,220,4,,10.0,29.518702,,,TRUE,TRUE,,,,,,,BKN,1300,OVC,1800,,,,,MVFR,,,,,,,,,,,,METAR,8.0
KTMK 222230Z AUTO 13008KT 10SM OVC013 05/03 A2952 RMK AO2,KTMK,2023-02-22T22:30:00Z,45.42,-123.82,5.0,3.0,130,8,,10.0,29.518702,,,TRUE,TRUE,,,,,,,OVC,1300,,,,,,,MVFR,,,,,,,,,,,,SPECI,8.0
KTMK 222210Z AUTO 12009KT 10SM BKN013 OVC020 05/02 A2952 RMK AO2,KTMK,2023-02-22T22:10:00Z,45.42,-123.82,5.0,2.0,120,9,,10.0,29.518702,,,TRUE,TRUE,,,,,,,BKN,1300,OVC,2000,,,,,MVFR,,,,,,,,,,,,METAR,8.0
KTMK 222150Z AUTO 14004KT 5SM RA SCT021 BKN029 OVC035 05/02 A2953 RMK AO2 P0003,KTMK,2023-02-22T21:50:00Z,45.42,-123.82,5.0,2.0,140,4,,5.0,29.530512,,,TRUE,TRUE,,,,,,RA,SCT,2100,BKN,2900,OVC,3500,,,MVFR,,,,,,0.03,,,,,,METAR,8.0
KTMK 222130Z AUTO 14003KT 10SM SCT023 BKN029 OVC060 05/02 A2952 RMK AO2 P0002,KTMK,2023-02-22T21:30:00Z,45.42,-123.82,5.0,2.0,140,3,,10.0,29.518702,,,TRUE,TRUE,,,,,,,SCT,2300,BKN,2900,OVC,6000,,,MVFR,,,,,,0.02,,,,,,METAR,8.0
KTMK 222110Z AUTO 15003KT 7SM -RA SCT023 BKN029 BKN042 05/02 A2953 RMK AO2 P0001,KTMK,2023-02-22T21:10:00Z,45.42,-123.82,5.0,2.0,150,3,,7.0,29.530512,,,TRUE,TRUE,,,,,,-RA,SCT,2300,BKN,2900,BKN,4200,,,MVFR,,,,,,0.01,,,,,,METAR,8.0
KTMK 222050Z AUTO 00000KT 10SM SCT017 BKN029 BKN037 05/02 A2953 RMK AO2,KTMK,2023-02-22T20:50:00Z,45.42,-123.82,5.0,2.0,0,0,,10.0,29.530512,,,TRUE,TRUE,,,,,,,SCT,1700,BKN,2900,BKN,3700,,,MVFR,,,,,,,,,,,,METAR,8.0
KTMK 222030Z AUTO 13005KT 10SM BKN017 OVC022 04/03 A2954 RMK AO2,KTMK,2023-02-22T20:30:00Z,45.42,-123.82,4.0,3.0,130,5,,10.0,29.53937,,,TRUE,TRUE,,,,,,,BKN,1700,OVC,2200,,,,,MVFR,,,,,,,,,,,,METAR,8.0
KTMK 222010Z AUTO 13006KT 10SM SCT012 BKN019 BKN026 04/03 A2954 RMK AO2,KTMK,2023-02-22T20:10:00Z,45.42,-123.82,4.0,3.0,130,6,,10.0,29.53937,,,TRUE,TRUE,,,,,,,SCT,1200,BKN,1900,BKN,2600,,,MVFR,,,,,,,,,,,,SPECI,8.0
KTMK 221950Z AUTO 16005KT 10SM BKN012 BKN017 OVC028 04/02 A2954 RMK AO2,KTMK,2023-02-22T19:50:00Z,45.42,-123.82,4.0,2.0,160,5,,10.0,29.53937,,,TRUE,TRUE,,,,,,,BKN,1200,BKN,1700,OVC,2800,,,MVFR,,,,,,,,,,,,METAR,8.0
KTMK 221930Z AUTO 14003KT 10SM BKN017 OVC022 05/02 A2954 RMK AO2,KTMK,2023-02-22T19:30:00Z,45.42,-123.82,5.0,2.0,140,3,,10.0,29.53937,,,TRUE,TRUE,,,,,,,BKN,1700,OVC,2200,,,,,MVFR,,,,,,,,,,,,SPECI,8.0
KTMK 221910Z AUTO 00000KT 10SM BKN019 BKN023 OVC032 04/03 A2954 RMK AO2,KTMK,2023-02-22T19:10:00Z,45.42,-123.82,4.0,3.0,0,0,,10.0,29.53937,,,TRUE,TRUE,,,,,,,BKN,1900,BKN,2300,OVC,3200,,,MVFR,,,,,,,,,,,,SPECI,8.0
KTMK 221850Z AUTO 13004KT 10SM SCT019 OVC025 03/02 A2954 RMK AO2,KTMK,2023-02-22T18:50:00Z,45.42,-123.82,3.0,2.0,130,4,,10.0,29.53937,,,TRUE,TRUE,,,,,,,SCT,1900,OVC,2500,,,,,MVFR,,,,,,,,,,,,METAR,8.0
KTMK 221830Z AUTO 12005KT 10SM SCT016 OVC025 03/02 A2953 RMK AO2,KTMK,2023-02-22T18:30:00Z,45.42,-123.82,3.0,2.0,120,5,,10.0,29.530512,,,TRUE,TRUE,,,,,,,SCT,1600,OVC,2500,,,,,MVFR,,,,,,,,,,,,SPECI,8.0
KTMK 221810Z AUTO 13004KT 10SM SCT010 OVC016 03/02 A2953 RMK AO2,KTMK,2023-02-22T18:10:00Z,45.42,-123.82,3.0,2.0,130,4,,10.0,29.530512,,,TRUE,TRUE,,,,,,,SCT,1000,OVC,1600,,,,,MVFR,,,,,,,,,,,,METAR,8.0
KTMK 221750Z AUTO 09004KT 10SM SCT009 OVC014 04/02 A2953 RMK AO2,KTMK,2023-02-22T17:50:00Z,45.42,-123.82,4.0,2.0,90,4,,10.0,29.530512,,,TRUE,TRUE,,,,,,,SCT,900,OVC,1400,,,,,MVFR,,,,,,,,,,,,METAR,8.0
KTMK 221730Z AUTO 00000KT 4SM BR BKN008 OVC014 04/02 A2952 RMK AO2,KTMK,2023-02-22T17:30:00Z,45.42,-123.82,4.0,2.0,0,0,,4.0,29.518702,,,TRUE,TRUE,,,,,,BR,BKN,800,OVC,1400,,,,,IFR,,,,,,,,,,,,METAR,8.0
KTMK 221710Z AUTO 00000KT 5SM BR OVC008 03/02 A2952 RMK AO2,KTMK,2023-02-22T17:10:00Z,45.42,-123.82,3.0,2.0,0,0,,5.0,29.518702,,,TRUE,TRUE,,,,,,BR,OVC,800,,,,,,,IFR,,,,,,,,,,,,SPECI,8.0
KTMK 221650Z AUTO 00000KT 10SM OVC008 03/02 A2952 RMK AO2 P0001,KTMK,2023-02-22T16:50:00Z,45.42,-123.82,3.0,2.0,0,0,,10.0,29.518702,,,TRUE,TRUE,,,,,,,OVC,800,,,,,,,IFR,,,,,,0.01,,,,,,METAR,8.0
KTMK 221630Z AUTO 16003KT 10SM -RA BKN010 BKN017 OVC026 03/02 A2952 RMK AO2 P0001,KTMK,2023-02-22T16:30:00Z,45.42,-123.82,3.0,2.0,160,3,,10.0,29.518702,,,TRUE,TRUE,,,,,,-RA,BKN,1000,BKN,1700,OVC,2600,,,MVFR,,,,,,0.01,,,,,,METAR,8.0
KTMK 221610Z AUTO 00000KT 5SM UP SCT010 OVC017 03/02 A2952 RMK AO2 P0001,KTMK,2023-02-22T16:10:00Z,45.42,-123.82,3.0,2.0,0,0,,5.0,29.518702,,,TRUE,TRUE,,,,,,UP,SCT,1000,OVC,1700,,,,,MVFR,,,,,,0.01,,,,,,SPECI,8.0
KTMK 221550Z AUTO 20007KT 5SM -RA OVC015 02/01 A2952 RMK AO2 P0006,KTMK,2023-02-22T15:50:00Z,45.42,-123.82,2.0,1.0,200,7,,5.0,29.518702,,,TRUE,TRUE,,,,,,-RA,OVC,1500,,,,,,,MVFR,,,,,,0.06,,,,,,METAR,8.0
KTMK 221530Z AUTO 26009G17KT 5SM -RA OVC013 03/02 A2952 RMK AO2 P0001,KTMK,2023-02-22T15:30:00Z,45.42,-123.82,3.0,2.0,260,9,17,5.0,29.518702,,,TRUE,TRUE,,,,,,-RA,OVC,1300,,,,,,,MVFR,,,,,,0.01,,,,,,METAR,8.0
KTMK 221510Z AUTO 26011G16KT 10SM OVC013 04/02 A2952 RMK AO2,KTMK,2023-02-22T15:10:00Z,45.42,-123.82,4.0,2.0,260,11,16,10.0,29.518702,,,TRUE,TRUE,,,,,,,OVC,1300,,,,,,,MVFR,,,,,,,,,,,,METAR,8.0
KTMK 221450Z AUTO 26007G17KT 10SM OVC015 04/02 A2952 RMK AO2,KTMK,2023-02-22T14:50:00Z,45.42,-123.82,4.0,2.0,260,7,17,10.0,29.518702,,,TRUE,TRUE,,,,,,,OVC,1500,,,,,,,MVFR,,,,,,,,,,,,METAR,8.0
KTMK 221430Z AUTO 26010G18KT 10SM BKN015 OVC022 04/02 A2952 RMK AO2,KTMK,2023-02-22T14:30:00Z,45.42,-123.82,4.0,2.0,260,10,18,10.0,29.518702,,,TRUE,TRUE,,,,,,,BKN,1500,OVC,2200,,,,,MVFR,,,,,,,,,,,,METAR,8.0
KTMK 221410Z AUTO 26007G18KT 7SM BKN017 OVC024 04/02 A2952 RMK AO2,KTMK,2023-02-22T14:10:00Z,45.42,-123.82,4.0,2.0,260,7,18,7.0,29.518702,,,TRUE,TRUE,,,,,,,BKN,1700,OVC,2400,,,,,MVFR,,,,,,,,,,,,SPECI,8.0
KTMK 221350Z AUTO 25008G16KT 7SM -RA BKN019 OVC026 03/02 A2952 RMK AO2 P0003,KTMK,2023-02-22T13:50:00Z,45.42,-123.82,3.0,2.0,250,8,16,7.0,29.518702,,,TRUE,TRUE,,,,,,-RA,BKN,1900,OVC,2600,,,,,MVFR,,,,,,0.03,,,,,,METAR,8.0
KTMK 221330Z AUTO 22008G14KT 5SM -RA BKN015 BKN022 OVC027 03/02 A2953 RMK AO2 P0001,KTMK,2023-02-22T13:30:00Z,45.42,-123.82,3.0,2.0,220,8,14,5.0,29.530512,,,TRUE,TRUE,,,,,,-RA,BKN,1500,BKN,2200,OVC,2700,,,MVFR,,,,,,0.01,,,,,,METAR,8.0
KTMK 221310Z AUTO 26008KT 7SM BKN015 BKN025 OVC040 03/02 A2954 RMK AO2,KTMK,2023-02-22T13:10:00Z,45.42,-123.82,3.0,2.0,260,8,,7.0,29.53937,,,TRUE,TRUE,,,,,,,BKN,1500,BKN,2500,OVC,4000,,,MVFR,,,,,,,,,,,,METAR,8.0
KTMK 221250Z AUTO 26007KT 7SM SCT017 BKN023 OVC035 04/01 A2954 RMK AO2,KTMK,2023-02-22T12:50:00Z,45.42,-123.82,4.0,1.0,260,7,,7.0,29.53937,,,TRUE,TRUE,,,,,,,SCT,1700,BKN,2300,OVC,3500,,,MVFR,,,,,,,,,,,,METAR,8.0
KTMK 221230Z AUTO 26013G18KT 10SM BKN020 BKN030 OVC050 04/01 A2954 RMK AO2,KTMK,2023-02-22T12:30:00Z,45.42,-123.82,4.0,1.0,260,13,18,10.0,29.53937,,,TRUE,TRUE,,,,,,,BKN,2000,BKN,3000,OVC,5000,,,MVFR,,,,,,,,,,,,SPECI,8.0
KTMK 221210Z AUTO 27013G20KT 10SM SCT022 BKN026 OVC047 04/01 A2954 RMK AO2,KTMK,2023-02-22T12:10:00Z,45.42,-123.82,4.0,1.0,270,13,20,10.0,29.53937,,,TRUE,TRUE,,,,,,,SCT,2200,BKN,2600,OVC,4700,,,MVFR,,,,,,,,,,,,SPECI,8.0
KTMK 221150Z AUTO 26008G15KT 10SM -DZ SCT024 BKN035 OVC044 04/01 A2954 RMK AO2,KTMK,2023-02-22T11:50:00Z,45.42,-123.82,4.0,1.0,260,8,15,10.0,29.53937,,,TRUE,TRUE,,,,,,-DZ,SCT,2400,BKN,3500,OVC,4400,,,VFR,,,,,,,,,,,,SPECI,8.0
KTMK 221130Z AUTO 27010G21KT 7SM -RA BKN024 OVC029 03/01 A2954 RMK AO2,KTMK,2023-02-22T11:30:00Z,45.42,-123.82,3.0,1.0,270,10,21,7.0,29.53937,,,TRUE,TRUE,,,,,,-RA,BKN,2400,OVC,2900,,,,,MVFR,,,,,,,,,,,,METAR,8.0
KTMK 221110Z AUTO 27009KT 7SM -DZ SCT022 BKN029 OVC036 04/01 A2955 RMK AO2,KTMK,2023-02-22T11:10:00Z,45.42,-123.82,4.0,1.0,270,9,,7.0,29.551182,,,TRUE,TRUE,,,,,,-DZ,SCT,2200,BKN,2900,OVC,3600,,,MVFR,,,,,,,,,,,,SPECI,8.0
KTMK 221050Z AUTO 28013G16KT 7SM -RA BKN024 OVC034 04/01 A2955 RMK AO2,KTMK,2023-02-22T10:50:00Z,45.42,-123.82,4.0,1.0,280,13,16,7.0,29.551182,,,TRUE,TRUE,,,,,,-RA,BKN,2400,OVC,3400,,,,,MVFR,,,,,,,,,,,,METAR,8.0
KTMK 221030Z AUTO 26009KT 7SM BKN024 BKN040 OVC050 04/01 A2955 RMK AO2,KTMK,2023-02-22T10:30:00Z,45.42,-123.82,4.0,1.0,260,9,,7.0,29.551182,,,TRUE,TRUE,,,,,,,BKN,2400,BKN,4000,OVC,5000,,,MVFR,,,,,,,,,,,,METAR,8.0
KTMK 221010Z AUTO 26010G16KT 7SM SCT025 BKN041 OVC060 04/01 A2955 RMK AO2,KTMK,2023-02-22T10:10:00Z,45.42,-123.82,4.0,1.0,260,10,16,7.0,29.551182,,,TRUE,TRUE,,,,,,,SCT,2500,BKN,4100,OVC,6000,,,VFR,,,,,,,,,,,,METAR,8.0
KTMK 220950Z AUTO 27010G16KT 7SM SCT022 BKN027 OVC041 04/01 A2956 RMK AO2 P0002,KTMK,2023-02-22T09:50:00Z,45.42,-123.82,4.0,1.0,270,10,16,7.0,29.56004,,,TRUE,TRUE,,,,,,,SCT,2200,BKN,2700,OVC,4100,,,MVFR,,,,,,0.02,,,,,,METAR,8.0
KTMK 220930Z AUTO 26008KT 5SM -DZ SCT015 BKN019 OVC034 03/01 A2957 RMK AO2 P0002,KTMK,2023-02-22T09:30:00Z,45.42,-123.82,3.0,1.0,260,8,,5.0,29.568897,,,TRUE,TRUE,,,,,,-DZ,SCT,1500,BKN,1900,OVC,3400,,,MVFR,,,,,,0.02,,,,,,METAR,8.0
KTMK 220910Z AUTO 26005KT 5SM -RA BKN018 BKN022 OVC034 03/01 A2957 RMK AO2 P0001,KTMK,2023-02-22T09:10:00Z,45.42,-123.82,3.0,1.0,260,5,,5.0,29.568897,,,TRUE,TRUE,,,,,,-RA,BKN,1800,BKN,2200,OVC,3400,,,MVFR,,,,,,0.01,,,,,,SPECI,8.0
KTMK 220850Z AUTO 28012G16KT 7SM SCT021 BKN029 OVC060 03/01 A2958 RMK AO2,KTMK,2023-02-22T08:50:00Z,45.42,-123.82,3.0,1.0,280,12,16,7.0,29.58071,,,TRUE,TRUE,,,,,,,SCT,2100,BKN,2900,OVC,6000,,,MVFR,,,,,,,,,,,,SPECI,8.0
KTMK 220830Z AUTO 27011G17KT 7SM SCT037 BKN060 OVC070 04/01 A2958 RMK AO2,KTMK,2023-02-22T08:30:00Z,45.42,-123.82,4.0,1.0,270,11,17,7.0,29.58071,,,TRUE,TRUE,,,,,,,SCT,3700,BKN,6000,OVC,7000,,,VFR,,,,,,,,,,,,SPECI,8.0
KTMK 220810Z AUTO 26013G20KT 10SM SCT044 BKN060 OVC080 04/01 A2959 RMK AO2,KTMK,2023-02-22T08:10:00Z,45.42,-123.82,4.0,1.0,260,13,20,10.0,29.589567,,,TRUE,TRUE,,,,,,,SCT,4400,BKN,6000,OVC,8000,,,VFR,,,,,,,,,,,,SPECI,8.0
KTMK 220750Z AUTO 29016G22KT 7SM SCT033 BKN046 OVC080 05/01 A2959 RMK AO2 P0002,KTMK,2023-02-22T07:50:00Z,45.42,-123.82,5.0,1.0,290,16,22,7.0,29.589567,,,TRUE,TRUE,,,,,,,SCT,3300,BKN,4600,OVC,8000,,,VFR,,,,,,0.02,,,,,,METAR,8.0
KTMK 220730Z AUTO 26008KT 7SM SCT025 BKN032 OVC037 04/01 A2958 RMK AO2 P0002,KTMK,2023-02-22T07:30:00Z,45.42,-123.82,4.0,1.0,260,8,,7.0,29.58071,,,TRUE,TRUE,,,,,,,SCT,2500,BKN,3200,OVC,3700,,,VFR,,,,,,0.02,,,,,,METAR,8.0
KTMK 220710Z AUTO 24011G18KT 7SM UP SCT015 SCT022 OVC029 03/01 A2958 RMK AO2 P0001,KTMK,2023-02-22T07:10:00Z,45.42,-123.82,3.0,1.0,240,11,18,7.0,29.58071,,,TRUE,TRUE,,,,,,UP,SCT,1500,SCT,2200,OVC,2900,,,MVFR,,,,,,0.01,,,,,,METAR,8.0
KTMK 220650Z AUTO 28006G18KT 4SM -RA BKN015 OVC021 03/01 A2959 RMK AO2 P0003,KTMK,2023-02-22T06:50:00Z,45.42,-123.82,3.0,1.0,280,6,18,4.0,29.589567,,,TRUE,TRUE,,,,,,-RA,BKN,1500,OVC,2100,,,,,MVFR,,,,,,0.03,,,,,,SPECI,8.0
KTMK 220630Z AUTO 27010G16KT 7SM BKN018 BKN032 OVC050 04/01 A2960 RMK AO2,KTMK,2023-02-22T06:30:00Z,45.42,-123.82,4.0,1.0,270,10,16,7.0,29.601377,,,TRUE,TRUE,,,,,,,BKN,1800,BKN,3200,OVC,5000,,,MVFR,,,,,,,,,,,,METAR,8.0
KTMK 220610Z AUTO 26009G14KT 10SM SCT024 BKN041 OVC048 03/01 A2960 RMK AO2,KTMK,2023-02-22T06:10:00Z,45.42,-123.82,3.0,1.0,260,9,14,10.0,29.601377,,,TRUE,TRUE,,,,,,,SCT,2400,BKN,4100,OVC,4800,,,VFR,,,,,,,,,,,,METAR,8.0
KTMK 220550Z AUTO 15007KT 10SM SCT022 BKN035 OVC060 02/01 A2960 RMK AO2,KTMK,2023-02-22T05:50:00Z,45.42,-123.82,2.0,1.0,150,7,,10.0,29.601377,,,TRUE,TRUE,,,,,,,SCT,2200,BKN,3500,OVC,6000,,,VFR,,,,,,,,,,,,METAR,8.0
KTMK 220530Z AUTO 13006KT 10SM SCT017 BKN024 OVC029 02/01 A2960 RMK AO2,KTMK,2023-02-22T05:30:00Z,45.42,-123.82,2.0,1.0,130,6,,10.0,29.601377,,,TRUE,TRUE,,,,,,,SCT,1700,BKN,2400,OVC,2900,,,MVFR,,,,,,,,,,,,SPECI,8.0
KTMK 220510Z AUTO 15004KT 7SM UP SCT017 BKN021 OVC042 02/01 A2961 RMK AO2,KTMK,2023-02-22T05:10:00Z,45.42,-123.82,2.0,1.0,150,4,,7.0,29.610237,,,TRUE,TRUE,,,,,,UP,SCT,1700,BKN,2100,OVC,4200,,,MVFR,,,,,,,,,,,,METAR,8.0
KTMK 220450Z AUTO 19005KT 10SM SCT017 BKN031 OVC048 02/01 A2961 RMK AO2 P0003,KTMK,2023-02-22T04:50:00Z,45.42,-123.82,2.0,1.0,190,5,,10.0,29.610237,,,TRUE,TRUE,,,,,,,SCT,1700,BKN,3100,OVC,4800,,,VFR,,,,,,0.03,,,,,,METAR,8.0
KTMK 220430Z AUTO 25008G14KT 7SM -RA OVC017 03/01 A2963 RMK AO2 P0002,KTMK,2023-02-22T04:30:00Z,45.42,-123.82,3.0,1.0,250,8,14,7.0,29.630905,,,TRUE,TRUE,,,,,,-RA,OVC,1700,,,,,,,MVFR,,,,,,0.02,,,,,,SPECI,8.0
KTMK 220410Z AUTO 28012KT 7SM -RA SCT014 BKN019 OVC050 03/01 A2964 RMK AO2 P0001,KTMK,2023-02-22T04:10:00Z,45.42,-123.82,3.0,1.0,280,12,,7.0,29.639763,,,TRUE,TRUE,,,,,,-RA,SCT,1400,BKN,1900,OVC,5000,,,MVFR,,,,,,0.01,,,,,,SPECI,8.0
KTMK 220350Z AUTO 28008KT 10SM SCT022 BKN034 OVC050 04/01 A2963 RMK AO2 P0003,KTMK,2023-02-22T03:50:00Z,45.42,-123.82,4.0,1.0,280,8,,10.0,29.630905,,,TRUE,TRUE,,,,,,,SCT,2200,BKN,3400,OVC,5000,,,VFR,,,,,,0.03,,,,,,METAR,8.0
KTMK 220330Z AUTO 00000KT 10SM SCT018 BKN022 OVC050 03/01 A2964 RMK AO2 P0003,KTMK,2023-02-22T03:30:00Z,45.42,-123.82,3.0,1.0,0,0,,10.0,29.639763,,,TRUE,TRUE,,,,,,,SCT,1800,BKN,2200,OVC,5000,,,MVFR,,,,,,0.03,,,,,,SPECI,8.0
KTMK 220310Z AUTO 31008G15KT 5SM -RA SCT013 BKN025 OVC038 03/01 A2965 RMK AO2 P0003,KTMK,2023-02-22T03:10:00Z,45.42,-123.82,3.0,1.0,310,8,15,5.0,29.648623,,,TRUE,TRUE,,,,,,-RA,SCT,1300,BKN,2500,OVC,3800,,,MVFR,,,,,,0.03,,,,,,SPECI,8.0
KTMK 220250Z AUTO 16006KT 10SM SCT035 BKN041 OVC065 03/02 A2964 RMK AO2 P0003,KTMK,2023-02-22T02:50:00Z,45.42,-123.82,3.0,2.0,160,6,,10.0,29.639763,,,TRUE,TRUE,,,,,,,SCT,3500,BKN,4100,OVC,6500,,,VFR,,,,,,0.03,,,,,,METAR,8.0
KTMK 220230Z AUTO 28007G17KT 10SM SCT015 SCT043 OVC065 03/01 A2965 RMK AO2 P0003,KTMK,2023-02-22T02:30:00Z,45.42,-123.82,3.0,1.0,280,7,17,10.0,29.648623,,,TRUE,TRUE,,,,,,,SCT,1500,SCT,4300,OVC,6500,,,VFR,,,,,,0.03,,,,,,METAR,8.0
KTMK 220210Z AUTO 30020G29KT 3SM -RA BKN014 OVC019 02/01 A2967 RMK AO2 P0002,KTMK,2023-02-22T02:10:00Z,45.42,-123.82,2.0,1.0,300,20,29,3.0,29.66929,,,TRUE,TRUE,,,,,,-RA,BKN,1400,OVC,1900,,,,,MVFR,,,,,,0.02,,,,,,METAR,8.0
KTMK 220150Z AUTO 28007KT 200V300 10SM BKN019 BKN032 OVC050 04/02 A2965 RMK AO2 P0004,KTMK,2023-02-22T01:50:00Z,45.42,-123.82,4.0,2.0,280,7,,10.0,29.648623,,,TRUE,TRUE,,,,,,,BKN,1900,BKN,3200,OVC,5000,,,MVFR,,,,,,0.04,,,,,,METAR,8.0
KTMK 220130Z AUTO 25005KT 2 1/2SM -RA SCT012 BKN031 OVC044 04/02 A2965 RMK AO2 VIS 1V5 P0004,KTMK,2023-02-22T01:30:00Z,45.42,-123.82,4.0,2.0,250,5,,2.5,29.648623,,,TRUE,TRUE,,,,,,-RA,SCT,1200,BKN,3100,OVC,4400,,,IFR,,,,,,0.04,,,,,,SPECI,8.0
KTMK 220110Z AUTO 18006KT 10SM SCT030 BKN038 OVC090 04/02 A2965 RMK AO2,KTMK,2023-02-22T01:10:00Z,45.42,-123.82,4.0,2.0,180,6,,10.0,29.648623,,,TRUE,TRUE,,,,,,,SCT,3000,BKN,3800,OVC,9000,,,VFR,,,,,,,,,,,,SPECI,8.0
KTMK 220050Z AUTO 20004KT 10SM SCT018 SCT031 OVC090 04/02 A2967 RMK AO2 P0002,KTMK,2023-02-22T00:50:00Z,45.42,-123.82,4.0,2.0,200,4,,10.0,29.66929,,,TRUE,TRUE,,,,,,,SCT,1800,SCT,3100,OVC,9000,,,VFR,,,,,,0.02,,,,,,METAR,8.0
KTMK 220030Z AUTO 28013G26KT 2 1/2SM -RA SCT019 BKN033 OVC055 05/02 A2968 RMK AO2 P0001,KTMK,2023-02-22T00:30:00Z,45.42,-123.82,5.0,2.0,280,13,26,2.5,29.681103,,,TRUE,TRUE,,,,,,-RA,SCT,1900,BKN,3300,OVC,5500,,,IFR,,,,,,0.01,,,,,,SPECI,8.0
KTMK 220010Z AUTO 30010KT 10SM SCT023 BKN055 OVC065 05/01 A2968 RMK AO2,KTMK,2023-02-22T00:10:00Z,45.42,-123.82,5.0,1.0,300,10,,10.0,29.681103,,,TRUE,TRUE,,,,,,,SCT,2300,BKN,5500,OVC,6500,,,VFR,,,,,,,,,,,,SPECI,8.0
KTMK 212350Z AUTO 28013G30KT 7SM -RA SCT023 BKN029 OVC048 05/02 A2968 RMK AO2,KTMK,2023-02-21T23:50:00Z,45.42,-123.82,5.0,2.0,280,13,30,7.0,29.681103,,,TRUE,TRUE,,,,,,-RA,SCT,2300,BKN,2900,OVC,4800,,,MVFR,,,,,,,,,,,,METAR,8.0
KTMK 212330Z AUTO 26007G15KT 7SM SCT020 BKN027 OVC046 07/03 A2968 RMK AO2,KTMK,2023-02-21T23:30:00Z,45.42,-123.82,7.0,3.0,260,7,15,7.0,29.681103,,,TRUE,TRUE,,,,,,,SCT,2000,BKN,2700,OVC,4600,,,MVFR,,,,,,,,,,,,METAR,8.0
KTMK 212310Z AUTO 27010G17KT 10SM SCT026 BKN040 OVC050 06/02 A2969 RMK AO2,KTMK,2023-02-21T23:10:00Z,45.42,-123.82,6.0,2.0,270,10,17,10.0,29.68996,,,TRUE,TRUE,,,,,,,SCT,2600,BKN,4000,OVC,5000,,,VFR,,,,,,,,,,,,METAR,8.0
KTMK 212250Z AUTO 30015G25KT 5SM -RA SCT024 SCT028 BKN037 06/02 A2970 RMK AO2,KTMK,2023-02-21T22:50:00Z,45.42,-123.82,6.0,2.0,300,15,25,5.0,29.698818,,,TRUE,TRUE,,,,,,-RA,SCT,2400,SCT,2800,BKN,3700,,,MVFR,,,,,,,,,,,,METAR,8.0
KTMK 212230Z AUTO 27016G24KT 10SM SCT028 BKN035 BKN043 07/02 A2970 RMK AO2,KTMK,2023-02-21T22:30:00Z,45.42,-123.82,7.0,2.0,270,16,24,10.0,29.698818,,,TRUE,TRUE,,,,,,,SCT,2800,BKN,3500,BKN,4300,,,VFR,,,,,,,,,,,,SPECI,8.0
KTMK 212210Z AUTO 27010G20KT 10SM SCT028 BKN036 BKN050 07/03 A2970 RMK AO2,KTMK,2023-02-21T22:10:00Z,45.42,-123.82,7.0,3.0,270,10,20,10.0,29.698818,,,TRUE,TRUE,,,,,,,SCT,2800,BKN,3600,BKN,5000,,,VFR,,,,,,,,,,,,SPECI,8.0
KTMK 212150Z AUTO 27014G21KT 10SM SCT033 SCT050 BKN060 06/02 A2972 RMK AO2 P0001,KTMK,2023-02-21T21:50:00Z,45.42,-123.82,6.0,2.0,270,14,21,10.0,29.719488,,,TRUE,TRUE,,,,,,,SCT,3300,SCT,5000,BKN,6000,,,VFR,,,,,,0.01,,,,,,SPECI,8.0
KTMK 212130Z AUTO 26014G21KT 10SM SCT026 BKN032 OVC055 06/03 A2973 RMK AO2 P0001,KTMK,2023-02-21T21:30:00Z,45.42,-123.82,6.0,3.0,260,14,21,10.0,29.731298,,,TRUE,TRUE,,,,,,,SCT,2600,BKN,3200,OVC,5500,,,VFR,,,,,,0.01,,,,,,SPECI,8.0
KTMK 212110Z AUTO 27010G18KT 10SM SCT020 BKN033 OVC049 07/03 A2973 RMK AO2,KTMK,2023-02-21T21:10:00Z,45.42,-123.82,7.0,3.0,270,10,18,10.0,29.731298,,,TRUE,TRUE,,,,,,,SCT,2000,BKN,3300,OVC,4900,,,VFR,,,,,,,,,,,,SPECI,8.0
KTMK 212050Z AUTO 24005KT 4SM -RA SCT021 BKN025 OVC033 05/03 A2974 RMK AO2 P0002,KTMK,2023-02-21T20:50:00Z,45.42,-123.82,5.0,3.0,240,5,,4.0,29.740158,,,TRUE,TRUE,,,,,,-RA,SCT,2100,BKN,2500,OVC,3300,,,MVFR,,,,,,0.02,,,,,,METAR,8.0
KTMK 212030Z AUTO 00000KT 10SM -RA SCT019 BKN032 OVC075 05/02 A2976 RMK AO2,KTMK,2023-02-21T20:30:00Z,45.42,-123.82,5.0,2.0,0,0,,10.0,29.760826,,,TRUE,TRUE,,,,,,-RA,SCT,1900,BKN,3200,OVC,7500,,,VFR,,,,,,,,,,,,METAR,8.0
KTMK 212010Z AUTO 29003KT 10SM SCT014 BKN060 OVC120 05/02 A2977 RMK AO2,KTMK,2023-02-21T20:10:00Z,45.42,-123.82,5.0,2.0,290,3,,10.0,29.769686,,,TRUE,TRUE,,,,,,,SCT,1400,BKN,6000,OVC,12000,,,VFR,,,,,,,,,,,,SPECI,8.0
KTMK 211950Z AUTO 32015G28KT 5SM -RA SCT010 BKN015 OVC030 03/01 A2978 RMK AO2 P0007,KTMK,2023-02-21T19:50:00Z,45.42,-123.82,3.0,1.0,320,15,28,5.0,29.778543,,,TRUE,TRUE,,,,,,-RA,SCT,1000,BKN,1500,OVC,3000,,,MVFR,,,,,,0.07,,,,,,SPECI,8.0
KTMK 211930Z AUTO 30019G27KT 5SM RA SCT012 BKN020 OVC042 04/02 A2979 RMK AO2 P0003,KTMK,2023-02-21T19:30:00Z,45.42,-123.82,4.0,2.0,300,19,27,5.0,29.790354,,,TRUE,TRUE,,,,,,RA,SCT,1200,BKN,2000,OVC,4200,,,MVFR,,,,,,0.03,,,,,,METAR,8.0
KTMK 211910Z AUTO 23007KT 7SM SCT029 BKN040 BKN050 05/03 A2977 RMK AO2 P0001,KTMK,2023-02-21T19:10:00Z,45.42,-123.82,5.0,3.0,230,7,,7.0,29.769686,,,TRUE,TRUE,,,,,,,SCT,2900,BKN,4000,BKN,5000,,,VFR,,,,,,0.01,,,,,,SPECI,8.0
KTMK 211850Z AUTO 27014G24KT 5SM -RA SCT018 BKN046 OVC060 06/02 A2979 RMK AO2 P0003,KTMK,2023-02-21T18:50:00Z,45.42,-123.82,6.0,2.0,270,14,24,5.0,29.790354,,,TRUE,TRUE,,,,,,-RA,SCT,1800,BKN,4600,OVC,6000,,,MVFR,,,,,,0.03,,,,,,METAR,8.0
KTMK 211830Z AUTO 23004KT 10SM SCT018 BKN046 OVC055 06/03 A2979 RMK AO2 P0002,KTMK,2023-02-21T18:30:00Z,45.42,-123.82,6.0,3.0,230,4,,10.0,29.790354,,,TRUE,TRUE,,,,,,,SCT,1800,BKN,4600,OVC,5500,,,VFR,,,,,,0.02,,,,,,SPECI,8.0
KTMK 211810Z AUTO 30006G10KT 5SM BR BKN018 BKN022 OVC055 04/02 A2981 RMK AO2 P0002,KTMK,2023-02-21T18:10:00Z,45.42,-123.82,4.0,2.0,300,6,10,5.0,29.811024,,,TRUE,TRUE,,,,,,BR,BKN,1800,BKN,2200,OVC,5500,,,MVFR,,,,,,0.02,,,,,,METAR,8.0
KTMK 211750Z AUTO 31014G19KT 10SM SCT016 BKN028 OVC055 05/02 A2982 RMK AO2 P0003,KTMK,2023-02-21T17:50:00Z,45.42,-123.82,5.0,2.0,310,14,19,10.0,29.819881,,,TRUE,TRUE,,,,,,,SCT,1600,BKN,2800,OVC,5500,,,MVFR,,,,,,0.03,,,,,,METAR,8.0
KTMK 211730Z AUTO 22003KT 4SM -RA SCT012 BKN035 OVC055 04/02 A2981 RMK AO2 P0003,KTMK,2023-02-21T17:30:00Z,45.42,-123.82,4.0,2.0,220,3,,4.0,29.811024,,,TRUE,TRUE,,,,,,-RA,SCT,1200,BKN,3500,OVC,5500,,,MVFR,,,,,,0.03,,,,,,METAR,8.0
KTMK 211710Z AUTO 22004KT 10SM SCT035 BKN050 BKN070 05/02 A2981 RMK AO2,KTMK,2023-02-21T17:10:00Z,45.42,-123.82,5.0,2.0,220,4,,10.0,29.811024,,,TRUE,TRUE,,,,,,,SCT,3500,BKN,5000,BKN,7000,,,VFR,,,,,,,,,,,,METAR,8.0
KTMK 211650Z AUTO 25005KT 10SM SCT021 BKN060 OVC095 05/02 A2983 RMK AO2 P0004,KTMK,2023-02-21T16:50:00Z,45.42,-123.82,5.0,2.0,250,5,,10.0,29.828741,,,TRUE,TRUE,,,,,,,SCT,2100,BKN,6000,OVC,9500,,,VFR,,,,,,0.04,,,,,,SPECI,8.0
KTMK 211630Z AUTO 26006G14KT 5SM -RA SCT013 BKN023 OVC045 04/02 A2983 RMK AO2 P0003,KTMK,2023-02-21T16:30:00Z,45.42,-123.82,4.0,2.0,260,6,14,5.0,29.828741,,,TRUE,TRUE,,,,,,-RA,SCT,1300,BKN,2300,OVC,4500,,,MVFR,,,,,,0.03,,,,,,METAR,8.0
KTMK 211610Z AUTO 16005KT 10SM SCT018 BKN028 OVC045 03/02 A2983 RMK AO2,KTMK,2023-02-21T16:10:00Z,45.42,-123.82,3.0,2.0,160,5,,10.0,29.828741,,,TRUE,TRUE,,,,,,,SCT,1800,BKN,2800,OVC,4500,,,MVFR,,,,,,,,,,,,METAR,8.0
KTMK 211550Z AUTO 27009KT 5SM RA BKN020 OVC026 03/02 A2986 RMK AO2 P0003,KTMK,2023-02-21T15:50:00Z,45.42,-123.82,3.0,2.0,270,9,,5.0,29.861221,,,TRUE,TRUE,,,,,,RA,BKN,2000,OVC,2600,,,,,MVFR,,,,,,0.03,,,,,,METAR,8.0
KTMK 211530Z AUTO 27010G16KT 10SM SCT024 BKN029 OVC065 06/02 A2985 RMK AO2 P0001,KTMK,2023-02-21T15:30:00Z,45.42,-123.82,6.0,2.0,270,10,16,10.0,29.84941,,,TRUE,TRUE,,,,,,,SCT,2400,BKN,2900,OVC,6500,,,MVFR,,,,,,0.01,,,,,,SPECI,8.0
KTMK 211510Z AUTO 27014G17KT 7SM SCT029 BKN040 OVC085 05/02 A2986 RMK AO2,KTMK,2023-02-21T15:10:00Z,45.42,-123.82,5.0,2.0,270,14,17,7.0,29.861221,,,TRUE,TRUE,,,,,,,SCT,2900,BKN,4000,OVC,8500,,,VFR,,,,,,,,,,,,SPECI,8.0
KTMK 211450Z AUTO 29010G15KT 10SM SCT034 BKN060 OVC080 06/01 A2987 RMK AO2,KTMK,2023-02-21T14:50:00Z,45.42,-123.82,6.0,1.0,290,10,15,10.0,29.870079,,,TRUE,TRUE,,,,,,,SCT,3400,BKN,6000,OVC,8000,,,VFR,,,,,,,,,,,,METAR,8.0
KTMK 211430Z AUTO 25013G19KT 10SM SCT034 SCT041 BKN047 05/01 A2987 RMK AO2,KTMK,2023-02-21T14:30:00Z,45.42,-123.82,5.0,1.0,250,13,19,10.0,29.870079,,,TRUE,TRUE,,,,,,,SCT,3400,SCT,4100,BKN,4700,,,VFR,,,,,,,,,,,,SPECI,8.0
KTMK 211410Z AUTO 23007KT 10SM SCT043 SCT065 BKN075 05/00 A2989 RMK AO2,KTMK,2023-02-21T14:10:00Z,45.42,-123.82,5.0,0.0,230,7,,10.0,29.890747,,,TRUE,TRUE,,,,,,,SCT,4300,SCT,6500,BKN,7500,,,VFR,,,,,,,,,,,,SPECI,8.0
KTMK 211350Z AUTO 24013G18KT 10SM BKN070 06/01 A2991 RMK AO2,KTMK,2023-02-21T13:50:00Z,45.42,-123.82,6.0,1.0,240,13,18,10.0,29.911417,,,TRUE,TRUE,,,,,,,BKN,7000,,,,,,,VFR,,,,,,,,,,,,METAR,8.0
KTMK 211330Z AUTO 26007KT 10SM SCT034 SCT049 BKN070 05/02 A2992 RMK AO2,KTMK,2023-02-21T13:30:00Z,45.42,-123.82,5.0,2.0,260,7,,10.0,29.920275,,,TRUE,TRUE,,,,,,,SCT,3400,SCT,4900,BKN,7000,,,VFR,,,,,,,,,,,,SPECI,8.0
KTMK 211310Z AUTO 24008KT 10SM BKN034 BKN043 OVC055 06/02 A2993 RMK AO2,KTMK,2023-02-21T13:10:00Z,45.42,-123.82,6.0,2.0,240,8,,10.0,29.929134,,,TRUE,TRUE,,,,,,,BKN,3400,BKN,4300,OVC,5500,,,VFR,,,,,,,,,,,,SPECI,8.0
KTMK 211250Z AUTO 27007G16KT 10SM SCT022 BKN029 OVC044 06/03 A2993 RMK AO2,KTMK,2023-02-21T12:50:00Z,45.42,-123.82,6.0,3.0,270,7,16,10.0,29.929134,,,TRUE,TRUE,,,,,,,SCT,2200,BKN,2900,OVC,4400,,,MVFR,,,,,,,,,,,,SPECI,8.0
KTMK 211230Z AUTO 28009G14KT 7SM -RA SCT022 BKN026 OVC046 06/03 A2994 RMK AO2,KTMK,2023-02-21T12:30:00Z,45.42,-123.82,6.0,3.0,280,9,14,7.0,29.940945,,,TRUE,TRUE,,,,,,-RA,SCT,2200,BKN,2600,OVC,4600,,,MVFR,,,,,,,,,,,,SPECI,8.0
KTMK 211210Z AUTO 25005G14KT 10SM -RA SCT020 BKN031 OVC070 05/03 A2995 RMK AO2,KTMK,2023-02-21T12:10:00Z,45.42,-123.82,5.0,3.0,250,5,14,10.0,29.949802,,,TRUE,TRUE,,,,,,-RA,SCT,2000,BKN,3100,OVC,7000,,,VFR,,,,,,,,,,,,SPECI,8.0
KTMK 211150Z AUTO 24009KT 10SM SCT033 SCT040 OVC060 06/03 A2996 RMK AO2 P0001,KTMK,2023-02-21T11:50:00Z,45.42,-123.82,6.0,3.0,240,9,,10.0,29.958662,,,TRUE,TRUE,,,,,,,SCT,3300,SCT,4000,OVC,6000,,,VFR,,,,,,0.01,,,,,,METAR,8.0
KTMK 211130Z AUTO 24008KT 10SM SCT027 BKN060 OVC080 05/03 A2996 RMK AO2 P0001,KTMK,2023-02-21T11:30:00Z,45.42,-123.82,5.0,3.0,240,8,,10.0,29.958662,,,TRUE,TRUE,,,,,,,SCT,2700,BKN,6000,OVC,8000,,,VFR,,,,,,0.01,,,,,,SPECI,8.0
KTMK 211110Z AUTO 20004KT 10SM SCT028 BKN070 OVC120 05/03 A2997 RMK AO2,KTMK,2023-02-21T11:10:00Z,45.42,-123.82,5.0,3.0,200,4,,10.0,29.970472,,,TRUE,TRUE,,,,,,,SCT,2800,BKN,7000,OVC,12000,,,VFR,,,,,,,,,,,,METAR,8.0
KTMK 211050Z AUTO 25008G17KT 5SM -RA SCT026 BKN036 OVC065 06/03 A2999 RMK AO2 P0001,KTMK,2023-02-21T10:50:00Z,45.42,-123.82,6.0,3.0,250,8,17,5.0,29.991142,,,TRUE,TRUE,,,,,,-RA,SCT,2600,BKN,3600,OVC,6500,,,MVFR,,,,,,0.01,,,,,,SPECI,8.0
KTMK 211030Z AUTO 20005KT 10SM SCT026 BKN045 OVC065 05/03 A2999 RMK AO2,KTMK,2023-02-21T10:30:00Z,45.42,-123.82,5.0,3.0,200,5,,10.0,29.991142,,,TRUE,TRUE,,,,,,,SCT,2600,BKN,4500,OVC,6500,,,VFR,,,,,,,,,,,,METAR,8.0
KTMK 211010Z AUTO 24006KT 10SM BKN027 BKN036 OVC048 06/03 A3001 RMK AO2,KTMK,2023-02-21T10:10:00Z,45.42,-123.82,6.0,3.0,240,6,,10.0,30.008858,,,TRUE,TRUE,,,,,,,BKN,2700,BKN,3600,OVC,4800,,,MVFR,,,,,,,,,,,,SPECI,8.0
KTMK 210950Z AUTO 25012G22KT 5SM -RA BKN030 BKN036 OVC060 06/04 A3001 RMK AO2 P0001,KTMK,2023-02-21T09:50:00Z,45.42,-123.82,6.0,4.0,250,12,22,5.0,30.008858,,,TRUE,TRUE,,,,,,-RA,BKN,3000,BKN,3600,OVC,6000,,,MVFR,,,,,,0.01,,,,,,SPECI,8.0
KTMK 210930Z AUTO 21004KT 10SM SCT024 BKN037 OVC070 06/04 A3001 RMK AO2 P0001,KTMK,2023-02-21T09:30:00Z,45.42,-123.82,6.0,4.0,210,4,,10.0,30.008858,,,TRUE,TRUE,,,,,,,SCT,2400,BKN,3700,OVC,7000,,,VFR,,,,,,0.01,,,,,,METAR,8.0
KTMK 210910Z AUTO 29014KT 7SM SCT026 BKN038 OVC055 06/04 A3002 RMK AO2,KTMK,2023-02-21T09:10:00Z,45.42,-123.82,6.0,4.0,290,14,,7.0,30.02067,,,TRUE,TRUE,,,,,,,SCT,2600,BKN,3800,OVC,5500,,,VFR,,,,,,,,,,,,SPECI,8.0
KTMK 210850Z AUTO 28009G16KT 7SM -RA SCT030 BKN038 OVC046 06/03 A3001 RMK AO2 P0001,KTMK,2023-02-21T08:50:00Z,45.42,-123.82,6.0,3.0,280,9,16,7.0,30.008858,,,TRUE,TRUE,,,,,,-RA,SCT,3000,BKN,3800,OVC,4600,,,VFR,,,,,,0.01,,,,,,SPECI,8.0
KTMK 210830Z AUTO 27010G15KT 7SM -RA SCT015 BKN025 OVC040 06/05 A3002 RMK AO2 P0001,KTMK,2023-02-21T08:30:00Z,45.42,-123.82,6.0,5.0,270,10,15,7.0,30.02067,,,TRUE,TRUE,,,,,,-RA,SCT,1500,BKN,2500,OVC,4000,,,MVFR,,,,,,0.01,,,,,,SPECI,8.0
KTMK 210810Z AUTO 27010KT 7SM -DZ BKN017 OVC024 07/05 A3002 RMK AO2,KTMK,2023-02-21T08:10:00Z,45.42,-123.82,7.0,5.0,270,10,,7.0,30.02067,,,TRUE,TRUE,,,,,,-DZ,BKN,1700,OVC,2400,,,,,MVFR,,,,,,,,,,,,SPECI,8.0
KTMK 210750Z AUTO 26006KT 7SM BKN022 OVC030 07/05 A3002 RMK AO2,KTMK,2023-02-21T07:50:00Z,45.42,-123.82,7.0,5.0,260,6,,7.0,30.02067,,,TRUE,TRUE,,,,,,,BKN,2200,OVC,3000,,,,,MVFR,,,,,,,,,,,,METAR,8.0
KTMK 210730Z AUTO 30008G18KT 7SM SCT011 BKN015 OVC031 07/06 A3003 RMK AO2,KTMK,2023-02-21T07:30:00Z,45.42,-123.82,7.0,6.0,300,8,18,7.0,30.029528,,,TRUE,TRUE,,,,,,,SCT,1100,BKN,1500,OVC,3100,,,MVFR,,,,,,,,,,,,SPECI,8.0
KTMK 210710Z AUTO 29008KT 10SM BKN016 OVC022 08/06 A3003 RMK AO2,KTMK,2023-02-21T07:10:00Z,45.42,-123.82,8.0,6.0,290,8,,10.0,30.029528,,,TRUE,TRUE,,,,,,,BKN,1600,OVC,2200,,,,,MVFR,,,,,,,,,,,,METAR,8.0
KTMK 210650Z AUTO 27011G15KT 7SM SCT009 OVC014 08/07 A3002 RMK AO2 P0002,KTMK,2023-02-21T06:50:00Z,45.42,-123.82,8.0,7.0,270,11,15,7.0,30.02067,,,TRUE,TRUE,,,,,,,SCT,900,OVC,1400,,,,,MVFR,,,,,,0.02,,,,,,SPECI,8.0
KTMK 210630Z AUTO 26009G14KT 2 1/2SM -RA SCT008 BKN011 OVC017 08/07 A3003 RMK AO2 P0002,KTMK,2023-02-21T06:30:00Z,45.42,-123.82,8.0,7.0,260,9,14,2.5,30.029528,,,TRUE,TRUE,,,,,,-RA,SCT,800,BKN,1100,OVC,1700,,,IFR,,,,,,0.02,,,,,,SPECI,8.0
KTMK 210610Z AUTO 25011G23KT 3SM -RA BKN008 OVC017 09/08 A3003 RMK AO2 P0001,KTMK,2023-02-21T06:10:00Z,45.42,-123.82,9.0,8.0,250,11,23,3.0,30.029528,,,TRUE,TRUE,,,,,,-RA,BKN,800,OVC,1700,,,,,IFR,,,,,,0.01,,,,,,SPECI,8.0
KTMK 210550Z AUTO 23014G17KT 5SM -RA OVC010 09/08 A3003 RMK AO2,KTMK,2023-02-21T05:50:00Z,45.42,-123.82,9.0,8.0,230,14,17,5.0,30.029528,,,TRUE,TRUE,,,,,,-RA,OVC,1000,,,,,,,MVFR,,,,,,,,,,,,SPECI,8.0
KTMK 210530Z AUTO 22010KT 5SM -DZ BKN013 OVC018 08/08 A3004 RMK AO2,KTMK,2023-02-21T05:30:00Z,45.42,-123.82,8.0,8.0,220,10,,5.0,30.041338,,,TRUE,TRUE,,,,,,-DZ,BKN,1300,OVC,1800,,,,,MVFR,,,,,,,,,,,,SPECI,8.0
KTMK 210510Z AUTO 20007KT 4SM BR SCT008 BKN013 OVC019 08/08 A3005 RMK AO2,KTMK,2023-02-21T05:10:00Z,45.42,-123.82,8.0,8.0,200,7,,4.0,30.050198,,,TRUE,TRUE,,,,,,BR,SCT,800,BKN,1300,OVC,1900,,,MVFR,,,,,,,,,,,,SPECI,8.0
KTMK 210450Z AUTO 20009KT 3SM -RA SCT008 BKN013 OVC020 08/08 A3007 RMK AO2 P0001,KTMK,2023-02-21T04:50:00Z,45.42,-123.82,8.0,8.0,200,9,,3.0,30.070866,,,TRUE,TRUE,,,,,,-RA,SCT,800,BKN,1300,OVC,2000,,,MVFR,,,,,,0.01,,,,,,METAR,8.0
KTMK 210430Z AUTO 20008KT 4SM BR BKN010 BKN014 OVC020 08/07 A3007 RMK AO2 P0001,KTMK,2023-02-21T04:30:00Z,45.42,-123.82,8.0,7.0,200,8,,4.0,30.070866,,,TRUE,TRUE,,,,,,BR,BKN,1000,BKN,1400,OVC,2000,,,MVFR,,,,,,0.01,,,,,,SPECI,8.0
KTMK 210410Z AUTO 20005KT 4SM DZ OVC008 08/07 A3008 RMK AO2,KTMK,2023-02-21T04:10:00Z,45.42,-123.82,8.0,7.0,200,5,,4.0,30.079725,,,TRUE,TRUE,,,,,,DZ,OVC,800,,,,,,,IFR,,,,,,,,,,,,METAR,8.0
KTMK 210350Z AUTO 19004KT 4SM DZ OVC010 08/07 A3009 RMK AO2 P0003,KTMK,2023-02-21T03:50:00Z,45.42,-123.82,8.0,7.0,190,4,,4.0,30.088583,,,TRUE,TRUE,,,,,,DZ,OVC,1000,,,,,,,MVFR,,,,,,0.03,,,,,,SPECI,8.0
KTMK 210330Z AUTO 00000KT 3SM DZ BKN010 OVC014 08/07 A3011 RMK AO2 P0002,KTMK,2023-02-21T03:30:00Z,45.42,-123.82,8.0,7.0,0,0,,3.0,30.109253,,,TRUE,TRUE,,,,,,DZ,BKN,1000,OVC,1400,,,,,MVFR,,,,,,0.02,,,,,,SPECI,8.0
KTMK 210310Z AUTO 00000KT 5SM BR OVC010 08/07 A3012 RMK AO2,KTMK,2023-02-21T03:10:00Z,45.42,-123.82,8.0,7.0,0,0,,5.0,30.121063,,,TRUE,TRUE,,,,,,BR,OVC,1000,,,,,,,MVFR,,,,,,,,,,,,SPECI,8.0
KTMK 210250Z AUTO 00000KT 3SM DZ BKN006 OVC010 08/07 A3013 RMK AO2 P0003,KTMK,2023-02-21T02:50:00Z,45.42,-123.82,8.0,7.0,0,0,,3.0,30.129921,,,TRUE,TRUE,,,,,,DZ,BKN,600,OVC,1000,,,,,IFR,,,,,,0.03,,,,,,SPECI,8.0
KTMK 210230Z AUTO 23005KT 5SM -RA OVC010 08/07 A3014 RMK AO2 P0001,KTMK,2023-02-21T02:30:00Z,45.42,-123.82,8.0,7.0,230,5,,5.0,30.138779,,,TRUE,TRUE,,,,,,-RA,OVC,1000,,,,,,,MVFR,,,,,,0.01,,,,,,SPECI,8.0
KTMK 210210Z AUTO 22006KT 5SM BR OVC008 08/07 A3013 RMK AO2,KTMK,2023-02-21T02:10:00Z,45.42,-123.82,8.0,7.0,220,6,,5.0,30.129921,,,TRUE,TRUE,,,,,,BR,OVC,800,,,,,,,IFR,,,,,,,,,,,,METAR,8.0
KTMK 210150Z AUTO 18005KT 3SM DZ OVC006 08/07 A3012 RMK AO2 P0002,KTMK,2023-02-21T01:50:00Z,45.42,-123.82,8.0,7.0,180,5,,3.0,30.121063,,,TRUE,TRUE,,,,,,DZ,OVC,600,,,,,,,IFR,,,,,,0.02,,,,,,METAR,8.0
KTMK 210130Z AUTO 20006KT 4SM DZ OVC008 08/07 A3015 RMK AO2,KTMK,2023-02-21T01:30:00Z,45.42,-123.82,8.0,7.0,200,6,,4.0,30.15059,,,TRUE,TRUE,,,,,,DZ,OVC,800,,,,,,,IFR,,,,,,,,,,,,METAR,8.0
KTMK 210110Z AUTO 23004KT 3SM BR OVC008 08/07 A3017 RMK AO2,KTMK,2023-02-21T01:10:00Z,45.42,-123.82,8.0,7.0,230,4,,3.0,30.171259,,,TRUE,TRUE,,,,,,BR,OVC,800,,,,,,,IFR,,,,,,,,,,,,SPECI,8.0
KTMK 210050Z AUTO 22005KT 2SM BR OVC008 08/07 A3017 RMK AO2,KTMK,2023-02-21T00:50:00Z,45.42,-123.82,8.0,7.0,220,5,,2.0,30.171259,,,TRUE,TRUE,,,,,,BR,OVC,800,,,,,,,IFR,,,,,,,,,,,,SPECI,8.0
KTMK 210030Z AUTO 23005KT 4SM BR OVC010 08/07 A3018 RMK AO2,KTMK,2023-02-21T00:30:00Z,45.42,-123.82,8.0,7.0,230,5,,4.0,30.180119,,,TRUE,TRUE,,,,,,BR,OVC,1000,,,,,,,MVFR,,,,,,,,,,,,SPECI,8.0
KTMK 210010Z AUTO 21008KT 3SM BR OVC010 08/07 A3018 RMK AO2,KTMK,2023-02-21T00:10:00Z,45.42,-123.82,8.0,7.0,210,8,,3.0,30.180119,,,TRUE,TRUE,,,,,,BR,OVC,1000,,,,,,,MVFR,,,,,,,,,,,,SPECI,8.0
KTMK 202350Z AUTO 19006KT 2 1/2SM BR OVC012 08/07 A3020 RMK AO2,KTMK,2023-02-20T23:50:00Z,45.42,-123.82,8.0,7.0,190,6,,2.5,30.200787,,,TRUE,TRUE,,,,,,BR,OVC,1200,,,,,,,IFR,,,,,,,,,,,,METAR,8.0
KTMK 202330Z AUTO 21005KT 3SM BR SCT010 BKN013 OVC026 08/07 A3022 RMK AO2,KTMK,2023-02-20T23:30:00Z,45.42,-123.82,8.0,7.0,210,5,,3.0,30.221457,,,TRUE,TRUE,,,,,,BR,SCT,1000,BKN,1300,OVC,2600,,,MVFR,,,,,,,,,,,,METAR,8.0
KTMK 202310Z AUTO 19007KT 3SM BR BKN014 BKN023 OVC030 08/07 A3023 RMK AO2,KTMK,2023-02-20T23:10:00Z,45.42,-123.82,8.0,7.0,190,7,,3.0,30.230314,,,TRUE,TRUE,,,,,,BR,BKN,1400,BKN,2300,OVC,3000,,,MVFR,,,,,,,,,,,,SPECI,8.0
KTMK 202250Z AUTO 19006KT 2SM BR SCT009 OVC016 08/07 A3024 RMK AO2,KTMK,2023-02-20T22:50:00Z,45.42,-123.82,8.0,7.0,190,6,,2.0,30.239174,,,TRUE,TRUE,,,,,,BR,SCT,900,OVC,1600,,,,,IFR,,,,,,,,,,,,METAR,8.0
KTMK 202230Z AUTO 20008KT 3SM BR SCT009 OVC016 08/07 A3025 RMK AO2,KTMK,2023-02-20T22:30:00Z,45.42,-123.82,8.0,7.0,200,8,,3.0,30.250984,,,TRUE,TRUE,,,,,,BR,SCT,900,OVC,1600,,,,,MVFR,,,,,,,,,,,,METAR,8.0
KTMK 202210Z AUTO 19010KT 4SM BR SCT011 BKN016 OVC023 08/07 A3025 RMK AO2,KTMK,2023-02-20T22:10:00Z,45.42,-123.82,8.0,7.0,190,10,,4.0,30.250984,,,TRUE,TRUE,,,,,,BR,SCT,1100,BKN,1600,OVC,2300,,,MVFR,,,,,,,,,,,,METAR,8.0
KTMK 202130Z AUTO 20010KT 10SM OVC021 09/06 A3028 RMK AO2,KTMK,2023-02-20T21:30:00Z,45.42,-123.82,9.0,6.0,200,10,,10.0,30.280512,,,TRUE,TRUE,,,,,,,OVC,2100,,,,,,,MVFR,,,,,,,,,,,,METAR,8.0
KTMK 202110Z AUTO 21009KT 10SM SCT016 OVC024 09/06 A3029 RMK AO2,KTMK,2023-02-20T21:10:00Z,45.42,-123.82,9.0,6.0,210,9,,10.0,30.28937,,,TRUE,TRUE,,,,,,,SCT,1600,OVC,2400,,,,,MVFR,,,,,,,,,,,,METAR,8.0
KTMK 202050Z AUTO 20005KT 10SM SCT019 OVC024 09/06 A3029 RMK AO2,KTMK,2023-02-20T20:50:00Z,45.42,-123.82,9.0,6.0,200,5,,10.0,30.28937,,,TRUE,TRUE,,,,,,,SCT,1900,OVC,2400,,,,,MVFR,,,,,,,,,,,,METAR,8.0
KTMK 202030Z AUTO 21008KT 10SM OVC023 09/06 A3029 RMK AO2,KTMK,2023-02-20T20:30:00Z,45.42,-123.82,9.0,6.0,210,8,,10.0,30.28937,,,TRUE,TRUE,,,,,,,OVC,2300,,,,,,,MVFR,,,,,,,,,,,,METAR,8.0
KTMK 202010Z AUTO 22007KT 10SM SCT014 OVC023 09/07 A3031 RMK AO2,KTMK,2023-02-20T20:10:00Z,45.42,-123.82,9.0,7.0,220,7,,10.0,30.31004,,,TRUE,TRUE,,,,,,,SCT,1400,OVC,2300,,,,,MVFR,,,,,,,,,,,,METAR,8.0
KTMK 201950Z AUTO 19007KT 10SM BKN016 OVC023 09/07 A3031 RMK AO2,KTMK,2023-02-20T19:50:00Z,45.42,-123.82,9.0,7.0,190,7,,10.0,30.31004,,,TRUE,TRUE,,,,,,,BKN,1600,OVC,2300,,,,,MVFR,,,,,,,,,,,,METAR,8.0
KTMK 201930Z AUTO 21006KT 10SM BKN014 OVC019 09/07 A3033 RMK AO2,KTMK,2023-02-20T19:30:00Z,45.42,-123.82,9.0,7.0,210,6,,10.0,30.33071,,,TRUE,TRUE,,,,,,,BKN,1400,OVC,1900,,,,,MVFR,,,,,,,,,,,,METAR,8.0
KTMK 201910Z AUTO 00000KT 10SM SCT013 OVC019 09/07 A3034 RMK AO2,KTMK,2023-02-20T19:10:00Z,45.42,-123.82,9.0,7.0,0,0,,10.0,30.339567,,,TRUE,TRUE,,,,,,,SCT,1300,OVC,1900,,,,,MVFR,,,,,,,,,,,,METAR,8.0
KTMK 201850Z AUTO 00000KT 10SM BKN014 OVC019 08/07 A3034 RMK AO2,KTMK,2023-02-20T18:50:00Z,45.42,-123.82,8.0,7.0,0,0,,10.0,30.339567,,,TRUE,TRUE,,,,,,,BKN,1400,OVC,1900,,,,,MVFR,,,,,,,,,,,,METAR,8.0
KTMK 201830Z AUTO 00000KT 10SM OVC017 08/07 A3036 RMK AO2,KTMK,2023-02-20T18:30:00Z,45.42,-123.82,8.0,7.0,0,0,,10.0,30.360237,,,TRUE,TRUE,,,,,,,OVC,1700,,,,,,,MVFR,,,,,,,,,,,,METAR,8.0
KTMK 201810Z AUTO 00000KT 7SM SCT009 OVC015 08/07 A3034 RMK AO2,KTMK,2023-02-20T18:10:00Z,45.42,-123.82,8.0,7.0,0,0,,7.0,30.339567,,,TRUE,TRUE,,,,,,,SCT,900,OVC,1500,,,,,MVFR,,,,,,,,,,,,METAR,8.0
KTMK 201750Z AUTO 24004KT 7SM BKN009 OVC015 08/07 A3036 RMK AO2,KTMK,2023-02-20T17:50:00Z,45.42,-123.82,8.0,7.0,240,4,,7.0,30.360237,,,TRUE,TRUE,,,,,,,BKN,900,OVC,1500,,,,,IFR,,,,,,,,,,,,METAR,8.0
KTMK 201730Z AUTO 22006KT 10SM BKN009 OVC015 08/07 A3036 RMK AO2,KTMK,2023-02-20T17:30:00Z,45.42,-123.82,8.0,7.0,220,6,,10.0,30.360237,,,TRUE,TRUE,,,,,,,BKN,900,OVC,1500,,,,,IFR,,,,,,,,,,,,SPECI,8.0
KTMK 201710Z AUTO 26004KT 7SM BKN009 OVC017 08/07 A3038 RMK AO2,KTMK,2023-02-20T17:10:00Z,45.42,-123.82,8.0,7.0,260,4,,7.0,30.380905,,,TRUE,TRUE,,,,,,,BKN,900,OVC,1700,,,,,IFR,,,,,,,,,,,,METAR,8.0
KTMK 201650Z AUTO 00000KT 5SM BR BKN009 OVC016 08/07 A3037 RMK AO2,KTMK,2023-02-20T16:50:00Z,45.42,-123.82,8.0,7.0,0,0,,5.0,30.369095,,,TRUE,TRUE,,,,,,BR,BKN,900,OVC,1600,,,,,IFR,,,,,,,,,,,,METAR,8.0
KTMK 201630Z AUTO 18005KT 7SM BKN014 BKN021 OVC027 08/07 A3034 RMK AO2,KTMK,2023-02-20T16:30:00Z,45.42,-123.82,8.0,7.0,180,5,,7.0,30.339567,,,TRUE,TRUE,,,,,,,BKN,1400,BKN,2100,OVC,2700,,,MVFR,,,,,,,,,,,,METAR,8.0
KTMK 201610Z AUTO 00000KT 7SM SCT004 BKN012 OVC020 07/07 A3035 RMK AO2,KTMK,2023-02-20T16:10:00Z,45.42,-123.82,7.0,7.0,0,0,,7.0,30.351377,,,TRUE,TRUE,,,,,,,SCT,400,BKN,1200,OVC,2000,,,MVFR,,,,,,,,,,,,SPECI,8.0
KTMK 201550Z AUTO 00000KT 1 1/2SM -RA BKN004 OVC007 07/07 A3035 RMK AO2 P0001,KTMK,2023-02-20T15:50:00Z,45.42,-123.82,7.0,7.0,0,0,,1.5,30.351377,,,TRUE,TRUE,,,,,,-RA,BKN,400,OVC,700,,,,,LIFR,,,,,,0.01,,,,,,METAR,8.0
KTMK 201530Z AUTO 00000KT 2 1/2SM BR OVC007 07/07 A3035 RMK AO2 P0001,KTMK,2023-02-20T15:30:00Z,45.42,-123.82,7.0,7.0,0,0,,2.5,30.351377,,,TRUE,TRUE,,,,,,BR,OVC,700,,,,,,,IFR,,,,,,0.01,,,,,,SPECI,8.0
KTMK 201510Z AUTO 00000KT 1 3/4SM -RA OVC005 07/07 A3035 RMK AO2 P0001,KTMK,2023-02-20T15:10:00Z,45.42,-123.82,7.0,7.0,0,0,,1.75,30.351377,,,TRUE,TRUE,,,,,,-RA,OVC,500,,,,,,,IFR,,,,,,0.01,,,,,,SPECI,8.0
KTMK 201450Z AUTO 00000KT 2SM DZ OVC007 07/07 A3034 RMK AO2 P0002,KTMK,2023-02-20T14:50:00Z,45.42,-123.82,7.0,7.0,0,0,,2.0,30.339567,,,TRUE,TRUE,,,,,,DZ,OVC,700,,,,,,,IFR,,,,,,0.02,,,,,,SPECI,8.0
KTMK 201430Z AUTO 00000KT 2SM DZ BKN008 OVC011 07/07 A3036 RMK AO2 P0001,KTMK,2023-02-20T14:30:00Z,45.42,-123.82,7.0,7.0,0,0,,2.0,30.360237,,,TRUE,TRUE,,,,,,DZ,BKN,800,OVC,1100,,,,,IFR,,,,,,0.01,,,,,,SPECI,8.0
KTMK 201410Z AUTO 00000KT 3SM BR SCT008 OVC017 07/07 A3035 RMK AO2,KTMK,2023-02-20T14:10:00Z,45.42,-123.82,7.0,7.0,0,0,,3.0,30.351377,,,TRUE,TRUE,,,,,,BR,SCT,800,OVC,1700,,,,,MVFR,,,,,,,,,,,,SPECI,8.0
KTMK 201350Z AUTO 17003KT 2 1/2SM -RA OVC008 07/07 A3035 RMK AO2 VIS 1 1/2V5 P0001,KTMK,2023-02-20T13:50:00Z,45.42,-123.82,7.0,7.0,170,3,,2.5,30.351377,,,TRUE,TRUE,,,,,,-RA,OVC,800,,,,,,,IFR,,,,,,0.01,,,,,,METAR,8.0
KTMK 201330Z AUTO 14003KT 3SM -RA BKN008 OVC014 07/07 A3035 RMK AO2,KTMK,2023-02-20T13:30:00Z,45.42,-123.82,7.0,7.0,140,3,,3.0,30.351377,,,TRUE,TRUE,,,,,,-RA,BKN,800,OVC,1400,,,,,IFR,,,,,,,,,,,,METAR,8.0
KTMK 201310Z AUTO 13003KT 5SM BR OVC008 07/07 A3035 RMK AO2,KTMK,2023-02-20T13:10:00Z,45.42,-123.82,7.0,7.0,130,3,,5.0,30.351377,,,TRUE,TRUE,,,,,,BR,OVC,800,,,,,,,IFR,,,,,,,,,,,,SPECI,8.0
KTMK 201250Z AUTO 14003KT 5SM BR BKN008 OVC015 07/07 A3035 RMK AO2 P0001,KTMK,2023-02-20T12:50:00Z,45.42,-123.82,7.0,7.0,140,3,,5.0,30.351377,,,TRUE,TRUE,,,,,,BR,BKN,800,OVC,1500,,,,,IFR,,,,,,0.01,,,,,,SPECI,8.0
KTMK 201230Z AUTO 00000KT 2SM -RA OVC008 07/07 A3036 RMK AO2 P0001,KTMK,2023-02-20T12:30:00Z,45.42,-123.82,7.0,7.0,0,0,,2.0,30.360237,,,TRUE,TRUE,,,,,,-RA,OVC,800,,,,,,,IFR,,,,,,0.01,,,,,,METAR,8.0
KTMK 201210Z AUTO 00000KT 4SM BR BKN008 OVC015 07/06 A3037 RMK AO2,KTMK,2023-02-20T12:10:00Z,45.42,-123.82,7.0,6.0,0,0,,4.0,30.369095,,,TRUE,TRUE,,,,,,BR,BKN,800,OVC,1500,,,,,IFR,,,,,,,,,,,,METAR,8.0
KTMK 201150Z AUTO 00000KT 10SM SCT010 BKN031 OVC041 07/06 A3037 RMK AO2,KTMK,2023-02-20T11:50:00Z,45.42,-123.82,7.0,6.0,0,0,,10.0,30.369095,,,TRUE,TRUE,,,,,,,SCT,1000,BKN,3100,OVC,4100,,,VFR,,,,,,,,,,,,METAR,8.0
KTMK 201130Z AUTO 00000KT 10SM SCT014 BKN029 OVC042 07/07 A3038 RMK AO2,KTMK,2023-02-20T11:30:00Z,45.42,-123.82,7.0,7.0,0,0,,10.0,30.380905,,,TRUE,TRUE,,,,,,,SCT,1400,BKN,2900,OVC,4200,,,MVFR,,,,,,,,,,,,METAR,8.0
KTMK 201110Z AUTO 00000KT 7SM SCT008 BKN014 OVC036 07/07 A3037 RMK AO2,KTMK,2023-02-20T11:10:00Z,45.42,-123.82,7.0,7.0,0,0,,7.0,30.369095,,,TRUE,TRUE,,,,,,,SCT,800,BKN,1400,OVC,3600,,,MVFR,,,,,,,,,,,,SPECI,8.0
KTMK 201050Z AUTO 00000KT 5SM BR SCT008 OVC014 07/07 A3038 RMK AO2,KTMK,2023-02-20T10:50:00Z,45.42,-123.82,7.0,7.0,0,0,,5.0,30.380905,,,TRUE,TRUE,,,,,,BR,SCT,800,OVC,1400,,,,,MVFR,,,,,,,,,,,,METAR,8.0
KTMK 201030Z AUTO 24003KT 5SM BR BKN008 BKN015 OVC021 07/07 A3038 RMK AO2,KTMK,2023-02-20T10:30:00Z,45.42,-123.82,7.0,7.0,240,3,,5.0,30.380905,,,TRUE,TRUE,,,,,,BR,BKN,800,BKN,1500,OVC,2100,,,IFR,,,,,,,,,,,,SPECI,8.0
KTMK 201010Z AUTO 00000KT 5SM BR BKN008 OVC012 07/07 A3038 RMK AO2,KTMK,2023-02-20T10:10:00Z,45.42,-123.82,7.0,7.0,0,0,,5.0,30.380905,,,TRUE,TRUE,,,,,,BR,BKN,800,OVC,1200,,,,,IFR,,,,,,,,,,,,METAR,8.0
KTMK 200950Z AUTO 00000KT 7SM BKN012 OVC018 07/07 A3038 RMK AO2,KTMK,2023-02-20T09:50:00Z,45.42,-123.82,7.0,7.0,0,0,,7.0,30.380905,,,TRUE,TRUE,,,,,,,BKN,1200,OVC,1800,,,,,MVFR,,,,,,,,,,,,METAR,8.0
KTMK 200930Z AUTO 00000KT 5SM BR BKN010 OVC016 07/07 A3037 RMK AO2,KTMK,2023-02-20T09:30:00Z,45.42,-123.82,7.0,7.0,0,0,,5.0,30.369095,,,TRUE,TRUE,,,,,,BR,BKN,1000,OVC,1600,,,,,MVFR,,,,,,,,,,,,METAR,8.0
KTMK 200910Z AUTO 21003KT 7SM BKN008 OVC012 07/07 A3036 RMK AO2,KTMK,2023-02-20T09:10:00Z,45.42,-123.82,7.0,7.0,210,3,,7.0,30.360237,,,TRUE,TRUE,,,,,,,BKN,800,OVC,1200,,,,,IFR,,,,,,,,,,,,SPECI,8.0
KTMK 200850Z AUTO 20003KT 3SM BR OVC010 07/07 A3037 RMK AO2 P0001,KTMK,2023-02-20T08:50:00Z,45.42,-123.82,7.0,7.0,200,3,,3.0,30.369095,,,TRUE,TRUE,,,,,,BR,OVC,1000,,,,,,,MVFR,,,,,,0.01,,,,,,SPECI,8.0
KTMK 200830Z AUTO 17004KT 4SM BR OVC010 07/07 A3036 RMK AO2,KTMK,2023-02-20T08:30:00Z,45.42,-123.82,7.0,7.0,170,4,,4.0,30.360237,,,TRUE,TRUE,,,,,,BR,OVC,1000,,,,,,,MVFR,,,,,,,,,,,,SPECI,8.0
KTMK 200810Z AUTO 00000KT 7SM OVC012 07/06 A3038 RMK AO2,KTMK,2023-02-20T08:10:00Z,45.42,-123.82,7.0,6.0,0,0,,7.0,30.380905,,,TRUE,TRUE,,,,,,,OVC,1200,,,,,,,MVFR,,,,,,,,,,,,SPECI,8.0
KTMK 200750Z AUTO 00000KT 7SM BKN014 OVC020 07/07 A3038 RMK AO2,KTMK,2023-02-20T07:50:00Z,45.42,-123.82,7.0,7.0,0,0,,7.0,30.380905,,,TRUE,TRUE,,,,,,,BKN,1400,OVC,2000,,,,,MVFR,,,,,,,,,,,,METAR,8.0
KTMK 200730Z AUTO 18003KT 10SM OVC019 07/07 A3037 RMK AO2,KTMK,2023-02-20T07:30:00Z,45.42,-123.82,7.0,7.0,180,3,,10.0,30.369095,,,TRUE,TRUE,,,,,,,OVC,1900,,,,,,,MVFR,,,,,,,,,,,,SPECI,8.0
KTMK 200710Z AUTO 16003KT 10SM OVC015 07/07 A3037 RMK AO2,KTMK,2023-02-20T07:10:00Z,45.42,-123.82,7.0,7.0,160,3,,10.0,30.369095,,,TRUE,TRUE,,,,,,,OVC,1500,,,,,,,MVFR,,,,,,,,,,,,SPECI,8.0
KTMK 200650Z AUTO 20003KT 7SM SCT010 OVC015 07/07 A3038 RMK AO2,KTMK,2023-02-20T06:50:00Z,45.42,-123.82,7.0,7.0,200,3,,7.0,30.380905,,,TRUE,TRUE,,,,,,,SCT,1000,OVC,1500,,,,,MVFR,,,,,,,,,,,,METAR,8.0
KTMK 200630Z AUTO 00000KT 7SM BKN010 OVC015 07/07 A3038 RMK AO2,KTMK,2023-02-20T06:30:00Z,45.42,-123.82,7.0,7.0,0,0,,7.0,30.380905,,,TRUE,TRUE,,,,,,,BKN,1000,OVC,1500,,,,,MVFR,,,,,,,,,,,,SPECI,8.0
KTMK 200610Z AUTO 19003KT 4SM BR SCT017 BKN024 OVC038 07/06 A3038 RMK AO2,KTMK,2023-02-20T06:10:00Z,45.42,-123.82,7.0,6.0,190,3,,4.0,30.380905,,,TRUE,TRUE,,,,,,BR,SCT,1700,BKN,2400,OVC,3800,,,MVFR,,,,,,,,,,,,SPECI,8.0
KTMK 200550Z AUTO 00000KT 10SM SCT008 BKN030 OVC036 07/07 A3039 RMK AO2,KTMK,2023-02-20T05:50:00Z,45.42,-123.82,7.0,7.0,0,0,,10.0,30.389763,,,TRUE,TRUE,,,,,,,SCT,800,BKN,3000,OVC,3600,,,MVFR,,,,,,,,,,,,METAR,8.0
KTMK 200530Z AUTO 00000KT 5SM BR SCT008 BKN014 OVC031 07/07 A3038 RMK AO2,KTMK,2023-02-20T05:30:00Z,45.42,-123.82,7.0,7.0,0,0,,5.0,30.380905,,,TRUE,TRUE,,,,,,BR,SCT,800,BKN,1400,OVC,3100,,,MVFR,,,,,,,,,,,,METAR,8.0
KTMK 200510Z AUTO 23003KT 10SM SCT016 BKN023 OVC041 07/07 A3038 RMK AO2,KTMK,2023-02-20T05:10:00Z,45.42,-123.82,7.0,7.0,230,3,,10.0,30.380905,,,TRUE,TRUE,,,,,,,SCT,1600,BKN,2300,OVC,4100,,,MVFR,,,,,,,,,,,,SPECI,8.0
KTMK 200450Z AUTO 26004KT 7SM SCT014 BKN020 OVC035 08/07 A3038 RMK AO2 P0001,KTMK,2023-02-20T04:50:00Z,45.42,-123.82,8.0,7.0,260,4,,7.0,30.380905,,,TRUE,TRUE,,,,,,,SCT,1400,BKN,2000,OVC,3500,,,MVFR,,,,,,0.01,,,,,,METAR,8.0
KTMK 200430Z AUTO 00000KT 10SM BKN012 BKN018 OVC037 07/07 A3037 RMK AO2 P0001,KTMK,2023-02-20T04:30:00Z,45.42,-123.82,7.0,7.0,0,0,,10.0,30.369095,,,TRUE,TRUE,,,,,,,BKN,1200,BKN,1800,OVC,3700,,,MVFR,,,,,,0.01,,,,,,SPECI,8.0
KTMK 200410Z AUTO 00000KT 5SM BR SCT004 OVC012 08/07 A3037 RMK AO2 P0001,KTMK,2023-02-20T04:10:00Z,45.42,-123.82,8.0,7.0,0,0,,5.0,30.369095,,,TRUE,TRUE,,,,,,BR,SCT,400,OVC,1200,,,,,MVFR,,,,,,0.01,,,,,,SPECI,8.0
KTMK 200350Z AUTO 27003KT 3SM -DZ BKN004 OVC009 08/07 A3038 RMK AO2 P0001,KTMK,2023-02-20T03:50:00Z,45.42,-123.82,8.0,7.0,270,3,,3.0,30.380905,,,TRUE,TRUE,,,,,,-DZ,BKN,400,OVC,900,,,,,LIFR,,,,,,0.01,,,,,,METAR,8.0
KTMK 200330Z AUTO 00000KT 3SM BR OVC004 07/07 A3038 RMK AO2 P0001,KTMK,2023-02-20T03:30:00Z,45.42,-123.82,7.0,7.0,0,0,,3.0,30.380905,,,TRUE,TRUE,,,,,,BR,OVC,400,,,,,,,LIFR,,,,,,0.01,,,,,,METAR,8.0
KTMK 200310Z AUTO 00000KT 4SM -DZ OVC004 07/06 A3037 RMK AO2,KTMK,2023-02-20T03:10:00Z,45.42,-123.82,7.0,6.0,0,0,,4.0,30.369095,,,TRUE,TRUE,,,,,,-DZ,OVC,400,,,,,,,LIFR,,,,,,,,,,,,SPECI,8.0
KTMK 200250Z AUTO 19005KT 2 1/2SM DZ OVC006 07/06 A3036 RMK AO2 P0004,KTMK,2023-02-20T02:50:00Z,45.42,-123.82,7.0,6.0,190,5,,2.5,30.360237,,,TRUE,TRUE,,,,,,DZ,OVC,600,,,,,,,IFR,,,,,,0.04,,,,,,METAR,8.0
KTMK 200230Z AUTO 00000KT 2 1/2SM DZ OVC006 07/06 A3036 RMK AO2 P0002,KTMK,2023-02-20T02:30:00Z,45.42,-123.82,7.0,6.0,0,0,,2.5,30.360237,,,TRUE,TRUE,,,,,,DZ,OVC,600,,,,,,,IFR,,,,,,0.02,,,,,,SPECI,8.0
KTMK 200210Z AUTO 21003KT 3SM BR OVC008 07/06 A3036 RMK AO2,KTMK,2023-02-20T02:10:00Z,45.42,-123.82,7.0,6.0,210,3,,3.0,30.360237,,,TRUE,TRUE,,,,,,BR,OVC,800,,,,,,,IFR,,,,,,,,,,,,SPECI,8.0
KTMK 200150Z AUTO 20004KT 4SM BR OVC006 07/06 A3035 RMK AO2,KTMK,2023-02-20T01:50:00Z,45.42,-123.82,7.0,6.0,200,4,,4.0,30.351377,,,TRUE,TRUE,,,,,,BR,OVC,600,,,,,,,IFR,,,,,,,,,,,,SPECI,8.0
KTMK 200130Z AUTO 20003KT 2 1/2SM BR OVC006 07/06 A3035 RMK AO2,KTMK,2023-02-20T01:30:00Z,45.42,-123.82,7.0,6.0,200,3,,2.5,30.351377,,,TRUE,TRUE,,,,,,BR,OVC,600,,,,,,,IFR,,,,,,,,,,,,METAR,8.0
KTMK 200110Z AUTO 20003KT 2SM BR OVC006 07/06 A3036 RMK AO2,KTMK,2023-02-20T01:10:00Z,45.42,-123.82,7.0,6.0,200,3,,2.0,30.360237,,,TRUE,TRUE,,,,,,BR,OVC,600,,,,,,,IFR,,,,,,,,,,,,SPECI,8.0
KTMK 200055Z AUTO 17003KT 1 3/4SM -DZ OVC006 07/07 A3036 RMK AO2 P0001,KTMK,2023-02-20T00:55:00Z,45.42,-123.82,7.0,7.0,170,3,,1.75,30.360237,,,TRUE,TRUE,,,,,,-DZ,OVC,600,,,,,,,IFR,,,,,,0.01,,,,,,SPECI,8.0
KTMK 200030Z AUTO 23004KT 1 1/2SM BR OVC008 07/06 A3038 RMK AO2,KTMK,2023-02-20T00:30:00Z,45.42,-123.82,7.0,6.0,230,4,,1.5,30.380905,,,TRUE,TRUE,,,,,,BR,OVC,800,,,,,,,IFR,,,,,,,,,,,,METAR,8.0
KTMK 200010Z AUTO 26004KT 4SM BR OVC017 08/06 A3038 RMK AO2,KTMK,2023-02-20T00:10:00Z,45.42,-123.82,8.0,6.0,260,4,,4.0,30.380905,,,TRUE,TRUE,,,,,,BR,OVC,1700,,,,,,,MVFR,,,,,,,,,,,,SPECI,8.0
KTMK 192350Z AUTO 26006KT 10SM OVC019 08/05 A3037 RMK AO2,KTMK,2023-02-19T23:50:00Z,45.42,-123.82,8.0,5.0,260,6,,10.0,30.369095,,,TRUE,TRUE,,,,,,,OVC,1900,,,,,,,MVFR,,,,,,,,,,,,METAR,8.0
KTMK 192330Z AUTO 25004KT 7SM OVC021 08/05 A3037 RMK AO2,KTMK,2023-02-19T23:30:00Z,45.42,-123.82,8.0,5.0,250,4,,7.0,30.369095,,,TRUE,TRUE,,,,,,,OVC,2100,,,,,,,MVFR,,,,,,,,,,,,SPECI,8.0
KTMK 192310Z AUTO 24006KT 10SM OVC023 09/05 A3038 RMK AO2,KTMK,2023-02-19T23:10:00Z,45.42,-123.82,9.0,5.0,240,6,,10.0,30.380905,,,TRUE,TRUE,,,,,,,OVC,2300,,,,,,,MVFR,,,,,,,,,,,,SPECI,8.0
KTMK 192250Z AUTO 00000KT 10SM BKN026 OVC033 09/04 A3038 RMK AO2,KTMK,2023-02-19T22:50:00Z,45.42,-123.82,9.0,4.0,0,0,,10.0,30.380905,,,TRUE,TRUE,,,,,,,BKN,2600,OVC,3300,,,,,MVFR,,,,,,,,,,,,METAR,8.0
KTMK 192230Z AUTO 26005KT 10SM SCT028 OVC035 10/05 A3038 RMK AO2,KTMK,2023-02-19T22:30:00Z,45.42,-123.82,10.0,5.0,260,5,,10.0,30.380905,,,TRUE,TRUE,,,,,,,SCT,2800,OVC,3500,,,,,VFR,,,,,,,,,,,,METAR,8.0
KTMK 192210Z AUTO 27005KT 7SM SCT033 OVC040 10/05 A3039 RMK AO2,KTMK,2023-02-19T22:10:00Z,45.42,-123.82,10.0,5.0,270,5,,7.0,30.389763,,,TRUE,TRUE,,,,,,,SCT,3300,OVC,4000,,,,,VFR,,,,,,,,,,,,METAR,8.0
KTMK 192150Z AUTO 26008KT 7SM SCT024 BKN033 OVC040 10/05 A3037 RMK AO2,KTMK,2023-02-19T21:50:00Z,45.42,-123.82,10.0,5.0,260,8,,7.0,30.369095,,,TRUE,TRUE,,,,,,,SCT,2400,BKN,3300,OVC,4000,,,VFR,,,,,,,,,,,,METAR,8.0
KTMK 192130Z AUTO 24009KT 7SM OVC031 10/05 A3036 RMK AO2,KTMK,2023-02-19T21:30:00Z,45.42,-123.82,10.0,5.0,240,9,,7.0,30.360237,,,TRUE,TRUE,,,,,,,OVC,3100,,,,,,,VFR,,,,,,,,,,,,METAR,8.0
KTMK 192110Z AUTO 24008KT 7SM SCT025 OVC033 10/05 A3038 RMK AO2,KTMK,2023-02-19T21:10:00Z,45.42,-123.82,10.0,5.0,240,8,,7.0,30.380905,,,TRUE,TRUE,,,,,,,SCT,2500,OVC,3300,,,,,VFR,,,,,,,,,,,,METAR,8.0
KTMK 192050Z AUTO 25005KT 7SM SCT025 OVC033 10/05 A3039 RMK AO2,KTMK,2023-02-19T20:50:00Z,45.42,-123.82,10.0,5.0,250,5,,7.0,30.389763,,,TRUE,TRUE,,,,,,,SCT,2500,OVC,3300,,,,,VFR,,,,,,,,,,,,METAR,8.0
KTMK 192030Z AUTO 25007KT 7SM BKN028 BKN037 OVC047 10/05 A3037 RMK AO2,KTMK,2023-02-19T20:30:00Z,45.42,-123.82,10.0,5.0,250,7,,7.0,30.369095,,,TRUE,TRUE,,,,,,,BKN,2800,BKN,3700,OVC,4700,,,MVFR,,,,,,,,,,,,METAR,8.0
KTMK 192010Z AUTO 25008KT 7SM BKN023 BKN030 OVC037 10/05 A3037 RMK AO2,KTMK,2023-02-19T20:10:00Z,45.42,-123.82,10.0,5.0,250,8,,7.0,30.369095,,,TRUE,TRUE,,,,,,,BKN,2300,BKN,3000,OVC,3700,,,MVFR,,,,,,,,,,,,SPECI,8.0
KTMK 191950Z AUTO 00000KT 7SM OVC021 10/05 A3038 RMK AO2,KTMK,2023-02-19T19:50:00Z,45.42,-123.82,10.0,5.0,0,0,,7.0,30.380905,,,TRUE,TRUE,,,,,,,OVC,2100,,,,,,,MVFR,,,,,,,,,,,,METAR,8.0
KTMK 191930Z AUTO 30004KT 7SM BKN023 BKN027 OVC049 09/05 A3040 RMK AO2,KTMK,2023-02-19T19:30:00Z,45.42,-123.82,9.0,5.0,300,4,,7.0,30.398623,,,TRUE,TRUE,,,,,,,BKN,2300,BKN,2700,OVC,4900,,,MVFR,,,,,,,,,,,,METAR,8.0
KTMK 191910Z AUTO 32004KT 7SM SCT025 SCT032 OVC049 09/05 A3040 RMK AO2,KTMK,2023-02-19T19:10:00Z,45.42,-123.82,9.0,5.0,320,4,,7.0,30.398623,,,TRUE,TRUE,,,,,,,SCT,2500,SCT,3200,OVC,4900,,,VFR,,,,,,,,,,,,METAR,8.0
KTMK 191850Z AUTO 00000KT 5SM HZ SCT019 BKN034 OVC049 09/06 A3041 RMK AO2,KTMK,2023-02-19T18:50:00Z,45.42,-123.82,9.0,6.0,0,0,,5.0,30.410433,,,TRUE,TRUE,,,,,,HZ,SCT,1900,BKN,3400,OVC,4900,,,MVFR,,,,,,,,,,,,METAR,8.0
KTMK 191830Z AUTO 00000KT 5SM HZ SCT020 BKN031 OVC049 08/06 A3040 RMK AO2,KTMK,2023-02-19T18:30:00Z,45.42,-123.82,8.0,6.0,0,0,,5.0,30.398623,,,TRUE,TRUE,,,,,,HZ,SCT,2000,BKN,3100,OVC,4900,,,MVFR,,,,,,,,,,,,METAR,8.0
KTMK 191810Z AUTO 00000KT 5SM BR SCT020 BKN037 OVC049 08/06 A3039 RMK AO2,KTMK,2023-02-19T18:10:00Z,45.42,-123.82,8.0,6.0,0,0,,5.0,30.389763,,,TRUE,TRUE,,,,,,BR,SCT,2000,BKN,3700,OVC,4900,,,MVFR,,,,,,,,,,,,METAR,8.0
KTMK 191750Z AUTO 00000KT 7SM SCT033 OVC049 07/06 A3039 RMK AO2,KTMK,2023-02-19T17:50:00Z,45.42,-123.82,7.0,6.0,0,0,,7.0,30.389763,,,TRUE,TRUE,,,,,,,SCT,3300,OVC,4900,,,,,VFR,,,,,,,,,,,,SPECI,8.0
KTMK 191730Z AUTO 00000KT 7SM SCT021 OVC033 07/06 A3037 RMK AO2,KTMK,2023-02-19T17:30:00Z,45.42,-123.82,7.0,6.0,0,0,,7.0,30.369095,,,TRUE,TRUE,,,,,,,SCT,2100,OVC,3300,,,,,VFR,,,,,,,,,,,,SPECI,8.0
KTMK 191710Z AUTO 00000KT 7SM SCT021 BKN030 OVC037 06/05 A3037 RMK AO2,KTMK,2023-02-19T17:10:00Z,45.42,-123.82,6.0,5.0,0,0,,7.0,30.369095,,,TRUE,TRUE,,,,,,,SCT,2100,BKN,3000,OVC,3700,,,MVFR,,,,,,,,,,,,METAR,8.0
KTMK 191650Z AUTO 00000KT 7SM BKN021 OVC030 05/05 A3038 RMK AO2,KTMK,2023-02-19T16:50:00Z,45.42,-123.82,5.0,5.0,0,0,,7.0,30.380905,,,TRUE,TRUE,,,,,,,BKN,2100,OVC,3000,,,,,MVFR,,,,,,,,,,,,METAR,8.0
KTMK 191630Z AUTO 00000KT 7SM BKN023 OVC032 05/04 A3037 RMK AO2,KTMK,2023-02-19T16:30:00Z,45.42,-123.82,5.0,4.0,0,0,,7.0,30.369095,,,TRUE,TRUE,,,,,,,BKN,2300,OVC,3200,,,,,MVFR,,,,,,,,,,,,SPECI,8.0
KTMK 191610Z AUTO 00000KT 7SM OVC023 05/05 A3037 RMK AO2,KTMK,2023-02-19T16:10:00Z,45.42,-123.82,5.0,5.0,0,0,,7.0,30.369095,,,TRUE,TRUE,,,,,,,OVC,2300,,,,,,,MVFR,,,,,,,,,,,,SPECI,8.0
KTMK 191550Z AUTO 00000KT 7SM OVC025 05/04 A3036 RMK AO2,KTMK,2023-02-19T15:50:00Z,45.42,-123.82,5.0,4.0,0,0,,7.0,30.360237,,,TRUE,TRUE,,,,,,,OVC,2500,,,,,,,MVFR,,,,,,,,,,,,SPECI,8.0
KTMK 191530Z AUTO 14003KT 7SM BKN027 BKN036 04/03 A3037 RMK AO2,KTMK,2023-02-19T15:30:00Z,45.42,-123.82,4.0,3.0,140,3,,7.0,30.369095,,,TRUE,TRUE,,,,,,,BKN,2700,BKN,3600,,,,,MVFR,,,,,,,,,,,,SPECI,8.0
KTMK 191510Z AUTO 00000KT 7SM BKN036 03/03 A3037 RMK AO2,KTMK,2023-02-19T15:10:00Z,45.42,-123.82,3.0,3.0,0,0,,7.0,30.369095,,,TRUE,TRUE,,,,,,,BKN,3600,,,,,,,VFR,,,,,,,,,,,,SPECI,8.0
KTMK 191450Z AUTO 00000KT 7SM OVC036 03/03 A3037 RMK AO2,KTMK,2023-02-19T14:50:00Z,45.42,-123.82,3.0,3.0,0,0,,7.0,30.369095,,,TRUE,TRUE,,,,,,,OVC,3600,,,,,,,VFR,,,,,,,,,,,,METAR,8.0
KTMK 191430Z AUTO 00000KT 1/2SM FG SCT010 SCT024 OVC038 04/03 A3037 RMK AO2,KTMK,2023-02-19T14:30:00Z,45.42,-123.82,4.0,3.0,0,0,,0.5,30.369095,,,TRUE,TRUE,,,,,,FG,SCT,1000,SCT,2400,OVC,3800,,,LIFR,,,,,,,,,,,,METAR,8.0
KTMK 191410Z AUTO 15003KT 1SM BR SCT024 OVC038 03/02 A3036 RMK AO2,KTMK,2023-02-19T14:10:00Z,45.42,-123.82,3.0,2.0,150,3,,1.0,30.360237,,,TRUE,TRUE,,,,,,BR,SCT,2400,OVC,3800,,,,,IFR,,,,,,,,,,,,SPECI,8.0
KTMK 191350Z AUTO 00000KT 7SM OVC040 04/03 A3037 RMK AO2,KTMK,2023-02-19T13:50:00Z,45.42,-123.82,4.0,3.0,0,0,,7.0,30.369095,,,TRUE,TRUE,,,,,,,OVC,4000,,,,,,,VFR,,,,,,,,,,,,METAR,8.0
KTMK 191330Z AUTO 00000KT 7SM OVC040 04/03 A3035 RMK AO2,KTMK,2023-02-19T13:30:00Z,45.42,-123.82,4.0,3.0,0,0,,7.0,30.351377,,,TRUE,TRUE,,,,,,,OVC,4000,,,,,,,VFR,,,,,,,,,,,,METAR,8.0
KTMK 191310Z AUTO 00000KT 7SM OVC042 05/04 A3035 RMK AO2,KTMK,2023-02-19T13:10:00Z,45.42,-123.82,5.0,4.0,0,0,,7.0,30.351377,,,TRUE,TRUE,,,,,,,OVC,4200,,,,,,,VFR,,,,,,,,,,,,METAR,8.0
KTMK 191250Z AUTO 00000KT 7SM OVC042 05/04 A3036 RMK AO2,KTMK,2023-02-19T12:50:00Z,45.42,-123.82,5.0,4.0,0,0,,7.0,30.360237,,,TRUE,TRUE,,,,,,,OVC,4200,,,,,,,VFR,,,,,,,,,,,,METAR,8.0
KTMK 191230Z AUTO 00000KT 7SM OVC040 05/04 A3035 RMK AO2,KTMK,2023-02-19T12:30:00Z,45.42,-123.82,5.0,4.0,0,0,,7.0,30.351377,,,TRUE,TRUE,,,,,,,OVC,4000,,,,,,,VFR,,,,,,,,,,,,METAR,8.0
KTMK 191210Z AUTO 00000KT 5SM BR OVC040 05/04 A3035 RMK AO2,KTMK,2023-02-19T12:10:00Z,45.42,-123.82,5.0,4.0,0,0,,5.0,30.351377,,,TRUE,TRUE,,,,,,BR,OVC,4000,,,,,,,MVFR,,,,,,,,,,,,METAR,8.0
KTMK 191150Z AUTO 00000KT 5SM BR OVC042 05/04 A3035 RMK AO2,KTMK,2023-02-19T11:50:00Z,45.42,-123.82,5.0,4.0,0,0,,5.0,30.351377,,,TRUE,TRUE,,,,,,BR,OVC,4200,,,,,,,MVFR,,,,,,,,,,,,SPECI,8.0
KTMK 191130Z AUTO 00000KT 5SM BR SCT026 SCT031 OVC042 05/04 A3035 RMK AO2,KTMK,2023-02-19T11:30:00Z,45.42,-123.82,5.0,4.0,0,0,,5.0,30.351377,,,TRUE,TRUE,,,,,,BR,SCT,2600,SCT,3100,OVC,4200,,,MVFR,,,,,,,,,,,,METAR,8.0
KTMK 191110Z AUTO 00000KT 7SM SCT026 BKN035 OVC040 05/05 A3035 RMK AO2,KTMK,2023-02-19T11:10:00Z,45.42,-123.82,5.0,5.0,0,0,,7.0,30.351377,,,TRUE,TRUE,,,,,,,SCT,2600,BKN,3500,OVC,4000,,,VFR,,,,,,,,,,,,METAR,8.0
KTMK 191050Z AUTO 00000KT 7SM OVC037 05/05 A3034 RMK AO2,KTMK,2023-02-19T10:50:00Z,45.42,-123.82,5.0,5.0,0,0,,7.0,30.339567,,,TRUE,TRUE,,,,,,,OVC,3700,,,,,,,VFR,,,,,,,,,,,,METAR,8.0
KTMK 191030Z AUTO 00000KT 7SM OVC039 06/05 A3034 RMK AO2,KTMK,2023-02-19T10:30:00Z,45.42,-123.82,6.0,5.0,0,0,,7.0,30.339567,,,TRUE,TRUE,,,,,,,OVC,3900,,,,,,,VFR,,,,,,,,,,,,METAR,8.0
KTMK 191010Z AUTO 00000KT 7SM SCT022 SCT030 OVC039 06/05 A3035 RMK AO2,KTMK,2023-02-19T10:10:00Z,45.42,-123.82,6.0,5.0,0,0,,7.0,30.351377,,,TRUE,TRUE,,,,,,,SCT,2200,SCT,3000,OVC,3900,,,VFR,,,,,,,,,,,,METAR,8.0
KTMK 190950Z AUTO 00000KT 7SM SCT022 SCT027 OVC033 06/05 A3033 RMK AO2,KTMK,2023-02-19T09:50:00Z,45.42,-123.82,6.0,5.0,0,0,,7.0,30.33071,,,TRUE,TRUE,,,,,,,SCT,2200,SCT,2700,OVC,3300,,,VFR,,,,,,,,,,,,METAR,8.0
KTMK 190930Z AUTO 13003KT 7SM OVC037 05/05 A3033 RMK AO2,KTMK,2023-02-19T09:30:00Z,45.42,-123.82,5.0,5.0,130,3,,7.0,30.33071,,,TRUE,TRUE,,,,,,,OVC,3700,,,,,,,VFR,,,,,,,,,,,,SPECI,8.0
KTMK 190910Z AUTO 14003KT 7SM SCT033 OVC039 06/05 A3033 RMK AO2,KTMK,2023-02-19T09:10:00Z,45.42,-123.82,6.0,5.0,140,3,,7.0,30.33071,,,TRUE,TRUE,,,,,,,SCT,3300,OVC,3900,,,,,VFR,,,,,,,,,,,,SPECI,8.0
KTMK 190850Z AUTO 00000KT 7SM SCT025 OVC035 06/05 A3033 RMK AO2,KTMK,2023-02-19T08:50:00Z,45.42,-123.82,6.0,5.0,0,0,,7.0,30.33071,,,TRUE,TRUE,,,,,,,SCT,2500,OVC,3500,,,,,VFR,,,,,,,,,,,,SPECI,8.0
KTMK 190830Z AUTO 00000KT 7SM SCT030 OVC036 06/05 A3032 RMK AO2,KTMK,2023-02-19T08:30:00Z,45.42,-123.82,6.0,5.0,0,0,,7.0,30.318897,,,TRUE,TRUE,,,,,,,SCT,3000,OVC,3600,,,,,VFR,,,,,,,,,,,,SPECI,8.0
KTMK 190810Z AUTO 00000KT 7SM OVC036 06/05 A3032 RMK AO2,KTMK,2023-02-19T08:10:00Z,45.42,-123.82,6.0,5.0,0,0,,7.0,30.318897,,,TRUE,TRUE,,,,,,,OVC,3600,,,,,,,VFR,,,,,,,,,,,,SPECI,8.0
KTMK 190750Z AUTO 15003KT 7SM OVC036 06/05 A3031 RMK AO2,KTMK,2023-02-19T07:50:00Z,45.42,-123.82,6.0,5.0,150,3,,7.0,30.31004,,,TRUE,TRUE,,,,,,,OVC,3600,,,,,,,VFR,,,,,,,,,,,,SPECI,8.0
KTMK 190730Z AUTO 15004KT 7SM OVC036 06/05 A3031 RMK AO2,KTMK,2023-02-19T07:30:00Z,45.42,-123.82,6.0,5.0,150,4,,7.0,30.31004,,,TRUE,TRUE,,,,,,,OVC,3600,,,,,,,VFR,,,,,,,,,,,,SPECI,8.0
KTMK 190710Z AUTO 17003KT 7SM OVC038 06/05 A3032 RMK AO2,KTMK,2023-02-19T07:10:00Z,45.42,-123.82,6.0,5.0,170,3,,7.0,30.318897,,,TRUE,TRUE,,,,,,,OVC,3800,,,,,,,VFR,,,,,,,,,,,,METAR,8.0
KTMK 190650Z AUTO 13003KT 7SM SCT023 SCT033 OVC038 06/05 A3031 RMK AO2,KTMK,2023-02-19T06:50:00Z,45.42,-123.82,6.0,5.0,130,3,,7.0,30.31004,,,TRUE,TRUE,,,,,,,SCT,2300,SCT,3300,OVC,3800,,,VFR,,,,,,,,,,,,METAR,8.0
KTMK 190630Z AUTO 00000KT 5SM BR SCT023 BKN030 OVC036 06/05 A3031 RMK AO2,KTMK,2023-02-19T06:30:00Z,45.42,-123.82,6.0,5.0,0,0,,5.0,30.31004,,,TRUE,TRUE,,,,,,BR,SCT,2300,BKN,3000,OVC,3600,,,MVFR,,,,,,,,,,,,METAR,8.0
KTMK 190610Z AUTO 12004KT 7SM OVC038 06/05 A3032 RMK AO2,KTMK,2023-02-19T06:10:00Z,45.42,-123.82,6.0,5.0,120,4,,7.0,30.318897,,,TRUE,TRUE,,,,,,,OVC,3800,,,,,,,VFR,,,,,,,,,,,,METAR,8.0
KTMK 190550Z AUTO 15003KT 7SM SCT020 SCT026 OVC040 06/05 A3031 RMK AO2,KTMK,2023-02-19T05:50:00Z,45.42,-123.82,6.0,5.0,150,3,,7.0,30.31004,,,TRUE,TRUE,,,,,,,SCT,2000,SCT,2600,OVC,4000,,,VFR,,,,,,,,,,,,SPECI,8.0
KTMK 190530Z AUTO 10003KT 7SM BKN020 BKN025 OVC030 06/05 A3031 RMK AO2,KTMK,2023-02-19T05:30:00Z,45.42,-123.82,6.0,5.0,100,3,,7.0,30.31004,,,TRUE,TRUE,,,,,,,BKN,2000,BKN,2500,OVC,3000,,,MVFR,,,,,,,,,,,,SPECI,8.0
KTMK 190510Z AUTO 16003KT 7SM SCT020 BKN029 OVC039 06/05 A3030 RMK AO2,KTMK,2023-02-19T05:10:00Z,45.42,-123.82,6.0,5.0,160,3,,7.0,30.301182,,,TRUE,TRUE,,,,,,,SCT,2000,BKN,2900,OVC,3900,,,MVFR,,,,,,,,,,,,SPECI,8.0
KTMK 190450Z AUTO 13003KT 7SM SCT030 OVC039 06/05 A3029 RMK AO2,KTMK,2023-02-19T04:50:00Z,45.42,-123.82,6.0,5.0,130,3,,7.0,30.28937,,,TRUE,TRUE,,,,,,,SCT,3000,OVC,3900,,,,,VFR,,,,,,,,,,,,METAR,8.0
KTMK 190430Z AUTO 16003KT 7SM SCT026 SCT035 OVC041 06/05 A3028 RMK AO2,KTMK,2023-02-19T04:30:00Z,45.42,-123.82,6.0,5.0,160,3,,7.0,30.280512,,,TRUE,TRUE,,,,,,,SCT,2600,SCT,3500,OVC,4100,,,VFR,,,,,,,,,,,,METAR,8.0
KTMK 190410Z AUTO 15003KT 7SM OVC040 06/05 A3028 RMK AO2,KTMK,2023-02-19T04:10:00Z,45.42,-123.82,6.0,5.0,150,3,,7.0,30.280512,,,TRUE,TRUE,,,,,,,OVC,4000,,,,,,,VFR,,,,,,,,,,,,SPECI,8.0
KTMK 190350Z AUTO 00000KT 7SM SCT023 OVC042 06/05 A3027 RMK AO2,KTMK,2023-02-19T03:50:00Z,45.42,-123.82,6.0,5.0,0,0,,7.0,30.268702,,,TRUE,TRUE,,,,,,,SCT,2300,OVC,4200,,,,,VFR,,,,,,,,,,,,METAR,8.0
KTMK 190330Z AUTO 16004KT 5SM BR SCT023 SCT028 OVC040 06/06 A3026 RMK AO2,KTMK,2023-02-19T03:30:00Z,45.42,-123.82,6.0,6.0,160,4,,5.0,30.259842,,,TRUE,TRUE,,,,,,BR,SCT,2300,SCT,2800,OVC,4000,,,MVFR,,,,,,,,,,,,SPECI,8.0
KTMK 190310Z AUTO 18003KT 5SM BR SCT030 SCT035 OVC040 06/06 A3027 RMK AO2,KTMK,2023-02-19T03:10:00Z,45.42,-123.82,6.0,6.0,180,3,,5.0,30.268702,,,TRUE,TRUE,,,,,,BR,SCT,3000,SCT,3500,OVC,4000,,,MVFR,,,,,,,,,,,,METAR,8.0
KTMK 190250Z AUTO 00000KT 7SM SCT026 BKN033 OVC040 07/05 A3026 RMK AO2,KTMK,2023-02-19T02:50:00Z,45.42,-123.82,7.0,5.0,0,0,,7.0,30.259842,,,TRUE,TRUE,,,,,,,SCT,2600,BKN,3300,OVC,4000,,,VFR,,,,,,,,,,,,METAR,8.0
KTMK 190230Z AUTO 00000KT 7SM SCT026 SCT032 OVC037 07/06 A3025 RMK AO2,KTMK,2023-02-19T02:30:00Z,45.42,-123.82,7.0,6.0,0,0,,7.0,30.250984,,,TRUE,TRUE,,,,,,,SCT,2600,SCT,3200,OVC,3700,,,VFR,,,,,,,,,,,,SPECI,8.0
KTMK 190210Z AUTO 00000KT 7SM SCT032 OVC039 08/05 A3025 RMK AO2,KTMK,2023-02-19T02:10:00Z,45.42,-123.82,8.0,5.0,0,0,,7.0,30.250984,,,TRUE,TRUE,,,,,,,SCT,3200,OVC,3900,,,,,VFR,,,,,,,,,,,,SPECI,8.0
KTMK 190150Z AUTO 00000KT 7SM OVC038 07/05 A3024 RMK AO2,KTMK,2023-02-19T01:50:00Z,45.42,-123.82,7.0,5.0,0,0,,7.0,30.239174,,,TRUE,TRUE,,,,,,,OVC,3800,,,,,,,VFR,,,,,,,,,,,,SPECI,8.0
KTMK 190130Z AUTO 00000KT 5SM HZ SCT031 OVC039 08/05 A3024 RMK AO2,KTMK,2023-02-19T01:30:00Z,45.42,-123.82,8.0,5.0,0,0,,5.0,30.239174,,,TRUE,TRUE,,,,,,HZ,SCT,3100,OVC,3900,,,,,MVFR,,,,,,,,,,,,SPECI,8.0
KTMK 190110Z AUTO 29005KT 5SM BR SCT026 BKN033 OVC039 08/06 A3024 RMK AO2,KTMK,2023-02-19T01:10:00Z,45.42,-123.82,8.0,6.0,290,5,,5.0,30.239174,,,TRUE,TRUE,,,,,,BR,SCT,2600,BKN,3300,OVC,3900,,,MVFR,,,,,,,,,,,,SPECI,8.0
KTMK 190050Z AUTO 00000KT 5SM BR OVC037 08/06 A3023 RMK AO2,KTMK,2023-02-19T00:50:00Z,45.42,-123.82,8.0,6.0,0,0,,5.0,30.230314,,,TRUE,TRUE,,,,,,BR,OVC,3700,,,,,,,MVFR,,,,,,,,,,,,METAR,8.0
KTMK 190030Z AUTO 28007KT 5SM HZ SCT018 SCT024 OVC035 08/06 A3023 RMK AO2,KTMK,2023-02-19T00:30:00Z,45.42,-123.82,8.0,6.0,280,7,,5.0,30.230314,,,TRUE,TRUE,,,,,,HZ,SCT,1800,SCT,2400,OVC,3500,,,MVFR,,,,,,,,,,,,SPECI,8.0
KTMK 190010Z AUTO 24003KT 7SM SCT024 SCT028 OVC035 08/06 A3022 RMK AO2,KTMK,2023-02-19T00:10:00Z,45.42,-123.82,8.0,6.0,240,3,,7.0,30.221457,,,TRUE,TRUE,,,,,,,SCT,2400,SCT,2800,OVC,3500,,,VFR,,,,,,,,,,,,SPECI,8.0
KTMK 182350Z AUTO 31006KT 10SM SCT024 BKN033 OVC038 08/06 A3022 RMK AO2,KTMK,2023-02-18T23:50:00Z,45.42,-123.82,8.0,6.0,310,6,,10.0,30.221457,,,TRUE,TRUE,,,,,,,SCT,2400,BKN,3300,OVC,3800,,,VFR,,,,,,,,,,,,SPECI,8.0
KTMK 182330Z AUTO 32006G15KT 7SM SCT015 BKN023 OVC033 08/06 A3022 RMK AO2,KTMK,2023-02-18T23:30:00Z,45.42,-123.82,8.0,6.0,320,6,15,7.0,30.221457,,,TRUE,TRUE,,,,,,,SCT,1500,BKN,2300,OVC,3300,,,MVFR,,,,,,,,,,,,SPECI,8.0
KTMK 182310Z AUTO 30008KT 270V330 10SM SCT014 BKN023 OVC030 09/07 A3022 RMK AO2,KTMK,2023-02-18T23:10:00Z,45.42,-123.82,9.0,7.0,300,8,,10.0,30.221457,,,TRUE,TRUE,,,,,,,SCT,1400,BKN,2300,OVC,3000,,,MVFR,,,,,,,,,,,,METAR,8.0
KTMK 182250Z AUTO 30009G16KT 4SM BR SCT006 SCT014 OVC030 08/07 A3022 RMK AO2,KTMK,2023-02-18T22:50:00Z,45.42,-123.82,8.0,7.0,300,9,16,4.0,30.221457,,,TRUE,TRUE,,,,,,BR,SCT,600,SCT,1400,OVC,3000,,,MVFR,,,,,,,,,,,,METAR,8.0
KTMK 182230Z AUTO 30009KT 3SM BR BKN006 BKN026 OVC034 08/07 A3021 RMK AO2,KTMK,2023-02-18T22:30:00Z,45.42,-123.82,8.0,7.0,300,9,,3.0,30.209646,,,TRUE,TRUE,,,,,,BR,BKN,600,BKN,2600,OVC,3400,,,IFR,,,,,,,,,,,,SPECI,8.0
KTMK 182215Z AUTO 30010G21KT 2 1/2SM -RA SCT006 BKN023 OVC032 08/07 A3021 RMK AO2,KTMK,2023-02-18T22:15:00Z,45.42,-123.82,8.0,7.0,300,10,21,2.5,30.209646,,,TRUE,TRUE,,,,,,-RA,SCT,600,BKN,2300,OVC,3200,,,IFR,,,,,,,,,,,,SPECI,8.0
KTMK 182150Z AUTO 30009KT 1 3/4SM BR BKN006 OVC015 09/08 A3021 RMK AO2,KTMK,2023-02-18T21:50:00Z,45.42,-123.82,9.0,8.0,300,9,,1.75,30.209646,,,TRUE,TRUE,,,,,,BR,BKN,600,OVC,1500,,,,,IFR,,,,,,,,,,,,SPECI,8.0
KTMK 182130Z AUTO 26004KT 5SM BR OVC006 09/08 A3021 RMK AO2,KTMK,2023-02-18T21:30:00Z,45.42,-123.82,9.0,8.0,260,4,,5.0,30.209646,,,TRUE,TRUE,,,,,,BR,OVC,600,,,,,,,IFR,,,,,,,,,,,,METAR,8.0
KTMK 182110Z AUTO 21008KT 4SM BR BKN008 OVC011 08/07 A3021 RMK AO2,KTMK,2023-02-18T21:10:00Z,45.42,-123.82,8.0,7.0,210,8,,4.0,30.209646,,,TRUE,TRUE,,,,,,BR,BKN,800,OVC,1100,,,,,IFR,,,,,,,,,,,,METAR,8.0
KTMK 182050Z AUTO 21007KT 4SM BR OVC008 08/07 A3020 RMK AO2,KTMK,2023-02-18T20:50:00Z,45.42,-123.82,8.0,7.0,210,7,,4.0,30.200787,,,TRUE,TRUE,,,,,,BR,OVC,800,,,,,,,IFR,,,,,,,,,,,,SPECI,8.0
KTMK 182030Z AUTO 20007KT 3SM BR BKN010 OVC016 08/07 A3021 RMK AO2,KTMK,2023-02-18T20:30:00Z,45.42,-123.82,8.0,7.0,200,7,,3.0,30.209646,,,TRUE,TRUE,,,,,,BR,BKN,1000,OVC,1600,,,,,MVFR,,,,,,,,,,,,METAR,8.0
KTMK 182010Z AUTO 20006KT 2SM BR BKN007 OVC014 08/07 A3021 RMK AO2,KTMK,2023-02-18T20:10:00Z,45.42,-123.82,8.0,7.0,200,6,,2.0,30.209646,,,TRUE,TRUE,,,,,,BR,BKN,700,OVC,1400,,,,,IFR,,,,,,,,,,,,SPECI,8.0
KTMK 181950Z AUTO 20003KT 2 1/2SM BR OVC009 08/07 A3021 RMK AO2 P0001,KTMK,2023-02-18T19:50:00Z,45.42,-123.82,8.0,7.0,200,3,,2.5,30.209646,,,TRUE,TRUE,,,,,,BR,OVC,900,,,,,,,IFR,,,,,,0.01,,,,,,METAR,8.0
KTMK 181930Z AUTO 17005KT 1 3/4SM BR OVC009 07/07 A3021 RMK AO2 P0001,KTMK,2023-02-18T19:30:00Z,45.42,-123.82,7.0,7.0,170,5,,1.75,30.209646,,,TRUE,TRUE,,,,,,BR,OVC,900,,,,,,,IFR,,,,,,0.01,,,,,,METAR,8.0
KTMK 181910Z AUTO 17003KT 2SM BR OVC011 07/07 A3021 RMK AO2,KTMK,2023-02-18T19:10:00Z,45.42,-123.82,7.0,7.0,170,3,,2.0,30.209646,,,TRUE,TRUE,,,,,,BR,OVC,1100,,,,,,,IFR,,,,,,,,,,,,METAR,8.0
KTMK 181850Z AUTO 18006KT 3SM BR BKN007 BKN011 OVC023 07/06 A3021 RMK AO2,KTMK,2023-02-18T18:50:00Z,45.42,-123.82,7.0,6.0,180,6,,3.0,30.209646,,,TRUE,TRUE,,,,,,BR,BKN,700,BKN,1100,OVC,2300,,,IFR,,,,,,,,,,,,METAR,8.0
KTMK 181830Z AUTO 16004KT 2SM BR BKN007 BKN011 OVC023 07/06 A3022 RMK AO2,KTMK,2023-02-18T18:30:00Z,45.42,-123.82,7.0,6.0,160,4,,2.0,30.221457,,,TRUE,TRUE,,,,,,BR,BKN,700,BKN,1100,OVC,2300,,,IFR,,,,,,,,,,,,METAR,8.0
KTMK 181810Z AUTO 00000KT 1 3/4SM BR SCT004 BKN015 OVC023 06/05 A3022 RMK AO2,KTMK,2023-02-18T18:10:00Z,45.42,-123.82,6.0,5.0,0,0,,1.75,30.221457,,,TRUE,TRUE,,,,,,BR,SCT,400,BKN,1500,OVC,2300,,,IFR,,,,,,,,,,,,METAR,8.0
KTMK 181750Z AUTO 00000KT 3SM BR BKN015 OVC022 06/05 A3022 RMK AO2,KTMK,2023-02-18T17:50:00Z,45.42,-123.82,6.0,5.0,0,0,,3.0,30.221457,,,TRUE,TRUE,,,,,,BR,BKN,1500,OVC,2200,,,,,MVFR,,,,,,,,,,,,METAR,8.0
KTMK 181730Z AUTO 00000KT 5SM BR OVC017 06/05 A3023 RMK AO2,KTMK,2023-02-18T17:30:00Z,45.42,-123.82,6.0,5.0,0,0,,5.0,30.230314,,,TRUE,TRUE,,,,,,BR,OVC,1700,,,,,,,MVFR,,,,,,,,,,,,SPECI,8.0
KTMK 181710Z AUTO 00000KT 10SM OVC023 05/04 A3023 RMK AO2,KTMK,2023-02-18T17:10:00Z,45.42,-123.82,5.0,4.0,0,0,,10.0,30.230314,,,TRUE,TRUE,,,,,,,OVC,2300,,,,,,,MVFR,,,,,,,,,,,,SPECI,8.0
KTMK 181650Z AUTO 00000KT 10SM OVC025 05/04 A3022 RMK AO2,KTMK,2023-02-18T16:50:00Z,45.42,-123.82,5.0,4.0,0,0,,10.0,30.221457,,,TRUE,TRUE,,,,,,,OVC,2500,,,,,,,MVFR,,,,,,,,,,,,SPECI,8.0
KTMK 181630Z AUTO 00000KT 10SM OVC029 05/05 A3022 RMK AO2,KTMK,2023-02-18T16:30:00Z,45.42,-123.82,5.0,5.0,0,0,,10.0,30.221457,,,TRUE,TRUE,,,,,,,OVC,2900,,,,,,,MVFR,,,,,,,,,,,,SPECI,8.0
KTMK 181610Z AUTO 00000KT 10SM OVC031 05/04 A3022 RMK AO2,KTMK,2023-02-18T16:10:00Z,45.42,-123.82,5.0,4.0,0,0,,10.0,30.221457,,,TRUE,TRUE,,,,,,,OVC,3100,,,,,,,VFR,,,,,,,,,,,,SPECI,8.0
KTMK 181550Z AUTO 00000KT 10SM OVC031 05/04 A3022 RMK AO2,KTMK,2023-02-18T15:50:00Z,45.42,-123.82,5.0,4.0,0,0,,10.0,30.221457,,,TRUE,TRUE,,,,,,,OVC,3100,,,,,,,VFR,,,,,,,,,,,,METAR,8.0
KTMK 181530Z AUTO 00000KT 10SM OVC031 04/03 A3020 RMK AO2,KTMK,2023-02-18T15:30:00Z,45.42,-123.82,4.0,3.0,0,0,,10.0,30.200787,,,TRUE,TRUE,,,,,,,OVC,3100,,,,,,,VFR,,,,,,,,,,,,METAR,8.0
KTMK 181510Z AUTO 00000KT 10SM OVC031 04/04 A3021 RMK AO2,KTMK,2023-02-18T15:10:00Z,45.42,-123.82,4.0,4.0,0,0,,10.0,30.209646,,,TRUE,TRUE,,,,,,,OVC,3100,,,,,,,VFR,,,,,,,,,,,,SPECI,8.0
KTMK 181450Z AUTO 11003KT 10SM BKN031 OVC037 04/03 A3021 RMK AO2,KTMK,2023-02-18T14:50:00Z,45.42,-123.82,4.0,3.0,110,3,,10.0,30.209646,,,TRUE,TRUE,,,,,,,BKN,3100,OVC,3700,,,,,VFR,,,,,,,,,,,,METAR,8.0
KTMK 181430Z AUTO 00000KT 10SM OVC036 03/03 A3021 RMK AO2,KTMK,2023-02-18T14:30:00Z,45.42,-123.82,3.0,3.0,0,0,,10.0,30.209646,,,TRUE,TRUE,,,,,,,OVC,3600,,,,,,,VFR,,,,,,,,,,,,SPECI,8.0
KTMK 181410Z AUTO 00000KT 5SM BR OVC040 03/03 A3022 RMK AO2,KTMK,2023-02-18T14:10:00Z,45.42,-123.82,3.0,3.0,0,0,,5.0,30.221457,,,TRUE,TRUE,,,,,,BR,OVC,4000,,,,,,,MVFR,,,,,,,,,,,,SPECI,8.0
KTMK 181350Z AUTO 00000KT 5SM BR BKN042 BKN070 OVC100 03/03 A3022 RMK AO2,KTMK,2023-02-18T13:50:00Z,45.42,-123.82,3.0,3.0,0,0,,5.0,30.221457,,,TRUE,TRUE,,,,,,BR,BKN,4200,BKN,7000,OVC,10000,,,MVFR,,,,,,,,,,,,SPECI,8.0
KTMK 181330Z AUTO 00000KT 7SM OVC100 03/03 A3022 RMK AO2,KTMK,2023-02-18T13:30:00Z,45.42,-123.82,3.0,3.0,0,0,,7.0,30.221457,,,TRUE,TRUE,,,,,,,OVC,10000,,,,,,,VFR,,,,,,,,,,,,METAR,8.0
KTMK 181310Z AUTO 00000KT 7SM SCT042 BKN070 OVC100 03/03 A3022 RMK AO2,KTMK,2023-02-18T13:10:00Z,45.42,-123.82,3.0,3.0,0,0,,7.0,30.221457,,,TRUE,TRUE,,,,,,,SCT,4200,BKN,7000,OVC,10000,,,VFR,,,,,,,,,,,,SPECI,8.0
KTMK 181250Z AUTO 00000KT 7SM OVC042 03/03 A3022 RMK AO2,KTMK,2023-02-18T12:50:00Z,45.42,-123.82,3.0,3.0,0,0,,7.0,30.221457,,,TRUE,TRUE,,,,,,,OVC,4200,,,,,,,VFR,,,,,,,,,,,,METAR,8.0
KTMK 181230Z AUTO 00000KT 4SM BR OVC044 03/03 A3022 RMK AO2,KTMK,2023-02-18T12:30:00Z,45.42,-123.82,3.0,3.0,0,0,,4.0,30.221457,,,TRUE,TRUE,,,,,,BR,OVC,4400,,,,,,,MVFR,,,,,,,,,,,,SPECI,8.0
KTMK 181210Z AUTO 00000KT 5SM BR BKN046 OVC110 03/03 A3023 RMK AO2,KTMK,2023-02-18T12:10:00Z,45.42,-123.82,3.0,3.0,0,0,,5.0,30.230314,,,TRUE,TRUE,,,,,,BR,BKN,4600,OVC,11000,,,,,MVFR,,,,,,,,,,,,METAR,8.0
KTMK 181150Z AUTO 00000KT 5SM BR BKN048 OVC110 03/03 A3023 RMK AO2,KTMK,2023-02-18T11:50:00Z,45.42,-123.82,3.0,3.0,0,0,,5.0,30.230314,,,TRUE,TRUE,,,,,,BR,BKN,4800,OVC,11000,,,,,MVFR,,,,,,,,,,,,SPECI,8.0
KTMK 181130Z AUTO 00000KT 5SM BR OVC050 03/03 A3023 RMK AO2,KTMK,2023-02-18T11:30:00Z,45.42,-123.82,3.0,3.0,0,0,,5.0,30.230314,,,TRUE,TRUE,,,,,,BR,OVC,5000,,,,,,,MVFR,,,,,,,,,,,,METAR,8.0
KTMK 181110Z AUTO 00000KT 5SM BR OVC050 03/03 A3024 RMK AO2,KTMK,2023-02-18T11:10:00Z,45.42,-123.82,3.0,3.0,0,0,,5.0,30.239174,,,TRUE,TRUE,,,,,,BR,OVC,5000,,,,,,,MVFR,,,,,,,,,,,,METAR,8.0
KTMK 181050Z AUTO 00000KT 5SM BR OVC050 03/03 A3025 RMK AO2,KTMK,2023-02-18T10:50:00Z,45.42,-123.82,3.0,3.0,0,0,,5.0,30.250984,,,TRUE,TRUE,,,,,,BR,OVC,5000,,,,,,,MVFR,,,,,,,,,,,,METAR,8.0
KTMK 181030Z AUTO 00000KT 5SM BR BKN055 BKN090 OVC120 03/03 A3024 RMK AO2,KTMK,2023-02-18T10:30:00Z,45.42,-123.82,3.0,3.0,0,0,,5.0,30.239174,,,TRUE,TRUE,,,,,,BR,BKN,5500,BKN,9000,OVC,12000,,,MVFR,,,,,,,,,,,,METAR,8.0
KTMK 181010Z AUTO 00000KT 7SM BKN055 OVC090 04/03 A3025 RMK AO2,KTMK,2023-02-18T10:10:00Z,45.42,-123.82,4.0,3.0,0,0,,7.0,30.250984,,,TRUE,TRUE,,,,,,,BKN,5500,OVC,9000,,,,,VFR,,,,,,,,,,,,METAR,8.0
KTMK 180950Z AUTO 00000KT 7SM SCT065 OVC090 04/03 A3025 RMK AO2,KTMK,2023-02-18T09:50:00Z,45.42,-123.82,4.0,3.0,0,0,,7.0,30.250984,,,TRUE,TRUE,,,,,,,SCT,6500,OVC,9000,,,,,VFR,,,,,,,,,,,,METAR,8.0
KTMK 180930Z AUTO 00000KT 7SM OVC090 03/03 A3024 RMK AO2,KTMK,2023-02-18T09:30:00Z,45.42,-123.82,3.0,3.0,0,0,,7.0,30.239174,,,TRUE,TRUE,,,,,,,OVC,9000,,,,,,,VFR,,,,,,,,,,,,SPECI,8.0
KTMK 180910Z AUTO 00000KT 7SM SCT009 OVC090 03/03 A3025 RMK AO2,KTMK,2023-02-18T09:10:00Z,45.42,-123.82,3.0,3.0,0,0,,7.0,30.250984,,,TRUE,TRUE,,,,,,,SCT,900,OVC,9000,,,,,VFR,,,,,,,,,,,,SPECI,8.0
KTMK 180850Z AUTO 00000KT 5SM BR SCT009 OVC090 03/03 A3026 RMK AO2,KTMK,2023-02-18T08:50:00Z,45.42,-123.82,3.0,3.0,0,0,,5.0,30.259842,,,TRUE,TRUE,,,,,,BR,SCT,900,OVC,9000,,,,,MVFR,,,,,,,,,,,,METAR,8.0
KTMK 180830Z AUTO 00000KT 5SM BR OVC090 04/03 A3027 RMK AO2,KTMK,2023-02-18T08:30:00Z,45.42,-123.82,4.0,3.0,0,0,,5.0,30.268702,,,TRUE,TRUE,,,,,,BR,OVC,9000,,,,,,,MVFR,,,,,,,,,,,,METAR,8.0
KTMK 180810Z AUTO 00000KT 5SM BR SCT009 OVC100 03/03 A3027 RMK AO2,KTMK,2023-02-18T08:10:00Z,45.42,-123.82,3.0,3.0,0,0,,5.0,30.268702,,,TRUE,TRUE,,,,,,BR,SCT,900,OVC,10000,,,,,MVFR,,,,,,,,,,,,SPECI,8.0
KTMK 180750Z AUTO 00000KT 4SM BR OVC110 03/03 A3027 RMK AO2,KTMK,2023-02-18T07:50:00Z,45.42,-123.82,3.0,3.0,0,0,,4.0,30.268702,,,TRUE,TRUE,,,,,,BR,OVC,11000,,,,,,,MVFR,,,,,,,,,,,,METAR,8.0
KTMK 180730Z AUTO 00000KT 2 1/2SM BR OVC120 04/03 A3026 RMK AO2,KTMK,2023-02-18T07:30:00Z,45.42,-123.82,4.0,3.0,0,0,,2.5,30.259842,,,TRUE,TRUE,,,,,,BR,OVC,12000,,,,,,,IFR,,,,,,,,,,,,SPECI,8.0
KTMK 180710Z AUTO 00000KT 7SM BKN120 04/03 A3027 RMK AO2,KTMK,2023-02-18T07:10:00Z,45.42,-123.82,4.0,3.0,0,0,,7.0,30.268702,,,TRUE,TRUE,,,,,,,BKN,12000,,,,,,,VFR,,,,,,,,,,,,METAR,8.0
KTMK 180650Z AUTO 00000KT 7SM SCT120 04/03 A3027 RMK AO2,KTMK,2023-02-18T06:50:00Z,45.42,-123.82,4.0,3.0,0,0,,7.0,30.268702,,,TRUE,TRUE,,,,,,,SCT,12000,,,,,,,VFR,,,,,,,,,,,,METAR,8.0
KTMK 180630Z AUTO 00000KT 2 1/2SM BR CLR 04/03 A3028 RMK AO2 VIS 1 1/4V5,KTMK,2023-02-18T06:30:00Z,45.42,-123.82,4.0,3.0,0,0,,2.5,30.280512,,,TRUE,TRUE,,,,,,BR,CLR,,,,,,,,IFR,,,,,,,,,,,,SPECI,8.0
KTMK 180610Z AUTO 00000KT 2SM BR SCT011 BKN031 04/03 A3027 RMK AO2,KTMK,2023-02-18T06:10:00Z,45.42,-123.82,4.0,3.0,0,0,,2.0,30.268702,,,TRUE,TRUE,,,,,,BR,SCT,1100,BKN,3100,,,,,IFR,,,,,,,,,,,,METAR,8.0
KTMK 180550Z AUTO 18003KT 5SM BR OVC031 05/04 A3027 RMK AO2,KTMK,2023-02-18T05:50:00Z,45.42,-123.82,5.0,4.0,180,3,,5.0,30.268702,,,TRUE,TRUE,,,,,,BR,OVC,3100,,,,,,,MVFR,,,,,,,,,,,,SPECI,8.0
KTMK 180530Z AUTO 00000KT 5SM BR OVC029 06/05 A3028 RMK AO2,KTMK,2023-02-18T05:30:00Z,45.42,-123.82,6.0,5.0,0,0,,5.0,30.280512,,,TRUE,TRUE,,,,,,BR,OVC,2900,,,,,,,MVFR,,,,,,,,,,,,METAR,8.0
KTMK 180510Z AUTO 00000KT 7SM BKN029 OVC049 05/04 A3028 RMK AO2,KTMK,2023-02-18T05:10:00Z,45.42,-123.82,5.0,4.0,0,0,,7.0,30.280512,,,TRUE,TRUE,,,,,,,BKN,2900,OVC,4900,,,,,MVFR,,,,,,,,,,,,METAR,8.0
KTMK 180450Z AUTO 00000KT 5SM BR SCT029 OVC049 05/05 A3028 RMK AO2,KTMK,2023-02-18T04:50:00Z,45.42,-123.82,5.0,5.0,0,0,,5.0,30.280512,,,TRUE,TRUE,,,,,,BR,SCT,2900,OVC,4900,,,,,MVFR,,,,,,,,,,,,METAR,8.0
KTMK 180430Z AUTO 00000KT 10SM SCT027 OVC049 06/05 A3027 RMK AO2,KTMK,2023-02-18T04:30:00Z,45.42,-123.82,6.0,5.0,0,0,,10.0,30.268702,,,TRUE,TRUE,,,,,,,SCT,2700,OVC,4900,,,,,VFR,,,,,,,,,,,,SPECI,8.0
KTMK 180410Z AUTO 00000KT 10SM BKN025 OVC047 06/06 A3027 RMK AO2,KTMK,2023-02-18T04:10:00Z,45.42,-123.82,6.0,6.0,0,0,,10.0,30.268702,,,TRUE,TRUE,,,,,,,BKN,2500,OVC,4700,,,,,MVFR,,,,,,,,,,,,SPECI,8.0
KTMK 180350Z AUTO 00000KT 10SM OVC025 06/06 A3027 RMK AO2,KTMK,2023-02-18T03:50:00Z,45.42,-123.82,6.0,6.0,0,0,,10.0,30.268702,,,TRUE,TRUE,,,,,,,OVC,2500,,,,,,,MVFR,,,,,,,,,,,,SPECI,8.0
KTMK 180330Z AUTO 00000KT 10SM OVC023 06/06 A3027 RMK AO2,KTMK,2023-02-18T03:30:00Z,45.42,-123.82,6.0,6.0,0,0,,10.0,30.268702,,,TRUE,TRUE,,,,,,,OVC,2300,,,,,,,MVFR,,,,,,,,,,,,SPECI,8.0
KTMK 180310Z AUTO 00000KT 10SM OVC019 07/06 A3026 RMK AO2,KTMK,2023-02-18T03:10:00Z,45.42,-123.82,7.0,6.0,0,0,,10.0,30.259842,,,TRUE,TRUE,,,,,,,OVC,1900,,,,,,,MVFR,,,,,,,,,,,,SPECI,8.0
KTMK 180255Z AUTO 00000KT 10SM OVC017 07/06 A3026 RMK AO2,KTMK,2023-02-18T02:55:00Z,45.42,-123.82,7.0,6.0,0,0,,10.0,30.259842,,,TRUE,TRUE,,,,,,,OVC,1700,,,,,,,MVFR,,,,,,,,,,,,METAR,8.0
KTMK 180230Z AUTO 00000KT 10SM OVC011 07/06 A3027 RMK AO2,KTMK,2023-02-18T02:30:00Z,45.42,-123.82,7.0,6.0,0,0,,10.0,30.268702,,,TRUE,TRUE,,,,,,,OVC,1100,,,,,,,MVFR,,,,,,,,,,,,SPECI,8.0
KTMK 180210Z AUTO 28007KT 10SM OVC009 07/06 A3027 RMK AO2,KTMK,2023-02-18T02:10:00Z,45.42,-123.82,7.0,6.0,280,7,,10.0,30.268702,,,TRUE,TRUE,,,,,,,OVC,900,,,,,,,IFR,,,,,,,,,,,,METAR,8.0
KTMK 180150Z AUTO 30006KT 10SM OVC009 07/06 A3027 RMK AO2,KTMK,2023-02-18T01:50:00Z,45.42,-123.82,7.0,6.0,300,6,,10.0,30.268702,,,TRUE,TRUE,,,,,,,OVC,900,,,,,,,IFR,,,,,,,,,,,,METAR,8.0
KTMK 180130Z AUTO 30007KT 7SM OVC009 07/06 A3027 RMK AO2,KTMK,2023-02-18T01:30:00Z,45.42,-123.82,7.0,6.0,300,7,,7.0,30.268702,,,TRUE,TRUE,,,,,,,OVC,900,,,,,,,IFR,,,,,,,,,,,,METAR,8.0
KTMK 180110Z AUTO 28004KT 10SM SCT007 OVC011 08/07 A3028 RMK AO2,KTMK,2023-02-18T01:10:00Z,45.42,-123.82,8.0,7.0,280,4,,10.0,30.280512,,,TRUE,TRUE,,,,,,,SCT,700,OVC,1100,,,,,MVFR,,,,,,,,,,,,SPECI,8.0
KTMK 180050Z AUTO 00000KT 5SM BR BKN007 OVC011 08/07 A3027 RMK AO2 P0001,KTMK,2023-02-18T00:50:00Z,45.42,-123.82,8.0,7.0,0,0,,5.0,30.268702,,,TRUE,TRUE,,,,,,BR,BKN,700,OVC,1100,,,,,IFR,,,,,,0.01,,,,,,METAR,8.0
KTMK 180030Z AUTO 00000KT 2SM -RA OVC007 08/07 A3026 RMK AO2 P0001,KTMK,2023-02-18T00:30:00Z,45.42,-123.82,8.0,7.0,0,0,,2.0,30.259842,,,TRUE,TRUE,,,,,,-RA,OVC,700,,,,,,,IFR,,,,,,0.01,,,,,,METAR,8.0
KTMK 180010Z AUTO 15003KT 4SM -RA BKN009 OVC013 08/07 A3026 RMK AO2,KTMK,2023-02-18T00:10:00Z,45.42,-123.82,8.0,7.0,150,3,,4.0,30.259842,,,TRUE,TRUE,,,,,,-RA,BKN,900,OVC,1300,,,,,IFR,,,,,,,,,,,,SPECI,8.0
KTMK 172350Z AUTO 14005KT 7SM SCT007 OVC013 09/07 A3027 RMK AO2,KTMK,2023-02-17T23:50:00Z,45.42,-123.82,9.0,7.0,140,5,,7.0,30.268702,,,TRUE,TRUE,,,,,,,SCT,700,OVC,1300,,,,,MVFR,,,,,,,,,,,,METAR,8.0
KTMK 172330Z AUTO 21004KT 5SM BR OVC013 09/07 A3027 RMK AO2,KTMK,2023-02-17T23:30:00Z,45.42,-123.82,9.0,7.0,210,4,,5.0,30.268702,,,TRUE,TRUE,,,,,,BR,OVC,1300,,,,,,,MVFR,,,,,,,,,,,,SPECI,8.0
KTMK 172310Z AUTO 24004KT 10SM SCT009 OVC015 09/07 A3028 RMK AO2,KTMK,2023-02-17T23:10:00Z,45.42,-123.82,9.0,7.0,240,4,,10.0,30.280512,,,TRUE,TRUE,,,,,,,SCT,900,OVC,1500,,,,,MVFR,,,,,,,,,,,,SPECI,8.0
KTMK 172250Z AUTO 00000KT 7SM BKN011 OVC017 08/07 A3029 RMK AO2,KTMK,2023-02-17T22:50:00Z,45.42,-123.82,8.0,7.0,0,0,,7.0,30.28937,,,TRUE,TRUE,,,,,,,BKN,1100,OVC,1700,,,,,MVFR,,,,,,,,,,,,SPECI,8.0
KTMK 172230Z AUTO 00000KT 7SM OVC019 08/07 A3028 RMK AO2,KTMK,2023-02-17T22:30:00Z,45.42,-123.82,8.0,7.0,0,0,,7.0,30.280512,,,TRUE,TRUE,,,,,,,OVC,1900,,,,,,,MVFR,,,,,,,,,,,,SPECI,8.0
KTMK 172210Z AUTO 00000KT 1 3/4SM -DZ BKN015 OVC021 08/07 A3028 RMK AO2,KTMK,2023-02-17T22:10:00Z,45.42,-123.82,8.0,7.0,0,0,,1.75,30.280512,,,TRUE,TRUE,,,,,,-DZ,BKN,1500,OVC,2100,,,,,IFR,,,,,,,,,,,,METAR,8.0
KTMK 172150Z AUTO 33004KT 2 1/2SM DZ BKN015 OVC020 08/07 A3029 RMK AO2 VIS 2V4,KTMK,2023-02-17T21:50:00Z,45.42,-123.82,8.0,7.0,330,4,,2.5,30.28937,,,TRUE,TRUE,,,,,,DZ,BKN,1500,OVC,2000,,,,,IFR,,,,,,,,,,,,SPECI,8.0
KTMK 172130Z AUTO 25006KT 10SM BKN021 BKN029 OVC033 10/06 A3030 RMK AO2,KTMK,2023-02-17T21:30:00Z,45.42,-123.82,10.0,6.0,250,6,,10.0,30.301182,,,TRUE,TRUE,,,,,,,BKN,2100,BKN,2900,OVC,3300,,,MVFR,,,,,,,,,,,,METAR,8.0
KTMK 172110Z AUTO 19004KT 10SM BKN025 OVC037 10/06 A3029 RMK AO2,KTMK,2023-02-17T21:10:00Z,45.42,-123.82,10.0,6.0,190,4,,10.0,30.28937,,,TRUE,TRUE,,,,,,,BKN,2500,OVC,3700,,,,,MVFR,,,,,,,,,,,,SPECI,8.0
KTMK 172050Z AUTO 19006KT 10SM SCT019 OVC025 10/06 A3029 RMK AO2,KTMK,2023-02-17T20:50:00Z,45.42,-123.82,10.0,6.0,190,6,,10.0,30.28937,,,TRUE,TRUE,,,,,,,SCT,1900,OVC,2500,,,,,MVFR,,,,,,,,,,,,METAR,8.0
KTMK 172030Z AUTO 13005KT 10SM SCT019 BKN025 OVC042 09/06 A3030 RMK AO2,KTMK,2023-02-17T20:30:00Z,45.42,-123.82,9.0,6.0,130,5,,10.0,30.301182,,,TRUE,TRUE,,,,,,,SCT,1900,BKN,2500,OVC,4200,,,MVFR,,,,,,,,,,,,SPECI,8.0
KTMK 172010Z AUTO 17003KT 7SM SCT008 BKN024 OVC032 09/06 A3030 RMK AO2,KTMK,2023-02-17T20:10:00Z,45.42,-123.82,9.0,6.0,170,3,,7.0,30.301182,,,TRUE,TRUE,,,,,,,SCT,800,BKN,2400,OVC,3200,,,MVFR,,,,,,,,,,,,METAR,8.0
KTMK 171950Z AUTO 00000KT 7SM BKN022 OVC029 08/05 A3032 RMK AO2,KTMK,2023-02-17T19:50:00Z,45.42,-123.82,8.0,5.0,0,0,,7.0,30.318897,,,TRUE,TRUE,,,,,,,BKN,2200,OVC,2900,,,,,MVFR,,,,,,,,,,,,METAR,8.0
KTMK 171930Z AUTO 00000KT 10SM OVC024 08/04 A3032 RMK AO2,KTMK,2023-02-17T19:30:00Z,45.42,-123.82,8.0,4.0,0,0,,10.0,30.318897,,,TRUE,TRUE,,,,,,,OVC,2400,,,,,,,MVFR,,,,,,,,,,,,METAR,8.0
KTMK 171910Z AUTO 00000KT 10SM BKN020 OVC028 08/04 A3031 RMK AO2,KTMK,2023-02-17T19:10:00Z,45.42,-123.82,8.0,4.0,0,0,,10.0,30.31004,,,TRUE,TRUE,,,,,,,BKN,2000,OVC,2800,,,,,MVFR,,,,,,,,,,,,SPECI,8.0
KTMK 171850Z AUTO 00000KT 10SM OVC028 08/03 A3030 RMK AO2,KTMK,2023-02-17T18:50:00Z,45.42,-123.82,8.0,3.0,0,0,,10.0,30.301182,,,TRUE,TRUE,,,,,,,OVC,2800,,,,,,,MVFR,,,,,,,,,,,,SPECI,8.0
KTMK 171810Z AUTO 00000KT 10SM BKN023 BKN029 OVC036 07/02 A3031 RMK AO2,KTMK,2023-02-17T18:10:00Z,45.42,-123.82,7.0,2.0,0,0,,10.0,30.31004,,,TRUE,TRUE,,,,,,,BKN,2300,BKN,2900,OVC,3600,,,MVFR,,,,,,,,,,,,METAR,8.0
KTMK 171750Z AUTO 17003KT 10SM BKN024 BKN028 OVC036 06/03 A3031 RMK AO2,KTMK,2023-02-17T17:50:00Z,45.42,-123.82,6.0,3.0,170,3,,10.0,30.31004,,,TRUE,TRUE,,,,,,,BKN,2400,BKN,2800,OVC,3600,,,MVFR,,,,,,,,,,,,METAR,8.0
KTMK 171730Z AUTO 00000KT 10SM OVC024 06/03 A3032 RMK AO2,KTMK,2023-02-17T17:30:00Z,45.42,-123.82,6.0,3.0,0,0,,10.0,30.318897,,,TRUE,TRUE,,,,,,,OVC,2400,,,,,,,MVFR,,,,,,,,,,,,METAR,8.0
KTMK 171710Z AUTO 00000KT 10SM OVC022 06/02 A3031 RMK AO2,KTMK,2023-02-17T17:10:00Z,45.42,-123.82,6.0,2.0,0,0,,10.0,30.31004,,,TRUE,TRUE,,,,,,,OVC,2200,,,,,,,MVFR,,,,,,,,,,,,METAR,8.0
KTMK 171650Z AUTO 00000KT 7SM BKN022 OVC027 05/02 A3030 RMK AO2,KTMK,2023-02-17T16:50:00Z,45.42,-123.82,5.0,2.0,0,0,,7.0,30.301182,,,TRUE,TRUE,,,,,,,BKN,2200,OVC,2700,,,,,MVFR,,,,,,,,,,,,SPECI,8.0
KTMK 171630Z AUTO 00000KT 10SM OVC022 05/02 A3030 RMK AO2,KTMK,2023-02-17T16:30:00Z,45.42,-123.82,5.0,2.0,0,0,,10.0,30.301182,,,TRUE,TRUE,,,,,,,OVC,2200,,,,,,,MVFR,,,,,,,,,,,,SPECI,8.0
KTMK 171610Z AUTO 00000KT 10SM OVC024 05/02 A3030 RMK AO2,KTMK,2023-02-17T16:10:00Z,45.42,-123.82,5.0,2.0,0,0,,10.0,30.301182,,,TRUE,TRUE,,,,,,,OVC,2400,,,,,,,MVFR,,,,,,,,,,,,METAR,8.0
KTMK 171550Z AUTO 00000KT 10SM OVC026 05/02 A3029 RMK AO2,KTMK,2023-02-17T15:50:00Z,45.42,-123.82,5.0,2.0,0,0,,10.0,30.28937,,,TRUE,TRUE,,,,,,,OVC,2600,,,,,,,MVFR,,,,,,,,,,,,SPECI,8.0
KTMK 171530Z AUTO 00000KT 10SM BKN026 OVC033 04/02 A3029 RMK AO2,KTMK,2023-02-17T15:30:00Z,45.42,-123.82,4.0,2.0,0,0,,10.0,30.28937,,,TRUE,TRUE,,,,,,,BKN,2600,OVC,3300,,,,,MVFR,,,,,,,,,,,,SPECI,8.0
KTMK 171510Z AUTO 00000KT 10SM SCT023 OVC032 04/02 A3028 RMK AO2,KTMK,2023-02-17T15:10:00Z,45.42,-123.82,4.0,2.0,0,0,,10.0,30.280512,,,TRUE,TRUE,,,,,,,SCT,2300,OVC,3200,,,,,VFR,,,,,,,,,,,,METAR,8.0
KTMK 171450Z AUTO 13003KT 10SM SCT025 BKN034 OVC040 05/02 A3027 RMK AO2,KTMK,2023-02-17T14:50:00Z,45.42,-123.82,5.0,2.0,130,3,,10.0,30.268702,,,TRUE,TRUE,,,,,,,SCT,2500,BKN,3400,OVC,4000,,,VFR,,,,,,,,,,,,METAR,8.0
KTMK 171430Z AUTO 00000KT 10SM SCT025 OVC036 04/03 A3027 RMK AO2,KTMK,2023-02-17T14:30:00Z,45.42,-123.82,4.0,3.0,0,0,,10.0,30.268702,,,TRUE,TRUE,,,,,,,SCT,2500,OVC,3600,,,,,VFR,,,,,,,,,,,,METAR,8.0
KTMK 171410Z AUTO 00000KT 10SM OVC036 04/02 A3027 RMK AO2,KTMK,2023-02-17T14:10:00Z,45.42,-123.82,4.0,2.0,0,0,,10.0,30.268702,,,TRUE,TRUE,,,,,,,OVC,3600,,,,,,,VFR,,,,,,,,,,,,SPECI,8.0
KTMK 171350Z AUTO 00000KT 10SM OVC036 04/03 A3027 RMK AO2,KTMK,2023-02-17T13:50:00Z,45.42,-123.82,4.0,3.0,0,0,,10.0,30.268702,,,TRUE,TRUE,,,,,,,OVC,3600,,,,,,,VFR,,,,,,,,,,,,METAR,8.0
KTMK 171335Z AUTO 14003KT 10SM OVC038 04/02 A3027 RMK AO2,KTMK,2023-02-17T13:35:00Z,45.42,-123.82,4.0,2.0,140,3,,10.0,30.268702,,,TRUE,TRUE,,,,,,,OVC,3800,,,,,,,VFR,,,,,,,,,,,,METAR,8.0
KTMK 171310Z AUTO 00000KT 10SM BKN043 OVC100 04/02 A3027 RMK AO2,KTMK,2023-02-17T13:10:00Z,45.42,-123.82,4.0,2.0,0,0,,10.0,30.268702,,,TRUE,TRUE,,,,,,,BKN,4300,OVC,10000,,,,,VFR,,,,,,,,,,,,METAR,8.0
KTMK 171255Z AUTO 00000KT 10SM SCT039 SCT047 OVC100 04/02 A3027 RMK AO2,KTMK,2023-02-17T12:55:00Z,45.42,-123.82,4.0,2.0,0,0,,10.0,30.268702,,,TRUE,TRUE,,,,,,,SCT,3900,SCT,4700,OVC,10000,,,VFR,,,,,,,,,,,,METAR,8.0
KTMK 171230Z AUTO 15003KT 10SM BKN035 OVC100 03/02 A3026 RMK AO2,KTMK,2023-02-17T12:30:00Z,45.42,-123.82,3.0,2.0,150,3,,10.0,30.259842,,,TRUE,TRUE,,,,,,,BKN,3500,OVC,10000,,,,,VFR,,,,,,,,,,,,SPECI,8.0
KTMK 171210Z AUTO 13003KT 10SM BKN037 OVC043 04/02 A3026 RMK AO2,KTMK,2023-02-17T12:10:00Z,45.42,-123.82,4.0,2.0,130,3,,10.0,30.259842,,,TRUE,TRUE,,,,,,,BKN,3700,OVC,4300,,,,,VFR,,,,,,,,,,,,METAR,8.0
KTMK 171155Z AUTO 00000KT 10SM BKN041 OVC046 04/02 A3026 RMK AO2,KTMK,2023-02-17T11:55:00Z,45.42,-123.82,4.0,2.0,0,0,,10.0,30.259842,,,TRUE,TRUE,,,,,,,BKN,4100,OVC,4600,,,,,VFR,,,,,,,,,,,,SPECI,8.0
KTMK 171130Z AUTO 10003KT 10SM OVC038 05/03 A3027 RMK AO2,KTMK,2023-02-17T11:30:00Z,45.42,-123.82,5.0,3.0,100,3,,10.0,30.268702,,,TRUE,TRUE,,,,,,,OVC,3800,,,,,,,VFR,,,,,,,,,,,,SPECI,8.0
KTMK 171110Z AUTO 00000KT 10SM OVC036 04/03 A3027 RMK AO2,KTMK,2023-02-17T11:10:00Z,45.42,-123.82,4.0,3.0,0,0,,10.0,30.268702,,,TRUE,TRUE,,,,,,,OVC,3600,,,,,,,VFR,,,,,,,,,,,,METAR,8.0
KTMK 171050Z AUTO 00000KT 10SM BKN038 OVC047 04/03 A3027 RMK AO2,KTMK,2023-02-17T10:50:00Z,45.42,-123.82,4.0,3.0,0,0,,10.0,30.268702,,,TRUE,TRUE,,,,,,,BKN,3800,OVC,4700,,,,,VFR,,,,,,,,,,,,METAR,8.0
KTMK 171030Z AUTO 00000KT 10SM SCT042 OVC050 04/02 A3028 RMK AO2,KTMK,2023-02-17T10:30:00Z,45.42,-123.82,4.0,2.0,0,0,,10.0,30.280512,,,TRUE,TRUE,,,,,,,SCT,4200,OVC,5000,,,,,VFR,,,,,,,,,,,,SPECI,8.0
KTMK 171010Z AUTO 00000KT 10SM BKN043 OVC049 04/03 A3027 RMK AO2,KTMK,2023-02-17T10:10:00Z,45.42,-123.82,4.0,3.0,0,0,,10.0,30.268702,,,TRUE,TRUE,,,,,,,BKN,4300,OVC,4900,,,,,VFR,,,,,,,,,,,,METAR,8.0
KTMK 170950Z AUTO 00000KT 10SM OVC043 04/03 A3027 RMK AO2,KTMK,2023-02-17T09:50:00Z,45.42,-123.82,4.0,3.0,0,0,,10.0,30.268702,,,TRUE,TRUE,,,,,,,OVC,4300,,,,,,,VFR,,,,,,,,,,,,METAR,8.0
KTMK 170930Z AUTO 00000KT 10SM BKN043 OVC090 04/03 A3026 RMK AO2,KTMK,2023-02-17T09:30:00Z,45.42,-123.82,4.0,3.0,0,0,,10.0,30.259842,,,TRUE,TRUE,,,,,,,BKN,4300,OVC,9000,,,,,VFR,,,,,,,,,,,,SPECI,8.0
KTMK 170910Z AUTO 00000KT 10SM SCT045 OVC090 04/03 A3026 RMK AO2,KTMK,2023-02-17T09:10:00Z,45.42,-123.82,4.0,3.0,0,0,,10.0,30.259842,,,TRUE,TRUE,,,,,,,SCT,4500,OVC,9000,,,,,VFR,,,,,,,,,,,,METAR,8.0
KTMK 170855Z AUTO 00000KT 10SM BKN045 OVC090 04/03 A3026 RMK AO2,KTMK,2023-02-17T08:55:00Z,45.42,-123.82,4.0,3.0,0,0,,10.0,30.259842,,,TRUE,TRUE,,,,,,,BKN,4500,OVC,9000,,,,,VFR,,,,,,,,,,,,METAR,8.0
KTMK 170830Z AUTO 00000KT 10SM SCT045 OVC085 04/03 A3025 RMK AO2,KTMK,2023-02-17T08:30:00Z,45.42,-123.82,4.0,3.0,0,0,,10.0,30.250984,,,TRUE,TRUE,,,,,,,SCT,4500,OVC,8500,,,,,VFR,,,,,,,,,,,,SPECI,8.0
KTMK 170810Z AUTO 00000KT 10SM BKN075 OVC095 04/03 A3025 RMK AO2,KTMK,2023-02-17T08:10:00Z,45.42,-123.82,4.0,3.0,0,0,,10.0,30.250984,,,TRUE,TRUE,,,,,,,BKN,7500,OVC,9500,,,,,VFR,,,,,,,,,,,,SPECI,8.0
KTMK 170755Z AUTO 00000KT 10SM OVC075 05/02 A3025 RMK AO2,KTMK,2023-02-17T07:55:00Z,45.42,-123.82,5.0,2.0,0,0,,10.0,30.250984,,,TRUE,TRUE,,,,,,,OVC,7500,,,,,,,VFR,,,,,,,,,,,,METAR,8.0
KTMK 170730Z AUTO 00000KT 10SM OVC075 05/03 A3024 RMK AO2,KTMK,2023-02-17T07:30:00Z,45.42,-123.82,5.0,3.0,0,0,,10.0,30.239174,,,TRUE,TRUE,,,,,,,OVC,7500,,,,,,,VFR,,,,,,,,,,,,SPECI,8.0
KTMK 170710Z AUTO 00000KT 10SM OVC075 05/03 A3024 RMK AO2,KTMK,2023-02-17T07:10:00Z,45.42,-123.82,5.0,3.0,0,0,,10.0,30.239174,,,TRUE,TRUE,,,,,,,OVC,7500,,,,,,,VFR,,,,,,,,,,,,METAR,8.0
KTMK 170650Z AUTO 00000KT 10SM OVC065 05/03 A3024 RMK AO2,KTMK,2023-02-17T06:50:00Z,45.42,-123.82,5.0,3.0,0,0,,10.0,30.239174,,,TRUE,TRUE,,,,,,,OVC,6500,,,,,,,VFR,,,,,,,,,,,,METAR,8.0
KTMK 170630Z AUTO 15003KT 10SM OVC075 05/03 A3023 RMK AO2,KTMK,2023-02-17T06:30:00Z,45.42,-123.82,5.0,3.0,150,3,,10.0,30.230314,,,TRUE,TRUE,,,,,,,OVC,7500,,,,,,,VFR,,,,,,,,,,,,METAR,8.0
KTMK 170610Z AUTO 00000KT 10SM OVC065 05/03 A3023 RMK AO2,KTMK,2023-02-17T06:10:00Z,45.42,-123.82,5.0,3.0,0,0,,10.0,30.230314,,,TRUE,TRUE,,,,,,,OVC,6500,,,,,,,VFR,,,,,,,,,,,,SPECI,8.0
KTMK 170555Z AUTO 00000KT 10SM OVC065 05/03 A3023 RMK AO2,KTMK,2023-02-17T05:55:00Z,45.42,-123.82,5.0,3.0,0,0,,10.0,30.230314,,,TRUE,TRUE,,,,,,,OVC,6500,,,,,,,VFR,,,,,,,,,,,,METAR,8.0
KTMK 170530Z AUTO 00000KT 10SM OVC055 05/03 A3023 RMK AO2,KTMK,2023-02-17T05:30:00Z,45.42,-123.82,5.0,3.0,0,0,,10.0,30.230314,,,TRUE,TRUE,,,,,,,OVC,5500,,,,,,,VFR,,,,,,,,,,,,SPECI,8.0
KTMK 170510Z AUTO 00000KT 10SM OVC055 05/03 A3022 RMK AO2,KTMK,2023-02-17T05:10:00Z,45.42,-123.82,5.0,3.0,0,0,,10.0,30.221457,,,TRUE,TRUE,,,,,,,OVC,5500,,,,,,,VFR,,,,,,,,,,,,SPECI,8.0
KTMK 170450Z AUTO 00000KT 10SM BKN055 OVC075 06/02 A3022 RMK AO2,KTMK,2023-02-17T04:50:00Z,45.42,-123.82,6.0,2.0,0,0,,10.0,30.221457,,,TRUE,TRUE,,,,,,,BKN,5500,OVC,7500,,,,,VFR,,,,,,,,,,,,SPECI,8.0
KTMK 170435Z AUTO 00000KT 10SM OVC075 06/02 A3022 RMK AO2,KTMK,2023-02-17T04:35:00Z,45.42,-123.82,6.0,2.0,0,0,,10.0,30.221457,,,TRUE,TRUE,,,,,,,OVC,7500,,,,,,,VFR,,,,,,,,,,,,SPECI,8.0
KTMK 170410Z AUTO 00000KT 10SM OVC075 06/03 A3022 RMK AO2,KTMK,2023-02-17T04:10:00Z,45.42,-123.82,6.0,3.0,0,0,,10.0,30.221457,,,TRUE,TRUE,,,,,,,OVC,7500,,,,,,,VFR,,,,,,,,,,,,SPECI,8.0
KTMK 170355Z AUTO 00000KT 10SM SCT055 OVC075 06/03 A3021 RMK AO2,KTMK,2023-02-17T03:55:00Z,45.42,-123.82,6.0,3.0,0,0,,10.0,30.209646,,,TRUE,TRUE,,,,,,,SCT,5500,OVC,7500,,,,,VFR,,,,,,,,,,,,METAR,8.0
KTMK 170330Z AUTO 08003KT 10SM OVC050 06/03 A3022 RMK AO2,KTMK,2023-02-17T03:30:00Z,45.42,-123.82,6.0,3.0,80,3,,10.0,30.221457,,,TRUE,TRUE,,,,,,,OVC,5000,,,,,,,VFR,,,,,,,,,,,,SPECI,8.0
KTMK 170310Z AUTO 05004KT 10SM OVC050 07/02 A3022 RMK AO2,KTMK,2023-02-17T03:10:00Z,45.42,-123.82,7.0,2.0,50,4,,10.0,30.221457,,,TRUE,TRUE,,,,,,,OVC,5000,,,,,,,VFR,,,,,,,,,,,,SPECI,8.0
KTMK 170255Z AUTO 00000KT 10SM OVC050 07/02 A3022 RMK AO2,KTMK,2023-02-17T02:55:00Z,45.42,-123.82,7.0,2.0,0,0,,10.0,30.221457,,,TRUE,TRUE,,,,,,,OVC,5000,,,,,,,VFR,,,,,,,,,,,,METAR,8.0
KTMK 170230Z AUTO 00000KT 10SM OVC060 07/02 A3022 RMK AO2,KTMK,2023-02-17T02:30:00Z,45.42,-123.82,7.0,2.0,0,0,,10.0,30.221457,,,TRUE,TRUE,,,,,,,OVC,6000,,,,,,,VFR,,,,,,,,,,,,SPECI,8.0
KTMK 170210Z AUTO 18003KT 10SM SCT045 OVC060 07/02 A3021 RMK AO2,KTMK,2023-02-17T02:10:00Z,45.42,-123.82,7.0,2.0,180,3,,10.0,30.209646,,,TRUE,TRUE,,,,,,,SCT,4500,OVC,6000,,,,,VFR,,,,,,,,,,,,METAR,8.0
KTMK 170155Z AUTO 20004KT 10SM BKN043 OVC060 08/02 A3021 RMK AO2,KTMK,2023-02-17T01:55:00Z,45.42,-123.82,8.0,2.0,200,4,,10.0,30.209646,,,TRUE,TRUE,,,,,,,BKN,4300,OVC,6000,,,,,VFR,,,,,,,,,,,,METAR,8.0
KTMK 170130Z AUTO 24003KT 10SM BKN043 OVC048 08/02 A3020 RMK AO2,KTMK,2023-02-17T01:30:00Z,45.42,-123.82,8.0,2.0,240,3,,10.0,30.200787,,,TRUE,TRUE,,,,,,,BKN,4300,OVC,4800,,,,,VFR,,,,,,,,,,,,SPECI,8.0
KTMK 170110Z AUTO 00000KT 10SM SCT047 SCT075 OVC080 09/02 A3020 RMK AO2,KTMK,2023-02-17T01:10:00Z,45.42,-123.82,9.0,2.0,0,0,,10.0,30.200787,,,TRUE,TRUE,,,,,,,SCT,4700,SCT,7500,OVC,8000,,,VFR,,,,,,,,,,,,SPECI,8.0
KTMK 170050Z AUTO 00000KT 10SM SCT044 SCT060 OVC075 09/02 A3020 RMK AO2,KTMK,2023-02-17T00:50:00Z,45.42,-123.82,9.0,2.0,0,0,,10.0,30.200787,,,TRUE,TRUE,,,,,,,SCT,4400,SCT,6000,OVC,7500,,,VFR,,,,,,,,,,,,METAR,8.0
KTMK 170030Z AUTO 00000KT 10SM SCT043 SCT070 OVC085 09/01 A3020 RMK AO2,KTMK,2023-02-17T00:30:00Z,45.42,-123.82,9.0,1.0,0,0,,10.0,30.200787,,,TRUE,TRUE,,,,,,,SCT,4300,SCT,7000,OVC,8500,,,VFR,,,,,,,,,,,,SPECI,8.0
KTMK 170010Z AUTO 00000KT 10SM SCT043 OVC085 09/02 A3020 RMK AO2,KTMK,2023-02-17T00:10:00Z,45.42,-123.82,9.0,2.0,0,0,,10.0,30.200787,,,TRUE,TRUE,,,,,,,SCT,4300,OVC,8500,,,,,VFR,,,,,,,,,,,,SPECI,8.0
KTMK 162350Z AUTO 21003KT 10SM SCT040 OVC085 09/02 A3020 RMK AO2,KTMK,2023-02-16T23:50:00Z,45.42,-123.82,9.0,2.0,210,3,,10.0,30.200787,,,TRUE,TRUE,,,,,,,SCT,4000,OVC,8500,,,,,VFR,,,,,,,,,,,,METAR,8.0
KTMK 162330Z AUTO 19006KT 10SM SCT040 OVC085 09/02 A3020 RMK AO2,KTMK,2023-02-16T23:30:00Z,45.42,-123.82,9.0,2.0,190,6,,10.0,30.200787,,,TRUE,TRUE,,,,,,,SCT,4000,OVC,8500,,,,,VFR,,,,,,,,,,,,METAR,8.0
KTMK 162310Z AUTO 20004KT 10SM SCT075 OVC080 09/02 A3019 RMK AO2,KTMK,2023-02-16T23:10:00Z,45.42,-123.82,9.0,2.0,200,4,,10.0,30.188976,,,TRUE,TRUE,,,,,,,SCT,7500,OVC,8000,,,,,VFR,,,,,,,,,,,,METAR,8.0
KTMK 162250Z AUTO 00000KT 10SM SCT070 OVC080 09/01 A3019 RMK AO2,KTMK,2023-02-16T22:50:00Z,45.42,-123.82,9.0,1.0,0,0,,10.0,30.188976,,,TRUE,TRUE,,,,,,,SCT,7000,OVC,8000,,,,,VFR,,,,,,,,,,,,SPECI,8.0
KTMK 162230Z AUTO 15004KT 10SM OVC080 09/02 A3019 RMK AO2,KTMK,2023-02-16T22:30:00Z,45.42,-123.82,9.0,2.0,150,4,,10.0,30.188976,,,TRUE,TRUE,,,,,,,OVC,8000,,,,,,,VFR,,,,,,,,,,,,SPECI,8.0
KTMK 162210Z AUTO 14004KT 10SM OVC080 09/02 A3019 RMK AO2,KTMK,2023-02-16T22:10:00Z,45.42,-123.82,9.0,2.0,140,4,,10.0,30.188976,,,TRUE,TRUE,,,,,,,OVC,8000,,,,,,,VFR,,,,,,,,,,,,SPECI,8.0
KTMK 162150Z AUTO 13004KT 10SM SCT070 OVC080 09/01 A3019 RMK AO2,KTMK,2023-02-16T21:50:00Z,45.42,-123.82,9.0,1.0,130,4,,10.0,30.188976,,,TRUE,TRUE,,,,,,,SCT,7000,OVC,8000,,,,,VFR,,,,,,,,,,,,SPECI,8.0
KTMK 162130Z AUTO 00000KT 10SM OVC080 09/01 A3019 RMK AO2,KTMK,2023-02-16T21:30:00Z,45.42,-123.82,9.0,1.0,0,0,,10.0,30.188976,,,TRUE,TRUE,,,,,,,OVC,8000,,,,,,,VFR,,,,,,,,,,,,SPECI,8.0
KTMK 162110Z AUTO 00000KT 10SM SCT080 OVC100 08/01 A3020 RMK AO2,KTMK,2023-02-16T21:10:00Z,45.42,-123.82,8.0,1.0,0,0,,10.0,30.200787,,,TRUE,TRUE,,,,,,,SCT,8000,OVC,10000,,,,,VFR,,,,,,,,,,,,METAR,8.0
KTMK 162050Z AUTO 00000KT 10SM OVC100 08/01 A3020 RMK AO2,KTMK,2023-02-16T20:50:00Z,45.42,-123.82,8.0,1.0,0,0,,10.0,30.200787,,,TRUE,TRUE,,,,,,,OVC,10000,,,,,,,VFR,,,,,,,,,,,,METAR,8.0
KTMK 162030Z AUTO 00000KT 10SM OVC110 07/01 A3020 RMK AO2,KTMK,2023-02-16T20:30:00Z,45.42,-123.82,7.0,1.0,0,0,,10.0,30.200787,,,TRUE,TRUE,,,,,,,OVC,11000,,,,,,,VFR,,,,,,,,,,,,SPECI,8.0
KTMK 162010Z AUTO 00000KT 10SM OVC100 06/02 A3021 RMK AO2,KTMK,2023-02-16T20:10:00Z,45.42,-123.82,6.0,2.0,0,0,,10.0,30.209646,,,TRUE,TRUE,,,,,,,OVC,10000,,,,,,,VFR,,,,,,,,,,,,METAR,8.0
KTMK 161950Z AUTO 00000KT 10SM OVC090 06/02 A3022 RMK AO2,KTMK,2023-02-16T19:50:00Z,45.42,-123.82,6.0,2.0,0,0,,10.0,30.221457,,,TRUE,TRUE,,,,,,,OVC,9000,,,,,,,VFR,,,,,,,,,,,,SPECI,8.0
KTMK 161930Z AUTO 00000KT 10SM OVC090 05/01 A3022 RMK AO2,KTMK,2023-02-16T19:30:00Z,45.42,-123.82,5.0,1.0,0,0,,10.0,30.221457,,,TRUE,TRUE,,,,,,,OVC,9000,,,,,,,VFR,,,,,,,,,,,,METAR,8.0
KTMK 161910Z AUTO 00000KT 10SM OVC090 05/02 A3022 RMK AO2,KTMK,2023-02-16T19:10:00Z,45.42,-123.82,5.0,2.0,0,0,,10.0,30.221457,,,TRUE,TRUE,,,,,,,OVC,9000,,,,,,,VFR,,,,,,,,,,,,METAR,8.0
KTMK 161850Z AUTO 00000KT 10SM OVC090 03/02 A3022 RMK AO2,KTMK,2023-02-16T18:50:00Z,45.42,-123.82,3.0,2.0,0,0,,10.0,30.221457,,,TRUE,TRUE,,,,,,,OVC,9000,,,,,,,VFR,,,,,,,,,,,,METAR,8.0
